{"type":"FeatureCollection","name":"37141-18_30","features":[{"type":"Feature","id":"37141:2228-16-0322-0000","properties":{"id":"37141:2228-16-0322-0000","parcelId":"2228-16-0322-0000","countyFips":"37141","countyName":"Pender","state":"North Carolina","marketIds":["Wilmington"],"situsAddress":null,"situsCity":null,"situsZip":null,"jurisdictionCode":null,"ownerName":"NATURE CONSERVANCY","ownerName2":null,"propertyName":null,"zoningCode":null,"zoningDistrict":null,"jurisdictionPrefix":null,"dorCode":null,"acreage":147.13,"centroid":[-78.265838,34.535122],"lastSale":{"date":null,"price":null,"qualified":null},"tax":{"marketValue":113925.0,"assessedValue":113925.0,"taxableValue":null,"taxes":null},"mailingAddress":{"line1":null,"line2":null,"city":null,"state":null,"zip":null},"incomeTract":null,"incomeBlockGroup":null,"nearestRoad":null,"flu":null,"opportunityZone":null,"oz2Eligibility":null,"source":"nc-onemap-37141"},"geometry":{"type":"Polygon","coordinates":[[[-78.2633,34.54175],[-78.26531,34.53934],[-78.26458,34.53772],[-78.26455,34.53683],[-78.26367,34.53512],[-78.26361,34.5342],[-78.26284,34.5338],[-78.26179,34.53237],[-78.26209,34.53176],[-78.26265,34.53173],[-78.26279,34.53147],[-78.26229,34.5309],[-78.26243,34.52974],[-78.26298,34.52937],[-78.26565,34.52972],[-78.26782,34.53058],[-78.26954,34.532],[-78.27027,34.53228],[-78.27043,34.53283],[-78.26949,34.53438],[-78.26956,34.53547],[-78.26997,34.53638],[-78.2697,34.53648],[-78.26973,34.53815],[-78.2685,34.53924],[-78.26751,34.53909],[-78.26742,34.53814],[-78.26584,34.5406],[-78.26539,34.54034],[-78.26344,34.54187],[-78.2633,34.54175]]]}},{"type":"Feature","id":"37141:2228-21-6642-0000","properties":{"id":"37141:2228-21-6642-0000","parcelId":"2228-21-6642-0000","countyFips":"37141","countyName":"Pender","state":"North Carolina","marketIds":["Wilmington"],"situsAddress":null,"situsCity":null,"situsZip":null,"jurisdictionCode":null,"ownerName":"NATURE CONSERVANCY","ownerName2":null,"propertyName":null,"zoningCode":null,"zoningDistrict":null,"jurisdictionPrefix":null,"dorCode":null,"acreage":57.1,"centroid":[-78.259974,34.52131],"lastSale":{"date":null,"price":null,"qualified":null},"tax":{"marketValue":39675.0,"assessedValue":39675.0,"taxableValue":null,"taxes":null},"mailingAddress":{"line1":null,"line2":null,"city":null,"state":null,"zip":null},"incomeTract":null,"incomeBlockGroup":null,"nearestRoad":null,"flu":null,"opportunityZone":null,"oz2Eligibility":null,"source":"nc-onemap-37141"},"geometry":{"type":"Polygon","coordinates":[[[-78.25457,34.52061],[-78.25574,34.52063],[-78.25657,34.5198],[-78.25726,34.5196],[-78.25922,34.52006],[-78.26073,34.51971],[-78.26246,34.51994],[-78.26372,34.51975],[-78.26432,34.52031],[-78.26444,34.522],[-78.26408,34.52278],[-78.26327,34.52342],[-78.26278,34.52446],[-78.26207,34.52328],[-78.25975,34.52254],[-78.2593,34.52264],[-78.25743,34.52125],[-78.25632,34.52099],[-78.25548,34.52112],[-78.25457,34.52061]]]}},{"type":"Feature","id":"37141:2227-49-5315-0000","properties":{"id":"37141:2227-49-5315-0000","parcelId":"2227-49-5315-0000","countyFips":"37141","countyName":"Pender","state":"North Carolina","marketIds":["Wilmington"],"situsAddress":null,"situsCity":null,"situsZip":null,"jurisdictionCode":null,"ownerName":"NATURE CONSERVANCY","ownerName2":null,"propertyName":null,"zoningCode":null,"zoningDistrict":null,"jurisdictionPrefix":null,"dorCode":null,"acreage":18.2692,"centroid":[-78.254762,34.515008],"lastSale":{"date":null,"price":null,"qualified":null},"tax":{"marketValue":13425.0,"assessedValue":13425.0,"taxableValue":null,"taxes":null},"mailingAddress":{"line1":null,"line2":null,"city":null,"state":null,"zip":null},"incomeTract":null,"incomeBlockGroup":null,"nearestRoad":null,"flu":null,"opportunityZone":null,"oz2Eligibility":null,"source":"nc-onemap-37141"},"geometry":{"type":"Polygon","coordinates":[[[-78.2533,34.51407],[-78.25324,34.51394],[-78.25403,34.51385],[-78.25486,34.51333],[-78.25557,34.51365],[-78.25577,34.51414],[-78.25575,34.51539],[-78.25637,34.51655],[-78.25617,34.51787],[-78.25473,34.51714],[-78.25365,34.51535],[-78.2537,34.51482],[-78.2533,34.51407]]]}},{"type":"Feature","id":"37141:2228-13-7436-0000","properties":{"id":"37141:2228-13-7436-0000","parcelId":"2228-13-7436-0000","countyFips":"37141","countyName":"Pender","state":"North Carolina","marketIds":["Wilmington"],"situsAddress":null,"situsCity":null,"situsZip":null,"jurisdictionCode":null,"ownerName":"NATURE CONSERVANCY","ownerName2":null,"propertyName":null,"zoningCode":null,"zoningDistrict":null,"jurisdictionPrefix":null,"dorCode":null,"acreage":13.57,"centroid":[-78.263695,34.526495],"lastSale":{"date":null,"price":null,"qualified":null},"tax":{"marketValue":10575.0,"assessedValue":10575.0,"taxableValue":null,"taxes":null},"mailingAddress":{"line1":null,"line2":null,"city":null,"state":null,"zip":null},"incomeTract":null,"incomeBlockGroup":null,"nearestRoad":null,"flu":null,"opportunityZone":null,"oz2Eligibility":null,"source":"nc-onemap-37141"},"geometry":{"type":"Polygon","coordinates":[[[-78.26348,34.52789],[-78.26296,34.52743],[-78.26327,34.52656],[-78.26222,34.52608],[-78.2625,34.52469],[-78.26285,34.52477],[-78.26329,34.52555],[-78.26487,34.52588],[-78.26539,34.52649],[-78.26533,34.52701],[-78.26469,34.5277],[-78.26349,34.52789],[-78.26348,34.52789]]]}},{"type":"Feature","id":"37141:2229-41-7914-0000","properties":{"id":"37141:2229-41-7914-0000","parcelId":"2229-41-7914-0000","countyFips":"37141","countyName":"Pender","state":"North Carolina","marketIds":["Wilmington"],"situsAddress":"289 BIG EAGLE RD","situsCity":null,"situsZip":null,"jurisdictionCode":null,"ownerName":"WATTS, ROBERT B","ownerName2":null,"propertyName":null,"zoningCode":null,"zoningDistrict":null,"jurisdictionPrefix":null,"dorCode":null,"acreage":5.95,"centroid":[-78.253906,34.549782],"lastSale":{"date":null,"price":null,"qualified":null},"tax":{"marketValue":360962.0,"assessedValue":55530.0,"taxableValue":null,"taxes":null},"mailingAddress":{"line1":null,"line2":null,"city":null,"state":null,"zip":null},"incomeTract":null,"incomeBlockGroup":null,"nearestRoad":null,"flu":null,"opportunityZone":null,"oz2Eligibility":null,"source":"nc-onemap-37141"},"geometry":{"type":"Polygon","coordinates":[[[-78.25251,34.55003],[-78.25301,34.54928],[-78.25364,34.54921],[-78.25569,34.5493],[-78.25541,34.54972],[-78.2546,34.54936],[-78.25352,34.55099],[-78.25287,34.55037],[-78.25251,34.55003]]]}},{"type":"Feature","id":"37141:2229-53-7244-0000","properties":{"id":"37141:2229-53-7244-0000","parcelId":"2229-53-7244-0000","countyFips":"37141","countyName":"Pender","state":"North Carolina","marketIds":["Wilmington"],"situsAddress":null,"situsCity":null,"situsZip":null,"jurisdictionCode":null,"ownerName":"STANMIRE, STEVEN","ownerName2":null,"propertyName":null,"zoningCode":null,"zoningDistrict":null,"jurisdictionPrefix":null,"dorCode":null,"acreage":5.3768,"centroid":[-78.250138,34.553383],"lastSale":{"date":null,"price":null,"qualified":null},"tax":{"marketValue":50160.0,"assessedValue":50160.0,"taxableValue":null,"taxes":null},"mailingAddress":{"line1":null,"line2":null,"city":null,"state":null,"zip":null},"incomeTract":null,"incomeBlockGroup":null,"nearestRoad":null,"flu":null,"opportunityZone":null,"oz2Eligibility":null,"source":"nc-onemap-37141"},"geometry":{"type":"Polygon","coordinates":[[[-78.24989,34.55348],[-78.24861,34.55264],[-78.24868,34.55197],[-78.25205,34.5542],[-78.25167,34.55458],[-78.24993,34.55343],[-78.24989,34.55348]]]}}]}