{"type":"FeatureCollection","name":"01087--10_20","features":[{"type":"Feature","id":"01087:1908330000027000","properties":{"id":"01087:1908330000027000","parcelId":"1908330000027000","countyFips":"01087","countyName":"Macon","state":"Alabama","marketIds":["Montgomery"],"situsAddress":null,"situsCity":null,"situsZip":null,"jurisdictionCode":null,"ownerName":null,"ownerName2":null,"propertyName":null,"zoningCode":null,"zoningDistrict":null,"jurisdictionPrefix":null,"dorCode":null,"acreage":29.5049,"centroid":[-85.434656,32.238022],"lastSale":{"date":null,"price":null,"qualified":null},"tax":{"marketValue":null,"assessedValue":null,"taxableValue":null,"taxes":null},"mailingAddress":{"line1":null,"line2":null,"city":null,"state":null,"zip":null},"incomeTract":null,"incomeBlockGroup":null,"nearestRoad":null,"flu":null,"opportunityZone":null,"oz2Eligibility":null,"source":"al-macon-parcels-01087","appraiserUrl":"https://macon.capturecama.com/mapparceldetail/1908330000027000","gisViewerUrl":"https://macon.capturecama.com/parcelviewer/"},"geometry":{"type":"Polygon","coordinates":[[[-85.433413,32.237135],[-85.433453,32.238665],[-85.433479,32.240206],[-85.437467,32.240183],[-85.435222,32.235938],[-85.4349,32.236007],[-85.433413,32.237135]]]}},{"type":"Feature","id":"01087:ROAD_ROW_53866","properties":{"id":"01087:ROAD_ROW_53866","parcelId":"ROAD_ROW_53866","countyFips":"01087","countyName":"Macon","state":"Alabama","marketIds":["Montgomery"],"situsAddress":null,"situsCity":null,"situsZip":null,"jurisdictionCode":null,"ownerName":null,"ownerName2":null,"propertyName":null,"zoningCode":null,"zoningDistrict":null,"jurisdictionPrefix":null,"dorCode":null,"acreage":9.6971,"centroid":[-85.494294,32.241633],"lastSale":{"date":null,"price":null,"qualified":null},"tax":{"marketValue":null,"assessedValue":null,"taxableValue":null,"taxes":null},"mailingAddress":{"line1":null,"line2":null,"city":null,"state":null,"zip":null},"incomeTract":null,"incomeBlockGroup":null,"nearestRoad":null,"flu":null,"opportunityZone":null,"oz2Eligibility":null,"source":"al-macon-parcels-01087","appraiserUrl":"https://macon.capturecama.com/mapparceldetail/ROAD_ROW_53866","gisViewerUrl":"https://macon.capturecama.com/parcelviewer/"},"geometry":{"type":"Polygon","coordinates":[[[-85.485444,32.241647],[-85.485449,32.241867],[-85.494916,32.24172],[-85.502515,32.241641],[-85.502528,32.241421],[-85.494914,32.2415],[-85.485444,32.241647]]]}},{"type":"Feature","id":"01087:1909320000002001","properties":{"id":"01087:1909320000002001","parcelId":"1909320000002001","countyFips":"01087","countyName":"Macon","state":"Alabama","marketIds":["Montgomery"],"situsAddress":null,"situsCity":null,"situsZip":null,"jurisdictionCode":null,"ownerName":null,"ownerName2":null,"propertyName":null,"zoningCode":null,"zoningDistrict":null,"jurisdictionPrefix":null,"dorCode":null,"acreage":14.8557,"centroid":[-85.452566,32.24089],"lastSale":{"date":null,"price":null,"qualified":null},"tax":{"marketValue":null,"assessedValue":null,"taxableValue":null,"taxes":null},"mailingAddress":{"line1":null,"line2":null,"city":null,"state":null,"zip":null},"incomeTract":null,"incomeBlockGroup":null,"nearestRoad":null,"flu":null,"opportunityZone":null,"oz2Eligibility":null,"source":"al-macon-parcels-01087","appraiserUrl":"https://macon.capturecama.com/mapparceldetail/1909320000002001","gisViewerUrl":"https://macon.capturecama.com/parcelviewer/"},"geometry":{"type":"Polygon","coordinates":[[[-85.450938,32.240439],[-85.450938,32.241784],[-85.454196,32.241763],[-85.454192,32.239574],[-85.450938,32.240439]]]}},{"type":"Feature","id":"01087:1908330000015000","properties":{"id":"01087:1908330000015000","parcelId":"1908330000015000","countyFips":"01087","countyName":"Macon","state":"Alabama","marketIds":["Montgomery"],"situsAddress":null,"situsCity":null,"situsZip":null,"jurisdictionCode":null,"ownerName":null,"ownerName2":null,"propertyName":null,"zoningCode":null,"zoningDistrict":null,"jurisdictionPrefix":null,"dorCode":null,"acreage":7.6398,"centroid":[-85.448012,32.236871],"lastSale":{"date":null,"price":null,"qualified":null},"tax":{"marketValue":null,"assessedValue":null,"taxableValue":null,"taxes":null},"mailingAddress":{"line1":null,"line2":null,"city":null,"state":null,"zip":null},"incomeTract":null,"incomeBlockGroup":null,"nearestRoad":null,"flu":null,"opportunityZone":null,"oz2Eligibility":null,"source":"al-macon-parcels-01087","appraiserUrl":"https://macon.capturecama.com/mapparceldetail/1908330000015000","gisViewerUrl":"https://macon.capturecama.com/parcelviewer/"},"geometry":{"type":"Polygon","coordinates":[[[-85.447221,32.235961],[-85.447187,32.237788],[-85.448801,32.237785],[-85.44884,32.235951],[-85.447221,32.235961]]]}},{"type":"Feature","id":"01087:ROAD_ROW_53883","properties":{"id":"01087:ROAD_ROW_53883","parcelId":"ROAD_ROW_53883","countyFips":"01087","countyName":"Macon","state":"Alabama","marketIds":["Montgomery"],"situsAddress":null,"situsCity":null,"situsZip":null,"jurisdictionCode":null,"ownerName":null,"ownerName2":null,"propertyName":null,"zoningCode":null,"zoningDistrict":null,"jurisdictionPrefix":null,"dorCode":null,"acreage":11.6851,"centroid":[-85.473694,32.249083],"lastSale":{"date":null,"price":null,"qualified":null},"tax":{"marketValue":null,"assessedValue":null,"taxableValue":null,"taxes":null},"mailingAddress":{"line1":null,"line2":null,"city":null,"state":null,"zip":null},"incomeTract":null,"incomeBlockGroup":null,"nearestRoad":null,"flu":null,"opportunityZone":null,"oz2Eligibility":null,"source":"al-macon-parcels-01087","appraiserUrl":"https://macon.capturecama.com/mapparceldetail/ROAD_ROW_53883","gisViewerUrl":"https://macon.capturecama.com/parcelviewer/"},"geometry":{"type":"Polygon","coordinates":[[[-85.473694,32.249083],[-85.473811,32.249089],[-85.473562,32.248805],[-85.471285,32.246803],[-85.470766,32.246321],[-85.47066,32.246181],[-85.470591,32.245976],[-85.47057,32.245313],[-85.470467,32.244761],[-85.470202,32.242724],[-85.474637,32.242158],[-85.475626,32.242063],[-85.47662,32.242019],[-85.485449,32.241867],[-85.485444,32.241647],[-85.476614,32.241799],[-85.475746,32.241835],[-85.47455,32.241946],[-85.468228,32.242753],[-85.468233,32.242975],[-85.470106,32.242736],[-85.470372,32.24478],[-85.470473,32.245318],[-85.470494,32.245986],[-85.470572,32.246216],[-85.470693,32.246375],[-85.471164,32.246814],[-85.472881,32.248339],[-85.473468,32.248839],[-85.473694,32.249083]]]}},{"type":"Feature","id":"01087:RAILROAD_ROW_53780","properties":{"id":"01087:RAILROAD_ROW_53780","parcelId":"RAILROAD_ROW_53780","countyFips":"01087","countyName":"Macon","state":"Alabama","marketIds":["Montgomery"],"situsAddress":null,"situsCity":null,"situsZip":null,"jurisdictionCode":null,"ownerName":null,"ownerName2":null,"propertyName":null,"zoningCode":null,"zoningDistrict":null,"jurisdictionPrefix":null,"dorCode":null,"acreage":6.2328,"centroid":[-85.439166,32.240486],"lastSale":{"date":null,"price":null,"qualified":null},"tax":{"marketValue":null,"assessedValue":null,"taxableValue":null,"taxes":null},"mailingAddress":{"line1":null,"line2":null,"city":null,"state":null,"zip":null},"incomeTract":null,"incomeBlockGroup":null,"nearestRoad":null,"flu":null,"opportunityZone":null,"oz2Eligibility":null,"source":"al-macon-parcels-01087","appraiserUrl":"https://macon.capturecama.com/mapparceldetail/RAILROAD_ROW_53780","gisViewerUrl":"https://macon.capturecama.com/parcelviewer/"},"geometry":{"type":"Polygon","coordinates":[[[-85.437928,32.240455],[-85.438185,32.240454],[-85.439194,32.240488],[-85.440195,32.240601],[-85.44118,32.240792],[-85.442181,32.241067],[-85.442178,32.240775],[-85.441501,32.240584],[-85.440876,32.240441],[-85.440242,32.240328],[-85.439548,32.240242],[-85.438957,32.240197],[-85.438364,32.240179],[-85.433479,32.240206],[-85.433488,32.240481],[-85.437928,32.240455]]]}},{"type":"Feature","id":"01087:1908330000003000","properties":{"id":"01087:1908330000003000","parcelId":"1908330000003000","countyFips":"01087","countyName":"Macon","state":"Alabama","marketIds":["Montgomery"],"situsAddress":null,"situsCity":null,"situsZip":null,"jurisdictionCode":null,"ownerName":null,"ownerName2":null,"propertyName":null,"zoningCode":null,"zoningDistrict":null,"jurisdictionPrefix":null,"dorCode":null,"acreage":122.7444,"centroid":[-85.441955,32.246765],"lastSale":{"date":null,"price":null,"qualified":null},"tax":{"marketValue":null,"assessedValue":null,"taxableValue":null,"taxes":null},"mailingAddress":{"line1":null,"line2":null,"city":null,"state":null,"zip":null},"incomeTract":null,"incomeBlockGroup":null,"nearestRoad":null,"flu":null,"opportunityZone":null,"oz2Eligibility":null,"source":"al-macon-parcels-01087","appraiserUrl":"https://macon.capturecama.com/mapparceldetail/1908330000003000","gisViewerUrl":"https://macon.capturecama.com/parcelviewer/"},"geometry":{"type":"Polygon","coordinates":[[[-85.438002,32.249386],[-85.442302,32.249356],[-85.444442,32.249391],[-85.444475,32.248248],[-85.44457,32.242054],[-85.437939,32.242152],[-85.438002,32.249386]]]}},{"type":"Feature","id":"01087:1908330000028000","properties":{"id":"01087:1908330000028000","parcelId":"1908330000028000","countyFips":"01087","countyName":"Macon","state":"Alabama","marketIds":["Montgomery"],"situsAddress":null,"situsCity":null,"situsZip":null,"jurisdictionCode":null,"ownerName":null,"ownerName2":null,"propertyName":null,"zoningCode":null,"zoningDistrict":null,"jurisdictionPrefix":null,"dorCode":null,"acreage":11.4523,"centroid":[-85.437414,32.234779],"lastSale":{"date":null,"price":null,"qualified":null},"tax":{"marketValue":null,"assessedValue":null,"taxableValue":null,"taxes":null},"mailingAddress":{"line1":null,"line2":null,"city":null,"state":null,"zip":null},"incomeTract":null,"incomeBlockGroup":null,"nearestRoad":null,"flu":null,"opportunityZone":null,"oz2Eligibility":null,"source":"al-macon-parcels-01087","appraiserUrl":"https://macon.capturecama.com/mapparceldetail/1908330000028000","gisViewerUrl":"https://macon.capturecama.com/parcelviewer/"},"geometry":{"type":"Polygon","coordinates":[[[-85.438155,32.234178],[-85.435281,32.23491],[-85.434904,32.235064],[-85.434653,32.235219],[-85.434817,32.235741],[-85.442043,32.234205],[-85.442042,32.234139],[-85.438155,32.234178]]]}},{"type":"Feature","id":"01087:RAILROAD_ROW_53774","properties":{"id":"01087:RAILROAD_ROW_53774","parcelId":"RAILROAD_ROW_53774","countyFips":"01087","countyName":"Macon","state":"Alabama","marketIds":["Montgomery"],"situsAddress":null,"situsCity":null,"situsZip":null,"jurisdictionCode":null,"ownerName":null,"ownerName2":null,"propertyName":null,"zoningCode":null,"zoningDistrict":null,"jurisdictionPrefix":null,"dorCode":null,"acreage":6.0038,"centroid":[-85.438961,32.235001],"lastSale":{"date":null,"price":null,"qualified":null},"tax":{"marketValue":null,"assessedValue":null,"taxableValue":null,"taxes":null},"mailingAddress":{"line1":null,"line2":null,"city":null,"state":null,"zip":null},"incomeTract":null,"incomeBlockGroup":null,"nearestRoad":null,"flu":null,"opportunityZone":null,"oz2Eligibility":null,"source":"al-macon-parcels-01087","appraiserUrl":"https://macon.capturecama.com/mapparceldetail/RAILROAD_ROW_53774","gisViewerUrl":"https://macon.capturecama.com/parcelviewer/"},"geometry":{"type":"Polygon","coordinates":[[[-85.434817,32.235741],[-85.4349,32.236007],[-85.443762,32.234122],[-85.442365,32.234136],[-85.434817,32.235741]]]}},{"type":"Feature","id":"01087:ROAD_ROW_53885","properties":{"id":"01087:ROAD_ROW_53885","parcelId":"ROAD_ROW_53885","countyFips":"01087","countyName":"Macon","state":"Alabama","marketIds":["Montgomery"],"situsAddress":null,"situsCity":null,"situsZip":null,"jurisdictionCode":null,"ownerName":null,"ownerName2":null,"propertyName":null,"zoningCode":null,"zoningDistrict":null,"jurisdictionPrefix":null,"dorCode":null,"acreage":11.378,"centroid":[-85.459153,32.24417],"lastSale":{"date":null,"price":null,"qualified":null},"tax":{"marketValue":null,"assessedValue":null,"taxableValue":null,"taxes":null},"mailingAddress":{"line1":null,"line2":null,"city":null,"state":null,"zip":null},"incomeTract":null,"incomeBlockGroup":null,"nearestRoad":null,"flu":null,"opportunityZone":null,"oz2Eligibility":null,"source":"al-macon-parcels-01087","appraiserUrl":"https://macon.capturecama.com/mapparceldetail/ROAD_ROW_53885","gisViewerUrl":"https://macon.capturecama.com/parcelviewer/"},"geometry":{"type":"Polygon","coordinates":[[[-85.450952,32.242727],[-85.45878,32.243815],[-85.459113,32.243856],[-85.459149,32.244403],[-85.459125,32.244711],[-85.459051,32.244993],[-85.458939,32.245244],[-85.458478,32.245909],[-85.458398,32.246056],[-85.458334,32.246285],[-85.458333,32.246506],[-85.458369,32.246665],[-85.458843,32.248014],[-85.459274,32.248882],[-85.459348,32.24911],[-85.459385,32.249345],[-85.459482,32.249343],[-85.459452,32.249135],[-85.459391,32.24892],[-85.458922,32.247956],[-85.458463,32.246644],[-85.458424,32.246435],[-85.45844,32.246238],[-85.458505,32.246049],[-85.458986,32.24535],[-85.459096,32.245138],[-85.459171,32.244937],[-85.45922,32.24473],[-85.459245,32.244499],[-85.459211,32.243866],[-85.459777,32.243905],[-85.460479,32.243919],[-85.460921,32.243905],[-85.461362,32.243864],[-85.468233,32.242975],[-85.468228,32.242753],[-85.461324,32.243646],[-85.460893,32.243686],[-85.460459,32.243699],[-85.459657,32.243678],[-85.458943,32.243614],[-85.450932,32.242501],[-85.450952,32.242727]]]}},{"type":"Feature","id":"01087:2007360000001000","properties":{"id":"01087:2007360000001000","parcelId":"2007360000001000","countyFips":"01087","countyName":"Macon","state":"Alabama","marketIds":["Montgomery"],"situsAddress":null,"situsCity":null,"situsZip":null,"jurisdictionCode":null,"ownerName":null,"ownerName2":null,"propertyName":null,"zoningCode":null,"zoningDistrict":null,"jurisdictionPrefix":null,"dorCode":null,"acreage":10.6285,"centroid":[-85.486724,32.247498],"lastSale":{"date":null,"price":null,"qualified":null},"tax":{"marketValue":null,"assessedValue":null,"taxableValue":null,"taxes":null},"mailingAddress":{"line1":null,"line2":null,"city":null,"state":null,"zip":null},"incomeTract":null,"incomeBlockGroup":null,"nearestRoad":null,"flu":null,"opportunityZone":null,"oz2Eligibility":null,"source":"al-macon-parcels-01087","appraiserUrl":"https://macon.capturecama.com/mapparceldetail/2007360000001000","gisViewerUrl":"https://macon.capturecama.com/parcelviewer/"},"geometry":{"type":"Polygon","coordinates":[[[-85.485545,32.246795],[-85.485546,32.24687],[-85.485576,32.24889],[-85.488975,32.248815],[-85.487912,32.248018],[-85.487624,32.247888],[-85.487421,32.247735],[-85.487313,32.24753],[-85.487065,32.247379],[-85.486761,32.247158],[-85.48654,32.247153],[-85.486342,32.2471],[-85.48577,32.246848],[-85.485744,32.246792],[-85.485545,32.246795]]]}},{"type":"Feature","id":"01087:RAILROAD_ROW_53778","properties":{"id":"01087:RAILROAD_ROW_53778","parcelId":"RAILROAD_ROW_53778","countyFips":"01087","countyName":"Macon","state":"Alabama","marketIds":["Montgomery"],"situsAddress":null,"situsCity":null,"situsZip":null,"jurisdictionCode":null,"ownerName":null,"ownerName2":null,"propertyName":null,"zoningCode":null,"zoningDistrict":null,"jurisdictionPrefix":null,"dorCode":null,"acreage":6.5412,"centroid":[-85.45209,32.240015],"lastSale":{"date":null,"price":null,"qualified":null},"tax":{"marketValue":null,"assessedValue":null,"taxableValue":null,"taxes":null},"mailingAddress":{"line1":null,"line2":null,"city":null,"state":null,"zip":null},"incomeTract":null,"incomeBlockGroup":null,"nearestRoad":null,"flu":null,"opportunityZone":null,"oz2Eligibility":null,"source":"al-macon-parcels-01087","appraiserUrl":"https://macon.capturecama.com/mapparceldetail/RAILROAD_ROW_53778","gisViewerUrl":"https://macon.capturecama.com/parcelviewer/"},"geometry":{"type":"Polygon","coordinates":[[[-85.450951,32.240147],[-85.450938,32.240439],[-85.454501,32.239495],[-85.455131,32.239376],[-85.455773,32.239311],[-85.456257,32.2393],[-85.456781,32.239323],[-85.457262,32.239378],[-85.457775,32.239472],[-85.458239,32.239591],[-85.458691,32.239739],[-85.459056,32.239886],[-85.459696,32.240178],[-85.45985,32.239936],[-85.458859,32.239502],[-85.458397,32.239346],[-85.457962,32.23923],[-85.457479,32.239132],[-85.456988,32.239066],[-85.456493,32.239031],[-85.455996,32.239027],[-85.455254,32.239081],[-85.454523,32.239205],[-85.450951,32.240147]]]}},{"type":"Feature","id":"01087:ROAD_ROW_53859","properties":{"id":"01087:ROAD_ROW_53859","parcelId":"ROAD_ROW_53859","countyFips":"01087","countyName":"Macon","state":"Alabama","marketIds":["Montgomery"],"situsAddress":null,"situsCity":null,"situsZip":null,"jurisdictionCode":null,"ownerName":null,"ownerName2":null,"propertyName":null,"zoningCode":null,"zoningDistrict":null,"jurisdictionPrefix":null,"dorCode":null,"acreage":8.395,"centroid":[-85.43369,32.236395],"lastSale":{"date":null,"price":null,"qualified":null},"tax":{"marketValue":null,"assessedValue":null,"taxableValue":null,"taxes":null},"mailingAddress":{"line1":null,"line2":null,"city":null,"state":null,"zip":null},"incomeTract":null,"incomeBlockGroup":null,"nearestRoad":null,"flu":null,"opportunityZone":null,"oz2Eligibility":null,"source":"al-macon-parcels-01087","appraiserUrl":"https://macon.capturecama.com/mapparceldetail/ROAD_ROW_53859","gisViewerUrl":"https://macon.capturecama.com/parcelviewer/"},"geometry":{"type":"Polygon","coordinates":[[[-85.4334,32.236634],[-85.433413,32.237135],[-85.4349,32.236007],[-85.434653,32.235219],[-85.434904,32.235064],[-85.435281,32.23491],[-85.438155,32.234178],[-85.435555,32.234216],[-85.433373,32.235598],[-85.4334,32.236634]]]}},{"type":"Feature","id":"01087:1909320000003000","properties":{"id":"01087:1909320000003000","parcelId":"1909320000003000","countyFips":"01087","countyName":"Macon","state":"Alabama","marketIds":["Montgomery"],"situsAddress":null,"situsCity":null,"situsZip":null,"jurisdictionCode":null,"ownerName":null,"ownerName2":null,"propertyName":null,"zoningCode":null,"zoningDistrict":null,"jurisdictionPrefix":null,"dorCode":null,"acreage":107.9836,"centroid":[-85.454999,32.237401],"lastSale":{"date":null,"price":null,"qualified":null},"tax":{"marketValue":null,"assessedValue":null,"taxableValue":null,"taxes":null},"mailingAddress":{"line1":null,"line2":null,"city":null,"state":null,"zip":null},"incomeTract":null,"incomeBlockGroup":null,"nearestRoad":null,"flu":null,"opportunityZone":null,"oz2Eligibility":null,"source":"al-macon-parcels-01087","appraiserUrl":"https://macon.capturecama.com/mapparceldetail/1909320000003000","gisViewerUrl":"https://macon.capturecama.com/parcelviewer/"},"geometry":{"type":"MultiPolygon","coordinates":[[[[-85.456244,32.239025],[-85.456286,32.239025],[-85.4567,32.239041],[-85.457152,32.239085],[-85.4576,32.239154],[-85.458002,32.23924],[-85.458397,32.239346],[-85.458821,32.239488],[-85.459619,32.23983],[-85.459576,32.239778],[-85.459535,32.239673],[-85.459563,32.239498],[-85.459304,32.239054],[-85.459181,32.238926],[-85.459126,32.238809],[-85.459113,32.238576],[-85.459059,32.238436],[-85.45906,32.238179],[-85.459089,32.237923],[-85.459173,32.237608],[-85.459175,32.237258],[-85.459122,32.236804],[-85.459165,32.236337],[-85.459153,32.235731],[-85.459059,32.235218],[-85.458992,32.235043],[-85.458419,32.234096],[-85.451384,32.234031],[-85.451201,32.234549],[-85.451145,32.234821],[-85.451136,32.235038],[-85.45118,32.235815],[-85.451273,32.235632],[-85.451431,32.235428],[-85.451667,32.235237],[-85.451926,32.235094],[-85.45221,32.234988],[-85.452358,32.234949],[-85.452386,32.235028],[-85.452147,32.235096],[-85.451934,32.235184],[-85.451737,32.235295],[-85.451554,32.235429],[-85.451391,32.235625],[-85.451313,32.23575],[-85.451258,32.235885],[-85.451199,32.236131],[-85.451317,32.238448],[-85.451363,32.238641],[-85.451439,32.238826],[-85.451582,32.239058],[-85.451694,32.239194],[-85.451844,32.239324],[-85.452003,32.239422],[-85.452177,32.239497],[-85.45244,32.239576],[-85.45336,32.239507],[-85.454443,32.239224],[-85.45509,32.239103],[-85.455665,32.239042],[-85.456244,32.239025]]],[[[-85.451221,32.234049],[-85.450975,32.234051],[-85.450953,32.239686],[-85.452128,32.239599],[-85.451798,32.239434],[-85.451647,32.239315],[-85.451529,32.239191],[-85.451307,32.238842],[-85.451231,32.238648],[-85.451189,32.238466],[-85.451006,32.234984],[-85.451049,32.234621],[-85.451244,32.234046],[-85.451221,32.234049]]]]}},{"type":"Feature","id":"01087:1908330000001000","properties":{"id":"01087:1908330000001000","parcelId":"1908330000001000","countyFips":"01087","countyName":"Macon","state":"Alabama","marketIds":["Montgomery"],"situsAddress":null,"situsCity":null,"situsZip":null,"jurisdictionCode":null,"ownerName":null,"ownerName2":null,"propertyName":null,"zoningCode":null,"zoningDistrict":null,"jurisdictionPrefix":null,"dorCode":null,"acreage":80.868,"centroid":[-85.435057,32.244928],"lastSale":{"date":null,"price":null,"qualified":null},"tax":{"marketValue":null,"assessedValue":null,"taxableValue":null,"taxes":null},"mailingAddress":{"line1":null,"line2":null,"city":null,"state":null,"zip":null},"incomeTract":null,"incomeBlockGroup":null,"nearestRoad":null,"flu":null,"opportunityZone":null,"oz2Eligibility":null,"source":"al-macon-parcels-01087","appraiserUrl":"https://macon.capturecama.com/mapparceldetail/1908330000001000","gisViewerUrl":"https://macon.capturecama.com/parcelviewer/"},"geometry":{"type":"Polygon","coordinates":[[[-85.433538,32.242222],[-85.433583,32.244196],[-85.433742,32.249413],[-85.438002,32.249386],[-85.437939,32.242152],[-85.433538,32.242199],[-85.433538,32.242222]]]}},{"type":"Feature","id":"01087:1908330000014000","properties":{"id":"01087:1908330000014000","parcelId":"1908330000014000","countyFips":"01087","countyName":"Macon","state":"Alabama","marketIds":["Montgomery"],"situsAddress":null,"situsCity":null,"situsZip":null,"jurisdictionCode":null,"ownerName":null,"ownerName2":null,"propertyName":null,"zoningCode":null,"zoningDistrict":null,"jurisdictionPrefix":null,"dorCode":null,"acreage":11.2429,"centroid":[-85.447469,32.23518],"lastSale":{"date":null,"price":null,"qualified":null},"tax":{"marketValue":null,"assessedValue":null,"taxableValue":null,"taxes":null},"mailingAddress":{"line1":null,"line2":null,"city":null,"state":null,"zip":null},"incomeTract":null,"incomeBlockGroup":null,"nearestRoad":null,"flu":null,"opportunityZone":null,"oz2Eligibility":null,"source":"al-macon-parcels-01087","appraiserUrl":"https://macon.capturecama.com/mapparceldetail/1908330000014000","gisViewerUrl":"https://macon.capturecama.com/parcelviewer/"},"geometry":{"type":"Polygon","coordinates":[[[-85.446547,32.235818],[-85.446548,32.235965],[-85.44884,32.235951],[-85.448881,32.234072],[-85.446528,32.234095],[-85.446547,32.235818]]]}},{"type":"Feature","id":"01087:ROAD_ROW_53870","properties":{"id":"01087:ROAD_ROW_53870","parcelId":"ROAD_ROW_53870","countyFips":"01087","countyName":"Macon","state":"Alabama","marketIds":["Montgomery"],"situsAddress":null,"situsCity":null,"situsZip":null,"jurisdictionCode":null,"ownerName":null,"ownerName2":null,"propertyName":null,"zoningCode":null,"zoningDistrict":null,"jurisdictionPrefix":null,"dorCode":null,"acreage":11.6635,"centroid":[-85.449611,32.24242],"lastSale":{"date":null,"price":null,"qualified":null},"tax":{"marketValue":null,"assessedValue":null,"taxableValue":null,"taxes":null},"mailingAddress":{"line1":null,"line2":null,"city":null,"state":null,"zip":null},"incomeTract":null,"incomeBlockGroup":null,"nearestRoad":null,"flu":null,"opportunityZone":null,"oz2Eligibility":null,"source":"al-macon-parcels-01087","appraiserUrl":"https://macon.capturecama.com/mapparceldetail/ROAD_ROW_53870","gisViewerUrl":"https://macon.capturecama.com/parcelviewer/"},"geometry":{"type":"Polygon","coordinates":[[[-85.44457,32.242054],[-85.445067,32.242046],[-85.445828,32.242059],[-85.446577,32.242122],[-85.450952,32.242727],[-85.450932,32.242501],[-85.446391,32.24187],[-85.445442,32.241787],[-85.444789,32.241776],[-85.433532,32.241924],[-85.433538,32.242199],[-85.44457,32.242054]]]}},{"type":"Feature","id":"01087:1908330000025000","properties":{"id":"01087:1908330000025000","parcelId":"1908330000025000","countyFips":"01087","countyName":"Macon","state":"Alabama","marketIds":["Montgomery"],"situsAddress":null,"situsCity":null,"situsZip":null,"jurisdictionCode":null,"ownerName":null,"ownerName2":null,"propertyName":null,"zoningCode":null,"zoningDistrict":null,"jurisdictionPrefix":null,"dorCode":null,"acreage":10.2249,"centroid":[-85.443315,32.234939],"lastSale":{"date":null,"price":null,"qualified":null},"tax":{"marketValue":null,"assessedValue":null,"taxableValue":null,"taxes":null},"mailingAddress":{"line1":null,"line2":null,"city":null,"state":null,"zip":null},"incomeTract":null,"incomeBlockGroup":null,"nearestRoad":null,"flu":null,"opportunityZone":null,"oz2Eligibility":null,"source":"al-macon-parcels-01087","appraiserUrl":"https://macon.capturecama.com/mapparceldetail/1908330000025000","gisViewerUrl":"https://macon.capturecama.com/parcelviewer/"},"geometry":{"type":"MultiPolygon","coordinates":[[[[-85.443762,32.234122],[-85.442048,32.234487],[-85.442075,32.235992],[-85.444334,32.235978],[-85.444357,32.234117],[-85.443762,32.234122]]],[[[-85.442042,32.234139],[-85.442043,32.234205],[-85.442365,32.234136],[-85.442042,32.234139]]]]}},{"type":"Feature","id":"01087:2007360000001001","properties":{"id":"01087:2007360000001001","parcelId":"2007360000001001","countyFips":"01087","countyName":"Macon","state":"Alabama","marketIds":["Montgomery"],"situsAddress":null,"situsCity":null,"situsZip":null,"jurisdictionCode":null,"ownerName":null,"ownerName2":null,"propertyName":null,"zoningCode":null,"zoningDistrict":null,"jurisdictionPrefix":null,"dorCode":null,"acreage":34.5455,"centroid":[-85.488114,32.247521],"lastSale":{"date":null,"price":null,"qualified":null},"tax":{"marketValue":null,"assessedValue":null,"taxableValue":null,"taxes":null},"mailingAddress":{"line1":null,"line2":null,"city":null,"state":null,"zip":null},"incomeTract":null,"incomeBlockGroup":null,"nearestRoad":null,"flu":null,"opportunityZone":null,"oz2Eligibility":null,"source":"al-macon-parcels-01087","appraiserUrl":"https://macon.capturecama.com/mapparceldetail/2007360000001001","gisViewerUrl":"https://macon.capturecama.com/parcelviewer/"},"geometry":{"type":"Polygon","coordinates":[[[-85.485744,32.246792],[-85.48577,32.246848],[-85.486342,32.2471],[-85.48654,32.247153],[-85.486761,32.247158],[-85.487065,32.247379],[-85.487313,32.24753],[-85.487421,32.247735],[-85.487624,32.247888],[-85.487912,32.248018],[-85.488975,32.248815],[-85.494012,32.248704],[-85.493999,32.246655],[-85.485744,32.246792]]]}},{"type":"Feature","id":"01087:1908330000027001","properties":{"id":"01087:1908330000027001","parcelId":"1908330000027001","countyFips":"01087","countyName":"Macon","state":"Alabama","marketIds":["Montgomery"],"situsAddress":null,"situsCity":null,"situsZip":null,"jurisdictionCode":null,"ownerName":null,"ownerName2":null,"propertyName":null,"zoningCode":null,"zoningDistrict":null,"jurisdictionPrefix":null,"dorCode":null,"acreage":78.0613,"centroid":[-85.439456,32.239075],"lastSale":{"date":null,"price":null,"qualified":null},"tax":{"marketValue":null,"assessedValue":null,"taxableValue":null,"taxes":null},"mailingAddress":{"line1":null,"line2":null,"city":null,"state":null,"zip":null},"incomeTract":null,"incomeBlockGroup":null,"nearestRoad":null,"flu":null,"opportunityZone":null,"oz2Eligibility":null,"source":"al-macon-parcels-01087","appraiserUrl":"https://macon.capturecama.com/mapparceldetail/1908330000027001","gisViewerUrl":"https://macon.capturecama.com/parcelviewer/"},"geometry":{"type":"Polygon","coordinates":[[[-85.437467,32.240183],[-85.438183,32.240179],[-85.439172,32.24021],[-85.440189,32.24032],[-85.44119,32.240509],[-85.442178,32.240775],[-85.442048,32.234487],[-85.435222,32.235938],[-85.437467,32.240183]]]}},{"type":"Feature","id":"01087:1908330000017000","properties":{"id":"01087:1908330000017000","parcelId":"1908330000017000","countyFips":"01087","countyName":"Macon","state":"Alabama","marketIds":["Montgomery"],"situsAddress":null,"situsCity":null,"situsZip":null,"jurisdictionCode":null,"ownerName":null,"ownerName2":null,"propertyName":null,"zoningCode":null,"zoningDistrict":null,"jurisdictionPrefix":null,"dorCode":null,"acreage":10.4968,"centroid":[-85.44544,32.236883],"lastSale":{"date":null,"price":null,"qualified":null},"tax":{"marketValue":null,"assessedValue":null,"taxableValue":null,"taxes":null},"mailingAddress":{"line1":null,"line2":null,"city":null,"state":null,"zip":null},"incomeTract":null,"incomeBlockGroup":null,"nearestRoad":null,"flu":null,"opportunityZone":null,"oz2Eligibility":null,"source":"al-macon-parcels-01087","appraiserUrl":"https://macon.capturecama.com/mapparceldetail/1908330000017000","gisViewerUrl":"https://macon.capturecama.com/parcelviewer/"},"geometry":{"type":"Polygon","coordinates":[[[-85.444334,32.235978],[-85.444315,32.237798],[-85.446562,32.23779],[-85.446548,32.235965],[-85.444334,32.235978]]]}},{"type":"Feature","id":"01087:1908330000026000","properties":{"id":"01087:1908330000026000","parcelId":"1908330000026000","countyFips":"01087","countyName":"Macon","state":"Alabama","marketIds":["Montgomery"],"situsAddress":null,"situsCity":null,"situsZip":null,"jurisdictionCode":null,"ownerName":null,"ownerName2":null,"propertyName":null,"zoningCode":null,"zoningDistrict":null,"jurisdictionPrefix":null,"dorCode":null,"acreage":8.1559,"centroid":[-85.443111,32.236969],"lastSale":{"date":null,"price":null,"qualified":null},"tax":{"marketValue":null,"assessedValue":null,"taxableValue":null,"taxes":null},"mailingAddress":{"line1":null,"line2":null,"city":null,"state":null,"zip":null},"incomeTract":null,"incomeBlockGroup":null,"nearestRoad":null,"flu":null,"opportunityZone":null,"oz2Eligibility":null,"source":"al-macon-parcels-01087","appraiserUrl":"https://macon.capturecama.com/mapparceldetail/1908330000026000","gisViewerUrl":"https://macon.capturecama.com/parcelviewer/"},"geometry":{"type":"Polygon","coordinates":[[[-85.442107,32.23754],[-85.442573,32.237541],[-85.442572,32.237806],[-85.444315,32.237798],[-85.444334,32.235978],[-85.443445,32.235984],[-85.443453,32.236542],[-85.442085,32.236565],[-85.442107,32.23754]]]}},{"type":"Feature","id":"01087:1909320000002002","properties":{"id":"01087:1909320000002002","parcelId":"1909320000002002","countyFips":"01087","countyName":"Macon","state":"Alabama","marketIds":["Montgomery"],"situsAddress":null,"situsCity":null,"situsZip":null,"jurisdictionCode":null,"ownerName":null,"ownerName2":null,"propertyName":null,"zoningCode":null,"zoningDistrict":null,"jurisdictionPrefix":null,"dorCode":null,"acreage":123.6419,"centroid":[-85.46291,32.235002],"lastSale":{"date":null,"price":null,"qualified":null},"tax":{"marketValue":null,"assessedValue":null,"taxableValue":null,"taxes":null},"mailingAddress":{"line1":null,"line2":null,"city":null,"state":null,"zip":null},"incomeTract":null,"incomeBlockGroup":null,"nearestRoad":null,"flu":null,"opportunityZone":null,"oz2Eligibility":null,"source":"al-macon-parcels-01087","appraiserUrl":"https://macon.capturecama.com/mapparceldetail/1909320000002002","gisViewerUrl":"https://macon.capturecama.com/parcelviewer/"},"geometry":{"type":"Polygon","coordinates":[[[-85.463968,32.234141],[-85.458419,32.234096],[-85.458992,32.235043],[-85.459059,32.235218],[-85.459153,32.235731],[-85.459165,32.236337],[-85.459122,32.236804],[-85.459175,32.237258],[-85.459173,32.237608],[-85.459089,32.237923],[-85.45906,32.238179],[-85.459059,32.238436],[-85.459113,32.238576],[-85.459126,32.238809],[-85.459181,32.238926],[-85.459304,32.239054],[-85.459563,32.239498],[-85.459535,32.239673],[-85.459576,32.239778],[-85.459619,32.23983],[-85.45985,32.239936],[-85.459696,32.240178],[-85.458875,32.23981],[-85.458201,32.23958],[-85.457421,32.239403],[-85.456661,32.239315],[-85.456055,32.239301],[-85.455411,32.239341],[-85.454814,32.239429],[-85.454192,32.239574],[-85.454196,32.241763],[-85.463922,32.24171],[-85.463968,32.234141]]]}},{"type":"Feature","id":"01087:1908330000003001","properties":{"id":"01087:1908330000003001","parcelId":"1908330000003001","countyFips":"01087","countyName":"Macon","state":"Alabama","marketIds":["Montgomery"],"situsAddress":null,"situsCity":null,"situsZip":null,"jurisdictionCode":null,"ownerName":null,"ownerName2":null,"propertyName":null,"zoningCode":null,"zoningDistrict":null,"jurisdictionPrefix":null,"dorCode":null,"acreage":15.5509,"centroid":[-85.439817,32.240829],"lastSale":{"date":null,"price":null,"qualified":null},"tax":{"marketValue":null,"assessedValue":null,"taxableValue":null,"taxes":null},"mailingAddress":{"line1":null,"line2":null,"city":null,"state":null,"zip":null},"incomeTract":null,"incomeBlockGroup":null,"nearestRoad":null,"flu":null,"opportunityZone":null,"oz2Eligibility":null,"source":"al-macon-parcels-01087","appraiserUrl":"https://macon.capturecama.com/mapparceldetail/1908330000003001","gisViewerUrl":"https://macon.capturecama.com/parcelviewer/"},"geometry":{"type":"Polygon","coordinates":[[[-85.438238,32.240454],[-85.438185,32.240454],[-85.437928,32.240455],[-85.437926,32.241877],[-85.444541,32.24178],[-85.44179,32.240952],[-85.440872,32.240723],[-85.440195,32.240601],[-85.439564,32.24052],[-85.438929,32.240471],[-85.438238,32.240454]]]}},{"type":"Feature","id":"01087:1908330000002000","properties":{"id":"01087:1908330000002000","parcelId":"1908330000002000","countyFips":"01087","countyName":"Macon","state":"Alabama","marketIds":["Montgomery"],"situsAddress":null,"situsCity":null,"situsZip":null,"jurisdictionCode":null,"ownerName":null,"ownerName2":null,"propertyName":null,"zoningCode":null,"zoningDistrict":null,"jurisdictionPrefix":null,"dorCode":null,"acreage":16.3772,"centroid":[-85.435719,32.241184],"lastSale":{"date":null,"price":null,"qualified":null},"tax":{"marketValue":null,"assessedValue":null,"taxableValue":null,"taxes":null},"mailingAddress":{"line1":null,"line2":null,"city":null,"state":null,"zip":null},"incomeTract":null,"incomeBlockGroup":null,"nearestRoad":null,"flu":null,"opportunityZone":null,"oz2Eligibility":null,"source":"al-macon-parcels-01087","appraiserUrl":"https://macon.capturecama.com/mapparceldetail/1908330000002000","gisViewerUrl":"https://macon.capturecama.com/parcelviewer/"},"geometry":{"type":"Polygon","coordinates":[[[-85.433488,32.240481],[-85.433532,32.241924],[-85.437926,32.241877],[-85.437928,32.240455],[-85.433488,32.240481]]]}},{"type":"Feature","id":"01087:1909320000002000","properties":{"id":"01087:1909320000002000","parcelId":"1909320000002000","countyFips":"01087","countyName":"Macon","state":"Alabama","marketIds":["Montgomery"],"situsAddress":null,"situsCity":null,"situsZip":null,"jurisdictionCode":null,"ownerName":null,"ownerName2":null,"propertyName":null,"zoningCode":null,"zoningDistrict":null,"jurisdictionPrefix":null,"dorCode":null,"acreage":83.2838,"centroid":[-85.465661,32.237435],"lastSale":{"date":null,"price":null,"qualified":null},"tax":{"marketValue":null,"assessedValue":null,"taxableValue":null,"taxes":null},"mailingAddress":{"line1":null,"line2":null,"city":null,"state":null,"zip":null},"incomeTract":null,"incomeBlockGroup":null,"nearestRoad":null,"flu":null,"opportunityZone":null,"oz2Eligibility":null,"source":"al-macon-parcels-01087","appraiserUrl":"https://macon.capturecama.com/mapparceldetail/1909320000002000","gisViewerUrl":"https://macon.capturecama.com/parcelviewer/"},"geometry":{"type":"Polygon","coordinates":[[[-85.463968,32.234141],[-85.46396,32.235459],[-85.463922,32.24171],[-85.468225,32.241691],[-85.468228,32.234175],[-85.463968,32.234141]]]}},{"type":"Feature","id":"01087:1908330000013000","properties":{"id":"01087:1908330000013000","parcelId":"1908330000013000","countyFips":"01087","countyName":"Macon","state":"Alabama","marketIds":["Montgomery"],"situsAddress":null,"situsCity":null,"situsZip":null,"jurisdictionCode":null,"ownerName":null,"ownerName2":null,"propertyName":null,"zoningCode":null,"zoningDistrict":null,"jurisdictionPrefix":null,"dorCode":null,"acreage":10.2574,"centroid":[-85.449916,32.235003],"lastSale":{"date":null,"price":null,"qualified":null},"tax":{"marketValue":null,"assessedValue":null,"taxableValue":null,"taxes":null},"mailingAddress":{"line1":null,"line2":null,"city":null,"state":null,"zip":null},"incomeTract":null,"incomeBlockGroup":null,"nearestRoad":null,"flu":null,"opportunityZone":null,"oz2Eligibility":null,"source":"al-macon-parcels-01087","appraiserUrl":"https://macon.capturecama.com/mapparceldetail/1908330000013000","gisViewerUrl":"https://macon.capturecama.com/parcelviewer/"},"geometry":{"type":"Polygon","coordinates":[[[-85.448881,32.234072],[-85.44884,32.235951],[-85.450966,32.235938],[-85.450975,32.234051],[-85.448881,32.234072]]]}}]}