{"type":"FeatureCollection","name":"47135--19_35","features":[{"type":"Feature","id":"47135:068018    00302","properties":{"id":"47135:068018    00302","parcelId":"068018    00302","countyFips":"47135","countyName":"Perry","state":"Tennessee","marketIds":["Nashville"],"situsAddress":"RUSSELL CREEK RD 2520","situsCity":null,"situsZip":null,"jurisdictionCode":null,"ownerName":"DAVIS BRENT W","ownerName2":null,"propertyName":null,"zoningCode":null,"zoningDistrict":null,"jurisdictionPrefix":null,"dorCode":null,"acreage":143.9308,"centroid":[-87.740917,35.76202],"lastSale":{"date":"2003-07-24","price":null,"qualified":null,"vintage":"2023"},"tax":{"marketValue":199400.0,"assessedValue":null,"taxableValue":null,"taxes":null,"vintage":"2023"},"mailingAddress":{"line1":null,"line2":null,"city":null,"state":null,"zip":null},"incomeTract":null,"incomeBlockGroup":null,"nearestRoad":null,"flu":null,"opportunityZone":null,"oz2Eligibility":null,"source":"tn-oir-public-use-47135","appraiserUrl":"https://assessment.cot.tn.gov/TPAD/Parcel/GIS?gislink=068018%20%20%20%2000302"},"geometry":{"type":"Polygon","coordinates":[[[-87.741639,35.761218],[-87.741808,35.75987],[-87.735225,35.759173],[-87.735028,35.760473],[-87.737826,35.765288],[-87.747014,35.766229],[-87.747876,35.761891],[-87.741639,35.761218]]]}},{"type":"Feature","id":"47135:068017    00700","properties":{"id":"47135:068017    00700","parcelId":"068017    00700","countyFips":"47135","countyName":"Perry","state":"Tennessee","marketIds":["Nashville"],"situsAddress":"LOST CREEK RD","situsCity":null,"situsZip":null,"jurisdictionCode":null,"ownerName":"ROONEY CONSTANCE L","ownerName2":null,"propertyName":null,"zoningCode":null,"zoningDistrict":null,"jurisdictionPrefix":null,"dorCode":null,"acreage":114.0781,"centroid":[-87.745167,35.802864],"lastSale":{"date":"2018-09-27","price":100000.0,"qualified":null,"vintage":"2023"},"tax":{"marketValue":40700.0,"assessedValue":null,"taxableValue":null,"taxes":null,"vintage":"2023"},"mailingAddress":{"line1":null,"line2":null,"city":null,"state":null,"zip":null},"incomeTract":null,"incomeBlockGroup":null,"nearestRoad":null,"flu":null,"opportunityZone":null,"oz2Eligibility":null,"source":"tn-oir-public-use-47135","appraiserUrl":"https://assessment.cot.tn.gov/TPAD/Parcel/GIS?gislink=068017%20%20%20%2000700"},"geometry":{"type":"Polygon","coordinates":[[[-87.744031,35.79836],[-87.74198,35.806373],[-87.741717,35.807581],[-87.746407,35.808739],[-87.746777,35.807152],[-87.748141,35.798449],[-87.748147,35.798319],[-87.744138,35.797941],[-87.744031,35.79836]]]}},{"type":"Feature","id":"47135:068018    00300","properties":{"id":"47135:068018    00300","parcelId":"068018    00300","countyFips":"47135","countyName":"Perry","state":"Tennessee","marketIds":["Nashville"],"situsAddress":"RUSSELL CREEK RD 1202","situsCity":null,"situsZip":null,"jurisdictionCode":null,"ownerName":"CHRISTIAN COMMUNITY FARMS","ownerName2":"% MARK DOTY","propertyName":null,"zoningCode":null,"zoningDistrict":null,"jurisdictionPrefix":null,"dorCode":null,"acreage":89.2014,"centroid":[-87.732454,35.76992],"lastSale":{"date":"2021-09-17","price":null,"qualified":null,"vintage":"2023"},"tax":{"marketValue":81300.0,"assessedValue":null,"taxableValue":null,"taxes":null,"vintage":"2023"},"mailingAddress":{"line1":null,"line2":null,"city":null,"state":null,"zip":null},"incomeTract":null,"incomeBlockGroup":null,"nearestRoad":null,"flu":null,"opportunityZone":null,"oz2Eligibility":null,"source":"tn-oir-public-use-47135","appraiserUrl":"https://assessment.cot.tn.gov/TPAD/Parcel/GIS?gislink=068018%20%20%20%2000300"},"geometry":{"type":"Polygon","coordinates":[[[-87.731543,35.774633],[-87.733087,35.774744],[-87.733381,35.772257],[-87.737041,35.772427],[-87.737397,35.76787],[-87.737282,35.767831],[-87.737177,35.767789],[-87.737074,35.767739],[-87.736978,35.767684],[-87.73571,35.766854],[-87.735563,35.766746],[-87.734274,35.766886],[-87.733242,35.766749],[-87.733744,35.769384],[-87.733635,35.769459],[-87.733542,35.76951],[-87.73344,35.769555],[-87.733334,35.769591],[-87.733227,35.769619],[-87.733126,35.769636],[-87.733018,35.769647],[-87.732922,35.76965],[-87.732774,35.769645],[-87.732678,35.769646],[-87.732576,35.769652],[-87.732469,35.769665],[-87.732375,35.769682],[-87.732274,35.769706],[-87.731855,35.769831],[-87.731796,35.769855],[-87.731733,35.769886],[-87.731675,35.769922],[-87.731623,35.769959],[-87.731551,35.770026],[-87.731465,35.770128],[-87.731414,35.770181],[-87.731349,35.770238],[-87.731273,35.770293],[-87.731196,35.77034],[-87.731118,35.770379],[-87.731027,35.770417],[-87.730938,35.770445],[-87.730859,35.770465],[-87.730776,35.77048],[-87.730701,35.770488],[-87.730618,35.770493],[-87.73049,35.77049],[-87.730323,35.770491],[-87.73001,35.770467],[-87.72986,35.770516],[-87.7296,35.770614],[-87.729223,35.770654],[-87.729067,35.770703],[-87.728898,35.770794],[-87.729636,35.772804],[-87.731543,35.774633]]]}},{"type":"Feature","id":"47135:068018    00301","properties":{"id":"47135:068018    00301","parcelId":"068018    00301","countyFips":"47135","countyName":"Perry","state":"Tennessee","marketIds":["Nashville"],"situsAddress":"RUSSELL CREEK RD 3083","situsCity":null,"situsZip":null,"jurisdictionCode":null,"ownerName":"CHRISTIAN COMMUNITY FARMS","ownerName2":"MAHLON SHIRK","propertyName":null,"zoningCode":null,"zoningDistrict":null,"jurisdictionPrefix":null,"dorCode":null,"acreage":85.5702,"centroid":[-87.734334,35.765478],"lastSale":{"date":"2021-09-17","price":null,"qualified":null,"vintage":"2023"},"tax":{"marketValue":64300.0,"assessedValue":null,"taxableValue":null,"taxes":null,"vintage":"2023"},"mailingAddress":{"line1":null,"line2":null,"city":null,"state":null,"zip":null},"incomeTract":null,"incomeBlockGroup":null,"nearestRoad":null,"flu":null,"opportunityZone":null,"oz2Eligibility":null,"source":"tn-oir-public-use-47135","appraiserUrl":"https://assessment.cot.tn.gov/TPAD/Parcel/GIS?gislink=068018%20%20%20%2000301"},"geometry":{"type":"MultiPolygon","coordinates":[[[[-87.732001,35.763293],[-87.731192,35.76419],[-87.732081,35.76472],[-87.732141,35.764752],[-87.732207,35.764781],[-87.732305,35.764815],[-87.732409,35.76484],[-87.732758,35.764883],[-87.732885,35.764906],[-87.733007,35.764934],[-87.733108,35.76496],[-87.733186,35.764986],[-87.733267,35.76502],[-87.73334,35.765059],[-87.733427,35.765115],[-87.733626,35.765268],[-87.733787,35.765374],[-87.733968,35.765476],[-87.734194,35.765584],[-87.734287,35.765632],[-87.734397,35.765697],[-87.7345,35.765766],[-87.734622,35.76586],[-87.734798,35.766018],[-87.734903,35.766103],[-87.735027,35.76619],[-87.735204,35.766299],[-87.735298,35.766368],[-87.735385,35.766444],[-87.735501,35.766567],[-87.735577,35.766639],[-87.735667,35.766714],[-87.735763,35.766783],[-87.737045,35.767622],[-87.737131,35.767671],[-87.73722,35.767714],[-87.737308,35.76775],[-87.737404,35.767784],[-87.737826,35.765288],[-87.735028,35.760473],[-87.732912,35.76028],[-87.732001,35.763293]]],[[[-87.728941,35.76618],[-87.734274,35.766886],[-87.735563,35.766746],[-87.735458,35.766654],[-87.735315,35.766505],[-87.735232,35.76643],[-87.735142,35.766364],[-87.734964,35.766254],[-87.734834,35.766163],[-87.734725,35.766075],[-87.73455,35.765918],[-87.734431,35.765826],[-87.734331,35.76576],[-87.734229,35.7657],[-87.734142,35.765655],[-87.733914,35.765546],[-87.733726,35.76544],[-87.733563,35.765333],[-87.733355,35.765173],[-87.733274,35.765122],[-87.733206,35.765087],[-87.733139,35.765059],[-87.733075,35.765038],[-87.732972,35.765011],[-87.732845,35.764983],[-87.732723,35.764962],[-87.732463,35.764932],[-87.732376,35.764918],[-87.732254,35.764888],[-87.732143,35.764847],[-87.732077,35.764816],[-87.732016,35.764783],[-87.730867,35.764098],[-87.728941,35.76618]]]]}},{"type":"Feature","id":"47135:068016    00800","properties":{"id":"47135:068016    00800","parcelId":"068016    00800","countyFips":"47135","countyName":"Perry","state":"Tennessee","marketIds":["Nashville"],"situsAddress":"WHITTEN HOLLOW RD 730","situsCity":null,"situsZip":null,"jurisdictionCode":null,"ownerName":"ROONEY CONSTANCE L","ownerName2":null,"propertyName":null,"zoningCode":null,"zoningDistrict":null,"jurisdictionPrefix":null,"dorCode":null,"acreage":84.3185,"centroid":[-87.748255,35.805673],"lastSale":{"date":"2006-08-10","price":100500.0,"qualified":null,"vintage":"2023"},"tax":{"marketValue":52500.0,"assessedValue":null,"taxableValue":null,"taxes":null,"vintage":"2023"},"mailingAddress":{"line1":null,"line2":null,"city":null,"state":null,"zip":null},"incomeTract":null,"incomeBlockGroup":null,"nearestRoad":null,"flu":null,"opportunityZone":null,"oz2Eligibility":null,"source":"tn-oir-public-use-47135","appraiserUrl":"https://assessment.cot.tn.gov/TPAD/Parcel/GIS?gislink=068016%20%20%20%2000800"},"geometry":{"type":"Polygon","coordinates":[[[-87.747014,35.805645],[-87.746777,35.807152],[-87.746407,35.808739],[-87.747082,35.808697],[-87.753497,35.808542],[-87.749175,35.800521],[-87.747833,35.800415],[-87.747014,35.805645]]]}},{"type":"Feature","id":"47135:068019    04604","properties":{"id":"47135:068019    04604","parcelId":"068019    04604","countyFips":"47135","countyName":"Perry","state":"Tennessee","marketIds":["Nashville"],"situsAddress":"RUSSELL CREEK RD 2182","situsCity":null,"situsZip":null,"jurisdictionCode":null,"ownerName":"CHRISTIAN COMMUNITY FARMS","ownerName2":"ELVIN SHIRK","propertyName":null,"zoningCode":null,"zoningDistrict":null,"jurisdictionPrefix":null,"dorCode":null,"acreage":74.3698,"centroid":[-87.748704,35.767026],"lastSale":{"date":"2021-09-17","price":null,"qualified":null,"vintage":"2023"},"tax":{"marketValue":118900.0,"assessedValue":null,"taxableValue":null,"taxes":null,"vintage":"2023"},"mailingAddress":{"line1":null,"line2":null,"city":null,"state":null,"zip":null},"incomeTract":null,"incomeBlockGroup":null,"nearestRoad":null,"flu":null,"opportunityZone":null,"oz2Eligibility":null,"source":"tn-oir-public-use-47135","appraiserUrl":"https://assessment.cot.tn.gov/TPAD/Parcel/GIS?gislink=068019%20%20%20%2004604"},"geometry":{"type":"Polygon","coordinates":[[[-87.746264,35.771412],[-87.747576,35.771743],[-87.747689,35.771231],[-87.747829,35.771098],[-87.748546,35.770781],[-87.749495,35.768836],[-87.749567,35.767238],[-87.748897,35.766031],[-87.748812,35.765398],[-87.750318,35.765179],[-87.752411,35.764456],[-87.752838,35.763255],[-87.752902,35.762431],[-87.751262,35.762335],[-87.750653,35.762394],[-87.749819,35.762898],[-87.748083,35.763358],[-87.747588,35.76334],[-87.747014,35.766229],[-87.746006,35.76832],[-87.74531,35.771142],[-87.745532,35.771212],[-87.745776,35.771284],[-87.746264,35.771412]]]}},{"type":"Feature","id":"47135:068018    00400","properties":{"id":"47135:068018    00400","parcelId":"068018    00400","countyFips":"47135","countyName":"Perry","state":"Tennessee","marketIds":["Nashville"],"situsAddress":"RUSSELL CREEK RD 2365","situsCity":null,"situsZip":null,"jurisdictionCode":null,"ownerName":"RUSSEL CREEK CHRISTIAN COMMUNITY FARMS","ownerName2":"% MAST HENRY A","propertyName":null,"zoningCode":null,"zoningDistrict":null,"jurisdictionPrefix":null,"dorCode":null,"acreage":69.0906,"centroid":[-87.729044,35.77465],"lastSale":{"date":"2003-12-09","price":null,"qualified":null,"vintage":"2023"},"tax":{"marketValue":309000.0,"assessedValue":null,"taxableValue":null,"taxes":null,"vintage":"2023"},"mailingAddress":{"line1":null,"line2":null,"city":null,"state":null,"zip":null},"incomeTract":null,"incomeBlockGroup":null,"nearestRoad":null,"flu":null,"opportunityZone":null,"oz2Eligibility":null,"source":"tn-oir-public-use-47135","appraiserUrl":"https://assessment.cot.tn.gov/TPAD/Parcel/GIS?gislink=068018%20%20%20%2000400","joinMethod":"spatial-parent-2023","parentParcelId":"068018    00100"},"geometry":{"type":"Polygon","coordinates":[[[-87.728114,35.774387],[-87.72729,35.782466],[-87.72795,35.782514],[-87.734483,35.775522],[-87.736003,35.77428],[-87.736241,35.77239],[-87.733984,35.772285],[-87.734572,35.773103],[-87.734876,35.773441],[-87.734798,35.773884],[-87.734861,35.77426],[-87.734775,35.774514],[-87.734435,35.774915],[-87.734323,35.775191],[-87.734113,35.775353],[-87.733428,35.775573],[-87.733038,35.775606],[-87.732786,35.775709],[-87.732534,35.775896],[-87.732434,35.776138],[-87.732518,35.776522],[-87.732484,35.77667],[-87.732256,35.77685],[-87.732099,35.777016],[-87.731832,35.777463],[-87.731587,35.777603],[-87.730491,35.775656],[-87.729032,35.774453],[-87.728114,35.774387]]]}},{"type":"Feature","id":"47135:068017    00200","properties":{"id":"47135:068017    00200","parcelId":"068017    00200","countyFips":"47135","countyName":"Perry","state":"Tennessee","marketIds":["Nashville"],"situsAddress":"LOST CREEK RD 2955","situsCity":null,"situsZip":null,"jurisdictionCode":null,"ownerName":"LEE BARBARA","ownerName2":null,"propertyName":null,"zoningCode":null,"zoningDistrict":null,"jurisdictionPrefix":null,"dorCode":null,"acreage":64.9728,"centroid":[-87.747426,35.797975],"lastSale":{"date":"2010-05-10","price":null,"qualified":null,"vintage":"2023"},"tax":{"marketValue":42200.0,"assessedValue":null,"taxableValue":null,"taxes":null,"vintage":"2023"},"mailingAddress":{"line1":null,"line2":null,"city":null,"state":null,"zip":null},"incomeTract":null,"incomeBlockGroup":null,"nearestRoad":null,"flu":null,"opportunityZone":null,"oz2Eligibility":null,"source":"tn-oir-public-use-47135","appraiserUrl":"https://assessment.cot.tn.gov/TPAD/Parcel/GIS?gislink=068017%20%20%20%2000200"},"geometry":{"type":"Polygon","coordinates":[[[-87.745779,35.798095],[-87.748147,35.798319],[-87.748763,35.793814],[-87.741942,35.793153],[-87.741361,35.797679],[-87.743918,35.79792],[-87.74387,35.797855],[-87.743704,35.797595],[-87.743644,35.797312],[-87.743734,35.797158],[-87.743863,35.796894],[-87.743858,35.796687],[-87.743798,35.796403],[-87.74383,35.796021],[-87.743884,35.795746],[-87.743999,35.795693],[-87.745257,35.794963],[-87.745087,35.796315],[-87.746191,35.796862],[-87.746169,35.79753],[-87.745779,35.798095]]]}},{"type":"Feature","id":"47135:068018    00303","properties":{"id":"47135:068018    00303","parcelId":"068018    00303","countyFips":"47135","countyName":"Perry","state":"Tennessee","marketIds":["Nashville"],"situsAddress":"RUSSELL CREEK RD 3278","situsCity":null,"situsZip":null,"jurisdictionCode":null,"ownerName":"SINGH ADRIANA","ownerName2":null,"propertyName":null,"zoningCode":null,"zoningDistrict":null,"jurisdictionPrefix":null,"dorCode":null,"acreage":56.443,"centroid":[-87.729344,35.762637],"lastSale":{"date":"2012-05-15","price":null,"qualified":null,"vintage":"2023"},"tax":{"marketValue":63800.0,"assessedValue":null,"taxableValue":null,"taxes":null,"vintage":"2023"},"mailingAddress":{"line1":null,"line2":null,"city":null,"state":null,"zip":null},"incomeTract":null,"incomeBlockGroup":null,"nearestRoad":null,"flu":null,"opportunityZone":null,"oz2Eligibility":null,"source":"tn-oir-public-use-47135","appraiserUrl":"https://assessment.cot.tn.gov/TPAD/Parcel/GIS?gislink=068018%20%20%20%2000303"},"geometry":{"type":"MultiPolygon","coordinates":[[[[-87.72784,35.762088],[-87.727943,35.762152],[-87.728057,35.762217],[-87.72818,35.762281],[-87.728444,35.762405],[-87.728543,35.76246],[-87.728643,35.762524],[-87.72873,35.762589],[-87.728806,35.762652],[-87.729153,35.762991],[-87.729198,35.763028],[-87.729245,35.763061],[-87.729328,35.763105],[-87.729458,35.763154],[-87.729546,35.763194],[-87.729884,35.763383],[-87.73003,35.763474],[-87.730265,35.763637],[-87.731192,35.76419],[-87.732001,35.763293],[-87.732912,35.76028],[-87.728177,35.759848],[-87.72784,35.762088]]],[[[-87.72774,35.762757],[-87.72762,35.763563],[-87.727547,35.764159],[-87.727283,35.765961],[-87.728941,35.76618],[-87.730867,35.764098],[-87.730193,35.763696],[-87.729974,35.763543],[-87.729825,35.763451],[-87.729498,35.763267],[-87.729413,35.763228],[-87.729274,35.763174],[-87.729179,35.763124],[-87.729129,35.763088],[-87.72908,35.763048],[-87.728732,35.762708],[-87.728658,35.762647],[-87.728578,35.762587],[-87.72849,35.762531],[-87.72841,35.762485],[-87.728062,35.762318],[-87.727943,35.762254],[-87.727826,35.762184],[-87.72774,35.762757]]]]}},{"type":"Feature","id":"47135:068018    00103","properties":{"id":"47135:068018    00103","parcelId":"068018    00103","countyFips":"47135","countyName":"Perry","state":"Tennessee","marketIds":["Nashville"],"situsAddress":"RUSSELL CREEK RD 2525","situsCity":null,"situsZip":null,"jurisdictionCode":null,"ownerName":"CHRISTIAN COMMUNITY FARMS","ownerName2":"HERMAN MAST","propertyName":null,"zoningCode":null,"zoningDistrict":null,"jurisdictionPrefix":null,"dorCode":null,"acreage":48.722,"centroid":[-87.739187,35.769529],"lastSale":{"date":"2003-12-09","price":null,"qualified":null,"vintage":"2023"},"tax":{"marketValue":309000.0,"assessedValue":null,"taxableValue":null,"taxes":null,"vintage":"2023"},"mailingAddress":{"line1":null,"line2":null,"city":null,"state":null,"zip":null},"incomeTract":null,"incomeBlockGroup":null,"nearestRoad":null,"flu":null,"opportunityZone":null,"oz2Eligibility":null,"source":"tn-oir-public-use-47135","appraiserUrl":"https://assessment.cot.tn.gov/TPAD/Parcel/GIS?gislink=068018%20%20%20%2000103","joinMethod":"spatial-parent-2023","parentParcelId":"068018    00100"},"geometry":{"type":"Polygon","coordinates":[[[-87.737041,35.772427],[-87.736716,35.774478],[-87.738868,35.775132],[-87.739678,35.774843],[-87.740409,35.773143],[-87.739923,35.771932],[-87.740351,35.769217],[-87.740299,35.769237],[-87.740246,35.769249],[-87.740188,35.769255],[-87.740134,35.769254],[-87.740076,35.769245],[-87.740025,35.76923],[-87.739976,35.769209],[-87.73993,35.76918],[-87.739884,35.76914],[-87.739849,35.769095],[-87.739828,35.769054],[-87.739785,35.768942],[-87.739745,35.768862],[-87.739686,35.768772],[-87.739613,35.768682],[-87.739528,35.768599],[-87.739436,35.768526],[-87.739335,35.768461],[-87.739218,35.7684],[-87.73857,35.768148],[-87.738433,35.7681],[-87.738306,35.768061],[-87.738162,35.768021],[-87.738003,35.767985],[-87.737839,35.767954],[-87.73758,35.767914],[-87.737489,35.767894],[-87.737397,35.76787],[-87.737041,35.772427]],[[-87.738092,35.768105],[-87.737972,35.768448],[-87.737448,35.768353],[-87.737617,35.767965],[-87.738092,35.768105]]]}},{"type":"Feature","id":"47135:068018    00304","properties":{"id":"47135:068018    00304","parcelId":"068018    00304","countyFips":"47135","countyName":"Perry","state":"Tennessee","marketIds":["Nashville"],"situsAddress":"WALLER RD 358","situsCity":null,"situsZip":null,"jurisdictionCode":null,"ownerName":"BECKHAM RANDY","ownerName2":"C/O PEGGY ANDERSON","propertyName":null,"zoningCode":null,"zoningDistrict":null,"jurisdictionPrefix":null,"dorCode":null,"acreage":48.6392,"centroid":[-87.731376,35.769635],"lastSale":{"date":"1998-03-12","price":70000.0,"qualified":null,"vintage":"2023"},"tax":{"marketValue":78400.0,"assessedValue":null,"taxableValue":null,"taxes":null,"vintage":"2023"},"mailingAddress":{"line1":null,"line2":null,"city":null,"state":null,"zip":null},"incomeTract":null,"incomeBlockGroup":null,"nearestRoad":null,"flu":null,"opportunityZone":null,"oz2Eligibility":null,"source":"tn-oir-public-use-47135","appraiserUrl":"https://assessment.cot.tn.gov/TPAD/Parcel/GIS?gislink=068018%20%20%20%2000304"},"geometry":{"type":"Polygon","coordinates":[[[-87.727283,35.765961],[-87.726925,35.768412],[-87.727095,35.768418],[-87.727685,35.768966],[-87.728775,35.768522],[-87.730147,35.769915],[-87.730699,35.76961],[-87.730977,35.769827],[-87.73049,35.77049],[-87.730572,35.770493],[-87.730655,35.770491],[-87.73074,35.770484],[-87.730821,35.770472],[-87.7309,35.770455],[-87.730981,35.770432],[-87.731063,35.770403],[-87.731135,35.770371],[-87.731257,35.770303],[-87.731363,35.770226],[-87.731447,35.770147],[-87.731563,35.770013],[-87.731645,35.769943],[-87.731698,35.769907],[-87.731753,35.769876],[-87.731813,35.769848],[-87.731873,35.769825],[-87.732284,35.769704],[-87.732375,35.769682],[-87.732469,35.769665],[-87.732576,35.769652],[-87.732678,35.769646],[-87.732774,35.769645],[-87.732922,35.76965],[-87.733028,35.769646],[-87.733143,35.769634],[-87.733258,35.769611],[-87.733392,35.769572],[-87.733522,35.769519],[-87.733635,35.769459],[-87.733744,35.769384],[-87.733242,35.766749],[-87.727283,35.765961]]]}},{"type":"Feature","id":"47135:068005    00300","properties":{"id":"47135:068005    00300","parcelId":"068005    00300","countyFips":"47135","countyName":"Perry","state":"Tennessee","marketIds":["Nashville"],"situsAddress":"DUCK RIVER","situsCity":null,"situsZip":null,"jurisdictionCode":null,"ownerName":"SEITZ MARK TYLER - TRUSTEE","ownerName2":"MARK T SEITZ REV TRUST DATED 10/26/2019","propertyName":null,"zoningCode":null,"zoningDistrict":null,"jurisdictionPrefix":null,"dorCode":null,"acreage":47.8478,"centroid":[-87.722426,35.836132],"lastSale":{"date":"2001-02-13","price":null,"qualified":null,"vintage":"2023"},"tax":{"marketValue":77400.0,"assessedValue":null,"taxableValue":null,"taxes":null,"vintage":"2023"},"mailingAddress":{"line1":null,"line2":null,"city":null,"state":null,"zip":null},"incomeTract":null,"incomeBlockGroup":null,"nearestRoad":null,"flu":null,"opportunityZone":null,"oz2Eligibility":null,"source":"tn-oir-public-use-47135","appraiserUrl":"https://assessment.cot.tn.gov/TPAD/Parcel/GIS?gislink=068005%20%20%20%2000300"},"geometry":{"type":"Polygon","coordinates":[[[-87.723455,35.835118],[-87.723146,35.834967],[-87.722843,35.834861],[-87.722578,35.834822],[-87.722188,35.834824],[-87.721665,35.834808],[-87.721318,35.834836],[-87.721076,35.834887],[-87.720845,35.834906],[-87.720697,35.835106],[-87.720668,35.835631],[-87.720669,35.835909],[-87.720615,35.835972],[-87.72056,35.835999],[-87.720384,35.836067],[-87.720324,35.836116],[-87.720325,35.836296],[-87.720316,35.836605],[-87.720254,35.83717],[-87.720169,35.837735],[-87.720172,35.838138],[-87.720078,35.838429],[-87.727941,35.838447],[-87.727436,35.837822],[-87.727076,35.837527],[-87.726601,35.837157],[-87.725893,35.836636],[-87.725069,35.836084],[-87.724522,35.835732],[-87.723886,35.835341],[-87.723455,35.835118]]]}},{"type":"Feature","id":"47135:068017    00400","properties":{"id":"47135:068017    00400","parcelId":"068017    00400","countyFips":"47135","countyName":"Perry","state":"Tennessee","marketIds":["Nashville"],"situsAddress":"MOSSY SPRING HOLLOW 676","situsCity":null,"situsZip":null,"jurisdictionCode":null,"ownerName":"KOENIG - COLEMAN FAMILY TRUST THE","ownerName2":null,"propertyName":null,"zoningCode":null,"zoningDistrict":null,"jurisdictionPrefix":null,"dorCode":null,"acreage":37.4916,"centroid":[-87.739675,35.795724],"lastSale":{"date":"2016-04-26","price":null,"qualified":null,"vintage":"2023"},"tax":{"marketValue":58000.0,"assessedValue":null,"taxableValue":null,"taxes":null,"vintage":"2023"},"mailingAddress":{"line1":null,"line2":null,"city":null,"state":null,"zip":null},"incomeTract":null,"incomeBlockGroup":null,"nearestRoad":null,"flu":null,"opportunityZone":null,"oz2Eligibility":null,"source":"tn-oir-public-use-47135","appraiserUrl":"https://assessment.cot.tn.gov/TPAD/Parcel/GIS?gislink=068017%20%20%20%2000400"},"geometry":{"type":"Polygon","coordinates":[[[-87.73906,35.792873],[-87.738695,35.792848],[-87.738209,35.797972],[-87.739191,35.798061],[-87.739269,35.797481],[-87.741361,35.797679],[-87.741942,35.793153],[-87.73906,35.792873]]]}},{"type":"Feature","id":"47135:068018    00305","properties":{"id":"47135:068018    00305","parcelId":"068018    00305","countyFips":"47135","countyName":"Perry","state":"Tennessee","marketIds":["Nashville"],"situsAddress":"WALLER RD 631","situsCity":null,"situsZip":null,"jurisdictionCode":null,"ownerName":null,"ownerName2":null,"propertyName":null,"zoningCode":null,"zoningDistrict":null,"jurisdictionPrefix":null,"dorCode":null,"acreage":34.4294,"centroid":[-87.72772,35.772396],"lastSale":{"date":"2002-11-19","price":null,"qualified":null,"vintage":"2023"},"tax":{"marketValue":94900.0,"assessedValue":null,"taxableValue":null,"taxes":null,"vintage":"2023"},"mailingAddress":{"line1":null,"line2":null,"city":null,"state":null,"zip":null},"incomeTract":null,"incomeBlockGroup":null,"nearestRoad":null,"flu":null,"opportunityZone":null,"oz2Eligibility":null,"source":"tn-oir-public-use-47135","appraiserUrl":"https://assessment.cot.tn.gov/TPAD/Parcel/GIS?gislink=068018%20%20%20%2000305"},"geometry":{"type":"Polygon","coordinates":[[[-87.729032,35.774453],[-87.731543,35.774633],[-87.729636,35.772804],[-87.728783,35.770481],[-87.726715,35.76985],[-87.726458,35.771602],[-87.726657,35.771822],[-87.726864,35.771869],[-87.726829,35.77213],[-87.726331,35.772476],[-87.726073,35.77424],[-87.729032,35.774453]]]}},{"type":"Feature","id":"47135:068018    00104","properties":{"id":"47135:068018    00104","parcelId":"068018    00104","countyFips":"47135","countyName":"Perry","state":"Tennessee","marketIds":["Nashville"],"situsAddress":"RUSSELL CREEK RD 2182","situsCity":null,"situsZip":null,"jurisdictionCode":null,"ownerName":"CHRISTIAN COMMUNITY FARMS","ownerName2":"SHIRK JOHN","propertyName":null,"zoningCode":null,"zoningDistrict":null,"jurisdictionPrefix":null,"dorCode":null,"acreage":29.5384,"centroid":[-87.743469,35.76707],"lastSale":{"date":"2003-12-09","price":null,"qualified":null,"vintage":"2023"},"tax":{"marketValue":309000.0,"assessedValue":null,"taxableValue":null,"taxes":null,"vintage":"2023"},"mailingAddress":{"line1":null,"line2":null,"city":null,"state":null,"zip":null},"incomeTract":null,"incomeBlockGroup":null,"nearestRoad":null,"flu":null,"opportunityZone":null,"oz2Eligibility":null,"source":"tn-oir-public-use-47135","appraiserUrl":"https://assessment.cot.tn.gov/TPAD/Parcel/GIS?gislink=068018%20%20%20%2000104","joinMethod":"spatial-parent-2023","parentParcelId":"068018    00100"},"geometry":{"type":"Polygon","coordinates":[[[-87.74286,35.767014],[-87.743667,35.767479],[-87.743428,35.769583],[-87.745446,35.770592],[-87.746006,35.76832],[-87.747014,35.766229],[-87.742437,35.765761],[-87.742559,35.765908],[-87.742668,35.766071],[-87.742754,35.766234],[-87.742824,35.766408],[-87.742872,35.766581],[-87.742887,35.766658],[-87.742895,35.766729],[-87.742896,35.7668],[-87.74289,35.766873],[-87.742878,35.766946],[-87.74286,35.767014]]]}},{"type":"Feature","id":"47135:068018    00500","properties":{"id":"47135:068018    00500","parcelId":"068018    00500","countyFips":"47135","countyName":"Perry","state":"Tennessee","marketIds":["Nashville"],"situsAddress":"RUSSELL CREEK RD 2365","situsCity":null,"situsZip":null,"jurisdictionCode":null,"ownerName":"RUSSEL CREEK CHRISTIAN COMMUNITY FARMS","ownerName2":"% MAST HENRY A","propertyName":null,"zoningCode":null,"zoningDistrict":null,"jurisdictionPrefix":null,"dorCode":null,"acreage":25.3145,"centroid":[-87.733072,35.775213],"lastSale":{"date":"2003-12-09","price":null,"qualified":null,"vintage":"2023"},"tax":{"marketValue":309000.0,"assessedValue":null,"taxableValue":null,"taxes":null,"vintage":"2023"},"mailingAddress":{"line1":null,"line2":null,"city":null,"state":null,"zip":null},"incomeTract":null,"incomeBlockGroup":null,"nearestRoad":null,"flu":null,"opportunityZone":null,"oz2Eligibility":null,"source":"tn-oir-public-use-47135","appraiserUrl":"https://assessment.cot.tn.gov/TPAD/Parcel/GIS?gislink=068018%20%20%20%2000500","joinMethod":"spatial-parent-2023","parentParcelId":"068018    00100"},"geometry":{"type":"Polygon","coordinates":[[[-87.729032,35.774453],[-87.730491,35.775656],[-87.731587,35.777603],[-87.731832,35.777463],[-87.732099,35.777016],[-87.732256,35.77685],[-87.732484,35.77667],[-87.732518,35.776522],[-87.732434,35.776138],[-87.732534,35.775896],[-87.732786,35.775709],[-87.733038,35.775606],[-87.733428,35.775573],[-87.734113,35.775353],[-87.734323,35.775191],[-87.734435,35.774915],[-87.734775,35.774514],[-87.734861,35.77426],[-87.734798,35.773884],[-87.734876,35.773441],[-87.734572,35.773103],[-87.733984,35.772285],[-87.733381,35.772257],[-87.733087,35.774744],[-87.729032,35.774453]]]}},{"type":"Feature","id":"47135:068018    00102","properties":{"id":"47135:068018    00102","parcelId":"068018    00102","countyFips":"47135","countyName":"Perry","state":"Tennessee","marketIds":["Nashville"],"situsAddress":"RUSSELL CREEK RD 2365","situsCity":null,"situsZip":null,"jurisdictionCode":null,"ownerName":"CHRISTIAN COMMUNITY FARMS","ownerName2":"DANIEL BRUBAKER","propertyName":null,"zoningCode":null,"zoningDistrict":null,"jurisdictionPrefix":null,"dorCode":null,"acreage":23.9881,"centroid":[-87.741845,35.76705],"lastSale":{"date":"2003-12-09","price":null,"qualified":null,"vintage":"2023"},"tax":{"marketValue":309000.0,"assessedValue":null,"taxableValue":null,"taxes":null,"vintage":"2023"},"mailingAddress":{"line1":null,"line2":null,"city":null,"state":null,"zip":null},"incomeTract":null,"incomeBlockGroup":null,"nearestRoad":null,"flu":null,"opportunityZone":null,"oz2Eligibility":null,"source":"tn-oir-public-use-47135","appraiserUrl":"https://assessment.cot.tn.gov/TPAD/Parcel/GIS?gislink=068018%20%20%20%2000102","joinMethod":"spatial-parent-2023","parentParcelId":"068018    00100"},"geometry":{"type":"Polygon","coordinates":[[[-87.737571,35.766797],[-87.738434,35.766681],[-87.739324,35.767305],[-87.740212,35.768081],[-87.740933,35.768393],[-87.741071,35.768239],[-87.741642,35.767534],[-87.741682,35.767493],[-87.741732,35.767455],[-87.741784,35.767424],[-87.741842,35.7674],[-87.7419,35.767383],[-87.741966,35.767371],[-87.742021,35.767367],[-87.742073,35.767369],[-87.742198,35.767387],[-87.742253,35.767391],[-87.742315,35.767388],[-87.742377,35.767379],[-87.742439,35.767362],[-87.742495,35.76734],[-87.742549,35.767309],[-87.742597,35.767273],[-87.742639,35.767232],[-87.74267,35.767191],[-87.742711,35.767119],[-87.742742,35.76705],[-87.742766,35.766982],[-87.742782,35.766912],[-87.742792,35.766844],[-87.742795,35.766771],[-87.742785,35.766658],[-87.742753,35.766518],[-87.742707,35.766375],[-87.742647,35.766238],[-87.742578,35.766109],[-87.742494,35.765981],[-87.742402,35.765863],[-87.742296,35.765746],[-87.737826,35.765288],[-87.737571,35.766797]]]}},{"type":"Feature","id":"47135:068019    04605","properties":{"id":"47135:068019    04605","parcelId":"068019    04605","countyFips":"47135","countyName":"Perry","state":"Tennessee","marketIds":["Nashville"],"situsAddress":"RUSSELL CREEK RD 2025","situsCity":null,"situsZip":null,"jurisdictionCode":null,"ownerName":"PEARL ROBERT E & KATHRYN J - TRUSTEES","ownerName2":"ROBERT & KATHRYN PEARLLIVING TRUST6/2/25","propertyName":null,"zoningCode":null,"zoningDistrict":null,"jurisdictionPrefix":null,"dorCode":null,"acreage":22.675,"centroid":[-87.74769,35.77427],"lastSale":{"date":"2022-09-20","price":null,"qualified":null,"vintage":"2023"},"tax":{"marketValue":162200.0,"assessedValue":null,"taxableValue":null,"taxes":null,"vintage":"2023"},"mailingAddress":{"line1":null,"line2":null,"city":null,"state":null,"zip":null},"incomeTract":null,"incomeBlockGroup":null,"nearestRoad":null,"flu":null,"opportunityZone":null,"oz2Eligibility":null,"source":"tn-oir-public-use-47135","appraiserUrl":"https://assessment.cot.tn.gov/TPAD/Parcel/GIS?gislink=068019%20%20%20%2004605"},"geometry":{"type":"Polygon","coordinates":[[[-87.746348,35.776997],[-87.747802,35.776982],[-87.749413,35.772455],[-87.749618,35.77234],[-87.749403,35.77229],[-87.747502,35.771811],[-87.747295,35.773935],[-87.746745,35.773645],[-87.746424,35.776131],[-87.74635,35.776118],[-87.746348,35.776997]]]}},{"type":"Feature","id":"47135:068005    00400","properties":{"id":"47135:068005    00400","parcelId":"068005    00400","countyFips":"47135","countyName":"Perry","state":"Tennessee","marketIds":["Nashville"],"situsAddress":"DUCK RIVER","situsCity":null,"situsZip":null,"jurisdictionCode":null,"ownerName":"LYLES H NELSON JR","ownerName2":null,"propertyName":null,"zoningCode":null,"zoningDistrict":null,"jurisdictionPrefix":null,"dorCode":null,"acreage":19.6621,"centroid":[-87.719651,35.837012],"lastSale":{"date":"2021-12-09","price":null,"qualified":null,"vintage":"2023"},"tax":{"marketValue":52200.0,"assessedValue":null,"taxableValue":null,"taxes":null,"vintage":"2023"},"mailingAddress":{"line1":null,"line2":null,"city":null,"state":null,"zip":null},"incomeTract":null,"incomeBlockGroup":null,"nearestRoad":null,"flu":null,"opportunityZone":null,"oz2Eligibility":null,"source":"tn-oir-public-use-47135","appraiserUrl":"https://assessment.cot.tn.gov/TPAD/Parcel/GIS?gislink=068005%20%20%20%2000400"},"geometry":{"type":"Polygon","coordinates":[[[-87.720324,35.836116],[-87.720384,35.836067],[-87.72044,35.836045],[-87.717019,35.836113],[-87.716681,35.838421],[-87.720078,35.838429],[-87.720172,35.838138],[-87.720169,35.837735],[-87.720254,35.83717],[-87.720316,35.836605],[-87.720325,35.836296],[-87.720324,35.836116]]]}},{"type":"Feature","id":"47135:068005    00200","properties":{"id":"47135:068005    00200","parcelId":"068005    00200","countyFips":"47135","countyName":"Perry","state":"Tennessee","marketIds":["Nashville"],"situsAddress":"DUCK RIVER","situsCity":null,"situsZip":null,"jurisdictionCode":null,"ownerName":"MILLER JOSEPH","ownerName2":null,"propertyName":null,"zoningCode":null,"zoningDistrict":null,"jurisdictionPrefix":null,"dorCode":null,"acreage":18.0455,"centroid":[-87.731597,35.837754],"lastSale":{"date":"2010-12-15","price":471073.0,"qualified":null,"vintage":"2023"},"tax":{"marketValue":11000.0,"assessedValue":null,"taxableValue":null,"taxes":null,"vintage":"2023"},"mailingAddress":{"line1":null,"line2":null,"city":null,"state":null,"zip":null},"incomeTract":null,"incomeBlockGroup":null,"nearestRoad":null,"flu":null,"opportunityZone":null,"oz2Eligibility":null,"source":"tn-oir-public-use-47135","appraiserUrl":"https://assessment.cot.tn.gov/TPAD/Parcel/GIS?gislink=068005%20%20%20%2000200"},"geometry":{"type":"MultiPolygon","coordinates":[[[[-87.728166,35.837473],[-87.728966,35.83845],[-87.740071,35.838475],[-87.732737,35.837699],[-87.731792,35.837573],[-87.73162,35.837521],[-87.727828,35.837088],[-87.728166,35.837473]]],[[[-87.720078,35.834213],[-87.720265,35.834195],[-87.720266,35.834192],[-87.720078,35.834213]]],[[[-87.725468,35.835493],[-87.725469,35.835494],[-87.725479,35.835328],[-87.725468,35.835493]]]]}},{"type":"Feature","id":"47135:068018    00307","properties":{"id":"47135:068018    00307","parcelId":"068018    00307","countyFips":"47135","countyName":"Perry","state":"Tennessee","marketIds":["Nashville"],"situsAddress":"RUSSELL CREEK RD","situsCity":null,"situsZip":null,"jurisdictionCode":null,"ownerName":"BECKHAM RANDY","ownerName2":"C/O PEGGY ANDERSON","propertyName":null,"zoningCode":null,"zoningDistrict":null,"jurisdictionPrefix":null,"dorCode":null,"acreage":13.1171,"centroid":[-87.729134,35.769925],"lastSale":{"date":"1997-07-31","price":20000.0,"qualified":null,"vintage":"2023"},"tax":{"marketValue":18400.0,"assessedValue":null,"taxableValue":null,"taxes":null,"vintage":"2023"},"mailingAddress":{"line1":null,"line2":null,"city":null,"state":null,"zip":null},"incomeTract":null,"incomeBlockGroup":null,"nearestRoad":null,"flu":null,"opportunityZone":null,"oz2Eligibility":null,"source":"tn-oir-public-use-47135","appraiserUrl":"https://assessment.cot.tn.gov/TPAD/Parcel/GIS?gislink=068018%20%20%20%2000307"},"geometry":{"type":"Polygon","coordinates":[[[-87.730147,35.769915],[-87.728775,35.768522],[-87.727685,35.768966],[-87.727095,35.768418],[-87.726925,35.768412],[-87.726715,35.76985],[-87.728783,35.770481],[-87.728898,35.770794],[-87.729067,35.770703],[-87.729223,35.770654],[-87.7296,35.770614],[-87.72986,35.770516],[-87.73001,35.770467],[-87.730323,35.770491],[-87.73049,35.77049],[-87.730977,35.769827],[-87.730699,35.76961],[-87.730147,35.769915]]]}},{"type":"Feature","id":"47135:068017    00600","properties":{"id":"47135:068017    00600","parcelId":"068017    00600","countyFips":"47135","countyName":"Perry","state":"Tennessee","marketIds":["Nashville"],"situsAddress":"LOST CREEK","situsCity":null,"situsZip":null,"jurisdictionCode":null,"ownerName":"HENDRIK M GERRITS","ownerName2":null,"propertyName":null,"zoningCode":null,"zoningDistrict":null,"jurisdictionPrefix":null,"dorCode":null,"acreage":6.3197,"centroid":[-87.744108,35.796727],"lastSale":{"date":"2018-04-12","price":null,"qualified":null,"vintage":"2023"},"tax":{"marketValue":10700.0,"assessedValue":null,"taxableValue":null,"taxes":null,"vintage":"2023"},"mailingAddress":{"line1":null,"line2":null,"city":null,"state":null,"zip":null},"incomeTract":null,"incomeBlockGroup":null,"nearestRoad":null,"flu":null,"opportunityZone":null,"oz2Eligibility":null,"source":"tn-oir-public-use-47135","appraiserUrl":"https://assessment.cot.tn.gov/TPAD/Parcel/GIS?gislink=068017%20%20%20%2000600"},"geometry":{"type":"Polygon","coordinates":[[[-87.743999,35.795693],[-87.743884,35.795746],[-87.74383,35.796021],[-87.743798,35.796403],[-87.743858,35.796687],[-87.743863,35.796894],[-87.743734,35.797158],[-87.743644,35.797312],[-87.743704,35.797595],[-87.74387,35.797855],[-87.743918,35.79792],[-87.744467,35.797972],[-87.744706,35.796365],[-87.745087,35.796315],[-87.745257,35.794963],[-87.743999,35.795693]]]}},{"type":"Feature","id":"47135:068017    00500","properties":{"id":"47135:068017    00500","parcelId":"068017    00500","countyFips":"47135","countyName":"Perry","state":"Tennessee","marketIds":["Nashville"],"situsAddress":"LOST CREEK","situsCity":null,"situsZip":null,"jurisdictionCode":null,"ownerName":"HENDRIK M GERRITS","ownerName2":null,"propertyName":null,"zoningCode":null,"zoningDistrict":null,"jurisdictionPrefix":null,"dorCode":null,"acreage":5.8071,"centroid":[-87.7454,35.79719],"lastSale":{"date":"2013-10-17","price":null,"qualified":null,"vintage":"2023"},"tax":{"marketValue":9400.0,"assessedValue":null,"taxableValue":null,"taxes":null,"vintage":"2023"},"mailingAddress":{"line1":null,"line2":null,"city":null,"state":null,"zip":null},"incomeTract":null,"incomeBlockGroup":null,"nearestRoad":null,"flu":null,"opportunityZone":null,"oz2Eligibility":null,"source":"tn-oir-public-use-47135","appraiserUrl":"https://assessment.cot.tn.gov/TPAD/Parcel/GIS?gislink=068017%20%20%20%2000500"},"geometry":{"type":"Polygon","coordinates":[[[-87.744706,35.796365],[-87.744467,35.797972],[-87.745779,35.798095],[-87.746169,35.79753],[-87.746191,35.796862],[-87.745087,35.796315],[-87.744706,35.796365]]]}}]}