{"type":"FeatureCollection","name":"12033--16_13","features":[{"type":"Feature","id":"12033:282S260900000006","properties":{"id":"12033:282S260900000006","parcelId":"282S260900000006","countyFips":"12033","countyName":"Escambia","state":"Florida","marketIds":["Pensacola"],"situsAddress":"GULF BLVD 8 MILES E OF PB","situsCity":"PENSACOLA BEACH","situsZip":"32561","jurisdictionCode":"Pensacola","ownerName":"UNITED STATES GOVERNMENT","ownerName2":null,"propertyName":null,"zoningCode":"NONE","zoningDistrict":null,"jurisdictionPrefix":"B","dorCode":"8800","acreage":144.2384,"centroid":[-86.99165,30.361767],"lastSale":{"date":null,"price":null,"qualified":null},"tax":{"marketValue":86538000.0,"assessedValue":86538000.0,"taxableValue":null,"taxes":null},"mailingAddress":{"line1":"DEPT OF INTERIOR NATIONAL PARK SERVICE","line2":null,"city":"WASHINGTON","state":"DC","zip":"20240"},"incomeTract":null,"incomeBlockGroup":null,"nearestRoad":null,"flu":{"code":"CON","label":"CON","jurisdiction":"Escambia Accela \u2014 Pensacola city REST blocked","source":"https://gismaps.myescambia.com/arcgis/rest/services/AccelaMain/MapServer/22"},"opportunityZone":null,"oz2Eligibility":null,"source":"fl-panhandle-12033","gisViewerUrl":"https://maps.roktech.net/escambia_gomaps4/?mapName=General","appraiserUrl":"https://www.escpa.org/cama/Detail_a.aspx?s=282S260900000006"},"geometry":{"type":"MultiPolygon","coordinates":[[[[-86.982935,30.364353],[-86.983122,30.364273],[-86.983177,30.36426],[-86.983959,30.363829],[-86.984423,30.36354],[-86.984628,30.363449],[-86.985032,30.363193],[-86.986414,30.362559],[-86.986752,30.362444],[-86.987064,30.362374],[-86.98835,30.362178],[-86.988907,30.362132],[-86.989337,30.362144],[-86.989882,30.362201],[-86.990283,30.362174],[-86.990967,30.362053],[-86.991246,30.361959],[-86.991828,30.361804],[-86.992742,30.361647],[-86.992921,30.361604],[-86.99303,30.361554],[-86.993389,30.361675],[-86.993604,30.361623],[-86.994189,30.361604],[-86.994467,30.361638],[-86.994588,30.361672],[-86.994874,30.361683],[-86.995241,30.361776],[-86.995693,30.361803],[-86.995959,30.361844],[-86.996071,30.36188],[-86.9963,30.361885],[-86.996428,30.361939],[-86.996824,30.362008],[-86.996941,30.362063],[-86.997257,30.362163],[-86.997462,30.362271],[-86.997626,30.362272],[-86.997661,30.362286],[-86.997689,30.362402],[-86.997593,30.358046],[-86.996486,30.358218],[-86.996133,30.358309],[-86.993956,30.359039],[-86.993206,30.359261],[-86.99267,30.359377],[-86.985196,30.360547],[-86.983514,30.360771],[-86.982857,30.360815],[-86.982935,30.364353]]],[[[-86.990797,30.358256],[-86.990206,30.35831],[-86.989764,30.358389],[-86.989092,30.358473],[-86.988225,30.358675],[-86.987436,30.358704],[-86.982811,30.359515],[-86.982849,30.360485],[-86.983474,30.360442],[-86.985132,30.360221],[-86.992591,30.359054],[-86.993098,30.358944],[-86.993826,30.358728],[-86.996011,30.357996],[-86.996398,30.357896],[-86.997586,30.357711],[-86.997555,30.357099],[-86.997067,30.357124],[-86.992302,30.35797],[-86.991697,30.358096],[-86.991268,30.358033],[-86.990797,30.358256]]]]}}]}