{"type":"FeatureCollection","name":"12033--17_15","features":[{"type":"Feature","id":"12033:306N291000000000","properties":{"id":"12033:306N291000000000","parcelId":"306N291000000000","countyFips":"12033","countyName":"Escambia","state":"Florida","marketIds":["Pensacola"],"situsAddress":"OIL COMPANY RD","situsCity":"CENTURY","situsZip":"32535","jurisdictionCode":"Escambia County","ownerName":"MCNEAL KATE NEAL &  SHEPHERD LAUREN NEAL &  ADAMS","ownerName2":null,"propertyName":null,"zoningCode":"Ind","zoningDistrict":null,"jurisdictionPrefix":"MSTU","dorCode":"5500","acreage":138.91,"centroid":[-87.170938,30.996288],"lastSale":{"date":null,"price":null,"qualified":null},"tax":{"marketValue":14586.0,"assessedValue":14586.0,"taxableValue":13891.0,"taxes":null},"mailingAddress":{"line1":"214 DEER ST","line2":null,"city":"BREWTON","state":"AL","zip":"36426"},"incomeTract":null,"incomeBlockGroup":null,"nearestRoad":null,"flu":{"code":"I","label":"I","jurisdiction":"Escambia County","source":"https://gismaps.myescambia.com/arcgis/rest/services/AccelaMain/MapServer/22"},"opportunityZone":null,"oz2Eligibility":null,"source":"fl-panhandle-12033","gisViewerUrl":"https://maps.roktech.net/escambia_gomaps4/?mapName=General","appraiserUrl":"https://www.escpa.org/cama/Detail_a.aspx?s=306N291000000000"},"geometry":{"type":"MultiPolygon","coordinates":[[[[-87.163118,30.997423],[-87.163417,30.997827],[-87.163717,30.998295],[-87.164326,30.999059],[-87.164428,30.99929],[-87.17833,30.998788],[-87.178135,30.998343],[-87.177855,30.998204],[-87.177915,30.99789],[-87.177725,30.997449],[-87.177749,30.997147],[-87.178359,30.996771],[-87.179061,30.997059],[-87.179061,30.996732],[-87.176758,30.996685],[-87.17658,30.996884],[-87.176281,30.997031],[-87.176076,30.99708],[-87.175817,30.997085],[-87.17558,30.99707],[-87.174795,30.996801],[-87.174222,30.996548],[-87.173585,30.996166],[-87.172991,30.995941],[-87.172378,30.995479],[-87.172086,30.994892],[-87.171988,30.994505],[-87.171503,30.993685],[-87.171043,30.993349],[-87.170601,30.993196],[-87.170075,30.993185],[-87.169385,30.993609],[-87.169121,30.994003],[-87.168635,30.994541],[-87.168306,30.994882],[-87.167744,30.995411],[-87.167177,30.995724],[-87.16667,30.995939],[-87.166272,30.996044],[-87.16586,30.996074],[-87.165334,30.996063],[-87.164919,30.995985],[-87.164766,30.995902],[-87.164217,30.995945],[-87.163634,30.996162],[-87.163378,30.996393],[-87.163118,30.996981],[-87.163118,30.997423]]],[[[-87.179465,30.998747],[-87.180732,30.998702],[-87.183458,30.998604],[-87.183416,30.996832],[-87.182939,30.996814],[-87.183159,30.99793],[-87.181512,30.997987],[-87.181222,30.997945],[-87.179465,30.998747]]]]}},{"type":"Feature","id":"12033:225N301024000000","properties":{"id":"12033:225N301024000000","parcelId":"225N301024000000","countyFips":"12033","countyName":"Escambia","state":"Florida","marketIds":["Pensacola"],"situsAddress":null,"situsCity":"CENTURY","situsZip":"32535","jurisdictionCode":"Escambia County","ownerName":"REGIONS BANK TRUSTEE FOR JONES LEON B JR TRUST","ownerName2":null,"propertyName":null,"zoningCode":"Agr","zoningDistrict":null,"jurisdictionPrefix":"MSTU","dorCode":"5100","acreage":110.0,"centroid":[-87.226579,30.978899],"lastSale":{"date":null,"price":null,"qualified":null},"tax":{"marketValue":8915.0,"assessedValue":8915.0,"taxableValue":8490.0,"taxes":null},"mailingAddress":{"line1":"PO BOX 13519","line2":null,"city":"ARLINGTON","state":"TX","zip":"76094"},"incomeTract":null,"incomeBlockGroup":null,"nearestRoad":null,"flu":{"code":"AG","label":"AG","jurisdiction":"Escambia County","source":"https://gismaps.myescambia.com/arcgis/rest/services/AccelaMain/MapServer/22"},"opportunityZone":null,"oz2Eligibility":null,"source":"fl-panhandle-12033","gisViewerUrl":"https://maps.roktech.net/escambia_gomaps4/?mapName=General","appraiserUrl":"https://www.escpa.org/cama/Detail_a.aspx?s=225N301024000000"},"geometry":{"type":"Polygon","coordinates":[[[-87.22646,30.983594],[-87.22646,30.983597],[-87.22646,30.983611],[-87.232398,30.983711],[-87.23212,30.983484],[-87.231909,30.983395],[-87.231351,30.983035],[-87.231133,30.982968],[-87.23091,30.983044],[-87.230569,30.983029],[-87.230367,30.982948],[-87.230145,30.98273],[-87.229963,30.982455],[-87.2299,30.982284],[-87.229879,30.982127],[-87.229906,30.981897],[-87.22986,30.981733],[-87.229616,30.981631],[-87.229326,30.981651],[-87.22891,30.981631],[-87.228586,30.981652],[-87.228424,30.98152],[-87.228345,30.981364],[-87.228315,30.981178],[-87.228326,30.980985],[-87.228388,30.980819],[-87.228524,30.980622],[-87.228735,30.980418],[-87.228786,30.980187],[-87.228715,30.980024],[-87.228489,30.97995],[-87.227787,30.980129],[-87.227662,30.980096],[-87.22751,30.980013],[-87.227382,30.979887],[-87.227285,30.979688],[-87.22732,30.979451],[-87.227598,30.978708],[-87.227577,30.978544],[-87.227408,30.978433],[-87.227225,30.978444],[-87.226708,30.978669],[-87.226433,30.978653],[-87.226197,30.978536],[-87.22605,30.978339],[-87.225994,30.978191],[-87.226011,30.978043],[-87.226094,30.977937],[-87.226134,30.977819],[-87.226107,30.977628],[-87.226017,30.97747],[-87.225828,30.977351],[-87.225543,30.977381],[-87.225218,30.977283],[-87.225057,30.977139],[-87.224937,30.976932],[-87.225012,30.976548],[-87.224987,30.97642],[-87.22494,30.976273],[-87.22483,30.976177],[-87.224659,30.976186],[-87.224207,30.976146],[-87.224076,30.976057],[-87.224036,30.975891],[-87.224038,30.975706],[-87.224089,30.975496],[-87.224078,30.97533],[-87.224029,30.97514],[-87.22391,30.974951],[-87.223736,30.974887],[-87.223432,30.974992],[-87.223167,30.974967],[-87.223021,30.974853],[-87.22281,30.974475],[-87.22274,30.974261],[-87.222643,30.974134],[-87.222411,30.974015],[-87.222232,30.973988],[-87.222098,30.974047],[-87.222096,30.974676],[-87.22211,30.974681],[-87.222077,30.980814],[-87.223474,30.980815],[-87.223476,30.980235],[-87.226471,30.980234],[-87.22646,30.983594]]]}},{"type":"Feature","id":"12033:105N301000000000","properties":{"id":"12033:105N301000000000","parcelId":"105N301000000000","countyFips":"12033","countyName":"Escambia","state":"Florida","marketIds":["Pensacola"],"situsAddress":null,"situsCity":"CENTURY","situsZip":"32535","jurisdictionCode":"Escambia County","ownerName":"CAMPBELL JAMES E FAMILY LIMITED PARTNERSHIP","ownerName2":null,"propertyName":null,"zoningCode":"Agr","zoningDistrict":null,"jurisdictionPrefix":"MSTU","dorCode":"9900","acreage":78.0,"centroid":[-87.219196,30.964796],"lastSale":{"date":null,"price":null,"qualified":null},"tax":{"marketValue":39000.0,"assessedValue":39000.0,"taxableValue":39000.0,"taxes":null},"mailingAddress":{"line1":"720 CAMPBELL RD","line2":null,"city":"CENTURY","state":"FL","zip":"32535"},"incomeTract":null,"incomeBlockGroup":null,"nearestRoad":null,"flu":{"code":"AG","label":"AG","jurisdiction":"Escambia County","source":"https://gismaps.myescambia.com/arcgis/rest/services/AccelaMain/MapServer/22"},"opportunityZone":null,"oz2Eligibility":null,"source":"fl-panhandle-12033","gisViewerUrl":"https://maps.roktech.net/escambia_gomaps4/?mapName=General","appraiserUrl":"https://www.escpa.org/cama/Detail_a.aspx?s=105N301000000000"},"geometry":{"type":"Polygon","coordinates":[[[-87.216533,30.964679],[-87.216589,30.96963],[-87.222112,30.969745],[-87.222133,30.963158],[-87.221757,30.963409],[-87.221429,30.963559],[-87.220572,30.963849],[-87.220152,30.964187],[-87.219941,30.964283],[-87.219163,30.964453],[-87.218571,30.964475],[-87.218238,30.964441],[-87.217641,30.96431],[-87.216586,30.963902],[-87.216523,30.96386],[-87.216533,30.964679]]]}},{"type":"Feature","id":"12033:346N301101000000","properties":{"id":"12033:346N301101000000","parcelId":"346N301101000000","countyFips":"12033","countyName":"Escambia","state":"Florida","marketIds":["Pensacola"],"situsAddress":"CENTURY FL","situsCity":"CENTURY","situsZip":"32535","jurisdictionCode":"Escambia County","ownerName":"MCNEAL KATE NEAL &  SHEPHERD LAUREN NEAL &  ADAMS","ownerName2":null,"propertyName":null,"zoningCode":"Ind","zoningDistrict":null,"jurisdictionPrefix":"MSTU","dorCode":"5500","acreage":74.0,"centroid":[-87.21793,30.994129],"lastSale":{"date":null,"price":null,"qualified":null},"tax":{"marketValue":7770.0,"assessedValue":7770.0,"taxableValue":7400.0,"taxes":null},"mailingAddress":{"line1":"214 DEER ST","line2":null,"city":"BREWTON","state":"AL","zip":"36426"},"incomeTract":null,"incomeBlockGroup":null,"nearestRoad":null,"flu":{"code":"I","label":"I","jurisdiction":"Escambia County","source":"https://gismaps.myescambia.com/arcgis/rest/services/AccelaMain/MapServer/22"},"opportunityZone":null,"oz2Eligibility":null,"source":"fl-panhandle-12033","gisViewerUrl":"https://maps.roktech.net/escambia_gomaps4/?mapName=General","appraiserUrl":"https://www.escpa.org/cama/Detail_a.aspx?s=346N301101000000"},"geometry":{"type":"Polygon","coordinates":[[[-87.216296,30.994442],[-87.216262,30.9975],[-87.220339,30.99728],[-87.220412,30.990736],[-87.216339,30.990689],[-87.216296,30.994442]]]}},{"type":"Feature","id":"12033:346N301201000000","properties":{"id":"12033:346N301201000000","parcelId":"346N301201000000","countyFips":"12033","countyName":"Escambia","state":"Florida","marketIds":["Pensacola"],"situsAddress":"2401 SPROW RD","situsCity":"CENTURY","situsZip":"32535","jurisdictionCode":"Escambia County","ownerName":"TAMONDONG FRANCIS J","ownerName2":null,"propertyName":null,"zoningCode":"Agr","zoningDistrict":null,"jurisdictionPrefix":"MSTU","dorCode":"0100","acreage":72.0,"centroid":[-87.221997,30.994075],"lastSale":{"date":null,"price":null,"qualified":null},"tax":{"marketValue":181292.0,"assessedValue":181292.0,"taxableValue":179493.0,"taxes":null},"mailingAddress":{"line1":"2300 WHALEY AVE","line2":null,"city":"PENSACOLA","state":"FL","zip":"32513"},"incomeTract":null,"incomeBlockGroup":null,"nearestRoad":null,"flu":{"code":"AG","label":"AG","jurisdiction":"Escambia County","source":"https://gismaps.myescambia.com/arcgis/rest/services/AccelaMain/MapServer/22"},"opportunityZone":null,"oz2Eligibility":null,"source":"fl-panhandle-12033","gisViewerUrl":"https://maps.roktech.net/escambia_gomaps4/?mapName=General","appraiserUrl":"https://www.escpa.org/cama/Detail_a.aspx?s=346N301201000000"},"geometry":{"type":"Polygon","coordinates":[[[-87.22037,30.994515],[-87.220339,30.99728],[-87.224416,30.997061],[-87.224446,30.990781],[-87.220412,30.990736],[-87.22037,30.994515]]]}},{"type":"Feature","id":"12033:115N301000000000","properties":{"id":"12033:115N301000000000","parcelId":"115N301000000000","countyFips":"12033","countyName":"Escambia","state":"Florida","marketIds":["Pensacola"],"situsAddress":null,"situsCity":"CENTURY","situsZip":"32535","jurisdictionCode":null,"ownerName":"MCNEAL KATE NEAL &  SHEPHERD LAUREN NEAL &  ADAMS","ownerName2":null,"propertyName":null,"zoningCode":null,"zoningDistrict":null,"jurisdictionPrefix":"MSTU","dorCode":"5500","acreage":48.0,"centroid":[-87.214377,30.96613],"lastSale":{"date":null,"price":null,"qualified":null},"tax":{"marketValue":5040.0,"assessedValue":5040.0,"taxableValue":4800.0,"taxes":null},"mailingAddress":{"line1":"214 DEER ST","line2":null,"city":"BREWTON","state":"AL","zip":"36426"},"incomeTract":null,"incomeBlockGroup":null,"nearestRoad":null,"flu":null,"opportunityZone":null,"oz2Eligibility":null,"source":"fl-panhandle-12033","gisViewerUrl":"https://maps.roktech.net/escambia_gomaps4/?mapName=General","appraiserUrl":"https://www.escpa.org/cama/Detail_a.aspx?s=115N301000000000"},"geometry":{"type":"Polygon","coordinates":[[[-87.21392,30.962698],[-87.213639,30.962827],[-87.213464,30.962933],[-87.213361,30.963068],[-87.213348,30.963447],[-87.213461,30.96369],[-87.213718,30.963971],[-87.213879,30.964193],[-87.214125,30.964546],[-87.214288,30.96486],[-87.214373,30.965349],[-87.214312,30.965719],[-87.214237,30.965997],[-87.214116,30.966337],[-87.214004,30.966574],[-87.213537,30.9673],[-87.213341,30.967489],[-87.213019,30.967863],[-87.212777,30.968094],[-87.212535,30.968571],[-87.212326,30.968863],[-87.212239,30.969026],[-87.212182,30.969217],[-87.212165,30.969436],[-87.212191,30.969526],[-87.21221,30.969539],[-87.216589,30.96963],[-87.216525,30.96386],[-87.216333,30.963733],[-87.215651,30.963113],[-87.21518,30.962795],[-87.214904,30.962668],[-87.214594,30.962633],[-87.214203,30.962631],[-87.21392,30.962698]]]}},{"type":"Feature","id":"12033:045N302005000001","properties":{"id":"12033:045N302005000001","parcelId":"045N302005000001","countyFips":"12033","countyName":"Escambia","state":"Florida","marketIds":["Pensacola"],"situsAddress":"8010 JEFFERSON AVE","situsCity":"CENTURY","situsZip":"32535","jurisdictionCode":"Century","ownerName":"CAMPBELL JAMES E","ownerName2":null,"propertyName":null,"zoningCode":null,"zoningDistrict":null,"jurisdictionPrefix":"F","dorCode":"0200","acreage":44.87,"centroid":[-87.246577,30.97394],"lastSale":{"date":null,"price":null,"qualified":null},"tax":{"marketValue":163428.0,"assessedValue":155729.0,"taxableValue":163926.0,"taxes":null},"mailingAddress":{"line1":"720 CAMPBELL RD","line2":null,"city":"CENTURY","state":"FL","zip":"32535"},"incomeTract":null,"incomeBlockGroup":null,"nearestRoad":null,"flu":null,"opportunityZone":null,"oz2Eligibility":null,"source":"fl-panhandle-12033","gisViewerUrl":"https://maps.roktech.net/escambia_gomaps4/?mapName=General","appraiserUrl":"https://www.escpa.org/cama/Detail_a.aspx?s=045N302005000001"},"geometry":{"type":"MultiPolygon","coordinates":[[[[-87.245021,30.971404],[-87.244662,30.971542],[-87.244106,30.971785],[-87.244119,30.974723],[-87.244926,30.975242],[-87.245899,30.975799],[-87.246775,30.976233],[-87.248857,30.977182],[-87.248884,30.976791],[-87.24901,30.975725],[-87.249312,30.973744],[-87.248065,30.973746],[-87.248069,30.973188],[-87.246025,30.973187],[-87.246017,30.971373],[-87.245492,30.97137],[-87.245021,30.971404]]],[[[-87.249062,30.976643],[-87.249345,30.976697],[-87.249374,30.976359],[-87.249095,30.976344],[-87.249062,30.976643]]]]}},{"type":"Feature","id":"12033:045N305001000001","properties":{"id":"12033:045N305001000001","parcelId":"045N305001000001","countyFips":"12033","countyName":"Escambia","state":"Florida","marketIds":["Pensacola"],"situsAddress":"OFF FREEMAN RD","situsCity":"CENTURY","situsZip":"32535","jurisdictionCode":"Escambia County","ownerName":"NORTHWEST FLORIDA WATER MANAGEMENT DISTRICT","ownerName2":null,"propertyName":null,"zoningCode":"Con","zoningDistrict":null,"jurisdictionPrefix":"MSTU","dorCode":"8700","acreage":41.51,"centroid":[-87.241297,30.970916],"lastSale":{"date":null,"price":null,"qualified":null},"tax":{"marketValue":14529.0,"assessedValue":14529.0,"taxableValue":null,"taxes":null},"mailingAddress":{"line1":"81 WATER MANAGEMENT DR","line2":null,"city":"HAVANA","state":"FL","zip":"32333"},"incomeTract":null,"incomeBlockGroup":null,"nearestRoad":null,"flu":{"code":"CON","label":"CON","jurisdiction":"Escambia County","source":"https://gismaps.myescambia.com/arcgis/rest/services/AccelaMain/MapServer/22"},"opportunityZone":null,"oz2Eligibility":null,"source":"fl-panhandle-12033","gisViewerUrl":"https://maps.roktech.net/escambia_gomaps4/?mapName=General","appraiserUrl":"https://www.escpa.org/cama/Detail_a.aspx?s=045N305001000001"},"geometry":{"type":"MultiPolygon","coordinates":[[[[-87.240488,30.97125],[-87.240527,30.971298],[-87.241036,30.971851],[-87.241868,30.972706],[-87.241815,30.971219],[-87.244104,30.971192],[-87.244096,30.96938],[-87.239196,30.96932],[-87.239717,30.970177],[-87.240124,30.970765],[-87.240488,30.97125]]],[[[-87.236948,30.970912],[-87.237435,30.97091],[-87.237586,30.970909],[-87.237587,30.971734],[-87.238198,30.971731],[-87.238205,30.973049],[-87.241353,30.973051],[-87.239849,30.971583],[-87.237437,30.969299],[-87.236948,30.969293],[-87.236948,30.970912]]],[[[-87.238387,30.96937],[-87.238492,30.969468],[-87.239075,30.970038],[-87.238657,30.969314],[-87.238322,30.96931],[-87.238387,30.96937]]]]}},{"type":"Feature","id":"12033:045N302000000001","properties":{"id":"12033:045N302000000001","parcelId":"045N302000000001","countyFips":"12033","countyName":"Escambia","state":"Florida","marketIds":["Pensacola"],"situsAddress":"CAMPBELL RD","situsCity":"CENTURY","situsZip":"32535","jurisdictionCode":"Escambia County","ownerName":"CAMPBELL CLEVELAND RUFUS TRUSTEE FOR","ownerName2":null,"propertyName":null,"zoningCode":"Ind","zoningDistrict":null,"jurisdictionPrefix":"MSTU","dorCode":"9200","acreage":40.01,"centroid":[-87.240402,30.976603],"lastSale":{"date":null,"price":null,"qualified":null},"tax":{"marketValue":40010.0,"assessedValue":40010.0,"taxableValue":40010.0,"taxes":null},"mailingAddress":{"line1":"PO BOX 430","line2":null,"city":"MOLINO","state":"FL","zip":"32577"},"incomeTract":null,"incomeBlockGroup":null,"nearestRoad":null,"flu":{"code":"I","label":"I","jurisdiction":"Escambia County","source":"https://gismaps.myescambia.com/arcgis/rest/services/AccelaMain/MapServer/22"},"opportunityZone":null,"oz2Eligibility":null,"source":"fl-panhandle-12033","gisViewerUrl":"https://maps.roktech.net/escambia_gomaps4/?mapName=General","appraiserUrl":"https://www.escpa.org/cama/Detail_a.aspx?s=045N302000000001"},"geometry":{"type":"MultiPolygon","coordinates":[[[[-87.236623,30.976775],[-87.236735,30.976775],[-87.236779,30.976775],[-87.236623,30.976554],[-87.236623,30.976775]]],[[[-87.240902,30.978096],[-87.24149,30.978102],[-87.244134,30.97813],[-87.244133,30.977965],[-87.24297,30.977941],[-87.243011,30.977485],[-87.243303,30.97736],[-87.243974,30.977392],[-87.24413,30.977266],[-87.244121,30.975082],[-87.238948,30.975077],[-87.23668,30.975134],[-87.23667,30.976044],[-87.236685,30.976206],[-87.236727,30.976347],[-87.236793,30.976478],[-87.237008,30.976777],[-87.240902,30.976795],[-87.240902,30.978096]]]]}},{"type":"Feature","id":"12033:225N301020000000","properties":{"id":"12033:225N301020000000","parcelId":"225N301020000000","countyFips":"12033","countyName":"Escambia","state":"Florida","marketIds":["Pensacola"],"situsAddress":"OIL COMPANY RD","situsCity":"CENTURY","situsZip":"32535","jurisdictionCode":"Escambia County","ownerName":"HAYES M BROOKS 5.3125 % INT","ownerName2":null,"propertyName":null,"zoningCode":"Agr","zoningDistrict":null,"jurisdictionPrefix":"MSTU","dorCode":"5500","acreage":36.21,"centroid":[-87.224004,30.981538],"lastSale":{"date":null,"price":null,"qualified":null},"tax":{"marketValue":3802.0,"assessedValue":3802.0,"taxableValue":3621.0,"taxes":null},"mailingAddress":{"line1":"214 DEER ST","line2":null,"city":"BREWTON","state":"AL","zip":"36426"},"incomeTract":null,"incomeBlockGroup":null,"nearestRoad":null,"flu":{"code":"AG","label":"AG","jurisdiction":"Escambia County","source":"https://gismaps.myescambia.com/arcgis/rest/services/AccelaMain/MapServer/22"},"opportunityZone":null,"oz2Eligibility":null,"source":"fl-panhandle-12033","gisViewerUrl":"https://maps.roktech.net/escambia_gomaps4/?mapName=General","appraiserUrl":"https://www.escpa.org/cama/Detail_a.aspx?s=225N301020000000"},"geometry":{"type":"Polygon","coordinates":[[[-87.222066,30.983525],[-87.22646,30.983611],[-87.226471,30.980234],[-87.223476,30.980235],[-87.223474,30.980812],[-87.222077,30.980811],[-87.222066,30.983525]]]}},{"type":"Feature","id":"12033:225N301021000000","properties":{"id":"12033:225N301021000000","parcelId":"225N301021000000","countyFips":"12033","countyName":"Escambia","state":"Florida","marketIds":["Pensacola"],"situsAddress":null,"situsCity":"CENTURY","situsZip":"32535","jurisdictionCode":"Escambia County","ownerName":"CAMPBELL JAMES E","ownerName2":null,"propertyName":null,"zoningCode":"Agr","zoningDistrict":null,"jurisdictionPrefix":"MSTU","dorCode":"4700","acreage":34.87,"centroid":[-87.228696,30.963549],"lastSale":{"date":null,"price":null,"qualified":null},"tax":{"marketValue":17435.0,"assessedValue":13772.0,"taxableValue":17435.0,"taxes":null},"mailingAddress":{"line1":"720 CAMPBELL RD","line2":null,"city":"CENTURY","state":"FL","zip":"32535"},"incomeTract":null,"incomeBlockGroup":null,"nearestRoad":null,"flu":{"code":"AG","label":"AG","jurisdiction":"Escambia County","source":"https://gismaps.myescambia.com/arcgis/rest/services/AccelaMain/MapServer/22"},"opportunityZone":null,"oz2Eligibility":null,"source":"fl-panhandle-12033","gisViewerUrl":"https://maps.roktech.net/escambia_gomaps4/?mapName=General","appraiserUrl":"https://www.escpa.org/cama/Detail_a.aspx?s=225N301021000000"},"geometry":{"type":"Polygon","coordinates":[[[-87.227064,30.961866],[-87.226889,30.961865],[-87.226496,30.96189],[-87.226264,30.961934],[-87.22627,30.966044],[-87.229674,30.966041],[-87.229769,30.965867],[-87.229894,30.965769],[-87.229942,30.965683],[-87.229985,30.965487],[-87.230068,30.965297],[-87.230082,30.965199],[-87.230076,30.964992],[-87.230098,30.964687],[-87.23014,30.964515],[-87.230044,30.964313],[-87.230017,30.964037],[-87.229969,30.963945],[-87.229451,30.963248],[-87.22934,30.963127],[-87.229029,30.962897],[-87.228746,30.962632],[-87.228635,30.962551],[-87.228511,30.962517],[-87.228393,30.962442],[-87.228116,30.962327],[-87.228033,30.962275],[-87.227895,30.962229],[-87.227604,30.962067],[-87.227383,30.961992],[-87.227244,30.961918],[-87.227141,30.961912],[-87.227064,30.961866]]]}},{"type":"Feature","id":"12033:336N301101000000","properties":{"id":"12033:336N301101000000","parcelId":"336N301101000000","countyFips":"12033","countyName":"Escambia","state":"Florida","marketIds":["Pensacola"],"situsAddress":"1240 CARNLEY RD","situsCity":"CENTURY","situsZip":"32535","jurisdictionCode":"Escambia County","ownerName":"SUNDAY THOMAS R","ownerName2":null,"propertyName":null,"zoningCode":"Agr","zoningDistrict":null,"jurisdictionPrefix":"MSTU","dorCode":"0100","acreage":33.27,"centroid":[-87.235135,30.99318],"lastSale":{"date":null,"price":null,"qualified":null},"tax":{"marketValue":109091.0,"assessedValue":106003.0,"taxableValue":107856.0,"taxes":null},"mailingAddress":{"line1":"1250 CARNLEY RD","line2":null,"city":"CENTURY","state":"FL","zip":"32535"},"incomeTract":null,"incomeBlockGroup":null,"nearestRoad":null,"flu":{"code":"RC","label":"RC","jurisdiction":"Escambia County","source":"https://gismaps.myescambia.com/arcgis/rest/services/AccelaMain/MapServer/22"},"opportunityZone":null,"oz2Eligibility":null,"source":"fl-panhandle-12033","gisViewerUrl":"https://maps.roktech.net/escambia_gomaps4/?mapName=General","appraiserUrl":"https://www.escpa.org/cama/Detail_a.aspx?s=336N301101000000"},"geometry":{"type":"MultiPolygon","coordinates":[[[[-87.234577,30.99449],[-87.234643,30.994555],[-87.23468,30.994593],[-87.235195,30.994596],[-87.235062,30.99448],[-87.23735,30.992891],[-87.237387,30.992923],[-87.237415,30.991339],[-87.237255,30.991166],[-87.237012,30.990976],[-87.233919,30.990897],[-87.233895,30.992039],[-87.233225,30.992032],[-87.233202,30.992797],[-87.234922,30.992813],[-87.23519,30.992761],[-87.235196,30.992987],[-87.234916,30.993389],[-87.234903,30.994157],[-87.23434,30.994151],[-87.234395,30.994238],[-87.234897,30.994432],[-87.234527,30.994435],[-87.234577,30.99449]]],[[[-87.233174,30.994434],[-87.23317,30.994595],[-87.23317,30.994617],[-87.234504,30.994628],[-87.234328,30.994426],[-87.233174,30.994415],[-87.233174,30.994434]]],[[[-87.234548,30.995502],[-87.234567,30.995518],[-87.235405,30.995527],[-87.235004,30.995128],[-87.23465,30.995193],[-87.234384,30.99536],[-87.234548,30.995502]]],[[[-87.235849,30.995524],[-87.235877,30.995546],[-87.235878,30.995498],[-87.237342,30.995501],[-87.237379,30.993352],[-87.235193,30.994879],[-87.235192,30.995094],[-87.235176,30.995091],[-87.235466,30.995379],[-87.235629,30.995529],[-87.235789,30.995466],[-87.235849,30.995524]]]]}},{"type":"Feature","id":"12033:336N303301000000","properties":{"id":"12033:336N303301000000","parcelId":"336N303301000000","countyFips":"12033","countyName":"Escambia","state":"Florida","marketIds":["Pensacola"],"situsAddress":"8700 OLD FLOMATON RD","situsCity":"CENTURY","situsZip":"32535","jurisdictionCode":"Escambia County","ownerName":"CAMPBELL JAMES E","ownerName2":null,"propertyName":null,"zoningCode":"RR","zoningDistrict":null,"jurisdictionPrefix":"MSTU","dorCode":"0020","acreage":32.6893,"centroid":[-87.24661,30.986585],"lastSale":{"date":null,"price":null,"qualified":null},"tax":{"marketValue":31350.0,"assessedValue":18437.0,"taxableValue":31350.0,"taxes":null},"mailingAddress":{"line1":"720 CAMPBELL RD","line2":null,"city":"CENTURY","state":"FL","zip":"32535"},"incomeTract":null,"incomeBlockGroup":null,"nearestRoad":null,"flu":{"code":"RC","label":"RC","jurisdiction":"Escambia County","source":"https://gismaps.myescambia.com/arcgis/rest/services/AccelaMain/MapServer/22"},"opportunityZone":null,"oz2Eligibility":null,"source":"fl-panhandle-12033","gisViewerUrl":"https://maps.roktech.net/escambia_gomaps4/?mapName=General","appraiserUrl":"https://www.escpa.org/cama/Detail_a.aspx?s=336N303301000000"},"geometry":{"type":"MultiPolygon","coordinates":[[[[-87.243953,30.986659],[-87.245373,30.987384],[-87.24585,30.987553],[-87.246435,30.987558],[-87.246449,30.987355],[-87.246507,30.987211],[-87.246646,30.987055],[-87.246826,30.986909],[-87.247206,30.986693],[-87.247932,30.986441],[-87.248192,30.986253],[-87.248335,30.986199],[-87.248026,30.985091],[-87.247391,30.985217],[-87.244036,30.985197],[-87.243953,30.986659]]],[[[-87.248133,30.98407],[-87.248031,30.984538],[-87.24835,30.985744],[-87.250241,30.98574],[-87.250285,30.984051],[-87.248146,30.984011],[-87.248133,30.98407]]],[[[-87.248352,30.986322],[-87.24834,30.986326],[-87.248249,30.986371],[-87.248137,30.986469],[-87.248018,30.986541],[-87.247306,30.986788],[-87.246932,30.986993],[-87.246762,30.98713],[-87.246627,30.987281],[-87.246589,30.987385],[-87.246578,30.987559],[-87.24824,30.987571],[-87.248021,30.986948],[-87.248495,30.98677],[-87.248369,30.986317],[-87.248352,30.986322]]]]}},{"type":"Feature","id":"12033:256N301000000000","properties":{"id":"12033:256N301000000000","parcelId":"256N301000000000","countyFips":"12033","countyName":"Escambia","state":"Florida","marketIds":["Pensacola"],"situsAddress":null,"situsCity":"CENTURY","situsZip":"32535","jurisdictionCode":"Escambia County","ownerName":"MCNEAL KATE NEAL & SHEPHERD LAUREN NEAL & ADAMS N","ownerName2":null,"propertyName":null,"zoningCode":"Ind","zoningDistrict":null,"jurisdictionPrefix":"MSTU","dorCode":"5500","acreage":28.75,"centroid":[-87.186257,30.997863],"lastSale":{"date":null,"price":null,"qualified":null},"tax":{"marketValue":3019.0,"assessedValue":3019.0,"taxableValue":2875.0,"taxes":null},"mailingAddress":{"line1":"214 DEER ST","line2":null,"city":"BREWTON","state":"AL","zip":"36426"},"incomeTract":null,"incomeBlockGroup":null,"nearestRoad":null,"flu":{"code":"I","label":"I","jurisdiction":"Escambia County","source":"https://gismaps.myescambia.com/arcgis/rest/services/AccelaMain/MapServer/22"},"opportunityZone":null,"oz2Eligibility":null,"source":"fl-panhandle-12033","gisViewerUrl":"https://maps.roktech.net/escambia_gomaps4/?mapName=General","appraiserUrl":"https://www.escpa.org/cama/Detail_a.aspx?s=256N301000000000"},"geometry":{"type":"Polygon","coordinates":[[[-87.183458,30.998604],[-87.183616,30.998597],[-87.191276,30.998323],[-87.189519,30.996957],[-87.183416,30.996832],[-87.183458,30.998604]]]}},{"type":"Feature","id":"12033:045N302005001001","properties":{"id":"12033:045N302005001001","parcelId":"045N302005001001","countyFips":"12033","countyName":"Escambia","state":"Florida","marketIds":["Pensacola"],"situsAddress":"800 E HIGHWAY 4 BLK","situsCity":"CENTURY","situsZip":"32535","jurisdictionCode":"Escambia County","ownerName":"CAMPBELL JAMES E","ownerName2":null,"propertyName":null,"zoningCode":"RR","zoningDistrict":null,"jurisdictionPrefix":"MSTU","dorCode":"1100","acreage":24.4138,"centroid":[-87.244945,30.977935],"lastSale":{"date":null,"price":null,"qualified":null},"tax":{"marketValue":58832.0,"assessedValue":58832.0,"taxableValue":58453.0,"taxes":null},"mailingAddress":{"line1":"720 CAMPBELL RD","line2":null,"city":"CENTURY","state":"FL","zip":"32535"},"incomeTract":null,"incomeBlockGroup":null,"nearestRoad":null,"flu":{"code":"RC","label":"RC","jurisdiction":"Escambia County","source":"https://gismaps.myescambia.com/arcgis/rest/services/AccelaMain/MapServer/22"},"opportunityZone":null,"oz2Eligibility":null,"source":"fl-panhandle-12033","gisViewerUrl":"https://maps.roktech.net/escambia_gomaps4/?mapName=General","appraiserUrl":"https://www.escpa.org/cama/Detail_a.aspx?s=045N302005001001"},"geometry":{"type":"MultiPolygon","coordinates":[[[[-87.245861,30.978469],[-87.24605,30.980014],[-87.246049,30.978695],[-87.245934,30.978628],[-87.245873,30.978406],[-87.245866,30.978159],[-87.246025,30.977479],[-87.246101,30.976873],[-87.246171,30.976725],[-87.24652,30.976426],[-87.245502,30.975909],[-87.244593,30.975376],[-87.244122,30.975474],[-87.244134,30.97813],[-87.241989,30.978107],[-87.241997,30.980035],[-87.24289,30.980031],[-87.244139,30.97939],[-87.244135,30.978446],[-87.245861,30.978469]]],[[[-87.246013,30.980245],[-87.245744,30.980388],[-87.2453,30.980623],[-87.246058,30.98063],[-87.246056,30.980223],[-87.246013,30.980245]]]]}},{"type":"Feature","id":"12033:045N301001000000","properties":{"id":"12033:045N301001000000","parcelId":"045N301001000000","countyFips":"12033","countyName":"Escambia","state":"Florida","marketIds":["Pensacola"],"situsAddress":"1221 CAMPBELL RD","situsCity":"CENTURY","situsZip":"32535","jurisdictionCode":"Escambia County","ownerName":"CAMPBELL CLEVELAND R SR TRUSTEE FOR","ownerName2":null,"propertyName":null,"zoningCode":"Ind","zoningDistrict":null,"jurisdictionPrefix":"MSTU","dorCode":"9500","acreage":24.36,"centroid":[-87.239314,30.978625],"lastSale":{"date":null,"price":null,"qualified":null},"tax":{"marketValue":21118.0,"assessedValue":21118.0,"taxableValue":21118.0,"taxes":null},"mailingAddress":{"line1":"PO BOX 430","line2":null,"city":"MOLINO","state":"FL","zip":"32577"},"incomeTract":null,"incomeBlockGroup":null,"nearestRoad":null,"flu":{"code":"I","label":"I","jurisdiction":"Escambia County","source":"https://gismaps.myescambia.com/arcgis/rest/services/AccelaMain/MapServer/22"},"opportunityZone":null,"oz2Eligibility":null,"source":"fl-panhandle-12033","gisViewerUrl":"https://maps.roktech.net/escambia_gomaps4/?mapName=General","appraiserUrl":"https://www.escpa.org/cama/Detail_a.aspx?s=045N301001000000"},"geometry":{"type":"Polygon","coordinates":[[[-87.238738,30.979527],[-87.238786,30.9796],[-87.239021,30.979855],[-87.239316,30.98004],[-87.239315,30.979775],[-87.239985,30.979772],[-87.239983,30.979483],[-87.241489,30.979479],[-87.24149,30.978102],[-87.240902,30.978096],[-87.240902,30.976795],[-87.237962,30.976781],[-87.237963,30.977358],[-87.237472,30.977356],[-87.237664,30.977643],[-87.238037,30.978345],[-87.238738,30.979527]]]}},{"type":"Feature","id":"12033:045N301011005001","properties":{"id":"12033:045N301011005001","parcelId":"045N301011005001","countyFips":"12033","countyName":"Escambia","state":"Florida","marketIds":["Pensacola"],"situsAddress":"720 CAMPBELL RD","situsCity":"CENTURY","situsZip":"32535","jurisdictionCode":"Escambia County","ownerName":"CAMPBELL JAMES E","ownerName2":null,"propertyName":null,"zoningCode":"RR","zoningDistrict":null,"jurisdictionPrefix":"MSTU","dorCode":"0800","acreage":24.01,"centroid":[-87.246014,30.984042],"lastSale":{"date":null,"price":null,"qualified":null},"tax":{"marketValue":884954.0,"assessedValue":438231.0,"taxableValue":401710.0,"taxes":null},"mailingAddress":{"line1":"720 CAMPBELL RD","line2":null,"city":"CENTURY","state":"FL","zip":"32535"},"incomeTract":null,"incomeBlockGroup":null,"nearestRoad":null,"flu":{"code":"RC","label":"RC","jurisdiction":"Escambia County","source":"https://gismaps.myescambia.com/arcgis/rest/services/AccelaMain/MapServer/22"},"opportunityZone":null,"oz2Eligibility":null,"source":"fl-panhandle-12033","gisViewerUrl":"https://maps.roktech.net/escambia_gomaps4/?mapName=General","appraiserUrl":"https://www.escpa.org/cama/Detail_a.aspx?s=045N301011005001"},"geometry":{"type":"Polygon","coordinates":[[[-87.244036,30.985197],[-87.246133,30.98521],[-87.247391,30.985217],[-87.247182,30.984447],[-87.247925,30.984336],[-87.24799,30.984008],[-87.248146,30.984011],[-87.24841,30.982779],[-87.244576,30.982762],[-87.244576,30.983203],[-87.243727,30.983511],[-87.243984,30.983934],[-87.244108,30.983936],[-87.244036,30.985197]]]}},{"type":"Feature","id":"12033:346N302201000001","properties":{"id":"12033:346N302201000001","parcelId":"346N302201000001","countyFips":"12033","countyName":"Escambia","state":"Florida","marketIds":["Pensacola"],"situsAddress":"2200 BLK FANNIE RD","situsCity":"CENTURY","situsZip":"32535","jurisdictionCode":"Escambia County","ownerName":"KTF MANAGEMENT LLC","ownerName2":null,"propertyName":null,"zoningCode":"RMU","zoningDistrict":null,"jurisdictionPrefix":"MSTU","dorCode":"9900","acreage":23.0142,"centroid":[-87.231061,30.994348],"lastSale":{"date":null,"price":null,"qualified":null},"tax":{"marketValue":57525.0,"assessedValue":57525.0,"taxableValue":57536.0,"taxes":null},"mailingAddress":{"line1":"3033 LAKE POINTE CIR","line2":null,"city":"PENSACOLA","state":"FL","zip":"32505"},"incomeTract":null,"incomeBlockGroup":null,"nearestRoad":null,"flu":{"code":"RC","label":"RC","jurisdiction":"Escambia County","source":"https://gismaps.myescambia.com/arcgis/rest/services/AccelaMain/MapServer/22"},"opportunityZone":null,"oz2Eligibility":null,"source":"fl-panhandle-12033","gisViewerUrl":"https://maps.roktech.net/escambia_gomaps4/?mapName=General","appraiserUrl":"https://www.escpa.org/cama/Detail_a.aspx?s=346N302201000001"},"geometry":{"type":"Polygon","coordinates":[[[-87.230913,30.99585],[-87.233138,30.995725],[-87.233197,30.993047],[-87.233054,30.992795],[-87.230133,30.992767],[-87.230131,30.993614],[-87.229884,30.994821],[-87.229621,30.994819],[-87.229622,30.995049],[-87.230915,30.994989],[-87.230913,30.99585]]]}},{"type":"Feature","id":"12033:376N301001000000","properties":{"id":"12033:376N301001000000","parcelId":"376N301001000000","countyFips":"12033","countyName":"Escambia","state":"Florida","marketIds":["Pensacola"],"situsAddress":"CENTURY FL","situsCity":"CENTURY","situsZip":"32535","jurisdictionCode":"Escambia County","ownerName":"LOUISIANA LAND &","ownerName2":null,"propertyName":null,"zoningCode":"Ind","zoningDistrict":null,"jurisdictionPrefix":"MSTU","dorCode":"9200","acreage":22.96,"centroid":[-87.198948,30.996857],"lastSale":{"date":null,"price":null,"qualified":null},"tax":{"marketValue":222886.0,"assessedValue":222886.0,"taxableValue":222886.0,"taxes":null},"mailingAddress":{"line1":"2424 RIDGE RD","line2":null,"city":"ROCKWALL","state":"TX","zip":"75087"},"incomeTract":null,"incomeBlockGroup":null,"nearestRoad":null,"flu":{"code":"I","label":"I","jurisdiction":"Escambia County","source":"https://gismaps.myescambia.com/arcgis/rest/services/AccelaMain/MapServer/22"},"opportunityZone":null,"oz2Eligibility":null,"source":"fl-panhandle-12033","gisViewerUrl":"https://maps.roktech.net/escambia_gomaps4/?mapName=General","appraiserUrl":"https://www.escpa.org/cama/Detail_a.aspx?s=376N301001000000"},"geometry":{"type":"Polygon","coordinates":[[[-87.200272,30.997538],[-87.200129,30.995259],[-87.19694,30.995368],[-87.197096,30.998114],[-87.200301,30.998004],[-87.200272,30.997538]]]}},{"type":"Feature","id":"12033:346N302101000000","properties":{"id":"12033:346N302101000000","parcelId":"346N302101000000","countyFips":"12033","countyName":"Escambia","state":"Florida","marketIds":["Pensacola"],"situsAddress":"2400 SPROW RD BLK","situsCity":"CENTURY","situsZip":"32535","jurisdictionCode":"Escambia County","ownerName":"NEAL TIMOTHY SETH NEAL CLAUDIA T","ownerName2":null,"propertyName":null,"zoningCode":"Agr","zoningDistrict":null,"jurisdictionPrefix":"MSTU","dorCode":"9900","acreage":21.64,"centroid":[-87.226184,30.994827],"lastSale":{"date":null,"price":null,"qualified":null},"tax":{"marketValue":27050.0,"assessedValue":27050.0,"taxableValue":27050.0,"taxes":null},"mailingAddress":{"line1":"548 POWELL AVE","line2":null,"city":"LITTLE TORCH KEY","state":"FL","zip":"33042"},"incomeTract":null,"incomeBlockGroup":null,"nearestRoad":null,"flu":{"code":"AG","label":"AG","jurisdiction":"Escambia County","source":"https://gismaps.myescambia.com/arcgis/rest/services/AccelaMain/MapServer/22"},"opportunityZone":null,"oz2Eligibility":null,"source":"fl-panhandle-12033","gisViewerUrl":"https://maps.roktech.net/escambia_gomaps4/?mapName=General","appraiserUrl":"https://www.escpa.org/cama/Detail_a.aspx?s=346N302101000000"},"geometry":{"type":"Polygon","coordinates":[[[-87.225841,30.996855],[-87.225712,30.996856],[-87.225201,30.996914],[-87.224778,30.997039],[-87.227218,30.996941],[-87.227218,30.996838],[-87.227001,30.996846],[-87.227025,30.995035],[-87.226846,30.99503],[-87.226869,30.993219],[-87.227223,30.993227],[-87.227227,30.990812],[-87.224446,30.990781],[-87.224439,30.992214],[-87.22605,30.992113],[-87.226038,30.994486],[-87.225989,30.996854],[-87.225841,30.996855]]]}},{"type":"Feature","id":"12033:045N301011004001","properties":{"id":"12033:045N301011004001","parcelId":"045N301011004001","countyFips":"12033","countyName":"Escambia","state":"Florida","marketIds":["Pensacola"],"situsAddress":"CAMPBELL@ FANNIE RD","situsCity":"CENTURY","situsZip":"32535","jurisdictionCode":"Escambia County","ownerName":"CAMPBELL JAMES E","ownerName2":null,"propertyName":null,"zoningCode":"RR","zoningDistrict":null,"jurisdictionPrefix":"MSTU","dorCode":"9900","acreage":20.9197,"centroid":[-87.246855,30.981933],"lastSale":{"date":null,"price":null,"qualified":null},"tax":{"marketValue":14203.0,"assessedValue":7365.0,"taxableValue":14203.0,"taxes":null},"mailingAddress":{"line1":"720 CAMPBELL RD","line2":null,"city":"CENTURY","state":"FL","zip":"32535"},"incomeTract":null,"incomeBlockGroup":null,"nearestRoad":null,"flu":{"code":"RC","label":"RC","jurisdiction":"Escambia County","source":"https://gismaps.myescambia.com/arcgis/rest/services/AccelaMain/MapServer/22"},"opportunityZone":null,"oz2Eligibility":null,"source":"fl-panhandle-12033","gisViewerUrl":"https://maps.roktech.net/escambia_gomaps4/?mapName=General","appraiserUrl":"https://www.escpa.org/cama/Detail_a.aspx?s=045N301011004001"},"geometry":{"type":"MultiPolygon","coordinates":[[[[-87.244577,30.982292],[-87.244576,30.982762],[-87.24841,30.982779],[-87.248724,30.981419],[-87.248562,30.981417],[-87.248555,30.981449],[-87.244579,30.981414],[-87.244577,30.982292]]],[[[-87.243449,30.98109],[-87.243749,30.981229],[-87.244901,30.980619],[-87.244145,30.980612],[-87.244139,30.97939],[-87.24289,30.980031],[-87.242892,30.980374],[-87.242752,30.980375],[-87.242752,30.98054],[-87.242282,30.980547],[-87.243449,30.98109]]],[[[-87.244903,30.98083],[-87.244883,30.98084],[-87.244116,30.981245],[-87.246061,30.981262],[-87.246058,30.98063],[-87.245304,30.980623],[-87.244903,30.98083]]]]}},{"type":"Feature","id":"12033:346N302102001001","properties":{"id":"12033:346N302102001001","parcelId":"346N302102001001","countyFips":"12033","countyName":"Escambia","state":"Florida","marketIds":["Pensacola"],"situsAddress":"2151 FANNIE RD","situsCity":"CENTURY","situsZip":"32535","jurisdictionCode":"Escambia County","ownerName":"NISEWONGER WILLIAM G","ownerName2":null,"propertyName":null,"zoningCode":"Agr","zoningDistrict":null,"jurisdictionPrefix":"MSTU","dorCode":"5000","acreage":18.91,"centroid":[-87.227649,30.994834],"lastSale":{"date":null,"price":null,"qualified":null},"tax":{"marketValue":352936.0,"assessedValue":192875.0,"taxableValue":168195.0,"taxes":null},"mailingAddress":{"line1":"2151 FANNIE RD","line2":null,"city":"CENTURY","state":"FL","zip":"32535"},"incomeTract":null,"incomeBlockGroup":null,"nearestRoad":null,"flu":{"code":"AG","label":"AG","jurisdiction":"Escambia County","source":"https://gismaps.myescambia.com/arcgis/rest/services/AccelaMain/MapServer/22"},"opportunityZone":null,"oz2Eligibility":null,"source":"fl-panhandle-12033","gisViewerUrl":"https://maps.roktech.net/escambia_gomaps4/?mapName=General","appraiserUrl":"https://www.escpa.org/cama/Detail_a.aspx?s=346N302102001001"},"geometry":{"type":"Polygon","coordinates":[[[-87.226846,30.99503],[-87.226877,30.995031],[-87.227025,30.995035],[-87.227001,30.996846],[-87.229434,30.996756],[-87.229399,30.994195],[-87.227681,30.994155],[-87.227709,30.993238],[-87.226869,30.993219],[-87.226846,30.99503]]]}},{"type":"Feature","id":"12033:035N301000000003","properties":{"id":"12033:035N301000000003","parcelId":"035N301000000003","countyFips":"12033","countyName":"Escambia","state":"Florida","marketIds":["Pensacola"],"situsAddress":"ESCAMBIA RIVER SWAMP","situsCity":"CENTURY","situsZip":"32535","jurisdictionCode":"Escambia County","ownerName":"NEAL W T JR EST OF TRUSTEE FOR NEAL W T TRUST 1/3","ownerName2":null,"propertyName":null,"zoningCode":"Ind","zoningDistrict":null,"jurisdictionPrefix":"MSTU","dorCode":"9900","acreage":18.27,"centroid":[-87.221536,30.975169],"lastSale":{"date":null,"price":null,"qualified":null},"tax":{"marketValue":9135.0,"assessedValue":9135.0,"taxableValue":9135.0,"taxes":null},"mailingAddress":{"line1":"214 DEER ST","line2":null,"city":"BREWTON","state":"AL","zip":"36426"},"incomeTract":null,"incomeBlockGroup":null,"nearestRoad":null,"flu":{"code":"I","label":"I","jurisdiction":"Escambia County","source":"https://gismaps.myescambia.com/arcgis/rest/services/AccelaMain/MapServer/22"},"opportunityZone":null,"oz2Eligibility":null,"source":"fl-panhandle-12033","gisViewerUrl":"https://maps.roktech.net/escambia_gomaps4/?mapName=General","appraiserUrl":"https://www.escpa.org/cama/Detail_a.aspx?s=035N301000000003"},"geometry":{"type":"Polygon","coordinates":[[[-87.222093,30.975798],[-87.222104,30.975814],[-87.22211,30.974681],[-87.221881,30.974636],[-87.221273,30.974714],[-87.221174,30.974709],[-87.22108,30.974677],[-87.221,30.974619],[-87.220918,30.974495],[-87.220883,30.97421],[-87.220812,30.974013],[-87.220685,30.973847],[-87.220575,30.973761],[-87.220383,30.973678],[-87.220175,30.973657],[-87.21997,30.9737],[-87.219761,30.973814],[-87.219702,30.973809],[-87.219668,30.973781],[-87.2193,30.973201],[-87.219209,30.973099],[-87.2191,30.973018],[-87.21891,30.972943],[-87.218775,30.972927],[-87.21864,30.972939],[-87.218403,30.973018],[-87.218346,30.972995],[-87.218295,30.972931],[-87.218268,30.972853],[-87.218268,30.97277],[-87.218296,30.972692],[-87.218446,30.972468],[-87.218477,30.972313],[-87.218464,30.972208],[-87.218426,30.972109],[-87.218327,30.971986],[-87.218239,30.971928],[-87.218087,30.971886],[-87.218189,30.971744],[-87.218484,30.970981],[-87.218662,30.97074],[-87.218788,30.970429],[-87.218845,30.970343],[-87.219006,30.970215],[-87.219094,30.970184],[-87.219187,30.97018],[-87.219278,30.970202],[-87.219595,30.970377],[-87.219824,30.970447],[-87.220063,30.970465],[-87.220363,30.970413],[-87.220537,30.970326],[-87.220679,30.970193],[-87.220776,30.970024],[-87.220877,30.96972],[-87.220214,30.969706],[-87.220155,30.96988],[-87.220115,30.969903],[-87.220015,30.969915],[-87.219867,30.96988],[-87.219564,30.969693],[-87.218762,30.969676],[-87.218458,30.969889],[-87.218336,30.970012],[-87.218235,30.970153],[-87.218096,30.970486],[-87.217913,30.970728],[-87.217602,30.971529],[-87.217217,30.971667],[-87.217127,30.97173],[-87.217055,30.971812],[-87.217004,30.971909],[-87.216976,30.972071],[-87.21699,30.97218],[-87.21703,30.972282],[-87.217155,30.972432],[-87.217311,30.972527],[-87.217488,30.972572],[-87.217671,30.972562],[-87.217637,30.972693],[-87.217628,30.972827],[-87.217659,30.973026],[-87.217709,30.973151],[-87.217781,30.973265],[-87.217929,30.97341],[-87.218119,30.973515],[-87.218331,30.973565],[-87.218549,30.973556],[-87.218756,30.973489],[-87.219152,30.974101],[-87.219313,30.97424],[-87.219506,30.974332],[-87.219716,30.974368],[-87.219858,30.97436],[-87.220062,30.974301],[-87.220201,30.974224],[-87.220241,30.974228],[-87.220263,30.974261],[-87.22028,30.97451],[-87.220355,30.974738],[-87.220487,30.97494],[-87.220601,30.975054],[-87.220732,30.975146],[-87.220877,30.975215],[-87.221112,30.97527],[-87.221273,30.975272],[-87.221866,30.975189],[-87.222031,30.975671],[-87.222093,30.975798]]]}},{"type":"Feature","id":"12033:045N303007000000","properties":{"id":"12033:045N303007000000","parcelId":"045N303007000000","countyFips":"12033","countyName":"Escambia","state":"Florida","marketIds":["Pensacola"],"situsAddress":"8311 OLD FLOMATON RD","situsCity":"CENTURY","situsZip":"32535","jurisdictionCode":"Escambia County","ownerName":"CAMPBELL JAMES","ownerName2":null,"propertyName":null,"zoningCode":"RR","zoningDistrict":null,"jurisdictionPrefix":"MSTU","dorCode":"5000","acreage":14.97,"centroid":[-87.249371,30.982448],"lastSale":{"date":null,"price":null,"qualified":null},"tax":{"marketValue":234516.0,"assessedValue":234516.0,"taxableValue":231275.0,"taxes":null},"mailingAddress":{"line1":"720 CAMPBELL RD","line2":null,"city":"CENTURY","state":"FL","zip":"32535"},"incomeTract":null,"incomeBlockGroup":null,"nearestRoad":null,"flu":{"code":"RC","label":"RC","jurisdiction":"Escambia County","source":"https://gismaps.myescambia.com/arcgis/rest/services/AccelaMain/MapServer/22"},"opportunityZone":null,"oz2Eligibility":null,"source":"fl-panhandle-12033","gisViewerUrl":"https://maps.roktech.net/escambia_gomaps4/?mapName=General","appraiserUrl":"https://www.escpa.org/cama/Detail_a.aspx?s=045N303007000000"},"geometry":{"type":"Polygon","coordinates":[[[-87.249411,30.981388],[-87.248731,30.981382],[-87.248146,30.984011],[-87.250285,30.984051],[-87.250283,30.98141],[-87.249411,30.981388]]]}},{"type":"Feature","id":"12033:045N301006000000","properties":{"id":"12033:045N301006000000","parcelId":"045N301006000000","countyFips":"12033","countyName":"Escambia","state":"Florida","marketIds":["Pensacola"],"situsAddress":null,"situsCity":"CENTURY","situsZip":"32535","jurisdictionCode":"Escambia County","ownerName":"CAMPBELL JAMES E","ownerName2":null,"propertyName":null,"zoningCode":"Ind","zoningDistrict":null,"jurisdictionPrefix":"MSTU","dorCode":"9900","acreage":14.88,"centroid":[-87.237167,30.983576],"lastSale":{"date":null,"price":null,"qualified":null},"tax":{"marketValue":20367.0,"assessedValue":2710.0,"taxableValue":20367.0,"taxes":null},"mailingAddress":{"line1":"720 CAMPBELL RD","line2":null,"city":"CENTURY","state":"FL","zip":"32535"},"incomeTract":null,"incomeBlockGroup":null,"nearestRoad":null,"flu":{"code":"I","label":"I","jurisdiction":"Escambia County","source":"https://gismaps.myescambia.com/arcgis/rest/services/AccelaMain/MapServer/22"},"opportunityZone":null,"oz2Eligibility":null,"source":"fl-panhandle-12033","gisViewerUrl":"https://maps.roktech.net/escambia_gomaps4/?mapName=General","appraiserUrl":"https://www.escpa.org/cama/Detail_a.aspx?s=045N301006000000"},"geometry":{"type":"MultiPolygon","coordinates":[[[[-87.236632,30.983718],[-87.236632,30.983797],[-87.242014,30.983895],[-87.242007,30.982341],[-87.241107,30.982466],[-87.240848,30.982481],[-87.240572,30.982458],[-87.239917,30.982342],[-87.239566,30.982335],[-87.239898,30.983004],[-87.239025,30.983544],[-87.238633,30.983646],[-87.238117,30.983261],[-87.237994,30.982735],[-87.236631,30.983107],[-87.236632,30.983718]]],[[[-87.239034,30.982161],[-87.239122,30.982242],[-87.239588,30.982149],[-87.239862,30.982153],[-87.24014,30.982196],[-87.240139,30.982083],[-87.23892,30.982055],[-87.239034,30.982161]]]]}},{"type":"Feature","id":"12033:045N304010000000","properties":{"id":"12033:045N304010000000","parcelId":"045N304010000000","countyFips":"12033","countyName":"Escambia","state":"Florida","marketIds":["Pensacola"],"situsAddress":"800 BLK FREEDOM RD","situsCity":"CENTURY","situsZip":"32535","jurisdictionCode":"Century","ownerName":"JOHNSON SUSAN DIANNE","ownerName2":null,"propertyName":null,"zoningCode":null,"zoningDistrict":null,"jurisdictionPrefix":"F","dorCode":"9900","acreage":14.31,"centroid":[-87.24808,30.972853],"lastSale":{"date":null,"price":null,"qualified":null},"tax":{"marketValue":53663.0,"assessedValue":22980.0,"taxableValue":32198.0,"taxes":null},"mailingAddress":{"line1":"PO BOX 859","line2":null,"city":"FLOMATON","state":"AL","zip":"36441"},"incomeTract":null,"incomeBlockGroup":null,"nearestRoad":null,"flu":null,"opportunityZone":null,"oz2Eligibility":null,"source":"fl-panhandle-12033","gisViewerUrl":"https://maps.roktech.net/escambia_gomaps4/?mapName=General","appraiserUrl":"https://www.escpa.org/cama/Detail_a.aspx?s=045N304010000000"},"geometry":{"type":"MultiPolygon","coordinates":[[[[-87.250264,30.972412],[-87.250166,30.972465],[-87.249981,30.972589],[-87.249734,30.972813],[-87.249593,30.972986],[-87.249465,30.973189],[-87.249639,30.973189],[-87.24973,30.973034],[-87.249838,30.972916],[-87.250262,30.972587],[-87.250264,30.972412]]],[[[-87.246025,30.973187],[-87.248069,30.973188],[-87.248065,30.973746],[-87.248722,30.973743],[-87.249465,30.973189],[-87.248746,30.973189],[-87.248851,30.972468],[-87.248762,30.971484],[-87.246018,30.971483],[-87.246025,30.973187]]]]}},{"type":"Feature","id":"12033:306N291001000100","properties":{"id":"12033:306N291001000100","parcelId":"306N291001000100","countyFips":"12033","countyName":"Escambia","state":"Florida","marketIds":["Pensacola"],"situsAddress":"OIL COMPANY RD","situsCity":"CENTURY","situsZip":"32535","jurisdictionCode":"Escambia County","ownerName":"ESCAMBIA LAKES LLC","ownerName2":null,"propertyName":null,"zoningCode":"Ind","zoningDistrict":null,"jurisdictionPrefix":"MSTU","dorCode":"9200","acreage":11.1,"centroid":[-87.181996,30.996677],"lastSale":{"date":null,"price":null,"qualified":null},"tax":{"marketValue":17483.0,"assessedValue":6136.0,"taxableValue":17483.0,"taxes":null},"mailingAddress":{"line1":"1791 FANNIE RD","line2":null,"city":"CENTURY","state":"FL","zip":"32535"},"incomeTract":null,"incomeBlockGroup":null,"nearestRoad":null,"flu":{"code":"I","label":"I","jurisdiction":"Escambia County","source":"https://gismaps.myescambia.com/arcgis/rest/services/AccelaMain/MapServer/22"},"opportunityZone":null,"oz2Eligibility":null,"source":"fl-panhandle-12033","gisViewerUrl":"https://maps.roktech.net/escambia_gomaps4/?mapName=General","appraiserUrl":"https://www.escpa.org/cama/Detail_a.aspx?s=306N291001000100"},"geometry":{"type":"Polygon","coordinates":[[[-87.181222,30.997945],[-87.181247,30.997956],[-87.181512,30.997987],[-87.183159,30.99793],[-87.182713,30.995674],[-87.182692,30.995627],[-87.182635,30.995577],[-87.182536,30.99556],[-87.182051,30.995647],[-87.181257,30.995719],[-87.180934,30.997826],[-87.181222,30.997945]]]}},{"type":"Feature","id":"12033:306N291001000000","properties":{"id":"12033:306N291001000000","parcelId":"306N291001000000","countyFips":"12033","countyName":"Escambia","state":"Florida","marketIds":["Pensacola"],"situsAddress":"OIL FIELD RD","situsCity":"CENTURY","situsZip":"32535","jurisdictionCode":"Escambia County","ownerName":"ESCAMBIA LAKES LLC","ownerName2":null,"propertyName":null,"zoningCode":"Ind","zoningDistrict":null,"jurisdictionPrefix":"MSTU","dorCode":"9200","acreage":10.3,"centroid":[-87.178582,30.997834],"lastSale":{"date":null,"price":null,"qualified":null},"tax":{"marketValue":5150.0,"assessedValue":5150.0,"taxableValue":5150.0,"taxes":null},"mailingAddress":{"line1":"1791 FANNIE RD","line2":null,"city":"CENTURY","state":"FL","zip":"32535"},"incomeTract":null,"incomeBlockGroup":null,"nearestRoad":null,"flu":{"code":"I","label":"I","jurisdiction":"Escambia County","source":"https://gismaps.myescambia.com/arcgis/rest/services/AccelaMain/MapServer/22"},"opportunityZone":null,"oz2Eligibility":null,"source":"fl-panhandle-12033","gisViewerUrl":"https://maps.roktech.net/escambia_gomaps4/?mapName=General","appraiserUrl":"https://www.escpa.org/cama/Detail_a.aspx?s=306N291001000000"},"geometry":{"type":"Polygon","coordinates":[[[-87.179061,30.997059],[-87.178359,30.996771],[-87.177749,30.997147],[-87.177725,30.997449],[-87.177915,30.99789],[-87.177855,30.998204],[-87.178135,30.998343],[-87.17833,30.998788],[-87.179465,30.998747],[-87.181222,30.997945],[-87.179061,30.997059]]]}},{"type":"Feature","id":"12033:346N302101000030","properties":{"id":"12033:346N302101000030","parcelId":"346N302101000030","countyFips":"12033","countyName":"Escambia","state":"Florida","marketIds":["Pensacola"],"situsAddress":"2431 SPROW RD","situsCity":"CENTURY","situsZip":"32535","jurisdictionCode":"Escambia County","ownerName":"GRESHAM DONALD P JR &","ownerName2":null,"propertyName":null,"zoningCode":"Agr","zoningDistrict":null,"jurisdictionPrefix":"MSTU","dorCode":"0100","acreage":9.98,"centroid":[-87.224755,30.994996],"lastSale":{"date":null,"price":null,"qualified":null},"tax":{"marketValue":313999.0,"assessedValue":146800.0,"taxableValue":120323.0,"taxes":null},"mailingAddress":{"line1":"2431 SPROW RD","line2":null,"city":"CENTURY","state":"FL","zip":"32535"},"incomeTract":null,"incomeBlockGroup":null,"nearestRoad":null,"flu":{"code":"AG","label":"AG","jurisdiction":"Escambia County","source":"https://gismaps.myescambia.com/arcgis/rest/services/AccelaMain/MapServer/22"},"opportunityZone":null,"oz2Eligibility":null,"source":"fl-panhandle-12033","gisViewerUrl":"https://maps.roktech.net/escambia_gomaps4/?mapName=General","appraiserUrl":"https://www.escpa.org/cama/Detail_a.aspx?s=346N302101000030"},"geometry":{"type":"Polygon","coordinates":[[[-87.224439,30.992214],[-87.224428,30.994587],[-87.224416,30.997061],[-87.224778,30.997039],[-87.225201,30.996914],[-87.225266,30.992162],[-87.224439,30.992214]]]}},{"type":"Feature","id":"12033:045N302005002001","properties":{"id":"12033:045N302005002001","parcelId":"045N302005002001","countyFips":"12033","countyName":"Escambia","state":"Florida","marketIds":["Pensacola"],"situsAddress":"575 FANNIE RD","situsCity":"CENTURY","situsZip":"32535","jurisdictionCode":"Escambia County","ownerName":"SIMS DEBORAH J","ownerName2":null,"propertyName":null,"zoningCode":"RR","zoningDistrict":null,"jurisdictionPrefix":"MSTU","dorCode":"0100","acreage":9.92,"centroid":[-87.245018,30.979632],"lastSale":{"date":null,"price":null,"qualified":null},"tax":{"marketValue":577264.0,"assessedValue":577264.0,"taxableValue":573373.0,"taxes":null},"mailingAddress":{"line1":"720 CAMPBELL RD","line2":null,"city":"CENTURY","state":"FL","zip":"32535"},"incomeTract":null,"incomeBlockGroup":null,"nearestRoad":null,"flu":{"code":"RC","label":"RC","jurisdiction":"Escambia County","source":"https://gismaps.myescambia.com/arcgis/rest/services/AccelaMain/MapServer/22"},"opportunityZone":null,"oz2Eligibility":null,"source":"fl-panhandle-12033","gisViewerUrl":"https://maps.roktech.net/escambia_gomaps4/?mapName=General","appraiserUrl":"https://www.escpa.org/cama/Detail_a.aspx?s=045N302005002001"},"geometry":{"type":"Polygon","coordinates":[[[-87.244145,30.980612],[-87.244901,30.980619],[-87.24605,30.980014],[-87.245861,30.978469],[-87.244135,30.978446],[-87.244145,30.980612]]]}},{"type":"Feature","id":"12033:045N303001000001","properties":{"id":"12033:045N303001000001","parcelId":"045N303001000001","countyFips":"12033","countyName":"Escambia","state":"Florida","marketIds":["Pensacola"],"situsAddress":"400 E HWY 4 BLK","situsCity":"CENTURY","situsZip":"32535","jurisdictionCode":"Escambia County","ownerName":"CAMPBELL JAMES E","ownerName2":null,"propertyName":null,"zoningCode":"RMU","zoningDistrict":null,"jurisdictionPrefix":"MSTU","dorCode":"0000","acreage":9.9,"centroid":[-87.247435,30.978385],"lastSale":{"date":null,"price":null,"qualified":null},"tax":{"marketValue":17419.0,"assessedValue":1906.0,"taxableValue":34313.0,"taxes":null},"mailingAddress":{"line1":"720 CAMPBELL RD","line2":null,"city":"CENTURY","state":"FL","zip":"32535"},"incomeTract":null,"incomeBlockGroup":null,"nearestRoad":null,"flu":{"code":"RC","label":"RC","jurisdiction":"Escambia County","source":"https://gismaps.myescambia.com/arcgis/rest/services/AccelaMain/MapServer/22"},"opportunityZone":null,"oz2Eligibility":null,"source":"fl-panhandle-12033","gisViewerUrl":"https://maps.roktech.net/escambia_gomaps4/?mapName=General","appraiserUrl":"https://www.escpa.org/cama/Detail_a.aspx?s=045N303001000001"},"geometry":{"type":"Polygon","coordinates":[[[-87.246049,30.978695],[-87.24605,30.978785],[-87.246055,30.980012],[-87.247741,30.979155],[-87.247949,30.979061],[-87.248138,30.979008],[-87.24816,30.977812],[-87.248818,30.977832],[-87.24884,30.977486],[-87.247686,30.976963],[-87.247689,30.977899],[-87.246046,30.977907],[-87.246049,30.978695]]]}},{"type":"Feature","id":"12033:225N301005000000","properties":{"id":"12033:225N301005000000","parcelId":"225N301005000000","countyFips":"12033","countyName":"Escambia","state":"Florida","marketIds":["Pensacola"],"situsAddress":"6200 HAGAN RD BLK","situsCity":"CENTURY","situsZip":"32535","jurisdictionCode":"Escambia County","ownerName":"CAMPBELL JAMES E","ownerName2":null,"propertyName":null,"zoningCode":"Agr","zoningDistrict":null,"jurisdictionPrefix":"MSTU","dorCode":"9900","acreage":9.82,"centroid":[-87.22831,30.978528],"lastSale":{"date":null,"price":null,"qualified":null},"tax":{"marketValue":4910.0,"assessedValue":3103.0,"taxableValue":4910.0,"taxes":null},"mailingAddress":{"line1":"720 CAMPBELL RD","line2":null,"city":"CENTURY","state":"FL","zip":"32535"},"incomeTract":null,"incomeBlockGroup":null,"nearestRoad":null,"flu":{"code":"AG","label":"AG","jurisdiction":"Escambia County","source":"https://gismaps.myescambia.com/arcgis/rest/services/AccelaMain/MapServer/22"},"opportunityZone":null,"oz2Eligibility":null,"source":"fl-panhandle-12033","gisViewerUrl":"https://maps.roktech.net/escambia_gomaps4/?mapName=General","appraiserUrl":"https://www.escpa.org/cama/Detail_a.aspx?s=225N301005000000"},"geometry":{"type":"Polygon","coordinates":[[[-87.230332,30.977983],[-87.230244,30.977983],[-87.226396,30.97798],[-87.226325,30.977993],[-87.226288,30.978127],[-87.226343,30.978326],[-87.226445,30.978405],[-87.226617,30.978402],[-87.227058,30.978197],[-87.227522,30.978199],[-87.227833,30.978426],[-87.227899,30.978562],[-87.227917,30.978681],[-87.227906,30.978788],[-87.227807,30.979075],[-87.230319,30.979077],[-87.230332,30.977983]]]}},{"type":"Feature","id":"12033:346N302101001030","properties":{"id":"12033:346N302101001030","parcelId":"346N302101001030","countyFips":"12033","countyName":"Escambia","state":"Florida","marketIds":["Pensacola"],"situsAddress":"2441 SPROW RD","situsCity":"CENTURY","situsZip":"32535","jurisdictionCode":"Escambia County","ownerName":"LEE TERRY CEYLON &","ownerName2":null,"propertyName":null,"zoningCode":"Agr","zoningDistrict":null,"jurisdictionPrefix":"MSTU","dorCode":"0200","acreage":9.81,"centroid":[-87.225688,30.994899],"lastSale":{"date":null,"price":null,"qualified":null},"tax":{"marketValue":29473.0,"assessedValue":23942.0,"taxableValue":11442.0,"taxes":null},"mailingAddress":{"line1":"2441 SPROW RD","line2":null,"city":"CENTURY","state":"FL","zip":"32535"},"incomeTract":null,"incomeBlockGroup":null,"nearestRoad":null,"flu":{"code":"AG","label":"AG","jurisdiction":"Escambia County","source":"https://gismaps.myescambia.com/arcgis/rest/services/AccelaMain/MapServer/22"},"opportunityZone":null,"oz2Eligibility":null,"source":"fl-panhandle-12033","gisViewerUrl":"https://maps.roktech.net/escambia_gomaps4/?mapName=General","appraiserUrl":"https://www.escpa.org/cama/Detail_a.aspx?s=346N302101001030"},"geometry":{"type":"Polygon","coordinates":[[[-87.225266,30.992162],[-87.225201,30.996914],[-87.225584,30.996862],[-87.225989,30.996854],[-87.226038,30.994486],[-87.22605,30.992113],[-87.225266,30.992162]]]}},{"type":"Feature","id":"12033:225N301012000003","properties":{"id":"12033:225N301012000003","parcelId":"225N301012000003","countyFips":"12033","countyName":"Escambia","state":"Florida","marketIds":["Pensacola"],"situsAddress":"1400 BLK OLD FERRY RD","situsCity":"CENTURY","situsZip":"32535","jurisdictionCode":"Escambia County","ownerName":"HAGAN ZACHARY GAGE","ownerName2":null,"propertyName":null,"zoningCode":"Agr","zoningDistrict":null,"jurisdictionPrefix":"MSTU","dorCode":"0000","acreage":9.63,"centroid":[-87.235436,30.975233],"lastSale":{"date":null,"price":null,"qualified":null},"tax":{"marketValue":33705.0,"assessedValue":15219.0,"taxableValue":33705.0,"taxes":null},"mailingAddress":{"line1":"651 HIGHLAND AVE","line2":null,"city":"FLOMATON","state":"AL","zip":"36441"},"incomeTract":null,"incomeBlockGroup":null,"nearestRoad":null,"flu":{"code":"AG","label":"AG","jurisdiction":"Escambia County","source":"https://gismaps.myescambia.com/arcgis/rest/services/AccelaMain/MapServer/22"},"opportunityZone":null,"oz2Eligibility":null,"source":"fl-panhandle-12033","gisViewerUrl":"https://maps.roktech.net/escambia_gomaps4/?mapName=General","appraiserUrl":"https://www.escpa.org/cama/Detail_a.aspx?s=225N301012000003"},"geometry":{"type":"Polygon","coordinates":[[[-87.235276,30.976557],[-87.23544,30.976561],[-87.235483,30.976259],[-87.236622,30.976014],[-87.23662,30.974409],[-87.236126,30.974408],[-87.236127,30.97427],[-87.235461,30.97427],[-87.23546,30.974546],[-87.234795,30.974546],[-87.234795,30.974408],[-87.234408,30.974407],[-87.234402,30.97623],[-87.235087,30.97637],[-87.235276,30.976557]]]}},{"type":"Feature","id":"12033:316N291001000000","properties":{"id":"12033:316N291001000000","parcelId":"316N291001000000","countyFips":"12033","countyName":"Escambia","state":"Florida","marketIds":["Pensacola"],"situsAddress":null,"situsCity":"CENTURY","situsZip":"32535","jurisdictionCode":"Escambia County","ownerName":"ESCAMBIA LAKES LLC","ownerName2":null,"propertyName":null,"zoningCode":"Ind","zoningDistrict":null,"jurisdictionPrefix":"MSTU","dorCode":"9200","acreage":9.57,"centroid":[-87.179877,30.996594],"lastSale":{"date":null,"price":null,"qualified":null},"tax":{"marketValue":4785.0,"assessedValue":4785.0,"taxableValue":4785.0,"taxes":null},"mailingAddress":{"line1":"1791 FANNIE RD","line2":null,"city":"CENTURY","state":"FL","zip":"32535"},"incomeTract":null,"incomeBlockGroup":null,"nearestRoad":null,"flu":{"code":"I","label":"I","jurisdiction":"Escambia County","source":"https://gismaps.myescambia.com/arcgis/rest/services/AccelaMain/MapServer/22"},"opportunityZone":null,"oz2Eligibility":null,"source":"fl-panhandle-12033","gisViewerUrl":"https://maps.roktech.net/escambia_gomaps4/?mapName=General","appraiserUrl":"https://www.escpa.org/cama/Detail_a.aspx?s=316N291001000000"},"geometry":{"type":"Polygon","coordinates":[[[-87.179061,30.996732],[-87.179061,30.997059],[-87.180934,30.997826],[-87.181264,30.995668],[-87.179063,30.995684],[-87.179061,30.996732]]]}},{"type":"Feature","id":"12033:045N306500000000","properties":{"id":"12033:045N306500000000","parcelId":"045N306500000000","countyFips":"12033","countyName":"Escambia","state":"Florida","marketIds":["Pensacola"],"situsAddress":"OFF E HIGHWAY 4","situsCity":"CENTURY","situsZip":"32535","jurisdictionCode":"Escambia County","ownerName":"CENTURY TOWN OF","ownerName2":null,"propertyName":null,"zoningCode":"Rec","zoningDistrict":null,"jurisdictionPrefix":"MSTU","dorCode":"9400","acreage":9.2882,"centroid":[-87.236529,30.968042],"lastSale":{"date":null,"price":null,"qualified":null},"tax":{"marketValue":1.0,"assessedValue":1.0,"taxableValue":null,"taxes":null},"mailingAddress":{"line1":"PO BOX 790","line2":null,"city":"CENTURY","state":"FL","zip":"32535"},"incomeTract":null,"incomeBlockGroup":null,"nearestRoad":null,"flu":{"code":"REC","label":"REC","jurisdiction":"Escambia County","source":"https://gismaps.myescambia.com/arcgis/rest/services/AccelaMain/MapServer/22"},"opportunityZone":null,"oz2Eligibility":null,"source":"fl-panhandle-12033","gisViewerUrl":"https://maps.roktech.net/escambia_gomaps4/?mapName=General","appraiserUrl":"https://www.escpa.org/cama/Detail_a.aspx?s=045N306500000000"},"geometry":{"type":"Polygon","coordinates":[[[-87.237272,30.969139],[-87.237373,30.969239],[-87.238526,30.97033],[-87.239002,30.969967],[-87.237748,30.968775],[-87.237383,30.969054],[-87.237365,30.968408],[-87.234496,30.965682],[-87.234353,30.965842],[-87.234219,30.965917],[-87.234087,30.966112],[-87.237272,30.969139]]]}},{"type":"Feature","id":"12033:095N301000000000","properties":{"id":"12033:095N301000000000","parcelId":"095N301000000000","countyFips":"12033","countyName":"Escambia","state":"Florida","marketIds":["Pensacola"],"situsAddress":"E HIGHWAY 4","situsCity":"CENTURY","situsZip":"32535","jurisdictionCode":"Escambia County","ownerName":"INTERNATIONAL PAPER COMPANY","ownerName2":null,"propertyName":null,"zoningCode":"Con","zoningDistrict":null,"jurisdictionPrefix":"MSTU","dorCode":"5500","acreage":9.0,"centroid":[-87.23774,30.968468],"lastSale":{"date":null,"price":null,"qualified":null},"tax":{"marketValue":945.0,"assessedValue":945.0,"taxableValue":900.0,"taxes":null},"mailingAddress":{"line1":"PO BOX 2118","line2":null,"city":"MEMPHIS","state":"TN","zip":"38101"},"incomeTract":null,"incomeBlockGroup":null,"nearestRoad":null,"flu":{"code":"CON","label":"CON","jurisdiction":"Escambia County","source":"https://gismaps.myescambia.com/arcgis/rest/services/AccelaMain/MapServer/22"},"opportunityZone":null,"oz2Eligibility":null,"source":"fl-panhandle-12033","gisViewerUrl":"https://maps.roktech.net/escambia_gomaps4/?mapName=General","appraiserUrl":"https://www.escpa.org/cama/Detail_a.aspx?s=095N301000000000"},"geometry":{"type":"MultiPolygon","coordinates":[[[[-87.237846,30.96887],[-87.238082,30.96909],[-87.238322,30.96931],[-87.238657,30.969314],[-87.238225,30.968555],[-87.238296,30.968524],[-87.236604,30.965557],[-87.236608,30.967688],[-87.237365,30.968408],[-87.237383,30.969054],[-87.237748,30.968775],[-87.237846,30.96887]]],[[[-87.236613,30.969289],[-87.236619,30.969289],[-87.237437,30.969299],[-87.23661,30.968508],[-87.236613,30.969289]]]]}},{"type":"Feature","id":"12033:045N305003000000","properties":{"id":"12033:045N305003000000","parcelId":"045N305003000000","countyFips":"12033","countyName":"Escambia","state":"Florida","marketIds":["Pensacola"],"situsAddress":"740 FREEDOM RD","situsCity":"CENTURY","situsZip":"32535","jurisdictionCode":"Century","ownerName":"ALLCOCK LORNE D &","ownerName2":null,"propertyName":null,"zoningCode":null,"zoningDistrict":null,"jurisdictionPrefix":"F","dorCode":"0100","acreage":8.3,"centroid":[-87.249073,30.970594],"lastSale":{"date":null,"price":null,"qualified":null},"tax":{"marketValue":332877.0,"assessedValue":189634.0,"taxableValue":159649.0,"taxes":null},"mailingAddress":{"line1":"740 FREEDOM RD","line2":null,"city":"CENTURY","state":"FL","zip":"32535"},"incomeTract":null,"incomeBlockGroup":null,"nearestRoad":null,"flu":null,"opportunityZone":null,"oz2Eligibility":null,"source":"fl-panhandle-12033","gisViewerUrl":"https://maps.roktech.net/escambia_gomaps4/?mapName=General","appraiserUrl":"https://www.escpa.org/cama/Detail_a.aspx?s=045N305003000000"},"geometry":{"type":"Polygon","coordinates":[[[-87.248835,30.971374],[-87.248836,30.971416],[-87.250277,30.971532],[-87.250306,30.969463],[-87.24821,30.96943],[-87.248213,30.97047],[-87.248832,30.970475],[-87.248835,30.971374]]]}},{"type":"Feature","id":"12033:336N303301000001","properties":{"id":"12033:336N303301000001","parcelId":"336N303301000001","countyFips":"12033","countyName":"Escambia","state":"Florida","marketIds":["Pensacola"],"situsAddress":"8701 OLD FLOMATON RD","situsCity":"CENTURY","situsZip":"32535","jurisdictionCode":"Escambia County","ownerName":"JOHNSON ANGELA FAITH","ownerName2":null,"propertyName":null,"zoningCode":"RR","zoningDistrict":null,"jurisdictionPrefix":"MSTU","dorCode":"0100","acreage":7.84,"centroid":[-87.249431,30.986986],"lastSale":{"date":null,"price":null,"qualified":null},"tax":{"marketValue":134678.0,"assessedValue":80827.0,"taxableValue":48703.0,"taxes":null},"mailingAddress":{"line1":"8701 OLD FLOMATON RD","line2":null,"city":"CENTURY","state":"FL","zip":"32535"},"incomeTract":null,"incomeBlockGroup":null,"nearestRoad":null,"flu":{"code":"RC","label":"RC","jurisdiction":"Escambia County","source":"https://gismaps.myescambia.com/arcgis/rest/services/AccelaMain/MapServer/22"},"opportunityZone":null,"oz2Eligibility":null,"source":"fl-panhandle-12033","gisViewerUrl":"https://maps.roktech.net/escambia_gomaps4/?mapName=General","appraiserUrl":"https://www.escpa.org/cama/Detail_a.aspx?s=336N303301000001"},"geometry":{"type":"MultiPolygon","coordinates":[[[[-87.249028,30.987325],[-87.249062,30.987327],[-87.249327,30.987371],[-87.249603,30.987255],[-87.249783,30.987221],[-87.249894,30.987226],[-87.250202,30.987289],[-87.250241,30.98574],[-87.24835,30.985744],[-87.248821,30.987358],[-87.249028,30.987325]]],[[[-87.248884,30.987575],[-87.250184,30.987585],[-87.250199,30.987403],[-87.249817,30.98733],[-87.249678,30.987348],[-87.249342,30.98748],[-87.249049,30.987437],[-87.248901,30.98745],[-87.248852,30.987466],[-87.248884,30.987575]]]]}},{"type":"Feature","id":"12033:225N301022000000","properties":{"id":"12033:225N301022000000","parcelId":"225N301022000000","countyFips":"12033","countyName":"Escambia","state":"Florida","marketIds":["Pensacola"],"situsAddress":null,"situsCity":"CENTURY","situsZip":"32535","jurisdictionCode":"Escambia County","ownerName":"NORTHWEST FLORIDA WATER MANAGEMENT DISTRICT","ownerName2":null,"propertyName":null,"zoningCode":"Con","zoningDistrict":null,"jurisdictionPrefix":"MSTU","dorCode":"8700","acreage":7.51,"centroid":[-87.235497,30.965232],"lastSale":{"date":null,"price":null,"qualified":null},"tax":{"marketValue":2629.0,"assessedValue":2629.0,"taxableValue":null,"taxes":null},"mailingAddress":{"line1":"81 WATER MANAGEMENT DR","line2":null,"city":"HAVANA","state":"FL","zip":"32333"},"incomeTract":null,"incomeBlockGroup":null,"nearestRoad":null,"flu":{"code":"CON","label":"CON","jurisdiction":"Escambia County","source":"https://gismaps.myescambia.com/arcgis/rest/services/AccelaMain/MapServer/22"},"opportunityZone":null,"oz2Eligibility":null,"source":"fl-panhandle-12033","gisViewerUrl":"https://maps.roktech.net/escambia_gomaps4/?mapName=General","appraiserUrl":"https://www.escpa.org/cama/Detail_a.aspx?s=225N301022000000"},"geometry":{"type":"MultiPolygon","coordinates":[[[[-87.235867,30.964507],[-87.235788,30.964583],[-87.235635,30.964737],[-87.235482,30.964852],[-87.23535,30.964909],[-87.235156,30.965047],[-87.23501,30.965208],[-87.234822,30.965318],[-87.23469,30.965507],[-87.234496,30.965682],[-87.236608,30.967688],[-87.236604,30.965557],[-87.235956,30.964421],[-87.235867,30.964507]]],[[[-87.236526,30.963867],[-87.236184,30.964198],[-87.236604,30.964935],[-87.236603,30.963823],[-87.236526,30.963867]]]]}},{"type":"Feature","id":"12033:225N301001000001","properties":{"id":"12033:225N301001000001","parcelId":"225N301001000001","countyFips":"12033","countyName":"Escambia","state":"Florida","marketIds":["Pensacola"],"situsAddress":"1480 OLD FERRY RD","situsCity":"CENTURY","situsZip":"32535","jurisdictionCode":"Escambia County","ownerName":"CAMPBELL JAMES E JR","ownerName2":null,"propertyName":null,"zoningCode":"Agr","zoningDistrict":null,"jurisdictionPrefix":"MSTU","dorCode":"0100","acreage":7.5,"centroid":[-87.232786,30.973472],"lastSale":{"date":null,"price":null,"qualified":null},"tax":{"marketValue":409722.0,"assessedValue":212986.0,"taxableValue":182387.0,"taxes":null},"mailingAddress":{"line1":"1480 OLD FERRY RD","line2":null,"city":"CENTURY","state":"FL","zip":"32535"},"incomeTract":null,"incomeBlockGroup":null,"nearestRoad":null,"flu":{"code":"AG","label":"AG","jurisdiction":"Escambia County","source":"https://gismaps.myescambia.com/arcgis/rest/services/AccelaMain/MapServer/22"},"opportunityZone":null,"oz2Eligibility":null,"source":"fl-panhandle-12033","gisViewerUrl":"https://maps.roktech.net/escambia_gomaps4/?mapName=General","appraiserUrl":"https://www.escpa.org/cama/Detail_a.aspx?s=225N301001000001"},"geometry":{"type":"Polygon","coordinates":[[[-87.233469,30.973006],[-87.233469,30.972925],[-87.233094,30.973352],[-87.232917,30.973356],[-87.232655,30.973308],[-87.232515,30.973259],[-87.232302,30.973308],[-87.231835,30.973502],[-87.231543,30.973776],[-87.23131,30.974143],[-87.231194,30.974271],[-87.233395,30.974273],[-87.233356,30.973569],[-87.233532,30.973552],[-87.233533,30.973212],[-87.233615,30.973213],[-87.233621,30.973006],[-87.233469,30.973006]]]}},{"type":"Feature","id":"12033:045N304008000000","properties":{"id":"12033:045N304008000000","parcelId":"045N304008000000","countyFips":"12033","countyName":"Escambia","state":"Florida","marketIds":["Pensacola"],"situsAddress":"901 FREEDOM RD","situsCity":"CENTURY","situsZip":"32535","jurisdictionCode":"Century","ownerName":"CAMELIA GARDENS OF CENTURY LTD","ownerName2":null,"propertyName":null,"zoningCode":null,"zoningDistrict":null,"jurisdictionPrefix":"F","dorCode":"0300","acreage":7.34,"centroid":[-87.247441,30.970397],"lastSale":{"date":null,"price":null,"qualified":null},"tax":{"marketValue":635342.0,"assessedValue":635342.0,"taxableValue":634161.0,"taxes":null},"mailingAddress":{"line1":"1002 W 23RD ST STE 400","line2":null,"city":"PANAMA CITY","state":"FL","zip":"32405"},"incomeTract":null,"incomeBlockGroup":null,"nearestRoad":null,"flu":null,"opportunityZone":null,"oz2Eligibility":null,"source":"fl-panhandle-12033","gisViewerUrl":"https://maps.roktech.net/escambia_gomaps4/?mapName=General","appraiserUrl":"https://www.escpa.org/cama/Detail_a.aspx?s=045N304008000000"},"geometry":{"type":"Polygon","coordinates":[[[-87.246672,30.971373],[-87.248216,30.971374],[-87.24821,30.96943],[-87.246666,30.969411],[-87.246672,30.971373]]]}},{"type":"Feature","id":"12033:346N302201000002","properties":{"id":"12033:346N302201000002","parcelId":"346N302201000002","countyFips":"12033","countyName":"Escambia","state":"Florida","marketIds":["Pensacola"],"situsAddress":"2300 FANNIE RD","situsCity":"CENTURY","situsZip":"32535","jurisdictionCode":"Escambia County","ownerName":"WISE SUSIE M EST 3/27 INT &","ownerName2":null,"propertyName":null,"zoningCode":"RMU","zoningDistrict":null,"jurisdictionPrefix":"MSTU","dorCode":"1000","acreage":7.32,"centroid":[-87.231387,30.996297],"lastSale":{"date":null,"price":null,"qualified":null},"tax":{"marketValue":27999.0,"assessedValue":16658.0,"taxableValue":27999.0,"taxes":null},"mailingAddress":{"line1":"500 ENERGY LN SUITE 400","line2":null,"city":"DOVER","state":"DE","zip":"19901"},"incomeTract":null,"incomeBlockGroup":null,"nearestRoad":null,"flu":{"code":"RC","label":"RC","jurisdiction":"Escambia County","source":"https://gismaps.myescambia.com/arcgis/rest/services/AccelaMain/MapServer/22"},"opportunityZone":null,"oz2Eligibility":null,"source":"fl-panhandle-12033","gisViewerUrl":"https://maps.roktech.net/escambia_gomaps4/?mapName=General","appraiserUrl":"https://www.escpa.org/cama/Detail_a.aspx?s=346N302201000002"},"geometry":{"type":"Polygon","coordinates":[[[-87.229632,30.995921],[-87.229643,30.996843],[-87.233126,30.996702],[-87.233147,30.995724],[-87.229632,30.995921]]]}},{"type":"Feature","id":"12033:045N305004000001","properties":{"id":"12033:045N305004000001","parcelId":"045N305004000001","countyFips":"12033","countyName":"Escambia","state":"Florida","marketIds":["Pensacola"],"situsAddress":"1180 FREEDOM RD","situsCity":"CENTURY","situsZip":"32535","jurisdictionCode":"Century","ownerName":"ISHMAN SAMMIE G  ISHMAN KADREN M","ownerName2":null,"propertyName":null,"zoningCode":null,"zoningDistrict":null,"jurisdictionPrefix":"F","dorCode":"0000","acreage":6.9,"centroid":[-87.243293,30.97333],"lastSale":{"date":null,"price":null,"qualified":null},"tax":{"marketValue":51750.0,"assessedValue":18311.0,"taxableValue":27600.0,"taxes":null},"mailingAddress":{"line1":"3002 CARRINGTON LAKES BOULEVARD","line2":null,"city":"CANTONMENT","state":"FL","zip":"32533"},"incomeTract":null,"incomeBlockGroup":null,"nearestRoad":null,"flu":null,"opportunityZone":null,"oz2Eligibility":null,"source":"fl-panhandle-12033","gisViewerUrl":"https://maps.roktech.net/escambia_gomaps4/?mapName=General","appraiserUrl":"https://www.escpa.org/cama/Detail_a.aspx?s=045N305004000001"},"geometry":{"type":"Polygon","coordinates":[[[-87.243568,30.972834],[-87.243217,30.972355],[-87.241977,30.972985],[-87.242428,30.973403],[-87.243023,30.973905],[-87.243616,30.974365],[-87.244119,30.974723],[-87.244109,30.972556],[-87.243576,30.972846],[-87.243568,30.972834]]]}},{"type":"Feature","id":"12033:045N303001000008","properties":{"id":"12033:045N303001000008","parcelId":"045N303001000008","countyFips":"12033","countyName":"Escambia","state":"Florida","marketIds":["Pensacola"],"situsAddress":"540 FANNIE RD","situsCity":"CENTURY","situsZip":"32535","jurisdictionCode":"Escambia County","ownerName":"ARD JEFFERY WAYNE","ownerName2":null,"propertyName":null,"zoningCode":"RMU","zoningDistrict":null,"jurisdictionPrefix":"MSTU","dorCode":"0200","acreage":6.8,"centroid":[-87.247707,30.980424],"lastSale":{"date":null,"price":null,"qualified":null},"tax":{"marketValue":161580.0,"assessedValue":103739.0,"taxableValue":76012.0,"taxes":null},"mailingAddress":{"line1":"540 FANNIE RD","line2":null,"city":"CENTURY","state":"FL","zip":"32535"},"incomeTract":null,"incomeBlockGroup":null,"nearestRoad":null,"flu":{"code":"RC","label":"RC","jurisdiction":"Escambia County","source":"https://gismaps.myescambia.com/arcgis/rest/services/AccelaMain/MapServer/22"},"opportunityZone":null,"oz2Eligibility":null,"source":"fl-panhandle-12033","gisViewerUrl":"https://maps.roktech.net/escambia_gomaps4/?mapName=General","appraiserUrl":"https://www.escpa.org/cama/Detail_a.aspx?s=045N303001000008"},"geometry":{"type":"Polygon","coordinates":[[[-87.247498,30.981275],[-87.248587,30.981285],[-87.248677,30.980645],[-87.248725,30.97991],[-87.248061,30.97991],[-87.248073,30.979624],[-87.247409,30.979624],[-87.247411,30.979529],[-87.246722,30.979881],[-87.246728,30.980715],[-87.247398,30.980708],[-87.2474,30.9812],[-87.247497,30.981201],[-87.247498,30.981275]]]}},{"type":"Feature","id":"12033:045N305002000000","properties":{"id":"12033:045N305002000000","parcelId":"045N305002000000","countyFips":"12033","countyName":"Escambia","state":"Florida","marketIds":["Pensacola"],"situsAddress":"1041 FREEDOM RD","situsCity":"CENTURY","situsZip":"32535","jurisdictionCode":"Century","ownerName":"ELEVATE EQUITY GROUP LLC","ownerName2":null,"propertyName":null,"zoningCode":null,"zoningDistrict":null,"jurisdictionPrefix":"F","dorCode":"0000","acreage":6.75,"centroid":[-87.244824,30.970652],"lastSale":{"date":null,"price":null,"qualified":null},"tax":{"marketValue":29813.0,"assessedValue":16032.0,"taxableValue":19875.0,"taxes":null},"mailingAddress":{"line1":"219 ALTON RD","line2":null,"city":"PENSACOLA","state":"FL","zip":"32507"},"incomeTract":null,"incomeBlockGroup":null,"nearestRoad":null,"flu":null,"opportunityZone":null,"oz2Eligibility":null,"source":"fl-panhandle-12033","gisViewerUrl":"https://maps.roktech.net/escambia_gomaps4/?mapName=General","appraiserUrl":"https://www.escpa.org/cama/Detail_a.aspx?s=045N305002000000"},"geometry":{"type":"Polygon","coordinates":[[[-87.244659,30.971003],[-87.244662,30.971542],[-87.245021,30.971404],[-87.245492,30.97137],[-87.24549,30.970875],[-87.245379,30.970874],[-87.245375,30.969909],[-87.244469,30.969909],[-87.244477,30.969385],[-87.244096,30.96938],[-87.244104,30.971231],[-87.244659,30.970946],[-87.244659,30.971003]]]}},{"type":"Feature","id":"12033:045N301011003001","properties":{"id":"12033:045N301011003001","parcelId":"045N301011003001","countyFips":"12033","countyName":"Escambia","state":"Florida","marketIds":["Pensacola"],"situsAddress":"930 CAMPBELL RD","situsCity":"CENTURY","situsZip":"32535","jurisdictionCode":"Escambia County","ownerName":"CAMPBELL SAND & GRAVEL CO","ownerName2":null,"propertyName":null,"zoningCode":"Ind","zoningDistrict":null,"jurisdictionPrefix":"MSTU","dorCode":"4700","acreage":6.68,"centroid":[-87.240168,30.979942],"lastSale":{"date":null,"price":null,"qualified":null},"tax":{"marketValue":138887.0,"assessedValue":138887.0,"taxableValue":137241.0,"taxes":null},"mailingAddress":{"line1":"720 CAMPBELL RD","line2":null,"city":"CENTURY","state":"FL","zip":"32535"},"incomeTract":null,"incomeBlockGroup":null,"nearestRoad":null,"flu":{"code":"I","label":"I","jurisdiction":"Escambia County","source":"https://gismaps.myescambia.com/arcgis/rest/services/AccelaMain/MapServer/22"},"opportunityZone":null,"oz2Eligibility":null,"source":"fl-panhandle-12033","gisViewerUrl":"https://maps.roktech.net/escambia_gomaps4/?mapName=General","appraiserUrl":"https://www.escpa.org/cama/Detail_a.aspx?s=045N301011003001"},"geometry":{"type":"MultiPolygon","coordinates":[[[[-87.239316,30.98004],[-87.239413,30.98008],[-87.239614,30.980142],[-87.239822,30.980176],[-87.241252,30.980224],[-87.241488,30.980247],[-87.241489,30.979479],[-87.239983,30.979483],[-87.239985,30.979772],[-87.239315,30.979775],[-87.239316,30.98004]]],[[[-87.240128,30.980391],[-87.24013,30.980765],[-87.24095,30.980855],[-87.240944,30.98038],[-87.240544,30.980353],[-87.24053,30.980367],[-87.240127,30.98036],[-87.240128,30.980391]]]]}},{"type":"Feature","id":"12033:045N303001003002","properties":{"id":"12033:045N303001003002","parcelId":"045N303001003002","countyFips":"12033","countyName":"Escambia","state":"Florida","marketIds":["Pensacola"],"situsAddress":"8300 OLD FLOMATON RD BLK","situsCity":"CENTURY","situsZip":"32535","jurisdictionCode":"Escambia County","ownerName":"BROWN CHARLES L &","ownerName2":null,"propertyName":null,"zoningCode":"RMU","zoningDistrict":null,"jurisdictionPrefix":"MSTU","dorCode":"0020","acreage":6.36,"centroid":[-87.249552,30.980258],"lastSale":{"date":null,"price":null,"qualified":null},"tax":{"marketValue":31640.0,"assessedValue":14072.0,"taxableValue":31640.0,"taxes":null},"mailingAddress":{"line1":"8241 OLD FLOMATION RD","line2":null,"city":"CENTURY","state":"FL","zip":"32535"},"incomeTract":null,"incomeBlockGroup":null,"nearestRoad":null,"flu":{"code":"RC","label":"RC","jurisdiction":"Escambia County","source":"https://gismaps.myescambia.com/arcgis/rest/services/AccelaMain/MapServer/22"},"opportunityZone":null,"oz2Eligibility":null,"source":"fl-panhandle-12033","gisViewerUrl":"https://maps.roktech.net/escambia_gomaps4/?mapName=General","appraiserUrl":"https://www.escpa.org/cama/Detail_a.aspx?s=045N303001003002"},"geometry":{"type":"Polygon","coordinates":[[[-87.24882,30.980795],[-87.249694,30.980816],[-87.249675,30.981404],[-87.250283,30.98141],[-87.250285,30.979137],[-87.248913,30.979106],[-87.248854,30.98043],[-87.249592,30.980437],[-87.24959,30.980725],[-87.248829,30.980718],[-87.24882,30.980795]]]}},{"type":"Feature","id":"12033:045N306003000001","properties":{"id":"12033:045N306003000001","parcelId":"045N306003000001","countyFips":"12033","countyName":"Escambia","state":"Florida","marketIds":["Pensacola"],"situsAddress":"1741 CAMPBELL RD","situsCity":"CENTURY","situsZip":"32535","jurisdictionCode":"Escambia County","ownerName":"HOLLINGSHEAD EVELINE EST OF LIFE EST","ownerName2":null,"propertyName":null,"zoningCode":"RMU","zoningDistrict":null,"jurisdictionPrefix":"MSTU","dorCode":"0100","acreage":6.21,"centroid":[-87.237595,30.974024],"lastSale":{"date":null,"price":null,"qualified":null},"tax":{"marketValue":166822.0,"assessedValue":166822.0,"taxableValue":164177.0,"taxes":null},"mailingAddress":{"line1":"1741 CAMPBELL RD","line2":null,"city":"CENTURY","state":"FL","zip":"32535"},"incomeTract":null,"incomeBlockGroup":null,"nearestRoad":null,"flu":{"code":"RC","label":"RC","jurisdiction":"Escambia County","source":"https://gismaps.myescambia.com/arcgis/rest/services/AccelaMain/MapServer/22"},"opportunityZone":null,"oz2Eligibility":null,"source":"fl-panhandle-12033","gisViewerUrl":"https://maps.roktech.net/escambia_gomaps4/?mapName=General","appraiserUrl":"https://www.escpa.org/cama/Detail_a.aspx?s=045N306003000001"},"geometry":{"type":"Polygon","coordinates":[[[-87.237512,30.974944],[-87.237547,30.974944],[-87.238922,30.974928],[-87.238912,30.973475],[-87.237635,30.973158],[-87.237078,30.973079],[-87.236619,30.973079],[-87.236619,30.974311],[-87.237511,30.974301],[-87.237512,30.974944]]]}},{"type":"Feature","id":"12033:045N301011006001","properties":{"id":"12033:045N301011006001","parcelId":"045N301011006001","countyFips":"12033","countyName":"Escambia","state":"Florida","marketIds":["Pensacola"],"situsAddress":"700 BLK CAMPBELL RD","situsCity":"CENTURY","situsZip":"32535","jurisdictionCode":"Escambia County","ownerName":"CAMPBELL CLEVELAND RUFUS TRUSTEE FOR","ownerName2":null,"propertyName":null,"zoningCode":"Ind","zoningDistrict":null,"jurisdictionPrefix":"MSTU","dorCode":"9600","acreage":6.08,"centroid":[-87.241567,30.981077],"lastSale":{"date":null,"price":null,"qualified":null},"tax":{"marketValue":11225.0,"assessedValue":1569.0,"taxableValue":11225.0,"taxes":null},"mailingAddress":{"line1":"PO BOX 430","line2":null,"city":"MOLINO","state":"FL","zip":"32577"},"incomeTract":null,"incomeBlockGroup":null,"nearestRoad":null,"flu":{"code":"I","label":"I","jurisdiction":"Escambia County","source":"https://gismaps.myescambia.com/arcgis/rest/services/AccelaMain/MapServer/22"},"opportunityZone":null,"oz2Eligibility":null,"source":"fl-panhandle-12033","gisViewerUrl":"https://maps.roktech.net/escambia_gomaps4/?mapName=General","appraiserUrl":"https://www.escpa.org/cama/Detail_a.aspx?s=045N301011006001"},"geometry":{"type":"Polygon","coordinates":[[[-87.24013,30.980765],[-87.240132,30.981067],[-87.240137,30.981771],[-87.24279,30.981346],[-87.242874,30.981595],[-87.24305,30.981603],[-87.243543,30.981338],[-87.241724,30.980473],[-87.241579,30.980436],[-87.241475,30.980986],[-87.241397,30.980976],[-87.241366,30.980938],[-87.241142,30.980974],[-87.240599,30.980816],[-87.24013,30.980765]]]}},{"type":"Feature","id":"12033:045N305006000000","properties":{"id":"12033:045N305006000000","parcelId":"045N305006000000","countyFips":"12033","countyName":"Escambia","state":"Florida","marketIds":["Pensacola"],"situsAddress":"910 E HIGHWAY 4","situsCity":"CENTURY","situsZip":"32535","jurisdictionCode":"Escambia County","ownerName":"SEIFERT COLIN JAMES","ownerName2":null,"propertyName":null,"zoningCode":"RMU","zoningDistrict":null,"jurisdictionPrefix":"MSTU","dorCode":"0100","acreage":5.94,"centroid":[-87.241282,30.97438],"lastSale":{"date":null,"price":null,"qualified":null},"tax":{"marketValue":252592.0,"assessedValue":236061.0,"taxableValue":204855.0,"taxes":null},"mailingAddress":{"line1":"910 E HIGHWAY 4","line2":null,"city":"CENTURY","state":"FL","zip":"32535"},"incomeTract":null,"incomeBlockGroup":null,"nearestRoad":null,"flu":{"code":"RC","label":"RC","jurisdiction":"Escambia County","source":"https://gismaps.myescambia.com/arcgis/rest/services/AccelaMain/MapServer/22"},"opportunityZone":null,"oz2Eligibility":null,"source":"fl-panhandle-12033","gisViewerUrl":"https://maps.roktech.net/escambia_gomaps4/?mapName=General","appraiserUrl":"https://www.escpa.org/cama/Detail_a.aspx?s=045N305006000000"},"geometry":{"type":"Polygon","coordinates":[[[-87.239869,30.974918],[-87.240021,30.974918],[-87.242609,30.974922],[-87.242798,30.9741],[-87.24189,30.973316],[-87.241923,30.97423],[-87.239866,30.974253],[-87.239869,30.974918]]]}},{"type":"Feature","id":"12033:326N300800002003","properties":{"id":"12033:326N300800002003","parcelId":"326N300800002003","countyFips":"12033","countyName":"Escambia","state":"Florida","marketIds":["Pensacola"],"situsAddress":"OLD FLOMATON HWY","situsCity":"CENTURY","situsZip":"32535","jurisdictionCode":"Escambia County","ownerName":"RABON JOE D &","ownerName2":null,"propertyName":null,"zoningCode":"RR","zoningDistrict":null,"jurisdictionPrefix":"MSTU","dorCode":"0000","acreage":5.84,"centroid":[-87.249995,30.994077],"lastSale":{"date":null,"price":null,"qualified":null},"tax":{"marketValue":15870.0,"assessedValue":2770.0,"taxableValue":9559.0,"taxes":null},"mailingAddress":{"line1":"6150 BAY SHORE WALK","line2":"UNIT 306","city":"LONG BEACH","state":"CA","zip":"90803"},"incomeTract":null,"incomeBlockGroup":null,"nearestRoad":null,"flu":{"code":"RC","label":"RC","jurisdiction":"Escambia County","source":"https://gismaps.myescambia.com/arcgis/rest/services/AccelaMain/MapServer/22"},"opportunityZone":null,"oz2Eligibility":null,"source":"fl-panhandle-12033","gisViewerUrl":"https://maps.roktech.net/escambia_gomaps4/?mapName=General","appraiserUrl":"https://www.escpa.org/cama/Detail_a.aspx?s=326N300800002003"},"geometry":{"type":"Polygon","coordinates":[[[-87.248683,30.994877],[-87.250013,30.994904],[-87.250916,30.994129],[-87.250813,30.993922],[-87.250722,30.99366],[-87.250045,30.993645],[-87.250042,30.993758],[-87.248726,30.993722],[-87.248683,30.994877]]]}},{"type":"Feature","id":"12033:045N302005003001","properties":{"id":"12033:045N302005003001","parcelId":"045N302005003001","countyFips":"12033","countyName":"Escambia","state":"Florida","marketIds":["Pensacola"],"situsAddress":null,"situsCity":"CENTURY","situsZip":"32535","jurisdictionCode":"Escambia County","ownerName":"CAMPBELL JAMES E","ownerName2":null,"propertyName":null,"zoningCode":"RR","zoningDistrict":null,"jurisdictionPrefix":"MSTU","dorCode":"9500","acreage":5.6046,"centroid":[-87.24636,30.977651],"lastSale":{"date":null,"price":null,"qualified":null},"tax":{"marketValue":1.0,"assessedValue":1.0,"taxableValue":1.0,"taxes":null},"mailingAddress":{"line1":"720 CAMPBELL RD","line2":null,"city":"CENTURY","state":"FL","zip":"32535"},"incomeTract":null,"incomeBlockGroup":null,"nearestRoad":null,"flu":{"code":"RC","label":"RC","jurisdiction":"Escambia County","source":"https://gismaps.myescambia.com/arcgis/rest/services/AccelaMain/MapServer/22"},"opportunityZone":null,"oz2Eligibility":null,"source":"fl-panhandle-12033","gisViewerUrl":"https://maps.roktech.net/escambia_gomaps4/?mapName=General","appraiserUrl":"https://www.escpa.org/cama/Detail_a.aspx?s=045N302005003001"},"geometry":{"type":"Polygon","coordinates":[[[-87.24652,30.976426],[-87.246171,30.976725],[-87.246101,30.976873],[-87.246025,30.977479],[-87.245866,30.978159],[-87.245873,30.978406],[-87.245934,30.978628],[-87.246049,30.978695],[-87.246046,30.977907],[-87.247689,30.977899],[-87.247686,30.976963],[-87.24652,30.976426]]]}},{"type":"Feature","id":"12033:045N304014001002","properties":{"id":"12033:045N304014001002","parcelId":"045N304014001002","countyFips":"12033","countyName":"Escambia","state":"Florida","marketIds":["Pensacola"],"situsAddress":"1001 FREEDOM RD","situsCity":"CENTURY","situsZip":"32535","jurisdictionCode":"Century","ownerName":"AUGUSTUS LUCAN J","ownerName2":null,"propertyName":null,"zoningCode":null,"zoningDistrict":null,"jurisdictionPrefix":"F","dorCode":"0100","acreage":5.55,"centroid":[-87.246038,30.970884],"lastSale":{"date":"2024-06-01","price":95000.0,"qualified":"30"},"tax":{"marketValue":143318.0,"assessedValue":133654.0,"taxableValue":105141.0,"taxes":null},"mailingAddress":{"line1":"1001 FREEDOM RD","line2":null,"city":"CENTURY","state":"FL","zip":"32535"},"incomeTract":null,"incomeBlockGroup":null,"nearestRoad":null,"flu":null,"opportunityZone":null,"oz2Eligibility":null,"source":"fl-panhandle-12033","gisViewerUrl":"https://maps.roktech.net/escambia_gomaps4/?mapName=General","appraiserUrl":"https://www.escpa.org/cama/Detail_a.aspx?s=045N304014001002"},"geometry":{"type":"Polygon","coordinates":[[[-87.245781,30.970976],[-87.245895,30.970978],[-87.246116,30.970983],[-87.246117,30.971373],[-87.246672,30.971373],[-87.246666,30.969411],[-87.244477,30.969385],[-87.244469,30.969909],[-87.245375,30.969909],[-87.245376,30.97016],[-87.245823,30.970037],[-87.245891,30.970927],[-87.245781,30.970925],[-87.245781,30.970976]]]}},{"type":"Feature","id":"12033:346N302204000002","properties":{"id":"12033:346N302204000002","parcelId":"346N302204000002","countyFips":"12033","countyName":"Escambia","state":"Florida","marketIds":["Pensacola"],"situsAddress":"2030 FANNIE RD","situsCity":"CENTURY","situsZip":"32535","jurisdictionCode":"Escambia County","ownerName":"GODWIN MARCUS WAYNE","ownerName2":null,"propertyName":null,"zoningCode":"RMU","zoningDistrict":null,"jurisdictionPrefix":"MSTU","dorCode":"0100","acreage":5.5,"centroid":[-87.2311,30.992304],"lastSale":{"date":null,"price":null,"qualified":null},"tax":{"marketValue":164571.0,"assessedValue":164571.0,"taxableValue":161941.0,"taxes":null},"mailingAddress":{"line1":"8401 CREAMER RD","line2":null,"city":"CENTURY","state":"FL","zip":"32535"},"incomeTract":null,"incomeBlockGroup":null,"nearestRoad":null,"flu":{"code":"RC","label":"RC","jurisdiction":"Escambia County","source":"https://gismaps.myescambia.com/arcgis/rest/services/AccelaMain/MapServer/22"},"opportunityZone":null,"oz2Eligibility":null,"source":"fl-panhandle-12033","gisViewerUrl":"https://maps.roktech.net/escambia_gomaps4/?mapName=General","appraiserUrl":"https://www.escpa.org/cama/Detail_a.aspx?s=346N302204000002"},"geometry":{"type":"Polygon","coordinates":[[[-87.230133,30.992767],[-87.2309,30.992775],[-87.232189,30.992787],[-87.2322,30.992207],[-87.231881,30.992204],[-87.231891,30.991731],[-87.231345,30.991726],[-87.231336,30.992051],[-87.229556,30.992033],[-87.229574,30.992762],[-87.230133,30.992767]]]}},{"type":"Feature","id":"12033:346N302305000000","properties":{"id":"12033:346N302305000000","parcelId":"346N302305000000","countyFips":"12033","countyName":"Escambia","state":"Florida","marketIds":["Pensacola"],"situsAddress":"1700 CARNLEY RD","situsCity":"CENTURY","situsZip":"32535","jurisdictionCode":"Escambia County","ownerName":"CARNLEY DEWEY M & ALICE I","ownerName2":null,"propertyName":null,"zoningCode":"RMU","zoningDistrict":null,"jurisdictionPrefix":"MSTU","dorCode":"0200","acreage":5.48,"centroid":[-87.230138,30.991354],"lastSale":{"date":null,"price":null,"qualified":null},"tax":{"marketValue":29025.0,"assessedValue":19411.0,"taxableValue":28894.0,"taxes":null},"mailingAddress":{"line1":"3870 HWY 4-A","line2":null,"city":"CENTURY","state":"FL","zip":"32535"},"incomeTract":null,"incomeBlockGroup":null,"nearestRoad":null,"flu":{"code":"RC","label":"RC","jurisdiction":"Escambia County","source":"https://gismaps.myescambia.com/arcgis/rest/services/AccelaMain/MapServer/22"},"opportunityZone":null,"oz2Eligibility":null,"source":"fl-panhandle-12033","gisViewerUrl":"https://maps.roktech.net/escambia_gomaps4/?mapName=General","appraiserUrl":"https://www.escpa.org/cama/Detail_a.aspx?s=346N302305000000"},"geometry":{"type":"Polygon","coordinates":[[[-87.229524,30.991033],[-87.229531,30.991308],[-87.229556,30.992033],[-87.231336,30.992051],[-87.23136,30.990859],[-87.229524,30.990838],[-87.229524,30.991033]]]}},{"type":"Feature","id":"12033:045N302003000000","properties":{"id":"12033:045N302003000000","parcelId":"045N302003000000","countyFips":"12033","countyName":"Escambia","state":"Florida","marketIds":["Pensacola"],"situsAddress":"840 FANNIE RD","situsCity":"CENTURY","situsZip":"32535","jurisdictionCode":"Escambia County","ownerName":"GAFFORD JAMMIE EILEEN  GAFFORD DONALD ROBERT","ownerName2":null,"propertyName":null,"zoningCode":"RMU","zoningDistrict":null,"jurisdictionPrefix":"MSTU","dorCode":"0100","acreage":5.21,"centroid":[-87.242633,30.983013],"lastSale":{"date":null,"price":null,"qualified":null},"tax":{"marketValue":66296.0,"assessedValue":20010.0,"taxableValue":null,"taxes":null},"mailingAddress":{"line1":"840 FANNIE RD","line2":null,"city":"CENTURY","state":"FL","zip":"32535"},"incomeTract":null,"incomeBlockGroup":null,"nearestRoad":null,"flu":{"code":"RC","label":"RC","jurisdiction":"Escambia County","source":"https://gismaps.myescambia.com/arcgis/rest/services/AccelaMain/MapServer/22"},"opportunityZone":null,"oz2Eligibility":null,"source":"fl-panhandle-12033","gisViewerUrl":"https://maps.roktech.net/escambia_gomaps4/?mapName=General","appraiserUrl":"https://www.escpa.org/cama/Detail_a.aspx?s=045N302003000000"},"geometry":{"type":"Polygon","coordinates":[[[-87.242654,30.982036],[-87.242511,30.982116],[-87.242338,30.983152],[-87.242011,30.983216],[-87.242012,30.9834],[-87.242675,30.983415],[-87.242678,30.983908],[-87.243984,30.983934],[-87.242833,30.981936],[-87.242654,30.982036]]]}},{"type":"Feature","id":"12033:225N301023000000","properties":{"id":"12033:225N301023000000","parcelId":"225N301023000000","countyFips":"12033","countyName":"Escambia","state":"Florida","marketIds":["Pensacola"],"situsAddress":"EAST HWY 4","situsCity":"CENTURY","situsZip":"32535","jurisdictionCode":"Escambia County","ownerName":"CENTURY TOWN OF","ownerName2":null,"propertyName":null,"zoningCode":"Rec","zoningDistrict":null,"jurisdictionPrefix":"MSTU","dorCode":"8900","acreage":5.0,"centroid":[-87.234222,30.967226],"lastSale":{"date":null,"price":null,"qualified":null},"tax":{"marketValue":1750.0,"assessedValue":1750.0,"taxableValue":null,"taxes":null},"mailingAddress":{"line1":"PO BOX 790","line2":null,"city":"CENTURY","state":"FL","zip":"32535"},"incomeTract":null,"incomeBlockGroup":null,"nearestRoad":null,"flu":{"code":"REC","label":"REC","jurisdiction":"Escambia County","source":"https://gismaps.myescambia.com/arcgis/rest/services/AccelaMain/MapServer/22"},"opportunityZone":null,"oz2Eligibility":null,"source":"fl-panhandle-12033","gisViewerUrl":"https://maps.roktech.net/escambia_gomaps4/?mapName=General","appraiserUrl":"https://www.escpa.org/cama/Detail_a.aspx?s=225N301023000000"},"geometry":{"type":"Polygon","coordinates":[[[-87.234942,30.967828],[-87.236057,30.967982],[-87.234381,30.966391],[-87.234174,30.966604],[-87.234057,30.966677],[-87.23402,30.966772],[-87.233942,30.966858],[-87.233866,30.96702],[-87.233865,30.967134],[-87.233818,30.967279],[-87.233845,30.967388],[-87.233851,30.967652],[-87.234035,30.967579],[-87.234261,30.968003],[-87.234942,30.967828]]]}}]}