{"type":"FeatureCollection","name":"37191-18_33","features":[{"type":"Feature","id":"37191:2515341487","properties":{"id":"37191:2515341487","parcelId":"2515341487","countyFips":"37191","countyName":"Wayne","state":"North Carolina","marketIds":["Raleigh-Durham"],"situsAddress":"194 WESTBROOK CHURCH RD","situsCity":null,"situsZip":null,"jurisdictionCode":null,"ownerName":"DUNN JOHN D SR","ownerName2":null,"propertyName":null,"zoningCode":null,"zoningDistrict":null,"jurisdictionPrefix":null,"dorCode":null,"acreage":9.8714,"centroid":[-78.28575,35.2717],"lastSale":{"date":null,"price":null,"qualified":null},"tax":{"marketValue":139540.0,"assessedValue":20000.0,"taxableValue":null,"taxes":null},"mailingAddress":{"line1":null,"line2":null,"city":null,"state":null,"zip":null},"incomeTract":null,"incomeBlockGroup":null,"nearestRoad":null,"flu":null,"opportunityZone":null,"oz2Eligibility":null,"source":"nc-onemap-37191"},"geometry":{"type":"Polygon","coordinates":[[[-78.28609,35.27183],[-78.28546,35.27184],[-78.28541,35.27157],[-78.28604,35.27156],[-78.28609,35.27183]]]}},{"type":"Feature","id":"37191:2515667739","properties":{"id":"37191:2515667739","parcelId":"2515667739","countyFips":"37191","countyName":"Wayne","state":"North Carolina","marketIds":["Raleigh-Durham"],"situsAddress":"S US 13 HWY","situsCity":null,"situsZip":null,"jurisdictionCode":null,"ownerName":"BRITT SHARON ROSE","ownerName2":null,"propertyName":null,"zoningCode":null,"zoningDistrict":null,"jurisdictionPrefix":null,"dorCode":null,"acreage":9.8714,"centroid":[-78.273465,35.27781],"lastSale":{"date":null,"price":null,"qualified":null},"tax":{"marketValue":3720.0,"assessedValue":3720.0,"taxableValue":null,"taxes":null},"mailingAddress":{"line1":null,"line2":null,"city":null,"state":null,"zip":null},"incomeTract":null,"incomeBlockGroup":null,"nearestRoad":null,"flu":null,"opportunityZone":null,"oz2Eligibility":null,"source":"nc-onemap-37191"},"geometry":{"type":"Polygon","coordinates":[[[-78.27394,35.27757],[-78.27406,35.27773],[-78.2723,35.27822],[-78.27356,35.27772],[-78.27394,35.27757]]]}},{"type":"Feature","id":"37191:2525232327","properties":{"id":"37191:2525232327","parcelId":"2525232327","countyFips":"37191","countyName":"Wayne","state":"North Carolina","marketIds":["Raleigh-Durham"],"situsAddress":"RAYNOR MILL RD","situsCity":null,"situsZip":null,"jurisdictionCode":null,"ownerName":"WEAVER BOB STUART","ownerName2":null,"propertyName":null,"zoningCode":null,"zoningDistrict":null,"jurisdictionPrefix":null,"dorCode":null,"acreage":9.7567,"centroid":[-78.255375,35.268245],"lastSale":{"date":null,"price":null,"qualified":null},"tax":{"marketValue":41330.0,"assessedValue":41330.0,"taxableValue":null,"taxes":null},"mailingAddress":{"line1":null,"line2":null,"city":null,"state":null,"zip":null},"incomeTract":null,"incomeBlockGroup":null,"nearestRoad":null,"flu":null,"opportunityZone":null,"oz2Eligibility":null,"source":"nc-onemap-37191"},"geometry":{"type":"Polygon","coordinates":[[[-78.25481,35.26865],[-78.25449,35.26784],[-78.25582,35.26748],[-78.25638,35.26901],[-78.25481,35.26865]]]}},{"type":"Feature","id":"37191:2515674605","properties":{"id":"37191:2515674605","parcelId":"2515674605","countyFips":"37191","countyName":"Wayne","state":"North Carolina","marketIds":["Raleigh-Durham"],"situsAddress":"5948 S US 13 HWY","situsCity":null,"situsZip":null,"jurisdictionCode":null,"ownerName":"JONES ALICE FAYE","ownerName2":null,"propertyName":null,"zoningCode":null,"zoningDistrict":null,"jurisdictionPrefix":null,"dorCode":null,"acreage":9.7567,"centroid":[-78.278272,35.28558],"lastSale":{"date":null,"price":null,"qualified":null},"tax":{"marketValue":117150.0,"assessedValue":387980.0,"taxableValue":null,"taxes":null},"mailingAddress":{"line1":null,"line2":null,"city":null,"state":null,"zip":null},"incomeTract":null,"incomeBlockGroup":null,"nearestRoad":null,"flu":null,"opportunityZone":null,"oz2Eligibility":null,"source":"nc-onemap-37191"},"geometry":{"type":"Polygon","coordinates":[[[-78.27734,35.28499],[-78.27706,35.28472],[-78.27875,35.28478],[-78.27923,35.28685],[-78.27898,35.28656],[-78.27734,35.28499]]]}},{"type":"Feature","id":"37191:2525221159","properties":{"id":"37191:2525221159","parcelId":"2525221159","countyFips":"37191","countyName":"Wayne","state":"North Carolina","marketIds":["Raleigh-Durham"],"situsAddress":"1401 RAYNOR MILL RD","situsCity":null,"situsZip":null,"jurisdictionCode":null,"ownerName":"KEEN PERRY DEXTER","ownerName2":null,"propertyName":null,"zoningCode":null,"zoningDistrict":null,"jurisdictionPrefix":null,"dorCode":null,"acreage":9.6419,"centroid":[-78.258178,35.266263],"lastSale":{"date":null,"price":null,"qualified":null},"tax":{"marketValue":193500.0,"assessedValue":122730.0,"taxableValue":null,"taxes":null},"mailingAddress":{"line1":null,"line2":null,"city":null,"state":null,"zip":null},"incomeTract":null,"incomeBlockGroup":null,"nearestRoad":null,"flu":null,"opportunityZone":null,"oz2Eligibility":null,"source":"nc-onemap-37191"},"geometry":{"type":"Polygon","coordinates":[[[-78.25806,35.26611],[-78.25801,35.26591],[-78.25819,35.26597],[-78.2585,35.26658],[-78.25819,35.26666],[-78.25812,35.26635],[-78.25806,35.26611]]]}},{"type":"Feature","id":"37191:2516811383","properties":{"id":"37191:2516811383","parcelId":"2516811383","countyFips":"37191","countyName":"Wayne","state":"North Carolina","marketIds":["Raleigh-Durham"],"situsAddress":"N JORDANS CHAPEL RD","situsCity":null,"situsZip":null,"jurisdictionCode":null,"ownerName":"BRYAN STEPHEN EARL","ownerName2":null,"propertyName":null,"zoningCode":null,"zoningDistrict":null,"jurisdictionPrefix":null,"dorCode":null,"acreage":9.4123,"centroid":[-78.268568,35.290215],"lastSale":{"date":null,"price":null,"qualified":null},"tax":{"marketValue":2940.0,"assessedValue":28360.0,"taxableValue":null,"taxes":null},"mailingAddress":{"line1":null,"line2":null,"city":null,"state":null,"zip":null},"incomeTract":null,"incomeBlockGroup":null,"nearestRoad":null,"flu":null,"opportunityZone":null,"oz2Eligibility":null,"source":"nc-onemap-37191"},"geometry":{"type":"Polygon","coordinates":[[[-78.26806,35.28968],[-78.26962,35.28971],[-78.26961,35.29072],[-78.2686,35.2907],[-78.26772,35.29032],[-78.2678,35.29016],[-78.26806,35.28968]]]}},{"type":"Feature","id":"37191:2526377733","properties":{"id":"37191:2526377733","parcelId":"2526377733","countyFips":"37191","countyName":"Wayne","state":"North Carolina","marketIds":["Raleigh-Durham"],"situsAddress":"2063 SELAH CHURCH RD","situsCity":null,"situsZip":null,"jurisdictionCode":null,"ownerName":"EDWARDS JANICE HOWELL","ownerName2":null,"propertyName":null,"zoningCode":null,"zoningDistrict":null,"jurisdictionPrefix":null,"dorCode":null,"acreage":9.4123,"centroid":[-78.250085,35.307632],"lastSale":{"date":null,"price":null,"qualified":null},"tax":{"marketValue":146530.0,"assessedValue":17500.0,"taxableValue":null,"taxes":null},"mailingAddress":{"line1":null,"line2":null,"city":null,"state":null,"zip":null},"incomeTract":null,"incomeBlockGroup":null,"nearestRoad":null,"flu":null,"opportunityZone":null,"oz2Eligibility":null,"source":"nc-onemap-37191"},"geometry":{"type":"Polygon","coordinates":[[[-78.2503,35.30741],[-78.25024,35.30784],[-78.24987,35.30786],[-78.24993,35.30742],[-78.2503,35.30741]]]}},{"type":"Feature","id":"37191:2515820247","properties":{"id":"37191:2515820247","parcelId":"2515820247","countyFips":"37191","countyName":"Wayne","state":"North Carolina","marketIds":["Raleigh-Durham"],"situsAddress":"RAYNOR MILL RD","situsCity":null,"situsZip":null,"jurisdictionCode":null,"ownerName":"KEENE HOG FARMS LLC","ownerName2":null,"propertyName":null,"zoningCode":null,"zoningDistrict":null,"jurisdictionPrefix":null,"dorCode":null,"acreage":9.3205,"centroid":[-78.269433,35.265298],"lastSale":{"date":null,"price":null,"qualified":null},"tax":{"marketValue":15330.0,"assessedValue":15330.0,"taxableValue":null,"taxes":null},"mailingAddress":{"line1":null,"line2":null,"city":null,"state":null,"zip":null},"incomeTract":null,"incomeBlockGroup":null,"nearestRoad":null,"flu":null,"opportunityZone":null,"oz2Eligibility":null,"source":"nc-onemap-37191"},"geometry":{"type":"Polygon","coordinates":[[[-78.2685,35.2649],[-78.2702,35.26471],[-78.2703,35.26579],[-78.26873,35.26579],[-78.2685,35.2649]]]}},{"type":"Feature","id":"37191:2515991901","properties":{"id":"37191:2515991901","parcelId":"2515991901","countyFips":"37191","countyName":"Wayne","state":"North Carolina","marketIds":["Raleigh-Durham"],"situsAddress":"RACHEL JACKSON RD","situsCity":null,"situsZip":null,"jurisdictionCode":null,"ownerName":"TRUCKENBROD RONALD P","ownerName2":null,"propertyName":null,"zoningCode":null,"zoningDistrict":null,"jurisdictionPrefix":null,"dorCode":null,"acreage":9.2516,"centroid":[-78.265502,35.28665],"lastSale":{"date":null,"price":null,"qualified":null},"tax":{"marketValue":33410.0,"assessedValue":33410.0,"taxableValue":null,"taxes":null},"mailingAddress":{"line1":null,"line2":null,"city":null,"state":null,"zip":null},"incomeTract":null,"incomeBlockGroup":null,"nearestRoad":null,"flu":null,"opportunityZone":null,"oz2Eligibility":null,"source":"nc-onemap-37191"},"geometry":{"type":"Polygon","coordinates":[[[-78.2647,35.28713],[-78.26536,35.2858],[-78.26655,35.28604],[-78.26597,35.28715],[-78.26493,35.28713],[-78.2647,35.28713]]]}},{"type":"Feature","id":"37191:2516725567","properties":{"id":"37191:2516725567","parcelId":"2516725567","countyFips":"37191","countyName":"Wayne","state":"North Carolina","marketIds":["Raleigh-Durham"],"situsAddress":"SELAH CHURCH RD","situsCity":null,"situsZip":null,"jurisdictionCode":null,"ownerName":"EDWARDS DEBBIE J HEIRS","ownerName2":null,"propertyName":null,"zoningCode":null,"zoningDistrict":null,"jurisdictionPrefix":null,"dorCode":null,"acreage":9.1598,"centroid":[-78.27091,35.293482],"lastSale":{"date":null,"price":null,"qualified":null},"tax":{"marketValue":4800.0,"assessedValue":34800.0,"taxableValue":null,"taxes":null},"mailingAddress":{"line1":null,"line2":null,"city":null,"state":null,"zip":null},"incomeTract":null,"incomeBlockGroup":null,"nearestRoad":null,"flu":null,"opportunityZone":null,"oz2Eligibility":null,"source":"nc-onemap-37191"},"geometry":{"type":"Polygon","coordinates":[[[-78.27039,35.29295],[-78.27167,35.29303],[-78.27171,35.29424],[-78.27039,35.29421],[-78.27039,35.29298],[-78.27039,35.29295]]]}},{"type":"Feature","id":"37191:2524177146","properties":{"id":"37191:2524177146","parcelId":"2524177146","countyFips":"37191","countyName":"Wayne","state":"North Carolina","marketIds":["Raleigh-Durham"],"situsAddress":"S JORDANS CHAPEL RD","situsCity":null,"situsZip":null,"jurisdictionCode":null,"ownerName":"LEE NORMAN EARL","ownerName2":null,"propertyName":null,"zoningCode":null,"zoningDistrict":null,"jurisdictionPrefix":null,"dorCode":null,"acreage":9.1598,"centroid":[-78.25738,35.251053],"lastSale":{"date":null,"price":null,"qualified":null},"tax":{"marketValue":40400.0,"assessedValue":40400.0,"taxableValue":null,"taxes":null},"mailingAddress":{"line1":null,"line2":null,"city":null,"state":null,"zip":null},"incomeTract":null,"incomeBlockGroup":null,"nearestRoad":null,"flu":null,"opportunityZone":null,"oz2Eligibility":null,"source":"nc-onemap-37191"},"geometry":{"type":"Polygon","coordinates":[[[-78.25632,35.2501],[-78.25707,35.25014],[-78.2583,35.25164],[-78.25783,35.25233],[-78.25632,35.2501]]]}},{"type":"Feature","id":"37191:2515831061","properties":{"id":"37191:2515831061","parcelId":"2515831061","countyFips":"37191","countyName":"Wayne","state":"North Carolina","marketIds":["Raleigh-Durham"],"situsAddress":"RAYNOR MILL RD","situsCity":null,"situsZip":null,"jurisdictionCode":null,"ownerName":"KEENE HOG FARMS LLC","ownerName2":null,"propertyName":null,"zoningCode":null,"zoningDistrict":null,"jurisdictionPrefix":null,"dorCode":null,"acreage":9.1368,"centroid":[-78.269008,35.26726],"lastSale":{"date":null,"price":null,"qualified":null},"tax":{"marketValue":13370.0,"assessedValue":13370.0,"taxableValue":null,"taxes":null},"mailingAddress":{"line1":null,"line2":null,"city":null,"state":null,"zip":null},"incomeTract":null,"incomeBlockGroup":null,"nearestRoad":null,"flu":null,"opportunityZone":null,"oz2Eligibility":null,"source":"nc-onemap-37191"},"geometry":{"type":"Polygon","coordinates":[[[-78.2699,35.26771],[-78.26853,35.26798],[-78.26821,35.26678],[-78.26939,35.26657],[-78.2699,35.26771]]]}},{"type":"Feature","id":"37191:2516636280","properties":{"id":"37191:2516636280","parcelId":"2516636280","countyFips":"37191","countyName":"Wayne","state":"North Carolina","marketIds":["Raleigh-Durham"],"situsAddress":"2765 SELAH CHURCH RD","situsCity":null,"situsZip":null,"jurisdictionCode":null,"ownerName":"HARRELL NORWOOD M & W","ownerName2":null,"propertyName":null,"zoningCode":null,"zoningDistrict":null,"jurisdictionPrefix":null,"dorCode":null,"acreage":8.9532,"centroid":[-78.273747,35.29534],"lastSale":{"date":null,"price":null,"qualified":null},"tax":{"marketValue":22000.0,"assessedValue":20000.0,"taxableValue":null,"taxes":null},"mailingAddress":{"line1":null,"line2":null,"city":null,"state":null,"zip":null},"incomeTract":null,"incomeBlockGroup":null,"nearestRoad":null,"flu":null,"opportunityZone":null,"oz2Eligibility":null,"source":"nc-onemap-37191"},"geometry":{"type":"Polygon","coordinates":[[[-78.27344,35.29527],[-78.27385,35.29511],[-78.27406,35.29541],[-78.27364,35.29557],[-78.27344,35.29527]]]}},{"type":"Feature","id":"37191:2526041899","properties":{"id":"37191:2526041899","parcelId":"2526041899","countyFips":"37191","countyName":"Wayne","state":"North Carolina","marketIds":["Raleigh-Durham"],"situsAddress":"SELAH CHURCH RD","situsCity":null,"situsZip":null,"jurisdictionCode":null,"ownerName":"PORTER CARROLL W & W","ownerName2":null,"propertyName":null,"zoningCode":null,"zoningDistrict":null,"jurisdictionPrefix":null,"dorCode":null,"acreage":8.7695,"centroid":[-78.261781,35.300168],"lastSale":{"date":null,"price":null,"qualified":null},"tax":{"marketValue":2300.0,"assessedValue":20270.0,"taxableValue":null,"taxes":null},"mailingAddress":{"line1":null,"line2":null,"city":null,"state":null,"zip":null},"incomeTract":null,"incomeBlockGroup":null,"nearestRoad":null,"flu":null,"opportunityZone":null,"oz2Eligibility":null,"source":"nc-onemap-37191"},"geometry":{"type":"Polygon","coordinates":[[[-78.26062,35.30041],[-78.26101,35.29921],[-78.26226,35.29984],[-78.26323,35.30015],[-78.26307,35.3004],[-78.26205,35.30048],[-78.26216,35.30013],[-78.26138,35.29999],[-78.26124,35.30057],[-78.26079,35.3005],[-78.26062,35.30041]]]}},{"type":"Feature","id":"37191:2515345134","properties":{"id":"37191:2515345134","parcelId":"2515345134","countyFips":"37191","countyName":"Wayne","state":"North Carolina","marketIds":["Raleigh-Durham"],"situsAddress":"229 WESTBROOK CHURCH RD","situsCity":null,"situsZip":null,"jurisdictionCode":null,"ownerName":"KING MICHAEL ANTHONY","ownerName2":null,"propertyName":null,"zoningCode":null,"zoningDistrict":null,"jurisdictionPrefix":null,"dorCode":null,"acreage":8.7236,"centroid":[-78.28457,35.270515],"lastSale":{"date":null,"price":null,"qualified":null},"tax":{"marketValue":93190.0,"assessedValue":20000.0,"taxableValue":null,"taxes":null},"mailingAddress":{"line1":null,"line2":null,"city":null,"state":null,"zip":null},"incomeTract":null,"incomeBlockGroup":null,"nearestRoad":null,"flu":null,"opportunityZone":null,"oz2Eligibility":null,"source":"nc-onemap-37191"},"geometry":{"type":"Polygon","coordinates":[[[-78.28406,35.27045],[-78.28507,35.27043],[-78.28507,35.27058],[-78.28408,35.2706],[-78.28406,35.27045]]]}},{"type":"Feature","id":"37191:2517721053","properties":{"id":"37191:2517721053","parcelId":"2517721053","countyFips":"37191","countyName":"Wayne","state":"North Carolina","marketIds":["Raleigh-Durham"],"situsAddress":"1317 S BENTONVILLE RD","situsCity":null,"situsZip":null,"jurisdictionCode":null,"ownerName":"ST JOHN PENT HOLINESS CH OF FOUR OAKS INC","ownerName2":null,"propertyName":null,"zoningCode":null,"zoningDistrict":null,"jurisdictionPrefix":null,"dorCode":null,"acreage":8.5859,"centroid":[-78.272161,35.319657],"lastSale":{"date":null,"price":null,"qualified":null},"tax":{"marketValue":52030.0,"assessedValue":52030.0,"taxableValue":null,"taxes":null},"mailingAddress":{"line1":null,"line2":null,"city":null,"state":null,"zip":null},"incomeTract":null,"incomeBlockGroup":null,"nearestRoad":null,"flu":null,"opportunityZone":null,"oz2Eligibility":null,"source":"nc-onemap-37191"},"geometry":{"type":"Polygon","coordinates":[[[-78.27193,35.31936],[-78.27293,35.31854],[-78.27301,35.31912],[-78.27256,35.32016],[-78.27205,35.31998],[-78.27156,35.3204],[-78.27109,35.32004],[-78.27193,35.31936]]]}},{"type":"Feature","id":"37191:2515414835","properties":{"id":"37191:2515414835","parcelId":"2515414835","countyFips":"37191","countyName":"Wayne","state":"North Carolina","marketIds":["Raleigh-Durham"],"situsAddress":"WESTBROOK CHURCH RD","situsCity":null,"situsZip":null,"jurisdictionCode":null,"ownerName":"DUNN BEN","ownerName2":null,"propertyName":null,"zoningCode":null,"zoningDistrict":null,"jurisdictionPrefix":null,"dorCode":null,"acreage":8.5399,"centroid":[-78.28221,35.264186],"lastSale":{"date":null,"price":null,"qualified":null},"tax":{"marketValue":4330.0,"assessedValue":31770.0,"taxableValue":null,"taxes":null},"mailingAddress":{"line1":null,"line2":null,"city":null,"state":null,"zip":null},"incomeTract":null,"incomeBlockGroup":null,"nearestRoad":null,"flu":null,"opportunityZone":null,"oz2Eligibility":null,"source":"nc-onemap-37191"},"geometry":{"type":"Polygon","coordinates":[[[-78.28044,35.26401],[-78.28324,35.26382],[-78.28373,35.26432],[-78.28317,35.26426],[-78.28047,35.26452],[-78.28044,35.26401]]]}},{"type":"Feature","id":"37191:2526283985","properties":{"id":"37191:2526283985","parcelId":"2526283985","countyFips":"37191","countyName":"Wayne","state":"North Carolina","marketIds":["Raleigh-Durham"],"situsAddress":"S BENTONVILLE RD","situsCity":null,"situsZip":null,"jurisdictionCode":null,"ownerName":"TART JOHN L II","ownerName2":null,"propertyName":null,"zoningCode":null,"zoningDistrict":null,"jurisdictionPrefix":null,"dorCode":null,"acreage":8.494,"centroid":[-78.254544,35.311134],"lastSale":{"date":null,"price":null,"qualified":null},"tax":{"marketValue":5490.0,"assessedValue":5490.0,"taxableValue":null,"taxes":null},"mailingAddress":{"line1":null,"line2":null,"city":null,"state":null,"zip":null},"incomeTract":null,"incomeBlockGroup":null,"nearestRoad":null,"flu":null,"opportunityZone":null,"oz2Eligibility":null,"source":"nc-onemap-37191"},"geometry":{"type":"Polygon","coordinates":[[[-78.25433,35.31153],[-78.25366,35.31082],[-78.25459,35.31025],[-78.25554,35.31126],[-78.2546,35.31181],[-78.25433,35.31153]]]}},{"type":"Feature","id":"37191:2515341795","properties":{"id":"37191:2515341795","parcelId":"2515341795","countyFips":"37191","countyName":"Wayne","state":"North Carolina","marketIds":["Raleigh-Durham"],"situsAddress":"180 WESTBROOK CHURCH RD","situsCity":null,"situsZip":null,"jurisdictionCode":null,"ownerName":"THORNTON BOBBY LAMONT","ownerName2":null,"propertyName":null,"zoningCode":null,"zoningDistrict":null,"jurisdictionPrefix":null,"dorCode":null,"acreage":8.494,"centroid":[-78.285695,35.272215],"lastSale":{"date":null,"price":null,"qualified":null},"tax":{"marketValue":81350.0,"assessedValue":20000.0,"taxableValue":null,"taxes":null},"mailingAddress":{"line1":null,"line2":null,"city":null,"state":null,"zip":null},"incomeTract":null,"incomeBlockGroup":null,"nearestRoad":null,"flu":null,"opportunityZone":null,"oz2Eligibility":null,"source":"nc-onemap-37191"},"geometry":{"type":"Polygon","coordinates":[[[-78.28549,35.27203],[-78.28585,35.27198],[-78.28588,35.27242],[-78.28556,35.27243],[-78.28549,35.27203]]]}},{"type":"Feature","id":"37191:2515608085","properties":{"id":"37191:2515608085","parcelId":"2515608085","countyFips":"37191","countyName":"Wayne","state":"North Carolina","marketIds":["Raleigh-Durham"],"situsAddress":"EDWARDS STORE RD","situsCity":null,"situsZip":null,"jurisdictionCode":null,"ownerName":"BRITT JASON LIVESTON","ownerName2":null,"propertyName":null,"zoningCode":null,"zoningDistrict":null,"jurisdictionPrefix":null,"dorCode":null,"acreage":8.1956,"centroid":[-78.273306,35.259008],"lastSale":{"date":null,"price":null,"qualified":null},"tax":{"marketValue":42790.0,"assessedValue":42790.0,"taxableValue":null,"taxes":null},"mailingAddress":{"line1":null,"line2":null,"city":null,"state":null,"zip":null},"incomeTract":null,"incomeBlockGroup":null,"nearestRoad":null,"flu":null,"opportunityZone":null,"oz2Eligibility":null,"source":"nc-onemap-37191"},"geometry":{"type":"Polygon","coordinates":[[[-78.27265,35.25797],[-78.27423,35.25937],[-78.27424,35.25954],[-78.27274,35.25978],[-78.27267,35.25838],[-78.27265,35.25797]]]}},{"type":"Feature","id":"37191:2515258579","properties":{"id":"37191:2515258579","parcelId":"2515258579","countyFips":"37191","countyName":"Wayne","state":"North Carolina","marketIds":["Raleigh-Durham"],"situsAddress":"6301 S US 13 HWY","situsCity":null,"situsZip":null,"jurisdictionCode":null,"ownerName":"NC HALAL MEAT CO LLC","ownerName2":null,"propertyName":null,"zoningCode":null,"zoningDistrict":null,"jurisdictionPrefix":null,"dorCode":null,"acreage":8.0119,"centroid":[-78.286748,35.274495],"lastSale":{"date":null,"price":null,"qualified":null},"tax":{"marketValue":78490.0,"assessedValue":42980.0,"taxableValue":null,"taxes":null},"mailingAddress":{"line1":null,"line2":null,"city":null,"state":null,"zip":null},"incomeTract":null,"incomeBlockGroup":null,"nearestRoad":null,"flu":null,"opportunityZone":null,"oz2Eligibility":null,"source":"nc-onemap-37191"},"geometry":{"type":"Polygon","coordinates":[[[-78.28588,35.2744],[-78.28747,35.27377],[-78.28766,35.27482],[-78.28598,35.27499],[-78.28588,35.2744]]]}},{"type":"Feature","id":"37191:2514861720","properties":{"id":"37191:2514861720","parcelId":"2514861720","countyFips":"37191","countyName":"Wayne","state":"North Carolina","marketIds":["Raleigh-Durham"],"situsAddress":"900 EDWARDS STORE RD","situsCity":null,"situsZip":null,"jurisdictionCode":null,"ownerName":"CHERRY MICHAEL SHAUN","ownerName2":null,"propertyName":null,"zoningCode":null,"zoningDistrict":null,"jurisdictionPrefix":null,"dorCode":null,"acreage":7.9431,"centroid":[-78.269308,35.250017],"lastSale":{"date":null,"price":null,"qualified":null},"tax":{"marketValue":138190.0,"assessedValue":52650.0,"taxableValue":null,"taxes":null},"mailingAddress":{"line1":null,"line2":null,"city":null,"state":null,"zip":null},"incomeTract":null,"incomeBlockGroup":null,"nearestRoad":null,"flu":null,"opportunityZone":null,"oz2Eligibility":null,"source":"nc-onemap-37191"},"geometry":{"type":"Polygon","coordinates":[[[-78.26861,35.25038],[-78.26854,35.24971],[-78.27018,35.24937],[-78.27028,35.24944],[-78.26943,35.25074],[-78.26881,35.25046],[-78.26861,35.25038]]]}},{"type":"Feature","id":"37191:2517108030","properties":{"id":"37191:2517108030","parcelId":"2517108030","countyFips":"37191","countyName":"Wayne","state":"North Carolina","marketIds":["Raleigh-Durham"],"situsAddress":"WESTBROOK DAIRY RD","situsCity":null,"situsZip":null,"jurisdictionCode":null,"ownerName":"COLE WADE JUNIOR","ownerName2":null,"propertyName":null,"zoningCode":null,"zoningDistrict":null,"jurisdictionPrefix":null,"dorCode":null,"acreage":7.8053,"centroid":[-78.289852,35.314242],"lastSale":{"date":null,"price":null,"qualified":null},"tax":{"marketValue":15020.0,"assessedValue":15020.0,"taxableValue":null,"taxes":null},"mailingAddress":{"line1":null,"line2":null,"city":null,"state":null,"zip":null},"incomeTract":null,"incomeBlockGroup":null,"nearestRoad":null,"flu":null,"opportunityZone":null,"oz2Eligibility":null,"source":"nc-onemap-37191"},"geometry":{"type":"Polygon","coordinates":[[[-78.28956,35.3134],[-78.29078,35.31341],[-78.28971,35.31508],[-78.28936,35.31508],[-78.28956,35.3134]]]}},{"type":"Feature","id":"37191:2515817949","properties":{"id":"37191:2515817949","parcelId":"2515817949","countyFips":"37191","countyName":"Wayne","state":"North Carolina","marketIds":["Raleigh-Durham"],"situsAddress":"RAYNOR MILL RD","situsCity":null,"situsZip":null,"jurisdictionCode":null,"ownerName":"KEENE HOG FARMS LLC","ownerName2":null,"propertyName":null,"zoningCode":null,"zoningDistrict":null,"jurisdictionPrefix":null,"dorCode":null,"acreage":7.7365,"centroid":[-78.267275,35.2644],"lastSale":{"date":null,"price":null,"qualified":null},"tax":{"marketValue":4550.0,"assessedValue":42870.0,"taxableValue":null,"taxes":null},"mailingAddress":{"line1":null,"line2":null,"city":null,"state":null,"zip":null},"incomeTract":null,"incomeBlockGroup":null,"nearestRoad":null,"flu":null,"opportunityZone":null,"oz2Eligibility":null,"source":"nc-onemap-37191"},"geometry":{"type":"Polygon","coordinates":[[[-78.2663,35.26436],[-78.26821,35.2638],[-78.26832,35.26421],[-78.26627,35.26523],[-78.2663,35.26436]]]}},{"type":"Feature","id":"37191:2515658345","properties":{"id":"37191:2515658345","parcelId":"2515658345","countyFips":"37191","countyName":"Wayne","state":"North Carolina","marketIds":["Raleigh-Durham"],"situsAddress":"EDWARDS STORE RD","situsCity":null,"situsZip":null,"jurisdictionCode":null,"ownerName":"ALEXANDER DAVID W","ownerName2":null,"propertyName":null,"zoningCode":null,"zoningDistrict":null,"jurisdictionPrefix":null,"dorCode":null,"acreage":7.6905,"centroid":[-78.273407,35.274318],"lastSale":{"date":null,"price":null,"qualified":null},"tax":{"marketValue":5070.0,"assessedValue":5070.0,"taxableValue":null,"taxes":null},"mailingAddress":{"line1":null,"line2":null,"city":null,"state":null,"zip":null},"incomeTract":null,"incomeBlockGroup":null,"nearestRoad":null,"flu":null,"opportunityZone":null,"oz2Eligibility":null,"source":"nc-onemap-37191"},"geometry":{"type":"Polygon","coordinates":[[[-78.27307,35.27319],[-78.27378,35.2732],[-78.27381,35.27452],[-78.27374,35.27482],[-78.27302,35.27517],[-78.27302,35.27501],[-78.27307,35.27319]]]}},{"type":"Feature","id":"37191:2515065224","properties":{"id":"37191:2515065224","parcelId":"2515065224","countyFips":"37191","countyName":"Wayne","state":"North Carolina","marketIds":["Raleigh-Durham"],"situsAddress":"CHARLES MASSEY RD","situsCity":null,"situsZip":null,"jurisdictionCode":null,"ownerName":"FRITZ ANNIE RUTH","ownerName2":null,"propertyName":null,"zoningCode":null,"zoningDistrict":null,"jurisdictionPrefix":null,"dorCode":null,"acreage":7.5987,"centroid":[-78.294659,35.276522],"lastSale":{"date":null,"price":null,"qualified":null},"tax":{"marketValue":4040.0,"assessedValue":38990.0,"taxableValue":null,"taxes":null},"mailingAddress":{"line1":null,"line2":null,"city":null,"state":null,"zip":null},"incomeTract":null,"incomeBlockGroup":null,"nearestRoad":null,"flu":null,"opportunityZone":null,"oz2Eligibility":null,"source":"nc-onemap-37191"},"geometry":{"type":"Polygon","coordinates":[[[-78.29349,35.27675],[-78.29343,35.27646],[-78.29432,35.27648],[-78.29418,35.27589],[-78.29502,35.27591],[-78.29582,35.27673],[-78.29556,35.27677],[-78.29558,35.27697],[-78.29453,35.27674],[-78.29349,35.27675]]]}},{"type":"Feature","id":"37191:2515875902","properties":{"id":"37191:2515875902","parcelId":"2515875902","countyFips":"37191","countyName":"Wayne","state":"North Carolina","marketIds":["Raleigh-Durham"],"situsAddress":"S US 13 HWY","situsCity":null,"situsZip":null,"jurisdictionCode":null,"ownerName":"BRYAN STEPHEN EARL","ownerName2":null,"propertyName":null,"zoningCode":null,"zoningDistrict":null,"jurisdictionPrefix":null,"dorCode":null,"acreage":7.461,"centroid":[-78.267681,35.280643],"lastSale":{"date":null,"price":null,"qualified":null},"tax":{"marketValue":2330.0,"assessedValue":33970.0,"taxableValue":null,"taxes":null},"mailingAddress":{"line1":null,"line2":null,"city":null,"state":null,"zip":null},"incomeTract":null,"incomeBlockGroup":null,"nearestRoad":null,"flu":null,"opportunityZone":null,"oz2Eligibility":null,"source":"nc-onemap-37191"},"geometry":{"type":"Polygon","coordinates":[[[-78.26691,35.2804],[-78.26758,35.28013],[-78.2679,35.28064],[-78.26841,35.28044],[-78.26867,35.28096],[-78.26743,35.28151],[-78.26687,35.28042],[-78.26691,35.2804]]]}},{"type":"Feature","id":"37191:2526216071","properties":{"id":"37191:2526216071","parcelId":"2526216071","countyFips":"37191","countyName":"Wayne","state":"North Carolina","marketIds":["Raleigh-Durham"],"situsAddress":"S US 13 HWY","situsCity":null,"situsZip":null,"jurisdictionCode":null,"ownerName":"BRYAN STEPHEN EARL","ownerName2":null,"propertyName":null,"zoningCode":null,"zoningDistrict":null,"jurisdictionPrefix":null,"dorCode":null,"acreage":7.438,"centroid":[-78.253294,35.289176],"lastSale":{"date":null,"price":null,"qualified":null},"tax":{"marketValue":820.0,"assessedValue":5520.0,"taxableValue":null,"taxes":null},"mailingAddress":{"line1":null,"line2":null,"city":null,"state":null,"zip":null},"incomeTract":null,"incomeBlockGroup":null,"nearestRoad":null,"flu":null,"opportunityZone":null,"oz2Eligibility":null,"source":"nc-onemap-37191"},"geometry":{"type":"Polygon","coordinates":[[[-78.25137,35.28903],[-78.25627,35.28912],[-78.25618,35.28939],[-78.25128,35.2893],[-78.25137,35.28904],[-78.25137,35.28903]]]}},{"type":"Feature","id":"37191:2516833945","properties":{"id":"37191:2516833945","parcelId":"2516833945","countyFips":"37191","countyName":"Wayne","state":"North Carolina","marketIds":["Raleigh-Durham"],"situsAddress":"SELAH CHURCH RD","situsCity":null,"situsZip":null,"jurisdictionCode":null,"ownerName":"EDWARDS KATIE E","ownerName2":null,"propertyName":null,"zoningCode":null,"zoningDistrict":null,"jurisdictionPrefix":null,"dorCode":null,"acreage":7.3462,"centroid":[-78.268178,35.297378],"lastSale":{"date":null,"price":null,"qualified":null},"tax":{"marketValue":5950.0,"assessedValue":5950.0,"taxableValue":null,"taxes":null},"mailingAddress":{"line1":null,"line2":null,"city":null,"state":null,"zip":null},"incomeTract":null,"incomeBlockGroup":null,"nearestRoad":null,"flu":null,"opportunityZone":null,"oz2Eligibility":null,"source":"nc-onemap-37191"},"geometry":{"type":"Polygon","coordinates":[[[-78.26783,35.29742],[-78.26842,35.29717],[-78.26853,35.29733],[-78.26793,35.29759],[-78.26783,35.29742]]]}},{"type":"Feature","id":"37191:2516783798","properties":{"id":"37191:2516783798","parcelId":"2516783798","countyFips":"37191","countyName":"Wayne","state":"North Carolina","marketIds":["Raleigh-Durham"],"situsAddress":"N JORDANS CHAPEL RD","situsCity":null,"situsZip":null,"jurisdictionCode":null,"ownerName":"WEAVER DWAYNE ALLAN","ownerName2":null,"propertyName":null,"zoningCode":null,"zoningDistrict":null,"jurisdictionPrefix":null,"dorCode":null,"acreage":7.3232,"centroid":[-78.272828,35.310043],"lastSale":{"date":null,"price":null,"qualified":null},"tax":{"marketValue":16650.0,"assessedValue":124160.0,"taxableValue":null,"taxes":null},"mailingAddress":{"line1":null,"line2":null,"city":null,"state":null,"zip":null},"incomeTract":null,"incomeBlockGroup":null,"nearestRoad":null,"flu":null,"opportunityZone":null,"oz2Eligibility":null,"source":"nc-onemap-37191"},"geometry":{"type":"Polygon","coordinates":[[[-78.27188,35.30947],[-78.27351,35.3095],[-78.27341,35.31107],[-78.27251,35.31013],[-78.27188,35.30947]]]}},{"type":"Feature","id":"37191:2526096354","properties":{"id":"37191:2526096354","parcelId":"2526096354","countyFips":"37191","countyName":"Wayne","state":"North Carolina","marketIds":["Raleigh-Durham"],"situsAddress":"106 VADEN BEST RD","situsCity":null,"situsZip":null,"jurisdictionCode":null,"ownerName":"VINSON CHRISTY LYNN TUCKER ETAL","ownerName2":null,"propertyName":null,"zoningCode":null,"zoningDistrict":null,"jurisdictionPrefix":null,"dorCode":null,"acreage":7.2544,"centroid":[-78.258462,35.31114],"lastSale":{"date":null,"price":null,"qualified":null},"tax":{"marketValue":101410.0,"assessedValue":246740.0,"taxableValue":null,"taxes":null},"mailingAddress":{"line1":null,"line2":null,"city":null,"state":null,"zip":null},"incomeTract":null,"incomeBlockGroup":null,"nearestRoad":null,"flu":null,"opportunityZone":null,"oz2Eligibility":null,"source":"nc-onemap-37191"},"geometry":{"type":"Polygon","coordinates":[[[-78.25707,35.31226],[-78.2589,35.31031],[-78.25905,35.31047],[-78.26018,35.31038],[-78.25711,35.31228],[-78.25707,35.31226]]]}},{"type":"Feature","id":"37191:2515740894","properties":{"id":"37191:2515740894","parcelId":"2515740894","countyFips":"37191","countyName":"Wayne","state":"North Carolina","marketIds":["Raleigh-Durham"],"situsAddress":"252 EDWARDS STORE RD","situsCity":null,"situsZip":null,"jurisdictionCode":null,"ownerName":"BOBBY DENNING PROPERTIES LLC","ownerName2":null,"propertyName":null,"zoningCode":null,"zoningDistrict":null,"jurisdictionPrefix":null,"dorCode":null,"acreage":7.2314,"centroid":[-78.272582,35.272582],"lastSale":{"date":null,"price":null,"qualified":null},"tax":{"marketValue":39830.0,"assessedValue":37830.0,"taxableValue":null,"taxes":null},"mailingAddress":{"line1":null,"line2":null,"city":null,"state":null,"zip":null},"incomeTract":null,"incomeBlockGroup":null,"nearestRoad":null,"flu":null,"opportunityZone":null,"oz2Eligibility":null,"source":"nc-onemap-37191"},"geometry":{"type":"Polygon","coordinates":[[[-78.27218,35.27316],[-78.27229,35.27171],[-78.27311,35.27169],[-78.27307,35.27319],[-78.27226,35.27316],[-78.27218,35.27316]]]}},{"type":"Feature","id":"37191:2516845776","properties":{"id":"37191:2516845776","parcelId":"2516845776","countyFips":"37191","countyName":"Wayne","state":"North Carolina","marketIds":["Raleigh-Durham"],"situsAddress":"587 N JORDANS CHAPEL RD","situsCity":null,"situsZip":null,"jurisdictionCode":null,"ownerName":"LEWIS DANIEL DARWIN","ownerName2":null,"propertyName":null,"zoningCode":null,"zoningDistrict":null,"jurisdictionPrefix":null,"dorCode":null,"acreage":7.1396,"centroid":[-78.26735,35.299799],"lastSale":{"date":null,"price":null,"qualified":null},"tax":{"marketValue":329760.0,"assessedValue":37870.0,"taxableValue":null,"taxes":null},"mailingAddress":{"line1":null,"line2":null,"city":null,"state":null,"zip":null},"incomeTract":null,"incomeBlockGroup":null,"nearestRoad":null,"flu":null,"opportunityZone":null,"oz2Eligibility":null,"source":"nc-onemap-37191"},"geometry":{"type":"Polygon","coordinates":[[[-78.26699,35.30012],[-78.26684,35.30015],[-78.26691,35.29899],[-78.26805,35.29906],[-78.26798,35.29998],[-78.26754,35.3002],[-78.26714,35.30009],[-78.26699,35.30012]]]}},{"type":"Feature","id":"37191:2525200857","properties":{"id":"37191:2525200857","parcelId":"2525200857","countyFips":"37191","countyName":"Wayne","state":"North Carolina","marketIds":["Raleigh-Durham"],"situsAddress":"740 S JORDANS CHAPEL RD","situsCity":null,"situsZip":null,"jurisdictionCode":null,"ownerName":"BAREFOOT NANCY LEE","ownerName2":null,"propertyName":null,"zoningCode":null,"zoningDistrict":null,"jurisdictionPrefix":null,"dorCode":null,"acreage":7.1166,"centroid":[-78.25608,35.261352],"lastSale":{"date":null,"price":null,"qualified":null},"tax":{"marketValue":85990.0,"assessedValue":17500.0,"taxableValue":null,"taxes":null},"mailingAddress":{"line1":null,"line2":null,"city":null,"state":null,"zip":null},"incomeTract":null,"incomeBlockGroup":null,"nearestRoad":null,"flu":null,"opportunityZone":null,"oz2Eligibility":null,"source":"nc-onemap-37191"},"geometry":{"type":"Polygon","coordinates":[[[-78.25589,35.2612],[-78.2561,35.26109],[-78.25636,35.26147],[-78.25608,35.2616],[-78.25597,35.2614],[-78.25589,35.2612]]]}},{"type":"Feature","id":"37191:2515986581","properties":{"id":"37191:2515986581","parcelId":"2515986581","countyFips":"37191","countyName":"Wayne","state":"North Carolina","marketIds":["Raleigh-Durham"],"situsAddress":"5734 S US 13 HWY","situsCity":null,"situsZip":null,"jurisdictionCode":null,"ownerName":"BRYAN STEPHEN E","ownerName2":null,"propertyName":null,"zoningCode":null,"zoningDistrict":null,"jurisdictionPrefix":null,"dorCode":null,"acreage":7.0478,"centroid":[-78.263583,35.282547],"lastSale":{"date":null,"price":null,"qualified":null},"tax":{"marketValue":237040.0,"assessedValue":40660.0,"taxableValue":null,"taxes":null},"mailingAddress":{"line1":null,"line2":null,"city":null,"state":null,"zip":null},"incomeTract":null,"incomeBlockGroup":null,"nearestRoad":null,"flu":null,"opportunityZone":null,"oz2Eligibility":null,"source":"nc-onemap-37191"},"geometry":{"type":"Polygon","coordinates":[[[-78.26312,35.2819],[-78.26393,35.28158],[-78.2643,35.2826],[-78.26362,35.28285],[-78.26374,35.28318],[-78.263,35.28347],[-78.26337,35.28225],[-78.26312,35.2819]]]}},{"type":"Feature","id":"37191:2514971141","properties":{"id":"37191:2514971141","parcelId":"2514971141","countyFips":"37191","countyName":"Wayne","state":"North Carolina","marketIds":["Raleigh-Durham"],"situsAddress":"EDWARDS STORE RD","situsCity":null,"situsZip":null,"jurisdictionCode":null,"ownerName":"FUTRELL ANGELA KAYE","ownerName2":null,"propertyName":null,"zoningCode":null,"zoningDistrict":null,"jurisdictionPrefix":null,"dorCode":null,"acreage":6.8641,"centroid":[-78.266325,35.250813],"lastSale":{"date":null,"price":null,"qualified":null},"tax":{"marketValue":16300.0,"assessedValue":16300.0,"taxableValue":null,"taxes":null},"mailingAddress":{"line1":null,"line2":null,"city":null,"state":null,"zip":null},"incomeTract":null,"incomeBlockGroup":null,"nearestRoad":null,"flu":null,"opportunityZone":null,"oz2Eligibility":null,"source":"nc-onemap-37191"},"geometry":{"type":"Polygon","coordinates":[[[-78.26413,35.25158],[-78.26711,35.25031],[-78.26744,35.25048],[-78.26762,35.25004],[-78.26746,35.25054],[-78.26419,35.25193],[-78.26413,35.25158]]]}},{"type":"Feature","id":"37191:2516425112","properties":{"id":"37191:2516425112","parcelId":"2516425112","countyFips":"37191","countyName":"Wayne","state":"North Carolina","marketIds":["Raleigh-Durham"],"situsAddress":"WESTBROOK DAIRY RD","situsCity":null,"situsZip":null,"jurisdictionCode":null,"ownerName":"SANDERSON JOSEPH K","ownerName2":null,"propertyName":null,"zoningCode":null,"zoningDistrict":null,"jurisdictionPrefix":null,"dorCode":null,"acreage":6.8182,"centroid":[-78.2812,35.29235],"lastSale":{"date":null,"price":null,"qualified":null},"tax":{"marketValue":3280.0,"assessedValue":32650.0,"taxableValue":null,"taxes":null},"mailingAddress":{"line1":null,"line2":null,"city":null,"state":null,"zip":null},"incomeTract":null,"incomeBlockGroup":null,"nearestRoad":null,"flu":null,"opportunityZone":null,"oz2Eligibility":null,"source":"nc-onemap-37191"},"geometry":{"type":"Polygon","coordinates":[[[-78.28071,35.29312],[-78.28079,35.29138],[-78.28133,35.29186],[-78.28157,35.29226],[-78.2816,35.29313],[-78.28071,35.29312]]]}},{"type":"Feature","id":"37191:2524294230","properties":{"id":"37191:2524294230","parcelId":"2524294230","countyFips":"37191","countyName":"Wayne","state":"North Carolina","marketIds":["Raleigh-Durham"],"situsAddress":"S JORDANS CHAPEL RD","situsCity":null,"situsZip":null,"jurisdictionCode":null,"ownerName":"THOMPSON BRAD","ownerName2":null,"propertyName":null,"zoningCode":null,"zoningDistrict":null,"jurisdictionPrefix":null,"dorCode":null,"acreage":6.7493,"centroid":[-78.254939,35.257667],"lastSale":{"date":null,"price":null,"qualified":null},"tax":{"marketValue":48350.0,"assessedValue":43620.0,"taxableValue":null,"taxes":null},"mailingAddress":{"line1":null,"line2":null,"city":null,"state":null,"zip":null},"incomeTract":null,"incomeBlockGroup":null,"nearestRoad":null,"flu":null,"opportunityZone":null,"oz2Eligibility":null,"source":"nc-onemap-37191"},"geometry":{"type":"Polygon","coordinates":[[[-78.25492,35.2591],[-78.25416,35.25663],[-78.25564,35.25651],[-78.25542,35.25705],[-78.25472,35.25691],[-78.25453,35.25738],[-78.25522,35.25752],[-78.25486,35.25859],[-78.25498,35.25931],[-78.25492,35.2591]]]}},{"type":"Feature","id":"37191:2515899610","properties":{"id":"37191:2515899610","parcelId":"2515899610","countyFips":"37191","countyName":"Wayne","state":"North Carolina","marketIds":["Raleigh-Durham"],"situsAddress":"208 RACHEL JACKSON RD","situsCity":null,"situsZip":null,"jurisdictionCode":null,"ownerName":"TRUCKENBROD RONALD PAUL","ownerName2":null,"propertyName":null,"zoningCode":null,"zoningDistrict":null,"jurisdictionPrefix":null,"dorCode":null,"acreage":6.6575,"centroid":[-78.266032,35.285538],"lastSale":{"date":null,"price":null,"qualified":null},"tax":{"marketValue":223920.0,"assessedValue":47950.0,"taxableValue":null,"taxes":null},"mailingAddress":{"line1":null,"line2":null,"city":null,"state":null,"zip":null},"incomeTract":null,"incomeBlockGroup":null,"nearestRoad":null,"flu":null,"opportunityZone":null,"oz2Eligibility":null,"source":"nc-onemap-37191"},"geometry":{"type":"Polygon","coordinates":[[[-78.26536,35.2858],[-78.2658,35.28494],[-78.26701,35.28509],[-78.26655,35.28604],[-78.26544,35.28582],[-78.26536,35.2858]]]}},{"type":"Feature","id":"37191:2516168909","properties":{"id":"37191:2516168909","parcelId":"2516168909","countyFips":"37191","countyName":"Wayne","state":"North Carolina","marketIds":["Raleigh-Durham"],"situsAddress":"WESTBROOK DAIRY RD","situsCity":null,"situsZip":null,"jurisdictionCode":null,"ownerName":"SUTTON KAREN T","ownerName2":null,"propertyName":null,"zoningCode":null,"zoningDistrict":null,"jurisdictionPrefix":null,"dorCode":null,"acreage":6.6575,"centroid":[-78.283063,35.30587],"lastSale":{"date":null,"price":null,"qualified":null},"tax":{"marketValue":87410.0,"assessedValue":489220.0,"taxableValue":null,"taxes":null},"mailingAddress":{"line1":null,"line2":null,"city":null,"state":null,"zip":null},"incomeTract":null,"incomeBlockGroup":null,"nearestRoad":null,"flu":null,"opportunityZone":null,"oz2Eligibility":null,"source":"nc-onemap-37191"},"geometry":{"type":"Polygon","coordinates":[[[-78.28294,35.30552],[-78.28316,35.30551],[-78.28309,35.30658],[-78.28294,35.30552]]]}},{"type":"Feature","id":"37191:2514962777","properties":{"id":"37191:2514962777","parcelId":"2514962777","countyFips":"37191","countyName":"Wayne","state":"North Carolina","marketIds":["Raleigh-Durham"],"situsAddress":"EDWARDS STORE RD","situsCity":null,"situsZip":null,"jurisdictionCode":null,"ownerName":"RAYNOR TONY WAYNE","ownerName2":null,"propertyName":null,"zoningCode":null,"zoningDistrict":null,"jurisdictionPrefix":null,"dorCode":null,"acreage":6.5657,"centroid":[-78.265602,35.250015],"lastSale":{"date":null,"price":null,"qualified":null},"tax":{"marketValue":22310.0,"assessedValue":22310.0,"taxableValue":null,"taxes":null},"mailingAddress":{"line1":null,"line2":null,"city":null,"state":null,"zip":null},"incomeTract":null,"incomeBlockGroup":null,"nearestRoad":null,"flu":null,"opportunityZone":null,"oz2Eligibility":null,"source":"nc-onemap-37191"},"geometry":{"type":"Polygon","coordinates":[[[-78.26395,35.25045],[-78.26719,35.24925],[-78.26727,35.24957],[-78.264,35.25079],[-78.26395,35.25045]]]}},{"type":"Feature","id":"37191:2524184385","properties":{"id":"37191:2524184385","parcelId":"2524184385","countyFips":"37191","countyName":"Wayne","state":"North Carolina","marketIds":["Raleigh-Durham"],"situsAddress":"S JORDANS CHAPEL RD","situsCity":null,"situsZip":null,"jurisdictionCode":null,"ownerName":"TART IVOR JOYCE","ownerName2":null,"propertyName":null,"zoningCode":null,"zoningDistrict":null,"jurisdictionPrefix":null,"dorCode":null,"acreage":6.4738,"centroid":[-78.255853,35.254548],"lastSale":{"date":null,"price":null,"qualified":null},"tax":{"marketValue":66690.0,"assessedValue":72760.0,"taxableValue":null,"taxes":null},"mailingAddress":{"line1":null,"line2":null,"city":null,"state":null,"zip":null},"incomeTract":null,"incomeBlockGroup":null,"nearestRoad":null,"flu":null,"opportunityZone":null,"oz2Eligibility":null,"source":"nc-onemap-37191"},"geometry":{"type":"Polygon","coordinates":[[[-78.25624,35.25409],[-78.25667,35.254],[-78.25625,35.25502],[-78.25425,35.25508],[-78.25624,35.25409]]]}},{"type":"Feature","id":"37191:2516630178","properties":{"id":"37191:2516630178","parcelId":"2516630178","countyFips":"37191","countyName":"Wayne","state":"North Carolina","marketIds":["Raleigh-Durham"],"situsAddress":"2810 SELAH CHURCH RD","situsCity":null,"situsZip":null,"jurisdictionCode":null,"ownerName":"HILL JONATHAN R","ownerName2":null,"propertyName":null,"zoningCode":null,"zoningDistrict":null,"jurisdictionPrefix":null,"dorCode":null,"acreage":6.4279,"centroid":[-78.275858,35.295415],"lastSale":{"date":null,"price":null,"qualified":null},"tax":{"marketValue":148750.0,"assessedValue":37150.0,"taxableValue":null,"taxes":null},"mailingAddress":{"line1":null,"line2":null,"city":null,"state":null,"zip":null},"incomeTract":null,"incomeBlockGroup":null,"nearestRoad":null,"flu":null,"opportunityZone":null,"oz2Eligibility":null,"source":"nc-onemap-37191"},"geometry":{"type":"Polygon","coordinates":[[[-78.27486,35.29525],[-78.27631,35.29456],[-78.27632,35.29592],[-78.27594,35.29593],[-78.27486,35.29525]]]}},{"type":"Feature","id":"37191:2516359504","properties":{"id":"37191:2516359504","parcelId":"2516359504","countyFips":"37191","countyName":"Wayne","state":"North Carolina","marketIds":["Raleigh-Durham"],"situsAddress":"840 WESTBROOK DAIRY RD","situsCity":null,"situsZip":null,"jurisdictionCode":null,"ownerName":"EDWARDS ROLAND K","ownerName2":null,"propertyName":null,"zoningCode":null,"zoningDistrict":null,"jurisdictionPrefix":null,"dorCode":null,"acreage":6.2902,"centroid":[-78.28297,35.30189],"lastSale":{"date":null,"price":null,"qualified":null},"tax":{"marketValue":159190.0,"assessedValue":35590.0,"taxableValue":null,"taxes":null},"mailingAddress":{"line1":null,"line2":null,"city":null,"state":null,"zip":null},"incomeTract":null,"incomeBlockGroup":null,"nearestRoad":null,"flu":null,"opportunityZone":null,"oz2Eligibility":null,"source":"nc-onemap-37191"},"geometry":{"type":"Polygon","coordinates":[[[-78.28253,35.30198],[-78.28264,35.3012],[-78.28339,35.30126],[-78.28332,35.30312],[-78.28253,35.30198]]]}},{"type":"Feature","id":"37191:2516429512","properties":{"id":"37191:2516429512","parcelId":"2516429512","countyFips":"37191","countyName":"Wayne","state":"North Carolina","marketIds":["Raleigh-Durham"],"situsAddress":"SELAH CHURCH RD","situsCity":null,"situsZip":null,"jurisdictionCode":null,"ownerName":"SANDERSON MATTHEW H","ownerName2":null,"propertyName":null,"zoningCode":null,"zoningDistrict":null,"jurisdictionPrefix":null,"dorCode":null,"acreage":6.2672,"centroid":[-78.279713,35.293829],"lastSale":{"date":null,"price":null,"qualified":null},"tax":{"marketValue":15690.0,"assessedValue":20110.0,"taxableValue":null,"taxes":null},"mailingAddress":{"line1":null,"line2":null,"city":null,"state":null,"zip":null},"incomeTract":null,"incomeBlockGroup":null,"nearestRoad":null,"flu":null,"opportunityZone":null,"oz2Eligibility":null,"source":"nc-onemap-37191"},"geometry":{"type":"Polygon","coordinates":[[[-78.27914,35.29413],[-78.27874,35.29333],[-78.28074,35.29329],[-78.28073,35.29371],[-78.27982,35.29351],[-78.27953,35.29437],[-78.27929,35.29446],[-78.27914,35.29413]]]}},{"type":"Feature","id":"37191:2515065583","properties":{"id":"37191:2515065583","parcelId":"2515065583","countyFips":"37191","countyName":"Wayne","state":"North Carolina","marketIds":["Raleigh-Durham"],"situsAddress":"662 CHARLES MASSEY RD","situsCity":null,"situsZip":null,"jurisdictionCode":null,"ownerName":"FLOWERS WILLIAM E","ownerName2":null,"propertyName":null,"zoningCode":null,"zoningDistrict":null,"jurisdictionPrefix":null,"dorCode":null,"acreage":6.2443,"centroid":[-78.29434,35.277135],"lastSale":{"date":null,"price":null,"qualified":null},"tax":{"marketValue":207810.0,"assessedValue":45930.0,"taxableValue":null,"taxes":null},"mailingAddress":{"line1":null,"line2":null,"city":null,"state":null,"zip":null},"incomeTract":null,"incomeBlockGroup":null,"nearestRoad":null,"flu":null,"opportunityZone":null,"oz2Eligibility":null,"source":"nc-onemap-37191"},"geometry":{"type":"Polygon","coordinates":[[[-78.29351,35.27683],[-78.29451,35.27683],[-78.29539,35.27703],[-78.29546,35.27741],[-78.2936,35.27753],[-78.29357,35.27718],[-78.29351,35.27683]]]}},{"type":"Feature","id":"37191:2516431675","properties":{"id":"37191:2516431675","parcelId":"2516431675","countyFips":"37191","countyName":"Wayne","state":"North Carolina","marketIds":["Raleigh-Durham"],"situsAddress":"WESTBROOK DAIRY RD","situsCity":null,"situsZip":null,"jurisdictionCode":null,"ownerName":"SANDERSON MATTHEW H","ownerName2":null,"propertyName":null,"zoningCode":null,"zoningDistrict":null,"jurisdictionPrefix":null,"dorCode":null,"acreage":6.0836,"centroid":[-78.282282,35.296656],"lastSale":{"date":null,"price":null,"qualified":null},"tax":{"marketValue":2490.0,"assessedValue":26400.0,"taxableValue":null,"taxes":null},"mailingAddress":{"line1":null,"line2":null,"city":null,"state":null,"zip":null},"incomeTract":null,"incomeBlockGroup":null,"nearestRoad":null,"flu":null,"opportunityZone":null,"oz2Eligibility":null,"source":"nc-onemap-37191"},"geometry":{"type":"Polygon","coordinates":[[[-78.28144,35.29682],[-78.28141,35.29626],[-78.28283,35.29624],[-78.28317,35.29698],[-78.28256,35.29698],[-78.28144,35.29682]]]}},{"type":"Feature","id":"37191:2515161502","properties":{"id":"37191:2515161502","parcelId":"2515161502","countyFips":"37191","countyName":"Wayne","state":"North Carolina","marketIds":["Raleigh-Durham"],"situsAddress":"CHARLES MASSEY RD","situsCity":null,"situsZip":null,"jurisdictionCode":null,"ownerName":"JAMES AND SYLVIA MASSEY TRUST","ownerName2":null,"propertyName":null,"zoningCode":null,"zoningDistrict":null,"jurisdictionPrefix":null,"dorCode":null,"acreage":5.9688,"centroid":[-78.292361,35.277074],"lastSale":{"date":null,"price":null,"qualified":null},"tax":{"marketValue":75120.0,"assessedValue":28070.0,"taxableValue":null,"taxes":null},"mailingAddress":{"line1":null,"line2":null,"city":null,"state":null,"zip":null},"incomeTract":null,"incomeBlockGroup":null,"nearestRoad":null,"flu":null,"opportunityZone":null,"oz2Eligibility":null,"source":"nc-onemap-37191"},"geometry":{"type":"Polygon","coordinates":[[[-78.29168,35.27721],[-78.29188,35.27716],[-78.29222,35.27678],[-78.29292,35.27661],[-78.29328,35.27672],[-78.29339,35.2774],[-78.29183,35.27747],[-78.29169,35.27724],[-78.29168,35.27721]]]}},{"type":"Feature","id":"37191:2515976858","properties":{"id":"37191:2515976858","parcelId":"2515976858","countyFips":"37191","countyName":"Wayne","state":"North Carolina","marketIds":["Raleigh-Durham"],"situsAddress":"5747 S US 13 HWY","situsCity":null,"situsZip":null,"jurisdictionCode":null,"ownerName":"DARDEN JEREMY BRYAN","ownerName2":null,"propertyName":null,"zoningCode":null,"zoningDistrict":null,"jurisdictionPrefix":null,"dorCode":null,"acreage":5.9688,"centroid":[-78.26386,35.280662],"lastSale":{"date":null,"price":null,"qualified":null},"tax":{"marketValue":202730.0,"assessedValue":41190.0,"taxableValue":null,"taxes":null},"mailingAddress":{"line1":null,"line2":null,"city":null,"state":null,"zip":null},"incomeTract":null,"incomeBlockGroup":null,"nearestRoad":null,"flu":null,"opportunityZone":null,"oz2Eligibility":null,"source":"nc-onemap-37191"},"geometry":{"type":"Polygon","coordinates":[[[-78.26343,35.28081],[-78.26369,35.28065],[-78.26339,35.2802],[-78.264,35.27982],[-78.26464,35.28112],[-78.26401,35.28137],[-78.26343,35.28081]]]}},{"type":"Feature","id":"37191:2516960284","properties":{"id":"37191:2516960284","parcelId":"2516960284","countyFips":"37191","countyName":"Wayne","state":"North Carolina","marketIds":["Raleigh-Durham"],"situsAddress":"N JORDANS CHAPEL RD","situsCity":null,"situsZip":null,"jurisdictionCode":null,"ownerName":"PORTER CARROLL W & W","ownerName2":null,"propertyName":null,"zoningCode":null,"zoningDistrict":null,"jurisdictionPrefix":null,"dorCode":null,"acreage":5.831,"centroid":[-78.265398,35.303742],"lastSale":{"date":null,"price":null,"qualified":null},"tax":{"marketValue":37100.0,"assessedValue":37100.0,"taxableValue":null,"taxes":null},"mailingAddress":{"line1":null,"line2":null,"city":null,"state":null,"zip":null},"incomeTract":null,"incomeBlockGroup":null,"nearestRoad":null,"flu":null,"opportunityZone":null,"oz2Eligibility":null,"source":"nc-onemap-37191"},"geometry":{"type":"Polygon","coordinates":[[[-78.2646,35.30408],[-78.26462,35.3036],[-78.26656,35.30321],[-78.26661,35.30372],[-78.2646,35.3041],[-78.2646,35.30408]]]}},{"type":"Feature","id":"37191:2517907094","properties":{"id":"37191:2517907094","parcelId":"2517907094","countyFips":"37191","countyName":"Wayne","state":"North Carolina","marketIds":["Raleigh-Durham"],"situsAddress":"S BENTONVILLE RD","situsCity":null,"situsZip":null,"jurisdictionCode":null,"ownerName":"HOBBS BRANDON BOYD","ownerName2":null,"propertyName":null,"zoningCode":null,"zoningDistrict":null,"jurisdictionPrefix":null,"dorCode":null,"acreage":5.7622,"centroid":[-78.262756,35.313958],"lastSale":{"date":null,"price":null,"qualified":null},"tax":{"marketValue":15570.0,"assessedValue":15570.0,"taxableValue":null,"taxes":null},"mailingAddress":{"line1":null,"line2":null,"city":null,"state":null,"zip":null},"incomeTract":null,"incomeBlockGroup":null,"nearestRoad":null,"flu":null,"opportunityZone":null,"oz2Eligibility":null,"source":"nc-onemap-37191"},"geometry":{"type":"Polygon","coordinates":[[[-78.26183,35.31396],[-78.26259,35.3134],[-78.26377,35.31389],[-78.26327,35.31445],[-78.26232,35.31409],[-78.26183,35.31396]]]}},{"type":"Feature","id":"37191:2525012202","properties":{"id":"37191:2525012202","parcelId":"2525012202","countyFips":"37191","countyName":"Wayne","state":"North Carolina","marketIds":["Raleigh-Durham"],"situsAddress":"233 C B KEEN RD","situsCity":null,"situsZip":null,"jurisdictionCode":null,"ownerName":"KEEN MATTHEW DANIEL","ownerName2":null,"propertyName":null,"zoningCode":null,"zoningDistrict":null,"jurisdictionPrefix":null,"dorCode":null,"acreage":5.7622,"centroid":[-78.262227,35.262383],"lastSale":{"date":null,"price":null,"qualified":null},"tax":{"marketValue":81000.0,"assessedValue":45690.0,"taxableValue":null,"taxes":null},"mailingAddress":{"line1":null,"line2":null,"city":null,"state":null,"zip":null},"incomeTract":null,"incomeBlockGroup":null,"nearestRoad":null,"flu":null,"opportunityZone":null,"oz2Eligibility":null,"source":"nc-onemap-37191"},"geometry":{"type":"Polygon","coordinates":[[[-78.26185,35.26215],[-78.26323,35.26187],[-78.26273,35.26269],[-78.2611,35.26282],[-78.26185,35.26215]]]}},{"type":"Feature","id":"37191:2516427763","properties":{"id":"37191:2516427763","parcelId":"2516427763","countyFips":"37191","countyName":"Wayne","state":"North Carolina","marketIds":["Raleigh-Durham"],"situsAddress":"SELAH CHURCH RD","situsCity":null,"situsZip":null,"jurisdictionCode":null,"ownerName":"SANDERSON JOSEPH K","ownerName2":null,"propertyName":null,"zoningCode":null,"zoningDistrict":null,"jurisdictionPrefix":null,"dorCode":null,"acreage":5.7392,"centroid":[-78.280197,35.294067],"lastSale":{"date":null,"price":null,"qualified":null},"tax":{"marketValue":3000.0,"assessedValue":23250.0,"taxableValue":null,"taxes":null},"mailingAddress":{"line1":null,"line2":null,"city":null,"state":null,"zip":null},"incomeTract":null,"incomeBlockGroup":null,"nearestRoad":null,"flu":null,"opportunityZone":null,"oz2Eligibility":null,"source":"nc-onemap-37191"},"geometry":{"type":"Polygon","coordinates":[[[-78.27953,35.29437],[-78.27982,35.29351],[-78.28073,35.29371],[-78.28071,35.29468],[-78.27953,35.29437]]]}},{"type":"Feature","id":"37191:2516960441","properties":{"id":"37191:2516960441","parcelId":"2516960441","countyFips":"37191","countyName":"Wayne","state":"North Carolina","marketIds":["Raleigh-Durham"],"situsAddress":"N JORDANS CHAPEL RD","situsCity":null,"situsZip":null,"jurisdictionCode":null,"ownerName":"JOHNSON NANCY J","ownerName2":null,"propertyName":null,"zoningCode":null,"zoningDistrict":null,"jurisdictionPrefix":null,"dorCode":null,"acreage":5.6244,"centroid":[-78.265637,35.30415],"lastSale":{"date":null,"price":null,"qualified":null},"tax":{"marketValue":29540.0,"assessedValue":52710.0,"taxableValue":null,"taxes":null},"mailingAddress":{"line1":null,"line2":null,"city":null,"state":null,"zip":null},"incomeTract":null,"incomeBlockGroup":null,"nearestRoad":null,"flu":null,"opportunityZone":null,"oz2Eligibility":null,"source":"nc-onemap-37191"},"geometry":{"type":"Polygon","coordinates":[[[-78.2646,35.30412],[-78.26661,35.30372],[-78.26676,35.30418],[-78.26458,35.30458],[-78.2646,35.30412]]]}},{"type":"Feature","id":"37191:2516039729","properties":{"id":"37191:2516039729","parcelId":"2516039729","countyFips":"37191","countyName":"Wayne","state":"North Carolina","marketIds":["Raleigh-Durham"],"situsAddress":"WESTBROOK DAIRY RD","situsCity":null,"situsZip":null,"jurisdictionCode":null,"ownerName":"HOUSTON DANIEL R","ownerName2":null,"propertyName":null,"zoningCode":null,"zoningDistrict":null,"jurisdictionPrefix":null,"dorCode":null,"acreage":5.4408,"centroid":[-78.282519,35.297338],"lastSale":{"date":null,"price":null,"qualified":null},"tax":{"marketValue":14700.0,"assessedValue":110850.0,"taxableValue":null,"taxes":null},"mailingAddress":{"line1":null,"line2":null,"city":null,"state":null,"zip":null},"incomeTract":null,"incomeBlockGroup":null,"nearestRoad":null,"flu":null,"opportunityZone":null,"oz2Eligibility":null,"source":"nc-onemap-37191"},"geometry":{"type":"Polygon","coordinates":[[[-78.28316,35.29749],[-78.28306,35.29733],[-78.28275,35.29749],[-78.28223,35.29736],[-78.28201,35.29755],[-78.28147,35.29746],[-78.28144,35.29682],[-78.28317,35.29698],[-78.28338,35.29756],[-78.28316,35.29749]]]}},{"type":"Feature","id":"37191:2515871782","properties":{"id":"37191:2515871782","parcelId":"2515871782","countyFips":"37191","countyName":"Wayne","state":"North Carolina","marketIds":["Raleigh-Durham"],"situsAddress":"5856 S US 13 HWY","situsCity":null,"situsZip":null,"jurisdictionCode":null,"ownerName":"WISE CHRISTOPHER H","ownerName2":null,"propertyName":null,"zoningCode":null,"zoningDistrict":null,"jurisdictionPrefix":null,"dorCode":null,"acreage":5.3949,"centroid":[-78.268688,35.280294],"lastSale":{"date":null,"price":null,"qualified":null},"tax":{"marketValue":132760.0,"assessedValue":39530.0,"taxableValue":null,"taxes":null},"mailingAddress":{"line1":null,"line2":null,"city":null,"state":null,"zip":null},"incomeTract":null,"incomeBlockGroup":null,"nearestRoad":null,"flu":null,"opportunityZone":null,"oz2Eligibility":null,"source":"nc-onemap-37191"},"geometry":{"type":"Polygon","coordinates":[[[-78.26841,35.28044],[-78.26813,35.27989],[-78.26882,35.27961],[-78.26941,35.28057],[-78.26867,35.28096],[-78.26841,35.28044]]]}},{"type":"Feature","id":"37191:2515608343","properties":{"id":"37191:2515608343","parcelId":"2515608343","countyFips":"37191","countyName":"Wayne","state":"North Carolina","marketIds":["Raleigh-Durham"],"situsAddress":"590 EDWARDS STORE RD","situsCity":null,"situsZip":null,"jurisdictionCode":null,"ownerName":"BRITT JOHNNY L","ownerName2":null,"propertyName":null,"zoningCode":null,"zoningDistrict":null,"jurisdictionPrefix":null,"dorCode":null,"acreage":5.303,"centroid":[-78.273306,35.259984],"lastSale":{"date":null,"price":null,"qualified":null},"tax":{"marketValue":236270.0,"assessedValue":32250.0,"taxableValue":null,"taxes":null},"mailingAddress":{"line1":null,"line2":null,"city":null,"state":null,"zip":null},"incomeTract":null,"incomeBlockGroup":null,"nearestRoad":null,"flu":null,"opportunityZone":null,"oz2Eligibility":null,"source":"nc-onemap-37191"},"geometry":{"type":"Polygon","coordinates":[[[-78.27274,35.25978],[-78.27412,35.25956],[-78.27415,35.26031],[-78.27277,35.26036],[-78.27275,35.25991],[-78.27274,35.25978]]]}},{"type":"Feature","id":"37191:2515324503","properties":{"id":"37191:2515324503","parcelId":"2515324503","countyFips":"37191","countyName":"Wayne","state":"North Carolina","marketIds":["Raleigh-Durham"],"situsAddress":"WESTBROOK CHURCH RD","situsCity":null,"situsZip":null,"jurisdictionCode":null,"ownerName":"CEMETERY","ownerName2":null,"propertyName":null,"zoningCode":null,"zoningDistrict":null,"jurisdictionPrefix":null,"dorCode":null,"acreage":5.2801,"centroid":[-78.285062,35.266082],"lastSale":{"date":null,"price":null,"qualified":null},"tax":{"marketValue":2990.0,"assessedValue":2990.0,"taxableValue":null,"taxes":null},"mailingAddress":{"line1":null,"line2":null,"city":null,"state":null,"zip":null},"incomeTract":null,"incomeBlockGroup":null,"nearestRoad":null,"flu":null,"opportunityZone":null,"oz2Eligibility":null,"source":"nc-onemap-37191"},"geometry":{"type":"Polygon","coordinates":[[[-78.28523,35.26594],[-78.28524,35.26621],[-78.28491,35.26622],[-78.28487,35.26596],[-78.28523,35.26594]]]}},{"type":"Feature","id":"37191:2524172511","properties":{"id":"37191:2524172511","parcelId":"2524172511","countyFips":"37191","countyName":"Wayne","state":"North Carolina","marketIds":["Raleigh-Durham"],"situsAddress":"C B KEEN RD","situsCity":null,"situsZip":null,"jurisdictionCode":null,"ownerName":"JOHNSON LISA MARIE AMAN","ownerName2":null,"propertyName":null,"zoningCode":null,"zoningDistrict":null,"jurisdictionPrefix":null,"dorCode":null,"acreage":5.2342,"centroid":[-78.258891,35.252346],"lastSale":{"date":null,"price":null,"qualified":null},"tax":{"marketValue":48190.0,"assessedValue":48190.0,"taxableValue":null,"taxes":null},"mailingAddress":{"line1":null,"line2":null,"city":null,"state":null,"zip":null},"incomeTract":null,"incomeBlockGroup":null,"nearestRoad":null,"flu":null,"opportunityZone":null,"oz2Eligibility":null,"source":"nc-onemap-37191"},"geometry":{"type":"Polygon","coordinates":[[[-78.25878,35.25256],[-78.25877,35.25221],[-78.25847,35.25175],[-78.25874,35.25114],[-78.25965,35.25268],[-78.25912,35.25286],[-78.2588,35.25286],[-78.2588,35.25271],[-78.25878,35.25256]]]}},{"type":"Feature","id":"37191:2515917486","properties":{"id":"37191:2515917486","parcelId":"2515917486","countyFips":"37191","countyName":"Wayne","state":"North Carolina","marketIds":["Raleigh-Durham"],"situsAddress":"C B KEEN RD","situsCity":null,"situsZip":null,"jurisdictionCode":null,"ownerName":"KEEN MATTHEW DANIEL","ownerName2":null,"propertyName":null,"zoningCode":null,"zoningDistrict":null,"jurisdictionPrefix":null,"dorCode":null,"acreage":5.1882,"centroid":[-78.261716,35.263162],"lastSale":{"date":null,"price":null,"qualified":null},"tax":{"marketValue":380040.0,"assessedValue":134110.0,"taxableValue":null,"taxes":null},"mailingAddress":{"line1":null,"line2":null,"city":null,"state":null,"zip":null},"incomeTract":null,"incomeBlockGroup":null,"nearestRoad":null,"flu":null,"opportunityZone":null,"oz2Eligibility":null,"source":"nc-onemap-37191"},"geometry":{"type":"Polygon","coordinates":[[[-78.26117,35.2633],[-78.2611,35.26282],[-78.26273,35.26269],[-78.26205,35.26368],[-78.26153,35.26332],[-78.26117,35.2633]]]}},{"type":"Feature","id":"37191:2516836311","properties":{"id":"37191:2516836311","parcelId":"2516836311","countyFips":"37191","countyName":"Wayne","state":"North Carolina","marketIds":["Raleigh-Durham"],"situsAddress":"537 N JORDANS CHAPEL RD","situsCity":null,"situsZip":null,"jurisdictionCode":null,"ownerName":"EDDY THERESA L","ownerName2":null,"propertyName":null,"zoningCode":null,"zoningDistrict":null,"jurisdictionPrefix":null,"dorCode":null,"acreage":5.1194,"centroid":[-78.26607,35.297938],"lastSale":{"date":null,"price":null,"qualified":null},"tax":{"marketValue":308800.0,"assessedValue":207900.0,"taxableValue":null,"taxes":null},"mailingAddress":{"line1":null,"line2":null,"city":null,"state":null,"zip":null},"incomeTract":null,"incomeBlockGroup":null,"nearestRoad":null,"flu":null,"opportunityZone":null,"oz2Eligibility":null,"source":"nc-onemap-37191"},"geometry":{"type":"Polygon","coordinates":[[[-78.26552,35.29816],[-78.26558,35.29751],[-78.266,35.29727],[-78.26657,35.29789],[-78.26673,35.29852],[-78.26602,35.29828],[-78.26552,35.29816]]]}},{"type":"Feature","id":"37191:2526307774","properties":{"id":"37191:2526307774","parcelId":"2526307774","countyFips":"37191","countyName":"Wayne","state":"North Carolina","marketIds":["Raleigh-Durham"],"situsAddress":"5374 S US 13 HWY","situsCity":null,"situsZip":null,"jurisdictionCode":null,"ownerName":"MUSTON PATRICK I & W JENNIFER","ownerName2":null,"propertyName":null,"zoningCode":null,"zoningDistrict":null,"jurisdictionPrefix":null,"dorCode":null,"acreage":5.0505,"centroid":[-78.250068,35.2884],"lastSale":{"date":null,"price":null,"qualified":null},"tax":{"marketValue":282720.0,"assessedValue":39790.0,"taxableValue":null,"taxes":null},"mailingAddress":{"line1":null,"line2":null,"city":null,"state":null,"zip":null},"incomeTract":null,"incomeBlockGroup":null,"nearestRoad":null,"flu":null,"opportunityZone":null,"oz2Eligibility":null,"source":"nc-onemap-37191"},"geometry":{"type":"Polygon","coordinates":[[[-78.24994,35.28899],[-78.2495,35.2879],[-78.25013,35.2877],[-78.2507,35.28901],[-78.24994,35.28899]]]}}]}