{"type":"FeatureCollection","name":"47087--10_37","features":[{"type":"Feature","id":"47087:044079    01302","properties":{"id":"47087:044079    01302","parcelId":"044079    01302","countyFips":"47087","countyName":"Jackson","state":"Tennessee","marketIds":["Nashville"],"situsAddress":"OLD DODSON BRANCH RD","situsCity":null,"situsZip":null,"jurisdictionCode":null,"ownerName":"GAW MICHAEL","ownerName2":"FAMILY PARTNERSHIP","propertyName":null,"zoningCode":null,"zoningDistrict":null,"jurisdictionPrefix":null,"dorCode":null,"acreage":104.7981,"centroid":[-85.490227,36.289578],"lastSale":{"date":"2013-05-06","price":null,"qualified":null,"vintage":"2023"},"tax":{"marketValue":149800.0,"assessedValue":null,"taxableValue":null,"taxes":null,"vintage":"2023"},"mailingAddress":{"line1":null,"line2":null,"city":null,"state":null,"zip":null},"incomeTract":null,"incomeBlockGroup":null,"nearestRoad":null,"flu":null,"opportunityZone":null,"oz2Eligibility":null,"source":"tn-oir-public-use-47087","appraiserUrl":"https://assessment.cot.tn.gov/TPAD/Parcel/GIS?gislink=044079%20%20%20%2001302"},"geometry":{"type":"Polygon","coordinates":[[[-85.493032,36.287683],[-85.492892,36.287516],[-85.492656,36.287548],[-85.492509,36.287574],[-85.492266,36.287574],[-85.492121,36.287547],[-85.492033,36.28752],[-85.491985,36.287492],[-85.491865,36.287435],[-85.491826,36.287403],[-85.4918,36.287391],[-85.491755,36.287349],[-85.491712,36.287288],[-85.491682,36.287222],[-85.491652,36.287189],[-85.49164,36.287169],[-85.491587,36.287111],[-85.491558,36.287086],[-85.491531,36.287037],[-85.491492,36.286996],[-85.491429,36.286941],[-85.491386,36.28689],[-85.491357,36.286871],[-85.49131,36.286822],[-85.491239,36.286766],[-85.491206,36.286734],[-85.491151,36.286652],[-85.491102,36.286549],[-85.491029,36.286504],[-85.491003,36.286478],[-85.490966,36.28646],[-85.490898,36.286419],[-85.490847,36.286368],[-85.490796,36.286349],[-85.49078,36.286349],[-85.490757,36.286357],[-85.490694,36.286386],[-85.490668,36.286401],[-85.490624,36.28644],[-85.490568,36.28648],[-85.490515,36.286546],[-85.490468,36.28658],[-85.490457,36.2866],[-85.490446,36.286624],[-85.490438,36.286662],[-85.490417,36.286694],[-85.490266,36.287039],[-85.490256,36.28716],[-85.490265,36.287278],[-85.49026,36.287408],[-85.49022,36.287453],[-85.490192,36.287463],[-85.490183,36.287473],[-85.490198,36.287546],[-85.490187,36.287661],[-85.490149,36.287811],[-85.490089,36.287949],[-85.490066,36.28805],[-85.49003,36.288156],[-85.489927,36.288372],[-85.489896,36.288401],[-85.489841,36.288474],[-85.489794,36.288519],[-85.489728,36.288564],[-85.489645,36.288591],[-85.489539,36.288613],[-85.489437,36.28865],[-85.48934,36.28867],[-85.489291,36.288657],[-85.489276,36.288647],[-85.489251,36.288617],[-85.489223,36.288569],[-85.489205,36.288521],[-85.489159,36.288451],[-85.489056,36.288197],[-85.488909,36.287998],[-85.488841,36.287918],[-85.48878,36.287847],[-85.488651,36.287729],[-85.488493,36.287615],[-85.488358,36.287484],[-85.488327,36.287465],[-85.48826,36.287454],[-85.488196,36.287456],[-85.488102,36.287467],[-85.488029,36.287491],[-85.487968,36.287519],[-85.48795,36.287545],[-85.487941,36.287567],[-85.48793,36.287653],[-85.487933,36.287712],[-85.487942,36.287745],[-85.487966,36.287784],[-85.488376,36.288294],[-85.488406,36.288323],[-85.488578,36.28855],[-85.488729,36.288802],[-85.48875,36.288884],[-85.488758,36.288942],[-85.488758,36.289109],[-85.488755,36.289141],[-85.488697,36.289252],[-85.488489,36.289495],[-85.487964,36.289891],[-85.487692,36.290169],[-85.487355,36.290544],[-85.487022,36.29094],[-85.486936,36.291127],[-85.486939,36.29114],[-85.486954,36.291149],[-85.487181,36.291169],[-85.487407,36.291199],[-85.487643,36.291243],[-85.48786,36.291294],[-85.489644,36.291801],[-85.489693,36.291822],[-85.489731,36.291851],[-85.489757,36.291884],[-85.489773,36.291922],[-85.489777,36.291961],[-85.489769,36.292],[-85.489742,36.292048],[-85.489642,36.29214],[-85.489607,36.292183],[-85.489576,36.292231],[-85.489553,36.292281],[-85.489535,36.292336],[-85.489526,36.292389],[-85.489524,36.29244],[-85.489531,36.292501],[-85.489546,36.292557],[-85.489564,36.2926],[-85.489624,36.29272],[-85.48966,36.292807],[-85.489697,36.292914],[-85.489725,36.293026],[-85.489744,36.293138],[-85.489754,36.293249],[-85.489755,36.293341],[-85.489747,36.293471],[-85.489749,36.293522],[-85.489759,36.293588],[-85.489779,36.29365],[-85.489804,36.293703],[-85.489835,36.293753],[-85.489877,36.293805],[-85.489921,36.293849],[-85.490007,36.293912],[-85.490133,36.29398],[-85.4902,36.294022],[-85.490267,36.294076],[-85.490332,36.294143],[-85.490376,36.294201],[-85.490411,36.294261],[-85.490484,36.29444],[-85.490548,36.294571],[-85.490607,36.294671],[-85.490672,36.294767],[-85.490766,36.294889],[-85.490867,36.294999],[-85.490976,36.295103],[-85.491092,36.295199],[-85.494615,36.29477],[-85.494562,36.294418],[-85.49477,36.293059],[-85.49505,36.292546],[-85.494602,36.292274],[-85.494311,36.291399],[-85.494092,36.291322],[-85.494201,36.290733],[-85.495743,36.289084],[-85.494965,36.288571],[-85.493756,36.288016],[-85.493439,36.288046],[-85.493163,36.287933],[-85.493086,36.287749],[-85.493032,36.287683]]]}},{"type":"Feature","id":"47087:044063    01300","properties":{"id":"47087:044063    01300","parcelId":"044063    01300","countyFips":"47087","countyName":"Jackson","state":"Tennessee","marketIds":["Nashville"],"situsAddress":"POPLAR SPRINGS RD 1213","situsCity":null,"situsZip":null,"jurisdictionCode":null,"ownerName":"KEISLING HAROLD G ETUX","ownerName2":"BRENDA","propertyName":null,"zoningCode":null,"zoningDistrict":null,"jurisdictionPrefix":null,"dorCode":null,"acreage":104.7248,"centroid":[-85.499956,36.329521],"lastSale":{"date":"2008-11-14","price":null,"qualified":null,"vintage":"2023"},"tax":{"marketValue":60500.0,"assessedValue":null,"taxableValue":null,"taxes":null,"vintage":"2023"},"mailingAddress":{"line1":null,"line2":null,"city":null,"state":null,"zip":null},"incomeTract":null,"incomeBlockGroup":null,"nearestRoad":null,"flu":null,"opportunityZone":null,"oz2Eligibility":null,"source":"tn-oir-public-use-47087","appraiserUrl":"https://assessment.cot.tn.gov/TPAD/Parcel/GIS?gislink=044063%20%20%20%2001300"},"geometry":{"type":"Polygon","coordinates":[[[-85.496705,36.326597],[-85.497055,36.332751],[-85.497779,36.332763],[-85.49744,36.334002],[-85.501924,36.334179],[-85.504157,36.333264],[-85.504038,36.330667],[-85.502654,36.327601],[-85.502676,36.327436],[-85.502426,36.327317],[-85.50093,36.327871],[-85.4996,36.328064],[-85.498828,36.328132],[-85.498395,36.327948],[-85.49778,36.32697],[-85.496915,36.32677],[-85.496705,36.326597]]]}},{"type":"Feature","id":"47087:044079    01300","properties":{"id":"47087:044079    01300","parcelId":"044079    01300","countyFips":"47087","countyName":"Jackson","state":"Tennessee","marketIds":["Nashville"],"situsAddress":"OLD DODSON BRANCH RD 1134","situsCity":null,"situsZip":null,"jurisdictionCode":null,"ownerName":"GLASS STEVEN CHARLES","ownerName2":null,"propertyName":null,"zoningCode":null,"zoningDistrict":null,"jurisdictionPrefix":null,"dorCode":null,"acreage":97.8893,"centroid":[-85.499562,36.294386],"lastSale":{"date":"2017-07-07","price":null,"qualified":null,"vintage":"2023"},"tax":{"marketValue":337100.0,"assessedValue":null,"taxableValue":null,"taxes":null,"vintage":"2023"},"mailingAddress":{"line1":null,"line2":null,"city":null,"state":null,"zip":null},"incomeTract":null,"incomeBlockGroup":null,"nearestRoad":null,"flu":null,"opportunityZone":null,"oz2Eligibility":null,"source":"tn-oir-public-use-47087","appraiserUrl":"https://assessment.cot.tn.gov/TPAD/Parcel/GIS?gislink=044079%20%20%20%2001300"},"geometry":{"type":"MultiPolygon","coordinates":[[[[-85.494894,36.296617],[-85.496426,36.2964],[-85.496777,36.296357],[-85.497158,36.296317],[-85.497517,36.296287],[-85.497881,36.296264],[-85.499693,36.296178],[-85.499835,36.296165],[-85.499968,36.296145],[-85.500109,36.296114],[-85.500247,36.296075],[-85.50038,36.296027],[-85.500502,36.295973],[-85.500633,36.295905],[-85.500773,36.295819],[-85.500966,36.295693],[-85.501216,36.295521],[-85.501263,36.295492],[-85.501326,36.295461],[-85.501389,36.295437],[-85.501455,36.295419],[-85.501526,36.295406],[-85.501602,36.2954],[-85.501678,36.2954],[-85.501747,36.295407],[-85.501835,36.295424],[-85.502086,36.295483],[-85.502479,36.295599],[-85.502488,36.294823],[-85.502517,36.29389],[-85.50251,36.29368],[-85.502489,36.293473],[-85.502462,36.293307],[-85.502432,36.293172],[-85.502392,36.293034],[-85.502346,36.29291],[-85.502314,36.292845],[-85.502275,36.292782],[-85.502065,36.292497],[-85.49793,36.292066],[-85.497758,36.292011],[-85.49791,36.29129],[-85.49735,36.291189],[-85.495493,36.291192],[-85.494201,36.290733],[-85.494092,36.291322],[-85.494311,36.291399],[-85.494602,36.292274],[-85.49505,36.292546],[-85.49477,36.293059],[-85.494562,36.294418],[-85.494894,36.296617]]],[[[-85.500497,36.296071],[-85.500324,36.296138],[-85.500158,36.296188],[-85.499979,36.296227],[-85.499797,36.296253],[-85.499669,36.296262],[-85.497912,36.296345],[-85.497395,36.29638],[-85.497232,36.297976],[-85.501451,36.297846],[-85.500508,36.296066],[-85.500497,36.296071]]]]}},{"type":"Feature","id":"47087:044048    02200","properties":{"id":"47087:044048    02200","parcelId":"044048    02200","countyFips":"47087","countyName":"Jackson","state":"Tennessee","marketIds":["Nashville"],"situsAddress":"ROARING RIVER RD 5487 *","situsCity":null,"situsZip":null,"jurisdictionCode":null,"ownerName":"ATCHISON ROBERT C","ownerName2":"ETUX BONNIE R","propertyName":null,"zoningCode":null,"zoningDistrict":null,"jurisdictionPrefix":null,"dorCode":null,"acreage":89.1438,"centroid":[-85.499983,36.34635],"lastSale":{"date":"1998-08-14","price":75000.0,"qualified":null,"vintage":"2023"},"tax":{"marketValue":341400.0,"assessedValue":null,"taxableValue":null,"taxes":null,"vintage":"2023"},"mailingAddress":{"line1":null,"line2":null,"city":null,"state":null,"zip":null},"incomeTract":null,"incomeBlockGroup":null,"nearestRoad":null,"flu":null,"opportunityZone":null,"oz2Eligibility":null,"source":"tn-oir-public-use-47087","appraiserUrl":"https://assessment.cot.tn.gov/TPAD/Parcel/GIS?gislink=044048%20%20%20%2002200"},"geometry":{"type":"MultiPolygon","coordinates":[[[[-85.497736,36.344709],[-85.497808,36.348671],[-85.497945,36.348726],[-85.498089,36.348774],[-85.498235,36.348812],[-85.498384,36.348841],[-85.498552,36.348862],[-85.498721,36.348872],[-85.498843,36.348869],[-85.498957,36.348854],[-85.499038,36.348835],[-85.499111,36.348812],[-85.499186,36.348781],[-85.499257,36.348744],[-85.499321,36.348703],[-85.499382,36.348655],[-85.499434,36.348605],[-85.499484,36.348546],[-85.499533,36.348471],[-85.499577,36.348381],[-85.499601,36.348316],[-85.499636,36.34819],[-85.499668,36.348095],[-85.49971,36.347991],[-85.499758,36.347893],[-85.499856,36.347728],[-85.499984,36.347552],[-85.500048,36.347457],[-85.500156,36.347264],[-85.499954,36.346849],[-85.500009,36.34679],[-85.500332,36.346146],[-85.500537,36.345795],[-85.500643,36.345532],[-85.500716,36.345306],[-85.500744,36.345061],[-85.500967,36.344506],[-85.501312,36.343965],[-85.501757,36.343279],[-85.502194,36.342665],[-85.502466,36.342235],[-85.502698,36.342003],[-85.502805,36.341864],[-85.502855,36.341851],[-85.502945,36.341837],[-85.503123,36.341825],[-85.500749,36.339789],[-85.499813,36.341466],[-85.497547,36.341385],[-85.497736,36.344709]]],[[[-85.497888,36.353129],[-85.498012,36.35299],[-85.498326,36.352465],[-85.499115,36.352027],[-85.500544,36.350777],[-85.501221,36.349445],[-85.500209,36.347373],[-85.500109,36.347541],[-85.499928,36.347794],[-85.499846,36.347936],[-85.499801,36.348032],[-85.499763,36.348127],[-85.49968,36.348392],[-85.499648,36.348464],[-85.499608,36.348535],[-85.499549,36.348616],[-85.499483,36.348687],[-85.499402,36.348755],[-85.499314,36.348812],[-85.499249,36.348846],[-85.499176,36.348878],[-85.499106,36.348903],[-85.499027,36.348925],[-85.498952,36.34894],[-85.49887,36.34895],[-85.498793,36.348954],[-85.498703,36.348954],[-85.498585,36.348948],[-85.498479,36.348937],[-85.498359,36.348921],[-85.498248,36.3489],[-85.498132,36.348873],[-85.498021,36.348841],[-85.497915,36.348806],[-85.497809,36.348765],[-85.497888,36.353129]]]]}},{"type":"Feature","id":"47087:044064    02200","properties":{"id":"47087:044064    02200","parcelId":"044064    02200","countyFips":"47087","countyName":"Jackson","state":"Tennessee","marketIds":["Nashville"],"situsAddress":"FORTNEY LN","situsCity":null,"situsZip":null,"jurisdictionCode":null,"ownerName":"LYNN RICKY ET UX","ownerName2":"LYNN RHONDA","propertyName":null,"zoningCode":null,"zoningDistrict":null,"jurisdictionPrefix":null,"dorCode":null,"acreage":82.7378,"centroid":[-85.499079,36.310887],"lastSale":{"date":"2017-04-18","price":140000.0,"qualified":null,"vintage":"2023"},"tax":{"marketValue":106400.0,"assessedValue":null,"taxableValue":null,"taxes":null,"vintage":"2023"},"mailingAddress":{"line1":null,"line2":null,"city":null,"state":null,"zip":null},"incomeTract":null,"incomeBlockGroup":null,"nearestRoad":null,"flu":null,"opportunityZone":null,"oz2Eligibility":null,"source":"tn-oir-public-use-47087","appraiserUrl":"https://assessment.cot.tn.gov/TPAD/Parcel/GIS?gislink=044064%20%20%20%2002200"},"geometry":{"type":"Polygon","coordinates":[[[-85.498572,36.312233],[-85.505578,36.312498],[-85.505566,36.312444],[-85.505541,36.312138],[-85.505625,36.311899],[-85.505724,36.311742],[-85.500851,36.308554],[-85.494884,36.308233],[-85.494991,36.309211],[-85.494076,36.309368],[-85.493972,36.310509],[-85.493888,36.310715],[-85.495167,36.3108],[-85.495754,36.310822],[-85.495993,36.312136],[-85.498572,36.312233]]]}},{"type":"Feature","id":"47087:044079    07000","properties":{"id":"47087:044079    07000","parcelId":"044079    07000","countyFips":"47087","countyName":"Jackson","state":"Tennessee","marketIds":["Nashville"],"situsAddress":"SMITH CHAPEL RD 363","situsCity":null,"situsZip":null,"jurisdictionCode":null,"ownerName":"GREEN PHILLIP & HARRIS BARBARA ETAL","ownerName2":"% GERMAIN JUDY","propertyName":null,"zoningCode":null,"zoningDistrict":null,"jurisdictionPrefix":null,"dorCode":null,"acreage":66.6884,"centroid":[-85.497171,36.2862],"lastSale":{"date":"1953-04-12","price":null,"qualified":null,"vintage":"2023"},"tax":{"marketValue":192800.0,"assessedValue":null,"taxableValue":null,"taxes":null,"vintage":"2023"},"mailingAddress":{"line1":null,"line2":null,"city":null,"state":null,"zip":null},"incomeTract":null,"incomeBlockGroup":null,"nearestRoad":null,"flu":null,"opportunityZone":null,"oz2Eligibility":null,"source":"tn-oir-public-use-47087","appraiserUrl":"https://assessment.cot.tn.gov/TPAD/Parcel/GIS?gislink=044079%20%20%20%2007000"},"geometry":{"type":"Polygon","coordinates":[[[-85.495298,36.283278],[-85.495214,36.283238],[-85.495106,36.283234],[-85.494975,36.283258],[-85.494899,36.283281],[-85.494778,36.283328],[-85.494521,36.283469],[-85.494339,36.283746],[-85.494305,36.283911],[-85.494279,36.28464],[-85.494306,36.286012],[-85.494883,36.286133],[-85.495081,36.286133],[-85.495319,36.286146],[-85.495525,36.286172],[-85.495766,36.286229],[-85.495844,36.286251],[-85.495918,36.286282],[-85.496016,36.286331],[-85.496094,36.286361],[-85.496285,36.28648],[-85.496411,36.286539],[-85.496427,36.28658],[-85.496637,36.286713],[-85.496748,36.286822],[-85.496803,36.286897],[-85.496826,36.286944],[-85.496855,36.287023],[-85.496903,36.287091],[-85.497301,36.287488],[-85.497169,36.287559],[-85.498594,36.288203],[-85.499644,36.289597],[-85.499731,36.289707],[-85.499826,36.289818],[-85.499934,36.289936],[-85.500049,36.290052],[-85.50071,36.290677],[-85.500822,36.290774],[-85.500949,36.29087],[-85.500947,36.290774],[-85.500994,36.290227],[-85.501059,36.289661],[-85.501076,36.289663],[-85.50126,36.288069],[-85.501323,36.287617],[-85.501447,36.28637],[-85.498976,36.284678],[-85.498984,36.283337],[-85.497363,36.283323],[-85.497324,36.283192],[-85.497026,36.283318],[-85.496514,36.28344],[-85.495775,36.283642],[-85.495642,36.283655],[-85.495607,36.283655],[-85.495534,36.283621],[-85.495496,36.283588],[-85.495471,36.283558],[-85.495376,36.283398],[-85.495298,36.283278]]]}},{"type":"Feature","id":"47087:044063    00400","properties":{"id":"47087:044063    00400","parcelId":"044063    00400","countyFips":"47087","countyName":"Jackson","state":"Tennessee","marketIds":["Nashville"],"situsAddress":"POPLAR SPRINGS RD 1258","situsCity":null,"situsZip":null,"jurisdictionCode":null,"ownerName":"TAYLOR JIMMY ROGER","ownerName2":null,"propertyName":null,"zoningCode":null,"zoningDistrict":null,"jurisdictionPrefix":null,"dorCode":null,"acreage":48.8591,"centroid":[-85.499513,36.336956],"lastSale":{"date":"1997-04-01","price":87750.0,"qualified":null,"vintage":"2023"},"tax":{"marketValue":46100.0,"assessedValue":null,"taxableValue":null,"taxes":null,"vintage":"2023"},"mailingAddress":{"line1":null,"line2":null,"city":null,"state":null,"zip":null},"incomeTract":null,"incomeBlockGroup":null,"nearestRoad":null,"flu":null,"opportunityZone":null,"oz2Eligibility":null,"source":"tn-oir-public-use-47087","appraiserUrl":"https://assessment.cot.tn.gov/TPAD/Parcel/GIS?gislink=044063%20%20%20%2000400"},"geometry":{"type":"MultiPolygon","coordinates":[[[[-85.497402,36.338853],[-85.501743,36.338919],[-85.502332,36.338514],[-85.502484,36.336794],[-85.501831,36.336919],[-85.501611,36.33695],[-85.501393,36.336971],[-85.50114,36.336984],[-85.500894,36.336986],[-85.500645,36.336975],[-85.500389,36.336953],[-85.500147,36.336919],[-85.498304,36.336616],[-85.498108,36.336577],[-85.497986,36.336545],[-85.497873,36.336509],[-85.497762,36.33647],[-85.497654,36.336425],[-85.497543,36.336373],[-85.497444,36.336321],[-85.497343,36.336262],[-85.497252,36.336202],[-85.497402,36.338853]]],[[[-85.496357,36.335626],[-85.496483,36.335662],[-85.496605,36.335705],[-85.496723,36.335755],[-85.496838,36.33581],[-85.496948,36.335871],[-85.497052,36.335938],[-85.497152,36.33601],[-85.49729,36.33612],[-85.497455,36.336226],[-85.497555,36.336282],[-85.497654,36.336331],[-85.497762,36.336378],[-85.497869,36.336419],[-85.498056,36.336477],[-85.498258,36.336524],[-85.499443,36.336719],[-85.49971,36.336074],[-85.499644,36.33586],[-85.499873,36.335896],[-85.499891,36.33578],[-85.501924,36.334179],[-85.49744,36.334002],[-85.496784,36.333993],[-85.496357,36.335626]]]]}},{"type":"Feature","id":"47087:044079    01400","properties":{"id":"47087:044079    01400","parcelId":"044079    01400","countyFips":"47087","countyName":"Jackson","state":"Tennessee","marketIds":["Nashville"],"situsAddress":"SMITH CHAPEL RD","situsCity":null,"situsZip":null,"jurisdictionCode":null,"ownerName":"WELLS MARYJANE","ownerName2":null,"propertyName":null,"zoningCode":null,"zoningDistrict":null,"jurisdictionPrefix":null,"dorCode":null,"acreage":44.5684,"centroid":[-85.499332,36.290615],"lastSale":{"date":"2022-05-06","price":null,"qualified":null,"vintage":"2023"},"tax":{"marketValue":64400.0,"assessedValue":null,"taxableValue":null,"taxes":null,"vintage":"2023"},"mailingAddress":{"line1":null,"line2":null,"city":null,"state":null,"zip":null},"incomeTract":null,"incomeBlockGroup":null,"nearestRoad":null,"flu":null,"opportunityZone":null,"oz2Eligibility":null,"source":"tn-oir-public-use-47087","appraiserUrl":"https://assessment.cot.tn.gov/TPAD/Parcel/GIS?gislink=044079%20%20%20%2001400"},"geometry":{"type":"Polygon","coordinates":[[[-85.494201,36.290733],[-85.495493,36.291192],[-85.49735,36.291189],[-85.49791,36.29129],[-85.497758,36.292011],[-85.49793,36.292066],[-85.502065,36.292497],[-85.501129,36.291229],[-85.501064,36.291126],[-85.50101,36.291021],[-85.500994,36.291026],[-85.500966,36.290949],[-85.500949,36.29087],[-85.500822,36.290774],[-85.50071,36.290677],[-85.500049,36.290052],[-85.499934,36.289936],[-85.499826,36.289818],[-85.499731,36.289707],[-85.499644,36.289597],[-85.498594,36.288203],[-85.497169,36.287559],[-85.494201,36.290733]]]}},{"type":"Feature","id":"47087:044047    01501","properties":{"id":"47087:044047    01501","parcelId":"044047    01501","countyFips":"47087","countyName":"Jackson","state":"Tennessee","marketIds":["Nashville"],"situsAddress":"SMITH ELLIS RD 532","situsCity":null,"situsZip":null,"jurisdictionCode":null,"ownerName":"WARD TRENT M","ownerName2":"WARD DEBORAH C","propertyName":null,"zoningCode":null,"zoningDistrict":null,"jurisdictionPrefix":null,"dorCode":null,"acreage":43.5307,"centroid":[-85.499819,36.386672],"lastSale":{"date":"2018-04-30","price":112000.0,"qualified":null,"vintage":"2023"},"tax":{"marketValue":52000.0,"assessedValue":null,"taxableValue":null,"taxes":null,"vintage":"2023"},"mailingAddress":{"line1":null,"line2":null,"city":null,"state":null,"zip":null},"incomeTract":null,"incomeBlockGroup":null,"nearestRoad":null,"flu":null,"opportunityZone":null,"oz2Eligibility":null,"source":"tn-oir-public-use-47087","appraiserUrl":"https://assessment.cot.tn.gov/TPAD/Parcel/GIS?gislink=044047%20%20%20%2001501"},"geometry":{"type":"Polygon","coordinates":[[[-85.497787,36.38664],[-85.497928,36.386654],[-85.498456,36.387308],[-85.498964,36.388066],[-85.499171,36.388259],[-85.499787,36.388885],[-85.500537,36.388328],[-85.500732,36.388175],[-85.500872,36.388054],[-85.501013,36.387921],[-85.501096,36.387832],[-85.501176,36.387731],[-85.501251,36.387615],[-85.501316,36.387492],[-85.501359,36.387389],[-85.501426,36.387193],[-85.50149,36.38698],[-85.501541,36.386778],[-85.501587,36.386559],[-85.501621,36.38635],[-85.501198,36.386295],[-85.500976,36.386248],[-85.500252,36.386187],[-85.500152,36.386174],[-85.50003,36.386138],[-85.499986,36.386121],[-85.49988,36.386062],[-85.49906,36.385552],[-85.498704,36.385349],[-85.498894,36.385168],[-85.497684,36.384193],[-85.49781,36.383066],[-85.494816,36.383471],[-85.495302,36.386625],[-85.497787,36.38664]]]}},{"type":"Feature","id":"47087:044032    02800","properties":{"id":"47087:044032    02800","parcelId":"044032    02800","countyFips":"47087","countyName":"Jackson","state":"Tennessee","marketIds":["Nashville"],"situsAddress":"YORK HWY 4760","situsCity":null,"situsZip":null,"jurisdictionCode":null,"ownerName":"HOUSER WILLIAM D","ownerName2":"ETUX BEVERLY","propertyName":null,"zoningCode":null,"zoningDistrict":null,"jurisdictionPrefix":null,"dorCode":null,"acreage":43.0382,"centroid":[-85.498629,36.394589],"lastSale":{"date":"1996-08-23","price":70000.0,"qualified":null,"vintage":"2023"},"tax":{"marketValue":399000.0,"assessedValue":null,"taxableValue":null,"taxes":null,"vintage":"2023"},"mailingAddress":{"line1":null,"line2":null,"city":null,"state":null,"zip":null},"incomeTract":null,"incomeBlockGroup":null,"nearestRoad":null,"flu":null,"opportunityZone":null,"oz2Eligibility":null,"source":"tn-oir-public-use-47087","appraiserUrl":"https://assessment.cot.tn.gov/TPAD/Parcel/GIS?gislink=044032%20%20%20%2002800"},"geometry":{"type":"Polygon","coordinates":[[[-85.496056,36.395024],[-85.496283,36.39572],[-85.496327,36.39583],[-85.496384,36.395942],[-85.496474,36.396081],[-85.496517,36.396134],[-85.496565,36.396184],[-85.496622,36.396235],[-85.496679,36.396278],[-85.496746,36.39632],[-85.496814,36.396357],[-85.4969,36.396395],[-85.496988,36.396425],[-85.497085,36.39645],[-85.497178,36.396465],[-85.4988,36.396649],[-85.499132,36.396679],[-85.499464,36.396698],[-85.499747,36.396708],[-85.500022,36.396711],[-85.500302,36.396708],[-85.500512,36.396699],[-85.500631,36.39668],[-85.500743,36.39665],[-85.500855,36.396606],[-85.500954,36.396554],[-85.501031,36.396501],[-85.501105,36.396437],[-85.501165,36.396372],[-85.501219,36.396296],[-85.501256,36.396229],[-85.501571,36.395547],[-85.501652,36.395414],[-85.501751,36.39529],[-85.50175,36.394925],[-85.501674,36.394821],[-85.50159,36.394726],[-85.50152,36.394657],[-85.501444,36.394592],[-85.500896,36.394165],[-85.500652,36.393988],[-85.500204,36.393683],[-85.500109,36.393625],[-85.50001,36.393572],[-85.499905,36.393521],[-85.499809,36.393479],[-85.499699,36.393437],[-85.499589,36.393401],[-85.499315,36.393327],[-85.49925,36.393301],[-85.499186,36.393267],[-85.499111,36.393213],[-85.499048,36.39315],[-85.498859,36.392875],[-85.49882,36.392841],[-85.498771,36.392815],[-85.49872,36.392799],[-85.497747,36.392607],[-85.497635,36.39259],[-85.497513,36.39258],[-85.497344,36.39258],[-85.49727,36.392586],[-85.497223,36.392594],[-85.497178,36.392609],[-85.497135,36.392631],[-85.497097,36.392659],[-85.497066,36.392692],[-85.497008,36.392785],[-85.496953,36.392887],[-85.496906,36.392988],[-85.496867,36.393091],[-85.496835,36.393193],[-85.496809,36.393304],[-85.496792,36.393411],[-85.496782,36.393521],[-85.49636,36.393295],[-85.496238,36.393442],[-85.496101,36.393578],[-85.496102,36.393491],[-85.495881,36.394547],[-85.496056,36.395024]]]}},{"type":"Feature","id":"47087:044064    00618","properties":{"id":"47087:044064    00618","parcelId":"044064    00618","countyFips":"47087","countyName":"Jackson","state":"Tennessee","marketIds":["Nashville"],"situsAddress":"SPARKLE LN 320","situsCity":null,"situsZip":null,"jurisdictionCode":null,"ownerName":"ENGLES JEFFREY WAYNE","ownerName2":null,"propertyName":null,"zoningCode":null,"zoningDistrict":null,"jurisdictionPrefix":null,"dorCode":null,"acreage":29.8915,"centroid":[-85.49829,36.324536],"lastSale":{"date":"2021-07-27","price":160000.0,"qualified":null,"vintage":"2023"},"tax":{"marketValue":98000.0,"assessedValue":null,"taxableValue":null,"taxes":null,"vintage":"2023"},"mailingAddress":{"line1":null,"line2":null,"city":null,"state":null,"zip":null},"incomeTract":null,"incomeBlockGroup":null,"nearestRoad":null,"flu":null,"opportunityZone":null,"oz2Eligibility":null,"source":"tn-oir-public-use-47087","appraiserUrl":"https://assessment.cot.tn.gov/TPAD/Parcel/GIS?gislink=044064%20%20%20%2000618"},"geometry":{"type":"Polygon","coordinates":[[[-85.496705,36.326597],[-85.496915,36.32677],[-85.49778,36.32697],[-85.498395,36.327948],[-85.498461,36.327976],[-85.499627,36.324843],[-85.499643,36.324807],[-85.499652,36.324769],[-85.499654,36.32473],[-85.499648,36.324691],[-85.499634,36.324654],[-85.499613,36.324619],[-85.499586,36.324587],[-85.499552,36.324559],[-85.499514,36.324536],[-85.499471,36.324518],[-85.499273,36.324418],[-85.499213,36.32435],[-85.499194,36.324287],[-85.49915,36.32421],[-85.499602,36.323536],[-85.499323,36.323623],[-85.498642,36.323705],[-85.49838,36.32371],[-85.498205,36.323622],[-85.498181,36.323598],[-85.498158,36.323558],[-85.498112,36.323318],[-85.498034,36.323032],[-85.497895,36.32278],[-85.497709,36.322649],[-85.497428,36.322545],[-85.496907,36.322331],[-85.496813,36.322297],[-85.496223,36.324006],[-85.496049,36.324627],[-85.496061,36.325031],[-85.496193,36.325805],[-85.496373,36.326265],[-85.49664,36.326574],[-85.496705,36.326597]]]}},{"type":"Feature","id":"47087:044079    01000","properties":{"id":"47087:044079    01000","parcelId":"044079    01000","countyFips":"47087","countyName":"Jackson","state":"Tennessee","marketIds":["Nashville"],"situsAddress":"QUARTERHORSE LN 215","situsCity":null,"situsZip":null,"jurisdictionCode":null,"ownerName":"GARY B WHEELER &","ownerName2":"MARY C WHEELER, CO-TRUSTEE","propertyName":null,"zoningCode":null,"zoningDistrict":null,"jurisdictionPrefix":null,"dorCode":null,"acreage":29.3861,"centroid":[-85.498762,36.299705],"lastSale":{"date":"2010-07-09","price":250000.0,"qualified":null,"vintage":"2023"},"tax":{"marketValue":119100.0,"assessedValue":null,"taxableValue":null,"taxes":null,"vintage":"2023"},"mailingAddress":{"line1":null,"line2":null,"city":null,"state":null,"zip":null},"incomeTract":null,"incomeBlockGroup":null,"nearestRoad":null,"flu":null,"opportunityZone":null,"oz2Eligibility":null,"source":"tn-oir-public-use-47087","appraiserUrl":"https://assessment.cot.tn.gov/TPAD/Parcel/GIS?gislink=044079%20%20%20%2001000"},"geometry":{"type":"Polygon","coordinates":[[[-85.497026,36.301085],[-85.497714,36.301219],[-85.497596,36.300253],[-85.497661,36.300277],[-85.49874,36.300626],[-85.499,36.300223],[-85.499053,36.300221],[-85.499404,36.299721],[-85.499565,36.299422],[-85.499767,36.299227],[-85.49982,36.299203],[-85.499865,36.299197],[-85.499931,36.299223],[-85.500685,36.299555],[-85.502588,36.300431],[-85.502807,36.297824],[-85.501528,36.297844],[-85.497232,36.297976],[-85.497194,36.298347],[-85.497881,36.298485],[-85.497822,36.29906],[-85.497135,36.298923],[-85.49693,36.300935],[-85.496935,36.300978],[-85.496952,36.301016],[-85.49698,36.30105],[-85.497026,36.301085]]]}},{"type":"Feature","id":"47087:044032    00900","properties":{"id":"47087:044032    00900","parcelId":"044032    00900","countyFips":"47087","countyName":"Jackson","state":"Tennessee","marketIds":["Nashville"],"situsAddress":"CARR LN 160","situsCity":null,"situsZip":null,"jurisdictionCode":null,"ownerName":"CARR CHRISTINE","ownerName2":"C/O JERRY CARR","propertyName":null,"zoningCode":null,"zoningDistrict":null,"jurisdictionPrefix":null,"dorCode":null,"acreage":28.4055,"centroid":[-85.496673,36.398593],"lastSale":{"date":null,"price":null,"qualified":null},"tax":{"marketValue":57600.0,"assessedValue":null,"taxableValue":null,"taxes":null,"vintage":"2023"},"mailingAddress":{"line1":null,"line2":null,"city":null,"state":null,"zip":null},"incomeTract":null,"incomeBlockGroup":null,"nearestRoad":null,"flu":null,"opportunityZone":null,"oz2Eligibility":null,"source":"tn-oir-public-use-47087","appraiserUrl":"https://assessment.cot.tn.gov/TPAD/Parcel/GIS?gislink=044032%20%20%20%2000900"},"geometry":{"type":"Polygon","coordinates":[[[-85.496824,36.396578],[-85.496606,36.396915],[-85.49602,36.396196],[-85.496003,36.396751],[-85.495741,36.402143],[-85.495118,36.402917],[-85.495693,36.403131],[-85.497701,36.401043],[-85.498274,36.397408],[-85.498014,36.396755],[-85.497115,36.396652],[-85.496969,36.396623],[-85.496824,36.396578]]]}},{"type":"Feature","id":"47087:044047    00803","properties":{"id":"47087:044047    00803","parcelId":"044047    00803","countyFips":"47087","countyName":"Jackson","state":"Tennessee","marketIds":["Nashville"],"situsAddress":"SMITH ELLIS RD 630","situsCity":null,"situsZip":null,"jurisdictionCode":null,"ownerName":"JONES MICHAEL A","ownerName2":"ETUX PATRICIA","propertyName":null,"zoningCode":null,"zoningDistrict":null,"jurisdictionPrefix":null,"dorCode":null,"acreage":20.926,"centroid":[-85.497679,36.388919],"lastSale":{"date":"2004-03-31","price":162000.0,"qualified":null,"vintage":"2023"},"tax":{"marketValue":243700.0,"assessedValue":null,"taxableValue":null,"taxes":null,"vintage":"2023"},"mailingAddress":{"line1":null,"line2":null,"city":null,"state":null,"zip":null},"incomeTract":null,"incomeBlockGroup":null,"nearestRoad":null,"flu":null,"opportunityZone":null,"oz2Eligibility":null,"source":"tn-oir-public-use-47087","appraiserUrl":"https://assessment.cot.tn.gov/TPAD/Parcel/GIS?gislink=044047%20%20%20%2000803"},"geometry":{"type":"Polygon","coordinates":[[[-85.496205,36.388558],[-85.496491,36.388527],[-85.496807,36.388486],[-85.496895,36.388589],[-85.496969,36.388687],[-85.497007,36.388804],[-85.497015,36.388891],[-85.497007,36.389038],[-85.496954,36.389198],[-85.496871,36.389372],[-85.496731,36.389766],[-85.496729,36.389903],[-85.49676,36.390003],[-85.496832,36.390082],[-85.497146,36.390376],[-85.497294,36.39043],[-85.497399,36.390405],[-85.498027,36.390282],[-85.498517,36.389978],[-85.498576,36.389967],[-85.498775,36.389661],[-85.49882,36.389598],[-85.498905,36.389497],[-85.499005,36.389398],[-85.499111,36.389311],[-85.499263,36.389207],[-85.499409,36.389115],[-85.499647,36.388975],[-85.499787,36.388885],[-85.499171,36.388259],[-85.498964,36.388066],[-85.498456,36.387308],[-85.497928,36.386654],[-85.497787,36.38664],[-85.495302,36.386625],[-85.495311,36.386686],[-85.496243,36.386773],[-85.496205,36.388558]]]}},{"type":"Feature","id":"47087:044064    00612","properties":{"id":"47087:044064    00612","parcelId":"044064    00612","countyFips":"47087","countyName":"Jackson","state":"Tennessee","marketIds":["Nashville"],"situsAddress":"SPARKLE LN 354","situsCity":null,"situsZip":null,"jurisdictionCode":null,"ownerName":"BASWELL ZEBEDIAH","ownerName2":null,"propertyName":null,"zoningCode":null,"zoningDistrict":null,"jurisdictionPrefix":null,"dorCode":null,"acreage":20.7083,"centroid":[-85.49989,36.324922],"lastSale":{"date":"1990-07-20","price":35000.0,"qualified":null,"vintage":"2023"},"tax":{"marketValue":52600.0,"assessedValue":null,"taxableValue":null,"taxes":null,"vintage":"2023"},"mailingAddress":{"line1":null,"line2":null,"city":null,"state":null,"zip":null},"incomeTract":null,"incomeBlockGroup":null,"nearestRoad":null,"flu":null,"opportunityZone":null,"oz2Eligibility":null,"source":"tn-oir-public-use-47087","appraiserUrl":"https://assessment.cot.tn.gov/TPAD/Parcel/GIS?gislink=044064%20%20%20%2000612"},"geometry":{"type":"Polygon","coordinates":[[[-85.498461,36.327976],[-85.498828,36.328132],[-85.4996,36.328064],[-85.500428,36.327944],[-85.50106,36.326003],[-85.500954,36.325588],[-85.500617,36.325678],[-85.500438,36.325643],[-85.500272,36.325515],[-85.500161,36.325367],[-85.500112,36.3247],[-85.501904,36.324252],[-85.500989,36.322638],[-85.500944,36.32258],[-85.500121,36.323289],[-85.499743,36.323446],[-85.499716,36.3235],[-85.499602,36.323536],[-85.49915,36.32421],[-85.499194,36.324287],[-85.499213,36.32435],[-85.499273,36.324418],[-85.499471,36.324518],[-85.499514,36.324536],[-85.499552,36.324559],[-85.499586,36.324587],[-85.499613,36.324619],[-85.499634,36.324654],[-85.499648,36.324691],[-85.499654,36.32473],[-85.499652,36.324769],[-85.499643,36.324807],[-85.499627,36.324843],[-85.498461,36.327976]]]}},{"type":"Feature","id":"47087:044064    00620","properties":{"id":"47087:044064    00620","parcelId":"044064    00620","countyFips":"47087","countyName":"Jackson","state":"Tennessee","marketIds":["Nashville"],"situsAddress":"SPRING CREEK RD","situsCity":null,"situsZip":null,"jurisdictionCode":null,"ownerName":"BLACK ROSEMARIE","ownerName2":null,"propertyName":null,"zoningCode":null,"zoningDistrict":null,"jurisdictionPrefix":null,"dorCode":null,"acreage":19.7407,"centroid":[-85.49873,36.320531],"lastSale":{"date":"2010-12-01","price":null,"qualified":null,"vintage":"2023"},"tax":{"marketValue":11600.0,"assessedValue":null,"taxableValue":null,"taxes":null,"vintage":"2023"},"mailingAddress":{"line1":null,"line2":null,"city":null,"state":null,"zip":null},"incomeTract":null,"incomeBlockGroup":null,"nearestRoad":null,"flu":null,"opportunityZone":null,"oz2Eligibility":null,"source":"tn-oir-public-use-47087","appraiserUrl":"https://assessment.cot.tn.gov/TPAD/Parcel/GIS?gislink=044064%20%20%20%2000620"},"geometry":{"type":"Polygon","coordinates":[[[-85.498194,36.321754],[-85.498297,36.321791],[-85.49841,36.321823],[-85.498521,36.321847],[-85.498638,36.321865],[-85.498756,36.321876],[-85.498865,36.321879],[-85.498984,36.321876],[-85.499095,36.321865],[-85.499242,36.321839],[-85.499377,36.321798],[-85.499869,36.321598],[-85.500017,36.321526],[-85.500141,36.321453],[-85.500247,36.321134],[-85.50064,36.320436],[-85.500411,36.319516],[-85.500698,36.318984],[-85.500695,36.3189],[-85.499426,36.318374],[-85.497773,36.318562],[-85.497317,36.318435],[-85.49711,36.318456],[-85.497194,36.318564],[-85.496983,36.318615],[-85.497389,36.319082],[-85.497483,36.319231],[-85.497477,36.319275],[-85.497765,36.319771],[-85.4981,36.320286],[-85.4983,36.320546],[-85.498406,36.320667],[-85.498595,36.320845],[-85.498719,36.320995],[-85.498812,36.321202],[-85.498704,36.321388],[-85.498347,36.321608],[-85.498194,36.321754]]]}},{"type":"Feature","id":"47087:044064    00615","properties":{"id":"47087:044064    00615","parcelId":"044064    00615","countyFips":"47087","countyName":"Jackson","state":"Tennessee","marketIds":["Nashville"],"situsAddress":"SPRING CREEK RD 3380","situsCity":null,"situsZip":null,"jurisdictionCode":null,"ownerName":"WEITZEL KEVIN","ownerName2":null,"propertyName":null,"zoningCode":null,"zoningDistrict":null,"jurisdictionPrefix":null,"dorCode":null,"acreage":19.121,"centroid":[-85.497004,36.31382],"lastSale":{"date":"2018-12-28","price":null,"qualified":null,"vintage":"2023"},"tax":{"marketValue":250800.0,"assessedValue":null,"taxableValue":null,"taxes":null,"vintage":"2023"},"mailingAddress":{"line1":null,"line2":null,"city":null,"state":null,"zip":null},"incomeTract":null,"incomeBlockGroup":null,"nearestRoad":null,"flu":null,"opportunityZone":null,"oz2Eligibility":null,"source":"tn-oir-public-use-47087","appraiserUrl":"https://assessment.cot.tn.gov/TPAD/Parcel/GIS?gislink=044064%20%20%20%2000615"},"geometry":{"type":"Polygon","coordinates":[[[-85.496365,36.315083],[-85.496365,36.315102],[-85.49644,36.315149],[-85.499427,36.315415],[-85.499364,36.315094],[-85.499002,36.313103],[-85.498727,36.313109],[-85.498572,36.312233],[-85.495993,36.312136],[-85.496036,36.312482],[-85.496071,36.313016],[-85.495838,36.313006],[-85.495882,36.313087],[-85.495913,36.31317],[-85.497246,36.313141],[-85.49713,36.313449],[-85.497104,36.313547],[-85.497087,36.313547],[-85.497045,36.313616],[-85.496916,36.313789],[-85.496885,36.31388],[-85.496908,36.31394],[-85.496953,36.31394],[-85.496913,36.314025],[-85.496897,36.314074],[-85.496802,36.314228],[-85.496706,36.314343],[-85.496646,36.314424],[-85.496544,36.314579],[-85.496357,36.314896],[-85.496365,36.315083]]]}},{"type":"Feature","id":"47087:044063    00401","properties":{"id":"47087:044063    00401","parcelId":"044063    00401","countyFips":"47087","countyName":"Jackson","state":"Tennessee","marketIds":["Nashville"],"situsAddress":"POPLAR SPRINGS RD 1264","situsCity":null,"situsZip":null,"jurisdictionCode":null,"ownerName":"TAYLOR JIMMY R","ownerName2":"ETUX MABEL C","propertyName":null,"zoningCode":null,"zoningDistrict":null,"jurisdictionPrefix":null,"dorCode":null,"acreage":17.5553,"centroid":[-85.499046,36.340076],"lastSale":{"date":"1972-04-01","price":null,"qualified":null,"vintage":"2023"},"tax":{"marketValue":98300.0,"assessedValue":null,"taxableValue":null,"taxes":null,"vintage":"2023"},"mailingAddress":{"line1":null,"line2":null,"city":null,"state":null,"zip":null},"incomeTract":null,"incomeBlockGroup":null,"nearestRoad":null,"flu":null,"opportunityZone":null,"oz2Eligibility":null,"source":"tn-oir-public-use-47087","appraiserUrl":"https://assessment.cot.tn.gov/TPAD/Parcel/GIS?gislink=044063%20%20%20%2000401"},"geometry":{"type":"Polygon","coordinates":[[[-85.497547,36.341385],[-85.499813,36.341466],[-85.500749,36.339789],[-85.499718,36.338888],[-85.497402,36.338853],[-85.497547,36.341385]]]}},{"type":"Feature","id":"47087:044079    07100","properties":{"id":"47087:044079    07100","parcelId":"044079    07100","countyFips":"47087","countyName":"Jackson","state":"Tennessee","marketIds":["Nashville"],"situsAddress":"E OF SMITH CHAPEL RD","situsCity":null,"situsZip":null,"jurisdictionCode":null,"ownerName":"JAMES W MACKIE","ownerName2":"SHIRLEY A MACKIE, CO-TRUSTEES","propertyName":null,"zoningCode":null,"zoningDistrict":null,"jurisdictionPrefix":null,"dorCode":null,"acreage":17.0526,"centroid":[-85.4948,36.287079],"lastSale":{"date":"2006-01-09","price":150000.0,"qualified":null,"vintage":"2023"},"tax":{"marketValue":25700.0,"assessedValue":null,"taxableValue":null,"taxes":null,"vintage":"2023"},"mailingAddress":{"line1":null,"line2":null,"city":null,"state":null,"zip":null},"incomeTract":null,"incomeBlockGroup":null,"nearestRoad":null,"flu":null,"opportunityZone":null,"oz2Eligibility":null,"source":"tn-oir-public-use-47087","appraiserUrl":"https://assessment.cot.tn.gov/TPAD/Parcel/GIS?gislink=044079%20%20%20%2007100"},"geometry":{"type":"Polygon","coordinates":[[[-85.493032,36.287683],[-85.493086,36.287749],[-85.493163,36.287933],[-85.493439,36.288046],[-85.493756,36.288016],[-85.494965,36.288571],[-85.495743,36.289084],[-85.497169,36.287559],[-85.497301,36.287488],[-85.496903,36.287091],[-85.496855,36.287023],[-85.496826,36.286944],[-85.496803,36.286897],[-85.496748,36.286822],[-85.496637,36.286713],[-85.496427,36.28658],[-85.496411,36.286539],[-85.496285,36.28648],[-85.496094,36.286361],[-85.496016,36.286331],[-85.495918,36.286282],[-85.495844,36.286251],[-85.495593,36.286186],[-85.495525,36.286172],[-85.495319,36.286146],[-85.495081,36.286133],[-85.494883,36.286133],[-85.494306,36.286012],[-85.494267,36.286369],[-85.494301,36.286642],[-85.494323,36.286911],[-85.494312,36.28696],[-85.494286,36.287043],[-85.494233,36.287102],[-85.494146,36.287154],[-85.494065,36.287188],[-85.493994,36.287212],[-85.493931,36.287229],[-85.493821,36.287278],[-85.493673,36.28735],[-85.493604,36.287391],[-85.493545,36.287433],[-85.493493,36.287457],[-85.493439,36.287464],[-85.493357,36.287465],[-85.493258,36.287473],[-85.493135,36.287487],[-85.492974,36.287512],[-85.492892,36.287516],[-85.493032,36.287683]]]}},{"type":"Feature","id":"47087:044048    00803","properties":{"id":"47087:044048    00803","parcelId":"044048    00803","countyFips":"47087","countyName":"Jackson","state":"Tennessee","marketIds":["Nashville"],"situsAddress":"DOGTOWN LN 235","situsCity":null,"situsZip":null,"jurisdictionCode":null,"ownerName":"FORD GLEN ET UX","ownerName2":"FORD MANDY","propertyName":null,"zoningCode":null,"zoningDistrict":null,"jurisdictionPrefix":null,"dorCode":null,"acreage":16.4872,"centroid":[-85.499825,36.36435],"lastSale":{"date":"2012-08-28","price":52500.0,"qualified":null,"vintage":"2023"},"tax":{"marketValue":14600.0,"assessedValue":null,"taxableValue":null,"taxes":null,"vintage":"2023"},"mailingAddress":{"line1":null,"line2":null,"city":null,"state":null,"zip":null},"incomeTract":null,"incomeBlockGroup":null,"nearestRoad":null,"flu":null,"opportunityZone":null,"oz2Eligibility":null,"source":"tn-oir-public-use-47087","appraiserUrl":"https://assessment.cot.tn.gov/TPAD/Parcel/GIS?gislink=044048%20%20%20%2000803"},"geometry":{"type":"Polygon","coordinates":[[[-85.498493,36.366467],[-85.500454,36.366846],[-85.500586,36.366116],[-85.500639,36.365765],[-85.500668,36.36549],[-85.500664,36.365405],[-85.50065,36.365327],[-85.500632,36.365266],[-85.500607,36.365204],[-85.500575,36.365144],[-85.50054,36.365088],[-85.500481,36.365015],[-85.500233,36.364756],[-85.500151,36.36466],[-85.500055,36.364523],[-85.50001,36.364444],[-85.499975,36.364373],[-85.499918,36.364224],[-85.499606,36.363196],[-85.499483,36.362737],[-85.499453,36.362748],[-85.499432,36.362765],[-85.499419,36.362787],[-85.499419,36.362823],[-85.49879,36.362967],[-85.498676,36.362986],[-85.49856,36.363001],[-85.498444,36.363012],[-85.498305,36.363018],[-85.498493,36.366467]]]}},{"type":"Feature","id":"47087:044032    03001","properties":{"id":"47087:044032    03001","parcelId":"044032    03001","countyFips":"47087","countyName":"Jackson","state":"Tennessee","marketIds":["Nashville"],"situsAddress":"SMITH ELLIS RD 669","situsCity":null,"situsZip":null,"jurisdictionCode":null,"ownerName":"HOMETOWN MISSIONARIES INC","ownerName2":null,"propertyName":null,"zoningCode":null,"zoningDistrict":null,"jurisdictionPrefix":null,"dorCode":null,"acreage":14.904,"centroid":[-85.498832,36.391852],"lastSale":{"date":"1996-02-02","price":18500.0,"qualified":null,"vintage":"2023"},"tax":{"marketValue":45800.0,"assessedValue":null,"taxableValue":null,"taxes":null,"vintage":"2023"},"mailingAddress":{"line1":null,"line2":null,"city":null,"state":null,"zip":null},"incomeTract":null,"incomeBlockGroup":null,"nearestRoad":null,"flu":null,"opportunityZone":null,"oz2Eligibility":null,"source":"tn-oir-public-use-47087","appraiserUrl":"https://assessment.cot.tn.gov/TPAD/Parcel/GIS?gislink=044032%20%20%20%2003001"},"geometry":{"type":"Polygon","coordinates":[[[-85.496893,36.392268],[-85.499381,36.392333],[-85.499381,36.392349],[-85.502166,36.392421],[-85.502268,36.391223],[-85.497669,36.391054],[-85.497588,36.391158],[-85.497137,36.39182],[-85.497007,36.39204],[-85.496893,36.392268]]]}},{"type":"Feature","id":"47087:044048    00801","properties":{"id":"47087:044048    00801","parcelId":"044048    00801","countyFips":"47087","countyName":"Jackson","state":"Tennessee","marketIds":["Nashville"],"situsAddress":"DOGTOWN LN 235","situsCity":null,"situsZip":null,"jurisdictionCode":null,"ownerName":"ALLEN DONNA CARMACK SMITH","ownerName2":null,"propertyName":null,"zoningCode":null,"zoningDistrict":null,"jurisdictionPrefix":null,"dorCode":null,"acreage":14.887,"centroid":[-85.499972,36.368159],"lastSale":{"date":"2015-09-29","price":89900.0,"qualified":null,"vintage":"2023"},"tax":{"marketValue":69700.0,"assessedValue":null,"taxableValue":null,"taxes":null,"vintage":"2023"},"mailingAddress":{"line1":null,"line2":null,"city":null,"state":null,"zip":null},"incomeTract":null,"incomeBlockGroup":null,"nearestRoad":null,"flu":null,"opportunityZone":null,"oz2Eligibility":null,"source":"tn-oir-public-use-47087","appraiserUrl":"https://assessment.cot.tn.gov/TPAD/Parcel/GIS?gislink=044048%20%20%20%2000801"},"geometry":{"type":"MultiPolygon","coordinates":[[[[-85.49971,36.368595],[-85.499747,36.368738],[-85.500707,36.368933],[-85.500691,36.368731],[-85.500684,36.368465],[-85.500675,36.368419],[-85.500653,36.368373],[-85.500381,36.367967],[-85.500357,36.367917],[-85.500337,36.367865],[-85.500322,36.367812],[-85.500313,36.367758],[-85.500309,36.367683],[-85.500316,36.367608],[-85.500454,36.366846],[-85.498493,36.366467],[-85.498547,36.368726],[-85.498687,36.368736],[-85.49901,36.368676],[-85.499347,36.368556],[-85.499678,36.368467],[-85.49971,36.368595]]],[[[-85.503039,36.367714],[-85.502884,36.367719],[-85.502652,36.367749],[-85.502061,36.367864],[-85.501874,36.367916],[-85.501784,36.367924],[-85.501564,36.367971],[-85.501261,36.368041],[-85.501003,36.368118],[-85.500655,36.368205],[-85.500752,36.36835],[-85.50077,36.368389],[-85.500781,36.368429],[-85.500797,36.368803],[-85.500826,36.369064],[-85.502109,36.369117],[-85.503071,36.367713],[-85.503039,36.367714]]]]}},{"type":"Feature","id":"47087:044064    02400","properties":{"id":"47087:044064    02400","parcelId":"044064    02400","countyFips":"47087","countyName":"Jackson","state":"Tennessee","marketIds":["Nashville"],"situsAddress":"NORMAN MAYBERRY RD 413","situsCity":null,"situsZip":null,"jurisdictionCode":null,"ownerName":"MAYBERRY BRENDA","ownerName2":null,"propertyName":null,"zoningCode":null,"zoningDistrict":null,"jurisdictionPrefix":null,"dorCode":null,"acreage":13.8604,"centroid":[-85.495989,36.304934],"lastSale":{"date":"1993-01-29","price":2000.0,"qualified":null,"vintage":"2023"},"tax":{"marketValue":43700.0,"assessedValue":null,"taxableValue":null,"taxes":null,"vintage":"2023"},"mailingAddress":{"line1":null,"line2":null,"city":null,"state":null,"zip":null},"incomeTract":null,"incomeBlockGroup":null,"nearestRoad":null,"flu":null,"opportunityZone":null,"oz2Eligibility":null,"source":"tn-oir-public-use-47087","appraiserUrl":"https://assessment.cot.tn.gov/TPAD/Parcel/GIS?gislink=044064%20%20%20%2002400"},"geometry":{"type":"Polygon","coordinates":[[[-85.49651,36.302428],[-85.495893,36.302389],[-85.495916,36.303691],[-85.494369,36.30357],[-85.494642,36.306043],[-85.494768,36.306042],[-85.495432,36.305976],[-85.495952,36.305916],[-85.496306,36.305823],[-85.496497,36.30566],[-85.496553,36.305604],[-85.496667,36.305463],[-85.496821,36.305358],[-85.496946,36.305312],[-85.496563,36.304742],[-85.49651,36.302428]]]}},{"type":"Feature","id":"47087:044064    02401","properties":{"id":"47087:044064    02401","parcelId":"044064    02401","countyFips":"47087","countyName":"Jackson","state":"Tennessee","marketIds":["Nashville"],"situsAddress":"NORMAN MAYBERRY RD","situsCity":null,"situsZip":null,"jurisdictionCode":null,"ownerName":"LYNN RICK H.","ownerName2":null,"propertyName":null,"zoningCode":null,"zoningDistrict":null,"jurisdictionPrefix":null,"dorCode":null,"acreage":11.8434,"centroid":[-85.496023,36.306527],"lastSale":{"date":"2016-11-17","price":null,"qualified":null,"vintage":"2023"},"tax":{"marketValue":23500.0,"assessedValue":null,"taxableValue":null,"taxes":null,"vintage":"2023"},"mailingAddress":{"line1":null,"line2":null,"city":null,"state":null,"zip":null},"incomeTract":null,"incomeBlockGroup":null,"nearestRoad":null,"flu":null,"opportunityZone":null,"oz2Eligibility":null,"source":"tn-oir-public-use-47087","appraiserUrl":"https://assessment.cot.tn.gov/TPAD/Parcel/GIS?gislink=044064%20%20%20%2002401"},"geometry":{"type":"Polygon","coordinates":[[[-85.494884,36.308233],[-85.497177,36.308357],[-85.49678,36.306863],[-85.49663,36.3065],[-85.496757,36.306266],[-85.49677,36.305956],[-85.496328,36.305959],[-85.496116,36.305945],[-85.495971,36.305983],[-85.495443,36.306044],[-85.494774,36.306111],[-85.494649,36.306111],[-85.494884,36.308233]]]}},{"type":"Feature","id":"47087:044032    02801","properties":{"id":"47087:044032    02801","parcelId":"044032    02801","countyFips":"47087","countyName":"Jackson","state":"Tennessee","marketIds":["Nashville"],"situsAddress":"YORK HWY 4692","situsCity":null,"situsZip":null,"jurisdictionCode":null,"ownerName":"SCANTLAND DON","ownerName2":"ETUX BETTY","propertyName":null,"zoningCode":null,"zoningDistrict":null,"jurisdictionPrefix":null,"dorCode":null,"acreage":10.451,"centroid":[-85.499468,36.393167],"lastSale":{"date":"2011-08-08","price":3000.0,"qualified":null,"vintage":"2023"},"tax":{"marketValue":106900.0,"assessedValue":null,"taxableValue":null,"taxes":null,"vintage":"2023"},"mailingAddress":{"line1":null,"line2":null,"city":null,"state":null,"zip":null},"incomeTract":null,"incomeBlockGroup":null,"nearestRoad":null,"flu":null,"opportunityZone":null,"oz2Eligibility":null,"source":"tn-oir-public-use-47087","appraiserUrl":"https://assessment.cot.tn.gov/TPAD/Parcel/GIS?gislink=044032%20%20%20%2002801"},"geometry":{"type":"Polygon","coordinates":[[[-85.497447,36.392496],[-85.49761,36.392504],[-85.497768,36.392527],[-85.498747,36.39272],[-85.498801,36.392735],[-85.498851,36.392757],[-85.498905,36.392793],[-85.498948,36.392834],[-85.499125,36.393094],[-85.499167,36.39314],[-85.499221,36.393184],[-85.499283,36.393221],[-85.499351,36.39325],[-85.499631,36.393325],[-85.499745,36.393363],[-85.499856,36.393406],[-85.499959,36.393451],[-85.50006,36.393499],[-85.500246,36.393605],[-85.500736,36.393938],[-85.501036,36.394158],[-85.501547,36.394559],[-85.501653,36.394657],[-85.501749,36.394764],[-85.501649,36.392408],[-85.499381,36.392349],[-85.499381,36.392333],[-85.497411,36.392282],[-85.497316,36.392499],[-85.497447,36.392496]]]}},{"type":"Feature","id":"47087:044032    02900","properties":{"id":"47087:044032    02900","parcelId":"044032    02900","countyFips":"47087","countyName":"Jackson","state":"Tennessee","marketIds":["Nashville"],"situsAddress":"SMITH ELLIS RD 652","situsCity":null,"situsZip":null,"jurisdictionCode":null,"ownerName":"NETTERVILLE WILLIAM M III","ownerName2":null,"propertyName":null,"zoningCode":null,"zoningDistrict":null,"jurisdictionPrefix":null,"dorCode":null,"acreage":9.9506,"centroid":[-85.497346,36.390643],"lastSale":{"date":"2006-01-23","price":77000.0,"qualified":null,"vintage":"2023"},"tax":{"marketValue":21900.0,"assessedValue":null,"taxableValue":null,"taxes":null,"vintage":"2023"},"mailingAddress":{"line1":null,"line2":null,"city":null,"state":null,"zip":null},"incomeTract":null,"incomeBlockGroup":null,"nearestRoad":null,"flu":null,"opportunityZone":null,"oz2Eligibility":null,"source":"tn-oir-public-use-47087","appraiserUrl":"https://assessment.cot.tn.gov/TPAD/Parcel/GIS?gislink=044032%20%20%20%2002900"},"geometry":{"type":"Polygon","coordinates":[[[-85.496205,36.388558],[-85.496117,36.392801],[-85.496631,36.392585],[-85.496867,36.392097],[-85.496983,36.391885],[-85.497103,36.391696],[-85.497523,36.391084],[-85.497597,36.390994],[-85.497678,36.390911],[-85.497742,36.390854],[-85.497884,36.390739],[-85.497986,36.390652],[-85.498095,36.390551],[-85.498203,36.39044],[-85.4983,36.390332],[-85.49839,36.390223],[-85.498576,36.389967],[-85.498517,36.389978],[-85.498027,36.390282],[-85.497399,36.390405],[-85.497294,36.39043],[-85.497146,36.390376],[-85.496832,36.390082],[-85.49676,36.390003],[-85.496729,36.389903],[-85.496731,36.389766],[-85.496871,36.389372],[-85.496954,36.389198],[-85.497007,36.389038],[-85.497015,36.388891],[-85.497007,36.388804],[-85.496969,36.388687],[-85.496895,36.388589],[-85.496807,36.388486],[-85.496491,36.388527],[-85.496205,36.388558]]]}},{"type":"Feature","id":"47087:044047    02700","properties":{"id":"47087:044047    02700","parcelId":"044047    02700","countyFips":"47087","countyName":"Jackson","state":"Tennessee","marketIds":["Nashville"],"situsAddress":"SMITH ELLIS RD  220","situsCity":null,"situsZip":null,"jurisdictionCode":null,"ownerName":"BATES TARA ET AL","ownerName2":"BATES HAROLD EUGENE","propertyName":null,"zoningCode":null,"zoningDistrict":null,"jurisdictionPrefix":null,"dorCode":null,"acreage":9.8313,"centroid":[-85.498391,36.379141],"lastSale":{"date":"2023-01-17","price":null,"qualified":null,"vintage":"2023"},"tax":{"marketValue":330900.0,"assessedValue":null,"taxableValue":null,"taxes":null,"vintage":"2023"},"mailingAddress":{"line1":null,"line2":null,"city":null,"state":null,"zip":null},"incomeTract":null,"incomeBlockGroup":null,"nearestRoad":null,"flu":null,"opportunityZone":null,"oz2Eligibility":null,"source":"tn-oir-public-use-47087","appraiserUrl":"https://assessment.cot.tn.gov/TPAD/Parcel/GIS?gislink=044047%20%20%20%2002700"},"geometry":{"type":"MultiPolygon","coordinates":[[[[-85.497191,36.37866],[-85.497527,36.37898],[-85.497655,36.379435],[-85.497648,36.379439],[-85.497675,36.379468],[-85.497905,36.379682],[-85.497939,36.379705],[-85.497977,36.379722],[-85.498018,36.379734],[-85.498061,36.37974],[-85.498105,36.37974],[-85.498148,36.379734],[-85.498189,36.379722],[-85.49823,36.379704],[-85.498304,36.379658],[-85.498733,36.379339],[-85.498781,36.379311],[-85.498833,36.379288],[-85.498888,36.379271],[-85.498945,36.379259],[-85.499004,36.379253],[-85.4993,36.379239],[-85.499396,36.37923],[-85.499491,36.379216],[-85.499633,36.379203],[-85.499776,36.379196],[-85.499775,36.379021],[-85.498453,36.378514],[-85.4981,36.377965],[-85.497843,36.377698],[-85.497646,36.377401],[-85.497331,36.37697],[-85.497191,36.37866]]],[[[-85.498062,36.380086],[-85.498106,36.380369],[-85.498199,36.380255],[-85.499783,36.380053],[-85.499777,36.379279],[-85.499642,36.379285],[-85.499508,36.379297],[-85.499409,36.379312],[-85.499309,36.379321],[-85.499009,36.379336],[-85.498954,36.379342],[-85.4989,36.379355],[-85.498849,36.379374],[-85.498803,36.379399],[-85.49833,36.379748],[-85.498283,36.379775],[-85.498232,36.379797],[-85.498181,36.379812],[-85.498129,36.379821],[-85.498075,36.379823],[-85.498021,36.379819],[-85.497969,36.379808],[-85.49792,36.379791],[-85.497874,36.379768],[-85.497833,36.37974],[-85.497717,36.379633],[-85.498062,36.380086]]]]}},{"type":"Feature","id":"47087:044064    00601","properties":{"id":"47087:044064    00601","parcelId":"044064    00601","countyFips":"47087","countyName":"Jackson","state":"Tennessee","marketIds":["Nashville"],"situsAddress":"SPRING CREEK RD 3310","situsCity":null,"situsZip":null,"jurisdictionCode":null,"ownerName":"MAYFIELD EMERALD I","ownerName2":null,"propertyName":null,"zoningCode":null,"zoningDistrict":null,"jurisdictionPrefix":null,"dorCode":null,"acreage":9.7908,"centroid":[-85.496497,36.314047],"lastSale":{"date":"2022-09-20","price":380000.0,"qualified":null,"vintage":"2023"},"tax":{"marketValue":40200.0,"assessedValue":null,"taxableValue":null,"taxes":null,"vintage":"2023"},"mailingAddress":{"line1":null,"line2":null,"city":null,"state":null,"zip":null},"incomeTract":null,"incomeBlockGroup":null,"nearestRoad":null,"flu":null,"opportunityZone":null,"oz2Eligibility":null,"source":"tn-oir-public-use-47087","appraiserUrl":"https://assessment.cot.tn.gov/TPAD/Parcel/GIS?gislink=044064%20%20%20%2000601"},"geometry":{"type":"MultiPolygon","coordinates":[[[[-85.495539,36.314171],[-85.495708,36.315705],[-85.495851,36.315487],[-85.49635,36.315101],[-85.496365,36.315083],[-85.496357,36.314896],[-85.496544,36.314579],[-85.496646,36.314424],[-85.496706,36.314343],[-85.496802,36.314228],[-85.496897,36.314074],[-85.496913,36.314025],[-85.496953,36.31394],[-85.496908,36.31394],[-85.496885,36.31388],[-85.496916,36.313789],[-85.497045,36.313616],[-85.497087,36.313547],[-85.497104,36.313547],[-85.49713,36.313449],[-85.497246,36.313141],[-85.495913,36.31317],[-85.495929,36.313252],[-85.495933,36.313341],[-85.495922,36.313429],[-85.495898,36.313515],[-85.495863,36.313591],[-85.495539,36.314171]]],[[[-85.496099,36.319249],[-85.496584,36.319676],[-85.496736,36.319376],[-85.496775,36.319053],[-85.496768,36.318667],[-85.497194,36.318564],[-85.49705,36.318379],[-85.496764,36.317959],[-85.496025,36.31715],[-85.495842,36.316915],[-85.496099,36.319249]]]]}},{"type":"Feature","id":"47087:044048    00701","properties":{"id":"47087:044048    00701","parcelId":"044048    00701","countyFips":"47087","countyName":"Jackson","state":"Tennessee","marketIds":["Nashville"],"situsAddress":"DOGTOWN LN 477","situsCity":null,"situsZip":null,"jurisdictionCode":null,"ownerName":"MANN ROBERT ETUX","ownerName2":"SUZANNA MITCHELL","propertyName":null,"zoningCode":null,"zoningDistrict":null,"jurisdictionPrefix":null,"dorCode":null,"acreage":9.7592,"centroid":[-85.499156,36.36117],"lastSale":{"date":"2009-10-06","price":null,"qualified":null,"vintage":"2023"},"tax":{"marketValue":31800.0,"assessedValue":null,"taxableValue":null,"taxes":null,"vintage":"2023"},"mailingAddress":{"line1":null,"line2":null,"city":null,"state":null,"zip":null},"incomeTract":null,"incomeBlockGroup":null,"nearestRoad":null,"flu":null,"opportunityZone":null,"oz2Eligibility":null,"source":"tn-oir-public-use-47087","appraiserUrl":"https://assessment.cot.tn.gov/TPAD/Parcel/GIS?gislink=044048%20%20%20%2000701"},"geometry":{"type":"Polygon","coordinates":[[[-85.498168,36.359416],[-85.498327,36.363017],[-85.498444,36.363012],[-85.49856,36.363001],[-85.498676,36.362986],[-85.49879,36.362967],[-85.499419,36.362823],[-85.499419,36.362787],[-85.499432,36.362765],[-85.499453,36.362748],[-85.499483,36.362737],[-85.499345,36.362309],[-85.49931,36.362167],[-85.499295,36.362069],[-85.499286,36.361975],[-85.499285,36.361884],[-85.49929,36.361741],[-85.499283,36.361646],[-85.499268,36.361573],[-85.499147,36.36111],[-85.499135,36.361033],[-85.499133,36.360947],[-85.499139,36.360881],[-85.499153,36.360812],[-85.499212,36.360634],[-85.499241,36.360515],[-85.499311,36.35998],[-85.499329,36.359879],[-85.49935,36.35979],[-85.499381,36.359688],[-85.499415,36.359596],[-85.499648,36.359043],[-85.49944,36.35908],[-85.499237,36.359126],[-85.499126,36.359144],[-85.498997,36.359187],[-85.498827,36.359237],[-85.498168,36.359416]]]}},{"type":"Feature","id":"47087:044064    00617","properties":{"id":"47087:044064    00617","parcelId":"044064    00617","countyFips":"47087","countyName":"Jackson","state":"Tennessee","marketIds":["Nashville"],"situsAddress":"SPRING CREEK RD","situsCity":null,"situsZip":null,"jurisdictionCode":null,"ownerName":"POWER JAMES","ownerName2":null,"propertyName":null,"zoningCode":null,"zoningDistrict":null,"jurisdictionPrefix":null,"dorCode":null,"acreage":6.8798,"centroid":[-85.497182,36.32046],"lastSale":{"date":"2004-01-27","price":10000.0,"qualified":null,"vintage":"2023"},"tax":{"marketValue":20900.0,"assessedValue":null,"taxableValue":null,"taxes":null,"vintage":"2023"},"mailingAddress":{"line1":null,"line2":null,"city":null,"state":null,"zip":null},"incomeTract":null,"incomeBlockGroup":null,"nearestRoad":null,"flu":null,"opportunityZone":null,"oz2Eligibility":null,"source":"tn-oir-public-use-47087","appraiserUrl":"https://assessment.cot.tn.gov/TPAD/Parcel/GIS?gislink=044064%20%20%20%2000617"},"geometry":{"type":"Polygon","coordinates":[[[-85.496584,36.319676],[-85.49679,36.319851],[-85.496867,36.319903],[-85.49695,36.319948],[-85.497045,36.319988],[-85.497141,36.320019],[-85.497254,36.320043],[-85.497372,36.320058],[-85.497413,36.320072],[-85.497438,36.320092],[-85.497455,36.320116],[-85.497462,36.320142],[-85.49746,36.32017],[-85.497444,36.3202],[-85.497417,36.320225],[-85.497381,36.32024],[-85.497343,36.320244],[-85.496717,36.320147],[-85.49668,36.320148],[-85.496645,36.320161],[-85.496614,36.320188],[-85.496601,36.320223],[-85.496605,36.320252],[-85.496627,36.320298],[-85.496642,36.32034],[-85.496655,36.320419],[-85.496654,36.320463],[-85.496646,36.320512],[-85.496633,36.320554],[-85.496615,36.320595],[-85.496591,36.320635],[-85.496562,36.320672],[-85.496528,36.320706],[-85.496488,36.320739],[-85.496446,36.320767],[-85.496401,36.320791],[-85.496346,36.320813],[-85.496285,36.320831],[-85.496283,36.320836],[-85.496325,36.320841],[-85.496379,36.320839],[-85.496429,36.320828],[-85.496474,36.32081],[-85.496522,36.32078],[-85.496936,36.320447],[-85.49697,36.320432],[-85.497009,36.320425],[-85.497048,36.320428],[-85.497084,36.32044],[-85.497112,36.320457],[-85.49716,36.320502],[-85.497297,36.320642],[-85.497405,36.32077],[-85.497502,36.320902],[-85.497575,36.321014],[-85.497643,36.321132],[-85.497713,36.321278],[-85.497783,36.32145],[-85.497808,36.321494],[-85.497841,36.321538],[-85.4979,36.321597],[-85.497965,36.321643],[-85.498078,36.321703],[-85.498194,36.321754],[-85.498347,36.321608],[-85.498704,36.321388],[-85.498812,36.321202],[-85.498719,36.320995],[-85.498595,36.320845],[-85.498406,36.320667],[-85.4983,36.320546],[-85.4981,36.320286],[-85.497765,36.319771],[-85.497477,36.319275],[-85.497483,36.319231],[-85.497389,36.319082],[-85.496983,36.318615],[-85.496768,36.318667],[-85.496775,36.319053],[-85.496736,36.319376],[-85.496584,36.319676]]]}}]}