{"type":"FeatureCollection","name":"47001--4_37","features":[{"type":"Feature","id":"47001:001006    00502","properties":{"id":"47001:001006    00502","parcelId":"001006    00502","countyFips":"47001","countyName":"Anderson","state":"Tennessee","marketIds":["Knoxville"],"situsAddress":"RIDGE CIRLCE RD 324","situsCity":null,"situsZip":null,"jurisdictionCode":null,"ownerName":"LASHLEY RAYMOND T","ownerName2":"AND WIFE TONYA WELSH LASHLEY","propertyName":null,"zoningCode":null,"zoningDistrict":null,"jurisdictionPrefix":null,"dorCode":null,"acreage":15.2947,"centroid":[-83.997882,36.255343],"lastSale":{"date":"2018-08-31","price":62340.0,"qualified":null,"vintage":"2023"},"tax":{"marketValue":110300.0,"assessedValue":null,"taxableValue":null,"taxes":null,"vintage":"2023"},"mailingAddress":{"line1":null,"line2":null,"city":null,"state":null,"zip":null},"incomeTract":null,"incomeBlockGroup":null,"nearestRoad":null,"flu":null,"opportunityZone":null,"oz2Eligibility":null,"source":"tn-oir-public-use-47001","appraiserUrl":"https://assessment.cot.tn.gov/TPAD/Parcel/GIS?gislink=001006%20%20%20%2000502"},"geometry":{"type":"Polygon","coordinates":[[[-83.997513,36.251886],[-83.996739,36.25237],[-83.996154,36.253095],[-83.996659,36.253202],[-83.997043,36.253832],[-83.997087,36.254385],[-83.997776,36.255713],[-83.997873,36.256254],[-84.000678,36.25563],[-84.001546,36.255428],[-84.001418,36.25489],[-84.001749,36.25481],[-84.001777,36.254745],[-84.00079,36.254439],[-83.997219,36.254359],[-83.997136,36.25373],[-83.996743,36.253077],[-83.996405,36.252997],[-83.996842,36.252435],[-83.997671,36.251945],[-83.997596,36.251914],[-83.997513,36.251886]]]}},{"type":"Feature","id":"47001:001006    00505","properties":{"id":"47001:001006    00505","parcelId":"001006    00505","countyFips":"47001","countyName":"Anderson","state":"Tennessee","marketIds":["Knoxville"],"situsAddress":"RIDGE CIRCLE RD 328","situsCity":null,"situsZip":null,"jurisdictionCode":null,"ownerName":"CARPENTER JACOB BENJAMIN","ownerName2":"AND WIFE CRYSTAL EVE CARPENTER","propertyName":null,"zoningCode":null,"zoningDistrict":null,"jurisdictionPrefix":null,"dorCode":null,"acreage":14.1131,"centroid":[-83.998367,36.256873],"lastSale":{"date":"2021-05-17","price":330000.0,"qualified":null,"vintage":"2023"},"tax":{"marketValue":192200.0,"assessedValue":null,"taxableValue":null,"taxes":null,"vintage":"2023"},"mailingAddress":{"line1":null,"line2":null,"city":null,"state":null,"zip":null},"incomeTract":null,"incomeBlockGroup":null,"nearestRoad":null,"flu":null,"opportunityZone":null,"oz2Eligibility":null,"source":"tn-oir-public-use-47001","appraiserUrl":"https://assessment.cot.tn.gov/TPAD/Parcel/GIS?gislink=001006%20%20%20%2000505"},"geometry":{"type":"Polygon","coordinates":[[[-83.997415,36.25186],[-83.996913,36.252142],[-83.996672,36.252318],[-83.996135,36.252914],[-83.995999,36.253132],[-83.996591,36.253257],[-83.996951,36.253847],[-83.996994,36.254397],[-83.997685,36.255728],[-83.997781,36.256265],[-83.998037,36.257285],[-83.998727,36.257958],[-83.999288,36.257791],[-83.999774,36.257681],[-84.000156,36.257535],[-84.000689,36.257376],[-84.000963,36.257205],[-84.001002,36.257143],[-84.000972,36.256443],[-84.000403,36.25655],[-84.00043,36.256401],[-84.000545,36.256146],[-84.000735,36.255914],[-84.001323,36.255573],[-84.002474,36.255254],[-84.002791,36.255337],[-84.003067,36.25545],[-84.003498,36.255778],[-84.00388,36.255776],[-84.003777,36.255717],[-84.003526,36.255614],[-84.003483,36.255653],[-84.003042,36.255361],[-84.00274,36.255257],[-84.002385,36.255186],[-84.001546,36.255428],[-84.000678,36.25563],[-83.997873,36.256254],[-83.997776,36.255713],[-83.997087,36.254385],[-83.997043,36.253832],[-83.996659,36.253202],[-83.996154,36.253095],[-83.996739,36.25237],[-83.997513,36.251886],[-83.997415,36.25186]]]}},{"type":"Feature","id":"47001:001006    00802","properties":{"id":"47001:001006    00802","parcelId":"001006    00802","countyFips":"47001","countyName":"Anderson","state":"Tennessee","marketIds":["Knoxville"],"situsAddress":"MCAFEE LN","situsCity":null,"situsZip":null,"jurisdictionCode":null,"ownerName":"COOPER BRIAN ROBERT","ownerName2":"AND WIFE MARY ANN COOPER","propertyName":null,"zoningCode":null,"zoningDistrict":null,"jurisdictionPrefix":null,"dorCode":null,"acreage":5.8448,"centroid":[-83.998827,36.251574],"lastSale":{"date":null,"price":null,"qualified":null},"tax":{"marketValue":null,"assessedValue":null,"taxableValue":null,"taxes":null},"mailingAddress":{"line1":null,"line2":null,"city":null,"state":null,"zip":null},"incomeTract":null,"incomeBlockGroup":null,"nearestRoad":null,"flu":null,"opportunityZone":null,"oz2Eligibility":null,"source":"tn-oir-public-use-47001","appraiserUrl":"https://assessment.cot.tn.gov/TPAD/Parcel/GIS?gislink=001006%20%20%20%2000802"},"geometry":{"type":"Polygon","coordinates":[[[-83.998808,36.252368],[-83.99889,36.252399],[-83.998978,36.252425],[-83.999067,36.252444],[-83.999161,36.252458],[-83.999025,36.249181],[-83.998294,36.249115],[-83.99839,36.252199],[-83.998808,36.252368]]]}},{"type":"Feature","id":"47001:001006    00800","properties":{"id":"47001:001006    00800","parcelId":"001006    00800","countyFips":"47001","countyName":"Anderson","state":"Tennessee","marketIds":["Knoxville"],"situsAddress":"MCAFEE LN","situsCity":null,"situsZip":null,"jurisdictionCode":null,"ownerName":"COOPER BRIAN ROBERT","ownerName2":"AND WIFE MARY ANN COOPER","propertyName":null,"zoningCode":null,"zoningDistrict":null,"jurisdictionPrefix":null,"dorCode":null,"acreage":5.6334,"centroid":[-83.999627,36.25134],"lastSale":{"date":"1988-10-20","price":null,"qualified":null,"vintage":"2023"},"tax":{"marketValue":166100.0,"assessedValue":null,"taxableValue":null,"taxes":null,"vintage":"2023"},"mailingAddress":{"line1":null,"line2":null,"city":null,"state":null,"zip":null},"incomeTract":null,"incomeBlockGroup":null,"nearestRoad":null,"flu":null,"opportunityZone":null,"oz2Eligibility":null,"source":"tn-oir-public-use-47001","appraiserUrl":"https://assessment.cot.tn.gov/TPAD/Parcel/GIS?gislink=001006%20%20%20%2000800"},"geometry":{"type":"Polygon","coordinates":[[[-83.999161,36.252458],[-83.999553,36.252488],[-83.999686,36.252494],[-83.999875,36.25249],[-84.000063,36.252474],[-83.999714,36.251068],[-83.999622,36.250148],[-83.999948,36.249263],[-83.999025,36.249181],[-83.999161,36.252458]]]}}]}