{"type":"FeatureCollection","name":"47001--6_35","features":[{"type":"Feature","id":"47001:001104E B 00100","properties":{"id":"47001:001104E B 00100","parcelId":"001104E B 00100","countyFips":"47001","countyName":"Anderson","state":"Tennessee","marketIds":["Knoxville"],"situsAddress":"OAK RIDGE TURNPIKE 2291","situsCity":null,"situsZip":null,"jurisdictionCode":null,"ownerName":"POOLE PATRICIA SUZANNE SHANNON","ownerName2":"AND OTHERS","propertyName":null,"zoningCode":null,"zoningDistrict":null,"jurisdictionPrefix":null,"dorCode":null,"acreage":114.806,"centroid":[-84.30435,35.99486],"lastSale":{"date":"2014-04-16","price":null,"qualified":null,"vintage":"2023"},"tax":{"marketValue":383800.0,"assessedValue":null,"taxableValue":null,"taxes":null,"vintage":"2023"},"mailingAddress":{"line1":null,"line2":null,"city":null,"state":null,"zip":null},"incomeTract":null,"incomeBlockGroup":null,"nearestRoad":null,"flu":null,"opportunityZone":null,"oz2Eligibility":null,"source":"tn-oir-public-use-47001","appraiserUrl":"https://assessment.cot.tn.gov/TPAD/Parcel/GIS?gislink=001104E%20B%2000100"},"geometry":{"type":"Polygon","coordinates":[[[-84.303218,35.998362],[-84.303478,35.99867],[-84.303728,35.998469],[-84.303951,35.99827],[-84.30417,35.998052],[-84.304393,35.997806],[-84.303814,35.997473],[-84.304229,35.997006],[-84.304809,35.997339],[-84.306035,35.995947],[-84.306149,35.995828],[-84.306267,35.995712],[-84.30639,35.995599],[-84.306522,35.995485],[-84.306699,35.995344],[-84.306893,35.995202],[-84.30709,35.99507],[-84.307301,35.994941],[-84.307531,35.994814],[-84.307759,35.994698],[-84.307988,35.994591],[-84.308235,35.994487],[-84.303731,35.989444],[-84.302603,35.989825],[-84.301604,35.990175],[-84.301066,35.990473],[-84.300098,35.991123],[-84.299064,35.991675],[-84.297868,35.991952],[-84.297822,35.991971],[-84.303218,35.998362]]]}},{"type":"Feature","id":"47001:001105K A 00100","properties":{"id":"47001:001105K A 00100","parcelId":"001105K A 00100","countyFips":"47001","countyName":"Anderson","state":"Tennessee","marketIds":["Knoxville"],"situsAddress":"TUSKEGEE DR 795","situsCity":null,"situsZip":null,"jurisdictionCode":null,"ownerName":"GROVES PARK DEVELOPMENT LLC","ownerName2":null,"propertyName":null,"zoningCode":null,"zoningDistrict":null,"jurisdictionPrefix":null,"dorCode":null,"acreage":82.2519,"centroid":[-84.271347,35.991733],"lastSale":{"date":"2021-09-27","price":2050000.0,"qualified":null,"vintage":"2023"},"tax":{"marketValue":132500.0,"assessedValue":null,"taxableValue":null,"taxes":null,"vintage":"2023"},"mailingAddress":{"line1":null,"line2":null,"city":null,"state":null,"zip":null},"incomeTract":null,"incomeBlockGroup":null,"nearestRoad":null,"flu":null,"opportunityZone":null,"oz2Eligibility":null,"source":"tn-oir-public-use-47001","appraiserUrl":"https://assessment.cot.tn.gov/TPAD/Parcel/GIS?gislink=001105K%20A%2000100"},"geometry":{"type":"MultiPolygon","coordinates":[[[[-84.271135,35.993469],[-84.271106,35.993484],[-84.271153,35.993543],[-84.271571,35.994003],[-84.271942,35.993783],[-84.272315,35.993553],[-84.273532,35.992767],[-84.274317,35.992273],[-84.274459,35.992189],[-84.274594,35.992117],[-84.274732,35.992048],[-84.274884,35.991978],[-84.273942,35.990767],[-84.274395,35.990293],[-84.274302,35.99005],[-84.274865,35.989667],[-84.273013,35.987618],[-84.269546,35.989261],[-84.269766,35.989591],[-84.269904,35.989526],[-84.270211,35.989947],[-84.270428,35.989845],[-84.270537,35.989994],[-84.270676,35.9902],[-84.27076,35.990344],[-84.270797,35.990417],[-84.270859,35.990566],[-84.270916,35.990718],[-84.271012,35.990997],[-84.271116,35.990972],[-84.271162,35.991107],[-84.270984,35.991147],[-84.270999,35.991146],[-84.271018,35.991153],[-84.271032,35.991173],[-84.271109,35.9914],[-84.271107,35.99142],[-84.271094,35.991437],[-84.271072,35.991447],[-84.270226,35.991627],[-84.270209,35.991628],[-84.270185,35.991621],[-84.270173,35.991611],[-84.270165,35.991598],[-84.2702,35.991743],[-84.270201,35.991724],[-84.270209,35.991712],[-84.270221,35.991702],[-84.270236,35.991696],[-84.270517,35.991636],[-84.270541,35.991639],[-84.270561,35.991652],[-84.270572,35.99167],[-84.270648,35.99202],[-84.270711,35.992226],[-84.270753,35.99233],[-84.2708,35.992434],[-84.270842,35.992514],[-84.270925,35.992653],[-84.270998,35.99276],[-84.271002,35.992775],[-84.271001,35.992791],[-84.270993,35.992806],[-84.270981,35.992819],[-84.271045,35.992775],[-84.271145,35.99269],[-84.271277,35.992784],[-84.271177,35.99287],[-84.271493,35.993279],[-84.271564,35.993243],[-84.271617,35.993313],[-84.27141,35.993414],[-84.271363,35.993352],[-84.271135,35.993469]]],[[[-84.269091,35.994954],[-84.269225,35.995119],[-84.270031,35.994711],[-84.271367,35.994111],[-84.271003,35.993715],[-84.2709,35.993588],[-84.270537,35.993775],[-84.270344,35.993677],[-84.270323,35.993703],[-84.270297,35.993726],[-84.270266,35.993745],[-84.270232,35.99376],[-84.270386,35.993996],[-84.270198,35.99407],[-84.270087,35.994107],[-84.269973,35.994138],[-84.269985,35.994163],[-84.269409,35.99444],[-84.2694,35.994383],[-84.26912,35.994411],[-84.269074,35.994095],[-84.269096,35.994091],[-84.269073,35.994056],[-84.269063,35.994012],[-84.269072,35.993967],[-84.269083,35.993946],[-84.269109,35.993916],[-84.26909,35.993628],[-84.269201,35.993628],[-84.269273,35.993624],[-84.269494,35.993599],[-84.269637,35.99357],[-84.269714,35.993549],[-84.269812,35.993785],[-84.269861,35.993772],[-84.269761,35.993537],[-84.269839,35.993513],[-84.269973,35.993464],[-84.270141,35.993387],[-84.270009,35.993218],[-84.269974,35.993184],[-84.269846,35.993084],[-84.269794,35.993033],[-84.269749,35.992978],[-84.269673,35.992848],[-84.269597,35.992689],[-84.269527,35.99252],[-84.269475,35.992419],[-84.269405,35.992306],[-84.26901,35.991755],[-84.268998,35.991726],[-84.268992,35.991695],[-84.268993,35.991665],[-84.268999,35.991635],[-84.269012,35.991606],[-84.26903,35.991582],[-84.269059,35.991552],[-84.269095,35.991526],[-84.269144,35.991501],[-84.269124,35.991502],[-84.269105,35.991496],[-84.269089,35.991486],[-84.269078,35.991472],[-84.269054,35.991388],[-84.269009,35.991263],[-84.268941,35.991122],[-84.268818,35.991179],[-84.268731,35.991058],[-84.269009,35.990921],[-84.268793,35.990622],[-84.26881,35.990614],[-84.268594,35.990314],[-84.268587,35.990321],[-84.268576,35.990324],[-84.268561,35.990322],[-84.268553,35.990315],[-84.268478,35.990204],[-84.268273,35.989921],[-84.267535,35.990311],[-84.26436,35.99134],[-84.261716,35.992012],[-84.260836,35.992478],[-84.260844,35.992738],[-84.261706,35.993027],[-84.262515,35.992527],[-84.263185,35.99227],[-84.264324,35.992071],[-84.26553,35.991491],[-84.265882,35.991894],[-84.265975,35.991995],[-84.265773,35.992119],[-84.265754,35.992141],[-84.265752,35.992157],[-84.265757,35.992172],[-84.265854,35.992311],[-84.266041,35.992234],[-84.266235,35.992172],[-84.266435,35.992123],[-84.26664,35.992088],[-84.266722,35.99269],[-84.266805,35.992636],[-84.267321,35.992494],[-84.267695,35.993177],[-84.267295,35.99372],[-84.267411,35.993725],[-84.267528,35.99374],[-84.267674,35.99377],[-84.267814,35.993807],[-84.26795,35.993854],[-84.26807,35.993903],[-84.268199,35.993967],[-84.268301,35.994027],[-84.268376,35.994085],[-84.268439,35.99415],[-84.269091,35.994954]]]]}},{"type":"Feature","id":"47001:001104N A 00400","properties":{"id":"47001:001104N A 00400","parcelId":"001104N A 00400","countyFips":"47001","countyName":"Anderson","state":"Tennessee","marketIds":["Knoxville"],"situsAddress":"OAK RIDGE TURNPIKE","situsCity":null,"situsZip":null,"jurisdictionCode":null,"ownerName":"OAK RIDGE CITY OF","ownerName2":"WEST PLANT-SEWER","propertyName":null,"zoningCode":null,"zoningDistrict":null,"jurisdictionPrefix":null,"dorCode":null,"acreage":65.3897,"centroid":[-84.315727,35.991242],"lastSale":{"date":"2005-08-19","price":null,"qualified":null,"vintage":"2023"},"tax":{"marketValue":100.0,"assessedValue":null,"taxableValue":null,"taxes":null,"vintage":"2023"},"mailingAddress":{"line1":null,"line2":null,"city":null,"state":null,"zip":null},"incomeTract":null,"incomeBlockGroup":null,"nearestRoad":null,"flu":null,"opportunityZone":null,"oz2Eligibility":null,"source":"tn-oir-public-use-47001","appraiserUrl":"https://assessment.cot.tn.gov/TPAD/Parcel/GIS?gislink=001104N%20A%2000400"},"geometry":{"type":"MultiPolygon","coordinates":[[[[-84.315681,35.990748],[-84.315523,35.990832],[-84.31549,35.990858],[-84.315459,35.990889],[-84.31543,35.990937],[-84.31541,35.990991],[-84.315401,35.991047],[-84.315402,35.991102],[-84.315415,35.991157],[-84.315436,35.991209],[-84.31578,35.991802],[-84.315817,35.991884],[-84.315846,35.991974],[-84.315866,35.992076],[-84.315872,35.99218],[-84.315846,35.992794],[-84.315849,35.992906],[-84.315868,35.993017],[-84.315939,35.993276],[-84.315956,35.993298],[-84.315984,35.993308],[-84.316004,35.993308],[-84.316213,35.993266],[-84.316566,35.993188],[-84.316832,35.993121],[-84.317087,35.993049],[-84.317342,35.992968],[-84.317591,35.99288],[-84.317838,35.992784],[-84.318081,35.992681],[-84.318852,35.992324],[-84.319114,35.99219],[-84.319373,35.992047],[-84.319643,35.991884],[-84.319912,35.991708],[-84.320175,35.991521],[-84.320428,35.991325],[-84.318949,35.989009],[-84.318519,35.988233],[-84.31837,35.987991],[-84.3159,35.988012],[-84.312422,35.989847],[-84.312818,35.990328],[-84.312887,35.990385],[-84.313194,35.990675],[-84.313278,35.990742],[-84.313367,35.990796],[-84.313463,35.99084],[-84.313569,35.990876],[-84.313646,35.990894],[-84.313732,35.990908],[-84.313809,35.990914],[-84.31389,35.990914],[-84.31397,35.990909],[-84.31405,35.990898],[-84.314133,35.99088],[-84.314209,35.990856],[-84.314326,35.990806],[-84.31443,35.990744],[-84.314565,35.99064],[-84.314758,35.99047],[-84.314809,35.990434],[-84.314857,35.990409],[-84.314912,35.990388],[-84.314967,35.990375],[-84.315024,35.990369],[-84.315095,35.990369],[-84.315164,35.99038],[-84.315234,35.990401],[-84.315295,35.99043],[-84.315355,35.990471],[-84.315414,35.990522],[-84.315533,35.990662],[-84.315597,35.990624],[-84.315681,35.990748]]],[[[-84.314906,35.992875],[-84.315353,35.993417],[-84.315734,35.993357],[-84.315753,35.99335],[-84.315766,35.993338],[-84.315774,35.993323],[-84.315775,35.993308],[-84.3157,35.993033],[-84.315686,35.992957],[-84.315678,35.992879],[-84.315677,35.992789],[-84.315703,35.992186],[-84.315699,35.992101],[-84.315685,35.99202],[-84.315656,35.991927],[-84.315614,35.991835],[-84.315276,35.991252],[-84.315251,35.991191],[-84.315236,35.991126],[-84.315231,35.991072],[-84.315234,35.991019],[-84.315244,35.990966],[-84.315262,35.990911],[-84.315287,35.99086],[-84.315315,35.990818],[-84.315353,35.990776],[-84.315394,35.990741],[-84.315296,35.990623],[-84.315228,35.990563],[-84.31519,35.990538],[-84.315154,35.990522],[-84.315111,35.990511],[-84.315068,35.990505],[-84.315023,35.990507],[-84.31498,35.990515],[-84.314939,35.990529],[-84.314902,35.990549],[-84.31474,35.99069],[-84.314637,35.990775],[-84.31454,35.990848],[-84.314453,35.990903],[-84.314385,35.990938],[-84.314312,35.990969],[-84.314238,35.990995],[-84.314156,35.991018],[-84.314049,35.991038],[-84.313936,35.99105],[-84.313823,35.991052],[-84.313713,35.991044],[-84.313601,35.991027],[-84.313496,35.991001],[-84.313391,35.990965],[-84.313296,35.990922],[-84.314906,35.992875]]]]}},{"type":"Feature","id":"47001:001105D A 02300","properties":{"id":"47001:001105D A 02300","parcelId":"001105D A 02300","countyFips":"47001","countyName":"Anderson","state":"Tennessee","marketIds":["Knoxville"],"situsAddress":"WOODBURY LN","situsCity":null,"situsZip":null,"jurisdictionCode":null,"ownerName":"MONDAY ROBERT W","ownerName2":"C/O BOB MONDAY","propertyName":null,"zoningCode":null,"zoningDistrict":null,"jurisdictionPrefix":null,"dorCode":null,"acreage":65.1608,"centroid":[-84.250948,35.997824],"lastSale":{"date":"2011-05-27","price":null,"qualified":null,"vintage":"2023"},"tax":{"marketValue":75400.0,"assessedValue":null,"taxableValue":null,"taxes":null,"vintage":"2023"},"mailingAddress":{"line1":null,"line2":null,"city":null,"state":null,"zip":null},"incomeTract":null,"incomeBlockGroup":null,"nearestRoad":null,"flu":null,"opportunityZone":null,"oz2Eligibility":null,"source":"tn-oir-public-use-47001","appraiserUrl":"https://assessment.cot.tn.gov/TPAD/Parcel/GIS?gislink=001105D%20A%2002300"},"geometry":{"type":"Polygon","coordinates":[[[-84.250226,35.997669],[-84.246968,35.99939],[-84.245725,36.000023],[-84.244947,36.000313],[-84.246449,36.001236],[-84.246711,36.001274],[-84.246972,36.001423],[-84.24853,36.001769],[-84.253064,36.001724],[-84.250751,36.000761],[-84.251666,35.997926],[-84.253501,35.996904],[-84.256937,35.999204],[-84.258379,35.998341],[-84.258294,35.998173],[-84.258218,35.998051],[-84.258122,35.997934],[-84.25801,35.997828],[-84.257918,35.997757],[-84.257817,35.997692],[-84.257397,35.997468],[-84.257225,35.997369],[-84.25707,35.997274],[-84.256991,35.997216],[-84.256916,35.997149],[-84.256849,35.997078],[-84.256791,35.997002],[-84.256037,35.997076],[-84.256001,35.996826],[-84.255067,35.995519],[-84.253316,35.996438],[-84.250226,35.997669]]]}},{"type":"Feature","id":"47001:001105    00700","properties":{"id":"47001:001105    00700","parcelId":"001105    00700","countyFips":"47001","countyName":"Anderson","state":"Tennessee","marketIds":["Knoxville"],"situsAddress":"TUSKEGEE DR","situsCity":null,"situsZip":null,"jurisdictionCode":null,"ownerName":"OAK RIDGE CITY OF","ownerName2":"GREENBELT","propertyName":null,"zoningCode":null,"zoningDistrict":null,"jurisdictionPrefix":null,"dorCode":null,"acreage":62.5961,"centroid":[-84.277391,35.989769],"lastSale":{"date":null,"price":null,"qualified":null},"tax":{"marketValue":null,"assessedValue":null,"taxableValue":null,"taxes":null},"mailingAddress":{"line1":null,"line2":null,"city":null,"state":null,"zip":null},"incomeTract":null,"incomeBlockGroup":null,"nearestRoad":null,"flu":null,"opportunityZone":null,"oz2Eligibility":null,"source":"tn-oir-public-use-47001","appraiserUrl":"https://assessment.cot.tn.gov/TPAD/Parcel/GIS?gislink=001105%20%20%20%2000700"},"geometry":{"type":"Polygon","coordinates":[[[-84.274993,35.989809],[-84.276399,35.991364],[-84.277199,35.991041],[-84.277399,35.990968],[-84.277566,35.990916],[-84.277727,35.990872],[-84.277891,35.990835],[-84.278069,35.990801],[-84.278282,35.990771],[-84.278609,35.990739],[-84.281313,35.990514],[-84.281762,35.990473],[-84.277902,35.985808],[-84.276952,35.986243],[-84.273188,35.987537],[-84.273013,35.987618],[-84.274993,35.989809]]]}},{"type":"Feature","id":"47001:001104N A 00200","properties":{"id":"47001:001104N A 00200","parcelId":"001104N A 00200","countyFips":"47001","countyName":"Anderson","state":"Tennessee","marketIds":["Knoxville"],"situsAddress":"HERMITAGE BLVD 222","situsCity":null,"situsZip":null,"jurisdictionCode":null,"ownerName":"PENNINGTON SEAN","ownerName2":"AND WIFE SARA PENNINGTON","propertyName":null,"zoningCode":null,"zoningDistrict":null,"jurisdictionPrefix":null,"dorCode":null,"acreage":31.2402,"centroid":[-84.307054,35.991547],"lastSale":{"date":"2022-01-24","price":null,"qualified":null,"vintage":"2023"},"tax":{"marketValue":32200.0,"assessedValue":null,"taxableValue":null,"taxes":null,"vintage":"2023"},"mailingAddress":{"line1":null,"line2":null,"city":null,"state":null,"zip":null},"incomeTract":null,"incomeBlockGroup":null,"nearestRoad":null,"flu":null,"opportunityZone":null,"oz2Eligibility":null,"source":"tn-oir-public-use-47001","appraiserUrl":"https://assessment.cot.tn.gov/TPAD/Parcel/GIS?gislink=001104N%20A%2000200"},"geometry":{"type":"Polygon","coordinates":[[[-84.30726,35.993396],[-84.308643,35.99292],[-84.309451,35.993892],[-84.30963,35.993836],[-84.309741,35.993758],[-84.309791,35.993698],[-84.309799,35.993597],[-84.309756,35.993458],[-84.309559,35.993303],[-84.309401,35.993146],[-84.309278,35.993061],[-84.309063,35.992816],[-84.308997,35.992631],[-84.309024,35.992509],[-84.309161,35.992386],[-84.309406,35.992219],[-84.309479,35.992176],[-84.309191,35.991568],[-84.308964,35.991323],[-84.30849,35.991018],[-84.309112,35.990618],[-84.308903,35.990403],[-84.309073,35.990293],[-84.309206,35.990213],[-84.3091,35.990106],[-84.309048,35.99014],[-84.308778,35.990339],[-84.308238,35.989871],[-84.308621,35.989697],[-84.308667,35.989689],[-84.308713,35.989686],[-84.308759,35.989689],[-84.308804,35.989697],[-84.308847,35.989712],[-84.308887,35.989731],[-84.309079,35.989855],[-84.309196,35.989948],[-84.30933,35.989863],[-84.309241,35.989791],[-84.309144,35.989723],[-84.309397,35.989434],[-84.30919,35.989202],[-84.30431,35.990093],[-84.30726,35.993396]]]}},{"type":"Feature","id":"47001:001105    00500","properties":{"id":"47001:001105    00500","parcelId":"001105    00500","countyFips":"47001","countyName":"Anderson","state":"Tennessee","marketIds":["Knoxville"],"situsAddress":"TUSKEGEE DR","situsCity":null,"situsZip":null,"jurisdictionCode":null,"ownerName":"OAK RIDGE CITY OF","ownerName2":"SANITARY LAND FILL","propertyName":null,"zoningCode":null,"zoningDistrict":null,"jurisdictionPrefix":null,"dorCode":null,"acreage":25.9231,"centroid":[-84.278889,35.991712],"lastSale":{"date":null,"price":null,"qualified":null},"tax":{"marketValue":null,"assessedValue":null,"taxableValue":null,"taxes":null},"mailingAddress":{"line1":null,"line2":null,"city":null,"state":null,"zip":null},"incomeTract":null,"incomeBlockGroup":null,"nearestRoad":null,"flu":null,"opportunityZone":null,"oz2Eligibility":null,"source":"tn-oir-public-use-47001","appraiserUrl":"https://assessment.cot.tn.gov/TPAD/Parcel/GIS?gislink=001105%20%20%20%2000500"},"geometry":{"type":"Polygon","coordinates":[[[-84.27597,35.991844],[-84.278257,35.992659],[-84.278541,35.994427],[-84.279591,35.993801],[-84.28237,35.991207],[-84.281973,35.990728],[-84.2814,35.990783],[-84.278486,35.991027],[-84.278238,35.991055],[-84.278019,35.991092],[-84.2778,35.991141],[-84.277574,35.991207],[-84.277339,35.991291],[-84.27597,35.991844]]]}},{"type":"Feature","id":"47001:001104    00300","properties":{"id":"47001:001104    00300","parcelId":"001104    00300","countyFips":"47001","countyName":"Anderson","state":"Tennessee","marketIds":["Knoxville"],"situsAddress":"TUSKEGEE DR 1201","situsCity":null,"situsZip":null,"jurisdictionCode":null,"ownerName":"SHEDDAN SAMUEL A","ownerName2":"AND WIFE ANN MARIE SHEDDAN","propertyName":null,"zoningCode":null,"zoningDistrict":null,"jurisdictionPrefix":null,"dorCode":null,"acreage":25.8493,"centroid":[-84.298191,35.990595],"lastSale":{"date":"2023-03-13","price":null,"qualified":null,"vintage":"2023"},"tax":{"marketValue":534000.0,"assessedValue":null,"taxableValue":null,"taxes":null,"vintage":"2023"},"mailingAddress":{"line1":null,"line2":null,"city":null,"state":null,"zip":null},"incomeTract":null,"incomeBlockGroup":null,"nearestRoad":null,"flu":null,"opportunityZone":null,"oz2Eligibility":null,"source":"tn-oir-public-use-47001","appraiserUrl":"https://assessment.cot.tn.gov/TPAD/Parcel/GIS?gislink=001104%20%20%20%2000300"},"geometry":{"type":"Polygon","coordinates":[[[-84.295697,35.990145],[-84.29569,35.99015],[-84.29733,35.992119],[-84.297822,35.991971],[-84.297868,35.991952],[-84.299064,35.991675],[-84.300098,35.991123],[-84.29902,35.989581],[-84.30023,35.989372],[-84.299087,35.987867],[-84.295697,35.990145]]]}},{"type":"Feature","id":"47001:001105    00600","properties":{"id":"47001:001105    00600","parcelId":"001105    00600","countyFips":"47001","countyName":"Anderson","state":"Tennessee","marketIds":["Knoxville"],"situsAddress":"TUSKEGEE DR","situsCity":null,"situsZip":null,"jurisdictionCode":null,"ownerName":"OAK RIDGE CITY OF","ownerName2":null,"propertyName":null,"zoningCode":null,"zoningDistrict":null,"jurisdictionPrefix":null,"dorCode":null,"acreage":24.4105,"centroid":[-84.275783,35.993323],"lastSale":{"date":null,"price":null,"qualified":null},"tax":{"marketValue":null,"assessedValue":null,"taxableValue":null,"taxes":null},"mailingAddress":{"line1":null,"line2":null,"city":null,"state":null,"zip":null},"incomeTract":null,"incomeBlockGroup":null,"nearestRoad":null,"flu":null,"opportunityZone":null,"oz2Eligibility":null,"source":"tn-oir-public-use-47001","appraiserUrl":"https://assessment.cot.tn.gov/TPAD/Parcel/GIS?gislink=001105%20%20%20%2000600"},"geometry":{"type":"Polygon","coordinates":[[[-84.273954,35.992847],[-84.275585,35.994435],[-84.275845,35.994754],[-84.276185,35.995063],[-84.276669,35.995543],[-84.278541,35.994427],[-84.278257,35.992659],[-84.27597,35.991844],[-84.275114,35.99219],[-84.274976,35.99225],[-84.274843,35.992314],[-84.274691,35.992393],[-84.274543,35.992478],[-84.273954,35.992847]]]}},{"type":"Feature","id":"47001:001104M A 00200","properties":{"id":"47001:001104M A 00200","parcelId":"001104M A 00200","countyFips":"47001","countyName":"Anderson","state":"Tennessee","marketIds":["Knoxville"],"situsAddress":"TUSKEGEE DR 1369","situsCity":null,"situsZip":null,"jurisdictionCode":null,"ownerName":"REDMOND HAROLD B","ownerName2":"AND WIFE HELEN M","propertyName":null,"zoningCode":null,"zoningDistrict":null,"jurisdictionPrefix":null,"dorCode":null,"acreage":22.0823,"centroid":[-84.301404,35.989123],"lastSale":{"date":"2000-10-27","price":null,"qualified":null,"vintage":"2023"},"tax":{"marketValue":389100.0,"assessedValue":null,"taxableValue":null,"taxes":null,"vintage":"2023"},"mailingAddress":{"line1":null,"line2":null,"city":null,"state":null,"zip":null},"incomeTract":null,"incomeBlockGroup":null,"nearestRoad":null,"flu":null,"opportunityZone":null,"oz2Eligibility":null,"source":"tn-oir-public-use-47001","appraiserUrl":"https://assessment.cot.tn.gov/TPAD/Parcel/GIS?gislink=001104M%20A%2000200"},"geometry":{"type":"Polygon","coordinates":[[[-84.30023,35.989372],[-84.301066,35.990473],[-84.301604,35.990175],[-84.302603,35.989825],[-84.303731,35.989444],[-84.30151,35.986703],[-84.299087,35.987867],[-84.30023,35.989372]]]}},{"type":"Feature","id":"47001:001105    00400","properties":{"id":"47001:001105    00400","parcelId":"001105    00400","countyFips":"47001","countyName":"Anderson","state":"Tennessee","marketIds":["Knoxville"],"situsAddress":"TUSKEGEE DR 1001","situsCity":null,"situsZip":null,"jurisdictionCode":null,"ownerName":"HUNTER SCOTT R","ownerName2":null,"propertyName":null,"zoningCode":null,"zoningDistrict":null,"jurisdictionPrefix":null,"dorCode":null,"acreage":18.6807,"centroid":[-84.291314,35.989968],"lastSale":{"date":"2016-07-02","price":null,"qualified":null,"vintage":"2023"},"tax":{"marketValue":293600.0,"assessedValue":null,"taxableValue":null,"taxes":null,"vintage":"2023"},"mailingAddress":{"line1":null,"line2":null,"city":null,"state":null,"zip":null},"incomeTract":null,"incomeBlockGroup":null,"nearestRoad":null,"flu":null,"opportunityZone":null,"oz2Eligibility":null,"source":"tn-oir-public-use-47001","appraiserUrl":"https://assessment.cot.tn.gov/TPAD/Parcel/GIS?gislink=001105%20%20%20%2000400"},"geometry":{"type":"Polygon","coordinates":[[[-84.289797,35.989605],[-84.289848,35.989667],[-84.289963,35.98977],[-84.290046,35.989855],[-84.29012,35.989946],[-84.290185,35.990042],[-84.290258,35.990179],[-84.290369,35.990455],[-84.290468,35.990673],[-84.290581,35.990893],[-84.290659,35.991019],[-84.290692,35.991061],[-84.290735,35.991097],[-84.29078,35.991122],[-84.290851,35.991149],[-84.292314,35.990176],[-84.293351,35.98933],[-84.294032,35.988915],[-84.294608,35.988634],[-84.294374,35.988371],[-84.293563,35.987365],[-84.289797,35.989605]]]}},{"type":"Feature","id":"47001:001105H A 00100","properties":{"id":"47001:001105H A 00100","parcelId":"001105H A 00100","countyFips":"47001","countyName":"Anderson","state":"Tennessee","marketIds":["Knoxville"],"situsAddress":"OAK RIDGE TURNPIKE","situsCity":null,"situsZip":null,"jurisdictionCode":null,"ownerName":"GLASS DIANE STRUM","ownerName2":"AND MICHELLE STRUM","propertyName":null,"zoningCode":null,"zoningDistrict":null,"jurisdictionPrefix":null,"dorCode":null,"acreage":18.1139,"centroid":[-84.292822,35.999992],"lastSale":{"date":"2022-04-28","price":null,"qualified":null,"vintage":"2023"},"tax":{"marketValue":93800.0,"assessedValue":null,"taxableValue":null,"taxes":null,"vintage":"2023"},"mailingAddress":{"line1":null,"line2":null,"city":null,"state":null,"zip":null},"incomeTract":null,"incomeBlockGroup":null,"nearestRoad":null,"flu":null,"opportunityZone":null,"oz2Eligibility":null,"source":"tn-oir-public-use-47001","appraiserUrl":"https://assessment.cot.tn.gov/TPAD/Parcel/GIS?gislink=001105H%20A%2000100"},"geometry":{"type":"Polygon","coordinates":[[[-84.295336,35.998518],[-84.295278,35.998554],[-84.295182,35.99862],[-84.29515,35.998669],[-84.295103,35.998713],[-84.295056,35.998803],[-84.295028,35.998826],[-84.294922,35.998856],[-84.294857,35.998863],[-84.29478,35.998897],[-84.294739,35.998908],[-84.294547,35.998922],[-84.294477,35.998935],[-84.294432,35.998953],[-84.294303,35.999033],[-84.294225,35.99907],[-84.294106,35.999086],[-84.293989,35.999107],[-84.293933,35.999124],[-84.293861,35.999159],[-84.293716,35.999191],[-84.293677,35.999205],[-84.293659,35.999215],[-84.293595,35.999272],[-84.293392,35.999379],[-84.293332,35.999416],[-84.29325,35.999484],[-84.293198,35.999534],[-84.293104,35.999609],[-84.293047,35.999635],[-84.29296,35.999685],[-84.29283,35.999702],[-84.292782,35.999717],[-84.292757,35.999737],[-84.292693,35.999799],[-84.292591,35.999876],[-84.292413,35.999993],[-84.292327,36.000038],[-84.292219,36.000077],[-84.292143,36.000095],[-84.291969,36.000107],[-84.291845,36.000126],[-84.291746,36.000146],[-84.291625,36.000192],[-84.291493,36.000231],[-84.291405,36.000266],[-84.291335,36.000307],[-84.291179,36.000421],[-84.291064,36.000557],[-84.291011,36.000603],[-84.290974,36.000653],[-84.290932,36.000683],[-84.290924,36.000694],[-84.290923,36.000754],[-84.290916,36.000796],[-84.290901,36.000825],[-84.290869,36.000859],[-84.290815,36.000888],[-84.290728,36.000913],[-84.290687,36.000915],[-84.29057,36.000928],[-84.290413,36.000917],[-84.290346,36.000908],[-84.290221,36.000912],[-84.290141,36.000927],[-84.289971,36.000974],[-84.289806,36.001028],[-84.289716,36.001069],[-84.289692,36.001101],[-84.289618,36.001155],[-84.289617,36.00117],[-84.289625,36.001182],[-84.289613,36.001203],[-84.289606,36.00123],[-84.289583,36.001256],[-84.289541,36.00128],[-84.289535,36.001286],[-84.289525,36.001312],[-84.289521,36.001345],[-84.289516,36.001355],[-84.2895,36.00144],[-84.289497,36.001504],[-84.289503,36.001559],[-84.289511,36.001598],[-84.289586,36.001717],[-84.289591,36.00175],[-84.289587,36.001765],[-84.289552,36.001814],[-84.289533,36.00183],[-84.289501,36.001845],[-84.289755,36.002165],[-84.290668,36.001668],[-84.291729,36.001105],[-84.29142,36.000738],[-84.291719,36.000574],[-84.292023,36.000942],[-84.292038,36.000934],[-84.29209,36.00087],[-84.292126,36.000839],[-84.29233,36.00074],[-84.292359,36.000774],[-84.292631,36.000655],[-84.292893,36.000556],[-84.293188,36.000459],[-84.293502,36.000368],[-84.293271,35.999845],[-84.294134,35.999648],[-84.295021,35.999471],[-84.295014,35.999401],[-84.295687,35.999353],[-84.295759,36.000034],[-84.296292,36.000046],[-84.296702,36.000065],[-84.296768,35.999496],[-84.297356,35.999533],[-84.297412,35.999838],[-84.297338,36.000109],[-84.29778,36.000137],[-84.296996,35.99882],[-84.296944,35.998741],[-84.296868,35.998646],[-84.296117,35.997799],[-84.296028,35.997825],[-84.295978,35.997858],[-84.295904,35.997925],[-84.295861,35.997994],[-84.295837,35.998064],[-84.295806,35.998124],[-84.295783,35.998148],[-84.295764,35.998159],[-84.295699,35.998186],[-84.29558,35.99827],[-84.295494,35.998299],[-84.29545,35.998329],[-84.295429,35.998359],[-84.295361,35.998495],[-84.295336,35.998518]]]}},{"type":"Feature","id":"47001:001104M A 00400","properties":{"id":"47001:001104M A 00400","parcelId":"001104M A 00400","countyFips":"47001","countyName":"Anderson","state":"Tennessee","marketIds":["Knoxville"],"situsAddress":"TUSKEGEE DR 1005","situsCity":null,"situsZip":null,"jurisdictionCode":null,"ownerName":"BRADY KENDALL L","ownerName2":"AND WIFE BARBARA J.","propertyName":null,"zoningCode":null,"zoningDistrict":null,"jurisdictionPrefix":null,"dorCode":null,"acreage":18.0559,"centroid":[-84.296235,35.988396],"lastSale":{"date":"1982-06-15","price":null,"qualified":null,"vintage":"2023"},"tax":{"marketValue":233100.0,"assessedValue":null,"taxableValue":null,"taxes":null,"vintage":"2023"},"mailingAddress":{"line1":null,"line2":null,"city":null,"state":null,"zip":null},"incomeTract":null,"incomeBlockGroup":null,"nearestRoad":null,"flu":null,"opportunityZone":null,"oz2Eligibility":null,"source":"tn-oir-public-use-47001","appraiserUrl":"https://assessment.cot.tn.gov/TPAD/Parcel/GIS?gislink=001104M%20A%2000400"},"geometry":{"type":"Polygon","coordinates":[[[-84.294608,35.988634],[-84.294032,35.988915],[-84.295537,35.990253],[-84.299087,35.987867],[-84.29816,35.986744],[-84.295985,35.987963],[-84.294608,35.988634]]]}},{"type":"Feature","id":"47001:001105H A 01400","properties":{"id":"47001:001105H A 01400","parcelId":"001105H A 01400","countyFips":"47001","countyName":"Anderson","state":"Tennessee","marketIds":["Knoxville"],"situsAddress":"WILTSHIRE DR 120","situsCity":null,"situsZip":null,"jurisdictionCode":null,"ownerName":"SCHUSTER ANDREW HARTUNG-","ownerName2":null,"propertyName":null,"zoningCode":null,"zoningDistrict":null,"jurisdictionPrefix":null,"dorCode":null,"acreage":17.6934,"centroid":[-84.29089,35.998304],"lastSale":{"date":"2021-02-03","price":null,"qualified":null,"vintage":"2023"},"tax":{"marketValue":245400.0,"assessedValue":null,"taxableValue":null,"taxes":null,"vintage":"2023"},"mailingAddress":{"line1":null,"line2":null,"city":null,"state":null,"zip":null},"incomeTract":null,"incomeBlockGroup":null,"nearestRoad":null,"flu":null,"opportunityZone":null,"oz2Eligibility":null,"source":"tn-oir-public-use-47001","appraiserUrl":"https://assessment.cot.tn.gov/TPAD/Parcel/GIS?gislink=001105H%20A%2001400"},"geometry":{"type":"Polygon","coordinates":[[[-84.289331,35.999133],[-84.289388,35.999116],[-84.289443,35.999106],[-84.289498,35.999099],[-84.289557,35.999096],[-84.290431,35.999131],[-84.290503,35.999131],[-84.290576,35.999125],[-84.29065,35.999112],[-84.290725,35.999091],[-84.290791,35.999067],[-84.290862,35.999032],[-84.29093,35.998989],[-84.290989,35.998942],[-84.291042,35.998887],[-84.291076,35.998844],[-84.291106,35.998797],[-84.291297,35.998435],[-84.291347,35.998355],[-84.291404,35.998276],[-84.291489,35.998173],[-84.291582,35.998078],[-84.291685,35.997986],[-84.291799,35.997899],[-84.291915,35.997823],[-84.292035,35.997756],[-84.292137,35.997714],[-84.292252,35.997681],[-84.292371,35.997662],[-84.292492,35.997656],[-84.292609,35.997663],[-84.292748,35.997686],[-84.29181,35.996197],[-84.291328,35.996316],[-84.290714,35.996763],[-84.289792,35.997322],[-84.288321,35.997735],[-84.287975,35.998011],[-84.288723,35.998962],[-84.289331,35.999133]]]}},{"type":"Feature","id":"47001:001104M A 00301","properties":{"id":"47001:001104M A 00301","parcelId":"001104M A 00301","countyFips":"47001","countyName":"Anderson","state":"Tennessee","marketIds":["Knoxville"],"situsAddress":"TUSKEGEE DR","situsCity":null,"situsZip":null,"jurisdictionCode":null,"ownerName":"AKIN JAMES T","ownerName2":"AND WIFE CAROLYN C AKIN","propertyName":null,"zoningCode":null,"zoningDistrict":null,"jurisdictionPrefix":null,"dorCode":null,"acreage":16.9605,"centroid":[-84.297241,35.986369],"lastSale":{"date":"2023-05-03","price":null,"qualified":null,"vintage":"2023"},"tax":{"marketValue":12300.0,"assessedValue":null,"taxableValue":null,"taxes":null,"vintage":"2023"},"mailingAddress":{"line1":null,"line2":null,"city":null,"state":null,"zip":null},"incomeTract":null,"incomeBlockGroup":null,"nearestRoad":null,"flu":null,"opportunityZone":null,"oz2Eligibility":null,"source":"tn-oir-public-use-47001","appraiserUrl":"https://assessment.cot.tn.gov/TPAD/Parcel/GIS?gislink=001104M%20A%2000301"},"geometry":{"type":"Polygon","coordinates":[[[-84.296831,35.984605],[-84.295908,35.985971],[-84.295152,35.98642],[-84.295977,35.987475],[-84.296234,35.987729],[-84.296324,35.987644],[-84.296714,35.987342],[-84.297179,35.986944],[-84.297418,35.986722],[-84.297545,35.986557],[-84.297485,35.986511],[-84.298676,35.985648],[-84.300132,35.985002],[-84.299798,35.984589],[-84.296831,35.984605]]]}},{"type":"Feature","id":"47001:001105    00200","properties":{"id":"47001:001105    00200","parcelId":"001105    00200","countyFips":"47001","countyName":"Anderson","state":"Tennessee","marketIds":["Knoxville"],"situsAddress":"TUSKEGEE DR 1101","situsCity":null,"situsZip":null,"jurisdictionCode":null,"ownerName":"JOHNSTON J WILLIAM","ownerName2":"ETUX MARGARET","propertyName":null,"zoningCode":null,"zoningDistrict":null,"jurisdictionPrefix":null,"dorCode":null,"acreage":16.6909,"centroid":[-84.293115,35.992795],"lastSale":{"date":"1997-10-02","price":null,"qualified":null,"vintage":"2023"},"tax":{"marketValue":223300.0,"assessedValue":null,"taxableValue":null,"taxes":null,"vintage":"2023"},"mailingAddress":{"line1":null,"line2":null,"city":null,"state":null,"zip":null},"incomeTract":null,"incomeBlockGroup":null,"nearestRoad":null,"flu":null,"opportunityZone":null,"oz2Eligibility":null,"source":"tn-oir-public-use-47001","appraiserUrl":"https://assessment.cot.tn.gov/TPAD/Parcel/GIS?gislink=001105%20%20%20%2000200"},"geometry":{"type":"Polygon","coordinates":[[[-84.293853,35.991181],[-84.293257,35.99141],[-84.291722,35.991761],[-84.291833,35.991899],[-84.291987,35.992075],[-84.292029,35.992132],[-84.292066,35.992192],[-84.292107,35.992278],[-84.292141,35.992375],[-84.292167,35.992474],[-84.292187,35.992593],[-84.2922,35.992635],[-84.292232,35.992699],[-84.292278,35.992758],[-84.292574,35.993058],[-84.292634,35.993109],[-84.292682,35.993141],[-84.292732,35.993167],[-84.29287,35.99322],[-84.29295,35.993258],[-84.293024,35.993302],[-84.293098,35.993356],[-84.293157,35.99341],[-84.293225,35.993484],[-84.293289,35.993564],[-84.293374,35.993685],[-84.293456,35.993772],[-84.29353,35.993833],[-84.293687,35.993937],[-84.293798,35.994018],[-84.293915,35.994112],[-84.294034,35.994215],[-84.295023,35.993287],[-84.295537,35.993187],[-84.294483,35.991278],[-84.295218,35.990956],[-84.294917,35.990594],[-84.293853,35.991181]]]}},{"type":"Feature","id":"47001:001104M A 00300","properties":{"id":"47001:001104M A 00300","parcelId":"001104M A 00300","countyFips":"47001","countyName":"Anderson","state":"Tennessee","marketIds":["Knoxville"],"situsAddress":"TUSKEGEE DR 1007","situsCity":null,"situsZip":null,"jurisdictionCode":null,"ownerName":"NEWBY PETER","ownerName2":"AND WIFE KRISTIN NEWBY","propertyName":null,"zoningCode":null,"zoningDistrict":null,"jurisdictionPrefix":null,"dorCode":null,"acreage":15.6768,"centroid":[-84.297905,35.986862],"lastSale":{"date":"2023-05-03","price":825000.0,"qualified":null,"vintage":"2023"},"tax":{"marketValue":322900.0,"assessedValue":null,"taxableValue":null,"taxes":null,"vintage":"2023"},"mailingAddress":{"line1":null,"line2":null,"city":null,"state":null,"zip":null},"incomeTract":null,"incomeBlockGroup":null,"nearestRoad":null,"flu":null,"opportunityZone":null,"oz2Eligibility":null,"source":"tn-oir-public-use-47001","appraiserUrl":"https://assessment.cot.tn.gov/TPAD/Parcel/GIS?gislink=001104M%20A%2000300"},"geometry":{"type":"Polygon","coordinates":[[[-84.299087,35.987867],[-84.30151,35.986703],[-84.300132,35.985002],[-84.298676,35.985648],[-84.297485,35.986511],[-84.297545,35.986557],[-84.297418,35.986722],[-84.297179,35.986944],[-84.296714,35.987342],[-84.296324,35.987644],[-84.296234,35.987729],[-84.296297,35.987788],[-84.29816,35.986744],[-84.299087,35.987867]]]}},{"type":"Feature","id":"47001:001105    00300","properties":{"id":"47001:001105    00300","parcelId":"001105    00300","countyFips":"47001","countyName":"Anderson","state":"Tennessee","marketIds":["Knoxville"],"situsAddress":"TUSKEGEE DR 1003","situsCity":null,"situsZip":null,"jurisdictionCode":null,"ownerName":"FOGEL STEWART R TRUSTEES","ownerName2":"AND WIFE CARRI L TRUSTEES","propertyName":null,"zoningCode":null,"zoningDistrict":null,"jurisdictionPrefix":null,"dorCode":null,"acreage":15.1182,"centroid":[-84.292275,35.99094],"lastSale":{"date":"2019-04-16","price":null,"qualified":null,"vintage":"2023"},"tax":{"marketValue":948300.0,"assessedValue":null,"taxableValue":null,"taxes":null,"vintage":"2023"},"mailingAddress":{"line1":null,"line2":null,"city":null,"state":null,"zip":null},"incomeTract":null,"incomeBlockGroup":null,"nearestRoad":null,"flu":null,"opportunityZone":null,"oz2Eligibility":null,"source":"tn-oir-public-use-47001","appraiserUrl":"https://assessment.cot.tn.gov/TPAD/Parcel/GIS?gislink=001105%20%20%20%2000300"},"geometry":{"type":"Polygon","coordinates":[[[-84.294031,35.988916],[-84.293351,35.98933],[-84.292314,35.990176],[-84.290851,35.991149],[-84.290963,35.991196],[-84.291074,35.99125],[-84.291186,35.991313],[-84.291287,35.991379],[-84.291489,35.99153],[-84.291559,35.991588],[-84.291644,35.99167],[-84.291722,35.991761],[-84.293257,35.99141],[-84.293853,35.991181],[-84.295537,35.990253],[-84.294031,35.988916]]]}},{"type":"Feature","id":"47001:001105C B 00600","properties":{"id":"47001:001105C B 00600","parcelId":"001105C B 00600","countyFips":"47001","countyName":"Anderson","state":"Tennessee","marketIds":["Knoxville"],"situsAddress":"TUSKEGEE DR 470","situsCity":null,"situsZip":null,"jurisdictionCode":null,"ownerName":"EAST TENN RIDING CLUB","ownerName2":"AND HORSE SHOW ASSOC","propertyName":null,"zoningCode":null,"zoningDistrict":null,"jurisdictionPrefix":null,"dorCode":null,"acreage":13.9561,"centroid":[-84.26433,35.999913],"lastSale":{"date":null,"price":null,"qualified":null},"tax":{"marketValue":292200.0,"assessedValue":null,"taxableValue":null,"taxes":null,"vintage":"2023"},"mailingAddress":{"line1":null,"line2":null,"city":null,"state":null,"zip":null},"incomeTract":null,"incomeBlockGroup":null,"nearestRoad":null,"flu":null,"opportunityZone":null,"oz2Eligibility":null,"source":"tn-oir-public-use-47001","appraiserUrl":"https://assessment.cot.tn.gov/TPAD/Parcel/GIS?gislink=001105C%20B%2000600"},"geometry":{"type":"Polygon","coordinates":[[[-84.26288,36.000477],[-84.263953,36.001618],[-84.266363,36.000104],[-84.265305,35.999065],[-84.264911,35.999297],[-84.264437,35.998801],[-84.262461,36.000031],[-84.26288,36.000477]]]}},{"type":"Feature","id":"47001:001104M A 00700","properties":{"id":"47001:001104M A 00700","parcelId":"001104M A 00700","countyFips":"47001","countyName":"Anderson","state":"Tennessee","marketIds":["Knoxville"],"situsAddress":"TUSKEGEE DR 999","situsCity":null,"situsZip":null,"jurisdictionCode":null,"ownerName":"FLETCHER STEVEN","ownerName2":null,"propertyName":null,"zoningCode":null,"zoningDistrict":null,"jurisdictionPrefix":null,"dorCode":null,"acreage":13.7981,"centroid":[-84.291097,35.987538],"lastSale":{"date":"2021-05-25","price":450000.0,"qualified":null,"vintage":"2023"},"tax":{"marketValue":351600.0,"assessedValue":null,"taxableValue":null,"taxes":null,"vintage":"2023"},"mailingAddress":{"line1":null,"line2":null,"city":null,"state":null,"zip":null},"incomeTract":null,"incomeBlockGroup":null,"nearestRoad":null,"flu":null,"opportunityZone":null,"oz2Eligibility":null,"source":"tn-oir-public-use-47001","appraiserUrl":"https://assessment.cot.tn.gov/TPAD/Parcel/GIS?gislink=001104M%20A%2000700"},"geometry":{"type":"Polygon","coordinates":[[[-84.292889,35.986149],[-84.28889,35.988526],[-84.288946,35.988559],[-84.288996,35.988596],[-84.28916,35.988761],[-84.289243,35.98883],[-84.289383,35.988932],[-84.289434,35.988979],[-84.289478,35.98903],[-84.296831,35.984605],[-84.295046,35.984867],[-84.293005,35.98608],[-84.292956,35.986075],[-84.292889,35.986149]]]}},{"type":"Feature","id":"47001:001110    00200","properties":{"id":"47001:001110    00200","parcelId":"001110    00200","countyFips":"47001","countyName":"Anderson","state":"Tennessee","marketIds":["Knoxville"],"situsAddress":"BETHEL VALLEY RD","situsCity":null,"situsZip":null,"jurisdictionCode":null,"ownerName":"DEPARTMENT OF ENERGY","ownerName2":null,"propertyName":null,"zoningCode":null,"zoningDistrict":null,"jurisdictionPrefix":null,"dorCode":null,"acreage":13.7821,"centroid":[-84.252832,35.978479],"lastSale":{"date":"1997-06-11","price":null,"qualified":null,"vintage":"2023"},"tax":{"marketValue":null,"assessedValue":null,"taxableValue":null,"taxes":null},"mailingAddress":{"line1":null,"line2":null,"city":null,"state":null,"zip":null},"incomeTract":null,"incomeBlockGroup":null,"nearestRoad":null,"flu":null,"opportunityZone":null,"oz2Eligibility":null,"source":"tn-oir-public-use-47001","appraiserUrl":"https://assessment.cot.tn.gov/TPAD/Parcel/GIS?gislink=001110%20%20%20%2000200"},"geometry":{"type":"Polygon","coordinates":[[[-84.251959,35.97825],[-84.252153,35.978522],[-84.252277,35.978792],[-84.252256,35.979168],[-84.251946,35.979558],[-84.251937,35.97971],[-84.251668,35.980016],[-84.251512,35.980183],[-84.25138,35.980241],[-84.251591,35.980391],[-84.25174,35.9802],[-84.2519,35.980053],[-84.252402,35.979788],[-84.25286,35.979309],[-84.252805,35.979514],[-84.252906,35.979582],[-84.25317,35.979549],[-84.25358,35.979382],[-84.253737,35.979226],[-84.25411,35.979147],[-84.25412,35.979281],[-84.254319,35.979319],[-84.254519,35.979389],[-84.254701,35.9793],[-84.254653,35.979199],[-84.254796,35.979067],[-84.255038,35.978958],[-84.255084,35.978846],[-84.254846,35.978819],[-84.254599,35.978889],[-84.254056,35.978785],[-84.25379,35.978774],[-84.253547,35.97853],[-84.25342,35.978369],[-84.2534,35.978127],[-84.253279,35.97786],[-84.25268,35.977391],[-84.252508,35.977011],[-84.252556,35.976728],[-84.252414,35.976165],[-84.252202,35.975893],[-84.251636,35.97515],[-84.251099,35.97525],[-84.251386,35.97568],[-84.251733,35.976602],[-84.251698,35.976804],[-84.251599,35.977012],[-84.251639,35.977376],[-84.251514,35.977602],[-84.251736,35.977728],[-84.251954,35.977948],[-84.251959,35.97825]]]}},{"type":"Feature","id":"47001:001110    00100","properties":{"id":"47001:001110    00100","parcelId":"001110    00100","countyFips":"47001","countyName":"Anderson","state":"Tennessee","marketIds":["Knoxville"],"situsAddress":"MT VERNON RD","situsCity":null,"situsZip":null,"jurisdictionCode":null,"ownerName":"DEPARTMENT OF ENERGY","ownerName2":null,"propertyName":null,"zoningCode":null,"zoningDistrict":null,"jurisdictionPrefix":null,"dorCode":null,"acreage":13.5884,"centroid":[-84.265062,35.969105],"lastSale":{"date":"1996-01-16","price":null,"qualified":null,"vintage":"2023"},"tax":{"marketValue":null,"assessedValue":null,"taxableValue":null,"taxes":null},"mailingAddress":{"line1":null,"line2":null,"city":null,"state":null,"zip":null},"incomeTract":null,"incomeBlockGroup":null,"nearestRoad":null,"flu":null,"opportunityZone":null,"oz2Eligibility":null,"source":"tn-oir-public-use-47001","appraiserUrl":"https://assessment.cot.tn.gov/TPAD/Parcel/GIS?gislink=001110%20%20%20%2000100"},"geometry":{"type":"Polygon","coordinates":[[[-84.262575,35.968794],[-84.265945,35.970477],[-84.266227,35.970317],[-84.266607,35.970048],[-84.2671,35.96938],[-84.266529,35.969097],[-84.265634,35.96871],[-84.265337,35.968538],[-84.2642,35.967964],[-84.2628,35.968363],[-84.262726,35.968462],[-84.262575,35.968794]]]}},{"type":"Feature","id":"47001:001104E B 01100","properties":{"id":"47001:001104E B 01100","parcelId":"001104E B 01100","countyFips":"47001","countyName":"Anderson","state":"Tennessee","marketIds":["Knoxville"],"situsAddress":"WILTSHIRE DR 114","situsCity":null,"situsZip":null,"jurisdictionCode":null,"ownerName":"CARDEN JOAN E","ownerName2":null,"propertyName":null,"zoningCode":null,"zoningDistrict":null,"jurisdictionPrefix":null,"dorCode":null,"acreage":13.106,"centroid":[-84.295037,35.994566],"lastSale":{"date":null,"price":null,"qualified":null},"tax":{"marketValue":692800.0,"assessedValue":null,"taxableValue":null,"taxes":null,"vintage":"2023"},"mailingAddress":{"line1":null,"line2":null,"city":null,"state":null,"zip":null},"incomeTract":null,"incomeBlockGroup":null,"nearestRoad":null,"flu":null,"opportunityZone":null,"oz2Eligibility":null,"source":"tn-oir-public-use-47001","appraiserUrl":"https://assessment.cot.tn.gov/TPAD/Parcel/GIS?gislink=001104E%20B%2001100"},"geometry":{"type":"Polygon","coordinates":[[[-84.294034,35.994215],[-84.29413,35.994307],[-84.294227,35.994405],[-84.294337,35.994528],[-84.294392,35.994595],[-84.294451,35.99468],[-84.294508,35.994772],[-84.294566,35.994878],[-84.294625,35.995003],[-84.294661,35.995052],[-84.294696,35.995083],[-84.294735,35.995107],[-84.294882,35.995166],[-84.294978,35.995219],[-84.295063,35.995287],[-84.295132,35.995366],[-84.295172,35.995432],[-84.295203,35.995503],[-84.295367,35.996065],[-84.296163,35.99575],[-84.296985,35.992224],[-84.296725,35.992302],[-84.296278,35.992748],[-84.295598,35.993175],[-84.295023,35.993287],[-84.294034,35.994215]]]}},{"type":"Feature","id":"47001:001104M A 00600","properties":{"id":"47001:001104M A 00600","parcelId":"001104M A 00600","countyFips":"47001","countyName":"Anderson","state":"Tennessee","marketIds":["Knoxville"],"situsAddress":"TUSKEGEE DR","situsCity":null,"situsZip":null,"jurisdictionCode":null,"ownerName":"PENG MICHAEL YAO-LONG","ownerName2":null,"propertyName":null,"zoningCode":null,"zoningDistrict":null,"jurisdictionPrefix":null,"dorCode":null,"acreage":13.0756,"centroid":[-84.291541,35.988127],"lastSale":{"date":"2018-12-26","price":null,"qualified":null,"vintage":"2023"},"tax":{"marketValue":114000.0,"assessedValue":null,"taxableValue":null,"taxes":null,"vintage":"2023"},"mailingAddress":{"line1":null,"line2":null,"city":null,"state":null,"zip":null},"incomeTract":null,"incomeBlockGroup":null,"nearestRoad":null,"flu":null,"opportunityZone":null,"oz2Eligibility":null,"source":"tn-oir-public-use-47001","appraiserUrl":"https://assessment.cot.tn.gov/TPAD/Parcel/GIS?gislink=001104M%20A%2000600"},"geometry":{"type":"Polygon","coordinates":[[[-84.289478,35.98903],[-84.289512,35.989079],[-84.289554,35.989152],[-84.289707,35.989448],[-84.289797,35.989605],[-84.295908,35.985971],[-84.296831,35.984605],[-84.289478,35.98903]]]}},{"type":"Feature","id":"47001:001104K B 04300","properties":{"id":"47001:001104K B 04300","parcelId":"001104K B 04300","countyFips":"47001","countyName":"Anderson","state":"Tennessee","marketIds":["Knoxville"],"situsAddress":"EMPIRE LN 131","situsCity":null,"situsZip":null,"jurisdictionCode":null,"ownerName":"POPLAR CREEK, LLC","ownerName2":null,"propertyName":null,"zoningCode":null,"zoningDistrict":null,"jurisdictionPrefix":null,"dorCode":null,"acreage":10.5472,"centroid":[-84.310936,35.99226],"lastSale":{"date":null,"price":null,"qualified":null},"tax":{"marketValue":null,"assessedValue":null,"taxableValue":null,"taxes":null},"mailingAddress":{"line1":null,"line2":null,"city":null,"state":null,"zip":null},"incomeTract":null,"incomeBlockGroup":null,"nearestRoad":null,"flu":null,"opportunityZone":null,"oz2Eligibility":null,"source":"tn-oir-public-use-47001","appraiserUrl":"https://assessment.cot.tn.gov/TPAD/Parcel/GIS?gislink=001104K%20B%2004300"},"geometry":{"type":"MultiPolygon","coordinates":[[[[-84.312691,35.992502],[-84.312786,35.992145],[-84.312818,35.99176],[-84.312626,35.991094],[-84.31255,35.991045],[-84.312363,35.99094],[-84.312252,35.990867],[-84.312164,35.990836],[-84.311848,35.990807],[-84.311741,35.990832],[-84.311634,35.990869],[-84.311544,35.99096],[-84.311522,35.991126],[-84.3115,35.991237],[-84.311446,35.991262],[-84.311221,35.991385],[-84.311072,35.991509],[-84.310714,35.99155],[-84.310536,35.991608],[-84.3104,35.991658],[-84.310065,35.991812],[-84.310003,35.991856],[-84.310006,35.991858],[-84.309814,35.991979],[-84.309406,35.992219],[-84.309161,35.992386],[-84.309024,35.992509],[-84.308997,35.992631],[-84.309063,35.992816],[-84.309278,35.993061],[-84.309401,35.993146],[-84.309559,35.993303],[-84.309756,35.993458],[-84.309799,35.993597],[-84.309791,35.993698],[-84.309741,35.993758],[-84.30963,35.993836],[-84.309451,35.993892],[-84.309608,35.99408],[-84.309909,35.994027],[-84.309966,35.99313],[-84.310241,35.993142],[-84.310246,35.993055],[-84.310215,35.993055],[-84.310218,35.992972],[-84.31032,35.992978],[-84.310323,35.992924],[-84.310449,35.992932],[-84.310436,35.99314],[-84.31052,35.993144],[-84.310478,35.99286],[-84.310748,35.992835],[-84.31073,35.99272],[-84.310794,35.992712],[-84.310789,35.992662],[-84.310791,35.992612],[-84.310801,35.992563],[-84.310819,35.992516],[-84.31087,35.99243],[-84.310901,35.992392],[-84.310936,35.992356],[-84.310975,35.992324],[-84.310935,35.992285],[-84.310997,35.992244],[-84.311055,35.992212],[-84.311087,35.992246],[-84.311097,35.992249],[-84.311108,35.992246],[-84.310911,35.992025],[-84.311703,35.991572],[-84.311689,35.991556],[-84.31211,35.991316],[-84.312317,35.991556],[-84.312348,35.991539],[-84.31242,35.991622],[-84.312391,35.991638],[-84.312434,35.991688],[-84.312307,35.991759],[-84.312478,35.991957],[-84.312268,35.992076],[-84.312148,35.991938],[-84.312024,35.992007],[-84.312129,35.992128],[-84.311217,35.992649],[-84.312691,35.992502]]],[[[-84.311217,35.992649],[-84.311032,35.992432],[-84.31098,35.992494],[-84.310961,35.992528],[-84.310942,35.992571],[-84.31093,35.992617],[-84.310926,35.992663],[-84.310929,35.992709],[-84.31098,35.993043],[-84.310985,35.993087],[-84.310983,35.993131],[-84.310876,35.993641],[-84.310874,35.993668],[-84.310901,35.993854],[-84.310924,35.993884],[-84.310963,35.993901],[-84.310992,35.993902],[-84.31121,35.99388],[-84.31103,35.992667],[-84.311217,35.992649]]]]}},{"type":"Feature","id":"47001:001105    00100","properties":{"id":"47001:001105    00100","parcelId":"001105    00100","countyFips":"47001","countyName":"Anderson","state":"Tennessee","marketIds":["Knoxville"],"situsAddress":"TUSKEGEE DR","situsCity":null,"situsZip":null,"jurisdictionCode":null,"ownerName":"STOCKSTILL BOBBY J","ownerName2":null,"propertyName":null,"zoningCode":null,"zoningDistrict":null,"jurisdictionPrefix":null,"dorCode":null,"acreage":10.5447,"centroid":[-84.295731,35.991676],"lastSale":{"date":"2015-01-29","price":47500.0,"qualified":null,"vintage":"2023"},"tax":{"marketValue":78500.0,"assessedValue":null,"taxableValue":null,"taxes":null,"vintage":"2023"},"mailingAddress":{"line1":null,"line2":null,"city":null,"state":null,"zip":null},"incomeTract":null,"incomeBlockGroup":null,"nearestRoad":null,"flu":null,"opportunityZone":null,"oz2Eligibility":null,"source":"tn-oir-public-use-47001","appraiserUrl":"https://assessment.cot.tn.gov/TPAD/Parcel/GIS?gislink=001105%20%20%20%2000100"},"geometry":{"type":"Polygon","coordinates":[[[-84.295537,35.990253],[-84.294917,35.990594],[-84.295218,35.990956],[-84.294483,35.991278],[-84.295537,35.993187],[-84.295598,35.993175],[-84.296278,35.992748],[-84.296725,35.992302],[-84.29733,35.992119],[-84.29569,35.99015],[-84.295537,35.990253]]]}},{"type":"Feature","id":"47001:001105E A 02900","properties":{"id":"47001:001105E A 02900","parcelId":"001105E A 02900","countyFips":"47001","countyName":"Anderson","state":"Tennessee","marketIds":["Knoxville"],"situsAddress":"CARVER AVE 161","situsCity":null,"situsZip":null,"jurisdictionCode":null,"ownerName":"OAK RIDGE CITY OF","ownerName2":"GAMBLE VALLEY PLAYGROUND","propertyName":null,"zoningCode":null,"zoningDistrict":null,"jurisdictionPrefix":null,"dorCode":null,"acreage":10.4647,"centroid":[-84.259493,35.997049],"lastSale":{"date":null,"price":null,"qualified":null},"tax":{"marketValue":null,"assessedValue":null,"taxableValue":null,"taxes":null},"mailingAddress":{"line1":null,"line2":null,"city":null,"state":null,"zip":null},"incomeTract":null,"incomeBlockGroup":null,"nearestRoad":null,"flu":null,"opportunityZone":null,"oz2Eligibility":null,"source":"tn-oir-public-use-47001","appraiserUrl":"https://assessment.cot.tn.gov/TPAD/Parcel/GIS?gislink=001105E%20A%2002900"},"geometry":{"type":"Polygon","coordinates":[[[-84.259572,35.998366],[-84.259697,35.998485],[-84.260167,35.998212],[-84.259943,35.997967],[-84.260697,35.997468],[-84.260509,35.997284],[-84.260392,35.997157],[-84.260284,35.997018],[-84.260193,35.996877],[-84.260144,35.996786],[-84.260102,35.996699],[-84.259712,35.995786],[-84.259389,35.995939],[-84.258773,35.995946],[-84.257879,35.995965],[-84.257546,35.996212],[-84.257513,35.996428],[-84.25867,35.997322],[-84.259193,35.998007],[-84.259572,35.998366]]]}},{"type":"Feature","id":"47001:001105H A 01100","properties":{"id":"47001:001105H A 01100","parcelId":"001105H A 01100","countyFips":"47001","countyName":"Anderson","state":"Tennessee","marketIds":["Knoxville"],"situsAddress":"TUSKEGEE DR","situsCity":null,"situsZip":null,"jurisdictionCode":null,"ownerName":"HARTUNG-SCHUSTER ANDREW","ownerName2":null,"propertyName":null,"zoningCode":null,"zoningDistrict":null,"jurisdictionPrefix":null,"dorCode":null,"acreage":9.8521,"centroid":[-84.290537,35.996392],"lastSale":{"date":"2022-04-28","price":null,"qualified":null,"vintage":"2023"},"tax":{"marketValue":43000.0,"assessedValue":null,"taxableValue":null,"taxes":null,"vintage":"2023"},"mailingAddress":{"line1":null,"line2":null,"city":null,"state":null,"zip":null},"incomeTract":null,"incomeBlockGroup":null,"nearestRoad":null,"flu":null,"opportunityZone":null,"oz2Eligibility":null,"source":"tn-oir-public-use-47001","appraiserUrl":"https://assessment.cot.tn.gov/TPAD/Parcel/GIS?gislink=001105H%20A%2001100"},"geometry":{"type":"Polygon","coordinates":[[[-84.286595,35.998183],[-84.287085,35.998801],[-84.287371,35.998663],[-84.28773,35.998207],[-84.288321,35.997735],[-84.289792,35.997322],[-84.290714,35.996763],[-84.291328,35.996316],[-84.292677,35.995984],[-84.292842,35.994923],[-84.29341,35.99461],[-84.293867,35.994311],[-84.293729,35.994194],[-84.293259,35.994537],[-84.292633,35.994863],[-84.292196,35.99522],[-84.292137,35.995613],[-84.291016,35.995888],[-84.290351,35.996388],[-84.289522,35.996892],[-84.287954,35.997329],[-84.287294,35.997876],[-84.286595,35.998183]]]}},{"type":"Feature","id":"47001:001104E B 00700","properties":{"id":"47001:001104E B 00700","parcelId":"001104E B 00700","countyFips":"47001","countyName":"Anderson","state":"Tennessee","marketIds":["Knoxville"],"situsAddress":"WILTSHIRE DR 108","situsCity":null,"situsZip":null,"jurisdictionCode":null,"ownerName":"BROWN WALTER K TRUSTEE","ownerName2":"THE WALKER K BROWN TRUST","propertyName":null,"zoningCode":null,"zoningDistrict":null,"jurisdictionPrefix":null,"dorCode":null,"acreage":9.7696,"centroid":[-84.299014,35.995417],"lastSale":{"date":"2021-09-28","price":null,"qualified":null,"vintage":"2023"},"tax":{"marketValue":609600.0,"assessedValue":null,"taxableValue":null,"taxes":null,"vintage":"2023"},"mailingAddress":{"line1":null,"line2":null,"city":null,"state":null,"zip":null},"incomeTract":null,"incomeBlockGroup":null,"nearestRoad":null,"flu":null,"opportunityZone":null,"oz2Eligibility":null,"source":"tn-oir-public-use-47001","appraiserUrl":"https://assessment.cot.tn.gov/TPAD/Parcel/GIS?gislink=001104E%20B%2000700"},"geometry":{"type":"Polygon","coordinates":[[[-84.298113,35.995951],[-84.298601,35.996124],[-84.298702,35.996163],[-84.29887,35.996244],[-84.299034,35.996343],[-84.301008,35.995745],[-84.29949,35.993947],[-84.299294,35.994365],[-84.298757,35.994199],[-84.298274,35.995086],[-84.298113,35.995951]]]}},{"type":"Feature","id":"47001:001104E B 01000","properties":{"id":"47001:001104E B 01000","parcelId":"001104E B 01000","countyFips":"47001","countyName":"Anderson","state":"Tennessee","marketIds":["Knoxville"],"situsAddress":"WILTSHIRE DR 112","situsCity":null,"situsZip":null,"jurisdictionCode":null,"ownerName":"BRADSHAW DAVID R","ownerName2":"AND WIFE SANDRA","propertyName":null,"zoningCode":null,"zoningDistrict":null,"jurisdictionPrefix":null,"dorCode":null,"acreage":9.5675,"centroid":[-84.296907,35.994798],"lastSale":{"date":"2013-08-06","price":425000.0,"qualified":null,"vintage":"2023"},"tax":{"marketValue":589800.0,"assessedValue":null,"taxableValue":null,"taxes":null,"vintage":"2023"},"mailingAddress":{"line1":null,"line2":null,"city":null,"state":null,"zip":null},"incomeTract":null,"incomeBlockGroup":null,"nearestRoad":null,"flu":null,"opportunityZone":null,"oz2Eligibility":null,"source":"tn-oir-public-use-47001","appraiserUrl":"https://assessment.cot.tn.gov/TPAD/Parcel/GIS?gislink=001104E%20B%2001000"},"geometry":{"type":"Polygon","coordinates":[[[-84.296985,35.992224],[-84.296163,35.99575],[-84.296284,35.995708],[-84.296404,35.995677],[-84.29653,35.995655],[-84.296655,35.995642],[-84.296781,35.995638],[-84.296903,35.995644],[-84.297038,35.99566],[-84.297197,35.995685],[-84.298122,35.992326],[-84.297822,35.991971],[-84.296985,35.992224]]]}},{"type":"Feature","id":"47001:001104G A 00800","properties":{"id":"47001:001104G A 00800","parcelId":"001104G A 00800","countyFips":"47001","countyName":"Anderson","state":"Tennessee","marketIds":["Knoxville"],"situsAddress":"MONTANA AVE","situsCity":null,"situsZip":null,"jurisdictionCode":null,"ownerName":"OAK RIDGE CITY OF","ownerName2":"TENNESSEE","propertyName":null,"zoningCode":null,"zoningDistrict":null,"jurisdictionPrefix":null,"dorCode":null,"acreage":9.2128,"centroid":[-84.319742,35.997265],"lastSale":{"date":"1992-01-08","price":null,"qualified":null,"vintage":"2023"},"tax":{"marketValue":null,"assessedValue":null,"taxableValue":null,"taxes":null},"mailingAddress":{"line1":null,"line2":null,"city":null,"state":null,"zip":null},"incomeTract":null,"incomeBlockGroup":null,"nearestRoad":null,"flu":null,"opportunityZone":null,"oz2Eligibility":null,"source":"tn-oir-public-use-47001","appraiserUrl":"https://assessment.cot.tn.gov/TPAD/Parcel/GIS?gislink=001104G%20A%2000800"},"geometry":{"type":"MultiPolygon","coordinates":[[[[-84.320382,35.994957],[-84.319287,35.995032],[-84.3193,35.994449],[-84.319261,35.994452],[-84.319255,35.995069],[-84.319701,35.995044],[-84.319981,35.995414],[-84.320277,35.996336],[-84.320609,35.99661],[-84.320473,35.996862],[-84.319913,35.997205],[-84.319189,35.997291],[-84.318823,35.997459],[-84.317865,35.998291],[-84.319092,35.998931],[-84.318442,35.999727],[-84.318525,35.999756],[-84.31928,35.998873],[-84.318917,35.998598],[-84.319292,35.998196],[-84.319731,35.998454],[-84.319738,35.998425],[-84.319285,35.998158],[-84.318892,35.998579],[-84.318357,35.998174],[-84.319009,35.997557],[-84.319864,35.997576],[-84.320702,35.99805],[-84.320778,35.998376],[-84.32082,35.998115],[-84.320997,35.99776],[-84.321409,35.997257],[-84.321548,35.996768],[-84.320966,35.996265],[-84.321009,35.996226],[-84.320382,35.994957]]],[[[-84.320768,35.994861],[-84.320776,35.994859],[-84.320757,35.994466],[-84.320724,35.994465],[-84.320735,35.994839],[-84.32037,35.994932],[-84.320382,35.994957],[-84.320768,35.994861]]]]}},{"type":"Feature","id":"47001:001105F C 06601","properties":{"id":"47001:001105F C 06601","parcelId":"001105F C 06601","countyFips":"47001","countyName":"Anderson","state":"Tennessee","marketIds":["Knoxville"],"situsAddress":"MEHARRY CIR","situsCity":null,"situsZip":null,"jurisdictionCode":null,"ownerName":"OAK RIDGE HOUSING AUTHORITY","ownerName2":null,"propertyName":null,"zoningCode":null,"zoningDistrict":null,"jurisdictionPrefix":null,"dorCode":null,"acreage":8.9089,"centroid":[-84.262146,35.995751],"lastSale":{"date":null,"price":null,"qualified":null},"tax":{"marketValue":null,"assessedValue":null,"taxableValue":null,"taxes":null},"mailingAddress":{"line1":null,"line2":null,"city":null,"state":null,"zip":null},"incomeTract":null,"incomeBlockGroup":null,"nearestRoad":null,"flu":null,"opportunityZone":null,"oz2Eligibility":null,"source":"tn-oir-public-use-47001","appraiserUrl":"https://assessment.cot.tn.gov/TPAD/Parcel/GIS?gislink=001105F%20C%2006601"},"geometry":{"type":"Polygon","coordinates":[[[-84.261258,35.996974],[-84.260716,35.997274],[-84.260785,35.997341],[-84.261157,35.997122],[-84.262647,35.996454],[-84.262668,35.996327],[-84.262337,35.996291],[-84.262333,35.996309],[-84.2622,35.996293],[-84.262224,35.996157],[-84.26208,35.99614],[-84.262095,35.996058],[-84.262239,35.996075],[-84.262313,35.99566],[-84.262339,35.995585],[-84.262371,35.995513],[-84.262664,35.994769],[-84.262625,35.994759],[-84.262656,35.994681],[-84.262862,35.994735],[-84.262835,35.994803],[-84.263096,35.994871],[-84.263166,35.994682],[-84.262293,35.994575],[-84.261387,35.994629],[-84.26044,35.995438],[-84.261258,35.996974]]]}},{"type":"Feature","id":"47001:001105H A 01000","properties":{"id":"47001:001105H A 01000","parcelId":"001105H A 01000","countyFips":"47001","countyName":"Anderson","state":"Tennessee","marketIds":["Knoxville"],"situsAddress":"TEE JAY DR 100","situsCity":null,"situsZip":null,"jurisdictionCode":null,"ownerName":"JPP PARTNERSHIP","ownerName2":null,"propertyName":null,"zoningCode":null,"zoningDistrict":null,"jurisdictionPrefix":null,"dorCode":null,"acreage":8.7928,"centroid":[-84.270529,35.995922],"lastSale":{"date":"2015-05-18","price":2720000.0,"qualified":null,"vintage":"2023"},"tax":{"marketValue":2142700.0,"assessedValue":null,"taxableValue":null,"taxes":null,"vintage":"2023"},"mailingAddress":{"line1":null,"line2":null,"city":null,"state":null,"zip":null},"incomeTract":null,"incomeBlockGroup":null,"nearestRoad":null,"flu":null,"opportunityZone":null,"oz2Eligibility":null,"source":"tn-oir-public-use-47001","appraiserUrl":"https://assessment.cot.tn.gov/TPAD/Parcel/GIS?gislink=001105H%20A%2001000"},"geometry":{"type":"Polygon","coordinates":[[[-84.269731,35.996831],[-84.269953,35.996955],[-84.271119,35.995896],[-84.272258,35.995194],[-84.271454,35.994427],[-84.268661,35.996232],[-84.269731,35.996831]]]}},{"type":"Feature","id":"47001:001104E B 00900","properties":{"id":"47001:001104E B 00900","parcelId":"001104E B 00900","countyFips":"47001","countyName":"Anderson","state":"Tennessee","marketIds":["Knoxville"],"situsAddress":"GARG WILTSHIRE DR 110","situsCity":null,"situsZip":null,"jurisdictionCode":null,"ownerName":"SHEARER JACK R","ownerName2":null,"propertyName":null,"zoningCode":null,"zoningDistrict":null,"jurisdictionPrefix":null,"dorCode":null,"acreage":8.769,"centroid":[-84.298209,35.994892],"lastSale":{"date":"2022-09-13","price":625000.0,"qualified":null,"vintage":"2023"},"tax":{"marketValue":444900.0,"assessedValue":null,"taxableValue":null,"taxes":null,"vintage":"2023"},"mailingAddress":{"line1":null,"line2":null,"city":null,"state":null,"zip":null},"incomeTract":null,"incomeBlockGroup":null,"nearestRoad":null,"flu":null,"opportunityZone":null,"oz2Eligibility":null,"source":"tn-oir-public-use-47001","appraiserUrl":"https://assessment.cot.tn.gov/TPAD/Parcel/GIS?gislink=001104E%20B%2000900"},"geometry":{"type":"Polygon","coordinates":[[[-84.297197,35.995685],[-84.297416,35.995731],[-84.297627,35.995786],[-84.297802,35.995841],[-84.298113,35.995951],[-84.298274,35.995086],[-84.298757,35.994199],[-84.299294,35.994365],[-84.29949,35.993947],[-84.298122,35.992326],[-84.297197,35.995685]]]}},{"type":"Feature","id":"47001:001109    00200","properties":{"id":"47001:001109    00200","parcelId":"001109    00200","countyFips":"47001","countyName":"Anderson","state":"Tennessee","marketIds":["Knoxville"],"situsAddress":"BEAR CREEK RD","situsCity":null,"situsZip":null,"jurisdictionCode":null,"ownerName":"DEPARTMENT OF ENERGY","ownerName2":null,"propertyName":null,"zoningCode":null,"zoningDistrict":null,"jurisdictionPrefix":null,"dorCode":null,"acreage":7.7973,"centroid":[-84.299146,35.964516],"lastSale":{"date":"1994-08-24","price":null,"qualified":null,"vintage":"2023"},"tax":{"marketValue":null,"assessedValue":null,"taxableValue":null,"taxes":null},"mailingAddress":{"line1":null,"line2":null,"city":null,"state":null,"zip":null},"incomeTract":null,"incomeBlockGroup":null,"nearestRoad":null,"flu":null,"opportunityZone":null,"oz2Eligibility":null,"source":"tn-oir-public-use-47001","appraiserUrl":"https://assessment.cot.tn.gov/TPAD/Parcel/GIS?gislink=001109%20%20%20%2000200"},"geometry":{"type":"Polygon","coordinates":[[[-84.298113,35.964489],[-84.298378,35.964747],[-84.298354,35.964965],[-84.298499,35.965166],[-84.298782,35.965329],[-84.299014,35.96539],[-84.299322,35.965388],[-84.300282,35.964566],[-84.300231,35.964407],[-84.300255,35.964132],[-84.30003,35.963728],[-84.29985,35.963623],[-84.29888,35.963398],[-84.298054,35.963891],[-84.298113,35.964489]]]}},{"type":"Feature","id":"47001:001104M A 00500","properties":{"id":"47001:001104M A 00500","parcelId":"001104M A 00500","countyFips":"47001","countyName":"Anderson","state":"Tennessee","marketIds":["Knoxville"],"situsAddress":"TUSKEGEE DR","situsCity":null,"situsZip":null,"jurisdictionCode":null,"ownerName":"HUNTER SCOTT","ownerName2":"AND WIFE SARAH","propertyName":null,"zoningCode":null,"zoningDistrict":null,"jurisdictionPrefix":null,"dorCode":null,"acreage":7.6999,"centroid":[-84.295137,35.987717],"lastSale":{"date":"2015-11-05","price":73400.0,"qualified":null,"vintage":"2023"},"tax":{"marketValue":58500.0,"assessedValue":null,"taxableValue":null,"taxes":null,"vintage":"2023"},"mailingAddress":{"line1":null,"line2":null,"city":null,"state":null,"zip":null},"incomeTract":null,"incomeBlockGroup":null,"nearestRoad":null,"flu":null,"opportunityZone":null,"oz2Eligibility":null,"source":"tn-oir-public-use-47001","appraiserUrl":"https://assessment.cot.tn.gov/TPAD/Parcel/GIS?gislink=001104M%20A%2000500"},"geometry":{"type":"Polygon","coordinates":[[[-84.293563,35.987365],[-84.294374,35.988371],[-84.294608,35.988634],[-84.295985,35.987963],[-84.296297,35.987788],[-84.295977,35.987475],[-84.295152,35.98642],[-84.293563,35.987365]]]}},{"type":"Feature","id":"47001:001104N A 02300","properties":{"id":"47001:001104N A 02300","parcelId":"001104N A 02300","countyFips":"47001","countyName":"Anderson","state":"Tennessee","marketIds":["Knoxville"],"situsAddress":"MONTEREY RD","situsCity":null,"situsZip":null,"jurisdictionCode":null,"ownerName":"HERNANDEZ JOSE D. AYALA","ownerName2":"AND WIFE TERESA GUADALUPE AYALA","propertyName":null,"zoningCode":null,"zoningDistrict":null,"jurisdictionPrefix":null,"dorCode":null,"acreage":7.362,"centroid":[-84.309838,35.990922],"lastSale":{"date":"2004-03-26","price":260000.0,"qualified":null,"vintage":"2023"},"tax":{"marketValue":159200.0,"assessedValue":null,"taxableValue":null,"taxes":null,"vintage":"2023"},"mailingAddress":{"line1":null,"line2":null,"city":null,"state":null,"zip":null},"incomeTract":null,"incomeBlockGroup":null,"nearestRoad":null,"flu":null,"opportunityZone":null,"oz2Eligibility":null,"source":"tn-oir-public-use-47001","appraiserUrl":"https://assessment.cot.tn.gov/TPAD/Parcel/GIS?gislink=001104N%20A%2002300"},"geometry":{"type":"Polygon","coordinates":[[[-84.309112,35.990618],[-84.30849,35.991018],[-84.308964,35.991323],[-84.309191,35.991568],[-84.309479,35.992176],[-84.309814,35.991979],[-84.310006,35.991858],[-84.310003,35.991856],[-84.310065,35.991812],[-84.3104,35.991658],[-84.310536,35.991608],[-84.310714,35.99155],[-84.311072,35.991509],[-84.311221,35.991385],[-84.311347,35.991316],[-84.310673,35.990541],[-84.310297,35.990307],[-84.309956,35.990082],[-84.30963,35.99029],[-84.309451,35.990095],[-84.309444,35.99007],[-84.309457,35.990046],[-84.309289,35.990159],[-84.309307,35.990152],[-84.309326,35.990151],[-84.309346,35.990155],[-84.309362,35.990165],[-84.309524,35.990356],[-84.309112,35.990618]]]}},{"type":"Feature","id":"47001:001105K A 00101","properties":{"id":"47001:001105K A 00101","parcelId":"001105K A 00101","countyFips":"47001","countyName":"Anderson","state":"Tennessee","marketIds":["Knoxville"],"situsAddress":"TUSKEGEE DR","situsCity":null,"situsZip":null,"jurisdictionCode":null,"ownerName":"RIVER OAK DEVELOPMENT LLC","ownerName2":"C\\O JENNIE ANAYA","propertyName":null,"zoningCode":null,"zoningDistrict":null,"jurisdictionPrefix":null,"dorCode":null,"acreage":7.1048,"centroid":[-84.274798,35.990687],"lastSale":{"date":"2022-05-27","price":null,"qualified":null,"vintage":"2023"},"tax":{"marketValue":38600.0,"assessedValue":null,"taxableValue":null,"taxes":null,"vintage":"2023"},"mailingAddress":{"line1":null,"line2":null,"city":null,"state":null,"zip":null},"incomeTract":null,"incomeBlockGroup":null,"nearestRoad":null,"flu":null,"opportunityZone":null,"oz2Eligibility":null,"source":"tn-oir-public-use-47001","appraiserUrl":"https://assessment.cot.tn.gov/TPAD/Parcel/GIS?gislink=001105K%20A%2000101"},"geometry":{"type":"Polygon","coordinates":[[[-84.274302,35.99005],[-84.274395,35.990293],[-84.273942,35.990767],[-84.274884,35.991978],[-84.276399,35.991364],[-84.274865,35.989667],[-84.274302,35.99005]]]}},{"type":"Feature","id":"47001:001104E B 00400","properties":{"id":"47001:001104E B 00400","parcelId":"001104E B 00400","countyFips":"47001","countyName":"Anderson","state":"Tennessee","marketIds":["Knoxville"],"situsAddress":"WILTSHIRE DR 102","situsCity":null,"situsZip":null,"jurisdictionCode":null,"ownerName":"HILTEN CATHERINE H","ownerName2":null,"propertyName":null,"zoningCode":null,"zoningDistrict":null,"jurisdictionPrefix":null,"dorCode":null,"acreage":6.6564,"centroid":[-84.301544,35.998486],"lastSale":{"date":"2005-10-12","price":110000.0,"qualified":null,"vintage":"2023"},"tax":{"marketValue":135200.0,"assessedValue":null,"taxableValue":null,"taxes":null,"vintage":"2023"},"mailingAddress":{"line1":null,"line2":null,"city":null,"state":null,"zip":null},"incomeTract":null,"incomeBlockGroup":null,"nearestRoad":null,"flu":null,"opportunityZone":null,"oz2Eligibility":null,"source":"tn-oir-public-use-47001","appraiserUrl":"https://assessment.cot.tn.gov/TPAD/Parcel/GIS?gislink=001104E%20B%2000400"},"geometry":{"type":"Polygon","coordinates":[[[-84.299891,35.997835],[-84.300074,35.998466],[-84.300141,35.998643],[-84.30022,35.998808],[-84.300373,35.99869],[-84.30074,35.998742],[-84.302011,35.998635],[-84.302264,35.998545],[-84.30256,35.998653],[-84.302892,35.998633],[-84.303026,35.998603],[-84.303218,35.998362],[-84.302665,35.997707],[-84.299891,35.997835]]]}},{"type":"Feature","id":"47001:001104E B 01700","properties":{"id":"47001:001104E B 01700","parcelId":"001104E B 01700","countyFips":"47001","countyName":"Anderson","state":"Tennessee","marketIds":["Knoxville"],"situsAddress":"WILTSHIRE DR 101","situsCity":null,"situsZip":null,"jurisdictionCode":null,"ownerName":"OCHS DAVID W","ownerName2":"AND WIFE SUSAN M","propertyName":null,"zoningCode":null,"zoningDistrict":null,"jurisdictionPrefix":null,"dorCode":null,"acreage":6.5231,"centroid":[-84.299567,35.999685],"lastSale":{"date":"2005-08-02","price":235000.0,"qualified":null,"vintage":"2023"},"tax":{"marketValue":322300.0,"assessedValue":null,"taxableValue":null,"taxes":null,"vintage":"2023"},"mailingAddress":{"line1":null,"line2":null,"city":null,"state":null,"zip":null},"incomeTract":null,"incomeBlockGroup":null,"nearestRoad":null,"flu":null,"opportunityZone":null,"oz2Eligibility":null,"source":"tn-oir-public-use-47001","appraiserUrl":"https://assessment.cot.tn.gov/TPAD/Parcel/GIS?gislink=001104E%20B%2001700"},"geometry":{"type":"Polygon","coordinates":[[[-84.297348,35.999034],[-84.298013,36.00015],[-84.29869,36.000188],[-84.29887,36.000195],[-84.299162,36.000196],[-84.299428,36.000184],[-84.299631,36.000164],[-84.29985,36.000136],[-84.300058,36.000104],[-84.300257,36.000068],[-84.300491,36.000018],[-84.300724,35.99996],[-84.300757,35.999943],[-84.300776,35.999916],[-84.30078,35.999888],[-84.300769,35.999861],[-84.300269,35.999246],[-84.300146,35.999068],[-84.300041,35.998887],[-84.299976,35.998965],[-84.299592,35.999077],[-84.29938,35.999299],[-84.299097,35.999366],[-84.297659,35.999207],[-84.297408,35.999007],[-84.297348,35.999034]]]}},{"type":"Feature","id":"47001:001105H A 01700","properties":{"id":"47001:001105H A 01700","parcelId":"001105H A 01700","countyFips":"47001","countyName":"Anderson","state":"Tennessee","marketIds":["Knoxville"],"situsAddress":"WILTSHIRE DR 126","situsCity":null,"situsZip":null,"jurisdictionCode":null,"ownerName":"CHENEY JASON T","ownerName2":"AND WIFE CHRISTINE P","propertyName":null,"zoningCode":null,"zoningDistrict":null,"jurisdictionPrefix":null,"dorCode":null,"acreage":5.8131,"centroid":[-84.288708,35.999197],"lastSale":{"date":"2002-07-17","price":115600.0,"qualified":null,"vintage":"2023"},"tax":{"marketValue":579100.0,"assessedValue":null,"taxableValue":null,"taxes":null,"vintage":"2023"},"mailingAddress":{"line1":null,"line2":null,"city":null,"state":null,"zip":null},"incomeTract":null,"incomeBlockGroup":null,"nearestRoad":null,"flu":null,"opportunityZone":null,"oz2Eligibility":null,"source":"tn-oir-public-use-47001","appraiserUrl":"https://assessment.cot.tn.gov/TPAD/Parcel/GIS?gislink=001105H%20A%2001700"},"geometry":{"type":"Polygon","coordinates":[[[-84.287085,35.998801],[-84.288354,36.000399],[-84.289098,35.999533],[-84.289068,35.999516],[-84.289045,35.999494],[-84.289027,35.999469],[-84.289016,35.99944],[-84.289013,35.999411],[-84.289017,35.999383],[-84.289029,35.999356],[-84.289049,35.999327],[-84.289103,35.999266],[-84.289171,35.999212],[-84.289248,35.999167],[-84.289331,35.999133],[-84.288723,35.998962],[-84.287975,35.998011],[-84.28773,35.998207],[-84.287371,35.998663],[-84.287085,35.998801]]]}},{"type":"Feature","id":"47001:001104E B 00300","properties":{"id":"47001:001104E B 00300","parcelId":"001104E B 00300","countyFips":"47001","countyName":"Anderson","state":"Tennessee","marketIds":["Knoxville"],"situsAddress":"WILTSHIRE DR 100","situsCity":null,"situsZip":null,"jurisdictionCode":null,"ownerName":"CLARY MARK E","ownerName2":"AND WIFE ELIZABETH P","propertyName":null,"zoningCode":null,"zoningDistrict":null,"jurisdictionPrefix":null,"dorCode":null,"acreage":5.7713,"centroid":[-84.301678,35.99912],"lastSale":{"date":"2012-04-13","price":145000.0,"qualified":null,"vintage":"2023"},"tax":{"marketValue":513800.0,"assessedValue":null,"taxableValue":null,"taxes":null,"vintage":"2023"},"mailingAddress":{"line1":null,"line2":null,"city":null,"state":null,"zip":null},"incomeTract":null,"incomeBlockGroup":null,"nearestRoad":null,"flu":null,"opportunityZone":null,"oz2Eligibility":null,"source":"tn-oir-public-use-47001","appraiserUrl":"https://assessment.cot.tn.gov/TPAD/Parcel/GIS?gislink=001104E%20B%2000300"},"geometry":{"type":"Polygon","coordinates":[[[-84.30022,35.998808],[-84.300283,35.998921],[-84.300344,35.999019],[-84.300418,35.999127],[-84.300491,35.999223],[-84.300896,35.999716],[-84.300985,35.999835],[-84.301018,35.999857],[-84.301057,35.999863],[-84.301102,35.999853],[-84.301347,35.999774],[-84.301702,35.999645],[-84.30203,35.999509],[-84.302352,35.999359],[-84.302662,35.999197],[-84.302949,35.999031],[-84.30322,35.998856],[-84.303478,35.99867],[-84.303218,35.998362],[-84.303026,35.998603],[-84.302892,35.998633],[-84.30256,35.998653],[-84.302264,35.998545],[-84.302011,35.998635],[-84.30074,35.998742],[-84.300373,35.99869],[-84.30022,35.998808]]]}},{"type":"Feature","id":"47001:001105H A 01200","properties":{"id":"47001:001105H A 01200","parcelId":"001105H A 01200","countyFips":"47001","countyName":"Anderson","state":"Tennessee","marketIds":["Knoxville"],"situsAddress":"WILTSHIRE DR 116","situsCity":null,"situsZip":null,"jurisdictionCode":null,"ownerName":"HARDY CONSTANCE","ownerName2":"AND HUSBAND DONN M","propertyName":null,"zoningCode":null,"zoningDistrict":null,"jurisdictionPrefix":null,"dorCode":null,"acreage":5.7668,"centroid":[-84.294448,35.995327],"lastSale":{"date":"2005-12-12","price":138000.0,"qualified":null,"vintage":"2023"},"tax":{"marketValue":575700.0,"assessedValue":null,"taxableValue":null,"taxes":null,"vintage":"2023"},"mailingAddress":{"line1":null,"line2":null,"city":null,"state":null,"zip":null},"incomeTract":null,"incomeBlockGroup":null,"nearestRoad":null,"flu":null,"opportunityZone":null,"oz2Eligibility":null,"source":"tn-oir-public-use-47001","appraiserUrl":"https://assessment.cot.tn.gov/TPAD/Parcel/GIS?gislink=001105H%20A%2001200"},"geometry":{"type":"Polygon","coordinates":[[[-84.293018,35.994825],[-84.294383,35.996626],[-84.294447,35.996572],[-84.294514,35.996523],[-84.294679,35.996422],[-84.294826,35.996341],[-84.295187,35.996162],[-84.295008,35.995549],[-84.294987,35.995499],[-84.294958,35.99545],[-84.294905,35.995391],[-84.29484,35.995341],[-84.294774,35.995305],[-84.29467,35.995267],[-84.294618,35.995242],[-84.294556,35.995202],[-84.294504,35.995156],[-84.294473,35.99512],[-84.294447,35.995082],[-84.294338,35.994864],[-84.29428,35.99477],[-84.294223,35.994689],[-84.294157,35.994607],[-84.29406,35.994499],[-84.293968,35.994406],[-84.293867,35.994311],[-84.29341,35.99461],[-84.293018,35.994825]]]}},{"type":"Feature","id":"47001:001105H A 02300","properties":{"id":"47001:001105H A 02300","parcelId":"001105H A 02300","countyFips":"47001","countyName":"Anderson","state":"Tennessee","marketIds":["Knoxville"],"situsAddress":"WILTSHIRE DR 113","situsCity":null,"situsZip":null,"jurisdictionCode":null,"ownerName":"ELLIOTT ERNEST P","ownerName2":"AND WIFE JULIE PRICE ELLIOTT","propertyName":null,"zoningCode":null,"zoningDistrict":null,"jurisdictionPrefix":null,"dorCode":null,"acreage":5.6604,"centroid":[-84.295349,35.997482],"lastSale":{"date":"2020-02-20","price":775000.0,"qualified":null,"vintage":"2023"},"tax":{"marketValue":741400.0,"assessedValue":null,"taxableValue":null,"taxes":null,"vintage":"2023"},"mailingAddress":{"line1":null,"line2":null,"city":null,"state":null,"zip":null},"incomeTract":null,"incomeBlockGroup":null,"nearestRoad":null,"flu":null,"opportunityZone":null,"oz2Eligibility":null,"source":"tn-oir-public-use-47001","appraiserUrl":"https://assessment.cot.tn.gov/TPAD/Parcel/GIS?gislink=001105H%20A%2002300"},"geometry":{"type":"Polygon","coordinates":[[[-84.294105,35.997438],[-84.295336,35.998518],[-84.295361,35.998495],[-84.295429,35.998359],[-84.29545,35.998329],[-84.295494,35.998299],[-84.29558,35.99827],[-84.295699,35.998186],[-84.295764,35.998159],[-84.295783,35.998148],[-84.295806,35.998124],[-84.295837,35.998064],[-84.295861,35.997994],[-84.295904,35.997925],[-84.295978,35.997858],[-84.296028,35.997825],[-84.296117,35.997799],[-84.295967,35.997623],[-84.295819,35.99743],[-84.29569,35.997243],[-84.295564,35.997039],[-84.295452,35.996831],[-84.295361,35.996638],[-84.295297,35.996469],[-84.295245,35.996294],[-84.294916,35.996457],[-84.294731,35.99656],[-84.294652,35.996609],[-84.29459,35.996651],[-84.294526,35.996702],[-84.294473,35.996752],[-84.29439,35.996847],[-84.294321,35.996955],[-84.294105,35.997438]]]}},{"type":"Feature","id":"47001:001104N A 00202","properties":{"id":"47001:001104N A 00202","parcelId":"001104N A 00202","countyFips":"47001","countyName":"Anderson","state":"Tennessee","marketIds":["Knoxville"],"situsAddress":"HERTIMAGE BLVD","situsCity":null,"situsZip":null,"jurisdictionCode":null,"ownerName":"KINGSTON PARTNERS","ownerName2":null,"propertyName":null,"zoningCode":null,"zoningDistrict":null,"jurisdictionPrefix":null,"dorCode":null,"acreage":5.6548,"centroid":[-84.313603,35.992332],"lastSale":{"date":"2020-10-23","price":110000.0,"qualified":null,"vintage":"2023"},"tax":{"marketValue":141500.0,"assessedValue":null,"taxableValue":null,"taxes":null,"vintage":"2023"},"mailingAddress":{"line1":null,"line2":null,"city":null,"state":null,"zip":null},"incomeTract":null,"incomeBlockGroup":null,"nearestRoad":null,"flu":null,"opportunityZone":null,"oz2Eligibility":null,"source":"tn-oir-public-use-47001","appraiserUrl":"https://assessment.cot.tn.gov/TPAD/Parcel/GIS?gislink=001104N%20A%2000202"},"geometry":{"type":"Polygon","coordinates":[[[-84.313098,35.991954],[-84.313099,35.992031],[-84.313089,35.992201],[-84.313018,35.992365],[-84.313062,35.992621],[-84.313172,35.992774],[-84.313532,35.992838],[-84.313768,35.992856],[-84.313929,35.9929],[-84.31406,35.992951],[-84.314125,35.993016],[-84.314194,35.993216],[-84.31424,35.993272],[-84.314289,35.993302],[-84.314346,35.993299],[-84.314485,35.993225],[-84.314671,35.993119],[-84.314948,35.992926],[-84.313296,35.990922],[-84.313204,35.99087],[-84.313119,35.99081],[-84.312736,35.991166],[-84.312879,35.99126],[-84.313095,35.991454],[-84.313124,35.991517],[-84.313097,35.991763],[-84.313098,35.991954]]]}},{"type":"Feature","id":"47001:001104E B 00500","properties":{"id":"47001:001104E B 00500","parcelId":"001104E B 00500","countyFips":"47001","countyName":"Anderson","state":"Tennessee","marketIds":["Knoxville"],"situsAddress":"WILTSHIRE DR 104","situsCity":null,"situsZip":null,"jurisdictionCode":null,"ownerName":"HILTEN CATHERINE H","ownerName2":null,"propertyName":null,"zoningCode":null,"zoningDistrict":null,"jurisdictionPrefix":null,"dorCode":null,"acreage":5.6117,"centroid":[-84.300577,35.997279],"lastSale":{"date":"2005-10-12","price":250000.0,"qualified":null,"vintage":"2023"},"tax":{"marketValue":270000.0,"assessedValue":null,"taxableValue":null,"taxes":null,"vintage":"2023"},"mailingAddress":{"line1":null,"line2":null,"city":null,"state":null,"zip":null},"incomeTract":null,"incomeBlockGroup":null,"nearestRoad":null,"flu":null,"opportunityZone":null,"oz2Eligibility":null,"source":"tn-oir-public-use-47001","appraiserUrl":"https://assessment.cot.tn.gov/TPAD/Parcel/GIS?gislink=001104E%20B%2000500"},"geometry":{"type":"Polygon","coordinates":[[[-84.299642,35.997029],[-84.299681,35.997121],[-84.299713,35.997214],[-84.299891,35.997835],[-84.302665,35.997707],[-84.30187,35.996766],[-84.299642,35.997029]]]}},{"type":"Feature","id":"47001:001104E B 01400","properties":{"id":"47001:001104E B 01400","parcelId":"001104E B 01400","countyFips":"47001","countyName":"Anderson","state":"Tennessee","marketIds":["Knoxville"],"situsAddress":"WILTSHIRE DR 107","situsCity":null,"situsZip":null,"jurisdictionCode":null,"ownerName":"MARSH FRANK ALLEN","ownerName2":"AND MARGARET JANE MARSH","propertyName":null,"zoningCode":null,"zoningDistrict":null,"jurisdictionPrefix":null,"dorCode":null,"acreage":5.4185,"centroid":[-84.298774,35.996995],"lastSale":{"date":"2015-09-30","price":null,"qualified":null,"vintage":"2023"},"tax":{"marketValue":342400.0,"assessedValue":null,"taxableValue":null,"taxes":null,"vintage":"2023"},"mailingAddress":{"line1":null,"line2":null,"city":null,"state":null,"zip":null},"incomeTract":null,"incomeBlockGroup":null,"nearestRoad":null,"flu":null,"opportunityZone":null,"oz2Eligibility":null,"source":"tn-oir-public-use-47001","appraiserUrl":"https://assessment.cot.tn.gov/TPAD/Parcel/GIS?gislink=001104E%20B%2001400"},"geometry":{"type":"Polygon","coordinates":[[[-84.296538,35.997991],[-84.296939,35.998444],[-84.299451,35.997085],[-84.299448,35.99708],[-84.299397,35.996983],[-84.299333,35.996883],[-84.299259,35.996786],[-84.299179,35.996697],[-84.29909,35.996612],[-84.298992,35.996532],[-84.298889,35.996459],[-84.298778,35.996392],[-84.296538,35.997991]]]}},{"type":"Feature","id":"47001:001105F C 05600","properties":{"id":"47001:001105F C 05600","parcelId":"001105F C 05600","countyFips":"47001","countyName":"Anderson","state":"Tennessee","marketIds":["Knoxville"],"situsAddress":"WILBERFORCE AVE 220","situsCity":null,"situsZip":null,"jurisdictionCode":null,"ownerName":"WCO KAREDAY,LLC","ownerName2":null,"propertyName":null,"zoningCode":null,"zoningDistrict":null,"jurisdictionPrefix":null,"dorCode":null,"acreage":5.3242,"centroid":[-84.260889,35.99885],"lastSale":{"date":"2015-12-14","price":null,"qualified":null,"vintage":"2023"},"tax":{"marketValue":1022600.0,"assessedValue":null,"taxableValue":null,"taxes":null,"vintage":"2023"},"mailingAddress":{"line1":null,"line2":null,"city":null,"state":null,"zip":null},"incomeTract":null,"incomeBlockGroup":null,"nearestRoad":null,"flu":null,"opportunityZone":null,"oz2Eligibility":null,"source":"tn-oir-public-use-47001","appraiserUrl":"https://assessment.cot.tn.gov/TPAD/Parcel/GIS?gislink=001105F%20C%2005600"},"geometry":{"type":"Polygon","coordinates":[[[-84.260011,35.999516],[-84.260553,35.999404],[-84.260729,35.999539],[-84.261235,35.999275],[-84.261361,35.999376],[-84.262389,35.998443],[-84.262704,35.998271],[-84.261999,35.997572],[-84.261877,35.997661],[-84.261753,35.997757],[-84.261494,35.997981],[-84.261215,35.998237],[-84.260785,35.998656],[-84.260609,35.998815],[-84.260415,35.998975],[-84.260169,35.999155],[-84.260125,35.999192],[-84.26007,35.99926],[-84.260034,35.999333],[-84.260019,35.999381],[-84.26001,35.999426],[-84.260008,35.999472],[-84.260011,35.999516]]]}},{"type":"Feature","id":"47001:001105H A 02000","properties":{"id":"47001:001105H A 02000","parcelId":"001105H A 02000","countyFips":"47001","countyName":"Anderson","state":"Tennessee","marketIds":["Knoxville"],"situsAddress":"WILTSHIRE DR 119","situsCity":null,"situsZip":null,"jurisdictionCode":null,"ownerName":"WELLER MICHAEL","ownerName2":"AND WIFE LINDSEY WELLER","propertyName":null,"zoningCode":null,"zoningDistrict":null,"jurisdictionPrefix":null,"dorCode":null,"acreage":5.321,"centroid":[-84.292055,35.999364],"lastSale":{"date":"2014-10-30","price":488500.0,"qualified":null,"vintage":"2023"},"tax":{"marketValue":565300.0,"assessedValue":null,"taxableValue":null,"taxes":null,"vintage":"2023"},"mailingAddress":{"line1":null,"line2":null,"city":null,"state":null,"zip":null},"incomeTract":null,"incomeBlockGroup":null,"nearestRoad":null,"flu":null,"opportunityZone":null,"oz2Eligibility":null,"source":"tn-oir-public-use-47001","appraiserUrl":"https://assessment.cot.tn.gov/TPAD/Parcel/GIS?gislink=001105H%20A%2002000"},"geometry":{"type":"Polygon","coordinates":[[[-84.290979,35.999133],[-84.291821,36.00013],[-84.291969,36.000107],[-84.292143,36.000095],[-84.292219,36.000077],[-84.292327,36.000038],[-84.292413,35.999993],[-84.292591,35.999876],[-84.292693,35.999799],[-84.292757,35.999737],[-84.292782,35.999717],[-84.29283,35.999702],[-84.29296,35.999685],[-84.293047,35.999635],[-84.293104,35.999609],[-84.293153,35.999571],[-84.29171,35.998167],[-84.291649,35.998229],[-84.291589,35.998297],[-84.291486,35.998436],[-84.291424,35.998538],[-84.291261,35.998851],[-84.29121,35.99893],[-84.291161,35.998988],[-84.291105,35.999042],[-84.291043,35.999091],[-84.290979,35.999133]]]}},{"type":"Feature","id":"47001:001104E B 01500","properties":{"id":"47001:001104E B 01500","parcelId":"001104E B 01500","countyFips":"47001","countyName":"Anderson","state":"Tennessee","marketIds":["Knoxville"],"situsAddress":"WILTSHIRE DR 105","situsCity":null,"situsZip":null,"jurisdictionCode":null,"ownerName":"HUNTER ALLEN R","ownerName2":"AND WIFE LORI E HUNTER","propertyName":null,"zoningCode":null,"zoningDistrict":null,"jurisdictionPrefix":null,"dorCode":null,"acreage":5.2319,"centroid":[-84.298574,35.998046],"lastSale":{"date":"2018-02-26","price":289000.0,"qualified":null,"vintage":"2023"},"tax":{"marketValue":293800.0,"assessedValue":null,"taxableValue":null,"taxes":null,"vintage":"2023"},"mailingAddress":{"line1":null,"line2":null,"city":null,"state":null,"zip":null},"incomeTract":null,"incomeBlockGroup":null,"nearestRoad":null,"flu":null,"opportunityZone":null,"oz2Eligibility":null,"source":"tn-oir-public-use-47001","appraiserUrl":"https://assessment.cot.tn.gov/TPAD/Parcel/GIS?gislink=001104E%20B%2001500"},"geometry":{"type":"Polygon","coordinates":[[[-84.296939,35.998444],[-84.297059,35.99858],[-84.297132,35.998677],[-84.297348,35.999034],[-84.298967,35.998284],[-84.299222,35.998091],[-84.299483,35.997967],[-84.299707,35.997921],[-84.299518,35.997258],[-84.299487,35.997169],[-84.299451,35.997085],[-84.296939,35.998444]]]}},{"type":"Feature","id":"47001:001104E B 01300","properties":{"id":"47001:001104E B 01300","parcelId":"001104E B 01300","countyFips":"47001","countyName":"Anderson","state":"Tennessee","marketIds":["Knoxville"],"situsAddress":"WILTSHIRE DR 109","situsCity":null,"situsZip":null,"jurisdictionCode":null,"ownerName":"SOUTHARD THOMAS","ownerName2":"AND WIFE ANNETTE","propertyName":null,"zoningCode":null,"zoningDistrict":null,"jurisdictionPrefix":null,"dorCode":null,"acreage":5.1713,"centroid":[-84.297341,35.996941],"lastSale":{"date":"1994-09-29","price":230000.0,"qualified":null,"vintage":"2023"},"tax":{"marketValue":591300.0,"assessedValue":null,"taxableValue":null,"taxes":null,"vintage":"2023"},"mailingAddress":{"line1":null,"line2":null,"city":null,"state":null,"zip":null},"incomeTract":null,"incomeBlockGroup":null,"nearestRoad":null,"flu":null,"opportunityZone":null,"oz2Eligibility":null,"source":"tn-oir-public-use-47001","appraiserUrl":"https://assessment.cot.tn.gov/TPAD/Parcel/GIS?gislink=001104E%20B%2001300"},"geometry":{"type":"Polygon","coordinates":[[[-84.296097,35.997483],[-84.296234,35.997648],[-84.296538,35.997991],[-84.298778,35.996392],[-84.29867,35.996337],[-84.298555,35.996288],[-84.297859,35.996041],[-84.295993,35.997345],[-84.296097,35.997483]]]}},{"type":"Feature","id":"47001:001105H A 02100","properties":{"id":"47001:001105H A 02100","parcelId":"001105H A 02100","countyFips":"47001","countyName":"Anderson","state":"Tennessee","marketIds":["Knoxville"],"situsAddress":"WILTSHIRE DR 117","situsCity":null,"situsZip":null,"jurisdictionCode":null,"ownerName":"BROWN ELIAS S","ownerName2":"AND GABRIEL JAMES BROWN","propertyName":null,"zoningCode":null,"zoningDistrict":null,"jurisdictionPrefix":null,"dorCode":null,"acreage":5.1417,"centroid":[-84.292912,35.998517],"lastSale":{"date":"2010-09-01","price":null,"qualified":null,"vintage":"2023"},"tax":{"marketValue":542800.0,"assessedValue":null,"taxableValue":null,"taxes":null,"vintage":"2023"},"mailingAddress":{"line1":null,"line2":null,"city":null,"state":null,"zip":null},"incomeTract":null,"incomeBlockGroup":null,"nearestRoad":null,"flu":null,"opportunityZone":null,"oz2Eligibility":null,"source":"tn-oir-public-use-47001","appraiserUrl":"https://assessment.cot.tn.gov/TPAD/Parcel/GIS?gislink=001105H%20A%2002100"},"geometry":{"type":"Polygon","coordinates":[[[-84.29171,35.998167],[-84.293153,35.999571],[-84.293332,35.999416],[-84.293392,35.999379],[-84.293595,35.999272],[-84.293659,35.999215],[-84.293677,35.999205],[-84.293716,35.999191],[-84.293861,35.999159],[-84.293933,35.999124],[-84.293989,35.999107],[-84.294091,35.999088],[-84.294175,35.999077],[-84.292912,35.997856],[-84.292617,35.997804],[-84.292534,35.997795],[-84.292466,35.997793],[-84.292402,35.997797],[-84.292331,35.997807],[-84.292269,35.99782],[-84.292202,35.997841],[-84.292138,35.997866],[-84.292005,35.99794],[-84.291922,35.997994],[-84.291848,35.998048],[-84.29178,35.998104],[-84.29171,35.998167]]]}},{"type":"Feature","id":"47001:001104E B 00600","properties":{"id":"47001:001104E B 00600","parcelId":"001104E B 00600","countyFips":"47001","countyName":"Anderson","state":"Tennessee","marketIds":["Knoxville"],"situsAddress":"WILTSHIRE DR 106","situsCity":null,"situsZip":null,"jurisdictionCode":null,"ownerName":"THOMAS BENJAMIN A","ownerName2":"AND WIFE BRITTANY D THOMAS","propertyName":null,"zoningCode":null,"zoningDistrict":null,"jurisdictionPrefix":null,"dorCode":null,"acreage":5.0984,"centroid":[-84.299747,35.996593],"lastSale":{"date":"2019-06-24","price":200000.0,"qualified":null,"vintage":"2023"},"tax":{"marketValue":271500.0,"assessedValue":null,"taxableValue":null,"taxes":null,"vintage":"2023"},"mailingAddress":{"line1":null,"line2":null,"city":null,"state":null,"zip":null},"incomeTract":null,"incomeBlockGroup":null,"nearestRoad":null,"flu":null,"opportunityZone":null,"oz2Eligibility":null,"source":"tn-oir-public-use-47001","appraiserUrl":"https://assessment.cot.tn.gov/TPAD/Parcel/GIS?gislink=001104E%20B%2000600"},"geometry":{"type":"Polygon","coordinates":[[[-84.299034,35.996343],[-84.299134,35.996414],[-84.299227,35.99649],[-84.299314,35.99657],[-84.299394,35.996655],[-84.299467,35.996744],[-84.299533,35.996836],[-84.299592,35.996932],[-84.299642,35.997029],[-84.30187,35.996766],[-84.301008,35.995745],[-84.299034,35.996343]]]}},{"type":"Feature","id":"47001:001104G A 00900","properties":{"id":"47001:001104G A 00900","parcelId":"001104G A 00900","countyFips":"47001","countyName":"Anderson","state":"Tennessee","marketIds":["Knoxville"],"situsAddress":"MONTANA AVE 135","situsCity":null,"situsZip":null,"jurisdictionCode":null,"ownerName":"TAYS THOMAS AND CAROLYN TAYS","ownerName2":"FAMILY REVOCABLE TRUST","propertyName":null,"zoningCode":null,"zoningDistrict":null,"jurisdictionPrefix":null,"dorCode":null,"acreage":5.0885,"centroid":[-84.317643,35.999251],"lastSale":{"date":"2015-11-05","price":440000.0,"qualified":null,"vintage":"2023"},"tax":{"marketValue":629800.0,"assessedValue":null,"taxableValue":null,"taxes":null,"vintage":"2023"},"mailingAddress":{"line1":null,"line2":null,"city":null,"state":null,"zip":null},"incomeTract":null,"incomeBlockGroup":null,"nearestRoad":null,"flu":null,"opportunityZone":null,"oz2Eligibility":null,"source":"tn-oir-public-use-47001","appraiserUrl":"https://assessment.cot.tn.gov/TPAD/Parcel/GIS?gislink=001104G%20A%2000900"},"geometry":{"type":"Polygon","coordinates":[[[-84.316616,35.999364],[-84.316716,35.999404],[-84.316828,35.999433],[-84.318033,35.999623],[-84.318247,35.99967],[-84.318442,35.999727],[-84.319092,35.998931],[-84.317865,35.998291],[-84.316946,35.998816],[-84.316616,35.999364]]]}},{"type":"Feature","id":"47001:001105H A 01300","properties":{"id":"47001:001105H A 01300","parcelId":"001105H A 01300","countyFips":"47001","countyName":"Anderson","state":"Tennessee","marketIds":["Knoxville"],"situsAddress":"WILTSHIRE DR 122","situsCity":null,"situsZip":null,"jurisdictionCode":null,"ownerName":"PARRETT PHILLIP A","ownerName2":"AND OTHERS","propertyName":null,"zoningCode":null,"zoningDistrict":null,"jurisdictionPrefix":null,"dorCode":null,"acreage":5.0547,"centroid":[-84.293375,35.99735],"lastSale":{"date":"2018-05-22","price":null,"qualified":null,"vintage":"2023"},"tax":{"marketValue":583600.0,"assessedValue":null,"taxableValue":null,"taxes":null,"vintage":"2023"},"mailingAddress":{"line1":null,"line2":null,"city":null,"state":null,"zip":null},"incomeTract":null,"incomeBlockGroup":null,"nearestRoad":null,"flu":null,"opportunityZone":null,"oz2Eligibility":null,"source":"tn-oir-public-use-47001","appraiserUrl":"https://assessment.cot.tn.gov/TPAD/Parcel/GIS?gislink=001105H%20A%2001300"},"geometry":{"type":"Polygon","coordinates":[[[-84.292748,35.997686],[-84.293204,35.997767],[-84.293283,35.997777],[-84.293356,35.997778],[-84.293429,35.997772],[-84.2935,35.99776],[-84.293569,35.99774],[-84.29365,35.997708],[-84.293721,35.997669],[-84.293783,35.997623],[-84.293839,35.99757],[-84.293877,35.997522],[-84.293909,35.997472],[-84.294,35.997268],[-84.293696,35.997178],[-84.292702,35.99582],[-84.292677,35.995984],[-84.29181,35.996197],[-84.292748,35.997686]]]}},{"type":"Feature","id":"47001:001104N A 00300","properties":{"id":"47001:001104N A 00300","parcelId":"001104N A 00300","countyFips":"47001","countyName":"Anderson","state":"Tennessee","marketIds":["Knoxville"],"situsAddress":"OAK RIDGE TURNPIKE 2385","situsCity":null,"situsZip":null,"jurisdictionCode":null,"ownerName":"W&L PROPERTIES LLC","ownerName2":null,"propertyName":null,"zoningCode":null,"zoningDistrict":null,"jurisdictionPrefix":null,"dorCode":null,"acreage":5.0304,"centroid":[-84.311953,35.993189],"lastSale":{"date":"2006-08-23","price":null,"qualified":null,"vintage":"2023"},"tax":{"marketValue":656700.0,"assessedValue":null,"taxableValue":null,"taxes":null,"vintage":"2023"},"mailingAddress":{"line1":null,"line2":null,"city":null,"state":null,"zip":null},"incomeTract":null,"incomeBlockGroup":null,"nearestRoad":null,"flu":null,"opportunityZone":null,"oz2Eligibility":null,"source":"tn-oir-public-use-47001","appraiserUrl":"https://assessment.cot.tn.gov/TPAD/Parcel/GIS?gislink=001104N%20A%2000300"},"geometry":{"type":"Polygon","coordinates":[[[-84.312691,35.992502],[-84.31103,35.992667],[-84.31121,35.99388],[-84.312882,35.993705],[-84.312691,35.992502]]]}}]}