{"type":"FeatureCollection","name":"37035-5_34","features":[{"type":"Feature","id":"37035:265703212949","properties":{"id":"37035:265703212949","parcelId":"265703212949","countyFips":"37035","countyName":"Catawba","state":"North Carolina","marketIds":["Charlotte"],"situsAddress":"4009 NC 18 HWY","situsCity":null,"situsZip":null,"jurisdictionCode":null,"ownerName":"FREDELL SPENCER T","ownerName2":null,"propertyName":null,"zoningCode":null,"zoningDistrict":null,"jurisdictionPrefix":null,"dorCode":null,"acreage":100.1,"centroid":[-81.512608,35.570819],"lastSale":{"date":null,"price":null,"qualified":null},"tax":{"marketValue":669700.0,"assessedValue":397700.0,"taxableValue":null,"taxes":null},"mailingAddress":{"line1":null,"line2":null,"city":null,"state":null,"zip":null},"incomeTract":null,"incomeBlockGroup":null,"nearestRoad":null,"flu":null,"opportunityZone":null,"oz2Eligibility":null,"source":"nc-onemap-37035"},"geometry":{"type":"Polygon","coordinates":[[[-81.51004,35.5718],[-81.50961,35.57081],[-81.50913,35.57068],[-81.50931,35.56991],[-81.50893,35.56981],[-81.50908,35.56952],[-81.50959,35.56939],[-81.51134,35.5698],[-81.5113,35.56992],[-81.51173,35.57012],[-81.51229,35.57007],[-81.51256,35.5693],[-81.51157,35.56915],[-81.51167,35.56888],[-81.51464,35.56781],[-81.51924,35.56941],[-81.51579,35.57045],[-81.51416,35.57023],[-81.51433,35.57077],[-81.51472,35.57126],[-81.51556,35.57137],[-81.51802,35.57085],[-81.51754,35.57141],[-81.51492,35.57588],[-81.51301,35.57576],[-81.51218,35.57338],[-81.51072,35.57338],[-81.51004,35.57182],[-81.51004,35.5718]],[[-81.50916,35.56939],[-81.50936,35.56907],[-81.50973,35.56915],[-81.50969,35.56935],[-81.50913,35.56944],[-81.50916,35.56939]]]}},{"type":"Feature","id":"37035:265703143051","properties":{"id":"37035:265703143051","parcelId":"265703143051","countyFips":"37035","countyName":"Catawba","state":"North Carolina","marketIds":["Charlotte"],"situsAddress":"3804 PEA RIDGE RD","situsCity":null,"situsZip":null,"jurisdictionCode":null,"ownerName":"MULL JUNE TALENT","ownerName2":null,"propertyName":null,"zoningCode":null,"zoningDistrict":null,"jurisdictionPrefix":null,"dorCode":null,"acreage":97.16,"centroid":[-81.518342,35.576969],"lastSale":{"date":null,"price":null,"qualified":null},"tax":{"marketValue":26900.0,"assessedValue":462600.0,"taxableValue":null,"taxes":null},"mailingAddress":{"line1":null,"line2":null,"city":null,"state":null,"zip":null},"incomeTract":null,"incomeBlockGroup":null,"nearestRoad":null,"flu":null,"opportunityZone":null,"oz2Eligibility":null,"source":"nc-onemap-37035"},"geometry":{"type":"Polygon","coordinates":[[[-81.51547,35.57853],[-81.51394,35.57578],[-81.51492,35.57588],[-81.51754,35.57141],[-81.5216,35.57359],[-81.52133,35.57569],[-81.52104,35.57675],[-81.51983,35.57691],[-81.51978,35.57724],[-81.52028,35.57768],[-81.51935,35.57825],[-81.51893,35.57778],[-81.51856,35.57799],[-81.519,35.57847],[-81.51606,35.58005],[-81.51584,35.5795],[-81.51547,35.57853]],[[-81.5213,35.57655],[-81.52154,35.5758],[-81.52183,35.57362],[-81.52277,35.57412],[-81.52236,35.57464],[-81.52287,35.5765],[-81.52217,35.57651],[-81.52124,35.57671],[-81.52128,35.5766],[-81.5213,35.57655]]]}},{"type":"Feature","id":"37035:264704829306","properties":{"id":"37035:264704829306","parcelId":"264704829306","countyFips":"37035","countyName":"Catawba","state":"North Carolina","marketIds":["Charlotte"],"situsAddress":"4107 PEA RIDGE RD","situsCity":null,"situsZip":null,"jurisdictionCode":null,"ownerName":"DAVIS BOBBY GENE","ownerName2":null,"propertyName":null,"zoningCode":null,"zoningDistrict":null,"jurisdictionPrefix":null,"dorCode":null,"acreage":86.1,"centroid":[-81.525061,35.571749],"lastSale":{"date":null,"price":null,"qualified":null},"tax":{"marketValue":34200.0,"assessedValue":406600.0,"taxableValue":null,"taxes":null},"mailingAddress":{"line1":null,"line2":null,"city":null,"state":null,"zip":null},"incomeTract":null,"incomeBlockGroup":null,"nearestRoad":null,"flu":null,"opportunityZone":null,"oz2Eligibility":null,"source":"nc-onemap-37035"},"geometry":{"type":"Polygon","coordinates":[[[-81.52451,35.57255],[-81.52376,35.57233],[-81.52277,35.57412],[-81.52183,35.57362],[-81.52169,35.57303],[-81.52175,35.57276],[-81.52343,35.57175],[-81.52525,35.57006],[-81.52586,35.569],[-81.52601,35.56789],[-81.5272,35.56793],[-81.53134,35.56988],[-81.52873,35.57438],[-81.52672,35.57518],[-81.52451,35.57255]]]}},{"type":"Feature","id":"37035:264704942093","properties":{"id":"37035:264704942093","parcelId":"264704942093","countyFips":"37035","countyName":"Catawba","state":"North Carolina","marketIds":["Charlotte"],"situsAddress":null,"situsCity":null,"situsZip":null,"jurisdictionCode":null,"ownerName":"DAVIS BOBBY GENE","ownerName2":null,"propertyName":null,"zoningCode":null,"zoningDistrict":null,"jurisdictionPrefix":null,"dorCode":null,"acreage":64.71,"centroid":[-81.524592,35.575617],"lastSale":{"date":null,"price":null,"qualified":null},"tax":{"marketValue":18100.0,"assessedValue":258800.0,"taxableValue":null,"taxes":null},"mailingAddress":{"line1":null,"line2":null,"city":null,"state":null,"zip":null},"incomeTract":null,"incomeBlockGroup":null,"nearestRoad":null,"flu":null,"opportunityZone":null,"oz2Eligibility":null,"source":"nc-onemap-37035"},"geometry":{"type":"Polygon","coordinates":[[[-81.52248,35.57813],[-81.52217,35.57651],[-81.52287,35.5765],[-81.52236,35.57464],[-81.52277,35.57412],[-81.52376,35.57233],[-81.52451,35.57255],[-81.52672,35.57518],[-81.52873,35.57438],[-81.52848,35.57634],[-81.52762,35.5778],[-81.52263,35.57893],[-81.52248,35.57813]]]}},{"type":"Feature","id":"37035:265804644920","properties":{"id":"37035:265804644920","parcelId":"265804644920","countyFips":"37035","countyName":"Catawba","state":"North Carolina","marketIds":["Charlotte"],"situsAddress":"2500 NC 18 HWY","situsCity":null,"situsZip":null,"jurisdictionCode":null,"ownerName":"HOYLE JOHNNY SCOTT","ownerName2":null,"propertyName":null,"zoningCode":null,"zoningDistrict":null,"jurisdictionPrefix":null,"dorCode":null,"acreage":57.32,"centroid":[-81.501889,35.603944],"lastSale":{"date":null,"price":null,"qualified":null},"tax":{"marketValue":15700.0,"assessedValue":286300.0,"taxableValue":null,"taxes":null},"mailingAddress":{"line1":null,"line2":null,"city":null,"state":null,"zip":null},"incomeTract":null,"incomeBlockGroup":null,"nearestRoad":null,"flu":null,"opportunityZone":null,"oz2Eligibility":null,"source":"nc-onemap-37035"},"geometry":{"type":"Polygon","coordinates":[[[-81.4998,35.60574],[-81.5008,35.60452],[-81.50165,35.60555],[-81.50232,35.60517],[-81.50109,35.60365],[-81.50195,35.60326],[-81.50029,35.60126],[-81.5001,35.60079],[-81.50179,35.60074],[-81.5018,35.60152],[-81.50275,35.60154],[-81.50274,35.6014],[-81.50256,35.6014],[-81.50267,35.60072],[-81.5036,35.60475],[-81.50563,35.60491],[-81.50579,35.60671],[-81.50228,35.6072],[-81.5003,35.6091],[-81.49966,35.60655],[-81.5001,35.60634],[-81.4998,35.60574]],[[-81.50095,35.60029],[-81.50246,35.59981],[-81.50263,35.60055],[-81.50003,35.60062],[-81.49994,35.60041],[-81.50083,35.60033],[-81.50095,35.60029]]]}},{"type":"Feature","id":"37035:265702692813","properties":{"id":"37035:265702692813","parcelId":"265702692813","countyFips":"37035","countyName":"Catawba","state":"North Carolina","marketIds":["Charlotte"],"situsAddress":"3011 NC 18 HWY","situsCity":null,"situsZip":null,"jurisdictionCode":null,"ownerName":"BEULAH BAPTIST CHURCH OF VALE","ownerName2":null,"propertyName":null,"zoningCode":null,"zoningDistrict":null,"jurisdictionPrefix":null,"dorCode":null,"acreage":54.48,"centroid":[-81.500656,35.592267],"lastSale":{"date":null,"price":null,"qualified":null},"tax":{"marketValue":920600.0,"assessedValue":372900.0,"taxableValue":null,"taxes":null},"mailingAddress":{"line1":null,"line2":null,"city":null,"state":null,"zip":null},"incomeTract":null,"incomeBlockGroup":null,"nearestRoad":null,"flu":null,"opportunityZone":null,"oz2Eligibility":null,"source":"nc-onemap-37035"},"geometry":{"type":"Polygon","coordinates":[[[-81.49875,35.59125],[-81.49884,35.59023],[-81.5046,35.59061],[-81.50204,35.59266],[-81.50125,35.59361],[-81.50087,35.59381],[-81.50022,35.59379],[-81.49868,35.59218],[-81.49875,35.59125]],[[-81.50042,35.59398],[-81.5008,35.59397],[-81.50098,35.59419],[-81.5009,35.59444],[-81.50057,35.59412],[-81.50042,35.59398]],[[-81.50482,35.59065],[-81.50532,35.59066],[-81.50514,35.5936],[-81.50385,35.59399],[-81.50177,35.59505],[-81.50152,35.59504],[-81.50106,35.59459],[-81.50164,35.59339],[-81.50233,35.59266],[-81.50481,35.59066],[-81.50482,35.59065]]]}},{"type":"Feature","id":"37035:265701292150","properties":{"id":"37035:265701292150","parcelId":"265701292150","countyFips":"37035","countyName":"Catawba","state":"North Carolina","marketIds":["Charlotte"],"situsAddress":"9740 ROGER HILL RD","situsCity":null,"situsZip":null,"jurisdictionCode":null,"ownerName":"ARMSTRONG RICHARD T","ownerName2":null,"propertyName":null,"zoningCode":null,"zoningDistrict":null,"jurisdictionPrefix":null,"dorCode":null,"acreage":47.45,"centroid":[-81.515112,35.590584],"lastSale":{"date":null,"price":null,"qualified":null},"tax":{"marketValue":179400.0,"assessedValue":178400.0,"taxableValue":null,"taxes":null},"mailingAddress":{"line1":null,"line2":null,"city":null,"state":null,"zip":null},"incomeTract":null,"incomeBlockGroup":null,"nearestRoad":null,"flu":null,"opportunityZone":null,"oz2Eligibility":null,"source":"nc-onemap-37035"},"geometry":{"type":"Polygon","coordinates":[[[-81.51572,35.59329],[-81.51474,35.59268],[-81.51338,35.59083],[-81.51396,35.58983],[-81.51387,35.58945],[-81.51307,35.58873],[-81.51269,35.58896],[-81.51221,35.58855],[-81.51411,35.58736],[-81.51581,35.58766],[-81.51613,35.58841],[-81.51763,35.58937],[-81.51755,35.59121],[-81.51669,35.59236],[-81.51708,35.59396],[-81.51655,35.59399],[-81.51572,35.59329],[-81.51572,35.59329]]]}},{"type":"Feature","id":"37035:265702589593","properties":{"id":"37035:265702589593","parcelId":"265702589593","countyFips":"37035","countyName":"Catawba","state":"North Carolina","marketIds":["Charlotte"],"situsAddress":"3126 NC 18 HWY","situsCity":null,"situsZip":null,"jurisdictionCode":null,"ownerName":"RICHARD PATRICIA A LFI","ownerName2":null,"propertyName":null,"zoningCode":null,"zoningDistrict":null,"jurisdictionPrefix":null,"dorCode":null,"acreage":41.28,"centroid":[-81.502814,35.588889],"lastSale":{"date":null,"price":null,"qualified":null},"tax":{"marketValue":51700.0,"assessedValue":181100.0,"taxableValue":null,"taxes":null},"mailingAddress":{"line1":null,"line2":null,"city":null,"state":null,"zip":null},"incomeTract":null,"incomeBlockGroup":null,"nearestRoad":null,"flu":null,"opportunityZone":null,"oz2Eligibility":null,"source":"nc-onemap-37035"},"geometry":{"type":"Polygon","coordinates":[[[-81.49884,35.59023],[-81.49915,35.58986],[-81.49955,35.5871],[-81.50555,35.5876],[-81.50557,35.58792],[-81.50618,35.58783],[-81.50608,35.58843],[-81.50518,35.5899],[-81.50099,35.58964],[-81.50105,35.59038],[-81.49884,35.59023]]]}},{"type":"Feature","id":"37035:265701398594","properties":{"id":"37035:265701398594","parcelId":"265701398594","countyFips":"37035","countyName":"Catawba","state":"North Carolina","marketIds":["Charlotte"],"situsAddress":"3129 NC 18 HWY","situsCity":null,"situsZip":null,"jurisdictionCode":null,"ownerName":"TALLANT RICHARD F","ownerName2":null,"propertyName":null,"zoningCode":null,"zoningDistrict":null,"jurisdictionPrefix":null,"dorCode":null,"acreage":39.73,"centroid":[-81.512101,35.59258],"lastSale":{"date":null,"price":null,"qualified":null},"tax":{"marketValue":108100.0,"assessedValue":108100.0,"taxableValue":null,"taxes":null},"mailingAddress":{"line1":null,"line2":null,"city":null,"state":null,"zip":null},"incomeTract":null,"incomeBlockGroup":null,"nearestRoad":null,"flu":null,"opportunityZone":null,"oz2Eligibility":null,"source":"nc-onemap-37035"},"geometry":{"type":"Polygon","coordinates":[[[-81.51035,35.59386],[-81.5103,35.59177],[-81.50963,35.59242],[-81.51012,35.59323],[-81.50829,35.59313],[-81.50671,35.59118],[-81.51268,35.59057],[-81.51338,35.59083],[-81.51474,35.59268],[-81.51572,35.59329],[-81.5155,35.59356],[-81.51488,35.59297],[-81.51403,35.59406],[-81.51275,35.59248],[-81.51243,35.59267],[-81.51035,35.59386]]]}},{"type":"Feature","id":"37035:264704736037","properties":{"id":"37035:264704736037","parcelId":"264704736037","countyFips":"37035","countyName":"Catawba","state":"North Carolina","marketIds":["Charlotte"],"situsAddress":null,"situsCity":null,"situsZip":null,"jurisdictionCode":null,"ownerName":"WOOD DONNA LEE","ownerName2":null,"propertyName":null,"zoningCode":null,"zoningDistrict":null,"jurisdictionPrefix":null,"dorCode":null,"acreage":35.71,"centroid":[-81.531569,35.571221],"lastSale":{"date":null,"price":null,"qualified":null},"tax":{"marketValue":9100.0,"assessedValue":191700.0,"taxableValue":null,"taxes":null},"mailingAddress":{"line1":null,"line2":null,"city":null,"state":null,"zip":null},"incomeTract":null,"incomeBlockGroup":null,"nearestRoad":null,"flu":null,"opportunityZone":null,"oz2Eligibility":null,"source":"nc-onemap-37035"},"geometry":{"type":"Polygon","coordinates":[[[-81.53134,35.56988],[-81.53272,35.56814],[-81.53438,35.56845],[-81.53435,35.56811],[-81.53503,35.56813],[-81.52787,35.57747],[-81.52848,35.57634],[-81.52873,35.57438],[-81.53122,35.57009],[-81.53134,35.56988]]]}},{"type":"Feature","id":"37035:265803438435","properties":{"id":"37035:265803438435","parcelId":"265803438435","countyFips":"37035","countyName":"Catawba","state":"North Carolina","marketIds":["Charlotte"],"situsAddress":"2573 NC 18 HWY","situsCity":null,"situsZip":null,"jurisdictionCode":null,"ownerName":"REYNOLDS JOHN JOSEPH","ownerName2":null,"propertyName":null,"zoningCode":null,"zoningDistrict":null,"jurisdictionPrefix":null,"dorCode":null,"acreage":33.47,"centroid":[-81.507955,35.604078],"lastSale":{"date":null,"price":null,"qualified":null},"tax":{"marketValue":537300.0,"assessedValue":154900.0,"taxableValue":null,"taxes":null},"mailingAddress":{"line1":null,"line2":null,"city":null,"state":null,"zip":null},"incomeTract":null,"incomeBlockGroup":null,"nearestRoad":null,"flu":null,"opportunityZone":null,"oz2Eligibility":null,"source":"nc-onemap-37035"},"geometry":{"type":"Polygon","coordinates":[[[-81.50684,35.6052],[-81.5068,35.60426],[-81.50579,35.6043],[-81.50569,35.60265],[-81.50782,35.60223],[-81.5098,35.60123],[-81.51163,35.60328],[-81.50939,35.60441],[-81.50884,35.60512],[-81.50843,35.60492],[-81.50797,35.60494],[-81.50758,35.60524],[-81.50684,35.60524],[-81.50684,35.6052]]]}},{"type":"Feature","id":"37035:265702578148","properties":{"id":"37035:265702578148","parcelId":"265702578148","countyFips":"37035","countyName":"Catawba","state":"North Carolina","marketIds":["Charlotte"],"situsAddress":"NC 18 HWY","situsCity":null,"situsZip":null,"jurisdictionCode":null,"ownerName":"STONER JAMES EVERETTE JR","ownerName2":null,"propertyName":null,"zoningCode":null,"zoningDistrict":null,"jurisdictionPrefix":null,"dorCode":null,"acreage":32.27,"centroid":[-81.503344,35.584742],"lastSale":{"date":null,"price":null,"qualified":null},"tax":{"marketValue":8900.0,"assessedValue":136100.0,"taxableValue":null,"taxes":null},"mailingAddress":{"line1":null,"line2":null,"city":null,"state":null,"zip":null},"incomeTract":null,"incomeBlockGroup":null,"nearestRoad":null,"flu":null,"opportunityZone":null,"oz2Eligibility":null,"source":"nc-onemap-37035"},"geometry":{"type":"Polygon","coordinates":[[[-81.49958,35.58545],[-81.49957,35.58348],[-81.50588,35.58385],[-81.50606,35.58497],[-81.50563,35.58596],[-81.49958,35.58545]]]}},{"type":"Feature","id":"37035:265702579739","properties":{"id":"37035:265702579739","parcelId":"265702579739","countyFips":"37035","countyName":"Catawba","state":"North Carolina","marketIds":["Charlotte"],"situsAddress":"3242 NC 18 HWY","situsCity":null,"situsZip":null,"jurisdictionCode":null,"ownerName":"RICHARD PATRICIA A","ownerName2":null,"propertyName":null,"zoningCode":null,"zoningDistrict":null,"jurisdictionPrefix":null,"dorCode":null,"acreage":29.34,"centroid":[-81.504006,35.586713],"lastSale":{"date":null,"price":null,"qualified":null},"tax":{"marketValue":8000.0,"assessedValue":152400.0,"taxableValue":null,"taxes":null},"mailingAddress":{"line1":null,"line2":null,"city":null,"state":null,"zip":null},"incomeTract":null,"incomeBlockGroup":null,"nearestRoad":null,"flu":null,"opportunityZone":null,"oz2Eligibility":null,"source":"nc-onemap-37035"},"geometry":{"type":"Polygon","coordinates":[[[-81.49955,35.5871],[-81.49958,35.58545],[-81.50563,35.58596],[-81.50599,35.58513],[-81.50618,35.58783],[-81.50557,35.58792],[-81.50554,35.5876],[-81.49955,35.5871]],[[-81.50636,35.58691],[-81.5063,35.58574],[-81.50694,35.58705],[-81.50646,35.58752],[-81.50637,35.58708],[-81.50636,35.58691]]]}},{"type":"Feature","id":"37035:265703440831","properties":{"id":"37035:265703440831","parcelId":"265703440831","countyFips":"37035","countyName":"Catawba","state":"North Carolina","marketIds":["Charlotte"],"situsAddress":null,"situsCity":null,"situsZip":null,"jurisdictionCode":null,"ownerName":"COOK SCOTTIE HARRISON","ownerName2":null,"propertyName":null,"zoningCode":null,"zoningDistrict":null,"jurisdictionPrefix":null,"dorCode":null,"acreage":28.25,"centroid":[-81.510594,35.578491],"lastSale":{"date":null,"price":null,"qualified":null},"tax":{"marketValue":28500.0,"assessedValue":113000.0,"taxableValue":null,"taxes":null},"mailingAddress":{"line1":null,"line2":null,"city":null,"state":null,"zip":null},"incomeTract":null,"incomeBlockGroup":null,"nearestRoad":null,"flu":null,"opportunityZone":null,"oz2Eligibility":null,"source":"nc-onemap-37035"},"geometry":{"type":"Polygon","coordinates":[[[-81.50839,35.57963],[-81.50896,35.57973],[-81.50947,35.57783],[-81.51031,35.5783],[-81.51081,35.57781],[-81.50961,35.57732],[-81.50969,35.57702],[-81.509,35.57703],[-81.50907,35.5767],[-81.5114,35.57655],[-81.51404,35.57895],[-81.51391,35.579],[-81.514,35.5791],[-81.51206,35.57992],[-81.51116,35.57938],[-81.50979,35.58043],[-81.50842,35.57964],[-81.50839,35.57963]]]}},{"type":"Feature","id":"37035:265701063303","properties":{"id":"37035:265701063303","parcelId":"265701063303","countyFips":"37035","countyName":"Catawba","state":"North Carolina","marketIds":["Charlotte"],"situsAddress":"3739 SHANK TIPPS RD","situsCity":null,"situsZip":null,"jurisdictionCode":null,"ownerName":"SMALL ELLA POMPEY","ownerName2":null,"propertyName":null,"zoningCode":null,"zoningDistrict":null,"jurisdictionPrefix":null,"dorCode":null,"acreage":26.8,"centroid":[-81.521114,35.582267],"lastSale":{"date":null,"price":null,"qualified":null},"tax":{"marketValue":107200.0,"assessedValue":107200.0,"taxableValue":null,"taxes":null},"mailingAddress":{"line1":null,"line2":null,"city":null,"state":null,"zip":null},"incomeTract":null,"incomeBlockGroup":null,"nearestRoad":null,"flu":null,"opportunityZone":null,"oz2Eligibility":null,"source":"nc-onemap-37035"},"geometry":{"type":"Polygon","coordinates":[[[-81.51966,35.58273],[-81.51967,35.58212],[-81.52035,35.58213],[-81.5204,35.58154],[-81.51968,35.58153],[-81.52289,35.57981],[-81.52386,35.58299],[-81.52265,35.58336],[-81.52087,35.58419],[-81.51966,35.58273]]]}},{"type":"Feature","id":"37035:265701171210","properties":{"id":"37035:265701171210","parcelId":"265701171210","countyFips":"37035","countyName":"Catawba","state":"North Carolina","marketIds":["Charlotte"],"situsAddress":null,"situsCity":null,"situsZip":null,"jurisdictionCode":null,"ownerName":"DAVIS BOBBY GENE","ownerName2":null,"propertyName":null,"zoningCode":null,"zoningDistrict":null,"jurisdictionPrefix":null,"dorCode":null,"acreage":26.12,"centroid":[-81.518962,35.584436],"lastSale":{"date":null,"price":null,"qualified":null},"tax":{"marketValue":7300.0,"assessedValue":104500.0,"taxableValue":null,"taxes":null},"mailingAddress":{"line1":null,"line2":null,"city":null,"state":null,"zip":null},"incomeTract":null,"incomeBlockGroup":null,"nearestRoad":null,"flu":null,"opportunityZone":null,"oz2Eligibility":null,"source":"nc-onemap-37035"},"geometry":{"type":"Polygon","coordinates":[[[-81.51626,35.58439],[-81.51781,35.58343],[-81.51966,35.58273],[-81.52181,35.58532],[-81.51927,35.58631],[-81.51626,35.58439]]]}},{"type":"Feature","id":"37035:264702954573","properties":{"id":"37035:264702954573","parcelId":"264702954573","countyFips":"37035","countyName":"Catawba","state":"North Carolina","marketIds":["Charlotte"],"situsAddress":null,"situsCity":null,"situsZip":null,"jurisdictionCode":null,"ownerName":"DAVIS BOBBY GENE","ownerName2":null,"propertyName":null,"zoningCode":null,"zoningDistrict":null,"jurisdictionPrefix":null,"dorCode":null,"acreage":25.72,"centroid":[-81.523966,35.57983],"lastSale":{"date":null,"price":null,"qualified":null},"tax":{"marketValue":7200.0,"assessedValue":102900.0,"taxableValue":null,"taxes":null},"mailingAddress":{"line1":null,"line2":null,"city":null,"state":null,"zip":null},"incomeTract":null,"incomeBlockGroup":null,"nearestRoad":null,"flu":null,"opportunityZone":null,"oz2Eligibility":null,"source":"nc-onemap-37035"},"geometry":{"type":"Polygon","coordinates":[[[-81.52289,35.57981],[-81.52263,35.57893],[-81.52762,35.5778],[-81.5238,35.5828],[-81.52289,35.57981],[-81.52289,35.57981]]]}},{"type":"Feature","id":"37035:265703024104","properties":{"id":"37035:265703024104","parcelId":"265703024104","countyFips":"37035","countyName":"Catawba","state":"North Carolina","marketIds":["Charlotte"],"situsAddress":"PEA RIDGE RD","situsCity":null,"situsZip":null,"jurisdictionCode":null,"ownerName":"RUDISILL CAROLYN E TRUST UA","ownerName2":null,"propertyName":null,"zoningCode":null,"zoningDistrict":null,"jurisdictionPrefix":null,"dorCode":null,"acreage":24.79,"centroid":[-81.520793,35.570952],"lastSale":{"date":null,"price":null,"qualified":null},"tax":{"marketValue":8600.0,"assessedValue":123200.0,"taxableValue":null,"taxes":null},"mailingAddress":{"line1":null,"line2":null,"city":null,"state":null,"zip":null},"incomeTract":null,"incomeBlockGroup":null,"nearestRoad":null,"flu":null,"opportunityZone":null,"oz2Eligibility":null,"source":"nc-onemap-37035"},"geometry":{"type":"Polygon","coordinates":[[[-81.51818,35.57066],[-81.5198,35.5689],[-81.52391,35.57108],[-81.52297,35.57185],[-81.52171,35.57256],[-81.51819,35.57066],[-81.51818,35.57066]]]}},{"type":"Feature","id":"37035:265803437161","properties":{"id":"37035:265803437161","parcelId":"265803437161","countyFips":"37035","countyName":"Catawba","state":"North Carolina","marketIds":["Charlotte"],"situsAddress":"2695 NC 18 HWY","situsCity":null,"situsZip":null,"jurisdictionCode":null,"ownerName":"WHITENER GREGORY STEVEN","ownerName2":null,"propertyName":null,"zoningCode":null,"zoningDistrict":null,"jurisdictionPrefix":null,"dorCode":null,"acreage":24.66,"centroid":[-81.506585,35.600744],"lastSale":{"date":null,"price":null,"qualified":null},"tax":{"marketValue":353400.0,"assessedValue":137100.0,"taxableValue":null,"taxes":null},"mailingAddress":{"line1":null,"line2":null,"city":null,"state":null,"zip":null},"incomeTract":null,"incomeBlockGroup":null,"nearestRoad":null,"flu":null,"opportunityZone":null,"oz2Eligibility":null,"source":"nc-onemap-37035"},"geometry":{"type":"Polygon","coordinates":[[[-81.50464,35.59974],[-81.50532,35.59967],[-81.50828,35.60001],[-81.50975,35.59977],[-81.5098,35.60123],[-81.50782,35.60223],[-81.50569,35.60265],[-81.5057,35.60175],[-81.50555,35.60102],[-81.50517,35.60032],[-81.50471,35.59979],[-81.50464,35.59974]]]}},{"type":"Feature","id":"37035:265701399178","properties":{"id":"37035:265701399178","parcelId":"265701399178","countyFips":"37035","countyName":"Catawba","state":"North Carolina","marketIds":["Charlotte"],"situsAddress":"3135 NC 18 HWY","situsCity":null,"situsZip":null,"jurisdictionCode":null,"ownerName":"RICHARD PATRICIA A LFI","ownerName2":null,"propertyName":null,"zoningCode":null,"zoningDistrict":null,"jurisdictionPrefix":null,"dorCode":null,"acreage":23.76,"centroid":[-81.509603,35.590145],"lastSale":{"date":null,"price":null,"qualified":null},"tax":{"marketValue":172100.0,"assessedValue":102000.0,"taxableValue":null,"taxes":null},"mailingAddress":{"line1":null,"line2":null,"city":null,"state":null,"zip":null},"incomeTract":null,"incomeBlockGroup":null,"nearestRoad":null,"flu":null,"opportunityZone":null,"oz2Eligibility":null,"source":"nc-onemap-37035"},"geometry":{"type":"Polygon","coordinates":[[[-81.50553,35.58971],[-81.50562,35.58956],[-81.50637,35.58984],[-81.508,35.58953],[-81.51376,35.5896],[-81.51396,35.58983],[-81.51368,35.59048],[-81.51339,35.59083],[-81.51246,35.59055],[-81.50671,35.59118],[-81.50615,35.59048],[-81.50553,35.58971]]]}},{"type":"Feature","id":"37035:265804536655","properties":{"id":"37035:265804536655","parcelId":"265804536655","countyFips":"37035","countyName":"Catawba","state":"North Carolina","marketIds":["Charlotte"],"situsAddress":"9624 JACOB FORK RIVER RD","situsCity":null,"situsZip":null,"jurisdictionCode":null,"ownerName":"HOYLE JOHNNY SCOTT","ownerName2":null,"propertyName":null,"zoningCode":null,"zoningDistrict":null,"jurisdictionPrefix":null,"dorCode":null,"acreage":23.49,"centroid":[-81.504233,35.602172],"lastSale":{"date":null,"price":null,"qualified":null},"tax":{"marketValue":196600.0,"assessedValue":123200.0,"taxableValue":null,"taxes":null},"mailingAddress":{"line1":null,"line2":null,"city":null,"state":null,"zip":null},"incomeTract":null,"incomeBlockGroup":null,"nearestRoad":null,"flu":null,"opportunityZone":null,"oz2Eligibility":null,"source":"nc-onemap-37035"},"geometry":{"type":"Polygon","coordinates":[[[-81.5033,35.60345],[-81.50267,35.60072],[-81.5033,35.60069],[-81.50352,35.60115],[-81.50395,35.60097],[-81.50407,35.60129],[-81.5048,35.60113],[-81.50516,35.60157],[-81.50543,35.60226],[-81.50536,35.60317],[-81.50563,35.60491],[-81.5036,35.60475],[-81.5033,35.60345]],[[-81.50263,35.60055],[-81.50246,35.59981],[-81.50259,35.59976],[-81.50395,35.59979],[-81.50424,35.60027],[-81.50354,35.60048],[-81.50269,35.60055],[-81.50263,35.60055]]]}},{"type":"Feature","id":"37035:265703348094","properties":{"id":"37035:265703348094","parcelId":"265703348094","countyFips":"37035","countyName":"Catawba","state":"North Carolina","marketIds":["Charlotte"],"situsAddress":"NC 18 HWY","situsCity":null,"situsZip":null,"jurisdictionCode":null,"ownerName":"COOK SCOTTIE","ownerName2":null,"propertyName":null,"zoningCode":null,"zoningDistrict":null,"jurisdictionPrefix":null,"dorCode":null,"acreage":23.49,"centroid":[-81.512489,35.577309],"lastSale":{"date":null,"price":null,"qualified":null},"tax":{"marketValue":26600.0,"assessedValue":94000.0,"taxableValue":null,"taxes":null},"mailingAddress":{"line1":null,"line2":null,"city":null,"state":null,"zip":null},"incomeTract":null,"incomeBlockGroup":null,"nearestRoad":null,"flu":null,"opportunityZone":null,"oz2Eligibility":null,"source":"nc-onemap-37035"},"geometry":{"type":"Polygon","coordinates":[[[-81.51404,35.57895],[-81.5114,35.57655],[-81.50907,35.5767],[-81.50936,35.5756],[-81.51394,35.57578],[-81.51547,35.57853],[-81.51414,35.57905],[-81.51404,35.57895]]]}},{"type":"Feature","id":"37035:265701257956","properties":{"id":"37035:265701257956","parcelId":"265701257956","countyFips":"37035","countyName":"Catawba","state":"North Carolina","marketIds":["Charlotte"],"situsAddress":"ROGER HILL RD","situsCity":null,"situsZip":null,"jurisdictionCode":null,"ownerName":"GOINS A GENE","ownerName2":null,"propertyName":null,"zoningCode":null,"zoningDistrict":null,"jurisdictionPrefix":null,"dorCode":null,"acreage":22.26,"centroid":[-81.51348,35.581085],"lastSale":{"date":null,"price":null,"qualified":null},"tax":{"marketValue":113000.0,"assessedValue":113000.0,"taxableValue":null,"taxes":null},"mailingAddress":{"line1":null,"line2":null,"city":null,"state":null,"zip":null},"incomeTract":null,"incomeBlockGroup":null,"nearestRoad":null,"flu":null,"opportunityZone":null,"oz2Eligibility":null,"source":"nc-onemap-37035"},"geometry":{"type":"Polygon","coordinates":[[[-81.51296,35.57954],[-81.51364,35.57925],[-81.51517,35.58227],[-81.51502,35.58262],[-81.51408,35.58298],[-81.51209,35.5825],[-81.51206,35.57992],[-81.51282,35.5796],[-81.51296,35.57954]],[[-81.51534,35.58245],[-81.51563,35.58296],[-81.51538,35.58269],[-81.51534,35.58246],[-81.51534,35.58245]],[[-81.51498,35.58283],[-81.51528,35.58291],[-81.51557,35.5832],[-81.51577,35.58408],[-81.51425,35.5831],[-81.51493,35.58283],[-81.51498,35.58283]],[[-81.51598,35.5839],[-81.51626,35.58439],[-81.51597,35.5842],[-81.51598,35.58391],[-81.51598,35.5839]]]}},{"type":"Feature","id":"37035:265701355851","properties":{"id":"37035:265701355851","parcelId":"265701355851","countyFips":"37035","countyName":"Catawba","state":"North Carolina","marketIds":["Charlotte"],"situsAddress":"3631 NC 18 HWY","situsCity":null,"situsZip":null,"jurisdictionCode":null,"ownerName":"DEVINE DANA","ownerName2":null,"propertyName":null,"zoningCode":null,"zoningDistrict":null,"jurisdictionPrefix":null,"dorCode":null,"acreage":20.8,"centroid":[-81.510092,35.581025],"lastSale":{"date":null,"price":null,"qualified":null},"tax":{"marketValue":83200.0,"assessedValue":83200.0,"taxableValue":null,"taxes":null},"mailingAddress":{"line1":null,"line2":null,"city":null,"state":null,"zip":null},"incomeTract":null,"incomeBlockGroup":null,"nearestRoad":null,"flu":null,"opportunityZone":null,"oz2Eligibility":null,"source":"nc-onemap-37035"},"geometry":{"type":"Polygon","coordinates":[[[-81.5099,35.58131],[-81.50932,35.58151],[-81.50785,35.5812],[-81.50829,35.57957],[-81.50979,35.58043],[-81.51116,35.57938],[-81.51206,35.57992],[-81.51209,35.5825],[-81.51032,35.58299],[-81.51031,35.58117],[-81.50992,35.5813],[-81.5099,35.58131]]]}},{"type":"Feature","id":"37035:265803406498","properties":{"id":"37035:265803406498","parcelId":"265803406498","countyFips":"37035","countyName":"Catawba","state":"North Carolina","marketIds":["Charlotte"],"situsAddress":"3099 NC 18 HWY","situsCity":null,"situsZip":null,"jurisdictionCode":null,"ownerName":"PARKER ADRIAN D","ownerName2":null,"propertyName":null,"zoningCode":null,"zoningDistrict":null,"jurisdictionPrefix":null,"dorCode":null,"acreage":18.42,"centroid":[-81.506757,35.593943],"lastSale":{"date":null,"price":null,"qualified":null},"tax":{"marketValue":121800.0,"assessedValue":78700.0,"taxableValue":null,"taxes":null},"mailingAddress":{"line1":null,"line2":null,"city":null,"state":null,"zip":null},"incomeTract":null,"incomeBlockGroup":null,"nearestRoad":null,"flu":null,"opportunityZone":null,"oz2Eligibility":null,"source":"nc-onemap-37035"},"geometry":{"type":"Polygon","coordinates":[[[-81.50514,35.5936],[-81.50525,35.59156],[-81.50811,35.59413],[-81.50957,35.59433],[-81.50691,35.5959],[-81.50556,35.59414],[-81.50514,35.5936]]]}},{"type":"Feature","id":"37035:265803406069","properties":{"id":"37035:265803406069","parcelId":"265803406069","countyFips":"37035","countyName":"Catawba","state":"North Carolina","marketIds":["Charlotte"],"situsAddress":"3109 NC 18 HWY","situsCity":null,"situsZip":null,"jurisdictionCode":null,"ownerName":"PARKER ADRIAN D","ownerName2":null,"propertyName":null,"zoningCode":null,"zoningDistrict":null,"jurisdictionPrefix":null,"dorCode":null,"acreage":16.9,"centroid":[-81.50784,35.592258],"lastSale":{"date":null,"price":null,"qualified":null},"tax":{"marketValue":611000.0,"assessedValue":78900.0,"taxableValue":null,"taxes":null},"mailingAddress":{"line1":null,"line2":null,"city":null,"state":null,"zip":null},"incomeTract":null,"incomeBlockGroup":null,"nearestRoad":null,"flu":null,"opportunityZone":null,"oz2Eligibility":null,"source":"nc-onemap-37035"},"geometry":{"type":"Polygon","coordinates":[[[-81.50525,35.59156],[-81.50626,35.59138],[-81.50536,35.58997],[-81.50553,35.58971],[-81.50829,35.59313],[-81.51012,35.59323],[-81.50963,35.59242],[-81.5103,35.59177],[-81.51035,35.59386],[-81.50957,35.59433],[-81.50811,35.59413],[-81.50531,35.59161],[-81.50525,35.59156]]]}},{"type":"Feature","id":"37035:265702568128","properties":{"id":"37035:265702568128","parcelId":"265702568128","countyFips":"37035","countyName":"Catawba","state":"North Carolina","marketIds":["Charlotte"],"situsAddress":"NC 18 HWY","situsCity":null,"situsZip":null,"jurisdictionCode":null,"ownerName":"DEVINEY ROBIN BRADSHAW","ownerName2":null,"propertyName":null,"zoningCode":null,"zoningDistrict":null,"jurisdictionPrefix":null,"dorCode":null,"acreage":16.16,"centroid":[-81.502747,35.582183],"lastSale":{"date":null,"price":null,"qualified":null},"tax":{"marketValue":85600.0,"assessedValue":85600.0,"taxableValue":null,"taxes":null},"mailingAddress":{"line1":null,"line2":null,"city":null,"state":null,"zip":null},"incomeTract":null,"incomeBlockGroup":null,"nearestRoad":null,"flu":null,"opportunityZone":null,"oz2Eligibility":null,"source":"nc-onemap-37035"},"geometry":{"type":"Polygon","coordinates":[[[-81.49968,35.58267],[-81.50582,35.58093],[-81.50588,35.58192],[-81.49961,35.58321],[-81.49968,35.58267]],[[-81.50602,35.58094],[-81.5079,35.58096],[-81.50771,35.58187],[-81.50608,35.58189],[-81.50604,35.5813],[-81.50602,35.58094]]]}},{"type":"Feature","id":"37035:265702567551","properties":{"id":"37035:265702567551","parcelId":"265702567551","countyFips":"37035","countyName":"Catawba","state":"North Carolina","marketIds":["Charlotte"],"situsAddress":"3402 NC 18 HWY","situsCity":null,"situsZip":null,"jurisdictionCode":null,"ownerName":"LAIL TEDDY RAY","ownerName2":null,"propertyName":null,"zoningCode":null,"zoningDistrict":null,"jurisdictionPrefix":null,"dorCode":null,"acreage":15.32,"centroid":[-81.5037,35.583204],"lastSale":{"date":null,"price":null,"qualified":null},"tax":{"marketValue":598000.0,"assessedValue":76000.0,"taxableValue":null,"taxes":null},"mailingAddress":{"line1":null,"line2":null,"city":null,"state":null,"zip":null},"incomeTract":null,"incomeBlockGroup":null,"nearestRoad":null,"flu":null,"opportunityZone":null,"oz2Eligibility":null,"source":"nc-onemap-37035"},"geometry":{"type":"Polygon","coordinates":[[[-81.49957,35.58348],[-81.49961,35.58321],[-81.50437,35.58225],[-81.50454,35.58278],[-81.50591,35.5825],[-81.50602,35.58436],[-81.50588,35.58385],[-81.49957,35.58348]]]}},{"type":"Feature","id":"37035:265601202458","properties":{"id":"37035:265601202458","parcelId":"265601202458","countyFips":"37035","countyName":"Catawba","state":"North Carolina","marketIds":["Charlotte"],"situsAddress":null,"situsCity":null,"situsZip":null,"jurisdictionCode":null,"ownerName":"LUTZ MARVIN L III","ownerName2":null,"propertyName":null,"zoningCode":null,"zoningDistrict":null,"jurisdictionPrefix":null,"dorCode":null,"acreage":15.24,"centroid":[-81.517306,35.56828],"lastSale":{"date":null,"price":null,"qualified":null},"tax":{"marketValue":4300.0,"assessedValue":74300.0,"taxableValue":null,"taxes":null},"mailingAddress":{"line1":null,"line2":null,"city":null,"state":null,"zip":null},"incomeTract":null,"incomeBlockGroup":null,"nearestRoad":null,"flu":null,"opportunityZone":null,"oz2Eligibility":null,"source":"nc-onemap-37035"},"geometry":{"type":"Polygon","coordinates":[[[-81.51464,35.56781],[-81.5139,35.56755],[-81.52105,35.56775],[-81.51924,35.56941],[-81.5177,35.56888],[-81.51464,35.56781]]]}},{"type":"Feature","id":"37035:265703438297","properties":{"id":"37035:265703438297","parcelId":"265703438297","countyFips":"37035","countyName":"Catawba","state":"North Carolina","marketIds":["Charlotte"],"situsAddress":"3834 NC 18 HWY","situsCity":null,"situsZip":null,"jurisdictionCode":null,"ownerName":"DEVINEY ROBIN BRADSHAW","ownerName2":null,"propertyName":null,"zoningCode":null,"zoningDistrict":null,"jurisdictionPrefix":null,"dorCode":null,"acreage":15.22,"centroid":[-81.506166,35.574332],"lastSale":{"date":null,"price":null,"qualified":null},"tax":{"marketValue":97500.0,"assessedValue":78900.0,"taxableValue":null,"taxes":null},"mailingAddress":{"line1":null,"line2":null,"city":null,"state":null,"zip":null},"incomeTract":null,"incomeBlockGroup":null,"nearestRoad":null,"flu":null,"opportunityZone":null,"oz2Eligibility":null,"source":"nc-onemap-37035"},"geometry":{"type":"Polygon","coordinates":[[[-81.50481,35.57497],[-81.50419,35.57328],[-81.5081,35.57333],[-81.50806,35.57506],[-81.50567,35.57502],[-81.50481,35.57497]]]}},{"type":"Feature","id":"37035:265703333540","properties":{"id":"37035:265703333540","parcelId":"265703333540","countyFips":"37035","countyName":"Catawba","state":"North Carolina","marketIds":["Charlotte"],"situsAddress":"NC 18 HWY","situsCity":null,"situsZip":null,"jurisdictionCode":null,"ownerName":"SAIN BOBBY GENE","ownerName2":null,"propertyName":null,"zoningCode":null,"zoningDistrict":null,"jurisdictionPrefix":null,"dorCode":null,"acreage":14.96,"centroid":[-81.510326,35.574377],"lastSale":{"date":null,"price":null,"qualified":null},"tax":{"marketValue":66800.0,"assessedValue":66800.0,"taxableValue":null,"taxes":null},"mailingAddress":{"line1":null,"line2":null,"city":null,"state":null,"zip":null},"incomeTract":null,"incomeBlockGroup":null,"nearestRoad":null,"flu":null,"opportunityZone":null,"oz2Eligibility":null,"source":"nc-onemap-37035"},"geometry":{"type":"Polygon","coordinates":[[[-81.50936,35.5756],[-81.50994,35.57435],[-81.51112,35.57421],[-81.51099,35.57355],[-81.50831,35.57351],[-81.50831,35.57335],[-81.51218,35.57338],[-81.51301,35.57576],[-81.50971,35.57568],[-81.50936,35.5756]]]}},{"type":"Feature","id":"37035:265701384494","properties":{"id":"37035:265701384494","parcelId":"265701384494","countyFips":"37035","countyName":"Catawba","state":"North Carolina","marketIds":["Charlotte"],"situsAddress":null,"situsCity":null,"situsZip":null,"jurisdictionCode":null,"ownerName":"TALLANT RICHARD F","ownerName2":null,"propertyName":null,"zoningCode":null,"zoningDistrict":null,"jurisdictionPrefix":null,"dorCode":null,"acreage":14.38,"centroid":[-81.512205,35.588512],"lastSale":{"date":null,"price":null,"qualified":null},"tax":{"marketValue":32200.0,"assessedValue":32200.0,"taxableValue":null,"taxes":null},"mailingAddress":{"line1":null,"line2":null,"city":null,"state":null,"zip":null},"incomeTract":null,"incomeBlockGroup":null,"nearestRoad":null,"flu":null,"opportunityZone":null,"oz2Eligibility":null,"source":"nc-onemap-37035"},"geometry":{"type":"Polygon","coordinates":[[[-81.51029,35.58957],[-81.51003,35.58823],[-81.51107,35.58804],[-81.51086,35.58698],[-81.51234,35.58685],[-81.51252,35.58717],[-81.512,35.58869],[-81.51221,35.58855],[-81.51269,35.58896],[-81.51307,35.58873],[-81.51387,35.58945],[-81.51396,35.58983],[-81.51376,35.5896],[-81.51029,35.58957]]]}},{"type":"Feature","id":"37035:265701272203","properties":{"id":"37035:265701272203","parcelId":"265701272203","countyFips":"37035","countyName":"Catawba","state":"North Carolina","marketIds":["Charlotte"],"situsAddress":"ROGER HILL RD","situsCity":null,"situsZip":null,"jurisdictionCode":null,"ownerName":"DAVIS BOBBY GENE","ownerName2":null,"propertyName":null,"zoningCode":null,"zoningDistrict":null,"jurisdictionPrefix":null,"dorCode":null,"acreage":14.37,"centroid":[-81.515396,35.584833],"lastSale":{"date":null,"price":null,"qualified":null},"tax":{"marketValue":4000.0,"assessedValue":96500.0,"taxableValue":null,"taxes":null},"mailingAddress":{"line1":null,"line2":null,"city":null,"state":null,"zip":null},"incomeTract":null,"incomeBlockGroup":null,"nearestRoad":null,"flu":null,"opportunityZone":null,"oz2Eligibility":null,"source":"nc-onemap-37035"},"geometry":{"type":"Polygon","coordinates":[[[-81.51421,35.58312],[-81.51577,35.58408],[-81.51588,35.58528],[-81.51625,35.58561],[-81.51688,35.58581],[-81.5157,35.5861],[-81.51428,35.58552],[-81.5142,35.58314],[-81.51421,35.58312]],[[-81.51596,35.58424],[-81.51927,35.58631],[-81.51873,35.5863],[-81.51629,35.58541],[-81.516,35.58504],[-81.51596,35.58425],[-81.51596,35.58424]]]}},{"type":"Feature","id":"37035:265703439942","properties":{"id":"37035:265703439942","parcelId":"265703439942","countyFips":"37035","countyName":"Catawba","state":"North Carolina","marketIds":["Charlotte"],"situsAddress":"3784 NC 18 HWY","situsCity":null,"situsZip":null,"jurisdictionCode":null,"ownerName":"BRADSHAW RANDY LYNN","ownerName2":null,"propertyName":null,"zoningCode":null,"zoningDistrict":null,"jurisdictionPrefix":null,"dorCode":null,"acreage":14.27,"centroid":[-81.505989,35.576542],"lastSale":{"date":null,"price":null,"qualified":null},"tax":{"marketValue":80800.0,"assessedValue":78100.0,"taxableValue":null,"taxes":null},"mailingAddress":{"line1":null,"line2":null,"city":null,"state":null,"zip":null},"incomeTract":null,"incomeBlockGroup":null,"nearestRoad":null,"flu":null,"opportunityZone":null,"oz2Eligibility":null,"source":"nc-onemap-37035"},"geometry":{"type":"Polygon","coordinates":[[[-81.50424,35.57793],[-81.50498,35.57545],[-81.50481,35.57497],[-81.50806,35.57506],[-81.50797,35.57558],[-81.5076,35.5762],[-81.50703,35.57578],[-81.50573,35.57711],[-81.50615,35.57713],[-81.50564,35.57768],[-81.50495,35.57763],[-81.50471,35.57799],[-81.50424,35.57793]]]}},{"type":"Feature","id":"37035:265703415568","properties":{"id":"37035:265703415568","parcelId":"265703415568","countyFips":"37035","countyName":"Catawba","state":"North Carolina","marketIds":["Charlotte"],"situsAddress":null,"situsCity":null,"situsZip":null,"jurisdictionCode":null,"ownerName":"HULL HOWARD TIMOTHY","ownerName2":null,"propertyName":null,"zoningCode":null,"zoningDistrict":null,"jurisdictionPrefix":null,"dorCode":null,"acreage":13.76,"centroid":[-81.506556,35.569427],"lastSale":{"date":null,"price":null,"qualified":null},"tax":{"marketValue":65500.0,"assessedValue":65500.0,"taxableValue":null,"taxes":null},"mailingAddress":{"line1":null,"line2":null,"city":null,"state":null,"zip":null},"incomeTract":null,"incomeBlockGroup":null,"nearestRoad":null,"flu":null,"opportunityZone":null,"oz2Eligibility":null,"source":"nc-onemap-37035"},"geometry":{"type":"Polygon","coordinates":[[[-81.5056,35.56973],[-81.5041,35.56932],[-81.50413,35.56835],[-81.50921,35.56895],[-81.50877,35.56969],[-81.5075,35.56995],[-81.50658,35.57],[-81.5056,35.56973]]]}},{"type":"Feature","id":"37035:265704616570","properties":{"id":"37035:265704616570","parcelId":"265704616570","countyFips":"37035","countyName":"Catawba","state":"North Carolina","marketIds":["Charlotte"],"situsAddress":"9161 WILLIS RD","situsCity":null,"situsZip":null,"jurisdictionCode":null,"ownerName":"WALKER KATHY HUDSON","ownerName2":null,"propertyName":null,"zoningCode":null,"zoningDistrict":null,"jurisdictionPrefix":null,"dorCode":null,"acreage":13.23,"centroid":[-81.500383,35.568773],"lastSale":{"date":null,"price":null,"qualified":null},"tax":{"marketValue":224300.0,"assessedValue":56900.0,"taxableValue":null,"taxes":null},"mailingAddress":{"line1":null,"line2":null,"city":null,"state":null,"zip":null},"incomeTract":null,"incomeBlockGroup":null,"nearestRoad":null,"flu":null,"opportunityZone":null,"oz2Eligibility":null,"source":"nc-onemap-37035"},"geometry":{"type":"Polygon","coordinates":[[[-81.50104,35.56755],[-81.50119,35.5675],[-81.50189,35.56828],[-81.50127,35.56897],[-81.50032,35.56914],[-81.50025,35.57174],[-81.49874,35.56886],[-81.49926,35.56865],[-81.49949,35.56827],[-81.50104,35.56755]],[[-81.50021,35.56779],[-81.49938,35.56821],[-81.49914,35.56859],[-81.49869,35.56876],[-81.49846,35.56829],[-81.49934,35.56804],[-81.50021,35.56779]]]}},{"type":"Feature","id":"37035:265702558519","properties":{"id":"37035:265702558519","parcelId":"265702558519","countyFips":"37035","countyName":"Catawba","state":"North Carolina","marketIds":["Charlotte"],"situsAddress":"NC 18 HWY","situsCity":null,"situsZip":null,"jurisdictionCode":null,"ownerName":"SAIN ERIC DOUGLAS","ownerName2":null,"propertyName":null,"zoningCode":null,"zoningDistrict":null,"jurisdictionPrefix":null,"dorCode":null,"acreage":13.14,"centroid":[-81.502382,35.580756],"lastSale":{"date":null,"price":null,"qualified":null},"tax":{"marketValue":4900.0,"assessedValue":63100.0,"taxableValue":null,"taxes":null},"mailingAddress":{"line1":null,"line2":null,"city":null,"state":null,"zip":null},"incomeTract":null,"incomeBlockGroup":null,"nearestRoad":null,"flu":null,"opportunityZone":null,"oz2Eligibility":null,"source":"nc-onemap-37035"},"geometry":{"type":"Polygon","coordinates":[[[-81.49973,35.58164],[-81.50099,35.58076],[-81.50571,35.57918],[-81.50577,35.58009],[-81.49971,35.58211],[-81.49973,35.58164]]]}},{"type":"Feature","id":"37035:265701169313","properties":{"id":"37035:265701169313","parcelId":"265701169313","countyFips":"37035","countyName":"Catawba","state":"North Carolina","marketIds":["Charlotte"],"situsAddress":"PEA RIDGE RD","situsCity":null,"situsZip":null,"jurisdictionCode":null,"ownerName":"GOINS ALLEN GENE","ownerName2":null,"propertyName":null,"zoningCode":null,"zoningDistrict":null,"jurisdictionPrefix":null,"dorCode":null,"acreage":13.09,"centroid":[-81.516117,35.582611],"lastSale":{"date":null,"price":null,"qualified":null},"tax":{"marketValue":85400.0,"assessedValue":85400.0,"taxableValue":null,"taxes":null},"mailingAddress":{"line1":null,"line2":null,"city":null,"state":null,"zip":null},"incomeTract":null,"incomeBlockGroup":null,"nearestRoad":null,"flu":null,"opportunityZone":null,"oz2Eligibility":null,"source":"nc-onemap-37035"},"geometry":{"type":"Polygon","coordinates":[[[-81.51598,35.58388],[-81.51584,35.58329],[-81.51535,35.58243],[-81.51557,35.58068],[-81.51606,35.58027],[-81.51781,35.58343],[-81.51621,35.5843],[-81.51598,35.58388]]]}},{"type":"Feature","id":"37035:265704535192","properties":{"id":"37035:265704535192","parcelId":"265704535192","countyFips":"37035","countyName":"Catawba","state":"North Carolina","marketIds":["Charlotte"],"situsAddress":"SETHRIDGE DR","situsCity":null,"situsZip":null,"jurisdictionCode":null,"ownerName":"WILSON DEBORA WILLIS","ownerName2":null,"propertyName":null,"zoningCode":null,"zoningDistrict":null,"jurisdictionPrefix":null,"dorCode":null,"acreage":12.79,"centroid":[-81.503419,35.574151],"lastSale":{"date":null,"price":null,"qualified":null},"tax":{"marketValue":53200.0,"assessedValue":51200.0,"taxableValue":null,"taxes":null},"mailingAddress":{"line1":null,"line2":null,"city":null,"state":null,"zip":null},"incomeTract":null,"incomeBlockGroup":null,"nearestRoad":null,"flu":null,"opportunityZone":null,"oz2Eligibility":null,"source":"nc-onemap-37035"},"geometry":{"type":"Polygon","coordinates":[[[-81.50269,35.57527],[-81.50269,35.57179],[-81.50368,35.57192],[-81.50448,35.57409],[-81.50382,35.57429],[-81.50395,35.57466],[-81.50371,35.57508],[-81.50304,35.57502],[-81.50271,35.57524],[-81.50269,35.57527]],[[-81.5029,35.57525],[-81.50312,35.57515],[-81.50379,35.57521],[-81.50402,35.57485],[-81.50469,35.57466],[-81.50498,35.57545],[-81.50285,35.57538],[-81.5029,35.57526],[-81.5029,35.57525]]]}},{"type":"Feature","id":"37035:265703429852","properties":{"id":"37035:265703429852","parcelId":"265703429852","countyFips":"37035","countyName":"Catawba","state":"North Carolina","marketIds":["Charlotte"],"situsAddress":"3901 NC 18 HWY","situsCity":null,"situsZip":null,"jurisdictionCode":null,"ownerName":"DEVINEY ROBIN BRADSHAW","ownerName2":null,"propertyName":null,"zoningCode":null,"zoningDistrict":null,"jurisdictionPrefix":null,"dorCode":null,"acreage":12.74,"centroid":[-81.505397,35.572947],"lastSale":{"date":null,"price":null,"qualified":null},"tax":{"marketValue":215600.0,"assessedValue":65000.0,"taxableValue":null,"taxes":null},"mailingAddress":{"line1":null,"line2":null,"city":null,"state":null,"zip":null},"incomeTract":null,"incomeBlockGroup":null,"nearestRoad":null,"flu":null,"opportunityZone":null,"oz2Eligibility":null,"source":"nc-onemap-37035"},"geometry":{"type":"Polygon","coordinates":[[[-81.50413,35.57314],[-81.50368,35.57192],[-81.50812,35.57281],[-81.5081,35.57333],[-81.50419,35.57328],[-81.50416,35.5732],[-81.50413,35.57314]],[[-81.50833,35.57278],[-81.51049,35.57284],[-81.51072,35.57338],[-81.50831,35.57335],[-81.50833,35.57278],[-81.50833,35.57278]]]}},{"type":"Feature","id":"37035:265704529962","properties":{"id":"37035:265704529962","parcelId":"265704529962","countyFips":"37035","countyName":"Catawba","state":"North Carolina","marketIds":["Charlotte"],"situsAddress":"WILLIS RD","situsCity":null,"situsZip":null,"jurisdictionCode":null,"ownerName":"WILLIAMS DENNIS DWAYNE","ownerName2":null,"propertyName":null,"zoningCode":null,"zoningDistrict":null,"jurisdictionPrefix":null,"dorCode":null,"acreage":12.73,"centroid":[-81.501534,35.573567],"lastSale":{"date":null,"price":null,"qualified":null},"tax":{"marketValue":65700.0,"assessedValue":56900.0,"taxableValue":null,"taxes":null},"mailingAddress":{"line1":null,"line2":null,"city":null,"state":null,"zip":null},"incomeTract":null,"incomeBlockGroup":null,"nearestRoad":null,"flu":null,"opportunityZone":null,"oz2Eligibility":null,"source":"nc-onemap-37035"},"geometry":{"type":"Polygon","coordinates":[[[-81.50134,35.57501],[-81.50187,35.5745],[-81.50139,35.57378],[-81.50155,35.57347],[-81.50203,35.57375],[-81.50249,35.57331],[-81.50249,35.57313],[-81.50216,35.5729],[-81.50192,35.57312],[-81.50184,35.57301],[-81.50142,35.57341],[-81.5012,35.57383],[-81.50073,35.57407],[-81.50068,35.57397],[-81.50105,35.57351],[-81.50106,35.57296],[-81.50131,35.57231],[-81.49985,35.57257],[-81.50043,35.57175],[-81.50269,35.57179],[-81.50269,35.57541],[-81.50165,35.57537],[-81.50144,35.57512],[-81.50134,35.57501]]]}},{"type":"Feature","id":"37035:264704917581","properties":{"id":"37035:264704917581","parcelId":"264704917581","countyFips":"37035","countyName":"Catawba","state":"North Carolina","marketIds":["Charlotte"],"situsAddress":"1456 CROWS RD","situsCity":null,"situsZip":null,"jurisdictionCode":null,"ownerName":"POTTER RODGER D","ownerName2":null,"propertyName":null,"zoningCode":null,"zoningDistrict":null,"jurisdictionPrefix":null,"dorCode":null,"acreage":12.65,"centroid":[-81.523026,35.569067],"lastSale":{"date":null,"price":null,"qualified":null},"tax":{"marketValue":287398.0,"assessedValue":112900.0,"taxableValue":null,"taxes":null},"mailingAddress":{"line1":null,"line2":null,"city":null,"state":null,"zip":null},"incomeTract":null,"incomeBlockGroup":null,"nearestRoad":null,"flu":null,"opportunityZone":null,"oz2Eligibility":null,"source":"nc-onemap-37035"},"geometry":{"type":"Polygon","coordinates":[[[-81.52365,35.56988],[-81.52053,35.56823],[-81.52105,35.56775],[-81.52209,35.56778],[-81.52539,35.56947],[-81.52467,35.57041],[-81.5238,35.56995],[-81.52365,35.56988]]]}},{"type":"Feature","id":"37035:265703429341","properties":{"id":"37035:265703429341","parcelId":"265703429341","countyFips":"37035","countyName":"Catawba","state":"North Carolina","marketIds":["Charlotte"],"situsAddress":"3918 NC 18 HWY","situsCity":null,"situsZip":null,"jurisdictionCode":null,"ownerName":"MATTHEWS RITA GALE","ownerName2":null,"propertyName":null,"zoningCode":null,"zoningDistrict":null,"jurisdictionPrefix":null,"dorCode":null,"acreage":12.6,"centroid":[-81.505525,35.571493],"lastSale":{"date":null,"price":null,"qualified":null},"tax":{"marketValue":174800.0,"assessedValue":57400.0,"taxableValue":null,"taxes":null},"mailingAddress":{"line1":null,"line2":null,"city":null,"state":null,"zip":null},"incomeTract":null,"incomeBlockGroup":null,"nearestRoad":null,"flu":null,"opportunityZone":null,"oz2Eligibility":null,"source":"nc-onemap-37035"},"geometry":{"type":"Polygon","coordinates":[[[-81.5074,35.5721],[-81.50094,35.5708],[-81.50107,35.56998],[-81.50816,35.57171],[-81.50814,35.57226],[-81.50744,35.57211],[-81.5074,35.5721]]]}},{"type":"Feature","id":"37035:265703429045","properties":{"id":"37035:265703429045","parcelId":"265703429045","countyFips":"37035","countyName":"Catawba","state":"North Carolina","marketIds":["Charlotte"],"situsAddress":"3936 NC 18 HWY","situsCity":null,"situsZip":null,"jurisdictionCode":null,"ownerName":"MATTHEWS DARRELL LESTER","ownerName2":null,"propertyName":null,"zoningCode":null,"zoningDistrict":null,"jurisdictionPrefix":null,"dorCode":null,"acreage":12.3,"centroid":[-81.504829,35.570569],"lastSale":{"date":null,"price":null,"qualified":null},"tax":{"marketValue":275900.0,"assessedValue":56200.0,"taxableValue":null,"taxes":null},"mailingAddress":{"line1":null,"line2":null,"city":null,"state":null,"zip":null},"incomeTract":null,"incomeBlockGroup":null,"nearestRoad":null,"flu":null,"opportunityZone":null,"oz2Eligibility":null,"source":"nc-onemap-37035"},"geometry":{"type":"Polygon","coordinates":[[[-81.50107,35.56998],[-81.50126,35.56911],[-81.50706,35.57078],[-81.50693,35.5711],[-81.50822,35.57132],[-81.50816,35.57171],[-81.5011,35.56998],[-81.50107,35.56998]]]}},{"type":"Feature","id":"37035:265703430539","properties":{"id":"37035:265703430539","parcelId":"265703430539","countyFips":"37035","countyName":"Catawba","state":"North Carolina","marketIds":["Charlotte"],"situsAddress":"3829 NC 18 HWY","situsCity":null,"situsZip":null,"jurisdictionCode":null,"ownerName":"BRADSHAW RANDY LYNN","ownerName2":null,"propertyName":null,"zoningCode":null,"zoningDistrict":null,"jurisdictionPrefix":null,"dorCode":null,"acreage":12.07,"centroid":[-81.509374,35.574894],"lastSale":{"date":null,"price":null,"qualified":null},"tax":{"marketValue":82300.0,"assessedValue":78300.0,"taxableValue":null,"taxes":null},"mailingAddress":{"line1":null,"line2":null,"city":null,"state":null,"zip":null},"incomeTract":null,"incomeBlockGroup":null,"nearestRoad":null,"flu":null,"opportunityZone":null,"oz2Eligibility":null,"source":"nc-onemap-37035"},"geometry":{"type":"Polygon","coordinates":[[[-81.50794,35.57605],[-81.50825,35.57526],[-81.50831,35.57351],[-81.51099,35.57355],[-81.51112,35.57421],[-81.50994,35.57435],[-81.50936,35.5756],[-81.50908,35.57662],[-81.50794,35.57605]]]}},{"type":"Feature","id":"37035:265802652630","properties":{"id":"37035:265802652630","parcelId":"265802652630","countyFips":"37035","countyName":"Catawba","state":"North Carolina","marketIds":["Charlotte"],"situsAddress":"7441 DELLA DR","situsCity":null,"situsZip":null,"jurisdictionCode":null,"ownerName":"SEITZ KEVIN SCOTT","ownerName2":null,"propertyName":null,"zoningCode":null,"zoningDistrict":null,"jurisdictionPrefix":null,"dorCode":null,"acreage":11.8,"centroid":[-81.502078,35.608278],"lastSale":{"date":null,"price":null,"qualified":null},"tax":{"marketValue":52800.0,"assessedValue":52200.0,"taxableValue":null,"taxes":null},"mailingAddress":{"line1":null,"line2":null,"city":null,"state":null,"zip":null},"incomeTract":null,"incomeBlockGroup":null,"nearestRoad":null,"flu":null,"opportunityZone":null,"oz2Eligibility":null,"source":"nc-onemap-37035"},"geometry":{"type":"Polygon","coordinates":[[[-81.50006,35.60934],[-81.50228,35.6072],[-81.50348,35.60703],[-81.50435,35.60836],[-81.50022,35.60946],[-81.50006,35.60934]]]}},{"type":"Feature","id":"37035:265701279976","properties":{"id":"37035:265701279976","parcelId":"265701279976","countyFips":"37035","countyName":"Catawba","state":"North Carolina","marketIds":["Charlotte"],"situsAddress":"ROGER HILL RD","situsCity":null,"situsZip":null,"jurisdictionCode":null,"ownerName":"RICHARD PATRICIA A","ownerName2":null,"propertyName":null,"zoningCode":null,"zoningDistrict":null,"jurisdictionPrefix":null,"dorCode":null,"acreage":11.21,"centroid":[-81.512555,35.586851],"lastSale":{"date":null,"price":null,"qualified":null},"tax":{"marketValue":3000.0,"assessedValue":44800.0,"taxableValue":null,"taxes":null},"mailingAddress":{"line1":null,"line2":null,"city":null,"state":null,"zip":null},"incomeTract":null,"incomeBlockGroup":null,"nearestRoad":null,"flu":null,"opportunityZone":null,"oz2Eligibility":null,"source":"nc-onemap-37035"},"geometry":{"type":"Polygon","coordinates":[[[-81.51123,35.58691],[-81.51097,35.58611],[-81.51337,35.58567],[-81.51352,35.58626],[-81.51412,35.58659],[-81.51411,35.58736],[-81.512,35.58869],[-81.51252,35.58717],[-81.51234,35.58685],[-81.51137,35.5869],[-81.51123,35.58691]]]}},{"type":"Feature","id":"37035:265701057407","properties":{"id":"37035:265701057407","parcelId":"265701057407","countyFips":"37035","countyName":"Catawba","state":"North Carolina","marketIds":["Charlotte"],"situsAddress":null,"situsCity":null,"situsZip":null,"jurisdictionCode":null,"ownerName":"DAYE ALEC JULIAN","ownerName2":null,"propertyName":null,"zoningCode":null,"zoningDistrict":null,"jurisdictionPrefix":null,"dorCode":null,"acreage":11.01,"centroid":[-81.519938,35.579892],"lastSale":{"date":null,"price":null,"qualified":null},"tax":{"marketValue":53000.0,"assessedValue":53000.0,"taxableValue":null,"taxes":null},"mailingAddress":{"line1":null,"line2":null,"city":null,"state":null,"zip":null},"incomeTract":null,"incomeBlockGroup":null,"nearestRoad":null,"flu":null,"opportunityZone":null,"oz2Eligibility":null,"source":"nc-onemap-37035"},"geometry":{"type":"Polygon","coordinates":[[[-81.5197,35.5805],[-81.5197,35.58002],[-81.51887,35.57874],[-81.51975,35.57824],[-81.52193,35.58032],[-81.51968,35.58153],[-81.5197,35.5805]]]}},{"type":"Feature","id":"37035:265701086728","properties":{"id":"37035:265701086728","parcelId":"265701086728","countyFips":"37035","countyName":"Catawba","state":"North Carolina","marketIds":["Charlotte"],"situsAddress":null,"situsCity":null,"situsZip":null,"jurisdictionCode":null,"ownerName":"YANCEY LORI SPEAGLE","ownerName2":null,"propertyName":null,"zoningCode":null,"zoningDistrict":null,"jurisdictionPrefix":null,"dorCode":null,"acreage":10.99,"centroid":[-81.520416,35.58861],"lastSale":{"date":null,"price":null,"qualified":null},"tax":{"marketValue":80000.0,"assessedValue":80000.0,"taxableValue":null,"taxes":null},"mailingAddress":{"line1":null,"line2":null,"city":null,"state":null,"zip":null},"incomeTract":null,"incomeBlockGroup":null,"nearestRoad":null,"flu":null,"opportunityZone":null,"oz2Eligibility":null,"source":"nc-onemap-37035"},"geometry":{"type":"Polygon","coordinates":[[[-81.51869,35.58746],[-81.519,35.58747],[-81.51932,35.58724],[-81.51993,35.58814],[-81.52034,35.58844],[-81.5213,35.58841],[-81.52277,35.58876],[-81.52181,35.58992],[-81.52123,35.59021],[-81.52077,35.5902],[-81.51942,35.58846],[-81.51869,35.58746]]]}},{"type":"Feature","id":"37035:265701070064","properties":{"id":"37035:265701070064","parcelId":"265701070064","countyFips":"37035","countyName":"Catawba","state":"North Carolina","marketIds":["Charlotte"],"situsAddress":null,"situsCity":null,"situsZip":null,"jurisdictionCode":null,"ownerName":"DAVIS BOBBY","ownerName2":null,"propertyName":null,"zoningCode":null,"zoningDistrict":null,"jurisdictionPrefix":null,"dorCode":null,"acreage":10.85,"centroid":[-81.522696,35.584048],"lastSale":{"date":null,"price":null,"qualified":null},"tax":{"marketValue":43400.0,"assessedValue":43400.0,"taxableValue":null,"taxes":null},"mailingAddress":{"line1":null,"line2":null,"city":null,"state":null,"zip":null},"incomeTract":null,"incomeBlockGroup":null,"nearestRoad":null,"flu":null,"opportunityZone":null,"oz2Eligibility":null,"source":"nc-onemap-37035"},"geometry":{"type":"Polygon","coordinates":[[[-81.52087,35.58419],[-81.52265,35.58336],[-81.52386,35.58299],[-81.52429,35.58438],[-81.52181,35.58532],[-81.52087,35.58419]]]}},{"type":"Feature","id":"37035:265702555196","properties":{"id":"37035:265702555196","parcelId":"265702555196","countyFips":"37035","countyName":"Catawba","state":"North Carolina","marketIds":["Charlotte"],"situsAddress":"3672 NC 18 HWY","situsCity":null,"situsZip":null,"jurisdictionCode":null,"ownerName":"SAIN ERIC DOUGLAS","ownerName2":null,"propertyName":null,"zoningCode":null,"zoningDistrict":null,"jurisdictionPrefix":null,"dorCode":null,"acreage":10.64,"centroid":[-81.504309,35.57904],"lastSale":{"date":null,"price":null,"qualified":null},"tax":{"marketValue":5000.0,"assessedValue":58600.0,"taxableValue":null,"taxes":null},"mailingAddress":{"line1":null,"line2":null,"city":null,"state":null,"zip":null},"incomeTract":null,"incomeBlockGroup":null,"nearestRoad":null,"flu":null,"opportunityZone":null,"oz2Eligibility":null,"source":"nc-onemap-37035"},"geometry":{"type":"Polygon","coordinates":[[[-81.50415,35.5781],[-81.50581,35.57829],[-81.50569,35.5789],[-81.50514,35.57898],[-81.50517,35.57935],[-81.50099,35.58076],[-81.50321,35.5789],[-81.50415,35.5781]]]}},{"type":"Feature","id":"37035:265703415166","properties":{"id":"37035:265703415166","parcelId":"265703415166","countyFips":"37035","countyName":"Catawba","state":"North Carolina","marketIds":["Charlotte"],"situsAddress":"4036 NC 18 HWY","situsCity":null,"situsZip":null,"jurisdictionCode":null,"ownerName":"COOK MADELINE FREDELL","ownerName2":null,"propertyName":null,"zoningCode":null,"zoningDistrict":null,"jurisdictionPrefix":null,"dorCode":null,"acreage":10.62,"centroid":[-81.506504,35.568308],"lastSale":{"date":null,"price":null,"qualified":null},"tax":{"marketValue":377800.0,"assessedValue":49700.0,"taxableValue":null,"taxes":null},"mailingAddress":{"line1":null,"line2":null,"city":null,"state":null,"zip":null},"incomeTract":null,"incomeBlockGroup":null,"nearestRoad":null,"flu":null,"opportunityZone":null,"oz2Eligibility":null,"source":"nc-onemap-37035"},"geometry":{"type":"Polygon","coordinates":[[[-81.50413,35.56835],[-81.5042,35.56729],[-81.50951,35.56846],[-81.50921,35.56895],[-81.50547,35.56849],[-81.50413,35.56835]]]}},{"type":"Feature","id":"37035:265702558901","properties":{"id":"37035:265702558901","parcelId":"265702558901","countyFips":"37035","countyName":"Catawba","state":"North Carolina","marketIds":["Charlotte"],"situsAddress":"3603 NC 18 HWY","situsCity":null,"situsZip":null,"jurisdictionCode":null,"ownerName":"DEVINEY ROBIN BRADSHAW","ownerName2":null,"propertyName":null,"zoningCode":null,"zoningDistrict":null,"jurisdictionPrefix":null,"dorCode":null,"acreage":10.6,"centroid":[-81.502132,35.58169],"lastSale":{"date":null,"price":null,"qualified":null},"tax":{"marketValue":52900.0,"assessedValue":52900.0,"taxableValue":null,"taxes":null},"mailingAddress":{"line1":null,"line2":null,"city":null,"state":null,"zip":null},"incomeTract":null,"incomeBlockGroup":null,"nearestRoad":null,"flu":null,"opportunityZone":null,"oz2Eligibility":null,"source":"nc-onemap-37035"},"geometry":{"type":"Polygon","coordinates":[[[-81.49968,35.58266],[-81.49971,35.58211],[-81.50577,35.58009],[-81.50582,35.58093],[-81.49968,35.58266],[-81.49968,35.58266]]]}},{"type":"Feature","id":"37035:265703429544","properties":{"id":"37035:265703429544","parcelId":"265703429544","countyFips":"37035","countyName":"Catawba","state":"North Carolina","marketIds":["Charlotte"],"situsAddress":"3900 NC 18 HWY","situsCity":null,"situsZip":null,"jurisdictionCode":null,"ownerName":"FRANKLIN JERRY RAY","ownerName2":null,"propertyName":null,"zoningCode":null,"zoningDistrict":null,"jurisdictionPrefix":null,"dorCode":null,"acreage":10.38,"centroid":[-81.503853,35.571854],"lastSale":{"date":null,"price":null,"qualified":null},"tax":{"marketValue":232500.0,"assessedValue":46500.0,"taxableValue":null,"taxes":null},"mailingAddress":{"line1":null,"line2":null,"city":null,"state":null,"zip":null},"incomeTract":null,"incomeBlockGroup":null,"nearestRoad":null,"flu":null,"opportunityZone":null,"oz2Eligibility":null,"source":"nc-onemap-37035"},"geometry":{"type":"Polygon","coordinates":[[[-81.50368,35.57192],[-81.50304,35.5718],[-81.50073,35.57176],[-81.50094,35.5708],[-81.5074,35.5721],[-81.50739,35.57266],[-81.50379,35.57194],[-81.50368,35.57192]]]}},{"type":"Feature","id":"37035:265703126171","properties":{"id":"37035:265703126171","parcelId":"265703126171","countyFips":"37035","countyName":"Catawba","state":"North Carolina","marketIds":["Charlotte"],"situsAddress":"4013 NC 18 HWY","situsCity":null,"situsZip":null,"jurisdictionCode":null,"ownerName":"FREDELL SPENCER T","ownerName2":null,"propertyName":null,"zoningCode":null,"zoningDistrict":null,"jurisdictionPrefix":null,"dorCode":null,"acreage":10.33,"centroid":[-81.516244,35.570511],"lastSale":{"date":null,"price":null,"qualified":null},"tax":{"marketValue":1121400.0,"assessedValue":47300.0,"taxableValue":null,"taxes":null},"mailingAddress":{"line1":null,"line2":null,"city":null,"state":null,"zip":null},"incomeTract":null,"incomeBlockGroup":null,"nearestRoad":null,"flu":null,"opportunityZone":null,"oz2Eligibility":null,"source":"nc-onemap-37035"},"geometry":{"type":"Polygon","coordinates":[[[-81.51924,35.56941],[-81.51802,35.57085],[-81.51556,35.57137],[-81.51472,35.57126],[-81.51433,35.57077],[-81.51416,35.57023],[-81.51579,35.57045],[-81.51813,35.56975],[-81.51924,35.56941]]]}},{"type":"Feature","id":"37035:265701054368","properties":{"id":"37035:265701054368","parcelId":"265701054368","countyFips":"37035","countyName":"Catawba","state":"North Carolina","marketIds":["Charlotte"],"situsAddress":"3833 PEA RIDGE RD","situsCity":null,"situsZip":null,"jurisdictionCode":null,"ownerName":"THOMAS ROBERT","ownerName2":null,"propertyName":null,"zoningCode":null,"zoningDistrict":null,"jurisdictionPrefix":null,"dorCode":null,"acreage":10.19,"centroid":[-81.521219,35.578676],"lastSale":{"date":null,"price":null,"qualified":null},"tax":{"marketValue":355700.0,"assessedValue":49800.0,"taxableValue":null,"taxes":null},"mailingAddress":{"line1":null,"line2":null,"city":null,"state":null,"zip":null},"incomeTract":null,"incomeBlockGroup":null,"nearestRoad":null,"flu":null,"opportunityZone":null,"oz2Eligibility":null,"source":"nc-onemap-37035"},"geometry":{"type":"Polygon","coordinates":[[[-81.51975,35.57824],[-81.52053,35.57774],[-81.5212,35.57825],[-81.52248,35.57813],[-81.52289,35.57981],[-81.52193,35.58032],[-81.51975,35.57824],[-81.51975,35.57824]]]}},{"type":"Feature","id":"37035:265703027652","properties":{"id":"37035:265703027652","parcelId":"265703027652","countyFips":"37035","countyName":"Catawba","state":"North Carolina","marketIds":["Charlotte"],"situsAddress":"4012 PEA RIDGE RD","situsCity":null,"situsZip":null,"jurisdictionCode":null,"ownerName":"HENNIGAN ALBERT C","ownerName2":null,"propertyName":null,"zoningCode":null,"zoningDistrict":null,"jurisdictionPrefix":null,"dorCode":null,"acreage":10.02,"centroid":[-81.520092,35.5722],"lastSale":{"date":null,"price":null,"qualified":null},"tax":{"marketValue":293800.0,"assessedValue":52100.0,"taxableValue":null,"taxes":null},"mailingAddress":{"line1":null,"line2":null,"city":null,"state":null,"zip":null},"incomeTract":null,"incomeBlockGroup":null,"nearestRoad":null,"flu":null,"opportunityZone":null,"oz2Eligibility":null,"source":"nc-onemap-37035"},"geometry":{"type":"Polygon","coordinates":[[[-81.51754,35.57141],[-81.51818,35.57066],[-81.52171,35.57256],[-81.52149,35.57281],[-81.52154,35.57356],[-81.51754,35.57141]]]}},{"type":"Feature","id":"37035:265803447863","properties":{"id":"37035:265803447863","parcelId":"265803447863","countyFips":"37035","countyName":"Catawba","state":"North Carolina","marketIds":["Charlotte"],"situsAddress":"NC 18 HWY","situsCity":null,"situsZip":null,"jurisdictionCode":null,"ownerName":"REYNOLDS JOHN JOSEPH","ownerName2":null,"propertyName":null,"zoningCode":null,"zoningDistrict":null,"jurisdictionPrefix":null,"dorCode":null,"acreage":10.02,"centroid":[-81.507264,35.605736],"lastSale":{"date":null,"price":null,"qualified":null},"tax":{"marketValue":57600.0,"assessedValue":57600.0,"taxableValue":null,"taxes":null},"mailingAddress":{"line1":null,"line2":null,"city":null,"state":null,"zip":null},"incomeTract":null,"incomeBlockGroup":null,"nearestRoad":null,"flu":null,"opportunityZone":null,"oz2Eligibility":null,"source":"nc-onemap-37035"},"geometry":{"type":"Polygon","coordinates":[[[-81.50593,35.60649],[-81.50683,35.60644],[-81.50676,35.60568],[-81.50588,35.60575],[-81.50585,35.60523],[-81.50736,35.60528],[-81.50797,35.60494],[-81.50843,35.60492],[-81.50884,35.60512],[-81.50867,35.60529],[-81.50858,35.60622],[-81.50607,35.60747],[-81.50593,35.60649]]]}},{"type":"Feature","id":"37035:265701464525","properties":{"id":"37035:265701464525","parcelId":"265701464525","countyFips":"37035","countyName":"Catawba","state":"North Carolina","marketIds":["Charlotte"],"situsAddress":"3381 NC 18 HWY","situsCity":null,"situsZip":null,"jurisdictionCode":null,"ownerName":"DEFELICE JAMES","ownerName2":null,"propertyName":null,"zoningCode":null,"zoningDistrict":null,"jurisdictionPrefix":null,"dorCode":null,"acreage":9.95,"centroid":[-81.507609,35.583181],"lastSale":{"date":null,"price":null,"qualified":null},"tax":{"marketValue":27500.0,"assessedValue":26500.0,"taxableValue":null,"taxes":null},"mailingAddress":{"line1":null,"line2":null,"city":null,"state":null,"zip":null},"incomeTract":null,"incomeBlockGroup":null,"nearestRoad":null,"flu":null,"opportunityZone":null,"oz2Eligibility":null,"source":"nc-onemap-37035"},"geometry":{"type":"Polygon","coordinates":[[[-81.5062,35.58394],[-81.50617,35.58348],[-81.50723,35.58347],[-81.50914,35.58147],[-81.5099,35.58131],[-81.50986,35.58249],[-81.50755,35.58406],[-81.50623,35.58446],[-81.5062,35.58395],[-81.5062,35.58394]]]}},{"type":"Feature","id":"37035:264704713175","properties":{"id":"37035:264704713175","parcelId":"264704713175","countyFips":"37035","countyName":"Catawba","state":"North Carolina","marketIds":["Charlotte"],"situsAddress":null,"situsCity":null,"situsZip":null,"jurisdictionCode":null,"ownerName":"COOK BOBBIE JO","ownerName2":null,"propertyName":null,"zoningCode":null,"zoningDistrict":null,"jurisdictionPrefix":null,"dorCode":null,"acreage":9.78,"centroid":[-81.531476,35.568582],"lastSale":{"date":null,"price":null,"qualified":null},"tax":{"marketValue":53600.0,"assessedValue":53600.0,"taxableValue":null,"taxes":null},"mailingAddress":{"line1":null,"line2":null,"city":null,"state":null,"zip":null},"incomeTract":null,"incomeBlockGroup":null,"nearestRoad":null,"flu":null,"opportunityZone":null,"oz2Eligibility":null,"source":"nc-onemap-37035"},"geometry":{"type":"Polygon","coordinates":[[[-81.52978,35.56914],[-81.53016,35.5686],[-81.52963,35.56836],[-81.52945,35.56798],[-81.53435,35.56811],[-81.53438,35.56845],[-81.53272,35.56814],[-81.53134,35.56988],[-81.52978,35.56914]]]}},{"type":"Feature","id":"37035:265701455288","properties":{"id":"37035:265701455288","parcelId":"265701455288","countyFips":"37035","countyName":"Catawba","state":"North Carolina","marketIds":["Charlotte"],"situsAddress":"3639 NC 18 HWY","situsCity":null,"situsZip":null,"jurisdictionCode":null,"ownerName":"SOUTH MOUNTAIN BAPTIST ASSOCIATION","ownerName2":null,"propertyName":null,"zoningCode":null,"zoningDistrict":null,"jurisdictionPrefix":null,"dorCode":null,"acreage":9.69,"centroid":[-81.506854,35.580212],"lastSale":{"date":null,"price":null,"qualified":null},"tax":{"marketValue":244700.0,"assessedValue":47400.0,"taxableValue":null,"taxes":null},"mailingAddress":{"line1":null,"line2":null,"city":null,"state":null,"zip":null},"incomeTract":null,"incomeBlockGroup":null,"nearestRoad":null,"flu":null,"opportunityZone":null,"oz2Eligibility":null,"source":"nc-onemap-37035"},"geometry":{"type":"Polygon","coordinates":[[[-81.50602,35.5809],[-81.50592,35.57912],[-81.5084,35.57918],[-81.5079,35.58096],[-81.50603,35.5809],[-81.50602,35.5809]]]}},{"type":"Feature","id":"37035:264704926005","properties":{"id":"37035:264704926005","parcelId":"264704926005","countyFips":"37035","countyName":"Catawba","state":"North Carolina","marketIds":["Charlotte"],"situsAddress":"4092 PEA RIDGE RD","situsCity":null,"situsZip":null,"jurisdictionCode":null,"ownerName":"GARCIA YESSICA JACKELINE OCHOA","ownerName2":null,"propertyName":null,"zoningCode":null,"zoningDistrict":null,"jurisdictionPrefix":null,"dorCode":null,"acreage":9.55,"centroid":[-81.522518,35.569763],"lastSale":{"date":null,"price":null,"qualified":null},"tax":{"marketValue":49100.0,"assessedValue":44200.0,"taxableValue":null,"taxes":null},"mailingAddress":{"line1":null,"line2":null,"city":null,"state":null,"zip":null},"incomeTract":null,"incomeBlockGroup":null,"nearestRoad":null,"flu":null,"opportunityZone":null,"oz2Eligibility":null,"source":"nc-onemap-37035"},"geometry":{"type":"Polygon","coordinates":[[[-81.5198,35.5689],[-81.52053,35.56823],[-81.52274,35.5694],[-81.5225,35.56971],[-81.52341,35.57019],[-81.52357,35.56998],[-81.52457,35.5705],[-81.52391,35.57108],[-81.52163,35.56988],[-81.5198,35.5689]]]}},{"type":"Feature","id":"37035:265701251384","properties":{"id":"37035:265701251384","parcelId":"265701251384","countyFips":"37035","countyName":"Catawba","state":"North Carolina","marketIds":["Charlotte"],"situsAddress":"3760 PEA RIDGE RD","situsCity":null,"situsZip":null,"jurisdictionCode":null,"ownerName":"COOK SCOTTIE H","ownerName2":null,"propertyName":null,"zoningCode":null,"zoningDistrict":null,"jurisdictionPrefix":null,"dorCode":null,"acreage":8.32,"centroid":[-81.514968,35.580232],"lastSale":{"date":null,"price":null,"qualified":null},"tax":{"marketValue":15700.0,"assessedValue":46300.0,"taxableValue":null,"taxes":null},"mailingAddress":{"line1":null,"line2":null,"city":null,"state":null,"zip":null},"incomeTract":null,"incomeBlockGroup":null,"nearestRoad":null,"flu":null,"opportunityZone":null,"oz2Eligibility":null,"source":"nc-onemap-37035"},"geometry":{"type":"Polygon","coordinates":[[[-81.51364,35.57925],[-81.51504,35.5787],[-81.51568,35.58025],[-81.51533,35.58072],[-81.51515,35.58224],[-81.51364,35.57925]]]}},{"type":"Feature","id":"37035:265701172949","properties":{"id":"37035:265701172949","parcelId":"265701172949","countyFips":"37035","countyName":"Catawba","state":"North Carolina","marketIds":["Charlotte"],"situsAddress":"9870 ROGER HILL RD","situsCity":null,"situsZip":null,"jurisdictionCode":null,"ownerName":"SIMMONDS ANDREW JOHN","ownerName2":null,"propertyName":null,"zoningCode":null,"zoningDistrict":null,"jurisdictionPrefix":null,"dorCode":null,"acreage":7.77,"centroid":[-81.517819,35.586824],"lastSale":{"date":null,"price":null,"qualified":null},"tax":{"marketValue":158500.0,"assessedValue":58100.0,"taxableValue":null,"taxes":null},"mailingAddress":{"line1":null,"line2":null,"city":null,"state":null,"zip":null},"incomeTract":null,"incomeBlockGroup":null,"nearestRoad":null,"flu":null,"opportunityZone":null,"oz2Eligibility":null,"source":"nc-onemap-37035"},"geometry":{"type":"Polygon","coordinates":[[[-81.51869,35.58746],[-81.51826,35.587],[-81.51667,35.58696],[-81.51617,35.58714],[-81.5157,35.5861],[-81.51688,35.58581],[-81.51853,35.58637],[-81.51897,35.58669],[-81.51932,35.58724],[-81.519,35.58747],[-81.51869,35.58746]]]}},{"type":"Feature","id":"37035:264704915012","properties":{"id":"37035:264704915012","parcelId":"264704915012","countyFips":"37035","countyName":"Catawba","state":"North Carolina","marketIds":["Charlotte"],"situsAddress":null,"situsCity":null,"situsZip":null,"jurisdictionCode":null,"ownerName":"MEDICAL WAREHOUSE LLC","ownerName2":null,"propertyName":null,"zoningCode":null,"zoningDistrict":null,"jurisdictionPrefix":null,"dorCode":null,"acreage":7.75,"centroid":[-81.524748,35.568485],"lastSale":{"date":null,"price":null,"qualified":null},"tax":{"marketValue":67800.0,"assessedValue":62800.0,"taxableValue":null,"taxes":null},"mailingAddress":{"line1":null,"line2":null,"city":null,"state":null,"zip":null},"incomeTract":null,"incomeBlockGroup":null,"nearestRoad":null,"flu":null,"opportunityZone":null,"oz2Eligibility":null,"source":"nc-onemap-37035"},"geometry":{"type":"Polygon","coordinates":[[[-81.52209,35.56778],[-81.5258,35.56789],[-81.52571,35.5688],[-81.52539,35.56947],[-81.52209,35.56778]]]}},{"type":"Feature","id":"37035:265703445985","properties":{"id":"37035:265703445985","parcelId":"265703445985","countyFips":"37035","countyName":"Catawba","state":"North Carolina","marketIds":["Charlotte"],"situsAddress":"3755 NC 18 HWY","situsCity":null,"situsZip":null,"jurisdictionCode":null,"ownerName":"COOK CECIL CARL","ownerName2":null,"propertyName":null,"zoningCode":null,"zoningDistrict":null,"jurisdictionPrefix":null,"dorCode":null,"acreage":7.25,"centroid":[-81.507609,35.57883],"lastSale":{"date":null,"price":null,"qualified":null},"tax":{"marketValue":267100.0,"assessedValue":40000.0,"taxableValue":null,"taxes":null},"mailingAddress":{"line1":null,"line2":null,"city":null,"state":null,"zip":null},"incomeTract":null,"incomeBlockGroup":null,"nearestRoad":null,"flu":null,"opportunityZone":null,"oz2Eligibility":null,"source":"nc-onemap-37035"},"geometry":{"type":"Polygon","coordinates":[[[-81.50591,35.5788],[-81.50592,35.57866],[-81.50854,35.57873],[-81.50878,35.57784],[-81.50947,35.57783],[-81.50896,35.57973],[-81.50829,35.57957],[-81.5084,35.57918],[-81.50592,35.57912],[-81.5059,35.57884],[-81.50591,35.5788]],[[-81.5093,35.57703],[-81.50969,35.57702],[-81.50951,35.57771],[-81.50882,35.57772],[-81.509,35.57703],[-81.50925,35.57703],[-81.5093,35.57703]]]}},{"type":"Feature","id":"37035:265704506938","properties":{"id":"37035:265704506938","parcelId":"265704506938","countyFips":"37035","countyName":"Catawba","state":"North Carolina","marketIds":["Charlotte"],"situsAddress":null,"situsCity":null,"situsZip":null,"jurisdictionCode":null,"ownerName":"DAVIS GARY ALAN","ownerName2":null,"propertyName":null,"zoningCode":null,"zoningDistrict":null,"jurisdictionPrefix":null,"dorCode":null,"acreage":6.54,"centroid":[-81.503197,35.567955],"lastSale":{"date":null,"price":null,"qualified":null},"tax":{"marketValue":19500.0,"assessedValue":19500.0,"taxableValue":null,"taxes":null},"mailingAddress":{"line1":null,"line2":null,"city":null,"state":null,"zip":null},"incomeTract":null,"incomeBlockGroup":null,"nearestRoad":null,"flu":null,"opportunityZone":null,"oz2Eligibility":null,"source":"nc-onemap-37035"},"geometry":{"type":"Polygon","coordinates":[[[-81.50208,35.56861],[-81.50242,35.56724],[-81.5042,35.56729],[-81.50409,35.56868],[-81.50208,35.56861]]]}},{"type":"Feature","id":"37035:265802557331","properties":{"id":"37035:265802557331","parcelId":"265802557331","countyFips":"37035","countyName":"Catawba","state":"North Carolina","marketIds":["Charlotte"],"situsAddress":"2446 NC 18 HWY","situsCity":null,"situsZip":null,"jurisdictionCode":null,"ownerName":"PROSSICK MARTIN","ownerName2":null,"propertyName":null,"zoningCode":null,"zoningDistrict":null,"jurisdictionPrefix":null,"dorCode":null,"acreage":6.26,"centroid":[-81.504907,35.607581],"lastSale":{"date":null,"price":null,"qualified":null},"tax":{"marketValue":180400.0,"assessedValue":39000.0,"taxableValue":null,"taxes":null},"mailingAddress":{"line1":null,"line2":null,"city":null,"state":null,"zip":null},"incomeTract":null,"incomeBlockGroup":null,"nearestRoad":null,"flu":null,"opportunityZone":null,"oz2Eligibility":null,"source":"nc-onemap-37035"},"geometry":{"type":"Polygon","coordinates":[[[-81.50348,35.60703],[-81.50579,35.60671],[-81.50592,35.60757],[-81.50531,35.60762],[-81.50556,35.60805],[-81.50435,35.60836],[-81.50394,35.60773],[-81.50348,35.60703]]]}},{"type":"Feature","id":"37035:265703405807","properties":{"id":"37035:265703405807","parcelId":"265703405807","countyFips":"37035","countyName":"Catawba","state":"North Carolina","marketIds":["Charlotte"],"situsAddress":"4054 NC 18 HWY","situsCity":null,"situsZip":null,"jurisdictionCode":null,"ownerName":"FREDELL ZEBBIE JOE","ownerName2":null,"propertyName":null,"zoningCode":null,"zoningDistrict":null,"jurisdictionPrefix":null,"dorCode":null,"acreage":6.23,"centroid":[-81.507504,35.567712],"lastSale":{"date":null,"price":null,"qualified":null},"tax":{"marketValue":28500.0,"assessedValue":28500.0,"taxableValue":null,"taxes":null},"mailingAddress":{"line1":null,"line2":null,"city":null,"state":null,"zip":null},"incomeTract":null,"incomeBlockGroup":null,"nearestRoad":null,"flu":null,"opportunityZone":null,"oz2Eligibility":null,"source":"nc-onemap-37035"},"geometry":{"type":"Polygon","coordinates":[[[-81.50436,35.56729],[-81.50833,35.5674],[-81.50988,35.56789],[-81.50951,35.56846],[-81.50544,35.56752],[-81.50436,35.56729]]]}},{"type":"Feature","id":"37035:265701284023","properties":{"id":"37035:265701284023","parcelId":"265701284023","countyFips":"37035","countyName":"Catawba","state":"North Carolina","marketIds":["Charlotte"],"situsAddress":"3550 TUCKER ROCK RD","situsCity":null,"situsZip":null,"jurisdictionCode":null,"ownerName":"SIMMONDS ANDREW JOHN","ownerName2":null,"propertyName":null,"zoningCode":null,"zoningDistrict":null,"jurisdictionPrefix":null,"dorCode":null,"acreage":6.15,"centroid":[-81.514488,35.586395],"lastSale":{"date":null,"price":null,"qualified":null},"tax":{"marketValue":184500.0,"assessedValue":28600.0,"taxableValue":null,"taxes":null},"mailingAddress":{"line1":null,"line2":null,"city":null,"state":null,"zip":null},"incomeTract":null,"incomeBlockGroup":null,"nearestRoad":null,"flu":null,"opportunityZone":null,"oz2Eligibility":null,"source":"nc-onemap-37035"},"geometry":{"type":"Polygon","coordinates":[[[-81.51411,35.58736],[-81.5141,35.58642],[-81.51367,35.58614],[-81.51357,35.58563],[-81.51428,35.58552],[-81.5157,35.5861],[-81.51523,35.58643],[-81.51524,35.58756],[-81.51411,35.58736]]]}},{"type":"Feature","id":"37035:265704518401","properties":{"id":"37035:265704518401","parcelId":"265704518401","countyFips":"37035","countyName":"Catawba","state":"North Carolina","marketIds":["Charlotte"],"situsAddress":"9451 SIDNEY LN","situsCity":null,"situsZip":null,"jurisdictionCode":null,"ownerName":"FRANKLIN SIDNEY A","ownerName2":null,"propertyName":null,"zoningCode":null,"zoningDistrict":null,"jurisdictionPrefix":null,"dorCode":null,"acreage":6.11,"centroid":[-81.503208,35.569143],"lastSale":{"date":null,"price":null,"qualified":null},"tax":{"marketValue":200200.0,"assessedValue":29400.0,"taxableValue":null,"taxes":null},"mailingAddress":{"line1":null,"line2":null,"city":null,"state":null,"zip":null},"incomeTract":null,"incomeBlockGroup":null,"nearestRoad":null,"flu":null,"opportunityZone":null,"oz2Eligibility":null,"source":"nc-onemap-37035"},"geometry":{"type":"Polygon","coordinates":[[[-81.50126,35.56911],[-81.50165,35.56852],[-81.50409,35.56868],[-81.5041,35.56932],[-81.50421,35.56935],[-81.50394,35.56988],[-81.50126,35.56911]]]}},{"type":"Feature","id":"37035:265703445822","properties":{"id":"37035:265703445822","parcelId":"265703445822","countyFips":"37035","countyName":"Catawba","state":"North Carolina","marketIds":["Charlotte"],"situsAddress":"3697 NC 18 HWY","situsCity":null,"situsZip":null,"jurisdictionCode":null,"ownerName":"COOK SCOTTIE HARRISON","ownerName2":null,"propertyName":null,"zoningCode":null,"zoningDistrict":null,"jurisdictionPrefix":null,"dorCode":null,"acreage":5.9,"centroid":[-81.50739,35.57824],"lastSale":{"date":null,"price":null,"qualified":null},"tax":{"marketValue":442000.0,"assessedValue":38400.0,"taxableValue":null,"taxes":null},"mailingAddress":{"line1":null,"line2":null,"city":null,"state":null,"zip":null},"incomeTract":null,"incomeBlockGroup":null,"nearestRoad":null,"flu":null,"opportunityZone":null,"oz2Eligibility":null,"source":"nc-onemap-37035"},"geometry":{"type":"Polygon","coordinates":[[[-81.50592,35.57866],[-81.50634,35.57773],[-81.50878,35.57784],[-81.50852,35.57873],[-81.50592,35.57866]]]}},{"type":"Feature","id":"37035:265703042672","properties":{"id":"37035:265703042672","parcelId":"265703042672","countyFips":"37035","countyName":"Catawba","state":"North Carolina","marketIds":["Charlotte"],"situsAddress":"3845 PEA RIDGE RD","situsCity":null,"situsZip":null,"jurisdictionCode":null,"ownerName":"FARLEY ANTHONY JAMEL","ownerName2":null,"propertyName":null,"zoningCode":null,"zoningDistrict":null,"jurisdictionPrefix":null,"dorCode":null,"acreage":5.53,"centroid":[-81.521444,35.57733],"lastSale":{"date":null,"price":null,"qualified":null},"tax":{"marketValue":396600.0,"assessedValue":34100.0,"taxableValue":null,"taxes":null},"mailingAddress":{"line1":null,"line2":null,"city":null,"state":null,"zip":null},"incomeTract":null,"incomeBlockGroup":null,"nearestRoad":null,"flu":null,"opportunityZone":null,"oz2Eligibility":null,"source":"nc-onemap-37035"},"geometry":{"type":"Polygon","coordinates":[[[-81.52148,35.57667],[-81.52217,35.57651],[-81.52248,35.57813],[-81.5212,35.57825],[-81.52053,35.57774],[-81.52098,35.57731],[-81.52127,35.5767],[-81.52148,35.57667]],[[-81.5209,35.57677],[-81.52104,35.57675],[-81.5208,35.57726],[-81.52089,35.5768],[-81.5209,35.57677]]]}},{"type":"Feature","id":"37035:265701363768","properties":{"id":"37035:265701363768","parcelId":"265701363768","countyFips":"37035","countyName":"Catawba","state":"North Carolina","marketIds":["Charlotte"],"situsAddress":"9689 ROGER HILL RD","situsCity":null,"situsZip":null,"jurisdictionCode":null,"ownerName":"ROSS MICHAEL H","ownerName2":null,"propertyName":null,"zoningCode":null,"zoningDistrict":null,"jurisdictionPrefix":null,"dorCode":null,"acreage":5.53,"centroid":[-81.51129,35.583578],"lastSale":{"date":null,"price":null,"qualified":null},"tax":{"marketValue":141000.0,"assessedValue":37100.0,"taxableValue":null,"taxes":null},"mailingAddress":{"line1":null,"line2":null,"city":null,"state":null,"zip":null},"incomeTract":null,"incomeBlockGroup":null,"nearestRoad":null,"flu":null,"opportunityZone":null,"oz2Eligibility":null,"source":"nc-onemap-37035"},"geometry":{"type":"Polygon","coordinates":[[[-81.51032,35.58299],[-81.51118,35.58272],[-81.51253,35.58388],[-81.51113,35.58472],[-81.51032,35.58299]]]}},{"type":"Feature","id":"37035:265701164070","properties":{"id":"37035:265701164070","parcelId":"265701164070","countyFips":"37035","countyName":"Catawba","state":"North Carolina","marketIds":["Charlotte"],"situsAddress":"PEA RIDGE RD","situsCity":null,"situsZip":null,"jurisdictionCode":null,"ownerName":"REYNOLDS GLADYS DIANE T PRICE LFI","ownerName2":null,"propertyName":null,"zoningCode":null,"zoningDistrict":null,"jurisdictionPrefix":null,"dorCode":null,"acreage":5.35,"centroid":[-81.518205,35.582196],"lastSale":{"date":null,"price":null,"qualified":null},"tax":{"marketValue":21400.0,"assessedValue":21400.0,"taxableValue":null,"taxes":null},"mailingAddress":{"line1":null,"line2":null,"city":null,"state":null,"zip":null},"incomeTract":null,"incomeBlockGroup":null,"nearestRoad":null,"flu":null,"opportunityZone":null,"oz2Eligibility":null,"source":"nc-onemap-37035"},"geometry":{"type":"Polygon","coordinates":[[[-81.5171,35.58214],[-81.51793,35.58161],[-81.51787,35.58146],[-81.51802,35.58143],[-81.5184,35.58242],[-81.51914,35.58224],[-81.51937,35.58284],[-81.51781,35.58343],[-81.5171,35.58214]]]}},{"type":"Feature","id":"37035:265703444547","properties":{"id":"37035:265703444547","parcelId":"265703444547","countyFips":"37035","countyName":"Catawba","state":"North Carolina","marketIds":["Charlotte"],"situsAddress":"3737 NC 18 HWY","situsCity":null,"situsZip":null,"jurisdictionCode":null,"ownerName":"COOK SCOTTIE HARRISON","ownerName2":null,"propertyName":null,"zoningCode":null,"zoningDistrict":null,"jurisdictionPrefix":null,"dorCode":null,"acreage":5.34,"centroid":[-81.50786,35.577253],"lastSale":{"date":null,"price":null,"qualified":null},"tax":{"marketValue":9300.0,"assessedValue":38900.0,"taxableValue":null,"taxes":null},"mailingAddress":{"line1":null,"line2":null,"city":null,"state":null,"zip":null},"incomeTract":null,"incomeBlockGroup":null,"nearestRoad":null,"flu":null,"opportunityZone":null,"oz2Eligibility":null,"source":"nc-onemap-37035"},"geometry":{"type":"Polygon","coordinates":[[[-81.50634,35.57773],[-81.50763,35.57642],[-81.50884,35.57703],[-81.50863,35.57783],[-81.50634,35.57773]]]}},{"type":"Feature","id":"37035:265704536837","properties":{"id":"37035:265704536837","parcelId":"265704536837","countyFips":"37035","countyName":"Catawba","state":"North Carolina","marketIds":["Charlotte"],"situsAddress":"9369 WILLIS RD","situsCity":null,"situsZip":null,"jurisdictionCode":null,"ownerName":"WILSON DEBORA WILLIS","ownerName2":null,"propertyName":null,"zoningCode":null,"zoningDistrict":null,"jurisdictionPrefix":null,"dorCode":null,"acreage":5.26,"centroid":[-81.503111,35.575808],"lastSale":{"date":null,"price":null,"qualified":null},"tax":{"marketValue":302100.0,"assessedValue":42000.0,"taxableValue":null,"taxes":null},"mailingAddress":{"line1":null,"line2":null,"city":null,"state":null,"zip":null},"incomeTract":null,"incomeBlockGroup":null,"nearestRoad":null,"flu":null,"opportunityZone":null,"oz2Eligibility":null,"source":"nc-onemap-37035"},"geometry":{"type":"Polygon","coordinates":[[[-81.50335,35.57621],[-81.50224,35.57611],[-81.50192,35.5757],[-81.50255,35.57572],[-81.50233,35.57545],[-81.50284,35.57547],[-81.50285,35.57538],[-81.50498,35.57545],[-81.5047,35.57638],[-81.50335,35.57621],[-81.50335,35.57621]]]}},{"type":"Feature","id":"37035:265701464378","properties":{"id":"37035:265701464378","parcelId":"265701464378","countyFips":"37035","countyName":"Catawba","state":"North Carolina","marketIds":["Charlotte"],"situsAddress":"NC 18 HWY","situsCity":null,"situsZip":null,"jurisdictionCode":null,"ownerName":"RUTHERFORD ANTHONY E","ownerName2":null,"propertyName":null,"zoningCode":null,"zoningDistrict":null,"jurisdictionPrefix":null,"dorCode":null,"acreage":5.23,"centroid":[-81.507181,35.582636],"lastSale":{"date":null,"price":null,"qualified":null},"tax":{"marketValue":27900.0,"assessedValue":27900.0,"taxableValue":null,"taxes":null},"mailingAddress":{"line1":null,"line2":null,"city":null,"state":null,"zip":null},"incomeTract":null,"incomeBlockGroup":null,"nearestRoad":null,"flu":null,"opportunityZone":null,"oz2Eligibility":null,"source":"nc-onemap-37035"},"geometry":{"type":"Polygon","coordinates":[[[-81.50617,35.58348],[-81.50613,35.58295],[-81.50705,35.58317],[-81.50771,35.58187],[-81.50785,35.5812],[-81.50914,35.58147],[-81.50723,35.58347],[-81.50617,35.58348],[-81.50617,35.58348]]]}},{"type":"Feature","id":"37035:265701367716","properties":{"id":"37035:265701367716","parcelId":"265701367716","countyFips":"37035","countyName":"Catawba","state":"North Carolina","marketIds":["Charlotte"],"situsAddress":"9655 ROGER HILL RD","situsCity":null,"situsZip":null,"jurisdictionCode":null,"ownerName":"ROSS MICHAEL H","ownerName2":null,"propertyName":null,"zoningCode":null,"zoningDistrict":null,"jurisdictionPrefix":null,"dorCode":null,"acreage":5.11,"centroid":[-81.510347,35.58311],"lastSale":{"date":null,"price":null,"qualified":null},"tax":{"marketValue":29400.0,"assessedValue":26400.0,"taxableValue":null,"taxes":null},"mailingAddress":{"line1":null,"line2":null,"city":null,"state":null,"zip":null},"incomeTract":null,"incomeBlockGroup":null,"nearestRoad":null,"flu":null,"opportunityZone":null,"oz2Eligibility":null,"source":"nc-onemap-37035"},"geometry":{"type":"Polygon","coordinates":[[[-81.50983,35.58343],[-81.5099,35.58131],[-81.51031,35.58117],[-81.51032,35.58299],[-81.51113,35.58472],[-81.51059,35.58504],[-81.50983,35.58343]]]}},{"type":"Feature","id":"37035:265701463867","properties":{"id":"37035:265701463867","parcelId":"265701463867","countyFips":"37035","countyName":"Catawba","state":"North Carolina","marketIds":["Charlotte"],"situsAddress":"3315 NC 18 HWY","situsCity":null,"situsZip":null,"jurisdictionCode":null,"ownerName":"MCCOLLISTER CHARLES EMMITT","ownerName2":null,"propertyName":null,"zoningCode":null,"zoningDistrict":null,"jurisdictionPrefix":null,"dorCode":null,"acreage":5.03,"centroid":[-81.507944,35.583874],"lastSale":{"date":null,"price":null,"qualified":null},"tax":{"marketValue":420600.0,"assessedValue":27100.0,"taxableValue":null,"taxes":null},"mailingAddress":{"line1":null,"line2":null,"city":null,"state":null,"zip":null},"incomeTract":null,"incomeBlockGroup":null,"nearestRoad":null,"flu":null,"opportunityZone":null,"oz2Eligibility":null,"source":"nc-onemap-37035"},"geometry":{"type":"Polygon","coordinates":[[[-81.50623,35.58446],[-81.50755,35.58406],[-81.50986,35.58249],[-81.50983,35.58343],[-81.50625,35.58493],[-81.50623,35.58446]]]}},{"type":"Feature","id":"37035:265701471275","properties":{"id":"37035:265701471275","parcelId":"265701471275","countyFips":"37035","countyName":"Catawba","state":"North Carolina","marketIds":["Charlotte"],"situsAddress":"9585 ROGER HILL RD","situsCity":null,"situsZip":null,"jurisdictionCode":null,"ownerName":"FISHER BRENTON A REVOCABLE LIVING TRUST","ownerName2":null,"propertyName":null,"zoningCode":null,"zoningDistrict":null,"jurisdictionPrefix":null,"dorCode":null,"acreage":5.01,"centroid":[-81.508644,35.584962],"lastSale":{"date":null,"price":null,"qualified":null},"tax":{"marketValue":29000.0,"assessedValue":29000.0,"taxableValue":null,"taxes":null},"mailingAddress":{"line1":null,"line2":null,"city":null,"state":null,"zip":null},"incomeTract":null,"incomeBlockGroup":null,"nearestRoad":null,"flu":null,"opportunityZone":null,"oz2Eligibility":null,"source":"nc-onemap-37035"},"geometry":{"type":"Polygon","coordinates":[[[-81.50819,35.58521],[-81.50774,35.58432],[-81.50874,35.5839],[-81.5097,35.58548],[-81.50885,35.5859],[-81.50819,35.58521]]]}}]}