{"type":"FeatureCollection","name":"47107--7_32","features":[{"type":"Feature","id":"47107:054136    01300","properties":{"id":"47107:054136    01300","parcelId":"054136    01300","countyFips":"47107","countyName":"McMinn","state":"Tennessee","marketIds":["Chattanooga"],"situsAddress":"CO RD 977-148","situsCity":null,"situsZip":null,"jurisdictionCode":null,"ownerName":"DAVIS JAMES RANDY ETUX DEBORAH KATHLEEN","ownerName2":"& JONATHAN JOE INGRAM","propertyName":null,"zoningCode":null,"zoningDistrict":null,"jurisdictionPrefix":null,"dorCode":null,"acreage":16.5017,"centroid":[-84.690261,35.247641],"lastSale":{"date":"2021-09-27","price":null,"qualified":null,"vintage":"2025"},"tax":{"marketValue":111000.0,"assessedValue":27750.0,"taxableValue":null,"taxes":null,"vintage":"2025"},"mailingAddress":{"line1":"148 CO RD 977","line2":null,"city":"CALHOUN","state":"TN","zip":"37309"},"incomeTract":null,"incomeBlockGroup":null,"nearestRoad":null,"flu":null,"opportunityZone":null,"oz2Eligibility":null,"source":"tn-oir-public-use-47107","appraiserUrl":"https://assessment.cot.tn.gov/TPAD/Parcel/GIS?gislink=054136%20%20%20%2001300"},"geometry":{"type":"Polygon","coordinates":[[[-84.691089,35.248724],[-84.69301,35.248775],[-84.693016,35.248637],[-84.691648,35.248601],[-84.692503,35.248003],[-84.692611,35.24794],[-84.693222,35.24761],[-84.692323,35.247582],[-84.69267,35.246675],[-84.689834,35.246599],[-84.689156,35.246648],[-84.688802,35.246661],[-84.688884,35.246783],[-84.688901,35.24683],[-84.68892,35.246925],[-84.688951,35.24703],[-84.688993,35.247148],[-84.689016,35.247251],[-84.689011,35.247389],[-84.688995,35.247535],[-84.688998,35.247654],[-84.689035,35.247788],[-84.689102,35.247892],[-84.689195,35.247981],[-84.689346,35.248081],[-84.689479,35.248152],[-84.690058,35.248353],[-84.690548,35.248709],[-84.691089,35.248724]]]}},{"type":"Feature","id":"47107:054136    01100","properties":{"id":"47107:054136    01100","parcelId":"054136    01100","countyFips":"47107","countyName":"McMinn","state":"Tennessee","marketIds":["Chattanooga"],"situsAddress":"CO RD 977-136","situsCity":null,"situsZip":null,"jurisdictionCode":null,"ownerName":"SIZEMORE L TREY","ownerName2":null,"propertyName":null,"zoningCode":null,"zoningDistrict":null,"jurisdictionPrefix":null,"dorCode":null,"acreage":6.5706,"centroid":[-84.688619,35.248052],"lastSale":{"date":"2013-10-21","price":6000.0,"qualified":null,"vintage":"2025"},"tax":{"marketValue":194100.0,"assessedValue":48525.0,"taxableValue":null,"taxes":null,"vintage":"2025"},"mailingAddress":{"line1":"136B CO RD 977","line2":null,"city":"CALHOUN","state":"TN","zip":"37309"},"incomeTract":null,"incomeBlockGroup":null,"nearestRoad":null,"flu":null,"opportunityZone":null,"oz2Eligibility":null,"source":"tn-oir-public-use-47107","appraiserUrl":"https://assessment.cot.tn.gov/TPAD/Parcel/GIS?gislink=054136%20%20%20%2001100"},"geometry":{"type":"Polygon","coordinates":[[[-84.688069,35.248786],[-84.687899,35.248824],[-84.687785,35.249433],[-84.689453,35.249463],[-84.688998,35.248894],[-84.688922,35.248779],[-84.688903,35.24874],[-84.688869,35.248652],[-84.688783,35.248475],[-84.688752,35.248396],[-84.688678,35.24818],[-84.688621,35.247998],[-84.688571,35.247906],[-84.688472,35.247769],[-84.688706,35.247826],[-84.688931,35.247897],[-84.689138,35.24798],[-84.689346,35.248081],[-84.689195,35.247981],[-84.689102,35.247892],[-84.689035,35.247788],[-84.688998,35.247654],[-84.688995,35.247535],[-84.689011,35.247389],[-84.689016,35.247251],[-84.688993,35.247148],[-84.688951,35.24703],[-84.68892,35.246925],[-84.688901,35.24683],[-84.688884,35.246783],[-84.688802,35.246661],[-84.688525,35.246659],[-84.688028,35.246641],[-84.688069,35.248786]]]}},{"type":"Feature","id":"47107:054136    01200","properties":{"id":"47107:054136    01200","parcelId":"054136    01200","countyFips":"47107","countyName":"McMinn","state":"Tennessee","marketIds":["Chattanooga"],"situsAddress":"CO RD 977 @ 50' R-O-W","situsCity":null,"situsZip":null,"jurisdictionCode":null,"ownerName":"LEDFORD WILLIAM K ETUX","ownerName2":"CATHERINE","propertyName":null,"zoningCode":null,"zoningDistrict":null,"jurisdictionPrefix":null,"dorCode":null,"acreage":5.9412,"centroid":[-84.689225,35.248343],"lastSale":{"date":"1996-06-24","price":12200.0,"qualified":null,"vintage":"2025"},"tax":{"marketValue":173400.0,"assessedValue":43350.0,"taxableValue":null,"taxes":null,"vintage":"2025"},"mailingAddress":{"line1":"152 CO RD 977","line2":null,"city":"CALHOUN","state":"TN","zip":"37309"},"incomeTract":null,"incomeBlockGroup":null,"nearestRoad":null,"flu":null,"opportunityZone":null,"oz2Eligibility":null,"source":"tn-oir-public-use-47107","appraiserUrl":"https://assessment.cot.tn.gov/TPAD/Parcel/GIS?gislink=054136%20%20%20%2001200"},"geometry":{"type":"Polygon","coordinates":[[[-84.689453,35.249463],[-84.69104,35.249491],[-84.691089,35.248724],[-84.690548,35.248709],[-84.690058,35.248353],[-84.689494,35.248158],[-84.689442,35.248134],[-84.689306,35.24806],[-84.689194,35.248005],[-84.689079,35.247955],[-84.688961,35.247908],[-84.688841,35.247867],[-84.688719,35.247829],[-84.688595,35.247797],[-84.688472,35.247769],[-84.688571,35.247906],[-84.688621,35.247998],[-84.688678,35.24818],[-84.688752,35.248396],[-84.688783,35.248475],[-84.688869,35.248652],[-84.688903,35.24874],[-84.688922,35.248779],[-84.688998,35.248894],[-84.689453,35.249463]]]}},{"type":"Feature","id":"47107:054137    01400","properties":{"id":"47107:054137    01400","parcelId":"054137    01400","countyFips":"47107","countyName":"McMinn","state":"Tennessee","marketIds":["Chattanooga"],"situsAddress":"CO RD 977-110","situsCity":null,"situsZip":null,"jurisdictionCode":null,"ownerName":"FIRESTONE CHAD","ownerName2":null,"propertyName":null,"zoningCode":null,"zoningDistrict":null,"jurisdictionPrefix":null,"dorCode":null,"acreage":5.1727,"centroid":[-84.686903,35.246964],"lastSale":{"date":"2021-08-24","price":null,"qualified":null,"vintage":"2025"},"tax":{"marketValue":166000.0,"assessedValue":41500.0,"taxableValue":null,"taxes":null,"vintage":"2025"},"mailingAddress":{"line1":"1516 ATHENS RD","line2":null,"city":"CALHOUN","state":"TN","zip":"37309"},"incomeTract":null,"incomeBlockGroup":null,"nearestRoad":null,"flu":null,"opportunityZone":null,"oz2Eligibility":null,"source":"tn-oir-public-use-47107","appraiserUrl":"https://assessment.cot.tn.gov/TPAD/Parcel/GIS?gislink=054137%20%20%20%2001400"},"geometry":{"type":"Polygon","coordinates":[[[-84.685936,35.246636],[-84.685883,35.247862],[-84.687628,35.247743],[-84.687733,35.24663],[-84.687499,35.246622],[-84.687302,35.24662],[-84.686341,35.246638],[-84.685936,35.246636]]]}}]}