{"type":"FeatureCollection","name":"12087-5_-9","features":[{"type":"Feature","id":"12087:00116180-000000","properties":{"id":"12087:00116180-000000","parcelId":"00116180-000000","countyFips":"12087","countyName":"Monroe","state":"Florida","marketIds":["South Florida"],"situsAddress":"VACANT LAND","situsCity":"OFFSHORE ISLANDS","situsZip":null,"jurisdictionCode":"Monroe","ownerName":"US FISH AND WILDLIFE SERVICE DEPT OF REALTY","ownerName2":null,"propertyName":null,"zoningCode":"OS","zoningDistrict":"Monroe:Offshore Island District","jurisdictionPrefix":null,"dorCode":"8000","acreage":60.0658,"centroid":[-81.567516,24.752521],"lastSale":{"date":"1998-11-01","price":1.0,"qualified":null},"tax":{"marketValue":4800.0,"assessedValue":4800.0,"taxableValue":null,"taxes":null},"mailingAddress":{"line1":"1875 Century Blvd NE, Ste 420","line2":null,"city":"Atlanta","state":"GA","zip":"30345"},"incomeTract":null,"incomeBlockGroup":null,"nearestRoad":null,"flu":{"code":"RC","label":"Residential Conservation","jurisdiction":"Monroe","source":"monroe-flum"},"opportunityZone":null,"oz2Eligibility":null,"source":"fl-monroe-apo-parcels-0","appraiserUrl":"https://qpublic.schneidercorp.com/Application.aspx?AppID=605&LayerID=9946&PageTypeID=4&PageID=7635&Q=1398259168&KeyValue=00116180-000000","gisViewerUrl":"https://mcgis4.monroecounty-fl.gov/public/rest/services/APO_GIS/MapServer/19","dataGaps":["Monroe PC is not confirmed as a Florida DOR use code."]},"geometry":{"type":"Polygon","coordinates":[[[-81.567351,24.75173],[-81.567206,24.751763],[-81.567122,24.751851],[-81.567037,24.752021],[-81.566959,24.752103],[-81.56688,24.752296],[-81.566952,24.752687],[-81.567095,24.752929],[-81.56742,24.753084],[-81.56757,24.753299],[-81.567648,24.753321],[-81.567756,24.753321],[-81.567912,24.753404],[-81.568158,24.753828],[-81.568176,24.753905],[-81.568068,24.753867],[-81.567731,24.753877],[-81.56743,24.754003],[-81.567327,24.754151],[-81.567309,24.754294],[-81.567393,24.754377],[-81.56735,24.754757],[-81.567269,24.754749],[-81.567229,24.75496],[-81.567269,24.755092],[-81.567457,24.755247],[-81.567542,24.755269],[-81.567782,24.755264],[-81.567968,24.755319],[-81.568149,24.75527],[-81.56854,24.75521],[-81.568606,24.755183],[-81.569021,24.755129],[-81.569112,24.755085],[-81.569389,24.755042],[-81.569527,24.754959],[-81.569581,24.754899],[-81.569617,24.754894],[-81.569635,24.754954],[-81.569611,24.755026],[-81.569479,24.755124],[-81.569129,24.755305],[-81.569003,24.755393],[-81.568804,24.75558],[-81.568792,24.755657],[-81.568702,24.755667],[-81.568545,24.755766],[-81.568238,24.755788],[-81.568033,24.755919],[-81.567786,24.756194],[-81.567774,24.756265],[-81.567906,24.756486],[-81.568068,24.756547],[-81.568182,24.756558],[-81.568297,24.756542],[-81.568375,24.756498],[-81.568453,24.756481],[-81.568441,24.756525],[-81.568351,24.756652],[-81.568164,24.756695],[-81.568074,24.756684],[-81.568026,24.756635],[-81.567924,24.756607],[-81.567815,24.75659],[-81.567623,24.756606],[-81.567515,24.756529],[-81.567407,24.756485],[-81.567238,24.756495],[-81.567112,24.756534],[-81.567057,24.756588],[-81.567015,24.75677],[-81.567045,24.756919],[-81.567177,24.757062],[-81.567255,24.757117],[-81.56776,24.757228],[-81.568031,24.757196],[-81.568265,24.757229],[-81.568253,24.757257],[-81.568114,24.757361],[-81.568048,24.757372],[-81.567928,24.757333],[-81.567621,24.757426],[-81.5672,24.757513],[-81.567133,24.757689],[-81.567025,24.757783],[-81.566832,24.757887],[-81.566748,24.758035],[-81.566645,24.758139],[-81.566507,24.758238],[-81.566332,24.758282],[-81.566152,24.758193],[-81.565953,24.758204],[-81.565875,24.758138],[-81.565725,24.758077],[-81.565394,24.758131],[-81.565208,24.758098],[-81.565045,24.758114],[-81.564792,24.758268],[-81.564654,24.758438],[-81.564533,24.758548],[-81.564527,24.758625],[-81.564617,24.758691],[-81.564827,24.758933],[-81.564959,24.758978],[-81.565338,24.758979],[-81.565645,24.758957],[-81.565795,24.758903],[-81.565886,24.758776],[-81.566229,24.758678],[-81.566416,24.758585],[-81.566608,24.758431],[-81.566976,24.758195],[-81.567151,24.758052],[-81.567403,24.757915],[-81.568674,24.757522],[-81.568992,24.75744],[-81.569245,24.757419],[-81.569709,24.757238],[-81.570347,24.757063],[-81.570575,24.756948],[-81.570738,24.756833],[-81.570895,24.756663],[-81.571383,24.756251],[-81.571552,24.756075],[-81.571624,24.75591],[-81.571619,24.755624],[-81.571547,24.755327],[-81.571572,24.754909],[-81.571627,24.754749],[-81.5717,24.754375],[-81.571814,24.754155],[-81.571827,24.754012],[-81.571672,24.753467],[-81.57169,24.753379],[-81.57175,24.753286],[-81.571775,24.75311],[-81.571697,24.752686],[-81.571692,24.75251],[-81.571577,24.752449],[-81.571439,24.752427],[-81.571331,24.75247],[-81.571162,24.752465],[-81.570736,24.75237],[-81.57008,24.752385],[-81.569695,24.752329],[-81.568685,24.752129],[-81.568372,24.752095],[-81.568168,24.752056],[-81.567922,24.751935],[-81.567741,24.751813],[-81.567549,24.751736],[-81.567351,24.75173]]]}},{"type":"Feature","id":"12087:00116160-000000","properties":{"id":"12087:00116160-000000","parcelId":"00116160-000000","countyFips":"12087","countyName":"Monroe","state":"Florida","marketIds":["South Florida"],"situsAddress":"SAWYER","situsCity":"OFFSHORE ISLANDS","situsZip":null,"jurisdictionCode":"Monroe","ownerName":"US FISH AND WILDLIFE SERVICE DEPT OF REALTY","ownerName2":null,"propertyName":null,"zoningCode":"OS","zoningDistrict":"Monroe:Offshore Island District","jurisdictionPrefix":null,"dorCode":"8000","acreage":29.616,"centroid":[-81.560614,24.759461],"lastSale":{"date":"1998-11-01","price":400000.0,"qualified":null},"tax":{"marketValue":10475.0,"assessedValue":10475.0,"taxableValue":null,"taxes":null},"mailingAddress":{"line1":"1875 Century Blvd NE, Ste 420","line2":null,"city":"Atlanta","state":"GA","zip":"30345"},"incomeTract":null,"incomeBlockGroup":null,"nearestRoad":null,"flu":{"code":"RC","label":"Residential Conservation","jurisdiction":"Monroe","source":"monroe-flum"},"opportunityZone":null,"oz2Eligibility":null,"source":"fl-monroe-apo-parcels-0","appraiserUrl":"https://qpublic.schneidercorp.com/Application.aspx?AppID=605&LayerID=9946&PageTypeID=4&PageID=7635&Q=1398259168&KeyValue=00116160-000000","gisViewerUrl":"https://mcgis4.monroecounty-fl.gov/public/rest/services/APO_GIS/MapServer/19","dataGaps":["Monroe PC is not confirmed as a Florida DOR use code."]},"geometry":{"type":"Polygon","coordinates":[[[-81.563837,24.757891],[-81.563722,24.757924],[-81.56365,24.757985],[-81.56365,24.758062],[-81.563704,24.758117],[-81.563728,24.758287],[-81.563661,24.75843],[-81.563565,24.758507],[-81.563475,24.758529],[-81.563342,24.758463],[-81.563162,24.758501],[-81.563005,24.758583],[-81.562373,24.758807],[-81.562265,24.758768],[-81.562139,24.758763],[-81.562042,24.758823],[-81.562036,24.758906],[-81.56206,24.758977],[-81.562162,24.759027],[-81.562228,24.759104],[-81.562228,24.759209],[-81.562204,24.759302],[-81.562059,24.759346],[-81.561795,24.759373],[-81.561554,24.75935],[-81.561566,24.759273],[-81.561524,24.75924],[-81.561452,24.759246],[-81.56147,24.759306],[-81.561518,24.759361],[-81.561518,24.759394],[-81.56144,24.759383],[-81.561356,24.759344],[-81.561302,24.759284],[-81.561236,24.759273],[-81.561151,24.759338],[-81.56076,24.759409],[-81.560592,24.759348],[-81.560417,24.759348],[-81.560165,24.759314],[-81.559558,24.759198],[-81.559455,24.759208],[-81.559263,24.759175],[-81.559239,24.759246],[-81.559209,24.759235],[-81.559179,24.759043],[-81.559125,24.758954],[-81.558963,24.758855],[-81.558765,24.758618],[-81.558687,24.758579],[-81.558242,24.758512],[-81.558098,24.758424],[-81.557971,24.758374],[-81.557731,24.758396],[-81.55755,24.758461],[-81.557369,24.758604],[-81.557219,24.758769],[-81.556995,24.759275],[-81.557049,24.759583],[-81.557006,24.75972],[-81.557024,24.759836],[-81.557222,24.759924],[-81.557564,24.760321],[-81.55784,24.760586],[-81.558111,24.760691],[-81.558231,24.760818],[-81.558682,24.760946],[-81.559091,24.761001],[-81.559493,24.76103],[-81.559879,24.760965],[-81.560258,24.760795],[-81.560757,24.760664],[-81.560998,24.760653],[-81.561287,24.7605],[-81.561955,24.760232],[-81.562533,24.760161],[-81.563165,24.759722],[-81.563304,24.759585],[-81.563376,24.759426],[-81.563533,24.759217],[-81.563732,24.759129],[-81.563997,24.759053],[-81.564159,24.758899],[-81.564232,24.758767],[-81.564161,24.758371],[-81.564179,24.758233],[-81.564161,24.758107],[-81.563879,24.757902],[-81.563837,24.757891]]]}},{"type":"Feature","id":"12087:00106340-000000","properties":{"id":"12087:00106340-000000","parcelId":"00106340-000000","countyFips":"12087","countyName":"Monroe","state":"Florida","marketIds":["South Florida"],"situsAddress":"VACANT LAND","situsCity":"OFFSHORE ISLANDS","situsZip":null,"jurisdictionCode":"Monroe","ownerName":"SCHWITALLA A M","ownerName2":null,"propertyName":null,"zoningCode":"OS","zoningDistrict":"Monroe:Offshore Island District","jurisdictionPrefix":null,"dorCode":"8000","acreage":27.299,"centroid":[-81.549668,24.75284],"lastSale":{"date":null,"price":null,"qualified":null},"tax":{"marketValue":2500.0,"assessedValue":2500.0,"taxableValue":null,"taxes":null},"mailingAddress":{"line1":"C/O JAMES SCHWITALLA ESQ","line2":"12954 SW 133rd Ct","city":"Miami","state":"FL","zip":"33186"},"incomeTract":null,"incomeBlockGroup":null,"nearestRoad":null,"flu":{"code":"RC","label":"Residential Conservation","jurisdiction":"Monroe","source":"monroe-flum"},"opportunityZone":null,"oz2Eligibility":null,"source":"fl-monroe-apo-parcels-0","appraiserUrl":"https://qpublic.schneidercorp.com/Application.aspx?AppID=605&LayerID=9946&PageTypeID=4&PageID=7635&Q=1398259168&KeyValue=00106340-000000","gisViewerUrl":"https://mcgis4.monroecounty-fl.gov/public/rest/services/APO_GIS/MapServer/19","dataGaps":["Monroe PC is not confirmed as a Florida DOR use code."]},"geometry":{"type":"Polygon","coordinates":[[[-81.550901,24.751464],[-81.550624,24.751574],[-81.550491,24.751722],[-81.550118,24.75187],[-81.549739,24.751863],[-81.54936,24.752094],[-81.549191,24.752148],[-81.549029,24.752148],[-81.548861,24.752109],[-81.548752,24.752037],[-81.548716,24.751971],[-81.548711,24.751883],[-81.548542,24.751828],[-81.548308,24.751833],[-81.548181,24.751882],[-81.547976,24.752074],[-81.547868,24.752113],[-81.547375,24.752084],[-81.547291,24.7521],[-81.547242,24.75243],[-81.547121,24.752634],[-81.547067,24.752843],[-81.547144,24.753047],[-81.5473,24.753162],[-81.547348,24.753223],[-81.547462,24.753454],[-81.547564,24.753515],[-81.547774,24.753736],[-81.547972,24.753868],[-81.548213,24.753847],[-81.548345,24.754012],[-81.548525,24.754178],[-81.548585,24.754266],[-81.548771,24.754327],[-81.548976,24.75447],[-81.549144,24.754471],[-81.549787,24.754703],[-81.5501,24.754643],[-81.550215,24.754561],[-81.550449,24.754446],[-81.550576,24.754292],[-81.550703,24.754023],[-81.550715,24.753819],[-81.550794,24.753759],[-81.550998,24.753776],[-81.551089,24.753721],[-81.551185,24.753638],[-81.55133,24.753452],[-81.551625,24.753293],[-81.551733,24.753199],[-81.551812,24.752979],[-81.55186,24.752754],[-81.551957,24.752545],[-81.552048,24.752408],[-81.551988,24.752248],[-81.551676,24.751989],[-81.551585,24.751972],[-81.551387,24.752021],[-81.551309,24.752015],[-81.551273,24.751916],[-81.551195,24.751806],[-81.551225,24.751641],[-81.551141,24.751646],[-81.551057,24.751575],[-81.551009,24.751497],[-81.550901,24.751464]]]}},{"type":"Feature","id":"12087:00106550-000000","properties":{"id":"12087:00106550-000000","parcelId":"00106550-000000","countyFips":"12087","countyName":"Monroe","state":"Florida","marketIds":["South Florida"],"situsAddress":"CRANEKEY ISLAND","situsCity":"CUDJOE KEY","situsZip":null,"jurisdictionCode":"Monroe","ownerName":"USA DEPARTMENT OF FISH AND WILDLIFE","ownerName2":null,"propertyName":null,"zoningCode":"OS","zoningDistrict":"Monroe:Offshore Island District","jurisdictionPrefix":null,"dorCode":"8000","acreage":20.9345,"centroid":[-81.513244,24.754889],"lastSale":{"date":null,"price":null,"qualified":null},"tax":{"marketValue":1600.0,"assessedValue":1600.0,"taxableValue":null,"taxes":null},"mailingAddress":{"line1":"1875 Century Blvd NE, Ste 420","line2":null,"city":"Atlanta","state":"GA","zip":"30345"},"incomeTract":null,"incomeBlockGroup":null,"nearestRoad":null,"flu":{"code":"RC","label":"Residential Conservation","jurisdiction":"Monroe","source":"monroe-flum"},"opportunityZone":null,"oz2Eligibility":null,"source":"fl-monroe-apo-parcels-0","appraiserUrl":"https://qpublic.schneidercorp.com/Application.aspx?AppID=605&LayerID=9946&PageTypeID=4&PageID=7635&Q=1398259168&KeyValue=00106550-000000","gisViewerUrl":"https://mcgis4.monroecounty-fl.gov/public/rest/services/APO_GIS/MapServer/19","dataGaps":["Monroe PC is not confirmed as a Florida DOR use code."]},"geometry":{"type":"Polygon","coordinates":[[[-81.513276,24.752502],[-81.513114,24.752512],[-81.513006,24.752545],[-81.512861,24.752633],[-81.512807,24.752699],[-81.512662,24.752792],[-81.512391,24.752874],[-81.512295,24.752956],[-81.512102,24.753061],[-81.512048,24.753187],[-81.511993,24.75339],[-81.512065,24.753638],[-81.512143,24.753776],[-81.512329,24.753798],[-81.512419,24.753848],[-81.512533,24.753958],[-81.512569,24.754036],[-81.512407,24.754118],[-81.51228,24.754112],[-81.512082,24.754189],[-81.512022,24.754271],[-81.511727,24.75432],[-81.511666,24.754446],[-81.511654,24.754545],[-81.511678,24.754633],[-81.511792,24.754854],[-81.511785,24.754947],[-81.511755,24.75498],[-81.511743,24.755096],[-81.511779,24.755272],[-81.511815,24.755327],[-81.512019,24.755438],[-81.512181,24.755482],[-81.512272,24.755449],[-81.512483,24.755246],[-81.512555,24.755241],[-81.512596,24.755406],[-81.51283,24.755736],[-81.512927,24.755748],[-81.512993,24.755803],[-81.512998,24.755924],[-81.513227,24.756062],[-81.513256,24.756277],[-81.513449,24.756299],[-81.513509,24.756255],[-81.513545,24.756178],[-81.513672,24.75614],[-81.513834,24.75614],[-81.514033,24.75608],[-81.514093,24.756102],[-81.513899,24.756454],[-81.513923,24.756531],[-81.514031,24.75657],[-81.514122,24.756631],[-81.514157,24.756708],[-81.514206,24.756741],[-81.514446,24.756752],[-81.514524,24.756742],[-81.514555,24.756692],[-81.514675,24.756687],[-81.514693,24.756764],[-81.514855,24.75683],[-81.514867,24.756742],[-81.514963,24.756726],[-81.515036,24.756622],[-81.515036,24.756484],[-81.514923,24.756038],[-81.514827,24.755768],[-81.514647,24.755394],[-81.514522,24.755179],[-81.514474,24.754903],[-81.514396,24.754667],[-81.514168,24.754419],[-81.513808,24.754093],[-81.513929,24.753939],[-81.513965,24.753835],[-81.513923,24.753758],[-81.513845,24.753725],[-81.513821,24.753636],[-81.513864,24.753218],[-81.513684,24.753031],[-81.513546,24.752838],[-81.513469,24.752662],[-81.513391,24.752551],[-81.513276,24.752502]]]}},{"type":"Feature","id":"12087:00116170-000000","properties":{"id":"12087:00116170-000000","parcelId":"00116170-000000","countyFips":"12087","countyName":"Monroe","state":"Florida","marketIds":["South Florida"],"situsAddress":"VACANT LAND","situsCity":"OFFSHORE ISLANDS","situsZip":null,"jurisdictionCode":"Monroe","ownerName":"US FISH AND WILDLIFE SERVICE DEPT OF REALTY","ownerName2":null,"propertyName":null,"zoningCode":"OS","zoningDistrict":"Monroe:Offshore Island District","jurisdictionPrefix":null,"dorCode":"8000","acreage":7.6808,"centroid":[-81.561927,24.75487],"lastSale":{"date":"1998-11-01","price":1.0,"qualified":null},"tax":{"marketValue":100.0,"assessedValue":100.0,"taxableValue":null,"taxes":null},"mailingAddress":{"line1":"1875 Century Blvd NE, Ste 420","line2":null,"city":"Atlanta","state":"GA","zip":"30345"},"incomeTract":null,"incomeBlockGroup":null,"nearestRoad":null,"flu":{"code":"C","label":"Conservation","jurisdiction":"Monroe","source":"monroe-flum"},"opportunityZone":null,"oz2Eligibility":null,"source":"fl-monroe-apo-parcels-0","appraiserUrl":"https://qpublic.schneidercorp.com/Application.aspx?AppID=605&LayerID=9946&PageTypeID=4&PageID=7635&Q=1398259168&KeyValue=00116170-000000","gisViewerUrl":"https://mcgis4.monroecounty-fl.gov/public/rest/services/APO_GIS/MapServer/19","dataGaps":["Monroe PC is not confirmed as a Florida DOR use code."]},"geometry":{"type":"Polygon","coordinates":[[[-81.5631,24.753873],[-81.562949,24.753883],[-81.562744,24.754004],[-81.562323,24.754031],[-81.562173,24.75414],[-81.562046,24.754173],[-81.56198,24.754239],[-81.562046,24.754415],[-81.562003,24.754569],[-81.561829,24.754651],[-81.561697,24.754629],[-81.561624,24.754662],[-81.561582,24.754766],[-81.561347,24.754793],[-81.561239,24.754843],[-81.561149,24.754936],[-81.561034,24.754991],[-81.560938,24.755002],[-81.560866,24.754947],[-81.560752,24.75493],[-81.560673,24.754974],[-81.560661,24.75504],[-81.560679,24.755117],[-81.560727,24.755199],[-81.560709,24.75532],[-81.560846,24.755755],[-81.560888,24.756003],[-81.560978,24.756014],[-81.561309,24.755861],[-81.561351,24.75579],[-81.561429,24.755762],[-81.561748,24.755741],[-81.561827,24.755592],[-81.562032,24.755505],[-81.562062,24.75545],[-81.562086,24.755296],[-81.562134,24.755202],[-81.562465,24.755121],[-81.562803,24.754923],[-81.56326,24.754831],[-81.563459,24.754743],[-81.563664,24.754457],[-81.563664,24.754364],[-81.56355,24.754292],[-81.563478,24.754094],[-81.563394,24.754005],[-81.563292,24.753945],[-81.5631,24.753873]]]}}]}