{"type":"FeatureCollection","name":"12087-7_-9","features":[{"type":"Feature","id":"12087:00105660-000000","properties":{"id":"12087:00105660-000000","parcelId":"00105660-000000","countyFips":"12087","countyName":"Monroe","state":"Florida","marketIds":["South Florida"],"situsAddress":"BAMBOO KEY ISLAND","situsCity":"MARATHON","situsZip":null,"jurisdictionCode":"Monroe","ownerName":"BEYER THERESA R","ownerName2":null,"propertyName":null,"zoningCode":"INC","zoningDistrict":"Monroe:Incorporated","jurisdictionPrefix":null,"dorCode":"9900","acreage":6.9068,"centroid":[-81.003012,24.755089],"lastSale":{"date":"2018-12-01","price":100.0,"qualified":null},"tax":{"marketValue":810.0,"assessedValue":810.0,"taxableValue":810.0,"taxes":null},"mailingAddress":{"line1":"50 Summer St","line2":null,"city":"New Rochelle","state":"NH","zip":"01930"},"incomeTract":null,"incomeBlockGroup":null,"nearestRoad":null,"flu":{"code":"INC","label":"Incorporated","jurisdiction":"Monroe","source":"monroe-flum"},"opportunityZone":null,"oz2Eligibility":null,"source":"fl-monroe-apo-parcels-0","appraiserUrl":"https://qpublic.schneidercorp.com/Application.aspx?AppID=605&LayerID=9946&PageTypeID=4&PageID=7635&Q=1398259168&KeyValue=00105660-000000","gisViewerUrl":"https://mcgis4.monroecounty-fl.gov/public/rest/services/APO_GIS/MapServer/19","dataGaps":["Monroe PC is not confirmed as a Florida DOR use code."]},"geometry":{"type":"Polygon","coordinates":[[[-81.002382,24.754256],[-81.002301,24.754303],[-81.002121,24.754458],[-81.002055,24.754538],[-81.002036,24.754666],[-81.002066,24.755124],[-81.002165,24.755406],[-81.002239,24.755491],[-81.0025,24.755736],[-81.002637,24.755827],[-81.002931,24.755918],[-81.003337,24.755928],[-81.003477,24.755904],[-81.003731,24.755793],[-81.003823,24.755696],[-81.00407,24.755336],[-81.004084,24.755127],[-81.004055,24.754996],[-81.004014,24.754939],[-81.00379,24.754811],[-81.003609,24.754676],[-81.003407,24.754606],[-81.002861,24.754337],[-81.002589,24.754259],[-81.002382,24.754256]]]}}]}