{"type":"FeatureCollection","name":"28149--33_22","features":[{"type":"Feature","id":"28149:75E030004000300","properties":{"id":"28149:75E030004000300","parcelId":"75E030004000300","countyFips":"28149","countyName":"Warren","state":"Mississippi","marketIds":["Jackson MS"],"situsAddress":"DIRT RD","situsCity":null,"situsZip":null,"jurisdictionCode":null,"ownerName":"CONWAY & CRAIG LLC","ownerName2":null,"propertyName":null,"zoningCode":null,"zoningDistrict":null,"jurisdictionPrefix":null,"dorCode":null,"acreage":146.7338,"centroid":[-91.022674,32.566934],"lastSale":{"date":"2017-03-06","price":null,"qualified":null},"tax":{"marketValue":33720.0,"assessedValue":null,"taxableValue":null,"taxes":null},"mailingAddress":{"line1":"39 GREYSTONE DRIVE","line2":null,"city":"MADISON","state":"MS","zip":"39110"},"incomeTract":null,"incomeBlockGroup":null,"nearestRoad":null,"flu":"Agricultural/Vacant","opportunityZone":null,"oz2Eligibility":null,"source":"ms-warren-cmpdd-parcels","appraiserUrl":"https://cmpdd.org/maps/"},"geometry":{"type":"Polygon","coordinates":[[[-91.016247,32.565514],[-91.019513,32.56712],[-91.020806,32.567922],[-91.021568,32.568663],[-91.022923,32.568984],[-91.030426,32.573083],[-91.029835,32.573639],[-91.031456,32.57462],[-91.033234,32.573222],[-91.033319,32.570692],[-91.024816,32.567153],[-91.024883,32.565119],[-91.023006,32.565182],[-91.023032,32.564618],[-91.022667,32.564535],[-91.02156,32.564696],[-91.020887,32.56466],[-91.020448,32.565206],[-91.019129,32.564642],[-91.019005,32.56429],[-91.018536,32.564404],[-91.017873,32.56409],[-91.017757,32.563806],[-91.017626,32.563746],[-91.016304,32.563749],[-91.016247,32.565514]]]}},{"type":"Feature","id":"28149:175C030012000100","properties":{"id":"28149:175C030012000100","parcelId":"175C030012000100","countyFips":"28149","countyName":"Warren","state":"Mississippi","marketIds":["Jackson MS"],"situsAddress":"21533 HWY 465","situsCity":null,"situsZip":null,"jurisdictionCode":null,"ownerName":"PARKER MELBA W TRUST","ownerName2":null,"propertyName":null,"zoningCode":null,"zoningDistrict":null,"jurisdictionPrefix":null,"dorCode":null,"acreage":143.8211,"centroid":[-91.073247,32.555211],"lastSale":{"date":"2000-08-01","price":null,"qualified":null},"tax":{"marketValue":46790.0,"assessedValue":null,"taxableValue":null,"taxes":null},"mailingAddress":{"line1":"MELBA PARKER & LOU PARKER CO TRUSTE 21533 HWY 465","line2":null,"city":"VICKSBURG","state":"MS","zip":"39183"},"incomeTract":null,"incomeBlockGroup":null,"nearestRoad":null,"flu":"Agricultural/Vacant","opportunityZone":null,"oz2Eligibility":null,"source":"ms-warren-cmpdd-parcels","appraiserUrl":"https://cmpdd.org/maps/"},"geometry":{"type":"Polygon","coordinates":[[[-91.075422,32.547055],[-91.069452,32.551906],[-91.070612,32.554032],[-91.070866,32.554563],[-91.071193,32.555376],[-91.071454,32.556206],[-91.071649,32.557049],[-91.071776,32.557901],[-91.071836,32.558759],[-91.074953,32.556601],[-91.074877,32.556372],[-91.075126,32.556314],[-91.075335,32.556229],[-91.075358,32.556301],[-91.078796,32.553507],[-91.075422,32.547055]]]}},{"type":"Feature","id":"28149:75D030005001800","properties":{"id":"28149:75D030005001800","parcelId":"75D030005001800","countyFips":"28149","countyName":"Warren","state":"Mississippi","marketIds":["Jackson MS"],"situsAddress":"HWY 465 LEVEE","situsCity":null,"situsZip":null,"jurisdictionCode":null,"ownerName":"BONELLI MARLA M","ownerName2":null,"propertyName":null,"zoningCode":null,"zoningDistrict":null,"jurisdictionPrefix":null,"dorCode":null,"acreage":124.2772,"centroid":[-91.038893,32.567526],"lastSale":{"date":"2007-05-09","price":null,"qualified":null},"tax":{"marketValue":63460.0,"assessedValue":null,"taxableValue":null,"taxes":null},"mailingAddress":{"line1":"403 SILVER CREEK DR","line2":null,"city":"VICKSBURG","state":"MS","zip":"39180"},"incomeTract":null,"incomeBlockGroup":null,"nearestRoad":null,"flu":"Agricultural/Vacant","opportunityZone":null,"oz2Eligibility":null,"source":"ms-warren-cmpdd-parcels","appraiserUrl":"https://cmpdd.org/maps/"},"geometry":{"type":"Polygon","coordinates":[[[-91.033319,32.570692],[-91.034593,32.571441],[-91.037015,32.569093],[-91.03724,32.569226],[-91.039089,32.567432],[-91.040187,32.56696],[-91.043098,32.566834],[-91.043102,32.566903],[-91.04483,32.566829],[-91.041798,32.563665],[-91.033553,32.563712],[-91.033319,32.570692]]]}},{"type":"Feature","id":"28149:75C050036000400","properties":{"id":"28149:75C050036000400","parcelId":"75C050036000400","countyFips":"28149","countyName":"Warren","state":"Mississippi","marketIds":["Jackson MS"],"situsAddress":"EAGLE LAKE SHORE RD","situsCity":null,"situsZip":null,"jurisdictionCode":null,"ownerName":"PURVIS GRANGE FOUNDATION INC","ownerName2":null,"propertyName":null,"zoningCode":null,"zoningDistrict":null,"jurisdictionPrefix":null,"dorCode":null,"acreage":122.3659,"centroid":[-91.071606,32.503587],"lastSale":{"date":"2004-12-20","price":null,"qualified":null},"tax":{"marketValue":154080.0,"assessedValue":null,"taxableValue":null,"taxes":null},"mailingAddress":{"line1":"6791 EAGLE LAKE SHORE RD","line2":null,"city":"VICKSBURG","state":"MS","zip":"39183"},"incomeTract":null,"incomeBlockGroup":null,"nearestRoad":null,"flu":"Agricultural/Vacant","opportunityZone":null,"oz2Eligibility":null,"source":"ms-warren-cmpdd-parcels","appraiserUrl":"https://cmpdd.org/maps/"},"geometry":{"type":"MultiPolygon","coordinates":[[[[-91.074183,32.505176],[-91.074317,32.504612],[-91.07365,32.50489],[-91.073489,32.504754],[-91.073571,32.504412],[-91.074363,32.504419],[-91.075797,32.498415],[-91.067886,32.498336],[-91.067875,32.503583],[-91.068185,32.503936],[-91.068464,32.504204],[-91.069226,32.504758],[-91.069876,32.505137],[-91.074183,32.505176]],[[-91.073976,32.505164],[-91.073654,32.505161],[-91.073639,32.505048],[-91.074026,32.504894],[-91.073976,32.505164]]],[[[-91.067872,32.505119],[-91.069564,32.505134],[-91.069126,32.504867],[-91.068453,32.504382],[-91.068148,32.504117],[-91.067874,32.503812],[-91.067872,32.505119]]]]}},{"type":"Feature","id":"28149:75C050036000100","properties":{"id":"28149:75C050036000100","parcelId":"75C050036000100","countyFips":"28149","countyName":"Warren","state":"Mississippi","marketIds":["Jackson MS"],"situsAddress":"DIRT RD","situsCity":null,"situsZip":null,"jurisdictionCode":null,"ownerName":"R H HUNTING PROPERTIES LLC","ownerName2":null,"propertyName":null,"zoningCode":null,"zoningDistrict":null,"jurisdictionPrefix":null,"dorCode":null,"acreage":117.3427,"centroid":[-91.081817,32.501662],"lastSale":{"date":"2022-07-13","price":null,"qualified":null},"tax":{"marketValue":21090.0,"assessedValue":null,"taxableValue":null,"taxes":null},"mailingAddress":{"line1":"2620 MISSISSIPPI 468","line2":null,"city":"PEARL","state":"MS","zip":"39208"},"incomeTract":null,"incomeBlockGroup":null,"nearestRoad":null,"flu":"Agricultural/Vacant","opportunityZone":null,"oz2Eligibility":null,"source":"ms-warren-cmpdd-parcels","appraiserUrl":"https://cmpdd.org/maps/"},"geometry":{"type":"Polygon","coordinates":[[[-91.077807,32.505208],[-91.084967,32.505272],[-91.085027,32.498112],[-91.079468,32.498056],[-91.077807,32.505208]]]}},{"type":"Feature","id":"28149:75E040021000800","properties":{"id":"28149:75E040021000800","parcelId":"75E040021000800","countyFips":"28149","countyName":"Warren","state":"Mississippi","marketIds":["Jackson MS"],"situsAddress":"HWY 465","situsCity":null,"situsZip":null,"jurisdictionCode":null,"ownerName":"WADE JANE S AND WM ADEN JR ETAL AND","ownerName2":null,"propertyName":null,"zoningCode":null,"zoningDistrict":null,"jurisdictionPrefix":null,"dorCode":null,"acreage":115.8044,"centroid":[-91.018954,32.529437],"lastSale":{"date":"2017-05-16","price":null,"qualified":null},"tax":{"marketValue":146730.0,"assessedValue":null,"taxableValue":null,"taxes":null},"mailingAddress":{"line1":"MERRITT ADEN ETAL P OBOX 156","line2":null,"city":"VALLEY PARK","state":"MS","zip":"39177"},"incomeTract":null,"incomeBlockGroup":null,"nearestRoad":null,"flu":"Agricultural/Vacant","opportunityZone":null,"oz2Eligibility":null,"source":"ms-warren-cmpdd-parcels","appraiserUrl":"https://cmpdd.org/maps/"},"geometry":{"type":"Polygon","coordinates":[[[-91.016232,32.534727],[-91.020923,32.53472],[-91.023706,32.529362],[-91.021788,32.528483],[-91.017188,32.526514],[-91.016707,32.526281],[-91.016137,32.525969],[-91.016232,32.534727]],[[-91.017913,32.530888],[-91.018297,32.530411],[-91.018899,32.530681],[-91.018515,32.531158],[-91.017913,32.530888]]]}},{"type":"Feature","id":"28149:75E030004000400","properties":{"id":"28149:75E030004000400","parcelId":"75E030004000400","countyFips":"28149","countyName":"Warren","state":"Mississippi","marketIds":["Jackson MS"],"situsAddress":"DIRT RD","situsCity":null,"situsZip":null,"jurisdictionCode":null,"ownerName":"BONELLI MARLA M","ownerName2":null,"propertyName":null,"zoningCode":null,"zoningDistrict":null,"jurisdictionPrefix":null,"dorCode":null,"acreage":115.4001,"centroid":[-91.0283,32.566081],"lastSale":{"date":"2007-05-09","price":null,"qualified":null},"tax":{"marketValue":52110.0,"assessedValue":null,"taxableValue":null,"taxes":null},"mailingAddress":{"line1":"403 SILVER CREEK DR","line2":null,"city":"VICKSBURG","state":"MS","zip":"39180"},"incomeTract":null,"incomeBlockGroup":null,"nearestRoad":null,"flu":"Agricultural/Vacant","opportunityZone":null,"oz2Eligibility":null,"source":"ms-warren-cmpdd-parcels","appraiserUrl":"https://cmpdd.org/maps/"},"geometry":{"type":"Polygon","coordinates":[[[-91.024883,32.565119],[-91.024816,32.567153],[-91.033319,32.570692],[-91.033553,32.563712],[-91.024928,32.563731],[-91.024883,32.565119]]]}},{"type":"Feature","id":"28149:75E040015000100","properties":{"id":"28149:75E040015000100","parcelId":"75E040015000100","countyFips":"28149","countyName":"Warren","state":"Mississippi","marketIds":["Jackson MS"],"situsAddress":"DIRT RD","situsCity":null,"situsZip":null,"jurisdictionCode":null,"ownerName":"CONWAY & CRAIG LLC ETAL","ownerName2":null,"propertyName":null,"zoningCode":null,"zoningDistrict":null,"jurisdictionPrefix":null,"dorCode":null,"acreage":113.9134,"centroid":[-91.008911,32.544748],"lastSale":{"date":"2017-03-06","price":null,"qualified":null},"tax":{"marketValue":21710.0,"assessedValue":null,"taxableValue":null,"taxes":null},"mailingAddress":{"line1":"39 GREYSTONE DRIVE","line2":null,"city":"MADISON","state":"MS","zip":"39110"},"incomeTract":null,"incomeBlockGroup":null,"nearestRoad":null,"flu":"Agricultural/Vacant","opportunityZone":null,"oz2Eligibility":null,"source":"ms-warren-cmpdd-parcels","appraiserUrl":"https://cmpdd.org/maps/"},"geometry":{"type":"Polygon","coordinates":[[[-91.006682,32.549151],[-91.012549,32.549137],[-91.01223,32.546893],[-91.012034,32.546283],[-91.012129,32.54563],[-91.011722,32.545317],[-91.011007,32.544585],[-91.010696,32.543901],[-91.011713,32.543108],[-91.009162,32.541784],[-91.009092,32.541997],[-91.006333,32.540172],[-91.006064,32.54025],[-91.005978,32.543176],[-91.005746,32.543292],[-91.005676,32.546527],[-91.005731,32.546933],[-91.005854,32.547328],[-91.006682,32.549151]]]}},{"type":"Feature","id":"28149:75C050025000500","properties":{"id":"28149:75C050025000500","parcelId":"75C050025000500","countyFips":"28149","countyName":"Warren","state":"Mississippi","marketIds":["Jackson MS"],"situsAddress":"GRAVEL RD","situsCity":null,"situsZip":null,"jurisdictionCode":null,"ownerName":"BROWN MANNIE","ownerName2":null,"propertyName":null,"zoningCode":null,"zoningDistrict":null,"jurisdictionPrefix":null,"dorCode":null,"acreage":100.1758,"centroid":[-91.070546,32.51338],"lastSale":{"date":"1991-10-29","price":null,"qualified":null},"tax":{"marketValue":25540.0,"assessedValue":null,"taxableValue":null,"taxes":null},"mailingAddress":{"line1":"108 LAKE OF PINES DR","line2":null,"city":"JACKSON","state":"MS","zip":"39206"},"incomeTract":null,"incomeBlockGroup":null,"nearestRoad":null,"flu":"Agricultural/Vacant","opportunityZone":null,"oz2Eligibility":null,"source":"ms-warren-cmpdd-parcels","appraiserUrl":"https://cmpdd.org/maps/"},"geometry":{"type":"Polygon","coordinates":[[[-91.07048,32.519656],[-91.070861,32.519657],[-91.068413,32.51681],[-91.068782,32.513831],[-91.071442,32.514389],[-91.073011,32.507759],[-91.073329,32.507812],[-91.07349,32.507142],[-91.067861,32.507096],[-91.067794,32.519646],[-91.07048,32.519656]]]}},{"type":"Feature","id":"28149:75E030009000100","properties":{"id":"28149:75E030009000100","parcelId":"75E030009000100","countyFips":"28149","countyName":"Warren","state":"Mississippi","marketIds":["Jackson MS"],"situsAddress":"DIRT RD","situsCity":null,"situsZip":null,"jurisdictionCode":null,"ownerName":"SIMMONS ROY E","ownerName2":null,"propertyName":null,"zoningCode":null,"zoningDistrict":null,"jurisdictionPrefix":null,"dorCode":null,"acreage":85.8261,"centroid":[-91.032072,32.555023],"lastSale":{"date":"2018-06-18","price":null,"qualified":null},"tax":{"marketValue":82570.0,"assessedValue":null,"taxableValue":null,"taxes":null},"mailingAddress":{"line1":"16785 HWY 465","line2":null,"city":"VICKSBURG","state":"MS","zip":"39183"},"incomeTract":null,"incomeBlockGroup":null,"nearestRoad":null,"flu":"Agricultural/Vacant","opportunityZone":null,"oz2Eligibility":null,"source":"ms-warren-cmpdd-parcels","appraiserUrl":"https://cmpdd.org/maps/"},"geometry":{"type":"Polygon","coordinates":[[[-91.030616,32.549091],[-91.03072,32.560967],[-91.033529,32.560952],[-91.033425,32.549084],[-91.030616,32.549091]]]}},{"type":"Feature","id":"28149:75B050027000200","properties":{"id":"28149:75B050027000200","parcelId":"75B050027000200","countyFips":"28149","countyName":"Warren","state":"Mississippi","marketIds":["Jackson MS"],"situsAddress":"DIRT RD","situsCity":null,"situsZip":null,"jurisdictionCode":null,"ownerName":"RSD TRIO PROPERTIES LLC","ownerName2":null,"propertyName":null,"zoningCode":null,"zoningDistrict":null,"jurisdictionPrefix":null,"dorCode":null,"acreage":85.2975,"centroid":[-91.106319,32.509659],"lastSale":{"date":"2020-04-28","price":null,"qualified":null},"tax":{"marketValue":24810.0,"assessedValue":null,"taxableValue":null,"taxes":null},"mailingAddress":{"line1":"152 GREEN GLADES","line2":null,"city":"RIDGELAND","state":"MS","zip":"39157"},"incomeTract":null,"incomeBlockGroup":null,"nearestRoad":null,"flu":"Agricultural/Vacant","opportunityZone":null,"oz2Eligibility":null,"source":"ms-warren-cmpdd-parcels","appraiserUrl":"https://cmpdd.org/maps/"},"geometry":{"type":"Polygon","coordinates":[[[-91.102311,32.505426],[-91.1023,32.512864],[-91.103924,32.512667],[-91.10459,32.512548],[-91.105305,32.512564],[-91.105713,32.512619],[-91.105913,32.512195],[-91.106278,32.511686],[-91.106298,32.511624],[-91.106309,32.51143],[-91.106233,32.510839],[-91.106376,32.510423],[-91.106493,32.510189],[-91.106537,32.510134],[-91.1066,32.510094],[-91.106812,32.510031],[-91.106921,32.509947],[-91.107035,32.509772],[-91.107079,32.509644],[-91.107091,32.509445],[-91.107024,32.508772],[-91.107015,32.508495],[-91.107063,32.508389],[-91.107171,32.508263],[-91.107216,32.508165],[-91.107169,32.507785],[-91.107154,32.50723],[-91.107173,32.507074],[-91.107218,32.506922],[-91.107333,32.506708],[-91.108233,32.505478],[-91.102311,32.505426]]]}},{"type":"Feature","id":"28149:75D050030000100","properties":{"id":"28149:75D050030000100","parcelId":"75D050030000100","countyFips":"28149","countyName":"Warren","state":"Mississippi","marketIds":["Jackson MS"],"situsAddress":"DIRT RD","situsCity":null,"situsZip":null,"jurisdictionCode":null,"ownerName":"BROWN MANNIE","ownerName2":null,"propertyName":null,"zoningCode":null,"zoningDistrict":null,"jurisdictionPrefix":null,"dorCode":null,"acreage":84.874,"centroid":[-91.065393,32.518524],"lastSale":{"date":"1991-10-29","price":null,"qualified":null},"tax":{"marketValue":21510.0,"assessedValue":null,"taxableValue":null,"taxes":null},"mailingAddress":{"line1":"108 LAKE OF PINES DR","line2":null,"city":"JACKSON","state":"MS","zip":"39206"},"incomeTract":null,"incomeBlockGroup":null,"nearestRoad":null,"flu":"Agricultural/Vacant","opportunityZone":null,"oz2Eligibility":null,"source":"ms-warren-cmpdd-parcels","appraiserUrl":"https://cmpdd.org/maps/"},"geometry":{"type":"Polygon","coordinates":[[[-91.061963,32.507048],[-91.062072,32.507141],[-91.062364,32.507445],[-91.06284,32.508087],[-91.063322,32.508832],[-91.064002,32.509968],[-91.067175,32.515701],[-91.067382,32.516107],[-91.067665,32.516791],[-91.067659,32.516927],[-91.067523,32.517124],[-91.067217,32.517444],[-91.066867,32.517731],[-91.066538,32.51793],[-91.06592,32.518174],[-91.06568,32.518291],[-91.065323,32.518528],[-91.065285,32.518581],[-91.065265,32.518673],[-91.065261,32.518976],[-91.065302,32.519159],[-91.065365,32.519272],[-91.065453,32.519371],[-91.066294,32.520036],[-91.066604,32.520255],[-91.067379,32.520738],[-91.067652,32.520952],[-91.067786,32.52109],[-91.067861,32.507096],[-91.061963,32.507048]]]}},{"type":"Feature","id":"28149:75C030012000400","properties":{"id":"28149:75C030012000400","parcelId":"75C030012000400","countyFips":"28149","countyName":"Warren","state":"Mississippi","marketIds":["Jackson MS"],"situsAddress":"LEVEE RD","situsCity":null,"situsZip":null,"jurisdictionCode":null,"ownerName":"LEVEE BOARD","ownerName2":null,"propertyName":null,"zoningCode":null,"zoningDistrict":null,"jurisdictionPrefix":null,"dorCode":null,"acreage":73.3092,"centroid":[-91.070666,32.554396],"lastSale":{"date":"1944-09-20","price":null,"qualified":null},"tax":{"marketValue":0.0,"assessedValue":null,"taxableValue":null,"taxes":null},"mailingAddress":{"line1":null,"line2":null,"city":"VICKSBURG","state":"MS","zip":"39183"},"incomeTract":null,"incomeBlockGroup":null,"nearestRoad":null,"flu":"Agricultural/Vacant","opportunityZone":null,"oz2Eligibility":null,"source":"ms-warren-cmpdd-parcels","appraiserUrl":"https://cmpdd.org/maps/"},"geometry":{"type":"Polygon","coordinates":[[[-91.073656,32.54545],[-91.067716,32.550277],[-91.067715,32.55077],[-91.068009,32.551207],[-91.068277,32.551655],[-91.068519,32.552113],[-91.068735,32.552581],[-91.06998,32.555699],[-91.070219,32.556391],[-91.070341,32.556861],[-91.070433,32.557336],[-91.070515,32.558053],[-91.070528,32.558772],[-91.070498,32.55925],[-91.070439,32.559726],[-91.071836,32.558759],[-91.071804,32.558187],[-91.071741,32.557617],[-91.071591,32.556767],[-91.071454,32.556206],[-91.071287,32.555651],[-91.071091,32.555103],[-91.070866,32.554563],[-91.070612,32.554032],[-91.069452,32.551906],[-91.075422,32.547055],[-91.075234,32.546696],[-91.073656,32.54545]]]}},{"type":"Feature","id":"28149:75C050026000300","properties":{"id":"28149:75C050026000300","parcelId":"75C050026000300","countyFips":"28149","countyName":"Warren","state":"Mississippi","marketIds":["Jackson MS"],"situsAddress":"GRAVEL RD","situsCity":null,"situsZip":null,"jurisdictionCode":null,"ownerName":"CAMERON PHILLIP ETAL","ownerName2":null,"propertyName":null,"zoningCode":null,"zoningDistrict":null,"jurisdictionPrefix":null,"dorCode":null,"acreage":71.4929,"centroid":[-91.088583,32.508645],"lastSale":{"date":"1999-06-25","price":null,"qualified":null},"tax":{"marketValue":26900.0,"assessedValue":null,"taxableValue":null,"taxes":null},"mailingAddress":{"line1":"C/O MINERVIA ALLEN 410 SPOUTS SPRINGS RD","line2":null,"city":"VICKSBURG","state":"MS","zip":"39183"},"incomeTract":null,"incomeBlockGroup":null,"nearestRoad":null,"flu":"Agricultural/Vacant","opportunityZone":null,"oz2Eligibility":null,"source":"ms-warren-cmpdd-parcels","appraiserUrl":"https://cmpdd.org/maps/"},"geometry":{"type":"Polygon","coordinates":[[[-91.084984,32.50875],[-91.085141,32.508748],[-91.085644,32.50878],[-91.086684,32.50874],[-91.087347,32.508835],[-91.087902,32.508869],[-91.088329,32.508947],[-91.088749,32.508997],[-91.08928,32.509126],[-91.089801,32.509181],[-91.090649,32.509372],[-91.091467,32.509703],[-91.091816,32.509795],[-91.092309,32.509867],[-91.092262,32.505337],[-91.084967,32.505272],[-91.084984,32.50875]]]}},{"type":"Feature","id":"28149:475E040021000500","properties":{"id":"28149:475E040021000500","parcelId":"475E040021000500","countyFips":"28149","countyName":"Warren","state":"Mississippi","marketIds":["Jackson MS"],"situsAddress":"18282 HWY 465","situsCity":null,"situsZip":null,"jurisdictionCode":null,"ownerName":"HUBERT WILL JAMES","ownerName2":null,"propertyName":null,"zoningCode":null,"zoningDistrict":null,"jurisdictionPrefix":null,"dorCode":null,"acreage":56.8609,"centroid":[-91.025931,32.531603],"lastSale":{"date":"2008-05-08","price":null,"qualified":null},"tax":{"marketValue":148320.0,"assessedValue":null,"taxableValue":null,"taxes":null},"mailingAddress":{"line1":"18282 HWY 465","line2":null,"city":"VICKSBURG","state":"MS","zip":"39183"},"incomeTract":null,"incomeBlockGroup":null,"nearestRoad":null,"flu":"Agricultural/Vacant","opportunityZone":null,"oz2Eligibility":null,"source":"ms-warren-cmpdd-parcels","appraiserUrl":"https://cmpdd.org/maps/"},"geometry":{"type":"Polygon","coordinates":[[[-91.02163,32.534718],[-91.02773,32.534709],[-91.027736,32.531383],[-91.027924,32.531445],[-91.027924,32.530962],[-91.025397,32.530102],[-91.024831,32.529876],[-91.024275,32.529626],[-91.02163,32.534718]]]}},{"type":"Feature","id":"28149:75E040015000101","properties":{"id":"28149:75E040015000101","parcelId":"75E040015000101","countyFips":"28149","countyName":"Warren","state":"Mississippi","marketIds":["Jackson MS"],"situsAddress":"DIRT RD","situsCity":null,"situsZip":null,"jurisdictionCode":null,"ownerName":"CONWAY & CRAIG LLC","ownerName2":null,"propertyName":null,"zoningCode":null,"zoningDistrict":null,"jurisdictionPrefix":null,"dorCode":null,"acreage":50.6187,"centroid":[-91.012939,32.545653],"lastSale":{"date":"2012-07-26","price":null,"qualified":null},"tax":{"marketValue":69150.0,"assessedValue":null,"taxableValue":null,"taxes":null},"mailingAddress":{"line1":"39 GREYSTONE DRIVE","line2":null,"city":"MADISON","state":"MS","zip":"39110"},"incomeTract":null,"incomeBlockGroup":null,"nearestRoad":null,"flu":"Agricultural/Vacant","opportunityZone":null,"oz2Eligibility":null,"source":"ms-warren-cmpdd-parcels","appraiserUrl":"https://cmpdd.org/maps/"},"geometry":{"type":"Polygon","coordinates":[[[-91.012549,32.549137],[-91.016225,32.549128],[-91.016227,32.545823],[-91.01506,32.545243],[-91.014534,32.545144],[-91.012081,32.5433],[-91.011713,32.543108],[-91.010696,32.543901],[-91.011007,32.544585],[-91.011722,32.545317],[-91.012129,32.54563],[-91.012034,32.546283],[-91.01223,32.546893],[-91.012549,32.549137]]]}},{"type":"Feature","id":"28149:75D030006000800","properties":{"id":"28149:75D030006000800","parcelId":"75D030006000800","countyFips":"28149","countyName":"Warren","state":"Mississippi","marketIds":["Jackson MS"],"situsAddress":"LEVEE RD","situsCity":null,"situsZip":null,"jurisdictionCode":null,"ownerName":"LEVEE BOARD","ownerName2":null,"propertyName":null,"zoningCode":null,"zoningDistrict":null,"jurisdictionPrefix":null,"dorCode":null,"acreage":50.5537,"centroid":[-91.055804,32.565669],"lastSale":{"date":"2008-07-18","price":null,"qualified":null},"tax":{"marketValue":0.0,"assessedValue":null,"taxableValue":null,"taxes":null},"mailingAddress":{"line1":null,"line2":null,"city":null,"state":null,"zip":"00000"},"incomeTract":null,"incomeBlockGroup":null,"nearestRoad":null,"flu":"Agricultural/Vacant","opportunityZone":null,"oz2Eligibility":null,"source":"ms-warren-cmpdd-parcels","appraiserUrl":"https://cmpdd.org/maps/"},"geometry":{"type":"Polygon","coordinates":[[[-91.057255,32.563597],[-91.056851,32.563759],[-91.054217,32.564823],[-91.054023,32.564924],[-91.053875,32.565039],[-91.053652,32.565266],[-91.052017,32.567047],[-91.052772,32.567174],[-91.052942,32.567247],[-91.05309,32.567377],[-91.053173,32.567484],[-91.053244,32.567633],[-91.053381,32.568499],[-91.059094,32.564961],[-91.062605,32.564122],[-91.062952,32.563848],[-91.063521,32.56358],[-91.057255,32.563597]]]}},{"type":"Feature","id":"28149:75D030005001700","properties":{"id":"28149:75D030005001700","parcelId":"75D030005001700","countyFips":"28149","countyName":"Warren","state":"Mississippi","marketIds":["Jackson MS"],"situsAddress":"LEVEE RD","situsCity":null,"situsZip":null,"jurisdictionCode":null,"ownerName":"SIMMONS ROY E","ownerName2":null,"propertyName":null,"zoningCode":null,"zoningDistrict":null,"jurisdictionPrefix":null,"dorCode":null,"acreage":50.2168,"centroid":[-91.046036,32.565747],"lastSale":{"date":"2018-06-18","price":null,"qualified":null},"tax":{"marketValue":24170.0,"assessedValue":null,"taxableValue":null,"taxes":null},"mailingAddress":{"line1":"16785 HWY 465","line2":null,"city":"VICKSBURG","state":"MS","zip":"39183"},"incomeTract":null,"incomeBlockGroup":null,"nearestRoad":null,"flu":"Agricultural/Vacant","opportunityZone":null,"oz2Eligibility":null,"source":"ms-warren-cmpdd-parcels","appraiserUrl":"https://cmpdd.org/maps/"},"geometry":{"type":"Polygon","coordinates":[[[-91.041798,32.563665],[-91.044704,32.566697],[-91.044992,32.566685],[-91.045033,32.566588],[-91.04502,32.566367],[-91.045721,32.566337],[-91.050494,32.566026],[-91.050526,32.563614],[-91.041798,32.563665]]]}},{"type":"Feature","id":"28149:75D030008000300","properties":{"id":"28149:75D030008000300","parcelId":"75D030008000300","countyFips":"28149","countyName":"Warren","state":"Mississippi","marketIds":["Jackson MS"],"situsAddress":"DIRT RD","situsCity":null,"situsZip":null,"jurisdictionCode":null,"ownerName":"BONELLI JOSEPH M SR EST","ownerName2":null,"propertyName":null,"zoningCode":null,"zoningDistrict":null,"jurisdictionPrefix":null,"dorCode":null,"acreage":49.3019,"centroid":[-91.036316,32.562109],"lastSale":{"date":"2007-05-09","price":null,"qualified":null},"tax":{"marketValue":26170.0,"assessedValue":null,"taxableValue":null,"taxes":null},"mailingAddress":{"line1":"403 SILVER CREEK DR","line2":null,"city":"VICKSBURG","state":"MS","zip":"39180"},"incomeTract":null,"incomeBlockGroup":null,"nearestRoad":null,"flu":"Agricultural/Vacant","opportunityZone":null,"oz2Eligibility":null,"source":"ms-warren-cmpdd-parcels","appraiserUrl":"https://cmpdd.org/maps/"},"geometry":{"type":"Polygon","coordinates":[[[-91.033529,32.560952],[-91.033532,32.561295],[-91.033553,32.563712],[-91.041798,32.563665],[-91.03917,32.560922],[-91.033529,32.560952]]]}},{"type":"Feature","id":"28149:75D050031000100","properties":{"id":"28149:75D050031000100","parcelId":"75D050031000100","countyFips":"28149","countyName":"Warren","state":"Mississippi","marketIds":["Jackson MS"],"situsAddress":"DIRT RD","situsCity":null,"situsZip":null,"jurisdictionCode":null,"ownerName":"HOTHOUSE LLC","ownerName2":null,"propertyName":null,"zoningCode":null,"zoningDistrict":null,"jurisdictionPrefix":null,"dorCode":null,"acreage":49.0799,"centroid":[-91.061158,32.502547],"lastSale":{"date":"2010-12-30","price":null,"qualified":null},"tax":{"marketValue":31310.0,"assessedValue":null,"taxableValue":null,"taxes":null},"mailingAddress":{"line1":"C/O INVERNESS COUNSEL LLC 845 THIRD AVE 8TH FLOOR","line2":null,"city":"NEW YORK","state":"NY","zip":"10022"},"incomeTract":null,"incomeBlockGroup":null,"nearestRoad":null,"flu":"Agricultural/Vacant","opportunityZone":null,"oz2Eligibility":null,"source":"ms-warren-cmpdd-parcels","appraiserUrl":"https://cmpdd.org/maps/"},"geometry":{"type":"Polygon","coordinates":[[[-91.060411,32.505103],[-91.065017,32.505113],[-91.064921,32.504653],[-91.064007,32.503164],[-91.063958,32.503146],[-91.063213,32.502198],[-91.062745,32.501882],[-91.062302,32.501759],[-91.062245,32.501836],[-91.062101,32.501819],[-91.062059,32.501516],[-91.061871,32.501346],[-91.059376,32.50084],[-91.05841,32.50083],[-91.057175,32.500978],[-91.057016,32.501083],[-91.058757,32.502981],[-91.058865,32.503119],[-91.05978,32.502585],[-91.060497,32.503505],[-91.059582,32.504039],[-91.060411,32.505103]]]}},{"type":"Feature","id":"28149:75D040018000400","properties":{"id":"28149:75D040018000400","parcelId":"75D040018000400","countyFips":"28149","countyName":"Warren","state":"Mississippi","marketIds":["Jackson MS"],"situsAddress":"DIRT RD","situsCity":null,"situsZip":null,"jurisdictionCode":null,"ownerName":"RPWPH PROPERTIES INC","ownerName2":null,"propertyName":null,"zoningCode":null,"zoningDistrict":null,"jurisdictionPrefix":null,"dorCode":null,"acreage":48.7685,"centroid":[-91.05346,32.535198],"lastSale":{"date":"1988-05-10","price":null,"qualified":null},"tax":{"marketValue":41530.0,"assessedValue":null,"taxableValue":null,"taxes":null},"mailingAddress":{"line1":"P O BOX 6276","line2":null,"city":"PEARL","state":"MS","zip":"39288"},"incomeTract":null,"incomeBlockGroup":null,"nearestRoad":null,"flu":"Agricultural/Vacant","opportunityZone":null,"oz2Eligibility":null,"source":"ms-warren-cmpdd-parcels","appraiserUrl":"https://cmpdd.org/maps/"},"geometry":{"type":"Polygon","coordinates":[[[-91.050542,32.536226],[-91.050547,32.536229],[-91.051334,32.536699],[-91.051936,32.53712],[-91.053681,32.538227],[-91.056378,32.533543],[-91.053931,32.53217],[-91.053654,32.532295],[-91.053147,32.532436],[-91.052984,32.532539],[-91.052903,32.532633],[-91.052846,32.532745],[-91.052817,32.532865],[-91.052816,32.532988],[-91.052875,32.533179],[-91.052954,32.533313],[-91.053118,32.53349],[-91.053869,32.533992],[-91.053956,32.534094],[-91.054018,32.534208],[-91.054043,32.534318],[-91.054015,32.534389],[-91.053952,32.534441],[-91.053818,32.534471],[-91.053498,32.534462],[-91.053176,32.534381],[-91.05251,32.534098],[-91.052241,32.534015],[-91.051529,32.533927],[-91.05056,32.533861],[-91.050542,32.536226]]]}},{"type":"Feature","id":"28149:75C050025000300","properties":{"id":"28149:75C050025000300","parcelId":"75C050025000300","countyFips":"28149","countyName":"Warren","state":"Mississippi","marketIds":["Jackson MS"],"situsAddress":"GRAVEL RD","situsCity":null,"situsZip":null,"jurisdictionCode":null,"ownerName":"R H HUNTING PROPERTIES LLC","ownerName2":null,"propertyName":null,"zoningCode":null,"zoningDistrict":null,"jurisdictionPrefix":null,"dorCode":null,"acreage":48.7497,"centroid":[-91.081251,32.507193],"lastSale":{"date":"2022-07-13","price":null,"qualified":null},"tax":{"marketValue":14450.0,"assessedValue":null,"taxableValue":null,"taxes":null},"mailingAddress":{"line1":"2620 MISSISSIPPI 468","line2":null,"city":"PEARL","state":"MS","zip":"39208"},"incomeTract":null,"incomeBlockGroup":null,"nearestRoad":null,"flu":"Agricultural/Vacant","opportunityZone":null,"oz2Eligibility":null,"source":"ms-warren-cmpdd-parcels","appraiserUrl":"https://cmpdd.org/maps/"},"geometry":{"type":"Polygon","coordinates":[[[-91.082299,32.508951],[-91.084985,32.508971],[-91.084967,32.505272],[-91.077807,32.505208],[-91.077626,32.505987],[-91.080924,32.506635],[-91.080698,32.50758],[-91.080702,32.508939],[-91.082299,32.508951]]]}},{"type":"Feature","id":"28149:75D040018000100","properties":{"id":"28149:75D040018000100","parcelId":"75D040018000100","countyFips":"28149","countyName":"Warren","state":"Mississippi","marketIds":["Jackson MS"],"situsAddress":"AUSTRALIA ISLAND RD (PVT)","situsCity":null,"situsZip":null,"jurisdictionCode":null,"ownerName":"PARKER MELBA W TRUST","ownerName2":null,"propertyName":null,"zoningCode":null,"zoningDistrict":null,"jurisdictionPrefix":null,"dorCode":null,"acreage":48.2141,"centroid":[-91.066285,32.545944],"lastSale":{"date":"2000-08-01","price":null,"qualified":null},"tax":{"marketValue":56470.0,"assessedValue":null,"taxableValue":null,"taxes":null},"mailingAddress":{"line1":"MELBA PARKER & LOU PARKER CO-TRUSTE 21533 HWY 465","line2":null,"city":"VICKSBURG","state":"MS","zip":"39183"},"incomeTract":null,"incomeBlockGroup":null,"nearestRoad":null,"flu":"Agricultural/Vacant","opportunityZone":null,"oz2Eligibility":null,"source":"ms-warren-cmpdd-parcels","appraiserUrl":"https://cmpdd.org/maps/"},"geometry":{"type":"Polygon","coordinates":[[[-91.066433,32.549055],[-91.067716,32.549056],[-91.067524,32.541496],[-91.063466,32.544168],[-91.066433,32.549055]]]}},{"type":"Feature","id":"28149:75C030012000500","properties":{"id":"28149:75C030012000500","parcelId":"75C030012000500","countyFips":"28149","countyName":"Warren","state":"Mississippi","marketIds":["Jackson MS"],"situsAddress":"LEVEE RD","situsCity":null,"situsZip":null,"jurisdictionCode":null,"ownerName":"PARKER MELBA W TRUST","ownerName2":null,"propertyName":null,"zoningCode":null,"zoningDistrict":null,"jurisdictionPrefix":null,"dorCode":null,"acreage":45.1233,"centroid":[-91.069365,32.545429],"lastSale":{"date":"2000-08-01","price":null,"qualified":null},"tax":{"marketValue":11100.0,"assessedValue":null,"taxableValue":null,"taxes":null},"mailingAddress":{"line1":"MELBA PARKER & LOU PARKER CO-TRUSTE 21533 HWY 465","line2":null,"city":"VICKSBURG","state":"MS","zip":"39183"},"incomeTract":null,"incomeBlockGroup":null,"nearestRoad":null,"flu":"Agricultural/Vacant","opportunityZone":null,"oz2Eligibility":null,"source":"ms-warren-cmpdd-parcels","appraiserUrl":"https://cmpdd.org/maps/"},"geometry":{"type":"Polygon","coordinates":[[[-91.067524,32.541496],[-91.067716,32.549056],[-91.068812,32.548166],[-91.068536,32.547908],[-91.072695,32.544691],[-91.071372,32.543646],[-91.068902,32.543041],[-91.067524,32.541496]]]}},{"type":"Feature","id":"28149:75D030007000200","properties":{"id":"28149:75D030007000200","parcelId":"75D030007000200","countyFips":"28149","countyName":"Warren","state":"Mississippi","marketIds":["Jackson MS"],"situsAddress":"LEVEE RD","situsCity":null,"situsZip":null,"jurisdictionCode":null,"ownerName":"LEVEE BOARD","ownerName2":null,"propertyName":null,"zoningCode":null,"zoningDistrict":null,"jurisdictionPrefix":null,"dorCode":null,"acreage":45.1029,"centroid":[-91.063588,32.561846],"lastSale":{"date":"2008-07-18","price":null,"qualified":null},"tax":{"marketValue":0.0,"assessedValue":null,"taxableValue":null,"taxes":null},"mailingAddress":{"line1":null,"line2":null,"city":null,"state":null,"zip":"00000"},"incomeTract":null,"incomeBlockGroup":null,"nearestRoad":null,"flu":"Agricultural/Vacant","opportunityZone":null,"oz2Eligibility":null,"source":"ms-warren-cmpdd-parcels","appraiserUrl":"https://cmpdd.org/maps/"},"geometry":{"type":"Polygon","coordinates":[[[-91.057255,32.563597],[-91.063521,32.56358],[-91.067709,32.5616],[-91.06771,32.55941],[-91.064543,32.560707],[-91.060792,32.562181],[-91.057255,32.563597]]]}},{"type":"Feature","id":"28149:75C040024000300","properties":{"id":"28149:75C040024000300","parcelId":"75C040024000300","countyFips":"28149","countyName":"Warren","state":"Mississippi","marketIds":["Jackson MS"],"situsAddress":"LEVEE RD","situsCity":null,"situsZip":null,"jurisdictionCode":null,"ownerName":"R H HUNTING PROPERTIES LLC","ownerName2":null,"propertyName":null,"zoningCode":null,"zoningDistrict":null,"jurisdictionPrefix":null,"dorCode":null,"acreage":36.0473,"centroid":[-91.070406,32.522101],"lastSale":{"date":"2022-08-26","price":null,"qualified":null},"tax":{"marketValue":11250.0,"assessedValue":null,"taxableValue":null,"taxes":null},"mailingAddress":{"line1":"ATTN: TODD CHRISTIAN REEVES 2620 HWY 468","line2":null,"city":"PEARL","state":"MS","zip":"39288"},"incomeTract":null,"incomeBlockGroup":null,"nearestRoad":null,"flu":"Agricultural/Vacant","opportunityZone":null,"oz2Eligibility":null,"source":"ms-warren-cmpdd-parcels","appraiserUrl":"https://cmpdd.org/maps/"},"geometry":{"type":"Polygon","coordinates":[[[-91.06778,32.522155],[-91.067777,32.522787],[-91.068079,32.522681],[-91.069363,32.522124],[-91.069559,32.522074],[-91.069697,32.522073],[-91.069894,32.522122],[-91.070009,32.522185],[-91.070104,32.522269],[-91.070281,32.522494],[-91.070441,32.522655],[-91.070622,32.522801],[-91.070951,32.523017],[-91.071106,32.523182],[-91.071179,32.523309],[-91.071225,32.523445],[-91.071239,32.523698],[-91.071185,32.524032],[-91.071109,32.524248],[-91.071002,32.524454],[-91.070874,32.52464],[-91.070646,32.52488],[-91.069985,32.525361],[-91.069645,32.525679],[-91.072858,32.525422],[-91.073101,32.525297],[-91.072609,32.524297],[-91.072624,32.524119],[-91.071995,32.522884],[-91.071907,32.521926],[-91.071601,32.521915],[-91.071614,32.52181],[-91.070899,32.521012],[-91.07011,32.520417],[-91.069949,32.520598],[-91.069696,32.520445],[-91.069878,32.520207],[-91.070711,32.520516],[-91.071412,32.52115],[-91.071413,32.521073],[-91.071624,32.521067],[-91.072703,32.521442],[-91.072765,32.52113],[-91.071501,32.520666],[-91.071405,32.520576],[-91.071159,32.520251],[-91.070933,32.520028],[-91.07067,32.519835],[-91.070577,32.519728],[-91.07048,32.519656],[-91.068351,32.519648],[-91.068231,32.519945],[-91.068221,32.520178],[-91.068279,32.520638],[-91.06835,32.521009],[-91.068347,32.521322],[-91.068284,32.521487],[-91.068016,32.521848],[-91.067914,32.522023],[-91.06778,32.522155]]]}},{"type":"Feature","id":"28149:75D030005001400","properties":{"id":"28149:75D030005001400","parcelId":"75D030005001400","countyFips":"28149","countyName":"Warren","state":"Mississippi","marketIds":["Jackson MS"],"situsAddress":"NO ACCESS","situsCity":null,"situsZip":null,"jurisdictionCode":null,"ownerName":"LEVEE BOARD","ownerName2":null,"propertyName":null,"zoningCode":null,"zoningDistrict":null,"jurisdictionPrefix":null,"dorCode":null,"acreage":32.679,"centroid":[-91.041832,32.57267],"lastSale":{"date":"2018-08-21","price":null,"qualified":null},"tax":{"marketValue":0.0,"assessedValue":null,"taxableValue":null,"taxes":null},"mailingAddress":{"line1":"552 BRIARHILL RD","line2":null,"city":"FLORENCE","state":"MS","zip":"39073"},"incomeTract":null,"incomeBlockGroup":null,"nearestRoad":null,"flu":"Agricultural/Vacant","opportunityZone":null,"oz2Eligibility":null,"source":"ms-warren-cmpdd-parcels","appraiserUrl":"https://cmpdd.org/maps/"},"geometry":{"type":"Polygon","coordinates":[[[-91.038431,32.573832],[-91.03872,32.574005],[-91.039617,32.574543],[-91.043603,32.572696],[-91.044182,32.572669],[-91.044222,32.572636],[-91.044189,32.570468],[-91.041693,32.57051],[-91.038431,32.573832]]]}},{"type":"Feature","id":"28149:75C050025000600","properties":{"id":"28149:75C050025000600","parcelId":"75C050025000600","countyFips":"28149","countyName":"Warren","state":"Mississippi","marketIds":["Jackson MS"],"situsAddress":"EAGLE LAKE SHORE RD","situsCity":null,"situsZip":null,"jurisdictionCode":null,"ownerName":"PURVIS GRANGE FOUNDATION INC","ownerName2":null,"propertyName":null,"zoningCode":null,"zoningDistrict":null,"jurisdictionPrefix":null,"dorCode":null,"acreage":30.9232,"centroid":[-91.071424,32.506335],"lastSale":{"date":"2001-12-13","price":null,"qualified":null},"tax":{"marketValue":22340.0,"assessedValue":null,"taxableValue":null,"taxes":null},"mailingAddress":{"line1":"C/O 6791 EAGLE LAKE SHORE RD","line2":null,"city":"VICKSBURG","state":"MS","zip":"39183"},"incomeTract":null,"incomeBlockGroup":null,"nearestRoad":null,"flu":"Agricultural/Vacant","opportunityZone":null,"oz2Eligibility":null,"source":"ms-warren-cmpdd-parcels","appraiserUrl":"https://cmpdd.org/maps/"},"geometry":{"type":"Polygon","coordinates":[[[-91.07349,32.507142],[-91.073713,32.507143],[-91.074183,32.505176],[-91.067872,32.505119],[-91.067861,32.507096],[-91.07349,32.507142]]]}},{"type":"Feature","id":"28149:75E030010000101","properties":{"id":"28149:75E030010000101","parcelId":"75E030010000101","countyFips":"28149","countyName":"Warren","state":"Mississippi","marketIds":["Jackson MS"],"situsAddress":"DIRT RD","situsCity":null,"situsZip":null,"jurisdictionCode":null,"ownerName":"CONWAY & CRAIG LLC","ownerName2":null,"propertyName":null,"zoningCode":null,"zoningDistrict":null,"jurisdictionPrefix":null,"dorCode":null,"acreage":26.3727,"centroid":[-91.012963,32.549644],"lastSale":{"date":"2012-07-26","price":null,"qualified":null},"tax":{"marketValue":25890.0,"assessedValue":null,"taxableValue":null,"taxes":null},"mailingAddress":{"line1":"39 GREYSTONE DRIVE","line2":null,"city":"MADISON","state":"MS","zip":"39110"},"incomeTract":null,"incomeBlockGroup":null,"nearestRoad":null,"flu":"Agricultural/Vacant","opportunityZone":null,"oz2Eligibility":null,"source":"ms-warren-cmpdd-parcels","appraiserUrl":"https://cmpdd.org/maps/"},"geometry":{"type":"Polygon","coordinates":[[[-91.012549,32.549137],[-91.012804,32.550927],[-91.013797,32.550289],[-91.014082,32.550242],[-91.014299,32.550488],[-91.014858,32.55218],[-91.015185,32.552615],[-91.015171,32.553918],[-91.015605,32.5543],[-91.016258,32.555176],[-91.016225,32.549128],[-91.012549,32.549137]]]}},{"type":"Feature","id":"28149:75D040020000300","properties":{"id":"28149:75D040020000300","parcelId":"75D040020000300","countyFips":"28149","countyName":"Warren","state":"Mississippi","marketIds":["Jackson MS"],"situsAddress":"HWY 465","situsCity":null,"situsZip":null,"jurisdictionCode":null,"ownerName":"ALTORF PLANTATION LLC","ownerName2":null,"propertyName":null,"zoningCode":null,"zoningDistrict":null,"jurisdictionPrefix":null,"dorCode":null,"acreage":25.8863,"centroid":[-91.036537,32.533849],"lastSale":{"date":"2023-10-18","price":null,"qualified":null},"tax":{"marketValue":26700.0,"assessedValue":null,"taxableValue":null,"taxes":null},"mailingAddress":{"line1":"C/O HAMPTON D THAMES 1007 40TH COURT","line2":null,"city":"MERIDIAN","state":"MS","zip":"39305"},"incomeTract":null,"incomeBlockGroup":null,"nearestRoad":null,"flu":"Agricultural/Vacant","opportunityZone":null,"oz2Eligibility":null,"source":"ms-warren-cmpdd-parcels","appraiserUrl":"https://cmpdd.org/maps/"},"geometry":{"type":"MultiPolygon","coordinates":[[[[-91.033427,32.5347],[-91.040174,32.534701],[-91.038603,32.53408],[-91.0375,32.533691],[-91.036094,32.533297],[-91.033423,32.532626],[-91.033427,32.5347]]],[[[-91.033418,32.529796],[-91.033432,32.529817],[-91.033446,32.529864],[-91.033423,32.532339],[-91.033556,32.532374],[-91.033829,32.531787],[-91.034172,32.530737],[-91.034689,32.529434],[-91.034369,32.529363],[-91.03431,32.529306],[-91.034174,32.529308],[-91.034085,32.529274],[-91.03399,32.529201],[-91.033859,32.529212],[-91.033812,32.529158],[-91.033616,32.52907],[-91.033504,32.52905],[-91.033445,32.528994],[-91.033417,32.528991],[-91.033418,32.529796]]]]}},{"type":"Feature","id":"28149:75E040021000100","properties":{"id":"28149:75E040021000100","parcelId":"75E040021000100","countyFips":"28149","countyName":"Warren","state":"Mississippi","marketIds":["Jackson MS"],"situsAddress":"HWY 465","situsCity":null,"situsZip":null,"jurisdictionCode":null,"ownerName":"CONWAY & CRAIG LLC AND","ownerName2":null,"propertyName":null,"zoningCode":null,"zoningDistrict":null,"jurisdictionPrefix":null,"dorCode":null,"acreage":23.485,"centroid":[-91.030933,32.532702],"lastSale":{"date":"2012-07-26","price":null,"qualified":null},"tax":{"marketValue":6260.0,"assessedValue":null,"taxableValue":null,"taxes":null},"mailingAddress":{"line1":"JOSEPH M BONELLI 39 GREYSTONE DRIVE","line2":null,"city":"MADISON","state":"MS","zip":"39110"},"incomeTract":null,"incomeBlockGroup":null,"nearestRoad":null,"flu":"Agricultural/Vacant","opportunityZone":null,"oz2Eligibility":null,"source":"ms-warren-cmpdd-parcels","appraiserUrl":"https://cmpdd.org/maps/"},"geometry":{"type":"Polygon","coordinates":[[[-91.029181,32.534707],[-91.033427,32.5347],[-91.033423,32.532626],[-91.031446,32.532121],[-91.03016,32.531719],[-91.029966,32.532122],[-91.030143,32.532181],[-91.030214,32.532032],[-91.030437,32.532106],[-91.029181,32.534707]]]}},{"type":"Feature","id":"28149:75D050030000200","properties":{"id":"28149:75D050030000200","parcelId":"75D050030000200","countyFips":"28149","countyName":"Warren","state":"Mississippi","marketIds":["Jackson MS"],"situsAddress":"DIRT RD","situsCity":null,"situsZip":null,"jurisdictionCode":null,"ownerName":"HOTHOUSE LLC","ownerName2":null,"propertyName":null,"zoningCode":null,"zoningDistrict":null,"jurisdictionPrefix":null,"dorCode":null,"acreage":20.2162,"centroid":[-91.062853,32.506376],"lastSale":{"date":"2010-12-30","price":null,"qualified":null},"tax":{"marketValue":15750.0,"assessedValue":null,"taxableValue":null,"taxes":null},"mailingAddress":{"line1":"C/O INVERNESS COUNSEL LLC 845 THIRD AVE 8TH FLOOR","line2":null,"city":"NEW YORK","state":"NY","zip":"10022"},"incomeTract":null,"incomeBlockGroup":null,"nearestRoad":null,"flu":"Agricultural/Vacant","opportunityZone":null,"oz2Eligibility":null,"source":"ms-warren-cmpdd-parcels","appraiserUrl":"https://cmpdd.org/maps/"},"geometry":{"type":"Polygon","coordinates":[[[-91.061963,32.507048],[-91.065188,32.507074],[-91.06532,32.506561],[-91.065017,32.505113],[-91.060411,32.505103],[-91.061486,32.506482],[-91.061649,32.506737],[-91.061786,32.506892],[-91.061963,32.507048]]]}},{"type":"Feature","id":"28149:75E030004000301","properties":{"id":"28149:75E030004000301","parcelId":"75E030004000301","countyFips":"28149","countyName":"Warren","state":"Mississippi","marketIds":["Jackson MS"],"situsAddress":"NO ACCESS","situsCity":null,"situsZip":null,"jurisdictionCode":null,"ownerName":"CONWAY & CRAIG LLC","ownerName2":null,"propertyName":null,"zoningCode":null,"zoningDistrict":null,"jurisdictionPrefix":null,"dorCode":null,"acreage":19.0134,"centroid":[-91.02081,32.56448],"lastSale":{"date":"2012-07-26","price":null,"qualified":null},"tax":{"marketValue":24210.0,"assessedValue":null,"taxableValue":null,"taxes":null},"mailingAddress":{"line1":"39 GREYSTONE DRIVE","line2":null,"city":"MADISON","state":"MS","zip":"39110"},"incomeTract":null,"incomeBlockGroup":null,"nearestRoad":null,"flu":"Agricultural/Vacant","opportunityZone":null,"oz2Eligibility":null,"source":"ms-warren-cmpdd-parcels","appraiserUrl":"https://cmpdd.org/maps/"},"geometry":{"type":"Polygon","coordinates":[[[-91.017626,32.563746],[-91.017757,32.563806],[-91.017873,32.56409],[-91.018536,32.564404],[-91.019005,32.56429],[-91.019129,32.564642],[-91.020448,32.565206],[-91.020887,32.56466],[-91.02156,32.564696],[-91.022667,32.564535],[-91.023032,32.564618],[-91.023006,32.565182],[-91.024883,32.565119],[-91.024928,32.563731],[-91.017626,32.563746]]]}},{"type":"Feature","id":"28149:75E040027000100","properties":{"id":"28149:75E040027000100","parcelId":"75E040027000100","countyFips":"28149","countyName":"Warren","state":"Mississippi","marketIds":["Jackson MS"],"situsAddress":"HWY 465","situsCity":null,"situsZip":null,"jurisdictionCode":null,"ownerName":"WADE JANE S AND WM ADEN JR ETAL AND","ownerName2":null,"propertyName":null,"zoningCode":null,"zoningDistrict":null,"jurisdictionPrefix":null,"dorCode":null,"acreage":18.5302,"centroid":[-91.000831,32.518745],"lastSale":{"date":"2017-05-16","price":null,"qualified":null},"tax":{"marketValue":26220.0,"assessedValue":null,"taxableValue":null,"taxes":null},"mailingAddress":{"line1":"MERRITT ADEN ETAL P O BOX 156","line2":null,"city":"VALLEY PARK","state":"MS","zip":"39177"},"incomeTract":null,"incomeBlockGroup":null,"nearestRoad":null,"flu":null,"opportunityZone":null,"oz2Eligibility":null,"source":"ms-warren-cmpdd-parcels","appraiserUrl":"https://cmpdd.org/maps/"},"geometry":{"type":"Polygon","coordinates":[[[-90.998883,32.519973],[-91.002952,32.51999],[-91.002615,32.519755],[-91.003086,32.519281],[-91.000953,32.517796],[-91.000613,32.517586],[-91.000129,32.517334],[-90.999358,32.518495],[-90.998893,32.518496],[-90.998883,32.519973]]]}},{"type":"Feature","id":"28149:75D040020000100","properties":{"id":"28149:75D040020000100","parcelId":"75D040020000100","countyFips":"28149","countyName":"Warren","state":"Mississippi","marketIds":["Jackson MS"],"situsAddress":"NO ACCESS","situsCity":null,"situsZip":null,"jurisdictionCode":null,"ownerName":"ALTORF PLANTATION LLC","ownerName2":null,"propertyName":null,"zoningCode":null,"zoningDistrict":null,"jurisdictionPrefix":null,"dorCode":null,"acreage":18.1413,"centroid":[-91.042359,32.533656],"lastSale":{"date":"2023-10-18","price":null,"qualified":null},"tax":{"marketValue":6170.0,"assessedValue":null,"taxableValue":null,"taxes":null},"mailingAddress":{"line1":"C/O HAMPTON D THAMES 1007 40TH COURT","line2":null,"city":"MERIDIAN","state":"MS","zip":"39305"},"incomeTract":null,"incomeBlockGroup":null,"nearestRoad":null,"flu":"Agricultural/Vacant","opportunityZone":null,"oz2Eligibility":null,"source":"ms-warren-cmpdd-parcels","appraiserUrl":"https://cmpdd.org/maps/"},"geometry":{"type":"Polygon","coordinates":[[[-91.040935,32.534701],[-91.047657,32.534702],[-91.042773,32.532747],[-91.042752,32.532799],[-91.042112,32.53258],[-91.042064,32.53266],[-91.042266,32.532748],[-91.041153,32.534502],[-91.041006,32.534442],[-91.040868,32.534675],[-91.040935,32.534701]]]}},{"type":"Feature","id":"28149:75D030006000200","properties":{"id":"28149:75D030006000200","parcelId":"75D030006000200","countyFips":"28149","countyName":"Warren","state":"Mississippi","marketIds":["Jackson MS"],"situsAddress":"NO ACCESS","situsCity":null,"situsZip":null,"jurisdictionCode":null,"ownerName":"BRUNINI BARBARA L","ownerName2":null,"propertyName":null,"zoningCode":null,"zoningDistrict":null,"jurisdictionPrefix":null,"dorCode":null,"acreage":16.7497,"centroid":[-91.061752,32.564737],"lastSale":{"date":"2023-05-23","price":null,"qualified":null},"tax":{"marketValue":23750.0,"assessedValue":null,"taxableValue":null,"taxes":null},"mailingAddress":{"line1":"28 PROVENCE BLVD","line2":null,"city":"MADISON","state":"MS","zip":"39110"},"incomeTract":null,"incomeBlockGroup":null,"nearestRoad":null,"flu":"Agricultural/Vacant","opportunityZone":null,"oz2Eligibility":null,"source":"ms-warren-cmpdd-parcels","appraiserUrl":"https://cmpdd.org/maps/"},"geometry":{"type":"Polygon","coordinates":[[[-91.059094,32.564961],[-91.059059,32.567083],[-91.06339,32.564773],[-91.063411,32.563632],[-91.062952,32.563848],[-91.062605,32.564122],[-91.059094,32.564961]]]}},{"type":"Feature","id":"28149:75B050027000100","properties":{"id":"28149:75B050027000100","parcelId":"75B050027000100","countyFips":"28149","countyName":"Warren","state":"Mississippi","marketIds":["Jackson MS"],"situsAddress":"DIRT RD","situsCity":null,"situsZip":null,"jurisdictionCode":null,"ownerName":"BELLE ISLAND PROPERTIES LLC","ownerName2":null,"propertyName":null,"zoningCode":null,"zoningDistrict":null,"jurisdictionPrefix":null,"dorCode":null,"acreage":15.9352,"centroid":[-91.104232,32.513841],"lastSale":{"date":"2007-09-05","price":null,"qualified":null},"tax":{"marketValue":6780.0,"assessedValue":null,"taxableValue":null,"taxes":null},"mailingAddress":{"line1":"415 BILTMORE WAY","line2":null,"city":"LAFAYETTE","state":"LA","zip":"70508"},"incomeTract":null,"incomeBlockGroup":null,"nearestRoad":null,"flu":"Agricultural/Vacant","opportunityZone":null,"oz2Eligibility":null,"source":"ms-warren-cmpdd-parcels","appraiserUrl":"https://cmpdd.org/maps/"},"geometry":{"type":"Polygon","coordinates":[[[-91.1023,32.512864],[-91.102295,32.516086],[-91.102666,32.515823],[-91.103497,32.515101],[-91.103622,32.514943],[-91.103843,32.514473],[-91.103976,32.514307],[-91.104094,32.514219],[-91.104352,32.514094],[-91.104462,32.514021],[-91.105144,32.513395],[-91.105424,32.513209],[-91.105465,32.51316],[-91.105501,32.513037],[-91.105713,32.512619],[-91.105305,32.512564],[-91.10459,32.512548],[-91.103924,32.512667],[-91.1023,32.512864]]]}},{"type":"Feature","id":"28149:75D030006000500","properties":{"id":"28149:75D030006000500","parcelId":"75D030006000500","countyFips":"28149","countyName":"Warren","state":"Mississippi","marketIds":["Jackson MS"],"situsAddress":"171 ZIEGLER RD","situsCity":null,"situsZip":null,"jurisdictionCode":null,"ownerName":"BRUNINI BARBARA L","ownerName2":null,"propertyName":null,"zoningCode":null,"zoningDistrict":null,"jurisdictionPrefix":null,"dorCode":null,"acreage":13.0172,"centroid":[-91.054415,32.56886],"lastSale":{"date":"2023-05-23","price":null,"qualified":null},"tax":{"marketValue":238720.0,"assessedValue":null,"taxableValue":null,"taxes":null},"mailingAddress":{"line1":"28 PROVENCE BLVD","line2":null,"city":"MADISON","state":"MS","zip":"39110"},"incomeTract":null,"incomeBlockGroup":null,"nearestRoad":null,"flu":"Agricultural/Vacant","opportunityZone":null,"oz2Eligibility":null,"source":"ms-warren-cmpdd-parcels","appraiserUrl":"https://cmpdd.org/maps/"},"geometry":{"type":"MultiPolygon","coordinates":[[[[-91.053381,32.568499],[-91.053393,32.568604],[-91.053368,32.568797],[-91.05329,32.568926],[-91.053178,32.569031],[-91.052733,32.569362],[-91.053303,32.570083],[-91.053544,32.569959],[-91.054133,32.569594],[-91.054704,32.569354],[-91.055109,32.569149],[-91.055986,32.568667],[-91.056448,32.568378],[-91.056881,32.568166],[-91.056232,32.567664],[-91.054958,32.567523],[-91.053381,32.568499]]],[[[-91.05224,32.569206],[-91.052606,32.569276],[-91.053159,32.568844],[-91.053223,32.568722],[-91.053229,32.568593],[-91.05224,32.569206]]]]}},{"type":"Feature","id":"28149:75E040021000200","properties":{"id":"28149:75E040021000200","parcelId":"75E040021000200","countyFips":"28149","countyName":"Warren","state":"Mississippi","marketIds":["Jackson MS"],"situsAddress":"GRAVEL RD","situsCity":null,"situsZip":null,"jurisdictionCode":null,"ownerName":"SIMMONS ROY E","ownerName2":null,"propertyName":null,"zoningCode":null,"zoningDistrict":null,"jurisdictionPrefix":null,"dorCode":null,"acreage":10.0259,"centroid":[-91.02947,32.532929],"lastSale":{"date":"2018-06-18","price":null,"qualified":null},"tax":{"marketValue":68430.0,"assessedValue":null,"taxableValue":null,"taxes":null},"mailingAddress":{"line1":"16785 HWY 465","line2":null,"city":"VICKSBURG","state":"MS","zip":"39183"},"incomeTract":null,"incomeBlockGroup":null,"nearestRoad":null,"flu":"General Commercial","opportunityZone":null,"oz2Eligibility":null,"source":"ms-warren-cmpdd-parcels","appraiserUrl":"https://cmpdd.org/maps/"},"geometry":{"type":"Polygon","coordinates":[[[-91.02773,32.534709],[-91.029181,32.534707],[-91.030437,32.532106],[-91.030214,32.532032],[-91.030143,32.532181],[-91.029116,32.53184],[-91.02773,32.534709]]]}},{"type":"Feature","id":"28149:75D030006000900","properties":{"id":"28149:75D030006000900","parcelId":"75D030006000900","countyFips":"28149","countyName":"Warren","state":"Mississippi","marketIds":["Jackson MS"],"situsAddress":"LEVEE RD","situsCity":null,"situsZip":null,"jurisdictionCode":null,"ownerName":"SIMMONS ROY E","ownerName2":null,"propertyName":null,"zoningCode":null,"zoningDistrict":null,"jurisdictionPrefix":null,"dorCode":null,"acreage":9.0927,"centroid":[-91.051173,32.565036],"lastSale":{"date":"2018-06-18","price":null,"qualified":null},"tax":{"marketValue":7220.0,"assessedValue":null,"taxableValue":null,"taxes":null},"mailingAddress":{"line1":"16785 HIGHWAY 465","line2":null,"city":"VICKSBURG","state":"MS","zip":"39183"},"incomeTract":null,"incomeBlockGroup":null,"nearestRoad":null,"flu":"Agricultural/Vacant","opportunityZone":null,"oz2Eligibility":null,"source":"ms-warren-cmpdd-parcels","appraiserUrl":"https://cmpdd.org/maps/"},"geometry":{"type":"Polygon","coordinates":[[[-91.050526,32.563614],[-91.050494,32.566026],[-91.050796,32.566007],[-91.050962,32.565925],[-91.053087,32.563608],[-91.050526,32.563614]]]}},{"type":"Feature","id":"28149:75D030006000300","properties":{"id":"28149:75D030006000300","parcelId":"75D030006000300","countyFips":"28149","countyName":"Warren","state":"Mississippi","marketIds":["Jackson MS"],"situsAddress":"GRAVEL RD","situsCity":null,"situsZip":null,"jurisdictionCode":null,"ownerName":"GDB & CBH LLC","ownerName2":null,"propertyName":null,"zoningCode":null,"zoningDistrict":null,"jurisdictionPrefix":null,"dorCode":null,"acreage":8.3622,"centroid":[-91.05828,32.566492],"lastSale":{"date":"2020-01-15","price":null,"qualified":null},"tax":{"marketValue":11800.0,"assessedValue":null,"taxableValue":null,"taxes":null},"mailingAddress":{"line1":"820 BEAUMONT DR","line2":null,"city":"MADISON","state":"MS","zip":"39110"},"incomeTract":null,"incomeBlockGroup":null,"nearestRoad":null,"flu":"Agricultural/Vacant","opportunityZone":null,"oz2Eligibility":null,"source":"ms-warren-cmpdd-parcels","appraiserUrl":"https://cmpdd.org/maps/"},"geometry":{"type":"Polygon","coordinates":[[[-91.056951,32.566288],[-91.058018,32.567638],[-91.059059,32.567083],[-91.059094,32.564961],[-91.056951,32.566288]]]}},{"type":"Feature","id":"28149:75D030007000100","properties":{"id":"28149:75D030007000100","parcelId":"75D030007000100","countyFips":"28149","countyName":"Warren","state":"Mississippi","marketIds":["Jackson MS"],"situsAddress":"NO ACCESS","situsCity":null,"situsZip":null,"jurisdictionCode":null,"ownerName":"ALTORF PLANTATION LLC","ownerName2":null,"propertyName":null,"zoningCode":null,"zoningDistrict":null,"jurisdictionPrefix":null,"dorCode":null,"acreage":7.6756,"centroid":[-91.066144,32.562806],"lastSale":{"date":"2023-10-18","price":null,"qualified":null},"tax":{"marketValue":1760.0,"assessedValue":null,"taxableValue":null,"taxes":null},"mailingAddress":{"line1":"C/O HAMPTON D THAMES 1007 40TH COURT","line2":null,"city":"MERIDIAN","state":"MS","zip":"39305"},"incomeTract":null,"incomeBlockGroup":null,"nearestRoad":null,"flu":"Agricultural/Vacant","opportunityZone":null,"oz2Eligibility":null,"source":"ms-warren-cmpdd-parcels","appraiserUrl":"https://cmpdd.org/maps/"},"geometry":{"type":"Polygon","coordinates":[[[-91.063521,32.56358],[-91.065638,32.563574],[-91.067708,32.56247],[-91.067709,32.5616],[-91.063521,32.56358]]]}},{"type":"Feature","id":"28149:75C030012000300","properties":{"id":"28149:75C030012000300","parcelId":"75C030012000300","countyFips":"28149","countyName":"Warren","state":"Mississippi","marketIds":["Jackson MS"],"situsAddress":"LEVEE RD","situsCity":null,"situsZip":null,"jurisdictionCode":null,"ownerName":"ALTORF PLANTATION LLC","ownerName2":null,"propertyName":null,"zoningCode":null,"zoningDistrict":null,"jurisdictionPrefix":null,"dorCode":null,"acreage":6.7879,"centroid":[-91.068215,32.5563],"lastSale":{"date":"2023-10-18","price":null,"qualified":null},"tax":{"marketValue":8570.0,"assessedValue":null,"taxableValue":null,"taxes":null},"mailingAddress":{"line1":"C/O HAMPTON D THAMES 1007 40TH COURT","line2":null,"city":"MERIDIAN","state":"MS","zip":"39305"},"incomeTract":null,"incomeBlockGroup":null,"nearestRoad":null,"flu":"Agricultural/Vacant","opportunityZone":null,"oz2Eligibility":null,"source":"ms-warren-cmpdd-parcels","appraiserUrl":"https://cmpdd.org/maps/"},"geometry":{"type":"Polygon","coordinates":[[[-91.067713,32.553961],[-91.067711,32.55822],[-91.06873,32.557811],[-91.068356,32.556275],[-91.068133,32.555868],[-91.068648,32.555665],[-91.067713,32.553961]]]}},{"type":"Feature","id":"28149:75D030006000400","properties":{"id":"28149:75D030006000400","parcelId":"75D030006000400","countyFips":"28149","countyName":"Warren","state":"Mississippi","marketIds":["Jackson MS"],"situsAddress":"GRAVEL RD","situsCity":null,"situsZip":null,"jurisdictionCode":null,"ownerName":"ROCKIN CHAIR I LP","ownerName2":null,"propertyName":null,"zoningCode":null,"zoningDistrict":null,"jurisdictionPrefix":null,"dorCode":null,"acreage":6.7567,"centroid":[-91.056735,32.567542],"lastSale":{"date":"1997-12-04","price":null,"qualified":null},"tax":{"marketValue":19000.0,"assessedValue":null,"taxableValue":null,"taxes":null},"mailingAddress":{"line1":"C/O JOE TUBB 220 ROCKING CHAIR RD","line2":null,"city":"CANTON","state":"MS","zip":"39046"},"incomeTract":null,"incomeBlockGroup":null,"nearestRoad":null,"flu":"Agricultural/Vacant","opportunityZone":null,"oz2Eligibility":null,"source":"ms-warren-cmpdd-parcels","appraiserUrl":"https://cmpdd.org/maps/"},"geometry":{"type":"Polygon","coordinates":[[[-91.054958,32.567523],[-91.056232,32.567664],[-91.056881,32.568166],[-91.057371,32.567971],[-91.058018,32.567638],[-91.056951,32.566288],[-91.054958,32.567523]]]}},{"type":"Feature","id":"28149:75E030003000200","properties":{"id":"28149:75E030003000200","parcelId":"75E030003000200","countyFips":"28149","countyName":"Warren","state":"Mississippi","marketIds":["Jackson MS"],"situsAddress":"DIRT RD","situsCity":null,"situsZip":null,"jurisdictionCode":null,"ownerName":"CONWAY & CRAIG LLC","ownerName2":null,"propertyName":null,"zoningCode":null,"zoningDistrict":null,"jurisdictionPrefix":null,"dorCode":null,"acreage":6.5008,"centroid":[-91.015299,32.564443],"lastSale":{"date":"2017-03-06","price":null,"qualified":null},"tax":{"marketValue":1350.0,"assessedValue":null,"taxableValue":null,"taxes":null},"mailingAddress":{"line1":"39 GREYSTONE DRIVE","line2":null,"city":"MADISON","state":"MS","zip":"39110"},"incomeTract":null,"incomeBlockGroup":null,"nearestRoad":null,"flu":"Agricultural/Vacant","opportunityZone":null,"oz2Eligibility":null,"source":"ms-warren-cmpdd-parcels","appraiserUrl":"https://cmpdd.org/maps/"},"geometry":{"type":"Polygon","coordinates":[[[-91.014011,32.563788],[-91.014634,32.56472],[-91.016247,32.565514],[-91.016304,32.563749],[-91.014011,32.563788]]]}},{"type":"Feature","id":"28149:75E04Q022001400","properties":{"id":"28149:75E04Q022001400","parcelId":"75E04Q022001400","countyFips":"28149","countyName":"Warren","state":"Mississippi","marketIds":["Jackson MS"],"situsAddress":"HWY 465","situsCity":null,"situsZip":null,"jurisdictionCode":null,"ownerName":"BOYKIN BILLY SCOTT JR & ADONNA LYNN","ownerName2":null,"propertyName":null,"zoningCode":null,"zoningDistrict":null,"jurisdictionPrefix":null,"dorCode":null,"acreage":6.1769,"centroid":[-91.008782,32.521304],"lastSale":{"date":"2019-05-29","price":null,"qualified":null},"tax":{"marketValue":197820.0,"assessedValue":null,"taxableValue":null,"taxes":null},"mailingAddress":{"line1":"164 WESTLINE DR","line2":null,"city":"MADISON","state":"MS","zip":"39110"},"incomeTract":null,"incomeBlockGroup":null,"nearestRoad":null,"flu":null,"opportunityZone":null,"oz2Eligibility":null,"source":"ms-warren-cmpdd-parcels","appraiserUrl":"https://cmpdd.org/maps/"},"geometry":{"type":"Polygon","coordinates":[[[-91.007561,32.522143],[-91.007732,32.52227],[-91.008514,32.522849],[-91.009834,32.521158],[-91.009218,32.520876],[-91.009133,32.520816],[-91.009106,32.520756],[-91.00905,32.52077],[-91.008943,32.52075],[-91.008726,32.520651],[-91.007561,32.522143]]]}},{"type":"Feature","id":"28149:75E040021000300","properties":{"id":"28149:75E040021000300","parcelId":"75E040021000300","countyFips":"28149","countyName":"Warren","state":"Mississippi","marketIds":["Jackson MS"],"situsAddress":"DIRT RD","situsCity":null,"situsZip":null,"jurisdictionCode":null,"ownerName":"CONWAY & CRAIG LLC AND","ownerName2":null,"propertyName":null,"zoningCode":null,"zoningDistrict":null,"jurisdictionPrefix":null,"dorCode":null,"acreage":5.9092,"centroid":[-91.028126,32.532344],"lastSale":{"date":"2012-07-26","price":null,"qualified":null},"tax":{"marketValue":3030.0,"assessedValue":null,"taxableValue":null,"taxes":null},"mailingAddress":{"line1":"JOSEPH M BONELLI 39 GREYSTONE DRIVE","line2":null,"city":"MADISON","state":"MS","zip":"39110"},"incomeTract":null,"incomeBlockGroup":null,"nearestRoad":null,"flu":"Agricultural/Vacant","opportunityZone":null,"oz2Eligibility":null,"source":"ms-warren-cmpdd-parcels","appraiserUrl":"https://cmpdd.org/maps/"},"geometry":{"type":"Polygon","coordinates":[[[-91.027924,32.531445],[-91.027736,32.531383],[-91.02773,32.534709],[-91.029116,32.53184],[-91.027924,32.531445]]]}},{"type":"Feature","id":"28149:75C030012000200","properties":{"id":"28149:75C030012000200","parcelId":"75C030012000200","countyFips":"28149","countyName":"Warren","state":"Mississippi","marketIds":["Jackson MS"],"situsAddress":"NO ACCESS","situsCity":null,"situsZip":null,"jurisdictionCode":null,"ownerName":"ALTORF PLANTATION LLC","ownerName2":null,"propertyName":null,"zoningCode":null,"zoningDistrict":null,"jurisdictionPrefix":null,"dorCode":null,"acreage":5.8365,"centroid":[-91.069264,32.561401],"lastSale":{"date":"2023-10-18","price":null,"qualified":null},"tax":{"marketValue":3620.0,"assessedValue":null,"taxableValue":null,"taxes":null},"mailingAddress":{"line1":"C/O HAMPTON D THAMES 1007 40TH COURT","line2":null,"city":"MERIDIAN","state":"MS","zip":"39305"},"incomeTract":null,"incomeBlockGroup":null,"nearestRoad":null,"flu":"Agricultural/Vacant","opportunityZone":null,"oz2Eligibility":null,"source":"ms-warren-cmpdd-parcels","appraiserUrl":"https://cmpdd.org/maps/"},"geometry":{"type":"Polygon","coordinates":[[[-91.067709,32.5616],[-91.067708,32.56247],[-91.069506,32.561626],[-91.069872,32.561397],[-91.070395,32.560985],[-91.070395,32.56033],[-91.067709,32.5616]]]}},{"type":"Feature","id":"28149:75E040022000300","properties":{"id":"28149:75E040022000300","parcelId":"75E040022000300","countyFips":"28149","countyName":"Warren","state":"Mississippi","marketIds":["Jackson MS"],"situsAddress":"HWY 465","situsCity":null,"situsZip":null,"jurisdictionCode":null,"ownerName":"CONWAY & CRAIG LLC","ownerName2":null,"propertyName":null,"zoningCode":null,"zoningDistrict":null,"jurisdictionPrefix":null,"dorCode":null,"acreage":5.6309,"centroid":[-91.007843,32.523925],"lastSale":{"date":"2012-07-26","price":null,"qualified":null},"tax":{"marketValue":7410.0,"assessedValue":null,"taxableValue":null,"taxes":null},"mailingAddress":{"line1":"39 GREYSTONE DRIVE","line2":null,"city":"MADISON","state":"MS","zip":"39110"},"incomeTract":null,"incomeBlockGroup":null,"nearestRoad":null,"flu":"General Commercial","opportunityZone":null,"oz2Eligibility":null,"source":"ms-warren-cmpdd-parcels","appraiserUrl":"https://cmpdd.org/maps/"},"geometry":{"type":"Polygon","coordinates":[[[-91.007958,32.522802],[-91.00663,32.523838],[-91.0075,32.524705],[-91.007956,32.52431],[-91.008046,32.524358],[-91.008967,32.52354],[-91.007958,32.522802]]]}},{"type":"Feature","id":"28149:75D040017000200","properties":{"id":"28149:75D040017000200","parcelId":"75D040017000200","countyFips":"28149","countyName":"Warren","state":"Mississippi","marketIds":["Jackson MS"],"situsAddress":"NO ACCESS","situsCity":null,"situsZip":null,"jurisdictionCode":null,"ownerName":"RPWPH PROPERTIES INC","ownerName2":null,"propertyName":null,"zoningCode":null,"zoningDistrict":null,"jurisdictionPrefix":null,"dorCode":null,"acreage":5.5058,"centroid":[-91.049387,32.535358],"lastSale":{"date":"1988-05-10","price":null,"qualified":null},"tax":{"marketValue":6230.0,"assessedValue":null,"taxableValue":null,"taxes":null},"mailingAddress":{"line1":"P O BOX 6276","line2":null,"city":"PEARL","state":"MS","zip":"39288"},"incomeTract":null,"incomeBlockGroup":null,"nearestRoad":null,"flu":"Agricultural/Vacant","opportunityZone":null,"oz2Eligibility":null,"source":"ms-warren-cmpdd-parcels","appraiserUrl":"https://cmpdd.org/maps/"},"geometry":{"type":"Polygon","coordinates":[[[-91.048006,32.534841],[-91.049075,32.535469],[-91.049408,32.5356],[-91.050046,32.535966],[-91.050542,32.536226],[-91.050543,32.534702],[-91.04809,32.534702],[-91.048006,32.534841]]]}},{"type":"Feature","id":"28149:175E04M021001400","properties":{"id":"28149:175E04M021001400","parcelId":"175E04M021001400","countyFips":"28149","countyName":"Warren","state":"Mississippi","marketIds":["Jackson MS"],"situsAddress":"18575 HWY 465","situsCity":null,"situsZip":null,"jurisdictionCode":null,"ownerName":"FERGUSON FRANK A & TERRIE E","ownerName2":null,"propertyName":null,"zoningCode":null,"zoningDistrict":null,"jurisdictionPrefix":null,"dorCode":null,"acreage":5.4228,"centroid":[-91.0318,32.530169],"lastSale":{"date":"2006-01-24","price":null,"qualified":null},"tax":{"marketValue":183880.0,"assessedValue":null,"taxableValue":null,"taxes":null},"mailingAddress":{"line1":"18575 HWY 465","line2":null,"city":"VICKSBURG","state":"MS","zip":"39183"},"incomeTract":null,"incomeBlockGroup":null,"nearestRoad":null,"flu":"Agricultural/Vacant","opportunityZone":null,"oz2Eligibility":null,"source":"ms-warren-cmpdd-parcels","appraiserUrl":"https://cmpdd.org/maps/"},"geometry":{"type":"Polygon","coordinates":[[[-91.031537,32.531857],[-91.031876,32.531949],[-91.032315,32.532059],[-91.032319,32.530526],[-91.032025,32.530391],[-91.03203,32.528645],[-91.031608,32.528549],[-91.031526,32.528506],[-91.031538,32.529416],[-91.031485,32.529847],[-91.031542,32.530115],[-91.031537,32.531857]]]}}]}