{"type":"FeatureCollection","name":"orlando-12095-8_5","features":[{"type":"Feature","id":"12095:342407000000008","properties":{"id":"12095:342407000000008","parcelId":"342407000000008","countyFips":"12095","countyName":"Orange","state":"Florida","marketIds":["Orlando"],"situsAddress":"10501 JAMES CREEK RD","situsCity":"UN-INCORPORATED","situsZip":"32709","jurisdictionCode":"ORG","ownerName":"FARMLAND RESERVE INC","ownerName2":null,"propertyName":null,"zoningCode":"ORG-A-2","zoningDistrict":"A-2","jurisdictionPrefix":"ORG","dorCode":"6100","acreage":49.4217,"acreageSource":"ocpa-acreage","centroid":[-80.95206,28.41819],"lastSale":{"date":"2012-06-22","price":345900.0,"qualified":"Q"},"tax":{"marketValue":432992.0,"assessedValue":13732.0,"taxableValue":13732.0,"taxes":219.44},"mailingAddress":{"line1":"PO BOX 3688","line2":null,"city":"SALT LAKE CITY","state":"UT","zip":"84110"},"incomeTract":null,"incomeBlockGroup":null,"nearestRoad":null,"flu":{"code":"R","label":"R","jurisdiction":"ORG","source":"ocfl-agol-21"},"opportunityZone":{"inOpportunityZone":false,"tractGeoid":null,"tractName":null,"source":"hud-fs-13","designatedRural":null},"oz2Eligibility":{"eligible":false,"rural":null,"tractGeoid":null,"tractName":null,"designation":"not-eligible","source":"rev-proc-2026-14"},"appraiserUrl":"https://ocpaweb.ocpafl.org/site/parcelsearch","source":"fl-doh-ehwaters-12095+ocpa","dataGaps":["Municipal FLU besides Orlando still incomplete on the OCPA pilot"]},"geometry":{"type":"Polygon","coordinates":[[[-80.95329,28.41963],[-80.94924,28.41967],[-80.9492,28.41602],[-80.95348,28.416],[-80.95509,28.41963],[-80.95329,28.41963]]]}},{"type":"Feature","id":"12095:342406000000043","properties":{"id":"12095:342406000000043","parcelId":"342406000000043","countyFips":"12095","countyName":"Orange","state":"Florida","marketIds":["Orlando"],"situsAddress":"27102 STATE ROAD 520","situsCity":"UN-INCORPORATED","situsZip":"32709","jurisdictionCode":"ORG","ownerName":"DEERMER RONALD J","ownerName2":"DEERMER PATRICIA J","propertyName":null,"zoningCode":"ORG-A-2","zoningDistrict":"A-2","jurisdictionPrefix":"ORG","dorCode":"0001","acreage":5.008,"acreageSource":"ocpa-acreage","centroid":[-80.960882,28.42764],"lastSale":{"date":"1989-12-06","price":20000.0,"qualified":"Q"},"tax":{"marketValue":85000.0,"assessedValue":53571.0,"taxableValue":53571.0,"taxes":1055.42},"mailingAddress":{"line1":"180 KELLY SPRING RD","line2":null,"city":"HARVEST","state":"AL","zip":"35749"},"incomeTract":null,"incomeBlockGroup":null,"nearestRoad":null,"flu":{"code":"R","label":"R","jurisdiction":"ORG","source":"ocfl-agol-21"},"opportunityZone":{"inOpportunityZone":false,"tractGeoid":null,"tractName":null,"source":"hud-fs-13","designatedRural":null},"oz2Eligibility":{"eligible":false,"rural":null,"tractGeoid":null,"tractName":null,"designation":"not-eligible","source":"rev-proc-2026-14"},"appraiserUrl":"https://ocpaweb.ocpafl.org/site/parcelsearch","source":"fl-doh-ehwaters-12095+ocpa","dataGaps":["Municipal FLU besides Orlando still incomplete on the OCPA pilot"]},"geometry":{"type":"Polygon","coordinates":[[[-80.96153,28.42836],[-80.96079,28.42836],[-80.95968,28.42692],[-80.96153,28.42692],[-80.96153,28.42836]]]}},{"type":"Feature","id":"12095:342428000000001","properties":{"id":"12095:342428000000001","parcelId":"342428000000001","countyFips":"12095","countyName":"Orange","state":"Florida","marketIds":["Orlando"],"situsAddress":"29899 STATE ROAD 520","situsCity":"UN-INCORPORATED","situsZip":"32709","jurisdictionCode":"ORG","ownerName":"FARMLAND RESERVE INC","ownerName2":null,"propertyName":null,"zoningCode":"ORG-A-2","zoningDistrict":"A-2","jurisdictionPrefix":"ORG","dorCode":"6300","acreage":12.3195,"acreageSource":"ocpa-acreage","centroid":[-80.913718,28.379536],"lastSale":{"date":null,"price":null,"qualified":null},"tax":{"marketValue":37366.0,"assessedValue":667.0,"taxableValue":667.0,"taxes":10.66},"mailingAddress":{"line1":"PO BOX 3688","line2":null,"city":"SALT LAKE CITY","state":"UT","zip":"84110"},"incomeTract":null,"incomeBlockGroup":null,"nearestRoad":null,"flu":{"code":"R","label":"R","jurisdiction":"ORG","source":"ocfl-agol-21"},"opportunityZone":{"inOpportunityZone":false,"tractGeoid":null,"tractName":null,"source":"hud-fs-13","designatedRural":null},"oz2Eligibility":{"eligible":false,"rural":null,"tractGeoid":null,"tractName":null,"designation":"not-eligible","source":"rev-proc-2026-14"},"appraiserUrl":"https://ocpaweb.ocpafl.org/site/parcelsearch","source":"fl-doh-ehwaters-12095+ocpa","dataGaps":["Municipal FLU besides Orlando still incomplete on the OCPA pilot"]},"geometry":{"type":"Polygon","coordinates":[[[-80.91553,28.3798],[-80.91489,28.3809],[-80.91191,28.37955],[-80.91191,28.37816],[-80.91435,28.37927],[-80.91553,28.3798]]]}},{"type":"Feature","id":"12095:342406000000038","properties":{"id":"12095:342406000000038","parcelId":"342406000000038","countyFips":"12095","countyName":"Orange","state":"Florida","marketIds":["Orlando"],"situsAddress":"9504 JAMES CREEK RD","situsCity":"UN-INCORPORATED","situsZip":"32709","jurisdictionCode":"ORG","ownerName":"ROESS CLARK F","ownerName2":"ROESS LINDA H","propertyName":null,"zoningCode":"ORG-A-2","zoningDistrict":"A-2","jurisdictionPrefix":"ORG","dorCode":"0103","acreage":5.1087,"acreageSource":"ocpa-acreage","centroid":[-80.96007,28.430348],"lastSale":{"date":null,"price":100.0,"qualified":"Q"},"tax":{"marketValue":308720.0,"assessedValue":141577.0,"taxableValue":116577.0,"taxes":1608.37},"mailingAddress":{"line1":"9504 JAMES CREEK RD","line2":null,"city":"CHRISTMAS","state":"FL","zip":"32709"},"incomeTract":null,"incomeBlockGroup":null,"nearestRoad":null,"flu":{"code":"R","label":"R","jurisdiction":"ORG","source":"ocfl-agol-21"},"opportunityZone":{"inOpportunityZone":false,"tractGeoid":null,"tractName":null,"source":"hud-fs-13","designatedRural":null},"oz2Eligibility":{"eligible":false,"rural":null,"tractGeoid":null,"tractName":null,"designation":"not-eligible","source":"rev-proc-2026-14"},"appraiserUrl":"https://ocpaweb.ocpafl.org/site/parcelsearch","source":"fl-doh-ehwaters-12095+ocpa","dataGaps":["Municipal FLU besides Orlando still incomplete on the OCPA pilot"]},"geometry":{"type":"Polygon","coordinates":[[[-80.96119,28.43001],[-80.96153,28.4304],[-80.96153,28.43057],[-80.95809,28.43066],[-80.95801,28.4301],[-80.96119,28.43001]]]}},{"type":"Feature","id":"12095:342406000000006","properties":{"id":"12095:342406000000006","parcelId":"342406000000006","countyFips":"12095","countyName":"Orange","state":"Florida","marketIds":["Orlando"],"situsAddress":"9522 JAMES CREEK RD","situsCity":"UN-INCORPORATED","situsZip":"32709","jurisdictionCode":"ORG","ownerName":"KIGHT LOTTIE","ownerName2":null,"propertyName":null,"zoningCode":"ORG-A-2","zoningDistrict":"A-2","jurisdictionPrefix":"ORG","dorCode":"0203","acreage":10.986,"acreageSource":"ocpa-acreage","centroid":[-80.958208,28.42828],"lastSale":{"date":null,"price":null,"qualified":null},"tax":{"marketValue":334088.0,"assessedValue":334088.0,"taxableValue":334088.0,"taxes":5338.66},"mailingAddress":{"line1":"9608 JAMES CREEK RD","line2":null,"city":"CHRISTMAS","state":"FL","zip":"32709"},"incomeTract":null,"incomeBlockGroup":null,"nearestRoad":null,"flu":{"code":"R","label":"R","jurisdiction":"ORG","source":"ocfl-agol-21"},"opportunityZone":{"inOpportunityZone":false,"tractGeoid":null,"tractName":null,"source":"hud-fs-13","designatedRural":null},"oz2Eligibility":{"eligible":false,"rural":null,"tractGeoid":null,"tractName":null,"designation":"not-eligible","source":"rev-proc-2026-14"},"appraiserUrl":"https://ocpaweb.ocpafl.org/site/parcelsearch","source":"fl-doh-ehwaters-12095+ocpa","dataGaps":["Municipal FLU besides Orlando still incomplete on the OCPA pilot"]},"geometry":{"type":"Polygon","coordinates":[[[-80.95743,28.42927],[-80.95757,28.4277],[-80.95746,28.42695],[-80.95763,28.42695],[-80.95761,28.42816],[-80.95974,28.42814],[-80.96079,28.42949],[-80.95743,28.42958],[-80.95743,28.42927]]]}},{"type":"Feature","id":"12095:342420000000001","properties":{"id":"12095:342420000000001","parcelId":"342420000000001","countyFips":"12095","countyName":"Orange","state":"Florida","marketIds":["Orlando"],"situsAddress":"28400 STATE ROAD 520","situsCity":"UN-INCORPORATED","situsZip":"32709","jurisdictionCode":"ORG","ownerName":"CITY OF COCOA","ownerName2":null,"propertyName":"C. H. DYAL (COCOA WATER PLANT)","zoningCode":"ORG-A-2","zoningDistrict":"A-2","jurisdictionPrefix":"ORG","dorCode":"8900","acreage":84.7112,"acreageSource":"ocpa-acreage","centroid":[-80.94014,28.3891],"lastSale":{"date":null,"price":null,"qualified":null},"tax":{"marketValue":8033454.0,"assessedValue":8033454.0,"taxableValue":0.0,"taxes":0.0},"mailingAddress":{"line1":"65 STONE ST","line2":null,"city":"COCOA","state":"FL","zip":"32922"},"incomeTract":null,"incomeBlockGroup":null,"nearestRoad":null,"flu":{"code":"R","label":"R","jurisdiction":"ORG","source":"ocfl-agol-21"},"opportunityZone":{"inOpportunityZone":false,"tractGeoid":null,"tractName":null,"source":"hud-fs-13","designatedRural":null},"oz2Eligibility":{"eligible":false,"rural":null,"tractGeoid":null,"tractName":null,"designation":"not-eligible","source":"rev-proc-2026-14"},"appraiserUrl":"https://ocpaweb.ocpafl.org/site/parcelsearch","source":"fl-doh-ehwaters-12095+ocpa","dataGaps":["Municipal FLU besides Orlando still incomplete on the OCPA pilot"]},"geometry":{"type":"Polygon","coordinates":[[[-80.94095,28.39031],[-80.94095,28.39122],[-80.93885,28.38983],[-80.93677,28.3888],[-80.93676,28.38661],[-80.94263,28.38662],[-80.94407,28.39031],[-80.94095,28.39031]]]}},{"type":"Feature","id":"12095:342420000000016","properties":{"id":"12095:342420000000016","parcelId":"342420000000016","countyFips":"12095","countyName":"Orange","state":"Florida","marketIds":["Orlando"],"situsAddress":"13801 TAYLOR CREEK RD","situsCity":"UN-INCORPORATED","situsZip":"32709","jurisdictionCode":"ORG","ownerName":"NOBLES SEREATHA LYNN LIFE ESTATE 1/4 INT","ownerName2":"REM: NEIL L NOBLES","propertyName":null,"zoningCode":"ORG-A-2","zoningDistrict":"A-2","jurisdictionPrefix":"ORG","dorCode":"0103","acreage":41.3555,"acreageSource":"ocpa-acreage","centroid":[-80.938852,28.384785],"lastSale":{"date":null,"price":80000.0,"qualified":"Q"},"tax":{"marketValue":639840.0,"assessedValue":596581.0,"taxableValue":571581.0,"taxes":8879.24},"mailingAddress":{"line1":"1488 TAYLOR CREEK RD","line2":null,"city":"CHRISTMAS","state":"FL","zip":"32709"},"incomeTract":null,"incomeBlockGroup":null,"nearestRoad":null,"flu":{"code":"R","label":"R","jurisdiction":"ORG","source":"ocfl-agol-21"},"opportunityZone":{"inOpportunityZone":false,"tractGeoid":null,"tractName":null,"source":"hud-fs-13","designatedRural":null},"oz2Eligibility":{"eligible":false,"rural":null,"tractGeoid":null,"tractName":null,"designation":"not-eligible","source":"rev-proc-2026-14"},"appraiserUrl":"https://ocpaweb.ocpafl.org/site/parcelsearch","source":"fl-doh-ehwaters-12095+ocpa","dataGaps":["Municipal FLU besides Orlando still incomplete on the OCPA pilot"]},"geometry":{"type":"Polygon","coordinates":[[[-80.93676,28.38661],[-80.93674,28.38296],[-80.94096,28.38295],[-80.94095,28.38662],[-80.93676,28.38661]]]}},{"type":"Feature","id":"12095:342420000000005","properties":{"id":"12095:342420000000005","parcelId":"342420000000005","countyFips":"12095","countyName":"Orange","state":"Florida","marketIds":["Orlando"],"situsAddress":"13850 TAYLOR CREEK RD","situsCity":"UN-INCORPORATED","situsZip":"32709","jurisdictionCode":"ORG","ownerName":"CITY OF COCOA","ownerName2":null,"propertyName":null,"zoningCode":"ORG-A-2","zoningDistrict":"A-2","jurisdictionPrefix":"ORG","dorCode":"8900","acreage":26.8596,"acreageSource":"ocpa-acreage","centroid":[-80.942205,28.38293],"lastSale":{"date":null,"price":null,"qualified":null},"tax":{"marketValue":22013.0,"assessedValue":22013.0,"taxableValue":0.0,"taxes":0.0},"mailingAddress":{"line1":"65 STONE ST","line2":null,"city":"COCOA","state":"FL","zip":"32922"},"incomeTract":null,"incomeBlockGroup":null,"nearestRoad":null,"flu":{"code":"R","label":"R","jurisdiction":"ORG","source":"ocfl-agol-21"},"opportunityZone":{"inOpportunityZone":false,"tractGeoid":null,"tractName":null,"source":"hud-fs-13","designatedRural":null},"oz2Eligibility":{"eligible":false,"rural":null,"tractGeoid":null,"tractName":null,"designation":"not-eligible","source":"rev-proc-2026-14"},"appraiserUrl":"https://ocpaweb.ocpafl.org/site/parcelsearch","source":"fl-doh-ehwaters-12095+ocpa","dataGaps":["Municipal FLU besides Orlando still incomplete on the OCPA pilot"]},"geometry":{"type":"Polygon","coordinates":[[[-80.94418,28.38611],[-80.94285,28.38651],[-80.94023,28.37975],[-80.94156,28.37935],[-80.94418,28.38611]]]}},{"type":"Feature","id":"12095:342418000000014","properties":{"id":"12095:342418000000014","parcelId":"342418000000014","countyFips":"12095","countyName":"Orange","state":"Florida","marketIds":["Orlando"],"situsAddress":"12000 TAYLOR CREEK RD","situsCity":"UN-INCORPORATED","situsZip":"32709","jurisdictionCode":"ORG","ownerName":"FARMLAND RESERVE INC","ownerName2":null,"propertyName":null,"zoningCode":"ORG-A-2","zoningDistrict":"A-2","jurisdictionPrefix":"ORG","dorCode":"6300","acreage":14.0345,"acreageSource":"ocpa-acreage","centroid":[-80.945403,28.395603],"lastSale":{"date":null,"price":null,"qualified":null},"tax":{"marketValue":3938.0,"assessedValue":954.0,"taxableValue":954.0,"taxes":15.24},"mailingAddress":{"line1":"PO BOX 3688","line2":null,"city":"SALT LAKE CITY","state":"UT","zip":"84110"},"incomeTract":null,"incomeBlockGroup":null,"nearestRoad":null,"flu":{"code":"R","label":"R","jurisdiction":"ORG","source":"ocfl-agol-21"},"opportunityZone":{"inOpportunityZone":false,"tractGeoid":null,"tractName":null,"source":"hud-fs-13","designatedRural":null},"oz2Eligibility":{"eligible":false,"rural":null,"tractGeoid":null,"tractName":null,"designation":"not-eligible","source":"rev-proc-2026-14"},"appraiserUrl":"https://ocpaweb.ocpafl.org/site/parcelsearch","source":"fl-doh-ehwaters-12095+ocpa","dataGaps":["Municipal FLU besides Orlando still incomplete on the OCPA pilot"]},"geometry":{"type":"Polygon","coordinates":[[[-80.94802,28.40215],[-80.94554,28.39666],[-80.94479,28.39536],[-80.94381,28.394],[-80.94509,28.39401],[-80.9451,28.39303],[-80.94547,28.39401],[-80.94802,28.40215]]]}},{"type":"Feature","id":"12095:342420000000003","properties":{"id":"12095:342420000000003","parcelId":"342420000000003","countyFips":"12095","countyName":"Orange","state":"Florida","marketIds":["Orlando"],"situsAddress":"28101 STATE ROAD 520","situsCity":"UN-INCORPORATED","situsZip":"32709","jurisdictionCode":"ORG","ownerName":"CITY OF COCOA","ownerName2":null,"propertyName":null,"zoningCode":"ORG-A-2","zoningDistrict":"A-2","jurisdictionPrefix":"ORG","dorCode":"8900","acreage":5.594,"acreageSource":"ocpa-acreage","centroid":[-80.94162,28.39334],"lastSale":{"date":"2009-10-09","price":120700.0,"qualified":"Q"},"tax":{"marketValue":44913.0,"assessedValue":44913.0,"taxableValue":0.0,"taxes":0.0},"mailingAddress":{"line1":"65 STONE ST","line2":null,"city":"COCOA","state":"FL","zip":"32922"},"incomeTract":null,"incomeBlockGroup":null,"nearestRoad":null,"flu":{"code":"R","label":"R","jurisdiction":"ORG","source":"ocfl-agol-21"},"opportunityZone":{"inOpportunityZone":false,"tractGeoid":null,"tractName":null,"source":"hud-fs-13","designatedRural":null},"oz2Eligibility":{"eligible":false,"rural":null,"tractGeoid":null,"tractName":null,"designation":"not-eligible","source":"rev-proc-2026-14"},"appraiserUrl":"https://ocpaweb.ocpafl.org/site/parcelsearch","source":"fl-doh-ehwaters-12095+ocpa","dataGaps":["Municipal FLU besides Orlando still incomplete on the OCPA pilot"]},"geometry":{"type":"Polygon","coordinates":[[[-80.94095,28.39399],[-80.94095,28.39203],[-80.94296,28.394],[-80.94095,28.39399]]]}},{"type":"Feature","id":"12095:342420000000004","properties":{"id":"12095:342420000000004","parcelId":"342420000000004","countyFips":"12095","countyName":"Orange","state":"Florida","marketIds":["Orlando"],"situsAddress":"13079 TAYLOR CREEK RD","situsCity":"UN-INCORPORATED","situsZip":"32709","jurisdictionCode":null,"ownerName":"CITY OF COCOA","ownerName2":null,"propertyName":null,"zoningCode":null,"zoningDistrict":null,"jurisdictionPrefix":null,"dorCode":"080","acreage":8.1213,"acreageSource":"fdor-lnd-sqfoot","centroid":[-80.942598,28.39077],"lastSale":{"date":null,"price":null,"qualified":null},"tax":{"marketValue":39836.0,"assessedValue":39836.0,"taxableValue":0.0,"taxes":null},"mailingAddress":{"line1":"C/O CITY CLERK","line2":"65 STONE ST","city":"COCOA","state":"FLORIDA","zip":"32922"},"incomeTract":null,"incomeBlockGroup":null,"nearestRoad":null,"flu":{"code":"R","label":"R","jurisdiction":"ORG","source":"ocfl-agol-21"},"opportunityZone":{"inOpportunityZone":false,"tractGeoid":null,"tractName":null,"source":"hud-fs-13","designatedRural":null},"oz2Eligibility":{"eligible":false,"rural":null,"tractGeoid":null,"tractName":null,"designation":"not-eligible","source":"rev-proc-2026-14"},"appraiserUrl":"https://ocpaweb.ocpafl.org/site/parcelsearch","source":"fl-doh-ehwaters-12095","dataGaps":["Municipal FLU besides Orlando still incomplete on the OCPA pilot"]},"geometry":{"type":"Polygon","coordinates":[[[-80.94095,28.39122],[-80.94095,28.39031],[-80.94407,28.39031],[-80.94442,28.39124],[-80.94095,28.39122]]]}},{"type":"Feature","id":"12095:342407000000002","properties":{"id":"12095:342407000000002","parcelId":"342407000000002","countyFips":"12095","countyName":"Orange","state":"Florida","marketIds":["Orlando"],"situsAddress":"STATE ROAD 520","situsCity":"UN-INCORPORATED","situsZip":"32709","jurisdictionCode":"ORG","ownerName":"DOT/STATE OF FLORIDA","ownerName2":null,"propertyName":null,"zoningCode":"ORG-A-2","zoningDistrict":"A-2","jurisdictionPrefix":"ORG","dorCode":"8075","acreage":5.2497,"acreageSource":"ocpa-acreage","centroid":[-80.953371,28.409938],"lastSale":{"date":null,"price":null,"qualified":null},"tax":{"marketValue":109.0,"assessedValue":109.0,"taxableValue":0.0,"taxes":0.0},"mailingAddress":{"line1":"719 S WOODLAND BLVD","line2":null,"city":"DELAND","state":"FL","zip":"32720"},"incomeTract":null,"incomeBlockGroup":null,"nearestRoad":null,"flu":{"code":"R","label":"R","jurisdiction":"ORG","source":"ocfl-agol-21"},"opportunityZone":{"inOpportunityZone":false,"tractGeoid":null,"tractName":null,"source":"hud-fs-13","designatedRural":null},"oz2Eligibility":{"eligible":false,"rural":null,"tractGeoid":null,"tractName":null,"designation":"not-eligible","source":"rev-proc-2026-14"},"appraiserUrl":"https://ocpaweb.ocpafl.org/site/parcelsearch","source":"fl-doh-ehwaters-12095+ocpa","dataGaps":["Municipal FLU besides Orlando still incomplete on the OCPA pilot"]},"geometry":{"type":"Polygon","coordinates":[[[-80.95539,28.41045],[-80.95534,28.41063],[-80.95391,28.41032],[-80.95313,28.4106],[-80.95253,28.40927],[-80.95138,28.40967],[-80.95132,28.40954],[-80.95337,28.40881],[-80.95397,28.41015],[-80.95539,28.41045]]]}},{"type":"Feature","id":"12095:342406000000019","properties":{"id":"12095:342406000000019","parcelId":"342406000000019","countyFips":"12095","countyName":"Orange","state":"Florida","marketIds":["Orlando"],"situsAddress":"JAMES CREEK RD","situsCity":"UN-INCORPORATED","situsZip":"32709","jurisdictionCode":"ORG","ownerName":"ERIC EDWARD BREEMEN REVOCABLE TRUST 10/15INT","ownerName2":"FARRELL SHANE JEAN 5/15 INT","propertyName":null,"zoningCode":"ORG-A-2","zoningDistrict":"A-2","jurisdictionPrefix":"ORG","dorCode":"0001","acreage":7.4457,"acreageSource":"ocpa-acreage","centroid":[-80.946035,28.43005],"lastSale":{"date":"1992-03-20","price":29200.0,"qualified":"Q"},"tax":{"marketValue":71000.0,"assessedValue":44213.0,"taxableValue":44213.0,"taxes":876.43},"mailingAddress":{"line1":"5940 GRISSOM PKWY","line2":null,"city":"COCOA","state":"FL","zip":"32927"},"incomeTract":null,"incomeBlockGroup":null,"nearestRoad":null,"flu":{"code":"R","label":"R","jurisdiction":"ORG","source":"ocfl-agol-21"},"opportunityZone":{"inOpportunityZone":false,"tractGeoid":null,"tractName":null,"source":"hud-fs-13","designatedRural":null},"oz2Eligibility":{"eligible":false,"rural":null,"tractGeoid":null,"tractName":null,"designation":"not-eligible","source":"rev-proc-2026-14"},"appraiserUrl":"https://ocpaweb.ocpafl.org/site/parcelsearch","source":"fl-doh-ehwaters-12095+ocpa","dataGaps":["Municipal FLU besides Orlando still incomplete on the OCPA pilot"]},"geometry":{"type":"Polygon","coordinates":[[[-80.94527,28.42915],[-80.94679,28.42912],[-80.9468,28.43095],[-80.94528,28.43098],[-80.94527,28.42915]]]}},{"type":"Feature","id":"12095:332323000000005","properties":{"id":"12095:332323000000005","parcelId":"332323000000005","countyFips":"12095","countyName":"Orange","state":"Florida","marketIds":["Orlando"],"situsAddress":"4833 TAYLOR CREEK RD","situsCity":"UN-INCORPORATED","situsZip":"32709","jurisdictionCode":"ORG","ownerName":"HALSTEAD GEORJEANA LYNN","ownerName2":"HALSTEAD DAVID MICHAEL","propertyName":null,"zoningCode":"ORG-A-2","zoningDistrict":"A-2","jurisdictionPrefix":"ORG","dorCode":"0202","acreage":5.1213,"acreageSource":"ocpa-acreage","centroid":[-80.992733,28.477175],"lastSale":{"date":"1999-06-24","price":51700.0,"qualified":"Q"},"tax":{"marketValue":153460.0,"assessedValue":153460.0,"taxableValue":153460.0,"taxes":2452.27},"mailingAddress":{"line1":"4833 TAYLOR CREEK RD","line2":null,"city":"CHRISTMAS","state":"FL","zip":"32709"},"incomeTract":null,"incomeBlockGroup":null,"nearestRoad":null,"flu":{"code":"R","label":"R","jurisdiction":"ORG","source":"ocfl-agol-21"},"opportunityZone":{"inOpportunityZone":false,"tractGeoid":null,"tractName":null,"source":"hud-fs-13","designatedRural":null},"oz2Eligibility":{"eligible":false,"rural":null,"tractGeoid":null,"tractName":null,"designation":"not-eligible","source":"rev-proc-2026-14"},"appraiserUrl":"https://ocpaweb.ocpafl.org/site/parcelsearch","source":"fl-doh-ehwaters-12095+ocpa","dataGaps":["Municipal FLU besides Orlando still incomplete on the OCPA pilot"]},"geometry":{"type":"Polygon","coordinates":[[[-80.99205,28.47756],[-80.99154,28.47756],[-80.99154,28.47653],[-80.99298,28.47652],[-80.99301,28.47707],[-80.99385,28.47707],[-80.99389,28.47754],[-80.993,28.47755],[-80.99205,28.47756]]]}},{"type":"Feature","id":"12095:332310000000007","properties":{"id":"12095:332310000000007","parcelId":"332310000000007","countyFips":"12095","countyName":"Orange","state":"Florida","marketIds":["Orlando"],"situsAddress":"3364 TAYLOR CREEK RD","situsCity":"UN-INCORPORATED","situsZip":"32709","jurisdictionCode":"ORG","ownerName":"RAMSEY JIMMIE LIFE ESTATE","ownerName2":"REM: JIMMIE RAMSEY REVOCABLE TRUST","propertyName":null,"zoningCode":"ORG-A-2","zoningDistrict":"A-2","jurisdictionPrefix":"ORG","dorCode":"9110","acreage":5.9378,"acreageSource":"ocpa-acreage","centroid":[-80.999287,28.49812],"lastSale":{"date":null,"price":15000.0,"qualified":"Q"},"tax":{"marketValue":582427.0,"assessedValue":302676.0,"taxableValue":277676.0,"taxes":4182.68},"mailingAddress":{"line1":"3364 TAYLOR CREEK RD","line2":null,"city":"CHRISTMAS","state":"FL","zip":"32709"},"incomeTract":null,"incomeBlockGroup":null,"nearestRoad":null,"flu":{"code":"R","label":"R","jurisdiction":"ORG","source":"ocfl-agol-21"},"opportunityZone":{"inOpportunityZone":false,"tractGeoid":null,"tractName":null,"source":"hud-fs-13","designatedRural":null},"oz2Eligibility":{"eligible":false,"rural":null,"tractGeoid":null,"tractName":null,"designation":"not-eligible","source":"rev-proc-2026-14"},"appraiserUrl":"https://ocpaweb.ocpafl.org/site/parcelsearch","source":"fl-doh-ehwaters-12095+ocpa","dataGaps":["Municipal FLU besides Orlando still incomplete on the OCPA pilot"]},"geometry":{"type":"Polygon","coordinates":[[[-80.99994,28.49897],[-80.99918,28.499],[-80.99812,28.49726],[-80.99991,28.49725],[-80.99994,28.49897]]]}},{"type":"Feature","id":"12095:332336000000001","properties":{"id":"12095:332336000000001","parcelId":"332336000000001","countyFips":"12095","countyName":"Orange","state":"Florida","marketIds":["Orlando"],"situsAddress":"STATE ROAD 520","situsCity":"UN-INCORPORATED","situsZip":"32709","jurisdictionCode":"ORG","ownerName":"DOT/STATE OF FLORIDA","ownerName2":null,"propertyName":null,"zoningCode":"ORG-A-2","zoningDistrict":"A-2","jurisdictionPrefix":"ORG","dorCode":"8075","acreage":5.2399,"acreageSource":"ocpa-acreage","centroid":[-80.975593,28.450505],"lastSale":{"date":null,"price":null,"qualified":null},"tax":{"marketValue":109.0,"assessedValue":109.0,"taxableValue":0.0,"taxes":0.0},"mailingAddress":{"line1":"719 S WOODLAND BLVD","line2":null,"city":"DELAND","state":"FL","zip":"32720"},"incomeTract":null,"incomeBlockGroup":null,"nearestRoad":null,"flu":{"code":"R","label":"R","jurisdiction":"ORG","source":"ocfl-agol-21"},"opportunityZone":{"inOpportunityZone":false,"tractGeoid":null,"tractName":null,"source":"hud-fs-13","designatedRural":null},"oz2Eligibility":{"eligible":false,"rural":null,"tractGeoid":null,"tractName":null,"designation":"not-eligible","source":"rev-proc-2026-14"},"appraiserUrl":"https://ocpaweb.ocpafl.org/site/parcelsearch","source":"fl-doh-ehwaters-12095+ocpa","dataGaps":["Municipal FLU besides Orlando still incomplete on the OCPA pilot"]},"geometry":{"type":"Polygon","coordinates":[[[-80.97431,28.45081],[-80.9764,28.44954],[-80.97685,28.45022],[-80.97481,28.45145],[-80.97431,28.45081]]]}},{"type":"Feature","id":"12095:332325000000007","properties":{"id":"12095:332325000000007","parcelId":"332325000000007","countyFips":"12095","countyName":"Orange","state":"Florida","marketIds":["Orlando"],"situsAddress":"26533 YATES RD","situsCity":"UN-INCORPORATED","situsZip":"32709","jurisdictionCode":"ORG","ownerName":"YATES CARSON LYLE SR","ownerName2":null,"propertyName":null,"zoningCode":"ORG-A-2","zoningDistrict":"A-2","jurisdictionPrefix":"ORG","dorCode":"0202","acreage":7.3341,"acreageSource":"ocpa-acreage","centroid":[-80.96663,28.454933],"lastSale":{"date":"1993-07-19","price":14000.0,"qualified":"Q"},"tax":{"marketValue":84790.0,"assessedValue":81192.0,"taxableValue":81192.0,"taxes":1320.26},"mailingAddress":{"line1":"26531 YATES RD","line2":null,"city":"CHRISTMAS","state":"FL","zip":"32709"},"incomeTract":null,"incomeBlockGroup":null,"nearestRoad":null,"flu":{"code":"R","label":"R","jurisdiction":"ORG","source":"ocfl-agol-21"},"opportunityZone":{"inOpportunityZone":false,"tractGeoid":null,"tractName":null,"source":"hud-fs-13","designatedRural":null},"oz2Eligibility":{"eligible":false,"rural":null,"tractGeoid":null,"tractName":null,"designation":"not-eligible","source":"rev-proc-2026-14"},"appraiserUrl":"https://ocpaweb.ocpafl.org/site/parcelsearch","source":"fl-doh-ehwaters-12095+ocpa","dataGaps":["Municipal FLU besides Orlando still incomplete on the OCPA pilot"]},"geometry":{"type":"Polygon","coordinates":[[[-80.96704,28.45672],[-80.96627,28.45673],[-80.96623,28.45314],[-80.96698,28.45314],[-80.96704,28.45672]]]}},{"type":"Feature","id":"12095:332323000000024","properties":{"id":"12095:332323000000024","parcelId":"332323000000024","countyFips":"12095","countyName":"Orange","state":"Florida","marketIds":["Orlando"],"situsAddress":"4904 TAYLOR CREEK RD","situsCity":"UN-INCORPORATED","situsZip":"32709","jurisdictionCode":"ORG","ownerName":"HATMAKER ROBERT P","ownerName2":null,"propertyName":null,"zoningCode":"ORG-A-2","zoningDistrict":"A-2","jurisdictionPrefix":"ORG","dorCode":"0202","acreage":6.2227,"acreageSource":"ocpa-acreage","centroid":[-80.994832,28.476532],"lastSale":{"date":null,"price":null,"qualified":null},"tax":{"marketValue":124200.0,"assessedValue":44465.0,"taxableValue":14465.0,"taxes":231.14},"mailingAddress":{"line1":"PO BOX 8","line2":null,"city":"CHRISTMAS","state":"FL","zip":"32709"},"incomeTract":null,"incomeBlockGroup":null,"nearestRoad":null,"flu":{"code":"R","label":"R","jurisdiction":"ORG","source":"ocfl-agol-21"},"opportunityZone":{"inOpportunityZone":false,"tractGeoid":null,"tractName":null,"source":"hud-fs-13","designatedRural":null},"oz2Eligibility":{"eligible":false,"rural":null,"tractGeoid":null,"tractName":null,"designation":"not-eligible","source":"rev-proc-2026-14"},"appraiserUrl":"https://ocpaweb.ocpafl.org/site/parcelsearch","source":"fl-doh-ehwaters-12095+ocpa","dataGaps":["Municipal FLU besides Orlando still incomplete on the OCPA pilot"]},"geometry":{"type":"Polygon","coordinates":[[[-80.99485,28.47708],[-80.99404,28.47709],[-80.99393,28.47571],[-80.99566,28.4757],[-80.99568,28.47708],[-80.99485,28.47708]]]}},{"type":"Feature","id":"12095:332323000000004","properties":{"id":"12095:332323000000004","parcelId":"332323000000004","countyFips":"12095","countyName":"Orange","state":"Florida","marketIds":["Orlando"],"situsAddress":"4905 TAYLOR CREEK RD","situsCity":"UN-INCORPORATED","situsZip":"32709","jurisdictionCode":"ORG","ownerName":"HANCOCK BEVERLY G","ownerName2":null,"propertyName":null,"zoningCode":"ORG-A-2","zoningDistrict":"A-2","jurisdictionPrefix":"ORG","dorCode":"0001","acreage":10.1128,"acreageSource":"ocpa-acreage","centroid":[-80.992708,28.47584],"lastSale":{"date":"1985-08-01","price":56000.0,"qualified":"Q"},"tax":{"marketValue":88325.0,"assessedValue":88325.0,"taxableValue":88325.0,"taxes":1411.41},"mailingAddress":{"line1":"6321 MOSSY OAK RD","line2":null,"city":"SAINT CLOUD","state":"FL","zip":"34771"},"incomeTract":null,"incomeBlockGroup":null,"nearestRoad":null,"flu":{"code":"R","label":"R","jurisdiction":"ORG","source":"ocfl-agol-21"},"opportunityZone":{"inOpportunityZone":false,"tractGeoid":null,"tractName":null,"source":"hud-fs-13","designatedRural":null},"oz2Eligibility":{"eligible":false,"rural":null,"tractGeoid":null,"tractName":null,"designation":"not-eligible","source":"rev-proc-2026-14"},"appraiserUrl":"https://ocpaweb.ocpafl.org/site/parcelsearch","source":"fl-doh-ehwaters-12095+ocpa","dataGaps":["Municipal FLU besides Orlando still incomplete on the OCPA pilot"]},"geometry":{"type":"Polygon","coordinates":[[[-80.99154,28.47653],[-80.99153,28.47482],[-80.99368,28.47481],[-80.99381,28.47652],[-80.99298,28.47652],[-80.99154,28.47653]]]}},{"type":"Feature","id":"12095:332325000000004","properties":{"id":"12095:332325000000004","parcelId":"332325000000004","countyFips":"12095","countyName":"Orange","state":"Florida","marketIds":["Orlando"],"situsAddress":"26505 YATES RD","situsCity":"UN-INCORPORATED","situsZip":"32709","jurisdictionCode":"ORG","ownerName":"YATES FAMILY TRUST","ownerName2":null,"propertyName":null,"zoningCode":"ORG-A-2","zoningDistrict":"A-2","jurisdictionPrefix":"ORG","dorCode":"0102","acreage":7.0957,"acreageSource":"ocpa-acreage","centroid":[-80.968865,28.454918],"lastSale":{"date":null,"price":null,"qualified":null},"tax":{"marketValue":138400.0,"assessedValue":104084.0,"taxableValue":104084.0,"taxes":1880.9},"mailingAddress":{"line1":"1795 EASTERN AVE","line2":null,"city":"SAINT CLOUD","state":"FL","zip":"34769"},"incomeTract":null,"incomeBlockGroup":null,"nearestRoad":null,"flu":{"code":"R","label":"R","jurisdiction":"ORG","source":"ocfl-agol-21"},"opportunityZone":{"inOpportunityZone":false,"tractGeoid":null,"tractName":null,"source":"hud-fs-13","designatedRural":null},"oz2Eligibility":{"eligible":false,"rural":null,"tractGeoid":null,"tractName":null,"designation":"not-eligible","source":"rev-proc-2026-14"},"appraiserUrl":"https://ocpaweb.ocpafl.org/site/parcelsearch","source":"fl-doh-ehwaters-12095+ocpa","dataGaps":["Municipal FLU besides Orlando still incomplete on the OCPA pilot"]},"geometry":{"type":"Polygon","coordinates":[[[-80.96925,28.4567],[-80.96852,28.45671],[-80.96847,28.45313],[-80.96922,28.45313],[-80.96925,28.4567]]]}},{"type":"Feature","id":"12095:342420000000015","properties":{"id":"12095:342420000000015","parcelId":"342420000000015","countyFips":"12095","countyName":"Orange","state":"Florida","marketIds":["Orlando"],"situsAddress":"13051 TAYLOR CREEK RD","situsCity":"UN-INCORPORATED","situsZip":"32709","jurisdictionCode":null,"ownerName":"CITY OF COCOA","ownerName2":null,"propertyName":null,"zoningCode":null,"zoningDistrict":null,"jurisdictionPrefix":null,"dorCode":"080","acreage":17.7293,"acreageSource":"fdor-lnd-sqfoot","centroid":[-80.94363,28.392663],"lastSale":{"date":null,"price":null,"qualified":null},"tax":{"marketValue":51522.0,"assessedValue":51522.0,"taxableValue":0.0,"taxes":null},"mailingAddress":{"line1":"C/O CITY CLERK","line2":"65 STONE ST","city":"COCOA","state":"FLORIDA","zip":"32922"},"incomeTract":null,"incomeBlockGroup":null,"nearestRoad":null,"flu":{"code":"R","label":"R","jurisdiction":"ORG","source":"ocfl-agol-21"},"opportunityZone":{"inOpportunityZone":false,"tractGeoid":null,"tractName":null,"source":"hud-fs-13","designatedRural":null},"oz2Eligibility":{"eligible":false,"rural":null,"tractGeoid":null,"tractName":null,"designation":"not-eligible","source":"rev-proc-2026-14"},"appraiserUrl":"https://ocpaweb.ocpafl.org/site/parcelsearch","source":"fl-doh-ehwaters-12095","dataGaps":["Municipal FLU besides Orlando still incomplete on the OCPA pilot"]},"geometry":{"type":"Polygon","coordinates":[[[-80.94509,28.39401],[-80.94381,28.394],[-80.94241,28.39248],[-80.94095,28.39122],[-80.94442,28.39124],[-80.9451,28.39303],[-80.94509,28.39401]]]}},{"type":"Feature","id":"12095:332325000000003","properties":{"id":"12095:332325000000003","parcelId":"332325000000003","countyFips":"12095","countyName":"Orange","state":"Florida","marketIds":["Orlando"],"situsAddress":"26419 YATES RD","situsCity":"UN-INCORPORATED","situsZip":"32709","jurisdictionCode":"ORG","ownerName":"SAVAGE FAMILY TRUST","ownerName2":null,"propertyName":null,"zoningCode":"ORG-A-2","zoningDistrict":"A-2","jurisdictionPrefix":"ORG","dorCode":"9110","acreage":7.0838,"acreageSource":"ocpa-acreage","centroid":[-80.969605,28.454912],"lastSale":{"date":null,"price":null,"qualified":null},"tax":{"marketValue":317111.0,"assessedValue":317111.0,"taxableValue":317111.0,"taxes":5067.37},"mailingAddress":{"line1":"PO BOX 22","line2":null,"city":"CHRISTMAS","state":"FL","zip":"32709"},"incomeTract":null,"incomeBlockGroup":null,"nearestRoad":null,"flu":{"code":"R","label":"R","jurisdiction":"ORG","source":"ocfl-agol-21"},"opportunityZone":{"inOpportunityZone":false,"tractGeoid":null,"tractName":null,"source":"hud-fs-13","designatedRural":null},"oz2Eligibility":{"eligible":false,"rural":null,"tractGeoid":null,"tractName":null,"designation":"not-eligible","source":"rev-proc-2026-14"},"appraiserUrl":"https://ocpaweb.ocpafl.org/site/parcelsearch","source":"fl-doh-ehwaters-12095+ocpa","dataGaps":["Municipal FLU besides Orlando still incomplete on the OCPA pilot"]},"geometry":{"type":"Polygon","coordinates":[[[-80.96999,28.45669],[-80.96925,28.4567],[-80.96922,28.45313],[-80.96996,28.45313],[-80.96999,28.45669]]]}},{"type":"Feature","id":"12095:332325000000002","properties":{"id":"12095:332325000000002","parcelId":"332325000000002","countyFips":"12095","countyName":"Orange","state":"Florida","marketIds":["Orlando"],"situsAddress":"26401 YATES RD","situsCity":"UN-INCORPORATED","situsZip":"32709","jurisdictionCode":"ORG","ownerName":"YATES MICHAEL","ownerName2":null,"propertyName":null,"zoningCode":"ORG-A-2","zoningDistrict":"A-2","jurisdictionPrefix":"ORG","dorCode":"6100","acreage":7.0731,"acreageSource":"ocpa-acreage","centroid":[-80.970345,28.454905],"lastSale":{"date":null,"price":null,"qualified":null},"tax":{"marketValue":79384.0,"assessedValue":1980.0,"taxableValue":1980.0,"taxes":31.64},"mailingAddress":{"line1":"919 COLUMBIA ST","line2":null,"city":"ORLANDO","state":"FL","zip":"32805"},"incomeTract":null,"incomeBlockGroup":null,"nearestRoad":null,"flu":{"code":"R","label":"R","jurisdiction":"ORG","source":"ocfl-agol-21"},"opportunityZone":{"inOpportunityZone":false,"tractGeoid":null,"tractName":null,"source":"hud-fs-13","designatedRural":null},"oz2Eligibility":{"eligible":false,"rural":null,"tractGeoid":null,"tractName":null,"designation":"not-eligible","source":"rev-proc-2026-14"},"appraiserUrl":"https://ocpaweb.ocpafl.org/site/parcelsearch","source":"fl-doh-ehwaters-12095+ocpa","dataGaps":["Municipal FLU besides Orlando still incomplete on the OCPA pilot"]},"geometry":{"type":"Polygon","coordinates":[[[-80.97073,28.45668],[-80.96999,28.45669],[-80.96996,28.45313],[-80.9707,28.45312],[-80.97073,28.45668]]]}},{"type":"Feature","id":"12095:342421000000002","properties":{"id":"12095:342421000000002","parcelId":"342421000000002","countyFips":"12095","countyName":"Orange","state":"Florida","marketIds":["Orlando"],"situsAddress":"29855 STATE ROAD 520","situsCity":"UN-INCORPORATED","situsZip":"32709","jurisdictionCode":"ORG","ownerName":"FLORIDA POWER AND LIGHT CO","ownerName2":null,"propertyName":"FLORIDA POWER & LIGHT CO","zoningCode":"ORG-A-2","zoningDistrict":"A-2","jurisdictionPrefix":"ORG","dorCode":"9100","acreage":109.9376,"acreageSource":"ocpa-acreage","centroid":[-80.915504,28.382423],"lastSale":{"date":"1981-12-01","price":105000.0,"qualified":"Q"},"tax":{"marketValue":723271.0,"assessedValue":723271.0,"taxableValue":723271.0,"taxes":11557.72},"mailingAddress":{"line1":"700 UNIVERSE BLVD","line2":null,"city":"JUNO BEACH","state":"FL","zip":"33408"},"incomeTract":null,"incomeBlockGroup":null,"nearestRoad":null,"flu":{"code":"R","label":"R","jurisdiction":"ORG","source":"ocfl-agol-21"},"opportunityZone":{"inOpportunityZone":false,"tractGeoid":null,"tractName":null,"source":"hud-fs-13","designatedRural":null},"oz2Eligibility":{"eligible":false,"rural":null,"tractGeoid":null,"tractName":null,"designation":"not-eligible","source":"rev-proc-2026-14"},"appraiserUrl":"https://ocpaweb.ocpafl.org/site/parcelsearch","source":"fl-doh-ehwaters-12095+ocpa","dataGaps":["Municipal FLU besides Orlando still incomplete on the OCPA pilot"]},"geometry":{"type":"Polygon","coordinates":[[[-80.91637,28.38842],[-80.9119,28.3854],[-80.91191,28.37955],[-80.91489,28.3809],[-80.91553,28.3798],[-80.91733,28.38064],[-80.9168,28.38177],[-80.9193,28.3829],[-80.91637,28.38842]]]}},{"type":"Feature","id":"12095:342421000000003","properties":{"id":"12095:342421000000003","parcelId":"342421000000003","countyFips":"12095","countyName":"Orange","state":"Florida","marketIds":["Orlando"],"situsAddress":"STATE ROAD 520","situsCity":"UN-INCORPORATED","situsZip":"32709","jurisdictionCode":"ORG","ownerName":"DOT/STATE OF FLORIDA","ownerName2":null,"propertyName":null,"zoningCode":"ORG-A-2","zoningDistrict":"A-2","jurisdictionPrefix":"ORG","dorCode":"8075","acreage":5.5785,"acreageSource":"ocpa-acreage","centroid":[-80.928158,28.38616],"lastSale":{"date":null,"price":null,"qualified":null},"tax":{"marketValue":109.0,"assessedValue":109.0,"taxableValue":0.0,"taxes":0.0},"mailingAddress":{"line1":"719 S WOODLAND BLVD","line2":null,"city":"DELAND","state":"FL","zip":"32720"},"incomeTract":null,"incomeBlockGroup":null,"nearestRoad":null,"flu":{"code":"R","label":"R","jurisdiction":"ORG","source":"ocfl-agol-21"},"opportunityZone":{"inOpportunityZone":false,"tractGeoid":null,"tractName":null,"source":"hud-fs-13","designatedRural":null},"oz2Eligibility":{"eligible":false,"rural":null,"tractGeoid":null,"tractName":null,"designation":"not-eligible","source":"rev-proc-2026-14"},"appraiserUrl":"https://ocpaweb.ocpafl.org/site/parcelsearch","source":"fl-doh-ehwaters-12095+ocpa","dataGaps":["Municipal FLU besides Orlando still incomplete on the OCPA pilot"]},"geometry":{"type":"Polygon","coordinates":[[[-80.92868,28.38691],[-80.92678,28.38606],[-80.92728,28.3852],[-80.92919,28.38603],[-80.92886,28.3866],[-80.92868,28.38691]]]}},{"type":"Feature","id":"12095:342406000000046","properties":{"id":"12095:342406000000046","parcelId":"342406000000046","countyFips":"12095","countyName":"Orange","state":"Florida","marketIds":["Orlando"],"situsAddress":"9514 JAMES CREEK RD","situsCity":"UN-INCORPORATED","situsZip":"32709","jurisdictionCode":"ORG","ownerName":"BELCHER JASON D","ownerName2":"BELCHER KELLY A","propertyName":null,"zoningCode":"ORG-A-2","zoningDistrict":"A-2","jurisdictionPrefix":"ORG","dorCode":"0203","acreage":5.9889,"acreageSource":"ocpa-acreage","centroid":[-80.958626,28.430169],"lastSale":{"date":null,"price":null,"qualified":null},"tax":{"marketValue":421880.0,"assessedValue":285858.0,"taxableValue":260858.0,"taxes":3913.95},"mailingAddress":{"line1":"9514 JAMES CREEK RD","line2":null,"city":"CHRISTMAS","state":"FL","zip":"32709"},"incomeTract":null,"incomeBlockGroup":null,"nearestRoad":null,"flu":{"code":"R","label":"R","jurisdiction":"ORG","source":"ocfl-agol-21"},"opportunityZone":{"inOpportunityZone":false,"tractGeoid":null,"tractName":null,"source":"hud-fs-13","designatedRural":null},"oz2Eligibility":{"eligible":false,"rural":null,"tractGeoid":null,"tractName":null,"designation":"not-eligible","source":"rev-proc-2026-14"},"appraiserUrl":"https://ocpaweb.ocpafl.org/site/parcelsearch","source":"fl-doh-ehwaters-12095+ocpa","dataGaps":["Municipal FLU besides Orlando still incomplete on the OCPA pilot"]},"geometry":{"type":"Polygon","coordinates":[[[-80.95743,28.43067],[-80.95743,28.42958],[-80.96079,28.42949],[-80.96119,28.43001],[-80.95801,28.4301],[-80.95809,28.43066],[-80.95744,28.43067],[-80.95743,28.43067]]]}},{"type":"Feature","id":"12095:342406000000036","properties":{"id":"12095:342406000000036","parcelId":"342406000000036","countyFips":"12095","countyName":"Orange","state":"Florida","marketIds":["Orlando"],"situsAddress":"9779 JAMES CREEK RD","situsCity":"UN-INCORPORATED","situsZip":"32709","jurisdictionCode":"ORG","ownerName":"PAULSGROVE DAVID ALAN","ownerName2":"PAULSGROVE ELIZABETH RENEE","propertyName":null,"zoningCode":"ORG-A-2","zoningDistrict":"A-2","jurisdictionPrefix":"ORG","dorCode":"6100","acreage":9.99,"acreageSource":"ocpa-acreage","centroid":[-80.953845,28.42609],"lastSale":{"date":"2022-02-14","price":275000.0,"qualified":"Q"},"tax":{"marketValue":716545.0,"assessedValue":671540.0,"taxableValue":646540.0,"taxes":10077.06},"mailingAddress":{"line1":"9779 JAMES CREEK RD","line2":null,"city":"CHRISTMAS","state":"FL","zip":"32709"},"incomeTract":null,"incomeBlockGroup":null,"nearestRoad":null,"flu":{"code":"R","label":"R","jurisdiction":"ORG","source":"ocfl-agol-21"},"opportunityZone":{"inOpportunityZone":false,"tractGeoid":null,"tractName":null,"source":"hud-fs-13","designatedRural":null},"oz2Eligibility":{"eligible":false,"rural":null,"tractGeoid":null,"tractName":null,"designation":"not-eligible","source":"rev-proc-2026-14"},"appraiserUrl":"https://ocpaweb.ocpafl.org/site/parcelsearch","source":"fl-doh-ehwaters-12095+ocpa","dataGaps":["Municipal FLU besides Orlando still incomplete on the OCPA pilot"]},"geometry":{"type":"Polygon","coordinates":[[[-80.95435,28.42514],[-80.95435,28.42701],[-80.95334,28.42704],[-80.95334,28.42517],[-80.95435,28.42514]]]}}]}