{"type":"FeatureCollection","name":"01037--15_24","features":[{"type":"Feature","id":"01037:0504190000001000","properties":{"id":"01037:0504190000001000","parcelId":"0504190000001000","countyFips":"01037","countyName":"Coosa","state":"Alabama","marketIds":["Montgomery"],"situsAddress":null,"situsCity":null,"situsZip":null,"jurisdictionCode":null,"ownerName":null,"ownerName2":null,"propertyName":null,"zoningCode":null,"zoningDistrict":null,"jurisdictionPrefix":null,"dorCode":null,"acreage":23.5419,"centroid":[-86.514103,33.055031],"lastSale":{"date":null,"price":null,"qualified":null},"tax":{"marketValue":null,"assessedValue":null,"taxableValue":null,"taxes":null},"mailingAddress":{"line1":null,"line2":null,"city":null,"state":null,"zip":null},"incomeTract":null,"incomeBlockGroup":null,"nearestRoad":null,"flu":null,"opportunityZone":null,"oz2Eligibility":null,"source":"al-coosa-parcels-01037","appraiserUrl":"https://coosa.capturecama.com/mapparceldetail/0504190000001000","gisViewerUrl":"https://coosa.capturecama.com/parcelviewer/"},"geometry":{"type":"Polygon","coordinates":[[[-86.513941,33.054957],[-86.513832,33.055228],[-86.512762,33.056508],[-86.51274,33.056632],[-86.513087,33.056962],[-86.513326,33.056975],[-86.515881,33.055058],[-86.516273,33.055076],[-86.516656,33.055821],[-86.516518,33.056165],[-86.512986,33.058067],[-86.512581,33.058427],[-86.512582,33.05872],[-86.51319,33.058713],[-86.513382,33.058474],[-86.513475,33.058423],[-86.513761,33.058299],[-86.514,33.058229],[-86.514449,33.05803],[-86.514539,33.057963],[-86.514707,33.057659],[-86.514785,33.057625],[-86.514843,33.057633],[-86.515015,33.057603],[-86.51516,33.05753],[-86.515299,33.05737],[-86.515583,33.057192],[-86.515792,33.057212],[-86.515991,33.057281],[-86.516056,33.05728],[-86.516266,33.057151],[-86.516431,33.057084],[-86.516717,33.057016],[-86.516831,33.056923],[-86.516827,33.056798],[-86.516856,33.056652],[-86.517183,33.056296],[-86.517239,33.05614],[-86.517251,33.055902],[-86.517212,33.055428],[-86.51716,33.055247],[-86.516987,33.055024],[-86.516883,33.054842],[-86.516602,33.054682],[-86.516369,33.054634],[-86.51613,33.054649],[-86.515997,33.05469],[-86.515844,33.054772],[-86.515694,33.05487],[-86.515341,33.055183],[-86.514743,33.05559],[-86.514479,33.055726],[-86.514007,33.056092],[-86.513868,33.056103],[-86.513861,33.056037],[-86.513919,33.055869],[-86.513993,33.055765],[-86.514807,33.05524],[-86.514905,33.055137],[-86.514949,33.055021],[-86.514846,33.054916],[-86.514637,33.054924],[-86.514414,33.054976],[-86.514219,33.054958],[-86.514207,33.054944],[-86.514245,33.054892],[-86.514321,33.054851],[-86.514388,33.054783],[-86.514409,33.054667],[-86.514405,33.054542],[-86.514431,33.054483],[-86.514538,33.054481],[-86.514829,33.05462],[-86.515081,33.054647],[-86.515281,33.05464],[-86.515563,33.054576],[-86.515655,33.05449],[-86.515678,33.054416],[-86.515649,33.054283],[-86.515265,33.053861],[-86.515212,33.053774],[-86.515094,33.053435],[-86.514813,33.053071],[-86.514565,33.052836],[-86.514289,33.052679],[-86.51414,33.052628],[-86.514101,33.05244],[-86.513902,33.052304],[-86.513688,33.052308],[-86.513553,33.052334],[-86.512951,33.052513],[-86.512793,33.052491],[-86.512509,33.052547],[-86.51221,33.052668],[-86.51192,33.052818],[-86.511933,33.053195],[-86.511989,33.053163],[-86.513416,33.05278],[-86.513558,33.052811],[-86.514822,33.05376],[-86.514822,33.053839],[-86.514555,33.054185],[-86.514411,33.054183],[-86.514163,33.054405],[-86.513941,33.054957]]]}},{"type":"Feature","id":"01037:0504190000007001","properties":{"id":"01037:0504190000007001","parcelId":"0504190000007001","countyFips":"01037","countyName":"Coosa","state":"Alabama","marketIds":["Montgomery"],"situsAddress":null,"situsCity":null,"situsZip":null,"jurisdictionCode":null,"ownerName":null,"ownerName2":null,"propertyName":null,"zoningCode":null,"zoningDistrict":null,"jurisdictionPrefix":null,"dorCode":null,"acreage":20.4041,"centroid":[-86.514327,33.056842],"lastSale":{"date":null,"price":null,"qualified":null},"tax":{"marketValue":null,"assessedValue":null,"taxableValue":null,"taxes":null},"mailingAddress":{"line1":null,"line2":null,"city":null,"state":null,"zip":null},"incomeTract":null,"incomeBlockGroup":null,"nearestRoad":null,"flu":null,"opportunityZone":null,"oz2Eligibility":null,"source":"al-coosa-parcels-01037","appraiserUrl":"https://coosa.capturecama.com/mapparceldetail/0504190000007001","gisViewerUrl":"https://coosa.capturecama.com/parcelviewer/"},"geometry":{"type":"Polygon","coordinates":[[[-86.511998,33.055],[-86.512127,33.058578],[-86.512133,33.058726],[-86.512582,33.05872],[-86.512581,33.058427],[-86.512986,33.058067],[-86.516518,33.056165],[-86.516656,33.055821],[-86.516273,33.055076],[-86.515881,33.055058],[-86.513326,33.056975],[-86.513087,33.056962],[-86.51274,33.056632],[-86.512762,33.056508],[-86.513832,33.055228],[-86.513941,33.054957],[-86.511998,33.055]]]}},{"type":"Feature","id":"01037:0509320000004000","properties":{"id":"01037:0509320000004000","parcelId":"0509320000004000","countyFips":"01037","countyName":"Coosa","state":"Alabama","marketIds":["Montgomery"],"situsAddress":null,"situsCity":null,"situsZip":null,"jurisdictionCode":null,"ownerName":null,"ownerName2":null,"propertyName":null,"zoningCode":null,"zoningDistrict":null,"jurisdictionPrefix":null,"dorCode":null,"acreage":23.6107,"centroid":[-86.5067,33.019359],"lastSale":{"date":null,"price":null,"qualified":null},"tax":{"marketValue":null,"assessedValue":null,"taxableValue":null,"taxes":null},"mailingAddress":{"line1":null,"line2":null,"city":null,"state":null,"zip":null},"incomeTract":null,"incomeBlockGroup":null,"nearestRoad":null,"flu":null,"opportunityZone":null,"oz2Eligibility":null,"source":"al-coosa-parcels-01037","appraiserUrl":"https://coosa.capturecama.com/mapparceldetail/0509320000004000","gisViewerUrl":"https://coosa.capturecama.com/parcelviewer/"},"geometry":{"type":"Polygon","coordinates":[[[-86.510593,33.01639],[-86.510294,33.016466],[-86.510281,33.016534],[-86.509929,33.017287],[-86.509948,33.017374],[-86.51034,33.01792],[-86.510301,33.017976],[-86.509933,33.018312],[-86.509934,33.018355],[-86.510064,33.018466],[-86.510415,33.018429],[-86.510571,33.018754],[-86.510522,33.018933],[-86.509956,33.019087],[-86.509841,33.01907],[-86.509696,33.018901],[-86.506698,33.018035],[-86.506612,33.018029],[-86.506452,33.018167],[-86.506431,33.018234],[-86.506565,33.018561],[-86.507192,33.01892],[-86.507197,33.018964],[-86.507159,33.019101],[-86.507104,33.019131],[-86.505936,33.019122],[-86.505526,33.018902],[-86.505487,33.018785],[-86.505485,33.018655],[-86.505456,33.018618],[-86.50468,33.018153],[-86.504297,33.018115],[-86.503485,33.017969],[-86.502977,33.01814],[-86.502668,33.018508],[-86.502669,33.018608],[-86.502892,33.018895],[-86.50426,33.018878],[-86.504466,33.018919],[-86.504656,33.019089],[-86.504637,33.019231],[-86.504355,33.019764],[-86.504373,33.019895],[-86.504566,33.019947],[-86.50507,33.019957],[-86.505161,33.020018],[-86.505382,33.020315],[-86.505476,33.020299],[-86.506003,33.020048],[-86.5065,33.020033],[-86.506813,33.019922],[-86.507377,33.020046],[-86.50752,33.020236],[-86.507667,33.020663],[-86.507633,33.020794],[-86.507162,33.021698],[-86.506899,33.022077],[-86.506929,33.022199],[-86.507157,33.022328],[-86.507361,33.022313],[-86.507982,33.022038],[-86.5088,33.02074],[-86.509032,33.020599],[-86.510066,33.0204],[-86.510732,33.020195],[-86.510716,33.019769],[-86.51039,33.019853],[-86.510211,33.019997],[-86.510129,33.020197],[-86.510084,33.020211],[-86.510042,33.020143],[-86.509991,33.020108],[-86.509916,33.0201],[-86.509814,33.020116],[-86.509746,33.020174],[-86.509701,33.020258],[-86.509634,33.020322],[-86.509599,33.020266],[-86.509554,33.020243],[-86.509488,33.020243],[-86.508819,33.02032],[-86.508655,33.020382],[-86.508354,33.02075],[-86.508224,33.020947],[-86.508227,33.021079],[-86.508196,33.021213],[-86.508072,33.021364],[-86.508034,33.021584],[-86.507812,33.021729],[-86.507467,33.02203],[-86.507308,33.022136],[-86.50727,33.022046],[-86.507282,33.021931],[-86.507804,33.021345],[-86.507864,33.021216],[-86.507969,33.020773],[-86.508081,33.020568],[-86.508111,33.020448],[-86.508113,33.02012],[-86.50809,33.020068],[-86.50805,33.020054],[-86.50781,33.020149],[-86.507772,33.020133],[-86.507769,33.020103],[-86.507863,33.01998],[-86.507869,33.019893],[-86.507831,33.01983],[-86.507624,33.019754],[-86.507378,33.019694],[-86.507063,33.019691],[-86.506706,33.019714],[-86.506555,33.019703],[-86.506488,33.019723],[-86.506432,33.019801],[-86.506358,33.019831],[-86.506312,33.019749],[-86.506239,33.019723],[-86.50584,33.019761],[-86.505781,33.01979],[-86.505515,33.019765],[-86.505444,33.019775],[-86.505357,33.01969],[-86.505297,33.019576],[-86.505126,33.019405],[-86.50508,33.019318],[-86.505118,33.019228],[-86.505096,33.019141],[-86.504886,33.018858],[-86.504749,33.018764],[-86.504487,33.018642],[-86.504095,33.018548],[-86.503964,33.018557],[-86.503714,33.018655],[-86.503709,33.018608],[-86.503833,33.018543],[-86.503997,33.0184],[-86.504044,33.018387],[-86.50459,33.01846],[-86.50481,33.018514],[-86.505064,33.018649],[-86.505196,33.018759],[-86.505286,33.018896],[-86.505369,33.019284],[-86.505414,33.019357],[-86.505635,33.019443],[-86.505902,33.01944],[-86.506216,33.019474],[-86.506401,33.019446],[-86.506728,33.01936],[-86.507279,33.019316],[-86.507513,33.019332],[-86.508078,33.019504],[-86.508783,33.019778],[-86.50889,33.019811],[-86.508965,33.019806],[-86.508986,33.019751],[-86.508948,33.019681],[-86.508498,33.019372],[-86.508274,33.019237],[-86.508079,33.019138],[-86.507867,33.019064],[-86.507645,33.018938],[-86.506868,33.018474],[-86.506732,33.018374],[-86.506633,33.018267],[-86.506676,33.018233],[-86.507143,33.018482],[-86.508538,33.01894],[-86.509134,33.019164],[-86.509297,33.019237],[-86.50939,33.019344],[-86.509519,33.019411],[-86.509768,33.019387],[-86.510026,33.019271],[-86.510496,33.019156],[-86.510691,33.019083],[-86.510659,33.018191],[-86.510379,33.018239],[-86.510359,33.018196],[-86.510519,33.017984],[-86.510554,33.017875],[-86.510538,33.017796],[-86.510424,33.017549],[-86.510251,33.01746],[-86.510225,33.017397],[-86.510348,33.0173],[-86.510386,33.017223],[-86.510398,33.017147],[-86.510465,33.017117],[-86.510501,33.01714],[-86.510631,33.017424],[-86.510593,33.01639]]]}},{"type":"Feature","id":"01037:0509310000003000","properties":{"id":"01037:0509310000003000","parcelId":"0509310000003000","countyFips":"01037","countyName":"Coosa","state":"Alabama","marketIds":["Montgomery"],"situsAddress":null,"situsCity":null,"situsZip":null,"jurisdictionCode":null,"ownerName":null,"ownerName2":null,"propertyName":null,"zoningCode":null,"zoningDistrict":null,"jurisdictionPrefix":null,"dorCode":null,"acreage":9.8009,"centroid":[-86.512356,33.021086],"lastSale":{"date":null,"price":null,"qualified":null},"tax":{"marketValue":null,"assessedValue":null,"taxableValue":null,"taxes":null},"mailingAddress":{"line1":null,"line2":null,"city":null,"state":null,"zip":null},"incomeTract":null,"incomeBlockGroup":null,"nearestRoad":null,"flu":null,"opportunityZone":null,"oz2Eligibility":null,"source":"al-coosa-parcels-01037","appraiserUrl":"https://coosa.capturecama.com/mapparceldetail/0509310000003000","gisViewerUrl":"https://coosa.capturecama.com/parcelviewer/"},"geometry":{"type":"Polygon","coordinates":[[[-86.510732,33.020195],[-86.510811,33.022346],[-86.512611,33.022318],[-86.512656,33.022293],[-86.512829,33.021976],[-86.512842,33.021884],[-86.51266,33.021488],[-86.512626,33.021374],[-86.512659,33.021304],[-86.513347,33.020703],[-86.513375,33.020535],[-86.513298,33.020465],[-86.51315,33.0205],[-86.511993,33.021206],[-86.511877,33.021224],[-86.511656,33.020988],[-86.511911,33.020063],[-86.511933,33.019903],[-86.511806,33.019864],[-86.510732,33.020195]]]}},{"type":"Feature","id":"01037:0504170000004000","properties":{"id":"01037:0504170000004000","parcelId":"0504170000004000","countyFips":"01037","countyName":"Coosa","state":"Alabama","marketIds":["Montgomery"],"situsAddress":null,"situsCity":null,"situsZip":null,"jurisdictionCode":null,"ownerName":null,"ownerName2":null,"propertyName":null,"zoningCode":null,"zoningDistrict":null,"jurisdictionPrefix":null,"dorCode":null,"acreage":24.3879,"centroid":[-86.505995,33.060228],"lastSale":{"date":null,"price":null,"qualified":null},"tax":{"marketValue":null,"assessedValue":null,"taxableValue":null,"taxes":null},"mailingAddress":{"line1":null,"line2":null,"city":null,"state":null,"zip":null},"incomeTract":null,"incomeBlockGroup":null,"nearestRoad":null,"flu":null,"opportunityZone":null,"oz2Eligibility":null,"source":"al-coosa-parcels-01037","appraiserUrl":"https://coosa.capturecama.com/mapparceldetail/0504170000004000","gisViewerUrl":"https://coosa.capturecama.com/parcelviewer/"},"geometry":{"type":"Polygon","coordinates":[[[-86.503512,33.060913],[-86.503876,33.060899],[-86.504973,33.06096],[-86.505168,33.060733],[-86.505044,33.06017],[-86.505259,33.059997],[-86.505324,33.059985],[-86.505805,33.060173],[-86.506696,33.060872],[-86.507293,33.060927],[-86.507482,33.060874],[-86.508886,33.059782],[-86.508866,33.059565],[-86.508297,33.058761],[-86.503442,33.058805],[-86.503512,33.060913]]]}},{"type":"Feature","id":"01037:0509300000003000","properties":{"id":"01037:0509300000003000","parcelId":"0509300000003000","countyFips":"01037","countyName":"Coosa","state":"Alabama","marketIds":["Montgomery"],"situsAddress":null,"situsCity":null,"situsZip":null,"jurisdictionCode":null,"ownerName":null,"ownerName2":null,"propertyName":null,"zoningCode":null,"zoningDistrict":null,"jurisdictionPrefix":null,"dorCode":null,"acreage":24.6781,"centroid":[-86.512514,33.035075],"lastSale":{"date":null,"price":null,"qualified":null},"tax":{"marketValue":null,"assessedValue":null,"taxableValue":null,"taxes":null},"mailingAddress":{"line1":null,"line2":null,"city":null,"state":null,"zip":null},"incomeTract":null,"incomeBlockGroup":null,"nearestRoad":null,"flu":null,"opportunityZone":null,"oz2Eligibility":null,"source":"al-coosa-parcels-01037","appraiserUrl":"https://coosa.capturecama.com/mapparceldetail/0509300000003000","gisViewerUrl":"https://coosa.capturecama.com/parcelviewer/"},"geometry":{"type":"Polygon","coordinates":[[[-86.511348,33.037068],[-86.511464,33.03712],[-86.511691,33.037194],[-86.511796,33.037179],[-86.511851,33.03714],[-86.511914,33.037037],[-86.511941,33.036926],[-86.511992,33.036831],[-86.512033,33.036802],[-86.512108,33.03682],[-86.512145,33.037045],[-86.512188,33.037182],[-86.512258,33.037281],[-86.512599,33.037523],[-86.512857,33.037767],[-86.512915,33.037777],[-86.512981,33.037757],[-86.513043,33.037701],[-86.513072,33.037608],[-86.513055,33.037504],[-86.512955,33.037193],[-86.512963,33.037154],[-86.513081,33.03714],[-86.513127,33.03709],[-86.51318,33.036912],[-86.513228,33.036427],[-86.513212,33.036275],[-86.513092,33.036027],[-86.513055,33.035882],[-86.513169,33.035821],[-86.51323,33.035761],[-86.513269,33.035562],[-86.513337,33.035366],[-86.51334,33.035272],[-86.513318,33.035193],[-86.513268,33.03514],[-86.513195,33.0351],[-86.513085,33.035075],[-86.513045,33.035036],[-86.513048,33.034978],[-86.513101,33.034921],[-86.51344,33.034808],[-86.513472,33.034737],[-86.513473,33.034216],[-86.513404,33.033897],[-86.513332,33.033709],[-86.513119,33.033315],[-86.512879,33.032786],[-86.51274,33.032613],[-86.512333,33.032391],[-86.512292,33.032328],[-86.512317,33.032092],[-86.512292,33.032047],[-86.512209,33.032004],[-86.512105,33.032008],[-86.511788,33.032087],[-86.511701,33.032149],[-86.511639,33.032236],[-86.511605,33.032375],[-86.511566,33.032437],[-86.511511,33.032465],[-86.51139,33.032385],[-86.511332,33.03237],[-86.511276,33.032385],[-86.511244,33.032429],[-86.511236,33.032555],[-86.511185,33.032609],[-86.511348,33.037068]]]}},{"type":"Feature","id":"01037:0503080000003000","properties":{"id":"01037:0503080000003000","parcelId":"0503080000003000","countyFips":"01037","countyName":"Coosa","state":"Alabama","marketIds":["Montgomery"],"situsAddress":null,"situsCity":null,"situsZip":null,"jurisdictionCode":null,"ownerName":null,"ownerName2":null,"propertyName":null,"zoningCode":null,"zoningDistrict":null,"jurisdictionPrefix":null,"dorCode":null,"acreage":69.866,"centroid":[-86.506722,33.081525],"lastSale":{"date":null,"price":null,"qualified":null},"tax":{"marketValue":null,"assessedValue":null,"taxableValue":null,"taxes":null},"mailingAddress":{"line1":null,"line2":null,"city":null,"state":null,"zip":null},"incomeTract":null,"incomeBlockGroup":null,"nearestRoad":null,"flu":null,"opportunityZone":null,"oz2Eligibility":null,"source":"al-coosa-parcels-01037","appraiserUrl":"https://coosa.capturecama.com/mapparceldetail/0503080000003000","gisViewerUrl":"https://coosa.capturecama.com/parcelviewer/"},"geometry":{"type":"MultiPolygon","coordinates":[[[[-86.504155,33.080787],[-86.504193,33.084385],[-86.508499,33.084358],[-86.508511,33.085922],[-86.507878,33.086218],[-86.507826,33.08626],[-86.507778,33.08656],[-86.507818,33.086618],[-86.508357,33.086871],[-86.508429,33.086885],[-86.508612,33.08725],[-86.508597,33.087276],[-86.508392,33.087239],[-86.508351,33.08725],[-86.508106,33.087517],[-86.507999,33.087508],[-86.507861,33.087378],[-86.507797,33.087384],[-86.507241,33.088058],[-86.507444,33.088057],[-86.507452,33.08802],[-86.50772,33.087865],[-86.507936,33.087676],[-86.507998,33.087699],[-86.507992,33.087817],[-86.508123,33.08792],[-86.508316,33.08789],[-86.508494,33.087833],[-86.508693,33.087685],[-86.50882,33.087525],[-86.508889,33.087361],[-86.508889,33.087204],[-86.508826,33.086937],[-86.508677,33.086708],[-86.508629,33.086663],[-86.50825,33.086527],[-86.508074,33.086401],[-86.508128,33.08634],[-86.508217,33.086314],[-86.508723,33.086217],[-86.509082,33.086126],[-86.509186,33.086069],[-86.509263,33.08599],[-86.509305,33.085903],[-86.509297,33.085803],[-86.509234,33.085732],[-86.509058,33.085631],[-86.509037,33.085551],[-86.509056,33.085443],[-86.509129,33.085345],[-86.509603,33.085132],[-86.509673,33.085021],[-86.509777,33.084591],[-86.509852,33.084415],[-86.509893,33.08424],[-86.509905,33.084032],[-86.509831,33.08343],[-86.509728,33.083314],[-86.509463,33.083415],[-86.509295,33.083437],[-86.509014,33.083522],[-86.508929,33.083522],[-86.508926,33.083468],[-86.509038,33.083341],[-86.509221,33.08322],[-86.509338,33.083093],[-86.509498,33.082842],[-86.509518,33.082747],[-86.50951,33.082651],[-86.509477,33.082548],[-86.509383,33.082457],[-86.509317,33.082454],[-86.509057,33.082539],[-86.508405,33.083043],[-86.508294,33.083085],[-86.508147,33.083091],[-86.508123,33.083055],[-86.50816,33.083001],[-86.508355,33.082837],[-86.508415,33.082715],[-86.508446,33.082564],[-86.508456,33.082369],[-86.508541,33.08211],[-86.508547,33.081984],[-86.508454,33.081746],[-86.507851,33.081268],[-86.50776,33.081143],[-86.507277,33.080821],[-86.507145,33.080769],[-86.506808,33.08069],[-86.506736,33.080621],[-86.506649,33.08031],[-86.506607,33.080228],[-86.506537,33.080196],[-86.506442,33.080218],[-86.505884,33.080514],[-86.505713,33.080532],[-86.505607,33.0805],[-86.505534,33.080421],[-86.505534,33.080335],[-86.505697,33.08016],[-86.505729,33.080091],[-86.505724,33.080059],[-86.505655,33.08003],[-86.505316,33.079978],[-86.504945,33.080002],[-86.504899,33.079982],[-86.504932,33.079915],[-86.505009,33.07983],[-86.505051,33.079718],[-86.50499,33.079577],[-86.504917,33.079522],[-86.504758,33.079512],[-86.504584,33.079526],[-86.504299,33.079505],[-86.504054,33.079561],[-86.504046,33.079523],[-86.504216,33.079342],[-86.504533,33.079234],[-86.504652,33.079156],[-86.504711,33.079057],[-86.504809,33.078957],[-86.504977,33.078933],[-86.506163,33.079171],[-86.506302,33.079134],[-86.506446,33.07904],[-86.506541,33.078867],[-86.506741,33.077845],[-86.506736,33.077725],[-86.5067,33.07757],[-86.506465,33.07689],[-86.506347,33.076644],[-86.506261,33.076543],[-86.506122,33.076434],[-86.505934,33.076323],[-86.505649,33.076114],[-86.505483,33.075861],[-86.504969,33.075212],[-86.504848,33.075157],[-86.504708,33.075124],[-86.503805,33.074953],[-86.503373,33.074894],[-86.503006,33.074756],[-86.502788,33.07462],[-86.502739,33.074529],[-86.502697,33.074256],[-86.502715,33.074109],[-86.502789,33.073955],[-86.502988,33.073781],[-86.50299,33.073734],[-86.502788,33.073503],[-86.502742,33.073295],[-86.502368,33.073301],[-86.502538,33.073356],[-86.502626,33.07348],[-86.50239,33.074072],[-86.502201,33.074637],[-86.50219,33.074715],[-86.502233,33.074797],[-86.504802,33.075717],[-86.505929,33.076681],[-86.506317,33.077888],[-86.506322,33.078],[-86.505902,33.078748],[-86.505811,33.078785],[-86.504534,33.078527],[-86.504448,33.078568],[-86.503599,33.079574],[-86.503558,33.079774],[-86.50358,33.079809],[-86.503781,33.079847],[-86.504242,33.080021],[-86.505269,33.080779],[-86.504155,33.080787]]],[[[-86.498546,33.073367],[-86.498522,33.073811],[-86.49857,33.073929],[-86.498795,33.074028],[-86.498928,33.074019],[-86.499349,33.073823],[-86.499583,33.073837],[-86.499649,33.073888],[-86.499578,33.074307],[-86.499592,33.074384],[-86.500203,33.074623],[-86.50031,33.07463],[-86.500408,33.07461],[-86.500753,33.074419],[-86.501415,33.074237],[-86.501788,33.073311],[-86.501558,33.073315],[-86.50148,33.073711],[-86.501411,33.07382],[-86.501232,33.074008],[-86.501117,33.074045],[-86.500888,33.074],[-86.5008,33.074],[-86.500711,33.074084],[-86.500629,33.074243],[-86.500565,33.07432],[-86.500462,33.074376],[-86.500138,33.074363],[-86.500059,33.07435],[-86.50001,33.074306],[-86.499986,33.07424],[-86.499982,33.074037],[-86.500009,33.073783],[-86.500052,33.073718],[-86.50014,33.073687],[-86.500271,33.073733],[-86.500489,33.0739],[-86.500741,33.073877],[-86.500896,33.07383],[-86.500951,33.073775],[-86.500988,33.073689],[-86.500953,33.073664],[-86.5007,33.07366],[-86.500617,33.073642],[-86.500567,33.07361],[-86.500539,33.073551],[-86.500573,33.07348],[-86.50089,33.073364],[-86.500928,33.073326],[-86.500318,33.073336],[-86.500169,33.073461],[-86.499817,33.073632],[-86.499444,33.073655],[-86.499303,33.073655],[-86.499168,33.073504],[-86.499172,33.073387],[-86.499296,33.073354],[-86.498546,33.073367]]]]}},{"type":"Feature","id":"01037:0503080000002000","properties":{"id":"01037:0503080000002000","parcelId":"0503080000002000","countyFips":"01037","countyName":"Coosa","state":"Alabama","marketIds":["Montgomery"],"situsAddress":null,"situsCity":null,"situsZip":null,"jurisdictionCode":null,"ownerName":null,"ownerName2":null,"propertyName":null,"zoningCode":null,"zoningDistrict":null,"jurisdictionPrefix":null,"dorCode":null,"acreage":118.9257,"centroid":[-86.505445,33.085945],"lastSale":{"date":null,"price":null,"qualified":null},"tax":{"marketValue":null,"assessedValue":null,"taxableValue":null,"taxes":null},"mailingAddress":{"line1":null,"line2":null,"city":null,"state":null,"zip":null},"incomeTract":null,"incomeBlockGroup":null,"nearestRoad":null,"flu":null,"opportunityZone":null,"oz2Eligibility":null,"source":"al-coosa-parcels-01037","appraiserUrl":"https://coosa.capturecama.com/mapparceldetail/0503080000002000","gisViewerUrl":"https://coosa.capturecama.com/parcelviewer/"},"geometry":{"type":"Polygon","coordinates":[[[-86.499835,33.085124],[-86.499879,33.088109],[-86.507241,33.088058],[-86.507797,33.087384],[-86.507861,33.087378],[-86.507999,33.087508],[-86.508106,33.087517],[-86.508351,33.08725],[-86.508392,33.087239],[-86.508597,33.087276],[-86.508612,33.08725],[-86.508429,33.086885],[-86.508357,33.086871],[-86.507818,33.086618],[-86.507778,33.08656],[-86.507826,33.08626],[-86.507878,33.086218],[-86.508511,33.085922],[-86.508499,33.084358],[-86.504193,33.084385],[-86.504155,33.080787],[-86.499772,33.080818],[-86.499833,33.084986],[-86.500145,33.084934],[-86.500434,33.084822],[-86.500519,33.08494],[-86.50019,33.085066],[-86.499835,33.085124]]]}},{"type":"Feature","id":"01037:0509300000001000","properties":{"id":"01037:0509300000001000","parcelId":"0509300000001000","countyFips":"01037","countyName":"Coosa","state":"Alabama","marketIds":["Montgomery"],"situsAddress":null,"situsCity":null,"situsZip":null,"jurisdictionCode":null,"ownerName":null,"ownerName2":null,"propertyName":null,"zoningCode":null,"zoningDistrict":null,"jurisdictionPrefix":null,"dorCode":null,"acreage":24.2933,"centroid":[-86.51176,33.039486],"lastSale":{"date":null,"price":null,"qualified":null},"tax":{"marketValue":null,"assessedValue":null,"taxableValue":null,"taxes":null},"mailingAddress":{"line1":null,"line2":null,"city":null,"state":null,"zip":null},"incomeTract":null,"incomeBlockGroup":null,"nearestRoad":null,"flu":null,"opportunityZone":null,"oz2Eligibility":null,"source":"al-coosa-parcels-01037","appraiserUrl":"https://coosa.capturecama.com/mapparceldetail/0509300000001000","gisViewerUrl":"https://coosa.capturecama.com/parcelviewer/"},"geometry":{"type":"Polygon","coordinates":[[[-86.511416,33.038945],[-86.511609,33.044223],[-86.515294,33.044188],[-86.515279,33.043558],[-86.514959,33.042833],[-86.514769,33.042712],[-86.514027,33.042559],[-86.51331,33.042638],[-86.513035,33.04248],[-86.513008,33.042368],[-86.512816,33.040809],[-86.512444,33.040841],[-86.512327,33.040774],[-86.512022,33.040061],[-86.512045,33.040004],[-86.512473,33.039581],[-86.512452,33.039517],[-86.511416,33.038945]]]}},{"type":"Feature","id":"01037:0504200000003000","properties":{"id":"01037:0504200000003000","parcelId":"0504200000003000","countyFips":"01037","countyName":"Coosa","state":"Alabama","marketIds":["Montgomery"],"situsAddress":null,"situsCity":null,"situsZip":null,"jurisdictionCode":null,"ownerName":null,"ownerName2":null,"propertyName":null,"zoningCode":null,"zoningDistrict":null,"jurisdictionPrefix":null,"dorCode":null,"acreage":6.3279,"centroid":[-86.510661,33.053208],"lastSale":{"date":null,"price":null,"qualified":null},"tax":{"marketValue":null,"assessedValue":null,"taxableValue":null,"taxes":null},"mailingAddress":{"line1":null,"line2":null,"city":null,"state":null,"zip":null},"incomeTract":null,"incomeBlockGroup":null,"nearestRoad":null,"flu":null,"opportunityZone":null,"oz2Eligibility":null,"source":"al-coosa-parcels-01037","appraiserUrl":"https://coosa.capturecama.com/mapparceldetail/0504200000003000","gisViewerUrl":"https://coosa.capturecama.com/parcelviewer/"},"geometry":{"type":"Polygon","coordinates":[[[-86.511884,33.051841],[-86.511462,33.052002],[-86.509608,33.053132],[-86.509533,33.053244],[-86.509362,33.053712],[-86.509385,33.053775],[-86.509845,33.053965],[-86.510691,33.053899],[-86.511933,33.053195],[-86.51192,33.052818],[-86.511531,33.053066],[-86.51083,33.053443],[-86.51072,33.053468],[-86.510126,33.053686],[-86.510061,33.053687],[-86.509978,33.053623],[-86.510047,33.053556],[-86.510525,33.053341],[-86.510881,33.053146],[-86.51167,33.05251],[-86.511899,33.052263],[-86.511884,33.051841]]]}},{"type":"Feature","id":"01037:0603060000001000","properties":{"id":"01037:0603060000001000","parcelId":"0603060000001000","countyFips":"01037","countyName":"Coosa","state":"Alabama","marketIds":["Montgomery"],"situsAddress":null,"situsCity":null,"situsZip":null,"jurisdictionCode":null,"ownerName":null,"ownerName2":null,"propertyName":null,"zoningCode":null,"zoningDistrict":null,"jurisdictionPrefix":null,"dorCode":null,"acreage":24.3363,"centroid":[-86.514657,33.004958],"lastSale":{"date":null,"price":null,"qualified":null},"tax":{"marketValue":null,"assessedValue":null,"taxableValue":null,"taxes":null},"mailingAddress":{"line1":null,"line2":null,"city":null,"state":null,"zip":null},"incomeTract":null,"incomeBlockGroup":null,"nearestRoad":null,"flu":null,"opportunityZone":null,"oz2Eligibility":null,"source":"al-coosa-parcels-01037","appraiserUrl":"https://coosa.capturecama.com/mapparceldetail/0603060000001000","gisViewerUrl":"https://coosa.capturecama.com/parcelviewer/"},"geometry":{"type":"Polygon","coordinates":[[[-86.516884,33.000447],[-86.516879,33.000443],[-86.516738,33.00037],[-86.516514,33.000367],[-86.516264,33.000486],[-86.516227,33.000688],[-86.516396,33.001248],[-86.516125,33.001527],[-86.516085,33.00118],[-86.516,33.001022],[-86.515601,33.000811],[-86.515718,33.000738],[-86.515621,33.000546],[-86.515511,33.000459],[-86.514929,33.000464],[-86.515324,33.000641],[-86.515368,33.000847],[-86.515444,33.000934],[-86.515866,33.001075],[-86.515952,33.001244],[-86.51592,33.001505],[-86.516128,33.00165],[-86.516411,33.001632],[-86.516599,33.001464],[-86.51662,33.001274],[-86.516468,33.000945],[-86.516499,33.000816],[-86.516591,33.000731],[-86.516868,33.000735],[-86.517188,33.001081],[-86.517632,33.001803],[-86.517897,33.002595],[-86.51796,33.003416],[-86.517825,33.004162],[-86.517709,33.004216],[-86.517584,33.004178],[-86.517341,33.003779],[-86.517017,33.003505],[-86.51671,33.00336],[-86.516436,33.003329],[-86.51603,33.003477],[-86.515704,33.003902],[-86.514969,33.00416],[-86.51474,33.004149],[-86.514464,33.003953],[-86.514255,33.003974],[-86.51413,33.004117],[-86.514129,33.004447],[-86.513937,33.004595],[-86.512545,33.004498],[-86.512386,33.004652],[-86.512425,33.004853],[-86.513186,33.005154],[-86.513265,33.005259],[-86.513246,33.005382],[-86.511573,33.006504],[-86.5113,33.006511],[-86.511226,33.006578],[-86.511305,33.006718],[-86.511484,33.006785],[-86.511926,33.006761],[-86.512345,33.006642],[-86.513239,33.006139],[-86.514022,33.005464],[-86.514181,33.005463],[-86.514366,33.005619],[-86.514523,33.005594],[-86.514584,33.005509],[-86.51457,33.005296],[-86.514641,33.005129],[-86.515172,33.004734],[-86.515946,33.004624],[-86.516528,33.004374],[-86.516652,33.004407],[-86.516715,33.004527],[-86.516723,33.005008],[-86.517007,33.005268],[-86.51701,33.005397],[-86.516914,33.00562],[-86.516984,33.005801],[-86.517267,33.005903],[-86.51746,33.005836],[-86.517658,33.005671],[-86.517804,33.00573],[-86.517511,33.006695],[-86.517435,33.006802],[-86.517238,33.006874],[-86.516498,33.006834],[-86.516377,33.006895],[-86.516325,33.007],[-86.516416,33.007167],[-86.51678,33.007271],[-86.51687,33.007443],[-86.516774,33.007635],[-86.51639,33.007822],[-86.516344,33.007942],[-86.516376,33.008059],[-86.516481,33.008149],[-86.516635,33.00818],[-86.517148,33.007954],[-86.517382,33.007994],[-86.517461,33.008098],[-86.517556,33.00866],[-86.517504,33.008883],[-86.517111,33.009166],[-86.516516,33.00932],[-86.516034,33.009571],[-86.515766,33.009614],[-86.515319,33.009551],[-86.515207,33.009601],[-86.515154,33.009697],[-86.515266,33.009864],[-86.516169,33.010095],[-86.516474,33.010058],[-86.516863,33.009897],[-86.517154,33.00995],[-86.517282,33.01007],[-86.517328,33.010218],[-86.517299,33.010663],[-86.517183,33.010882],[-86.517016,33.011007],[-86.516481,33.01124],[-86.516149,33.011296],[-86.515873,33.011238],[-86.514898,33.010804],[-86.514128,33.01075],[-86.51345,33.010906],[-86.512956,33.011132],[-86.512853,33.011252],[-86.512887,33.01143],[-86.513069,33.011524],[-86.514169,33.011252],[-86.514686,33.011347],[-86.514848,33.011578],[-86.515149,33.011489],[-86.515517,33.011758],[-86.515554,33.01206],[-86.515661,33.012143],[-86.515773,33.012125],[-86.516014,33.011949],[-86.516337,33.012066],[-86.516595,33.011952],[-86.517162,33.011935],[-86.517271,33.011998],[-86.517223,33.01291],[-86.517156,33.013121],[-86.516972,33.01334],[-86.517006,33.013586],[-86.516954,33.013701],[-86.516583,33.013844],[-86.51601,33.013969],[-86.515816,33.01389],[-86.515626,33.013632],[-86.515445,33.01362],[-86.515357,33.013737],[-86.515422,33.014091],[-86.515299,33.014252],[-86.514943,33.014333],[-86.514342,33.014312],[-86.514201,33.014384],[-86.514191,33.01447],[-86.51425,33.01454],[-86.514721,33.014687],[-86.515212,33.014694],[-86.516073,33.014501],[-86.516534,33.01446],[-86.516657,33.014551],[-86.516606,33.014772],[-86.516697,33.01477],[-86.516787,33.014591],[-86.51679,33.01446],[-86.516706,33.014371],[-86.515952,33.014408],[-86.515129,33.014639],[-86.51456,33.014542],[-86.514443,33.014426],[-86.515024,33.014453],[-86.515386,33.014401],[-86.515569,33.014145],[-86.515519,33.013719],[-86.51562,33.013782],[-86.515763,33.014],[-86.51596,33.014061],[-86.516672,33.013977],[-86.517049,33.01378],[-86.517156,33.013524],[-86.517041,33.013367],[-86.51726,33.013236],[-86.517367,33.012931],[-86.51742,33.011864],[-86.516608,33.01186],[-86.516464,33.011887],[-86.51639,33.011996],[-86.5161,33.011844],[-86.515813,33.011958],[-86.515668,33.012085],[-86.515693,33.011866],[-86.515582,33.011673],[-86.515194,33.011407],[-86.515037,33.01143],[-86.514868,33.01155],[-86.514866,33.011348],[-86.514696,33.011214],[-86.514069,33.011118],[-86.513118,33.011313],[-86.513096,33.011251],[-86.513277,33.011095],[-86.514027,33.010919],[-86.514725,33.010946],[-86.514882,33.01097],[-86.515811,33.011477],[-86.516108,33.01156],[-86.516402,33.011514],[-86.516771,33.011296],[-86.517378,33.011159],[-86.517505,33.01094],[-86.517534,33.01073],[-86.517517,33.010052],[-86.517455,33.009836],[-86.517385,33.009773],[-86.517218,33.009682],[-86.516771,33.009713],[-86.516297,33.009973],[-86.515776,33.009915],[-86.515302,33.009726],[-86.515347,33.009657],[-86.515753,33.009732],[-86.516114,33.009725],[-86.516577,33.009411],[-86.517155,33.009292],[-86.517747,33.008953],[-86.517568,33.007771],[-86.517469,33.007703],[-86.517316,33.007703],[-86.516841,33.007985],[-86.516656,33.008029],[-86.516546,33.007989],[-86.516873,33.007689],[-86.517027,33.007322],[-86.5169,33.007175],[-86.516567,33.007075],[-86.516613,33.00698],[-86.516703,33.006948],[-86.517411,33.007092],[-86.517653,33.007024],[-86.517696,33.006595],[-86.517807,33.006299],[-86.517833,33.006032],[-86.518011,33.005613],[-86.517984,33.005517],[-86.517813,33.005443],[-86.517668,33.00549],[-86.517397,33.0057],[-86.517234,33.005744],[-86.517151,33.005709],[-86.517104,33.005636],[-86.517344,33.00531],[-86.517289,33.005153],[-86.516863,33.004891],[-86.516855,33.004556],[-86.516775,33.004288],[-86.516655,33.004237],[-86.516356,33.004273],[-86.514971,33.004713],[-86.514436,33.005068],[-86.514385,33.005183],[-86.514456,33.005402],[-86.51443,33.005524],[-86.51437,33.005521],[-86.514238,33.005358],[-86.51406,33.00535],[-86.512275,33.006569],[-86.511793,33.006705],[-86.511496,33.00669],[-86.512116,33.00639],[-86.512658,33.00597],[-86.513305,33.005582],[-86.513693,33.005195],[-86.513495,33.005025],[-86.512605,33.004797],[-86.512789,33.004627],[-86.5134,33.004773],[-86.514018,33.004775],[-86.514286,33.004659],[-86.514376,33.004456],[-86.514362,33.004264],[-86.51457,33.004205],[-86.514849,33.004296],[-86.51515,33.004305],[-86.515635,33.004144],[-86.515749,33.004052],[-86.515998,33.003636],[-86.516268,33.00353],[-86.516701,33.003588],[-86.517102,33.003739],[-86.517218,33.00384],[-86.517576,33.004545],[-86.517746,33.004506],[-86.517884,33.004351],[-86.518027,33.004042],[-86.518132,33.003326],[-86.518214,33.003109],[-86.518173,33.002222],[-86.517496,33.001148],[-86.517073,33.000722],[-86.516884,33.000447]]]}},{"type":"Feature","id":"01037:0603060000003000","properties":{"id":"01037:0603060000003000","parcelId":"0603060000003000","countyFips":"01037","countyName":"Coosa","state":"Alabama","marketIds":["Montgomery"],"situsAddress":null,"situsCity":null,"situsZip":null,"jurisdictionCode":null,"ownerName":null,"ownerName2":null,"propertyName":null,"zoningCode":null,"zoningDistrict":null,"jurisdictionPrefix":null,"dorCode":null,"acreage":115.4551,"centroid":[-86.51144,33.00811],"lastSale":{"date":null,"price":null,"qualified":null},"tax":{"marketValue":null,"assessedValue":null,"taxableValue":null,"taxes":null},"mailingAddress":{"line1":null,"line2":null,"city":null,"state":null,"zip":null},"incomeTract":null,"incomeBlockGroup":null,"nearestRoad":null,"flu":null,"opportunityZone":null,"oz2Eligibility":null,"source":"al-coosa-parcels-01037","appraiserUrl":"https://coosa.capturecama.com/mapparceldetail/0603060000003000","gisViewerUrl":"https://coosa.capturecama.com/parcelviewer/"},"geometry":{"type":"Polygon","coordinates":[[[-86.510357,33.007302],[-86.510538,33.014873],[-86.516606,33.014772],[-86.516657,33.014551],[-86.516619,33.014491],[-86.516546,33.014461],[-86.516073,33.014501],[-86.515309,33.014679],[-86.514956,33.014707],[-86.514682,33.01468],[-86.514401,33.014604],[-86.514227,33.014524],[-86.514192,33.014475],[-86.514187,33.014424],[-86.514225,33.014354],[-86.514305,33.014317],[-86.514492,33.014306],[-86.514943,33.014333],[-86.515167,33.0143],[-86.515306,33.014247],[-86.515388,33.014168],[-86.515427,33.014061],[-86.515361,33.013715],[-86.515403,33.013647],[-86.515475,33.013609],[-86.51556,33.013606],[-86.515631,33.013635],[-86.515816,33.01389],[-86.5159,33.013943],[-86.51601,33.013969],[-86.516107,33.013962],[-86.516505,33.013866],[-86.51686,33.01376],[-86.516932,33.013721],[-86.516983,33.013662],[-86.517005,33.013593],[-86.516963,33.013424],[-86.516972,33.01334],[-86.517012,33.01327],[-86.517156,33.013121],[-86.517227,33.012894],[-86.517282,33.012045],[-86.517248,33.011969],[-86.517156,33.011935],[-86.516595,33.011952],[-86.516547,33.011968],[-86.516445,33.012046],[-86.516345,33.012066],[-86.516245,33.012044],[-86.516113,33.01196],[-86.516014,33.011949],[-86.51591,33.011987],[-86.515773,33.012125],[-86.515667,33.012144],[-86.515597,33.012115],[-86.515556,33.012065],[-86.515553,33.011832],[-86.515481,33.011722],[-86.515138,33.011486],[-86.515035,33.011495],[-86.514917,33.011578],[-86.514828,33.011571],[-86.514778,33.011525],[-86.514765,33.011432],[-86.514735,33.011383],[-86.514576,33.011308],[-86.51429,33.011255],[-86.513998,33.011266],[-86.513766,33.011321],[-86.513372,33.011478],[-86.513094,33.011526],[-86.512991,33.011505],[-86.512902,33.011447],[-86.512853,33.011368],[-86.512846,33.011279],[-86.512879,33.011201],[-86.512949,33.011136],[-86.513429,33.010915],[-86.513782,33.010804],[-86.514175,33.010747],[-86.514528,33.010748],[-86.514898,33.010804],[-86.515873,33.011238],[-86.516108,33.011293],[-86.516272,33.011291],[-86.51643,33.011258],[-86.516737,33.0111],[-86.517037,33.010995],[-86.517134,33.010929],[-86.517219,33.010838],[-86.517273,33.010744],[-86.517304,33.010631],[-86.517323,33.010175],[-86.517277,33.010062],[-86.517187,33.00997],[-86.517034,33.009904],[-86.516873,33.009896],[-86.516757,33.009926],[-86.516474,33.010058],[-86.516316,33.010089],[-86.516169,33.010095],[-86.515266,33.009864],[-86.515175,33.009791],[-86.515156,33.009685],[-86.515212,33.009596],[-86.515319,33.009551],[-86.515447,33.009554],[-86.51574,33.009613],[-86.515973,33.00959],[-86.516116,33.009537],[-86.516516,33.00932],[-86.516899,33.00924],[-86.517068,33.009185],[-86.517278,33.009074],[-86.517455,33.008942],[-86.517535,33.008827],[-86.51756,33.008695],[-86.517461,33.008098],[-86.517421,33.008028],[-86.517357,33.007978],[-86.517251,33.007946],[-86.51714,33.007956],[-86.516727,33.008161],[-86.516644,33.008179],[-86.516481,33.008149],[-86.516373,33.008052],[-86.516346,33.007921],[-86.516406,33.007803],[-86.516514,33.007727],[-86.516747,33.007653],[-86.516815,33.007596],[-86.516857,33.007523],[-86.516869,33.007428],[-86.516838,33.007336],[-86.516774,33.007266],[-86.516677,33.007216],[-86.510357,33.007302]]]}},{"type":"Feature","id":"01037:0509300000002000","properties":{"id":"01037:0509300000002000","parcelId":"0509300000002000","countyFips":"01037","countyName":"Coosa","state":"Alabama","marketIds":["Montgomery"],"situsAddress":null,"situsCity":null,"situsZip":null,"jurisdictionCode":null,"ownerName":null,"ownerName2":null,"propertyName":null,"zoningCode":null,"zoningDistrict":null,"jurisdictionPrefix":null,"dorCode":null,"acreage":14.6642,"centroid":[-86.513358,33.040752],"lastSale":{"date":null,"price":null,"qualified":null},"tax":{"marketValue":null,"assessedValue":null,"taxableValue":null,"taxes":null},"mailingAddress":{"line1":null,"line2":null,"city":null,"state":null,"zip":null},"incomeTract":null,"incomeBlockGroup":null,"nearestRoad":null,"flu":null,"opportunityZone":null,"oz2Eligibility":null,"source":"al-coosa-parcels-01037","appraiserUrl":"https://coosa.capturecama.com/mapparceldetail/0509300000002000","gisViewerUrl":"https://coosa.capturecama.com/parcelviewer/"},"geometry":{"type":"Polygon","coordinates":[[[-86.511416,33.038945],[-86.512452,33.039517],[-86.512473,33.039581],[-86.512045,33.040004],[-86.512022,33.040061],[-86.512327,33.040774],[-86.512444,33.040841],[-86.512816,33.040809],[-86.513008,33.042368],[-86.513035,33.04248],[-86.51331,33.042638],[-86.514027,33.042559],[-86.514769,33.042712],[-86.514959,33.042833],[-86.515279,33.043558],[-86.515294,33.044188],[-86.515848,33.044183],[-86.515848,33.043888],[-86.515812,33.043496],[-86.515827,33.043293],[-86.51553,33.042986],[-86.515509,33.042928],[-86.515499,33.042691],[-86.515514,33.04256],[-86.51556,33.042424],[-86.515534,33.04237],[-86.515293,33.042307],[-86.51497,33.042265],[-86.514704,33.042207],[-86.514013,33.042175],[-86.513817,33.042216],[-86.513677,33.042281],[-86.513625,33.042311],[-86.513513,33.042434],[-86.513349,33.042438],[-86.513322,33.042419],[-86.513335,33.042344],[-86.513529,33.04195],[-86.513574,33.041886],[-86.513755,33.041731],[-86.51378,33.041681],[-86.513785,33.04161],[-86.513746,33.04157],[-86.513616,33.04152],[-86.513622,33.041366],[-86.513441,33.040828],[-86.513285,33.040253],[-86.513256,33.040013],[-86.513266,33.039589],[-86.51319,33.03915],[-86.513137,33.038992],[-86.512953,33.038685],[-86.512845,33.038604],[-86.512741,33.038577],[-86.512678,33.038571],[-86.512533,33.038672],[-86.512501,33.038602],[-86.512432,33.038553],[-86.512218,33.038624],[-86.512015,33.038591],[-86.511887,33.03854],[-86.51186,33.038505],[-86.511958,33.038219],[-86.511949,33.038104],[-86.511907,33.038074],[-86.511828,33.03807],[-86.511463,33.038151],[-86.511426,33.038141],[-86.511426,33.038044],[-86.511458,33.037961],[-86.511477,33.037825],[-86.511447,33.037791],[-86.511373,33.037761],[-86.511416,33.038945]]]}},{"type":"Feature","id":"01037:0509310000005000","properties":{"id":"01037:0509310000005000","parcelId":"0509310000005000","countyFips":"01037","countyName":"Coosa","state":"Alabama","marketIds":["Montgomery"],"situsAddress":null,"situsCity":null,"situsZip":null,"jurisdictionCode":null,"ownerName":null,"ownerName2":null,"propertyName":null,"zoningCode":null,"zoningDistrict":null,"jurisdictionPrefix":null,"dorCode":null,"acreage":11.9831,"centroid":[-86.514169,33.017199],"lastSale":{"date":null,"price":null,"qualified":null},"tax":{"marketValue":null,"assessedValue":null,"taxableValue":null,"taxes":null},"mailingAddress":{"line1":null,"line2":null,"city":null,"state":null,"zip":null},"incomeTract":null,"incomeBlockGroup":null,"nearestRoad":null,"flu":null,"opportunityZone":null,"oz2Eligibility":null,"source":"al-coosa-parcels-01037","appraiserUrl":"https://coosa.capturecama.com/mapparceldetail/0509310000005000","gisViewerUrl":"https://coosa.capturecama.com/parcelviewer/"},"geometry":{"type":"Polygon","coordinates":[[[-86.510631,33.017424],[-86.510749,33.017708],[-86.51092,33.018012],[-86.511092,33.018207],[-86.511279,33.018362],[-86.511469,33.018486],[-86.511808,33.018608],[-86.511965,33.018617],[-86.512318,33.018577],[-86.512516,33.018527],[-86.51254,33.018489],[-86.512503,33.018343],[-86.512519,33.018299],[-86.51258,33.018289],[-86.512771,33.018431],[-86.51289,33.018495],[-86.51301,33.018536],[-86.513356,33.018605],[-86.51391,33.018854],[-86.513974,33.018855],[-86.514032,33.018843],[-86.51409,33.018795],[-86.5141,33.018742],[-86.514075,33.018472],[-86.514087,33.018373],[-86.514118,33.018309],[-86.514207,33.018275],[-86.514257,33.018283],[-86.514289,33.018336],[-86.514343,33.01854],[-86.514535,33.018659],[-86.514619,33.018677],[-86.514702,33.018661],[-86.514767,33.018589],[-86.514849,33.018351],[-86.515015,33.018183],[-86.51506,33.018103],[-86.515274,33.017467],[-86.5154,33.017259],[-86.51538,33.017174],[-86.51536,33.017142],[-86.51515,33.017142],[-86.514935,33.017183],[-86.51478,33.01724],[-86.514662,33.017324],[-86.514608,33.017295],[-86.514576,33.017208],[-86.513728,33.017024],[-86.513679,33.016967],[-86.513674,33.016878],[-86.513744,33.016868],[-86.514315,33.016963],[-86.514495,33.016971],[-86.514797,33.016937],[-86.51491,33.016898],[-86.515019,33.016755],[-86.515009,33.016704],[-86.514944,33.016609],[-86.514881,33.016558],[-86.514894,33.016503],[-86.514934,33.016479],[-86.51502,33.016501],[-86.515299,33.016651],[-86.5155,33.016641],[-86.5156,33.016606],[-86.515719,33.016526],[-86.51582,33.016394],[-86.515885,33.016253],[-86.515868,33.016084],[-86.51581,33.016021],[-86.515106,33.015688],[-86.51513,33.015646],[-86.515215,33.015609],[-86.515765,33.015707],[-86.515912,33.015779],[-86.516012,33.015804],[-86.516173,33.015762],[-86.51621,33.015706],[-86.51618,33.015513],[-86.5162,33.015407],[-86.51665,33.014864],[-86.516697,33.01477],[-86.516299,33.014777],[-86.515561,33.015335],[-86.51526,33.015403],[-86.514935,33.01529],[-86.514799,33.015332],[-86.514701,33.015542],[-86.514641,33.015585],[-86.514446,33.015575],[-86.514372,33.015614],[-86.514372,33.015764],[-86.515283,33.01613],[-86.515309,33.016196],[-86.515209,33.016339],[-86.514806,33.016356],[-86.514695,33.016526],[-86.51478,33.016745],[-86.514758,33.016781],[-86.513652,33.016725],[-86.513537,33.016766],[-86.513487,33.016959],[-86.51356,33.017286],[-86.514413,33.017461],[-86.514451,33.017504],[-86.514482,33.017588],[-86.514918,33.017674],[-86.514938,33.017717],[-86.514656,33.018372],[-86.514588,33.018408],[-86.514398,33.018369],[-86.514274,33.018001],[-86.514242,33.017984],[-86.513985,33.018004],[-86.513702,33.018398],[-86.512541,33.017951],[-86.512464,33.017978],[-86.512307,33.018375],[-86.512261,33.0184],[-86.511361,33.018083],[-86.510933,33.017158],[-86.510906,33.016785],[-86.510744,33.016422],[-86.510647,33.016376],[-86.510593,33.01639],[-86.510631,33.017424]]]}},{"type":"Feature","id":"01037:0509290000003000","properties":{"id":"01037:0509290000003000","parcelId":"0509290000003000","countyFips":"01037","countyName":"Coosa","state":"Alabama","marketIds":["Montgomery"],"situsAddress":null,"situsCity":null,"situsZip":null,"jurisdictionCode":null,"ownerName":null,"ownerName2":null,"propertyName":null,"zoningCode":null,"zoningDistrict":null,"jurisdictionPrefix":null,"dorCode":null,"acreage":31.4175,"centroid":[-86.506506,33.032469],"lastSale":{"date":null,"price":null,"qualified":null},"tax":{"marketValue":null,"assessedValue":null,"taxableValue":null,"taxes":null},"mailingAddress":{"line1":null,"line2":null,"city":null,"state":null,"zip":null},"incomeTract":null,"incomeBlockGroup":null,"nearestRoad":null,"flu":null,"opportunityZone":null,"oz2Eligibility":null,"source":"al-coosa-parcels-01037","appraiserUrl":"https://coosa.capturecama.com/mapparceldetail/0509290000003000","gisViewerUrl":"https://coosa.capturecama.com/parcelviewer/"},"geometry":{"type":"Polygon","coordinates":[[[-86.510421,33.029707],[-86.510262,33.029851],[-86.510269,33.03001],[-86.510675,33.030263],[-86.510699,33.03032],[-86.51059,33.030532],[-86.509872,33.030935],[-86.509624,33.030954],[-86.50882,33.030398],[-86.508365,33.030224],[-86.508047,33.030176],[-86.507762,33.030259],[-86.507442,33.03079],[-86.506698,33.031299],[-86.50663,33.031414],[-86.505825,33.031418],[-86.50418,33.031172],[-86.504027,33.03124],[-86.503978,33.031334],[-86.504146,33.031811],[-86.504318,33.031944],[-86.505284,33.032061],[-86.505563,33.032185],[-86.505617,33.032467],[-86.505466,33.0326],[-86.504828,33.032572],[-86.504665,33.032746],[-86.504289,33.032861],[-86.503945,33.032782],[-86.502777,33.032957],[-86.502217,33.033257],[-86.502138,33.033328],[-86.501267,33.033301],[-86.499825,33.033465],[-86.499724,33.033598],[-86.499694,33.033775],[-86.499815,33.033949],[-86.500619,33.034229],[-86.501102,33.034445],[-86.501208,33.034465],[-86.503387,33.034276],[-86.50372,33.034045],[-86.503869,33.034016],[-86.504404,33.034134],[-86.504546,33.034146],[-86.505165,33.033834],[-86.50528,33.033805],[-86.505887,33.033989],[-86.506408,33.033965],[-86.50651,33.033975],[-86.506558,33.033952],[-86.506634,33.033875],[-86.506956,33.033811],[-86.507222,33.033913],[-86.507342,33.033888],[-86.507494,33.03358],[-86.507545,33.033517],[-86.507628,33.033508],[-86.507899,33.033594],[-86.508,33.033598],[-86.508829,33.033236],[-86.509749,33.033124],[-86.509944,33.033196],[-86.51006,33.033174],[-86.51054,33.032954],[-86.510841,33.032984],[-86.511194,33.032847],[-86.511185,33.032609],[-86.511099,33.032666],[-86.511038,33.032665],[-86.510844,33.03252],[-86.510775,33.032507],[-86.510418,33.032543],[-86.510221,33.032489],[-86.510138,33.03251],[-86.510021,33.032621],[-86.509645,33.032829],[-86.509259,33.032915],[-86.508857,33.032937],[-86.508631,33.033072],[-86.508388,33.033184],[-86.508269,33.03321],[-86.508106,33.033343],[-86.508037,33.033361],[-86.507909,33.033309],[-86.507803,33.03329],[-86.50753,33.033358],[-86.507392,33.033424],[-86.507321,33.033485],[-86.507226,33.03351],[-86.506852,33.03343],[-86.506702,33.033412],[-86.506573,33.033422],[-86.506458,33.033459],[-86.506323,33.033594],[-86.506097,33.033616],[-86.506139,33.033367],[-86.505698,33.033344],[-86.505426,33.0334],[-86.504676,33.033622],[-86.504101,33.033634],[-86.503634,33.03369],[-86.503537,33.033718],[-86.503426,33.03378],[-86.503373,33.033894],[-86.503323,33.033768],[-86.503267,33.033711],[-86.503177,33.03372],[-86.502862,33.033868],[-86.502243,33.034],[-86.502098,33.033936],[-86.5009,33.033892],[-86.500764,33.033874],[-86.50058,33.0338],[-86.500594,33.033745],[-86.500651,33.033679],[-86.500852,33.033627],[-86.501263,33.033703],[-86.501372,33.033667],[-86.501415,33.033611],[-86.501526,33.033584],[-86.502101,33.033632],[-86.502285,33.033598],[-86.502837,33.033466],[-86.503057,33.033283],[-86.50351,33.033226],[-86.503929,33.033114],[-86.504143,33.0331],[-86.504382,33.03315],[-86.504568,33.033104],[-86.505017,33.0329],[-86.505432,33.032818],[-86.505779,33.032824],[-86.505967,33.032791],[-86.506212,33.032789],[-86.506863,33.032832],[-86.507078,33.032826],[-86.507213,33.032799],[-86.50733,33.032715],[-86.507411,33.032593],[-86.507509,33.032268],[-86.507607,33.032092],[-86.507598,33.03205],[-86.507552,33.032008],[-86.50746,33.031999],[-86.507042,33.032079],[-86.506337,33.032053],[-86.505902,33.031973],[-86.505424,33.031817],[-86.505177,33.031806],[-86.504779,33.031731],[-86.504716,33.031697],[-86.504745,33.031656],[-86.504844,33.031637],[-86.505123,33.031669],[-86.505553,33.031617],[-86.506061,33.031706],[-86.506751,33.031733],[-86.507281,33.031619],[-86.507402,33.031526],[-86.507411,33.031476],[-86.507081,33.031278],[-86.50734,33.031134],[-86.507884,33.03124],[-86.508066,33.031244],[-86.508277,33.031192],[-86.50836,33.031134],[-86.508391,33.031075],[-86.508386,33.030963],[-86.508274,33.030736],[-86.508274,33.03068],[-86.508313,33.030649],[-86.508425,33.030707],[-86.508693,33.030925],[-86.508806,33.030988],[-86.509381,33.031097],[-86.5098,33.031286],[-86.509941,33.031319],[-86.510083,33.031309],[-86.510249,33.031255],[-86.510687,33.031011],[-86.510827,33.030835],[-86.510925,33.030812],[-86.511119,33.030805],[-86.511094,33.030108],[-86.511027,33.030096],[-86.510909,33.030034],[-86.510794,33.029942],[-86.510754,33.029883],[-86.510765,33.029826],[-86.510851,33.029774],[-86.511082,33.029774],[-86.511079,33.0297],[-86.510421,33.029707]]]}},{"type":"Feature","id":"01037:0509290000002000","properties":{"id":"01037:0509290000002000","parcelId":"0509290000002000","countyFips":"01037","countyName":"Coosa","state":"Alabama","marketIds":["Montgomery"],"situsAddress":null,"situsCity":null,"situsZip":null,"jurisdictionCode":null,"ownerName":null,"ownerName2":null,"propertyName":null,"zoningCode":null,"zoningDistrict":null,"jurisdictionPrefix":null,"dorCode":null,"acreage":41.317,"centroid":[-86.504222,33.038404],"lastSale":{"date":null,"price":null,"qualified":null},"tax":{"marketValue":null,"assessedValue":null,"taxableValue":null,"taxes":null},"mailingAddress":{"line1":null,"line2":null,"city":null,"state":null,"zip":null},"incomeTract":null,"incomeBlockGroup":null,"nearestRoad":null,"flu":null,"opportunityZone":null,"oz2Eligibility":null,"source":"al-coosa-parcels-01037","appraiserUrl":"https://coosa.capturecama.com/mapparceldetail/0509290000002000","gisViewerUrl":"https://coosa.capturecama.com/parcelviewer/"},"geometry":{"type":"Polygon","coordinates":[[[-86.500024,33.040124],[-86.500025,33.040124],[-86.500154,33.040061],[-86.5003,33.040052],[-86.50067,33.040166],[-86.501015,33.040209],[-86.501131,33.040264],[-86.501219,33.040383],[-86.501235,33.040565],[-86.501179,33.040721],[-86.501047,33.040877],[-86.501041,33.04094],[-86.501123,33.04104],[-86.50141,33.041174],[-86.50217,33.040556],[-86.502698,33.040491],[-86.502993,33.040606],[-86.503087,33.040593],[-86.503235,33.040442],[-86.503447,33.040323],[-86.503869,33.040259],[-86.504109,33.04],[-86.50455,33.039888],[-86.504712,33.039815],[-86.505006,33.03977],[-86.505162,33.039818],[-86.5054,33.039807],[-86.505851,33.040403],[-86.506019,33.040741],[-86.506065,33.040739],[-86.506516,33.039922],[-86.506707,33.039841],[-86.508743,33.03989],[-86.510142,33.039446],[-86.510237,33.039108],[-86.510232,33.039043],[-86.510043,33.03866],[-86.510053,33.038622],[-86.510628,33.038321],[-86.510687,33.038328],[-86.510883,33.038529],[-86.510869,33.038706],[-86.510932,33.038767],[-86.511098,33.038769],[-86.511416,33.038945],[-86.511373,33.037761],[-86.511228,33.037732],[-86.511138,33.037743],[-86.510876,33.037969],[-86.51074,33.037959],[-86.510715,33.037942],[-86.510818,33.037814],[-86.510856,33.037738],[-86.51086,33.037655],[-86.510812,33.037583],[-86.51063,33.037502],[-86.510424,33.03747],[-86.510248,33.03748],[-86.510133,33.037578],[-86.510006,33.037797],[-86.509751,33.038092],[-86.509721,33.038164],[-86.509691,33.038393],[-86.50954,33.038769],[-86.509532,33.038836],[-86.509579,33.038895],[-86.509729,33.039007],[-86.509764,33.039066],[-86.50976,33.03914],[-86.509699,33.0392],[-86.509229,33.039358],[-86.5084,33.039585],[-86.508175,33.03956],[-86.508026,33.03958],[-86.507938,33.039572],[-86.507384,33.039412],[-86.507243,33.039418],[-86.507197,33.039442],[-86.507192,33.039521],[-86.507172,33.039552],[-86.50713,33.039556],[-86.507074,33.039517],[-86.506911,33.039489],[-86.506695,33.039466],[-86.506561,33.039476],[-86.506398,33.039677],[-86.506301,33.039944],[-86.506209,33.040013],[-86.506167,33.040015],[-86.506097,33.039963],[-86.50605,33.03987],[-86.505924,33.039517],[-86.505886,33.039334],[-86.50584,33.039273],[-86.505769,33.039238],[-86.505691,33.039228],[-86.505094,33.039189],[-86.504847,33.039229],[-86.504571,33.039331],[-86.504226,33.039363],[-86.504032,33.039407],[-86.503183,33.039729],[-86.503005,33.039764],[-86.502445,33.03995],[-86.502029,33.04005],[-86.501837,33.040156],[-86.501346,33.0403],[-86.501221,33.040237],[-86.500743,33.040118],[-86.500529,33.039995],[-86.500411,33.039971],[-86.500151,33.039877],[-86.499937,33.039825],[-86.499748,33.039808],[-86.499658,33.039774],[-86.499574,33.039717],[-86.499362,33.039637],[-86.499166,33.039515],[-86.498965,33.039439],[-86.498657,33.039386],[-86.498459,33.039397],[-86.498315,33.039438],[-86.498243,33.039424],[-86.498011,33.039208],[-86.498028,33.039161],[-86.498144,33.039116],[-86.498526,33.039114],[-86.498782,33.039137],[-86.499292,33.039255],[-86.499621,33.039375],[-86.499735,33.039388],[-86.499864,33.039377],[-86.500192,33.039277],[-86.50033,33.039297],[-86.500907,33.039519],[-86.501014,33.03953],[-86.501175,33.039508],[-86.501666,33.03936],[-86.502029,33.039359],[-86.502203,33.039334],[-86.50294,33.039158],[-86.503768,33.038838],[-86.504041,33.038706],[-86.504176,33.038669],[-86.504719,33.03866],[-86.504913,33.038638],[-86.505107,33.038586],[-86.505204,33.038526],[-86.505288,33.038357],[-86.505375,33.038338],[-86.50552,33.03841],[-86.505673,33.038445],[-86.506135,33.038479],[-86.506384,33.038455],[-86.506481,33.038427],[-86.506549,33.038385],[-86.506563,33.038343],[-86.506513,33.03823],[-86.506543,33.038173],[-86.506711,33.038046],[-86.506833,33.037903],[-86.506895,33.037913],[-86.506884,33.038032],[-86.50684,33.038171],[-86.506845,33.03827],[-86.5069,33.038364],[-86.507046,33.038486],[-86.507242,33.038592],[-86.507404,33.038641],[-86.507558,33.038657],[-86.507796,33.038627],[-86.507962,33.038745],[-86.508096,33.038781],[-86.508397,33.038708],[-86.508507,33.038657],[-86.508583,33.03859],[-86.508652,33.038487],[-86.508672,33.038368],[-86.508662,33.038277],[-86.50869,33.038227],[-86.508944,33.038159],[-86.50903,33.038087],[-86.509151,33.037601],[-86.509232,33.037463],[-86.509625,33.036956],[-86.509657,33.036865],[-86.509642,33.036795],[-86.509543,33.036661],[-86.509245,33.036419],[-86.509175,33.036321],[-86.50914,33.036221],[-86.509162,33.036192],[-86.509665,33.036501],[-86.509937,33.036729],[-86.510059,33.036803],[-86.511168,33.037004],[-86.511348,33.037068],[-86.511329,33.036558],[-86.51117,33.036589],[-86.510257,33.036149],[-86.510138,33.036032],[-86.509261,33.035751],[-86.509092,33.035634],[-86.508627,33.035648],[-86.508522,33.035748],[-86.508579,33.036433],[-86.508674,33.036552],[-86.508837,33.036622],[-86.509094,33.037027],[-86.509084,33.037168],[-86.509048,33.037229],[-86.508695,33.037316],[-86.50861,33.037763],[-86.508554,33.037879],[-86.507597,33.038371],[-86.507418,33.038392],[-86.507244,33.038281],[-86.507207,33.038184],[-86.507098,33.037594],[-86.507083,33.037569],[-86.50692,33.037529],[-86.506877,33.037543],[-86.506496,33.037834],[-86.504844,33.038098],[-86.504384,33.038039],[-86.503649,33.038463],[-86.503501,33.038583],[-86.503279,33.038617],[-86.502839,33.038586],[-86.502801,33.038835],[-86.502678,33.038954],[-86.502275,33.038905],[-86.501958,33.039048],[-86.499981,33.038855],[-86.498094,33.03883],[-86.497114,33.03912],[-86.497029,33.039244],[-86.497082,33.03975],[-86.497149,33.03981],[-86.497987,33.039813],[-86.498437,33.039725],[-86.498556,33.039731],[-86.499107,33.040017],[-86.499374,33.040015],[-86.500024,33.040124]]]}},{"type":"Feature","id":"01037:0504190000006000","properties":{"id":"01037:0504190000006000","parcelId":"0504190000006000","countyFips":"01037","countyName":"Coosa","state":"Alabama","marketIds":["Montgomery"],"situsAddress":null,"situsCity":null,"situsZip":null,"jurisdictionCode":null,"ownerName":null,"ownerName2":null,"propertyName":null,"zoningCode":null,"zoningDistrict":null,"jurisdictionPrefix":null,"dorCode":null,"acreage":9.57,"centroid":[-86.513152,33.05031],"lastSale":{"date":null,"price":null,"qualified":null},"tax":{"marketValue":null,"assessedValue":null,"taxableValue":null,"taxes":null},"mailingAddress":{"line1":null,"line2":null,"city":null,"state":null,"zip":null},"incomeTract":null,"incomeBlockGroup":null,"nearestRoad":null,"flu":null,"opportunityZone":null,"oz2Eligibility":null,"source":"al-coosa-parcels-01037","appraiserUrl":"https://coosa.capturecama.com/mapparceldetail/0504190000006000","gisViewerUrl":"https://coosa.capturecama.com/parcelviewer/"},"geometry":{"type":"Polygon","coordinates":[[[-86.511855,33.051028],[-86.513249,33.051388],[-86.513456,33.05137],[-86.513501,33.051336],[-86.513901,33.050475],[-86.514079,33.049826],[-86.514043,33.049752],[-86.512891,33.049299],[-86.512756,33.049314],[-86.511793,33.049313],[-86.511855,33.051028]]]}},{"type":"Feature","id":"01037:0603060000002000","properties":{"id":"01037:0603060000002000","parcelId":"0603060000002000","countyFips":"01037","countyName":"Coosa","state":"Alabama","marketIds":["Montgomery"],"situsAddress":null,"situsCity":null,"situsZip":null,"jurisdictionCode":null,"ownerName":null,"ownerName2":null,"propertyName":null,"zoningCode":null,"zoningDistrict":null,"jurisdictionPrefix":null,"dorCode":null,"acreage":105.9291,"centroid":[-86.514078,33.003849],"lastSale":{"date":null,"price":null,"qualified":null},"tax":{"marketValue":null,"assessedValue":null,"taxableValue":null,"taxes":null},"mailingAddress":{"line1":null,"line2":null,"city":null,"state":null,"zip":null},"incomeTract":null,"incomeBlockGroup":null,"nearestRoad":null,"flu":null,"opportunityZone":null,"oz2Eligibility":null,"source":"al-coosa-parcels-01037","appraiserUrl":"https://coosa.capturecama.com/mapparceldetail/0603060000002000","gisViewerUrl":"https://coosa.capturecama.com/parcelviewer/"},"geometry":{"type":"Polygon","coordinates":[[[-86.514929,33.000464],[-86.514915,33.00046],[-86.514665,33.000409],[-86.514429,33.000395],[-86.514115,33.000425],[-86.513788,33.000512],[-86.513682,33.000474],[-86.510195,33.000504],[-86.510357,33.007302],[-86.516677,33.007216],[-86.51647,33.007191],[-86.516368,33.007126],[-86.516334,33.007069],[-86.516325,33.007],[-86.516344,33.006938],[-86.516387,33.006886],[-86.516455,33.006846],[-86.516544,33.00683],[-86.517273,33.006871],[-86.517394,33.00683],[-86.517483,33.006749],[-86.517806,33.005787],[-86.517804,33.00573],[-86.517748,33.005676],[-86.517658,33.005671],[-86.51746,33.005836],[-86.517356,33.005885],[-86.517267,33.005903],[-86.517106,33.00588],[-86.516984,33.005801],[-86.516928,33.005712],[-86.516914,33.00562],[-86.516933,33.005537],[-86.51701,33.005397],[-86.517007,33.005268],[-86.516934,33.005155],[-86.516773,33.005064],[-86.516723,33.005008],[-86.516708,33.004933],[-86.516743,33.004706],[-86.516722,33.004552],[-86.516669,33.004422],[-86.516623,33.004388],[-86.516558,33.004373],[-86.516481,33.004388],[-86.516177,33.004548],[-86.515946,33.004624],[-86.515664,33.004675],[-86.515315,33.004688],[-86.515172,33.004734],[-86.514709,33.005057],[-86.514641,33.005129],[-86.51457,33.005296],[-86.514584,33.005509],[-86.514523,33.005594],[-86.514451,33.005622],[-86.514366,33.005619],[-86.514297,33.005585],[-86.514232,33.005497],[-86.514181,33.005463],[-86.514105,33.005447],[-86.514022,33.005464],[-86.513611,33.005849],[-86.513239,33.006139],[-86.512805,33.006413],[-86.512364,33.006634],[-86.511988,33.006749],[-86.511569,33.006788],[-86.511448,33.006781],[-86.51136,33.006753],[-86.511281,33.006697],[-86.511232,33.00662],[-86.511233,33.006558],[-86.511286,33.006515],[-86.511469,33.006534],[-86.511579,33.006501],[-86.513189,33.005441],[-86.513246,33.005382],[-86.513268,33.005322],[-86.513265,33.005259],[-86.513236,33.005201],[-86.513186,33.005154],[-86.512543,33.004936],[-86.512425,33.004853],[-86.512378,33.004753],[-86.512386,33.004652],[-86.512442,33.004563],[-86.512545,33.004498],[-86.512688,33.004478],[-86.513528,33.004585],[-86.513819,33.004609],[-86.513937,33.004595],[-86.514054,33.004535],[-86.514129,33.004447],[-86.514157,33.004334],[-86.514125,33.004194],[-86.51413,33.004117],[-86.514175,33.004035],[-86.514255,33.003974],[-86.514357,33.003945],[-86.514464,33.003953],[-86.514559,33.003995],[-86.514662,33.004102],[-86.51474,33.004149],[-86.514857,33.004174],[-86.514969,33.00416],[-86.515704,33.003902],[-86.515797,33.003821],[-86.515899,33.003617],[-86.51603,33.003477],[-86.516218,33.003375],[-86.516436,33.003329],[-86.516594,33.003335],[-86.516747,33.003372],[-86.516954,33.003469],[-86.517123,33.003575],[-86.517258,33.00369],[-86.517374,33.003819],[-86.517476,33.003975],[-86.517553,33.004143],[-86.517604,33.004192],[-86.517735,33.004212],[-86.517793,33.004189],[-86.517839,33.004144],[-86.517925,33.003768],[-86.517962,33.003357],[-86.517952,33.002975],[-86.517891,33.002566],[-86.517789,33.002193],[-86.517632,33.001803],[-86.517432,33.001431],[-86.517188,33.001081],[-86.516987,33.000845],[-86.516868,33.000735],[-86.516731,33.000698],[-86.516591,33.000731],[-86.516499,33.000816],[-86.516468,33.000945],[-86.516495,33.001062],[-86.51662,33.001274],[-86.516627,33.001366],[-86.516599,33.001464],[-86.516523,33.001563],[-86.516411,33.001632],[-86.516276,33.001664],[-86.516128,33.00165],[-86.515997,33.00159],[-86.51592,33.001505],[-86.51591,33.001437],[-86.515948,33.001325],[-86.515952,33.001244],[-86.515926,33.001157],[-86.515866,33.001075],[-86.515725,33.000991],[-86.515527,33.000966],[-86.515444,33.000934],[-86.515368,33.000847],[-86.51536,33.000702],[-86.515324,33.000641],[-86.515146,33.000544],[-86.514929,33.000464]]]}},{"type":"Feature","id":"01037:0509310000002000","properties":{"id":"01037:0509310000002000","parcelId":"0509310000002000","countyFips":"01037","countyName":"Coosa","state":"Alabama","marketIds":["Montgomery"],"situsAddress":null,"situsCity":null,"situsZip":null,"jurisdictionCode":null,"ownerName":null,"ownerName2":null,"propertyName":null,"zoningCode":null,"zoningDistrict":null,"jurisdictionPrefix":null,"dorCode":null,"acreage":16.8683,"centroid":[-86.51191,33.023054],"lastSale":{"date":null,"price":null,"qualified":null},"tax":{"marketValue":null,"assessedValue":null,"taxableValue":null,"taxes":null},"mailingAddress":{"line1":null,"line2":null,"city":null,"state":null,"zip":null},"incomeTract":null,"incomeBlockGroup":null,"nearestRoad":null,"flu":null,"opportunityZone":null,"oz2Eligibility":null,"source":"al-coosa-parcels-01037","appraiserUrl":"https://coosa.capturecama.com/mapparceldetail/0509310000002000","gisViewerUrl":"https://coosa.capturecama.com/parcelviewer/"},"geometry":{"type":"Polygon","coordinates":[[[-86.510811,33.022346],[-86.510872,33.024031],[-86.511291,33.02386],[-86.511565,33.02372],[-86.511748,33.023577],[-86.511943,33.023488],[-86.512493,33.023398],[-86.512633,33.023341],[-86.512726,33.02328],[-86.512964,33.022976],[-86.51321,33.022388],[-86.513383,33.022091],[-86.51341,33.021977],[-86.513376,33.021734],[-86.513332,33.021668],[-86.513256,33.021611],[-86.512938,33.021491],[-86.512909,33.021439],[-86.512981,33.021378],[-86.513118,33.021355],[-86.513303,33.021386],[-86.513546,33.021396],[-86.513612,33.02137],[-86.513715,33.021263],[-86.513817,33.021035],[-86.51409,33.020296],[-86.514252,33.019972],[-86.514249,33.019853],[-86.514213,33.01977],[-86.514144,33.019734],[-86.513453,33.019758],[-86.513377,33.019615],[-86.513317,33.019582],[-86.513171,33.019562],[-86.513086,33.019658],[-86.512789,33.02013],[-86.512334,33.020663],[-86.512254,33.020755],[-86.512147,33.020823],[-86.51207,33.020839],[-86.512054,33.020726],[-86.512102,33.020592],[-86.512598,33.019663],[-86.512623,33.019572],[-86.512606,33.019435],[-86.512495,33.019346],[-86.512374,33.019366],[-86.512057,33.01948],[-86.511981,33.019497],[-86.511786,33.019483],[-86.511584,33.019522],[-86.511112,33.01966],[-86.511062,33.019715],[-86.511001,33.019849],[-86.510941,33.019769],[-86.510784,33.019752],[-86.510716,33.019769],[-86.510732,33.020195],[-86.511806,33.019864],[-86.511933,33.019903],[-86.511911,33.020063],[-86.511656,33.020988],[-86.511877,33.021224],[-86.511993,33.021206],[-86.51315,33.0205],[-86.513298,33.020465],[-86.513375,33.020535],[-86.513347,33.020703],[-86.512659,33.021304],[-86.512626,33.021374],[-86.51266,33.021488],[-86.512842,33.021884],[-86.512829,33.021976],[-86.512656,33.022293],[-86.512611,33.022318],[-86.510811,33.022346]]]}},{"type":"Feature","id":"01037:0509310000006000","properties":{"id":"01037:0509310000006000","parcelId":"0509310000006000","countyFips":"01037","countyName":"Coosa","state":"Alabama","marketIds":["Montgomery"],"situsAddress":null,"situsCity":null,"situsZip":null,"jurisdictionCode":null,"ownerName":null,"ownerName2":null,"propertyName":null,"zoningCode":null,"zoningDistrict":null,"jurisdictionPrefix":null,"dorCode":null,"acreage":33.6273,"centroid":[-86.513419,33.016593],"lastSale":{"date":null,"price":null,"qualified":null},"tax":{"marketValue":null,"assessedValue":null,"taxableValue":null,"taxes":null},"mailingAddress":{"line1":null,"line2":null,"city":null,"state":null,"zip":null},"incomeTract":null,"incomeBlockGroup":null,"nearestRoad":null,"flu":null,"opportunityZone":null,"oz2Eligibility":null,"source":"al-coosa-parcels-01037","appraiserUrl":"https://coosa.capturecama.com/mapparceldetail/0509310000006000","gisViewerUrl":"https://coosa.capturecama.com/parcelviewer/"},"geometry":{"type":"Polygon","coordinates":[[[-86.510593,33.01639],[-86.510647,33.016376],[-86.510744,33.016422],[-86.510906,33.016785],[-86.510933,33.017158],[-86.511361,33.018083],[-86.512261,33.0184],[-86.512307,33.018375],[-86.512464,33.017978],[-86.512541,33.017951],[-86.513702,33.018398],[-86.513985,33.018004],[-86.514242,33.017984],[-86.514274,33.018001],[-86.514398,33.018369],[-86.514588,33.018408],[-86.514656,33.018372],[-86.514938,33.017717],[-86.514918,33.017674],[-86.514482,33.017588],[-86.514451,33.017504],[-86.514413,33.017461],[-86.51356,33.017286],[-86.513487,33.016959],[-86.513537,33.016766],[-86.513652,33.016725],[-86.514758,33.016781],[-86.51478,33.016745],[-86.514695,33.016526],[-86.514806,33.016356],[-86.515209,33.016339],[-86.515309,33.016196],[-86.515283,33.01613],[-86.514372,33.015764],[-86.514372,33.015614],[-86.514446,33.015575],[-86.514641,33.015585],[-86.514701,33.015542],[-86.514799,33.015332],[-86.514935,33.01529],[-86.51526,33.015403],[-86.515561,33.015335],[-86.516299,33.014777],[-86.510538,33.014873],[-86.510593,33.01639]]]}},{"type":"Feature","id":"01037:0509320000003000","properties":{"id":"01037:0509320000003000","parcelId":"0509320000003000","countyFips":"01037","countyName":"Coosa","state":"Alabama","marketIds":["Montgomery"],"situsAddress":null,"situsCity":null,"situsZip":null,"jurisdictionCode":null,"ownerName":null,"ownerName2":null,"propertyName":null,"zoningCode":null,"zoningDistrict":null,"jurisdictionPrefix":null,"dorCode":null,"acreage":40.9684,"centroid":[-86.508682,33.024202],"lastSale":{"date":null,"price":null,"qualified":null},"tax":{"marketValue":null,"assessedValue":null,"taxableValue":null,"taxes":null},"mailingAddress":{"line1":null,"line2":null,"city":null,"state":null,"zip":null},"incomeTract":null,"incomeBlockGroup":null,"nearestRoad":null,"flu":null,"opportunityZone":null,"oz2Eligibility":null,"source":"al-coosa-parcels-01037","appraiserUrl":"https://coosa.capturecama.com/mapparceldetail/0509320000003000","gisViewerUrl":"https://coosa.capturecama.com/parcelviewer/"},"geometry":{"type":"Polygon","coordinates":[[[-86.510811,33.022346],[-86.506404,33.022415],[-86.506568,33.026055],[-86.510944,33.02599],[-86.510811,33.022346]]]}},{"type":"Feature","id":"01037:0509310000001000","properties":{"id":"01037:0509310000001000","parcelId":"0509310000001000","countyFips":"01037","countyName":"Coosa","state":"Alabama","marketIds":["Montgomery"],"situsAddress":null,"situsCity":null,"situsZip":null,"jurisdictionCode":null,"ownerName":null,"ownerName2":null,"propertyName":null,"zoningCode":null,"zoningDistrict":null,"jurisdictionPrefix":null,"dorCode":null,"acreage":30.5843,"centroid":[-86.512449,33.026847],"lastSale":{"date":null,"price":null,"qualified":null},"tax":{"marketValue":null,"assessedValue":null,"taxableValue":null,"taxes":null},"mailingAddress":{"line1":null,"line2":null,"city":null,"state":null,"zip":null},"incomeTract":null,"incomeBlockGroup":null,"nearestRoad":null,"flu":null,"opportunityZone":null,"oz2Eligibility":null,"source":"al-coosa-parcels-01037","appraiserUrl":"https://coosa.capturecama.com/mapparceldetail/0509310000001000","gisViewerUrl":"https://coosa.capturecama.com/parcelviewer/"},"geometry":{"type":"Polygon","coordinates":[[[-86.510944,33.02599],[-86.511079,33.0297],[-86.511512,33.029696],[-86.511526,33.029664],[-86.511153,33.029216],[-86.51109,33.029106],[-86.511094,33.029045],[-86.511122,33.029035],[-86.511276,33.0291],[-86.511641,33.029347],[-86.511833,33.029422],[-86.511997,33.029451],[-86.512262,33.029453],[-86.512336,33.02943],[-86.512436,33.029364],[-86.51247,33.029302],[-86.512465,33.029062],[-86.512529,33.029024],[-86.512678,33.029135],[-86.512796,33.029157],[-86.512964,33.02908],[-86.51306,33.028971],[-86.513157,33.028822],[-86.51326,33.028625],[-86.513343,33.028408],[-86.513389,33.028105],[-86.513413,33.027439],[-86.513444,33.02717],[-86.513554,33.02686],[-86.513555,33.026389],[-86.513537,33.026163],[-86.513413,33.025831],[-86.513279,33.025697],[-86.513132,33.025683],[-86.512339,33.02579],[-86.512241,33.025774],[-86.512178,33.025719],[-86.512495,33.025497],[-86.512692,33.025393],[-86.512812,33.025307],[-86.512874,33.025233],[-86.512886,33.025157],[-86.512864,33.025004],[-86.512939,33.024905],[-86.513037,33.024838],[-86.512988,33.024683],[-86.512939,33.024383],[-86.512949,33.024017],[-86.512997,33.023849],[-86.51293,33.023798],[-86.512731,33.023794],[-86.512481,33.023808],[-86.512248,33.023913],[-86.512098,33.023873],[-86.511971,33.023891],[-86.511643,33.023986],[-86.511114,33.024234],[-86.510883,33.02432],[-86.510944,33.02599]]]}},{"type":"Feature","id":"01037:0504190000005000","properties":{"id":"01037:0504190000005000","parcelId":"0504190000005000","countyFips":"01037","countyName":"Coosa","state":"Alabama","marketIds":["Montgomery"],"situsAddress":null,"situsCity":null,"situsZip":null,"jurisdictionCode":null,"ownerName":null,"ownerName2":null,"propertyName":null,"zoningCode":null,"zoningDistrict":null,"jurisdictionPrefix":null,"dorCode":null,"acreage":42.3911,"centroid":[-86.514923,33.046822],"lastSale":{"date":null,"price":null,"qualified":null},"tax":{"marketValue":null,"assessedValue":null,"taxableValue":null,"taxes":null},"mailingAddress":{"line1":null,"line2":null,"city":null,"state":null,"zip":null},"incomeTract":null,"incomeBlockGroup":null,"nearestRoad":null,"flu":null,"opportunityZone":null,"oz2Eligibility":null,"source":"al-coosa-parcels-01037","appraiserUrl":"https://coosa.capturecama.com/mapparceldetail/0504190000005000","gisViewerUrl":"https://coosa.capturecama.com/parcelviewer/"},"geometry":{"type":"Polygon","coordinates":[[[-86.511758,33.048341],[-86.513876,33.048055],[-86.514073,33.048117],[-86.515077,33.048884],[-86.515192,33.048884],[-86.516342,33.047853],[-86.516378,33.047759],[-86.515923,33.047015],[-86.515948,33.046962],[-86.515904,33.046545],[-86.515393,33.046233],[-86.515246,33.045749],[-86.515374,33.04523],[-86.515384,33.045109],[-86.515294,33.044188],[-86.511609,33.044223],[-86.511758,33.048341]]]}},{"type":"Feature","id":"01037:0504190000004000","properties":{"id":"01037:0504190000004000","parcelId":"0504190000004000","countyFips":"01037","countyName":"Coosa","state":"Alabama","marketIds":["Montgomery"],"situsAddress":null,"situsCity":null,"situsZip":null,"jurisdictionCode":null,"ownerName":null,"ownerName2":null,"propertyName":null,"zoningCode":null,"zoningDistrict":null,"jurisdictionPrefix":null,"dorCode":null,"acreage":11.6369,"centroid":[-86.512404,33.048467],"lastSale":{"date":null,"price":null,"qualified":null},"tax":{"marketValue":null,"assessedValue":null,"taxableValue":null,"taxes":null},"mailingAddress":{"line1":null,"line2":null,"city":null,"state":null,"zip":null},"incomeTract":null,"incomeBlockGroup":null,"nearestRoad":null,"flu":null,"opportunityZone":null,"oz2Eligibility":null,"source":"al-coosa-parcels-01037","appraiserUrl":"https://coosa.capturecama.com/mapparceldetail/0504190000004000","gisViewerUrl":"https://coosa.capturecama.com/parcelviewer/"},"geometry":{"type":"Polygon","coordinates":[[[-86.51177,33.048681],[-86.511872,33.048665],[-86.512149,33.0487],[-86.512255,33.048671],[-86.512377,33.048568],[-86.512455,33.04859],[-86.51255,33.048648],[-86.512625,33.048654],[-86.513156,33.048546],[-86.513321,33.048505],[-86.513377,33.048302],[-86.513465,33.048397],[-86.513505,33.048592],[-86.513725,33.048599],[-86.514004,33.048464],[-86.514089,33.048497],[-86.514115,33.048744],[-86.51419,33.048835],[-86.514366,33.04895],[-86.514701,33.049252],[-86.514866,33.049341],[-86.515258,33.049392],[-86.515551,33.04926],[-86.515939,33.049037],[-86.516406,33.048576],[-86.516491,33.048479],[-86.516667,33.048165],[-86.516727,33.047985],[-86.516751,33.047809],[-86.51675,33.047563],[-86.516718,33.047489],[-86.516491,33.047267],[-86.516302,33.047191],[-86.516226,33.047107],[-86.516234,33.047009],[-86.516356,33.046986],[-86.516395,33.04686],[-86.51633,33.046588],[-86.516124,33.046289],[-86.515963,33.04614],[-86.515793,33.046018],[-86.515957,33.045891],[-86.515998,33.045661],[-86.515994,33.04541],[-86.515859,33.044744],[-86.515848,33.044183],[-86.515294,33.044188],[-86.515384,33.045109],[-86.515374,33.04523],[-86.515246,33.045749],[-86.515393,33.046233],[-86.515904,33.046545],[-86.515948,33.046962],[-86.515923,33.047015],[-86.516378,33.047759],[-86.516342,33.047853],[-86.515192,33.048884],[-86.515077,33.048884],[-86.514073,33.048117],[-86.513876,33.048055],[-86.511758,33.048341],[-86.51177,33.048681]]]}},{"type":"Feature","id":"01037:0504190000003000","properties":{"id":"01037:0504190000003000","parcelId":"0504190000003000","countyFips":"01037","countyName":"Coosa","state":"Alabama","marketIds":["Montgomery"],"situsAddress":null,"situsCity":null,"situsZip":null,"jurisdictionCode":null,"ownerName":null,"ownerName2":null,"propertyName":null,"zoningCode":null,"zoningDistrict":null,"jurisdictionPrefix":null,"dorCode":null,"acreage":7.2365,"centroid":[-86.512605,33.051242],"lastSale":{"date":null,"price":null,"qualified":null},"tax":{"marketValue":null,"assessedValue":null,"taxableValue":null,"taxes":null},"mailingAddress":{"line1":null,"line2":null,"city":null,"state":null,"zip":null},"incomeTract":null,"incomeBlockGroup":null,"nearestRoad":null,"flu":null,"opportunityZone":null,"oz2Eligibility":null,"source":"al-coosa-parcels-01037","appraiserUrl":"https://coosa.capturecama.com/mapparceldetail/0504190000003000","gisViewerUrl":"https://coosa.capturecama.com/parcelviewer/"},"geometry":{"type":"Polygon","coordinates":[[[-86.511861,33.051212],[-86.512088,33.0513],[-86.512418,33.051497],[-86.51256,33.051613],[-86.512896,33.051691],[-86.51338,33.051738],[-86.5135,33.051703],[-86.513679,33.051609],[-86.513889,33.05153],[-86.513995,33.051371],[-86.514138,33.051003],[-86.51421,33.050911],[-86.514556,33.050662],[-86.514675,33.050518],[-86.514746,33.050167],[-86.514703,33.049854],[-86.514519,33.049713],[-86.514428,33.049521],[-86.514182,33.049246],[-86.514057,33.049148],[-86.513917,33.049096],[-86.513538,33.049011],[-86.513211,33.048986],[-86.513156,33.048939],[-86.51302,33.048882],[-86.512783,33.04894],[-86.512611,33.049017],[-86.512208,33.049061],[-86.511834,33.048878],[-86.511777,33.048873],[-86.511793,33.049313],[-86.512756,33.049314],[-86.512891,33.049299],[-86.514043,33.049752],[-86.514079,33.049826],[-86.513901,33.050475],[-86.513501,33.051336],[-86.513456,33.05137],[-86.513249,33.051388],[-86.511855,33.051028],[-86.511861,33.051212]]]}},{"type":"Feature","id":"01037:0503050000002000","properties":{"id":"01037:0503050000002000","parcelId":"0503050000002000","countyFips":"01037","countyName":"Coosa","state":"Alabama","marketIds":["Montgomery"],"situsAddress":null,"situsCity":null,"situsZip":null,"jurisdictionCode":null,"ownerName":null,"ownerName2":null,"propertyName":null,"zoningCode":null,"zoningDistrict":null,"jurisdictionPrefix":null,"dorCode":null,"acreage":24.0403,"centroid":[-86.506464,33.088646],"lastSale":{"date":null,"price":null,"qualified":null},"tax":{"marketValue":null,"assessedValue":null,"taxableValue":null,"taxes":null},"mailingAddress":{"line1":null,"line2":null,"city":null,"state":null,"zip":null},"incomeTract":null,"incomeBlockGroup":null,"nearestRoad":null,"flu":null,"opportunityZone":null,"oz2Eligibility":null,"source":"al-coosa-parcels-01037","appraiserUrl":"https://coosa.capturecama.com/mapparceldetail/0503050000002000","gisViewerUrl":"https://coosa.capturecama.com/parcelviewer/"},"geometry":{"type":"Polygon","coordinates":[[[-86.507424,33.08814],[-86.507444,33.088057],[-86.504247,33.088079],[-86.504269,33.089826],[-86.504125,33.090069],[-86.503839,33.090165],[-86.502676,33.089705],[-86.5018,33.088921],[-86.501407,33.089063],[-86.501835,33.090177],[-86.502536,33.091252],[-86.500226,33.092355],[-86.500037,33.092277],[-86.499899,33.091769],[-86.499594,33.091628],[-86.498725,33.092276],[-86.498565,33.092573],[-86.498733,33.092804],[-86.495864,33.094542],[-86.495871,33.094824],[-86.496555,33.094417],[-86.497912,33.093549],[-86.499019,33.092934],[-86.499153,33.092744],[-86.499111,33.092611],[-86.498834,33.092552],[-86.498795,33.092439],[-86.499039,33.092286],[-86.499353,33.092126],[-86.499529,33.091981],[-86.499639,33.091861],[-86.499736,33.09189],[-86.499837,33.092496],[-86.500094,33.092577],[-86.500416,33.092475],[-86.501276,33.092081],[-86.502195,33.091692],[-86.502747,33.091497],[-86.502985,33.091374],[-86.50304,33.091202],[-86.503006,33.091127],[-86.502942,33.091085],[-86.502772,33.091113],[-86.502686,33.091161],[-86.502651,33.091086],[-86.502686,33.090848],[-86.502676,33.090702],[-86.502579,33.090673],[-86.50245,33.090589],[-86.502193,33.090263],[-86.501988,33.089903],[-86.501927,33.089724],[-86.501864,33.089613],[-86.501768,33.089515],[-86.501678,33.0893],[-86.501739,33.089235],[-86.501839,33.089283],[-86.502087,33.08955],[-86.502395,33.089822],[-86.502616,33.089984],[-86.5033,33.090206],[-86.503516,33.09033],[-86.503931,33.09062],[-86.504041,33.090657],[-86.504283,33.090641],[-86.505136,33.090435],[-86.505774,33.090192],[-86.505941,33.090145],[-86.506029,33.090028],[-86.506172,33.089739],[-86.506186,33.089522],[-86.506101,33.089257],[-86.506087,33.089005],[-86.506154,33.088909],[-86.506294,33.088914],[-86.506566,33.089023],[-86.506856,33.089022],[-86.506981,33.088999],[-86.507155,33.088922],[-86.507681,33.088622],[-86.507761,33.088536],[-86.507843,33.08838],[-86.507787,33.088239],[-86.50772,33.088178],[-86.507424,33.08814]]]}},{"type":"Feature","id":"01037:0504170000005001","properties":{"id":"01037:0504170000005001","parcelId":"0504170000005001","countyFips":"01037","countyName":"Coosa","state":"Alabama","marketIds":["Montgomery"],"situsAddress":null,"situsCity":null,"situsZip":null,"jurisdictionCode":null,"ownerName":null,"ownerName2":null,"propertyName":null,"zoningCode":null,"zoningDistrict":null,"jurisdictionPrefix":null,"dorCode":null,"acreage":25.9247,"centroid":[-86.500761,33.060805],"lastSale":{"date":null,"price":null,"qualified":null},"tax":{"marketValue":null,"assessedValue":null,"taxableValue":null,"taxes":null},"mailingAddress":{"line1":null,"line2":null,"city":null,"state":null,"zip":null},"incomeTract":null,"incomeBlockGroup":null,"nearestRoad":null,"flu":null,"opportunityZone":null,"oz2Eligibility":null,"source":"al-coosa-parcels-01037","appraiserUrl":"https://coosa.capturecama.com/mapparceldetail/0504170000005001","gisViewerUrl":"https://coosa.capturecama.com/parcelviewer/"},"geometry":{"type":"Polygon","coordinates":[[[-86.499224,33.06154],[-86.499333,33.061549],[-86.499813,33.061384],[-86.499928,33.061417],[-86.500324,33.061607],[-86.501409,33.061001],[-86.501478,33.06099],[-86.503512,33.060913],[-86.503442,33.058805],[-86.499144,33.058844],[-86.499224,33.06154]]]}},{"type":"Feature","id":"01037:0504170000005000","properties":{"id":"01037:0504170000005000","parcelId":"0504170000005000","countyFips":"01037","countyName":"Coosa","state":"Alabama","marketIds":["Montgomery"],"situsAddress":null,"situsCity":null,"situsZip":null,"jurisdictionCode":null,"ownerName":null,"ownerName2":null,"propertyName":null,"zoningCode":null,"zoningDistrict":null,"jurisdictionPrefix":null,"dorCode":null,"acreage":17.8195,"centroid":[-86.502318,33.061162],"lastSale":{"date":null,"price":null,"qualified":null},"tax":{"marketValue":null,"assessedValue":null,"taxableValue":null,"taxes":null},"mailingAddress":{"line1":null,"line2":null,"city":null,"state":null,"zip":null},"incomeTract":null,"incomeBlockGroup":null,"nearestRoad":null,"flu":null,"opportunityZone":null,"oz2Eligibility":null,"source":"al-coosa-parcels-01037","appraiserUrl":"https://coosa.capturecama.com/mapparceldetail/0504170000005000","gisViewerUrl":"https://coosa.capturecama.com/parcelviewer/"},"geometry":{"type":"Polygon","coordinates":[[[-86.494908,33.061047],[-86.494931,33.061053],[-86.495147,33.061119],[-86.495234,33.061179],[-86.495295,33.06125],[-86.495387,33.061418],[-86.495595,33.061587],[-86.495712,33.061644],[-86.495961,33.06172],[-86.496132,33.061859],[-86.496262,33.061932],[-86.496418,33.061966],[-86.496889,33.061972],[-86.497025,33.062023],[-86.49709,33.062125],[-86.497177,33.062162],[-86.497483,33.062166],[-86.497735,33.06224],[-86.497881,33.062243],[-86.498206,33.062202],[-86.498337,33.062155],[-86.498535,33.062016],[-86.498649,33.061978],[-86.499482,33.061912],[-86.499606,33.06188],[-86.499674,33.06184],[-86.499728,33.061778],[-86.499781,33.061661],[-86.499885,33.061616],[-86.500031,33.061802],[-86.500076,33.061898],[-86.500223,33.061989],[-86.500335,33.06199],[-86.500442,33.061961],[-86.500688,33.061827],[-86.501334,33.061386],[-86.501485,33.061326],[-86.502132,33.061243],[-86.502906,33.061264],[-86.503685,33.061205],[-86.504332,33.061279],[-86.504927,33.061265],[-86.505152,33.06129],[-86.505209,33.061345],[-86.505329,33.061412],[-86.505463,33.061434],[-86.505541,33.0614],[-86.505584,33.061352],[-86.505596,33.061197],[-86.505675,33.061132],[-86.505682,33.060966],[-86.505527,33.060625],[-86.505476,33.060553],[-86.505431,33.060382],[-86.505469,33.060247],[-86.505637,33.060312],[-86.505767,33.060413],[-86.505899,33.060596],[-86.506137,33.060778],[-86.506223,33.060892],[-86.506217,33.061011],[-86.506152,33.061169],[-86.506136,33.061261],[-86.506151,33.061345],[-86.50625,33.061501],[-86.506314,33.061548],[-86.506461,33.061584],[-86.506769,33.061584],[-86.50694,33.061526],[-86.507525,33.061227],[-86.507925,33.061072],[-86.509066,33.060293],[-86.509555,33.06001],[-86.509638,33.059924],[-86.509655,33.059867],[-86.509645,33.059786],[-86.509588,33.059676],[-86.509392,33.059548],[-86.509244,33.059245],[-86.508994,33.059049],[-86.508685,33.058757],[-86.508297,33.058761],[-86.508866,33.059565],[-86.508886,33.059782],[-86.507482,33.060874],[-86.507293,33.060927],[-86.506696,33.060872],[-86.505805,33.060173],[-86.505324,33.059985],[-86.505259,33.059997],[-86.505044,33.06017],[-86.505168,33.060733],[-86.504973,33.06096],[-86.503876,33.060899],[-86.501478,33.06099],[-86.501409,33.061001],[-86.500324,33.061607],[-86.499928,33.061417],[-86.499813,33.061384],[-86.499333,33.061549],[-86.498139,33.061454],[-86.49806,33.06152],[-86.49813,33.061983],[-86.498094,33.062021],[-86.497567,33.06202],[-86.49748,33.061985],[-86.497316,33.061621],[-86.497183,33.061579],[-86.496363,33.061634],[-86.495823,33.061422],[-86.495422,33.061053],[-86.494896,33.06076],[-86.494908,33.061047]]]}},{"type":"Feature","id":"01037:0504190000007000","properties":{"id":"01037:0504190000007000","parcelId":"0504190000007000","countyFips":"01037","countyName":"Coosa","state":"Alabama","marketIds":["Montgomery"],"situsAddress":null,"situsCity":null,"situsZip":null,"jurisdictionCode":null,"ownerName":null,"ownerName2":null,"propertyName":null,"zoningCode":null,"zoningDistrict":null,"jurisdictionPrefix":null,"dorCode":null,"acreage":12.1772,"centroid":[-86.513601,33.053843],"lastSale":{"date":null,"price":null,"qualified":null},"tax":{"marketValue":null,"assessedValue":null,"taxableValue":null,"taxes":null},"mailingAddress":{"line1":null,"line2":null,"city":null,"state":null,"zip":null},"incomeTract":null,"incomeBlockGroup":null,"nearestRoad":null,"flu":null,"opportunityZone":null,"oz2Eligibility":null,"source":"al-coosa-parcels-01037","appraiserUrl":"https://coosa.capturecama.com/mapparceldetail/0504190000007000","gisViewerUrl":"https://coosa.capturecama.com/parcelviewer/"},"geometry":{"type":"Polygon","coordinates":[[[-86.513941,33.054957],[-86.514163,33.054405],[-86.514411,33.054183],[-86.514555,33.054185],[-86.514822,33.053839],[-86.514822,33.05376],[-86.513558,33.052811],[-86.513416,33.05278],[-86.511989,33.053163],[-86.511933,33.053195],[-86.511998,33.055],[-86.513941,33.054957]]]}}]}