{"type":"FeatureCollection","name":"45063-5_28","features":[{"type":"Feature","id":"45063:003800-04-030","properties":{"id":"45063:003800-04-030","parcelId":"003800-04-030","countyFips":"45063","countyName":"Lexington","state":"South Carolina","marketIds":["Columbia"],"situsAddress":"0 RIDGE ROAD","situsCity":null,"situsZip":null,"jurisdictionCode":null,"ownerName":"DERRICK SR, WILLIAM C TRUSTEE","ownerName2":null,"propertyName":null,"zoningCode":"RD","zoningDistrict":null,"jurisdictionPrefix":null,"dorCode":"2","acreage":87.22,"centroid":[-81.506343,34.000312],"lastSale":{"date":"2026-04-01","price":5.0,"qualified":"NOT VALID"},"tax":{"marketValue":218100.0,"assessedValue":480.0,"taxableValue":218100.0,"taxes":null},"mailingAddress":{"line1":"2228 RIDGE RD","line2":null,"city":"LEESVILLE","state":"SC","zip":"29070"},"incomeTract":null,"incomeBlockGroup":null,"nearestRoad":null,"flu":null,"opportunityZone":null,"oz2Eligibility":null,"source":"sc-lexington-property-4","appraiserUrl":"https://maps.lex-co.com/OneMap/"},"geometry":{"type":"Polygon","coordinates":[[[-81.504422,34.002402],[-81.504398,34.00358],[-81.506591,34.003433],[-81.507704,34.005065],[-81.51117,33.998123],[-81.508024,33.997098],[-81.505642,33.996346],[-81.505926,33.997168],[-81.504474,33.997695],[-81.505081,34.002213],[-81.504422,34.002402]]]}},{"type":"Feature","id":"45063:003800-04-033","properties":{"id":"45063:003800-04-033","parcelId":"003800-04-033","countyFips":"45063","countyName":"Lexington","state":"South Carolina","marketIds":["Columbia"],"situsAddress":"0 ETHAN COOK ROAD","situsCity":null,"situsZip":null,"jurisdictionCode":null,"ownerName":"WILSON, LAURA STRINGFIELD","ownerName2":null,"propertyName":null,"zoningCode":"RD","zoningDistrict":null,"jurisdictionPrefix":null,"dorCode":"2","acreage":33.97,"centroid":[-81.501116,34.005964],"lastSale":{"date":"2025-09-02","price":1.0,"qualified":"NOT VALID"},"tax":{"marketValue":169900.0,"assessedValue":193.0,"taxableValue":169900.0,"taxes":null},"mailingAddress":{"line1":"5323 BLAIR LN #V204","line2":null,"city":"BATON ROUGE","state":"LA","zip":"70809"},"incomeTract":null,"incomeBlockGroup":null,"nearestRoad":null,"flu":null,"opportunityZone":null,"oz2Eligibility":null,"source":"sc-lexington-property-4","appraiserUrl":"https://maps.lex-co.com/OneMap/"},"geometry":{"type":"Polygon","coordinates":[[[-81.499064,34.006479],[-81.49959,34.009426],[-81.502459,34.007219],[-81.503264,34.007203],[-81.501902,34.00299],[-81.500807,34.003289],[-81.500724,34.005141],[-81.499064,34.006479]]]}},{"type":"Feature","id":"45063:002900-03-026","properties":{"id":"45063:002900-03-026","parcelId":"002900-03-026","countyFips":"45063","countyName":"Lexington","state":"South Carolina","marketIds":["Columbia"],"situsAddress":"1807 UTOPIA SCHOOL ROAD","situsCity":"LEESVILLE","situsZip":"29070","jurisdictionCode":"Lexington County","ownerName":"HALLMAN, PHILIP A","ownerName2":null,"propertyName":null,"zoningCode":"RD","zoningDistrict":"Restrictive Development","jurisdictionPrefix":null,"dorCode":"1002","acreage":33.0,"centroid":[-81.500655,34.012102],"lastSale":{"date":"2000-01-01","price":0.01,"qualified":"NOT VALID"},"tax":{"marketValue":146976.0,"assessedValue":243.0,"taxableValue":132000.0,"taxes":null},"mailingAddress":{"line1":"133 TORTOISE TRAIL","line2":null,"city":"BATESBURG","state":"SC","zip":"29006"},"incomeTract":null,"incomeBlockGroup":null,"nearestRoad":null,"flu":null,"opportunityZone":null,"oz2Eligibility":null,"source":"sc-lexington-property-4","appraiserUrl":"https://maps.lex-co.com/OneMap/"},"geometry":{"type":"Polygon","coordinates":[[[-81.499687,34.012478],[-81.499766,34.012551],[-81.500144,34.012948],[-81.500586,34.0135],[-81.501256,34.01247],[-81.50354,34.013203],[-81.504525,34.011312],[-81.499358,34.009634],[-81.49816,34.010599],[-81.499532,34.012324],[-81.499687,34.012478]]]}},{"type":"Feature","id":"45063:002900-03-023","properties":{"id":"45063:002900-03-023","parcelId":"002900-03-023","countyFips":"45063","countyName":"Lexington","state":"South Carolina","marketIds":["Columbia"],"situsAddress":"0 UTOPIA SCHOOL ROAD","situsCity":null,"situsZip":null,"jurisdictionCode":null,"ownerName":"PRICE, MARY S & AZEL F LIFE ESTATE","ownerName2":null,"propertyName":null,"zoningCode":"RD","zoningDistrict":null,"jurisdictionPrefix":null,"dorCode":"2","acreage":31.0,"centroid":[-81.502501,34.009854],"lastSale":{"date":"2012-12-06","price":5.0,"qualified":"NOT VALID"},"tax":{"marketValue":124000.0,"assessedValue":166.0,"taxableValue":124000.0,"taxes":null},"mailingAddress":{"line1":"461 BEULAH CHURCH RD","line2":null,"city":"GILBERT","state":"SC","zip":"29054"},"incomeTract":null,"incomeBlockGroup":null,"nearestRoad":null,"flu":null,"opportunityZone":null,"oz2Eligibility":null,"source":"sc-lexington-property-4","appraiserUrl":"https://maps.lex-co.com/OneMap/"},"geometry":{"type":"Polygon","coordinates":[[[-81.504525,34.011312],[-81.504576,34.011329],[-81.505547,34.009386],[-81.501408,34.008039],[-81.49959,34.009426],[-81.499358,34.009634],[-81.504525,34.011312]]]}},{"type":"Feature","id":"45063:003800-04-032","properties":{"id":"45063:003800-04-032","parcelId":"003800-04-032","countyFips":"45063","countyName":"Lexington","state":"South Carolina","marketIds":["Columbia"],"situsAddress":"0 ETHAN COOK ROAD","situsCity":null,"situsZip":null,"jurisdictionCode":null,"ownerName":"RIKARD, CHARLES H & VALARIE","ownerName2":null,"propertyName":null,"zoningCode":"RD","zoningDistrict":null,"jurisdictionPrefix":null,"dorCode":"2","acreage":28.5,"centroid":[-81.504388,34.006471],"lastSale":{"date":"2011-04-14","price":120000.0,"qualified":"NOT VALID"},"tax":{"marketValue":142500.0,"assessedValue":155.0,"taxableValue":131100.0,"taxes":null},"mailingAddress":{"line1":"2855 PROSPERITY HWY","line2":null,"city":"LEESVILLE","state":"SC","zip":"29070"},"incomeTract":null,"incomeBlockGroup":null,"nearestRoad":null,"flu":null,"opportunityZone":null,"oz2Eligibility":null,"source":"sc-lexington-property-4","appraiserUrl":"https://maps.lex-co.com/OneMap/"},"geometry":{"type":"Polygon","coordinates":[[[-81.503264,34.007203],[-81.503278,34.007246],[-81.503326,34.007392],[-81.506583,34.00731],[-81.507551,34.005372],[-81.502323,34.004303],[-81.503264,34.007203]]]}},{"type":"Feature","id":"45063:003800-04-031","properties":{"id":"45063:003800-04-031","parcelId":"003800-04-031","countyFips":"45063","countyName":"Lexington","state":"South Carolina","marketIds":["Columbia"],"situsAddress":"0 ETHAN COOK ROAD","situsCity":null,"situsZip":null,"jurisdictionCode":null,"ownerName":"OXNER, JOHN WILSON & CATHERINE C","ownerName2":null,"propertyName":null,"zoningCode":"RD","zoningDistrict":null,"jurisdictionPrefix":null,"dorCode":"2","acreage":21.47,"centroid":[-81.504984,34.003878],"lastSale":{"date":"2006-01-06","price":5.0,"qualified":"NOT VALID"},"tax":{"marketValue":107400.0,"assessedValue":130.0,"taxableValue":98785.0,"taxes":null},"mailingAddress":{"line1":"160 HOLLEY FERRY RD","line2":null,"city":"LEESVILLE","state":"SC","zip":"29070"},"incomeTract":null,"incomeBlockGroup":null,"nearestRoad":null,"flu":null,"opportunityZone":null,"oz2Eligibility":null,"source":"sc-lexington-property-4","appraiserUrl":"https://maps.lex-co.com/OneMap/"},"geometry":{"type":"Polygon","coordinates":[[[-81.502323,34.004303],[-81.507551,34.005372],[-81.507704,34.005065],[-81.506591,34.003433],[-81.504398,34.00358],[-81.504422,34.002402],[-81.501902,34.00299],[-81.502323,34.004303]]]}},{"type":"Feature","id":"45063:002900-03-022","properties":{"id":"45063:002900-03-022","parcelId":"002900-03-022","countyFips":"45063","countyName":"Lexington","state":"South Carolina","marketIds":["Columbia"],"situsAddress":"0 UTOPIA SCHOOL ROAD","situsCity":null,"situsZip":null,"jurisdictionCode":"Lexington County","ownerName":"EARGLE, JAMES H & MIRIAM ELAINE LIFE","ownerName2":null,"propertyName":null,"zoningCode":"RD","zoningDistrict":"Restrictive Development","jurisdictionPrefix":null,"dorCode":"2","acreage":16.0,"centroid":[-81.503696,34.007886],"lastSale":{"date":"2023-03-27","price":5.0,"qualified":"NOT VALID"},"tax":{"marketValue":80000.0,"assessedValue":89.0,"taxableValue":80000.0,"taxes":null},"mailingAddress":{"line1":"2188 HOLLY FERRY RD","line2":null,"city":"LEESVILLE","state":"SC","zip":"29070"},"incomeTract":null,"incomeBlockGroup":null,"nearestRoad":null,"flu":null,"opportunityZone":null,"oz2Eligibility":null,"source":"sc-lexington-property-4","appraiserUrl":"https://maps.lex-co.com/OneMap/"},"geometry":{"type":"Polygon","coordinates":[[[-81.501408,34.008039],[-81.503286,34.00865],[-81.505547,34.009386],[-81.506583,34.00731],[-81.503326,34.007392],[-81.503264,34.007203],[-81.502459,34.007219],[-81.501408,34.008039]]]}},{"type":"Feature","id":"45063:002900-03-028","properties":{"id":"45063:002900-03-028","parcelId":"002900-03-028","countyFips":"45063","countyName":"Lexington","state":"South Carolina","marketIds":["Columbia"],"situsAddress":"0 UTOPIA SCHOOL ROAD","situsCity":null,"situsZip":null,"jurisdictionCode":"Lexington County","ownerName":"EARGLE, PARKER ALAN","ownerName2":null,"propertyName":null,"zoningCode":"RD","zoningDistrict":"Restrictive Development","jurisdictionPrefix":null,"dorCode":"2","acreage":10.23,"centroid":[-81.501881,34.013824],"lastSale":{"date":"2020-03-04","price":5.0,"qualified":"NOT VALID"},"tax":{"marketValue":51200.0,"assessedValue":60.0,"taxableValue":51200.0,"taxes":null},"mailingAddress":{"line1":"256 HOLLEY FERRY RD","line2":null,"city":"LEESVILLE","state":"SC","zip":"29070"},"incomeTract":null,"incomeBlockGroup":null,"nearestRoad":null,"flu":null,"opportunityZone":null,"oz2Eligibility":null,"source":"sc-lexington-property-4","appraiserUrl":"https://maps.lex-co.com/OneMap/"},"geometry":{"type":"Polygon","coordinates":[[[-81.500977,34.013952],[-81.50164,34.01479],[-81.502393,34.014639],[-81.50286,34.014766],[-81.503627,34.01323],[-81.501256,34.01247],[-81.500877,34.013034],[-81.50142,34.013707],[-81.500977,34.013952]]]}}]}