{"type":"FeatureCollection","name":"13193--4_20","features":[{"type":"Feature","id":"13193:1062O  0028","properties":{"id":"13193:1062O  0028","parcelId":"1062O  0028","countyFips":"13193","countyName":"Macon","state":"Georgia","marketIds":["Macon"],"situsAddress":"2885 CEDAR VALLEY ROAD","situsCity":null,"situsZip":null,"jurisdictionCode":null,"ownerName":"LAMAR WINGARD","ownerName2":null,"propertyName":null,"zoningCode":null,"zoningDistrict":null,"jurisdictionPrefix":null,"dorCode":null,"acreage":9.606,"centroid":[-83.995099,32.232045],"lastSale":{"date":null,"price":null,"qualified":null},"tax":{"marketValue":104063.0,"assessedValue":null,"taxableValue":null,"taxes":null},"mailingAddress":{"line1":null,"line2":null,"city":null,"state":null,"zip":null},"incomeTract":null,"incomeBlockGroup":null,"nearestRoad":null,"flu":null,"opportunityZone":null,"oz2Eligibility":null,"source":"ga-macon-parcels-13193","appraiserUrl":"https://qpublic.schneidercorp.com/Application.aspx?App=MaconCountyGA&Layer=Parcels&PageType=Report&KeyValue=1062O%20%200028","gisViewerUrl":"https://garc.maps.arcgis.com/apps/webappviewer/index.html?id=3cd0257d900244738f30223999a11445"},"geometry":{"type":"Polygon","coordinates":[[[-83.993168,32.23263],[-83.994773,32.233572],[-83.995034,32.233249],[-83.995827,32.23245],[-83.996238,32.23196],[-83.995937,32.231784],[-83.995676,32.231657],[-83.995496,32.231536],[-83.995265,32.231457],[-83.994842,32.231423],[-83.994591,32.231464],[-83.994344,32.231355],[-83.993168,32.23263]]]}},{"type":"Feature","id":"13193:1063O  0009","properties":{"id":"13193:1063O  0009","parcelId":"1063O  0009","countyFips":"13193","countyName":"Macon","state":"Georgia","marketIds":["Macon"],"situsAddress":null,"situsCity":null,"situsZip":null,"jurisdictionCode":null,"ownerName":"CREEK RUN FARMS LLC","ownerName2":null,"propertyName":null,"zoningCode":null,"zoningDistrict":null,"jurisdictionPrefix":null,"dorCode":null,"acreage":75.4972,"centroid":[-83.994366,32.216157],"lastSale":{"date":null,"price":null,"qualified":null},"tax":{"marketValue":70529.0,"assessedValue":null,"taxableValue":null,"taxes":null},"mailingAddress":{"line1":null,"line2":null,"city":null,"state":null,"zip":null},"incomeTract":null,"incomeBlockGroup":null,"nearestRoad":null,"flu":null,"opportunityZone":null,"oz2Eligibility":null,"source":"ga-macon-parcels-13193","appraiserUrl":"https://qpublic.schneidercorp.com/Application.aspx?App=MaconCountyGA&Layer=Parcels&PageType=Report&KeyValue=1063O%20%200009","gisViewerUrl":"https://garc.maps.arcgis.com/apps/webappviewer/index.html?id=3cd0257d900244738f30223999a11445"},"geometry":{"type":"Polygon","coordinates":[[[-83.99603,32.220605],[-83.997196,32.220684],[-83.997213,32.21163],[-83.996542,32.211937],[-83.996288,32.212657],[-83.996257,32.212947],[-83.996205,32.213088],[-83.995861,32.213397],[-83.99551,32.213556],[-83.995373,32.213685],[-83.995068,32.214134],[-83.995021,32.214288],[-83.99503,32.214464],[-83.995068,32.214571],[-83.995174,32.214704],[-83.995182,32.214815],[-83.995137,32.214904],[-83.994855,32.215202],[-83.99477,32.215423],[-83.994739,32.215593],[-83.994694,32.215671],[-83.994487,32.215772],[-83.994411,32.21593],[-83.994351,32.21594],[-83.994236,32.215888],[-83.994167,32.2159],[-83.994106,32.215941],[-83.99406,32.216044],[-83.993977,32.216089],[-83.993801,32.216094],[-83.993481,32.21601],[-83.993245,32.215884],[-83.992977,32.215883],[-83.992832,32.215915],[-83.992688,32.216034],[-83.99245,32.216152],[-83.992276,32.216299],[-83.991902,32.216508],[-83.991855,32.21655],[-83.991848,32.216577],[-83.992001,32.216937],[-83.991986,32.217002],[-83.991879,32.217139],[-83.991688,32.217281],[-83.991518,32.217342],[-83.992952,32.219742],[-83.993311,32.220539],[-83.994252,32.220469],[-83.99603,32.220605]]]}},{"type":"Feature","id":"13193:1073O  0017B","properties":{"id":"13193:1073O  0017B","parcelId":"1073O  0017B","countyFips":"13193","countyName":"Macon","state":"Georgia","marketIds":["Macon"],"situsAddress":null,"situsCity":null,"situsZip":null,"jurisdictionCode":null,"ownerName":"HOGS CRAWL PLANTATION LLC","ownerName2":null,"propertyName":null,"zoningCode":null,"zoningDistrict":null,"jurisdictionPrefix":null,"dorCode":null,"acreage":7.3301,"centroid":[-83.971794,32.235394],"lastSale":{"date":null,"price":null,"qualified":null},"tax":{"marketValue":13646.0,"assessedValue":null,"taxableValue":null,"taxes":null},"mailingAddress":{"line1":null,"line2":null,"city":null,"state":null,"zip":null},"incomeTract":null,"incomeBlockGroup":null,"nearestRoad":null,"flu":null,"opportunityZone":null,"oz2Eligibility":null,"source":"ga-macon-parcels-13193","appraiserUrl":"https://qpublic.schneidercorp.com/Application.aspx?App=MaconCountyGA&Layer=Parcels&PageType=Report&KeyValue=1073O%20%200017B","gisViewerUrl":"https://garc.maps.arcgis.com/apps/webappviewer/index.html?id=3cd0257d900244738f30223999a11445"},"geometry":{"type":"Polygon","coordinates":[[[-83.970755,32.236441],[-83.973029,32.236495],[-83.973096,32.234672],[-83.972882,32.234746],[-83.972706,32.234778],[-83.972516,32.234767],[-83.972393,32.23471],[-83.972301,32.23471],[-83.972203,32.234798],[-83.97218,32.234973],[-83.972073,32.235126],[-83.971852,32.235231],[-83.971524,32.235255],[-83.971416,32.235311],[-83.971379,32.235427],[-83.971455,32.235663],[-83.971409,32.235732],[-83.971264,32.235778],[-83.971019,32.2357],[-83.970898,32.235758],[-83.97089,32.235853],[-83.97102,32.23602],[-83.971005,32.236117],[-83.970755,32.236441]]]}},{"type":"Feature","id":"13193:1073O  0007B","properties":{"id":"13193:1073O  0007B","parcelId":"1073O  0007B","countyFips":"13193","countyName":"Macon","state":"Georgia","marketIds":["Macon"],"situsAddress":"0 LEVIE ROAD","situsCity":null,"situsZip":null,"jurisdictionCode":null,"ownerName":"LLOYD SWARTZENTRUBER","ownerName2":null,"propertyName":null,"zoningCode":null,"zoningDistrict":null,"jurisdictionPrefix":null,"dorCode":null,"acreage":7.0395,"centroid":[-83.980965,32.24584],"lastSale":{"date":null,"price":null,"qualified":null},"tax":{"marketValue":19890.0,"assessedValue":null,"taxableValue":null,"taxes":null},"mailingAddress":{"line1":null,"line2":null,"city":null,"state":null,"zip":null},"incomeTract":null,"incomeBlockGroup":null,"nearestRoad":null,"flu":null,"opportunityZone":null,"oz2Eligibility":null,"source":"ga-macon-parcels-13193","appraiserUrl":"https://qpublic.schneidercorp.com/Application.aspx?App=MaconCountyGA&Layer=Parcels&PageType=Report&KeyValue=1073O%20%200007B","gisViewerUrl":"https://garc.maps.arcgis.com/apps/webappviewer/index.html?id=3cd0257d900244738f30223999a11445"},"geometry":{"type":"Polygon","coordinates":[[[-83.981556,32.24706],[-83.982151,32.247755],[-83.982125,32.245213],[-83.980815,32.245233],[-83.980815,32.245275],[-83.97998,32.245228],[-83.979925,32.245274],[-83.980356,32.245679],[-83.981556,32.24706]]]}},{"type":"Feature","id":"13193:1062O  0022","properties":{"id":"13193:1062O  0022","parcelId":"1062O  0022","countyFips":"13193","countyName":"Macon","state":"Georgia","marketIds":["Macon"],"situsAddress":null,"situsCity":null,"situsZip":null,"jurisdictionCode":null,"ownerName":"MINOR BROTHERS FARM GP","ownerName2":null,"propertyName":null,"zoningCode":null,"zoningDistrict":null,"jurisdictionPrefix":null,"dorCode":null,"acreage":8.5279,"centroid":[-83.996262,32.234066],"lastSale":{"date":null,"price":null,"qualified":null},"tax":{"marketValue":26788.0,"assessedValue":null,"taxableValue":null,"taxes":null},"mailingAddress":{"line1":null,"line2":null,"city":null,"state":null,"zip":null},"incomeTract":null,"incomeBlockGroup":null,"nearestRoad":null,"flu":null,"opportunityZone":null,"oz2Eligibility":null,"source":"ga-macon-parcels-13193","appraiserUrl":"https://qpublic.schneidercorp.com/Application.aspx?App=MaconCountyGA&Layer=Parcels&PageType=Report&KeyValue=1062O%20%200022","gisViewerUrl":"https://garc.maps.arcgis.com/apps/webappviewer/index.html?id=3cd0257d900244738f30223999a11445"},"geometry":{"type":"Polygon","coordinates":[[[-83.994706,32.234165],[-83.995786,32.23496],[-83.995859,32.234706],[-83.995974,32.234507],[-83.996208,32.234299],[-83.996362,32.234226],[-83.996543,32.234216],[-83.997235,32.234415],[-83.997602,32.234463],[-83.997991,32.234477],[-83.998191,32.234453],[-83.998297,32.233564],[-83.996472,32.233463],[-83.995955,32.233343],[-83.99551,32.233403],[-83.995314,32.233482],[-83.99513,32.233603],[-83.99496,32.233759],[-83.994892,32.233758],[-83.994706,32.234165]]]}},{"type":"Feature","id":"13193:1073O  0017A","properties":{"id":"13193:1073O  0017A","parcelId":"1073O  0017A","countyFips":"13193","countyName":"Macon","state":"Georgia","marketIds":["Macon"],"situsAddress":"1156 LEVIE ROAD","situsCity":null,"situsZip":null,"jurisdictionCode":null,"ownerName":"MARCELINO & CELIA DIZON","ownerName2":null,"propertyName":null,"zoningCode":null,"zoningDistrict":null,"jurisdictionPrefix":null,"dorCode":null,"acreage":13.1703,"centroid":[-83.976805,32.243247],"lastSale":{"date":null,"price":null,"qualified":null},"tax":{"marketValue":215235.0,"assessedValue":null,"taxableValue":null,"taxes":null},"mailingAddress":{"line1":null,"line2":null,"city":null,"state":null,"zip":null},"incomeTract":null,"incomeBlockGroup":null,"nearestRoad":null,"flu":null,"opportunityZone":null,"oz2Eligibility":null,"source":"ga-macon-parcels-13193","appraiserUrl":"https://qpublic.schneidercorp.com/Application.aspx?App=MaconCountyGA&Layer=Parcels&PageType=Report&KeyValue=1073O%20%200017A","gisViewerUrl":"https://garc.maps.arcgis.com/apps/webappviewer/index.html?id=3cd0257d900244738f30223999a11445"},"geometry":{"type":"Polygon","coordinates":[[[-83.97516,32.242864],[-83.97515,32.245216],[-83.976918,32.245213],[-83.977037,32.245122],[-83.977057,32.244368],[-83.977244,32.24438],[-83.977245,32.242824],[-83.977206,32.24187],[-83.977315,32.24176],[-83.977291,32.24124],[-83.976997,32.241245],[-83.977044,32.242858],[-83.97516,32.242864]]]}},{"type":"Feature","id":"13193:1073O  0016AP","properties":{"id":"13193:1073O  0016AP","parcelId":"1073O  0016AP","countyFips":"13193","countyName":"Macon","state":"Georgia","marketIds":["Macon"],"situsAddress":"1156 LEVIE ROAD","situsCity":null,"situsZip":null,"jurisdictionCode":null,"ownerName":"JOEL & SANDYE MEDLIN","ownerName2":null,"propertyName":null,"zoningCode":null,"zoningDistrict":null,"jurisdictionPrefix":null,"dorCode":null,"acreage":28.2405,"centroid":[-83.984086,32.243672],"lastSale":{"date":null,"price":null,"qualified":null},"tax":{"marketValue":58302.0,"assessedValue":null,"taxableValue":null,"taxes":null},"mailingAddress":{"line1":null,"line2":null,"city":null,"state":null,"zip":null},"incomeTract":null,"incomeBlockGroup":null,"nearestRoad":null,"flu":null,"opportunityZone":null,"oz2Eligibility":null,"source":"ga-macon-parcels-13193","appraiserUrl":"https://qpublic.schneidercorp.com/Application.aspx?App=MaconCountyGA&Layer=Parcels&PageType=Report&KeyValue=1073O%20%200016AP","gisViewerUrl":"https://garc.maps.arcgis.com/apps/webappviewer/index.html?id=3cd0257d900244738f30223999a11445"},"geometry":{"type":"Polygon","coordinates":[[[-83.982202,32.244525],[-83.987046,32.244636],[-83.986967,32.242391],[-83.982096,32.242283],[-83.982118,32.244523],[-83.982202,32.244525]]]}},{"type":"Feature","id":"13193:1073O  016BP","properties":{"id":"13193:1073O  016BP","parcelId":"1073O  016BP","countyFips":"13193","countyName":"Macon","state":"Georgia","marketIds":["Macon"],"situsAddress":null,"situsCity":null,"situsZip":null,"jurisdictionCode":null,"ownerName":null,"ownerName2":null,"propertyName":null,"zoningCode":null,"zoningDistrict":null,"jurisdictionPrefix":null,"dorCode":null,"acreage":31.5993,"centroid":[-83.984535,32.237778],"lastSale":{"date":null,"price":null,"qualified":null},"tax":{"marketValue":null,"assessedValue":null,"taxableValue":null,"taxes":null},"mailingAddress":{"line1":null,"line2":null,"city":null,"state":null,"zip":null},"incomeTract":null,"incomeBlockGroup":null,"nearestRoad":null,"flu":null,"opportunityZone":null,"oz2Eligibility":null,"source":"ga-macon-parcels-13193","appraiserUrl":"https://qpublic.schneidercorp.com/Application.aspx?App=MaconCountyGA&Layer=Parcels&PageType=Report&KeyValue=1073O%20%20016BP","gisViewerUrl":"https://garc.maps.arcgis.com/apps/webappviewer/index.html?id=3cd0257d900244738f30223999a11445"},"geometry":{"type":"Polygon","coordinates":[[[-83.982115,32.239023],[-83.986964,32.239066],[-83.986959,32.236564],[-83.982103,32.23646],[-83.982115,32.239023]]]}},{"type":"Feature","id":"13193:1073O  0016P","properties":{"id":"13193:1073O  0016P","parcelId":"1073O  0016P","countyFips":"13193","countyName":"Macon","state":"Georgia","marketIds":["Macon"],"situsAddress":null,"situsCity":null,"situsZip":null,"jurisdictionCode":null,"ownerName":"SOUTHERN PECAN ORCHARDS LLC","ownerName2":null,"propertyName":null,"zoningCode":null,"zoningDistrict":null,"jurisdictionPrefix":null,"dorCode":null,"acreage":41.1487,"centroid":[-83.984535,32.240691],"lastSale":{"date":null,"price":null,"qualified":null},"tax":{"marketValue":57718.0,"assessedValue":null,"taxableValue":null,"taxes":null},"mailingAddress":{"line1":null,"line2":null,"city":null,"state":null,"zip":null},"incomeTract":null,"incomeBlockGroup":null,"nearestRoad":null,"flu":null,"opportunityZone":null,"oz2Eligibility":null,"source":"ga-macon-parcels-13193","appraiserUrl":"https://qpublic.schneidercorp.com/Application.aspx?App=MaconCountyGA&Layer=Parcels&PageType=Report&KeyValue=1073O%20%200016P","gisViewerUrl":"https://garc.maps.arcgis.com/apps/webappviewer/index.html?id=3cd0257d900244738f30223999a11445"},"geometry":{"type":"Polygon","coordinates":[[[-83.982096,32.242283],[-83.986967,32.242391],[-83.986964,32.239066],[-83.982115,32.239023],[-83.982096,32.242283]]]}},{"type":"Feature","id":"13193:1073O  0016C","properties":{"id":"13193:1073O  0016C","parcelId":"1073O  0016C","countyFips":"13193","countyName":"Macon","state":"Georgia","marketIds":["Macon"],"situsAddress":null,"situsCity":null,"situsZip":null,"jurisdictionCode":null,"ownerName":"SOUTHERN PECAN ORCHARDS LLC","ownerName2":null,"propertyName":null,"zoningCode":null,"zoningDistrict":null,"jurisdictionPrefix":null,"dorCode":null,"acreage":20.9798,"centroid":[-83.981455,32.242666],"lastSale":{"date":null,"price":null,"qualified":null},"tax":{"marketValue":28665.0,"assessedValue":null,"taxableValue":null,"taxes":null},"mailingAddress":{"line1":null,"line2":null,"city":null,"state":null,"zip":null},"incomeTract":null,"incomeBlockGroup":null,"nearestRoad":null,"flu":null,"opportunityZone":null,"oz2Eligibility":null,"source":"ga-macon-parcels-13193","appraiserUrl":"https://qpublic.schneidercorp.com/Application.aspx?App=MaconCountyGA&Layer=Parcels&PageType=Report&KeyValue=1073O%20%200016C","gisViewerUrl":"https://garc.maps.arcgis.com/apps/webappviewer/index.html?id=3cd0257d900244738f30223999a11445"},"geometry":{"type":"Polygon","coordinates":[[[-83.980815,32.245212],[-83.980815,32.245233],[-83.982125,32.245213],[-83.982096,32.242283],[-83.982115,32.239023],[-83.980762,32.239029],[-83.980815,32.245212]]]}},{"type":"Feature","id":"13193:1073O  0012C","properties":{"id":"13193:1073O  0012C","parcelId":"1073O  0012C","countyFips":"13193","countyName":"Macon","state":"Georgia","marketIds":["Macon"],"situsAddress":"904 LEVIE ROAD","situsCity":null,"situsZip":null,"jurisdictionCode":null,"ownerName":"SANDYE MEDLIN","ownerName2":null,"propertyName":null,"zoningCode":null,"zoningDistrict":null,"jurisdictionPrefix":null,"dorCode":null,"acreage":54.3638,"centroid":[-83.985093,32.247684],"lastSale":{"date":null,"price":null,"qualified":null},"tax":{"marketValue":134004.0,"assessedValue":null,"taxableValue":null,"taxes":null},"mailingAddress":{"line1":null,"line2":null,"city":null,"state":null,"zip":null},"incomeTract":null,"incomeBlockGroup":null,"nearestRoad":null,"flu":null,"opportunityZone":null,"oz2Eligibility":null,"source":"ga-macon-parcels-13193","appraiserUrl":"https://qpublic.schneidercorp.com/Application.aspx?App=MaconCountyGA&Layer=Parcels&PageType=Report&KeyValue=1073O%20%200012C","gisViewerUrl":"https://garc.maps.arcgis.com/apps/webappviewer/index.html?id=3cd0257d900244738f30223999a11445"},"geometry":{"type":"Polygon","coordinates":[[[-83.98419,32.250182],[-83.984824,32.250909],[-83.98695,32.247915],[-83.985883,32.246559],[-83.986663,32.246156],[-83.987041,32.245522],[-83.987046,32.244636],[-83.982118,32.244523],[-83.982151,32.247755],[-83.983769,32.24969],[-83.985027,32.248924],[-83.985451,32.249442],[-83.98419,32.250182]]]}},{"type":"Feature","id":"13193:1073O  0007","properties":{"id":"13193:1073O  0007","parcelId":"1073O  0007","countyFips":"13193","countyName":"Macon","state":"Georgia","marketIds":["Macon"],"situsAddress":"0 CACKLE NUT ROAD","situsCity":null,"situsZip":null,"jurisdictionCode":null,"ownerName":"RON EUGENE KUHNS","ownerName2":null,"propertyName":null,"zoningCode":null,"zoningDistrict":null,"jurisdictionPrefix":null,"dorCode":null,"acreage":74.1771,"centroid":[-83.979211,32.249619],"lastSale":{"date":null,"price":null,"qualified":null},"tax":{"marketValue":194747.0,"assessedValue":null,"taxableValue":null,"taxes":null},"mailingAddress":{"line1":null,"line2":null,"city":null,"state":null,"zip":null},"incomeTract":null,"incomeBlockGroup":null,"nearestRoad":null,"flu":null,"opportunityZone":null,"oz2Eligibility":null,"source":"ga-macon-parcels-13193","appraiserUrl":"https://qpublic.schneidercorp.com/Application.aspx?App=MaconCountyGA&Layer=Parcels&PageType=Report&KeyValue=1073O%20%200007","gisViewerUrl":"https://garc.maps.arcgis.com/apps/webappviewer/index.html?id=3cd0257d900244738f30223999a11445"},"geometry":{"type":"Polygon","coordinates":[[[-83.976262,32.252635],[-83.977146,32.253587],[-83.978212,32.252755],[-83.978452,32.25262],[-83.978649,32.252557],[-83.978828,32.252543],[-83.982168,32.252573],[-83.982219,32.248101],[-83.981426,32.247142],[-83.980229,32.245765],[-83.979788,32.245353],[-83.979674,32.245334],[-83.979297,32.245326],[-83.977916,32.245351],[-83.977893,32.252639],[-83.976262,32.252635]]]}},{"type":"Feature","id":"13193:1063O  0007","properties":{"id":"13193:1063O  0007","parcelId":"1063O  0007","countyFips":"13193","countyName":"Macon","state":"Georgia","marketIds":["Macon"],"situsAddress":"0 PORTER FARM ROAD","situsCity":null,"situsZip":null,"jurisdictionCode":null,"ownerName":"MACON COUNTY LAND CO LLC","ownerName2":null,"propertyName":null,"zoningCode":null,"zoningDistrict":null,"jurisdictionPrefix":null,"dorCode":null,"acreage":69.5876,"centroid":[-83.998416,32.214489],"lastSale":{"date":null,"price":null,"qualified":null},"tax":{"marketValue":81730.0,"assessedValue":null,"taxableValue":null,"taxes":null},"mailingAddress":{"line1":null,"line2":null,"city":null,"state":null,"zip":null},"incomeTract":null,"incomeBlockGroup":null,"nearestRoad":null,"flu":null,"opportunityZone":null,"oz2Eligibility":null,"source":"ga-macon-parcels-13193","appraiserUrl":"https://qpublic.schneidercorp.com/Application.aspx?App=MaconCountyGA&Layer=Parcels&PageType=Report&KeyValue=1063O%20%200007","gisViewerUrl":"https://garc.maps.arcgis.com/apps/webappviewer/index.html?id=3cd0257d900244738f30223999a11445"},"geometry":{"type":"Polygon","coordinates":[[[-83.998591,32.22076],[-83.998655,32.220767],[-83.998996,32.220722],[-83.999622,32.220721],[-84.00002,32.209354],[-83.999233,32.209452],[-83.999004,32.209464],[-83.99883,32.209505],[-83.998677,32.209583],[-83.998494,32.209718],[-83.998387,32.209869],[-83.998379,32.209993],[-83.99847,32.210279],[-83.998417,32.210422],[-83.99815,32.210706],[-83.998044,32.210974],[-83.997975,32.211081],[-83.997213,32.21163],[-83.997198,32.219895],[-83.997685,32.21993],[-83.997629,32.220739],[-83.997855,32.220746],[-83.998082,32.220707],[-83.998368,32.220721],[-83.998591,32.22076]]]}},{"type":"Feature","id":"13193:1073O  0017","properties":{"id":"13193:1073O  0017","parcelId":"1073O  0017","countyFips":"13193","countyName":"Macon","state":"Georgia","marketIds":["Macon"],"situsAddress":"1260 LEVIE ROAD","situsCity":null,"situsZip":null,"jurisdictionCode":null,"ownerName":"SOUTHERN PECAN ORCHARDS LLC","ownerName2":null,"propertyName":null,"zoningCode":null,"zoningDistrict":null,"jurisdictionPrefix":null,"dorCode":null,"acreage":66.2436,"centroid":[-83.975347,32.248077],"lastSale":{"date":null,"price":null,"qualified":null},"tax":{"marketValue":965890.0,"assessedValue":null,"taxableValue":null,"taxes":null},"mailingAddress":{"line1":null,"line2":null,"city":null,"state":null,"zip":null},"incomeTract":null,"incomeBlockGroup":null,"nearestRoad":null,"flu":null,"opportunityZone":null,"oz2Eligibility":null,"source":"ga-macon-parcels-13193","appraiserUrl":"https://qpublic.schneidercorp.com/Application.aspx?App=MaconCountyGA&Layer=Parcels&PageType=Report&KeyValue=1073O%20%200017","gisViewerUrl":"https://garc.maps.arcgis.com/apps/webappviewer/index.html?id=3cd0257d900244738f30223999a11445"},"geometry":{"type":"Polygon","coordinates":[[[-83.976262,32.252635],[-83.977893,32.252639],[-83.977916,32.245351],[-83.976054,32.245353],[-83.973982,32.245382],[-83.973897,32.245449],[-83.973853,32.245591],[-83.973755,32.24828],[-83.976825,32.24828],[-83.976824,32.248779],[-83.975079,32.248775],[-83.975081,32.248345],[-83.973752,32.248343],[-83.973689,32.249869],[-83.976262,32.252635]]]}},{"type":"Feature","id":"13193:1073O  0011","properties":{"id":"13193:1073O  0011","parcelId":"1073O  0011","countyFips":"13193","countyName":"Macon","state":"Georgia","marketIds":["Macon"],"situsAddress":"0 LEVIE ROAD","situsCity":null,"situsZip":null,"jurisdictionCode":null,"ownerName":"W HINES PROPERTIES LLC","ownerName2":null,"propertyName":null,"zoningCode":null,"zoningDistrict":null,"jurisdictionPrefix":null,"dorCode":null,"acreage":96.8888,"centroid":[-83.989568,32.247926],"lastSale":{"date":null,"price":null,"qualified":null},"tax":{"marketValue":240161.0,"assessedValue":null,"taxableValue":null,"taxes":null},"mailingAddress":{"line1":null,"line2":null,"city":null,"state":null,"zip":null},"incomeTract":null,"incomeBlockGroup":null,"nearestRoad":null,"flu":null,"opportunityZone":null,"oz2Eligibility":null,"source":"ga-macon-parcels-13193","appraiserUrl":"https://qpublic.schneidercorp.com/Application.aspx?App=MaconCountyGA&Layer=Parcels&PageType=Report&KeyValue=1073O%20%200011","gisViewerUrl":"https://garc.maps.arcgis.com/apps/webappviewer/index.html?id=3cd0257d900244738f30223999a11445"},"geometry":{"type":"Polygon","coordinates":[[[-83.989001,32.252701],[-83.990028,32.252721],[-83.990041,32.250268],[-83.990062,32.249688],[-83.990157,32.249069],[-83.990384,32.248405],[-83.990621,32.247889],[-83.990958,32.247352],[-83.991304,32.24688],[-83.991602,32.246391],[-83.992424,32.245328],[-83.993072,32.245452],[-83.993183,32.245253],[-83.99335,32.244693],[-83.987046,32.244636],[-83.987041,32.245522],[-83.986663,32.246156],[-83.985883,32.246559],[-83.98695,32.247915],[-83.984824,32.250909],[-83.98633,32.252651],[-83.989001,32.252701]]]}},{"type":"Feature","id":"13193:1073O  0015","properties":{"id":"13193:1073O  0015","parcelId":"1073O  0015","countyFips":"13193","countyName":"Macon","state":"Georgia","marketIds":["Macon"],"situsAddress":"0 STATE ROUTE 90","situsCity":null,"situsZip":null,"jurisdictionCode":null,"ownerName":"JONATHAN ANSLEY","ownerName2":null,"propertyName":null,"zoningCode":null,"zoningDistrict":null,"jurisdictionPrefix":null,"dorCode":null,"acreage":141.4686,"centroid":[-83.966383,32.246865],"lastSale":{"date":null,"price":null,"qualified":null},"tax":{"marketValue":129912.0,"assessedValue":null,"taxableValue":null,"taxes":null},"mailingAddress":{"line1":null,"line2":null,"city":null,"state":null,"zip":null},"incomeTract":null,"incomeBlockGroup":null,"nearestRoad":null,"flu":null,"opportunityZone":null,"oz2Eligibility":null,"source":"ga-macon-parcels-13193","appraiserUrl":"https://qpublic.schneidercorp.com/Application.aspx?App=MaconCountyGA&Layer=Parcels&PageType=Report&KeyValue=1073O%20%200015","gisViewerUrl":"https://garc.maps.arcgis.com/apps/webappviewer/index.html?id=3cd0257d900244738f30223999a11445"},"geometry":{"type":"Polygon","coordinates":[[[-83.965841,32.251757],[-83.966384,32.252422],[-83.975785,32.252429],[-83.971609,32.247897],[-83.971007,32.247269],[-83.970207,32.246543],[-83.969609,32.246071],[-83.968947,32.245621],[-83.96818,32.245172],[-83.967551,32.244851],[-83.967208,32.2447],[-83.96529,32.243916],[-83.965069,32.244341],[-83.965054,32.244463],[-83.965206,32.244653],[-83.965245,32.244814],[-83.965237,32.244909],[-83.96513,32.245219],[-83.965145,32.245315],[-83.965214,32.245436],[-83.965214,32.245506],[-83.965084,32.245692],[-83.965067,32.246273],[-83.965294,32.246831],[-83.965469,32.247097],[-83.965475,32.247408],[-83.965396,32.247459],[-83.965298,32.24803],[-83.965064,32.248151],[-83.964886,32.248126],[-83.964975,32.24899],[-83.963841,32.248665],[-83.96359,32.248537],[-83.96344,32.248837],[-83.965841,32.251757]]]}}]}