{"type":"FeatureCollection","name":"13193--4_22","features":[{"type":"Feature","id":"13193:1075O  0001","properties":{"id":"13193:1075O  0001","parcelId":"1075O  0001","countyFips":"13193","countyName":"Macon","state":"Georgia","marketIds":["Macon"],"situsAddress":null,"situsCity":null,"situsZip":null,"jurisdictionCode":null,"ownerName":"SALLIE H JAROS","ownerName2":null,"propertyName":null,"zoningCode":null,"zoningDistrict":null,"jurisdictionPrefix":null,"dorCode":null,"acreage":5.8733,"centroid":[-83.923897,32.509586],"lastSale":{"date":null,"price":null,"qualified":null},"tax":{"marketValue":86917.0,"assessedValue":null,"taxableValue":null,"taxes":null},"mailingAddress":{"line1":null,"line2":null,"city":null,"state":null,"zip":null},"incomeTract":null,"incomeBlockGroup":null,"nearestRoad":null,"flu":null,"opportunityZone":null,"oz2Eligibility":null,"source":"ga-macon-parcels-13193","appraiserUrl":"https://qpublic.schneidercorp.com/Application.aspx?App=MaconCountyGA&Layer=Parcels&PageType=Report&KeyValue=1075O%20%200001","gisViewerUrl":"https://garc.maps.arcgis.com/apps/webappviewer/index.html?id=3cd0257d900244738f30223999a11445"},"geometry":{"type":"Polygon","coordinates":[[[-83.923634,32.511237],[-83.924338,32.51126],[-83.924136,32.507174],[-83.923867,32.507018],[-83.923512,32.511239],[-83.923634,32.511237]]]}},{"type":"Feature","id":"13193:1065O  0001","properties":{"id":"13193:1065O  0001","parcelId":"1065O  0001","countyFips":"13193","countyName":"Macon","state":"Georgia","marketIds":["Macon"],"situsAddress":null,"situsCity":null,"situsZip":null,"jurisdictionCode":null,"ownerName":"JASPER TIMBER INVEST LLC","ownerName2":null,"propertyName":null,"zoningCode":null,"zoningDistrict":null,"jurisdictionPrefix":null,"dorCode":null,"acreage":58.2446,"centroid":[-83.967635,32.504295],"lastSale":{"date":null,"price":null,"qualified":null},"tax":{"marketValue":75916.0,"assessedValue":null,"taxableValue":null,"taxes":null},"mailingAddress":{"line1":null,"line2":null,"city":null,"state":null,"zip":null},"incomeTract":null,"incomeBlockGroup":null,"nearestRoad":null,"flu":null,"opportunityZone":null,"oz2Eligibility":null,"source":"ga-macon-parcels-13193","appraiserUrl":"https://qpublic.schneidercorp.com/Application.aspx?App=MaconCountyGA&Layer=Parcels&PageType=Report&KeyValue=1065O%20%200001","gisViewerUrl":"https://garc.maps.arcgis.com/apps/webappviewer/index.html?id=3cd0257d900244738f30223999a11445"},"geometry":{"type":"Polygon","coordinates":[[[-83.970394,32.505907],[-83.970944,32.505938],[-83.971111,32.501614],[-83.964432,32.501572],[-83.964415,32.50254],[-83.965934,32.504054],[-83.966439,32.504513],[-83.967123,32.505205],[-83.967717,32.505727],[-83.967844,32.505881],[-83.970394,32.505907]]]}},{"type":"Feature","id":"13193:1065O  0002","properties":{"id":"13193:1065O  0002","parcelId":"1065O  0002","countyFips":"13193","countyName":"Macon","state":"Georgia","marketIds":["Macon"],"situsAddress":"594 HUNNICUT ROAD","situsCity":null,"situsZip":null,"jurisdictionCode":null,"ownerName":"ROBERT & JACK HUNNICUT","ownerName2":null,"propertyName":null,"zoningCode":null,"zoningDistrict":null,"jurisdictionPrefix":null,"dorCode":null,"acreage":57.349,"centroid":[-83.962142,32.503085],"lastSale":{"date":null,"price":null,"qualified":null},"tax":{"marketValue":125825.0,"assessedValue":null,"taxableValue":null,"taxes":null},"mailingAddress":{"line1":null,"line2":null,"city":null,"state":null,"zip":null},"incomeTract":null,"incomeBlockGroup":null,"nearestRoad":null,"flu":null,"opportunityZone":null,"oz2Eligibility":null,"source":"ga-macon-parcels-13193","appraiserUrl":"https://qpublic.schneidercorp.com/Application.aspx?App=MaconCountyGA&Layer=Parcels&PageType=Report&KeyValue=1065O%20%200002","gisViewerUrl":"https://garc.maps.arcgis.com/apps/webappviewer/index.html?id=3cd0257d900244738f30223999a11445"},"geometry":{"type":"Polygon","coordinates":[[[-83.9618,32.505864],[-83.962635,32.505866],[-83.962561,32.50455],[-83.964406,32.503087],[-83.964412,32.502704],[-83.963738,32.502025],[-83.96359,32.501914],[-83.963459,32.50186],[-83.963264,32.501815],[-83.962738,32.501748],[-83.961886,32.501585],[-83.959571,32.501205],[-83.958002,32.503147],[-83.957925,32.505823],[-83.9618,32.505864]]]}},{"type":"Feature","id":"13193:1065O  0014","properties":{"id":"13193:1065O  0014","parcelId":"1065O  0014","countyFips":"13193","countyName":"Macon","state":"Georgia","marketIds":["Macon"],"situsAddress":"0 BRYANT HILL ROAD","situsCity":null,"situsZip":null,"jurisdictionCode":null,"ownerName":"WEMPLE FAMILY WILDERNESS PRESERVE LLC","ownerName2":null,"propertyName":null,"zoningCode":null,"zoningDistrict":null,"jurisdictionPrefix":null,"dorCode":null,"acreage":74.2373,"centroid":[-83.975424,32.511345],"lastSale":{"date":null,"price":null,"qualified":null},"tax":{"marketValue":80332.0,"assessedValue":null,"taxableValue":null,"taxes":null},"mailingAddress":{"line1":null,"line2":null,"city":null,"state":null,"zip":null},"incomeTract":null,"incomeBlockGroup":null,"nearestRoad":null,"flu":null,"opportunityZone":null,"oz2Eligibility":null,"source":"ga-macon-parcels-13193","appraiserUrl":"https://qpublic.schneidercorp.com/Application.aspx?App=MaconCountyGA&Layer=Parcels&PageType=Report&KeyValue=1065O%20%200014","gisViewerUrl":"https://garc.maps.arcgis.com/apps/webappviewer/index.html?id=3cd0257d900244738f30223999a11445"},"geometry":{"type":"Polygon","coordinates":[[[-83.970967,32.509615],[-83.970997,32.514276],[-83.978575,32.514285],[-83.978827,32.512223],[-83.978884,32.511575],[-83.978388,32.511524],[-83.977668,32.511384],[-83.977225,32.511278],[-83.975539,32.510941],[-83.974775,32.510754],[-83.974343,32.510606],[-83.973349,32.510154],[-83.970973,32.508869],[-83.970967,32.509615]]]}},{"type":"Feature","id":"13193:1065O  0005","properties":{"id":"13193:1065O  0005","parcelId":"1065O  0005","countyFips":"13193","countyName":"Macon","state":"Georgia","marketIds":["Macon"],"situsAddress":"2983 SLEEPY HOLLOW ROAD","situsCity":null,"situsZip":null,"jurisdictionCode":null,"ownerName":"GEORGE K SR HUNNICUTT","ownerName2":null,"propertyName":null,"zoningCode":null,"zoningDistrict":null,"jurisdictionPrefix":null,"dorCode":null,"acreage":125.522,"centroid":[-83.95417,32.501288],"lastSale":{"date":null,"price":null,"qualified":null},"tax":{"marketValue":328134.0,"assessedValue":null,"taxableValue":null,"taxes":null},"mailingAddress":{"line1":null,"line2":null,"city":null,"state":null,"zip":null},"incomeTract":null,"incomeBlockGroup":null,"nearestRoad":null,"flu":null,"opportunityZone":null,"oz2Eligibility":null,"source":"ga-macon-parcels-13193","appraiserUrl":"https://qpublic.schneidercorp.com/Application.aspx?App=MaconCountyGA&Layer=Parcels&PageType=Report&KeyValue=1065O%20%200005","gisViewerUrl":"https://garc.maps.arcgis.com/apps/webappviewer/index.html?id=3cd0257d900244738f30223999a11445"},"geometry":{"type":"Polygon","coordinates":[[[-83.947493,32.505792],[-83.947476,32.505812],[-83.957925,32.505823],[-83.958002,32.503147],[-83.959571,32.501205],[-83.959204,32.501125],[-83.959001,32.501061],[-83.958321,32.500817],[-83.95764,32.500544],[-83.953735,32.498782],[-83.95355,32.49871],[-83.953467,32.498718],[-83.952865,32.49946],[-83.952806,32.4996],[-83.952704,32.499766],[-83.952323,32.500238],[-83.953394,32.500855],[-83.952407,32.501923],[-83.951806,32.501597],[-83.952143,32.501164],[-83.951729,32.500913],[-83.947493,32.505792]]]}}]}