{"type":"FeatureCollection","name":"13193--5_22","features":[{"type":"Feature","id":"13193:1030O  0009B","properties":{"id":"13193:1030O  0009B","parcelId":"1030O  0009B","countyFips":"13193","countyName":"Macon","state":"Georgia","marketIds":["Macon"],"situsAddress":"0 SYDNEY BRYANT ROAD","situsCity":null,"situsZip":null,"jurisdictionCode":null,"ownerName":"EDWARD COLEMAN","ownerName2":null,"propertyName":null,"zoningCode":null,"zoningDistrict":null,"jurisdictionPrefix":null,"dorCode":null,"acreage":5.6385,"centroid":[-84.068426,32.5071],"lastSale":{"date":null,"price":null,"qualified":null},"tax":{"marketValue":14062.0,"assessedValue":null,"taxableValue":null,"taxes":null},"mailingAddress":{"line1":null,"line2":null,"city":null,"state":null,"zip":null},"incomeTract":null,"incomeBlockGroup":null,"nearestRoad":null,"flu":null,"opportunityZone":null,"oz2Eligibility":null,"source":"ga-macon-parcels-13193","appraiserUrl":"https://qpublic.schneidercorp.com/Application.aspx?App=MaconCountyGA&Layer=Parcels&PageType=Report&KeyValue=1030O%20%200009B","gisViewerUrl":"https://garc.maps.arcgis.com/apps/webappviewer/index.html?id=3cd0257d900244738f30223999a11445"},"geometry":{"type":"Polygon","coordinates":[[[-84.068059,32.508422],[-84.068835,32.50861],[-84.068795,32.505687],[-84.068015,32.505683],[-84.068059,32.508422]]]}},{"type":"Feature","id":"13193:1019O  0006A","properties":{"id":"13193:1019O  0006A","parcelId":"1019O  0006A","countyFips":"13193","countyName":"Macon","state":"Georgia","marketIds":["Macon"],"situsAddress":null,"situsCity":null,"situsZip":null,"jurisdictionCode":null,"ownerName":null,"ownerName2":null,"propertyName":null,"zoningCode":null,"zoningDistrict":null,"jurisdictionPrefix":null,"dorCode":null,"acreage":11.9533,"centroid":[-84.116346,32.500795],"lastSale":{"date":null,"price":null,"qualified":null},"tax":{"marketValue":null,"assessedValue":null,"taxableValue":null,"taxes":null},"mailingAddress":{"line1":null,"line2":null,"city":null,"state":null,"zip":null},"incomeTract":null,"incomeBlockGroup":null,"nearestRoad":null,"flu":null,"opportunityZone":null,"oz2Eligibility":null,"source":"ga-macon-parcels-13193","appraiserUrl":"https://qpublic.schneidercorp.com/Application.aspx?App=MaconCountyGA&Layer=Parcels&PageType=Report&KeyValue=1019O%20%200006A","gisViewerUrl":"https://garc.maps.arcgis.com/apps/webappviewer/index.html?id=3cd0257d900244738f30223999a11445"},"geometry":{"type":"Polygon","coordinates":[[[-84.115214,32.501744],[-84.117441,32.50185],[-84.117576,32.499791],[-84.115153,32.499795],[-84.115214,32.501744]]]}},{"type":"Feature","id":"13193:1030O  0007","properties":{"id":"13193:1030O  0007","parcelId":"1030O  0007","countyFips":"13193","countyName":"Macon","state":"Georgia","marketIds":["Macon"],"situsAddress":"354 MARSHALL ROAD","situsCity":null,"situsZip":null,"jurisdictionCode":null,"ownerName":"ROSA COLEMAN BERRY","ownerName2":null,"propertyName":null,"zoningCode":null,"zoningDistrict":null,"jurisdictionPrefix":null,"dorCode":null,"acreage":9.9328,"centroid":[-84.070427,32.521497],"lastSale":{"date":null,"price":null,"qualified":null},"tax":{"marketValue":39000.0,"assessedValue":null,"taxableValue":null,"taxes":null},"mailingAddress":{"line1":null,"line2":null,"city":null,"state":null,"zip":null},"incomeTract":null,"incomeBlockGroup":null,"nearestRoad":null,"flu":null,"opportunityZone":null,"oz2Eligibility":null,"source":"ga-macon-parcels-13193","appraiserUrl":"https://qpublic.schneidercorp.com/Application.aspx?App=MaconCountyGA&Layer=Parcels&PageType=Report&KeyValue=1030O%20%200007","gisViewerUrl":"https://garc.maps.arcgis.com/apps/webappviewer/index.html?id=3cd0257d900244738f30223999a11445"},"geometry":{"type":"Polygon","coordinates":[[[-84.068506,32.521909],[-84.070818,32.521928],[-84.072134,32.521927],[-84.072167,32.520871],[-84.068511,32.520852],[-84.068506,32.521909]]]}},{"type":"Feature","id":"13193:1019O  0009","properties":{"id":"13193:1019O  0009","parcelId":"1019O  0009","countyFips":"13193","countyName":"Macon","state":"Georgia","marketIds":["Macon"],"situsAddress":"13333 STATE ROUTE 128","situsCity":null,"situsZip":null,"jurisdictionCode":null,"ownerName":"M LLOYD LAYFIELD","ownerName2":null,"propertyName":null,"zoningCode":null,"zoningDistrict":null,"jurisdictionPrefix":null,"dorCode":null,"acreage":9.5301,"centroid":[-84.103204,32.505215],"lastSale":{"date":null,"price":null,"qualified":null},"tax":{"marketValue":62861.0,"assessedValue":null,"taxableValue":null,"taxes":null},"mailingAddress":{"line1":null,"line2":null,"city":null,"state":null,"zip":null},"incomeTract":null,"incomeBlockGroup":null,"nearestRoad":null,"flu":null,"opportunityZone":null,"oz2Eligibility":null,"source":"ga-macon-parcels-13193","appraiserUrl":"https://qpublic.schneidercorp.com/Application.aspx?App=MaconCountyGA&Layer=Parcels&PageType=Report&KeyValue=1019O%20%200009","gisViewerUrl":"https://garc.maps.arcgis.com/apps/webappviewer/index.html?id=3cd0257d900244738f30223999a11445"},"geometry":{"type":"Polygon","coordinates":[[[-84.102746,32.505847],[-84.104885,32.505867],[-84.104902,32.50421],[-84.103042,32.504197],[-84.103044,32.50527],[-84.101904,32.505273],[-84.101903,32.505839],[-84.102746,32.505847]]]}},{"type":"Feature","id":"13193:1019O  0008A","properties":{"id":"13193:1019O  0008A","parcelId":"1019O  0008A","countyFips":"13193","countyName":"Macon","state":"Georgia","marketIds":["Macon"],"situsAddress":"13109 STATE ROUTE 128","situsCity":null,"situsZip":null,"jurisdictionCode":null,"ownerName":"MARIO & BARBARA SANTOS","ownerName2":null,"propertyName":null,"zoningCode":null,"zoningDistrict":null,"jurisdictionPrefix":null,"dorCode":null,"acreage":10.3756,"centroid":[-84.102078,32.502572],"lastSale":{"date":null,"price":null,"qualified":null},"tax":{"marketValue":134777.0,"assessedValue":null,"taxableValue":null,"taxes":null},"mailingAddress":{"line1":null,"line2":null,"city":null,"state":null,"zip":null},"incomeTract":null,"incomeBlockGroup":null,"nearestRoad":null,"flu":null,"opportunityZone":null,"oz2Eligibility":null,"source":"ga-macon-parcels-13193","appraiserUrl":"https://qpublic.schneidercorp.com/Application.aspx?App=MaconCountyGA&Layer=Parcels&PageType=Report&KeyValue=1019O%20%200008A","gisViewerUrl":"https://garc.maps.arcgis.com/apps/webappviewer/index.html?id=3cd0257d900244738f30223999a11445"},"geometry":{"type":"Polygon","coordinates":[[[-84.101907,32.50419],[-84.103042,32.504197],[-84.103073,32.501122],[-84.101775,32.501113],[-84.101769,32.501739],[-84.101433,32.501797],[-84.101759,32.502882],[-84.101864,32.503533],[-84.101907,32.50419]]]}},{"type":"Feature","id":"13193:1030O  0004","properties":{"id":"13193:1030O  0004","parcelId":"1030O  0004","countyFips":"13193","countyName":"Macon","state":"Georgia","marketIds":["Macon"],"situsAddress":"0 SIDNEY BRYANT ROAD","situsCity":null,"situsZip":null,"jurisdictionCode":null,"ownerName":"WOD TIMBER COMPANY INC","ownerName2":null,"propertyName":null,"zoningCode":null,"zoningDistrict":null,"jurisdictionPrefix":null,"dorCode":null,"acreage":88.6926,"centroid":[-84.076472,32.510779],"lastSale":{"date":null,"price":null,"qualified":null},"tax":{"marketValue":181151.0,"assessedValue":null,"taxableValue":null,"taxes":null},"mailingAddress":{"line1":null,"line2":null,"city":null,"state":null,"zip":null},"incomeTract":null,"incomeBlockGroup":null,"nearestRoad":null,"flu":null,"opportunityZone":null,"oz2Eligibility":null,"source":"ga-macon-parcels-13193","appraiserUrl":"https://qpublic.schneidercorp.com/Application.aspx?App=MaconCountyGA&Layer=Parcels&PageType=Report&KeyValue=1030O%20%200004","gisViewerUrl":"https://garc.maps.arcgis.com/apps/webappviewer/index.html?id=3cd0257d900244738f30223999a11445"},"geometry":{"type":"Polygon","coordinates":[[[-84.072591,32.514152],[-84.081393,32.51421],[-84.081212,32.510424],[-84.081181,32.510171],[-84.080616,32.510148],[-84.079483,32.510184],[-84.077417,32.510203],[-84.076126,32.51019],[-84.073164,32.510259],[-84.072894,32.510232],[-84.072753,32.510145],[-84.072672,32.510019],[-84.072632,32.509788],[-84.072591,32.514152]]]}},{"type":"Feature","id":"13193:1019O  0002","properties":{"id":"13193:1019O  0002","parcelId":"1019O  0002","countyFips":"13193","countyName":"Macon","state":"Georgia","marketIds":["Macon"],"situsAddress":"0 BRANDY LANE","situsCity":null,"situsZip":null,"jurisdictionCode":null,"ownerName":"ELEANOR MORRELL","ownerName2":null,"propertyName":null,"zoningCode":null,"zoningDistrict":null,"jurisdictionPrefix":null,"dorCode":null,"acreage":23.497,"centroid":[-84.113534,32.504917],"lastSale":{"date":null,"price":null,"qualified":null},"tax":{"marketValue":26815.0,"assessedValue":null,"taxableValue":null,"taxes":null},"mailingAddress":{"line1":null,"line2":null,"city":null,"state":null,"zip":null},"incomeTract":null,"incomeBlockGroup":null,"nearestRoad":null,"flu":null,"opportunityZone":null,"oz2Eligibility":null,"source":"ga-macon-parcels-13193","appraiserUrl":"https://qpublic.schneidercorp.com/Application.aspx?App=MaconCountyGA&Layer=Parcels&PageType=Report&KeyValue=1019O%20%200002","gisViewerUrl":"https://garc.maps.arcgis.com/apps/webappviewer/index.html?id=3cd0257d900244738f30223999a11445"},"geometry":{"type":"Polygon","coordinates":[[[-84.112638,32.50589],[-84.117323,32.505901],[-84.117311,32.503823],[-84.112867,32.503995],[-84.112827,32.504259],[-84.112775,32.50445],[-84.112583,32.504791],[-84.112532,32.504982],[-84.112572,32.505136],[-84.112703,32.505293],[-84.11274,32.505563],[-84.112638,32.50589]]]}},{"type":"Feature","id":"13193:1042O  0006","properties":{"id":"13193:1042O  0006","parcelId":"1042O  0006","countyFips":"13193","countyName":"Macon","state":"Georgia","marketIds":["Macon"],"situsAddress":"429 SIDNEY BRYANT ROAD","situsCity":null,"situsZip":null,"jurisdictionCode":null,"ownerName":"WILLIS JEFFERY TERRELL","ownerName2":null,"propertyName":null,"zoningCode":null,"zoningDistrict":null,"jurisdictionPrefix":null,"dorCode":null,"acreage":42.3929,"centroid":[-84.063929,32.503324],"lastSale":{"date":null,"price":null,"qualified":null},"tax":{"marketValue":112578.0,"assessedValue":null,"taxableValue":null,"taxes":null},"mailingAddress":{"line1":null,"line2":null,"city":null,"state":null,"zip":null},"incomeTract":null,"incomeBlockGroup":null,"nearestRoad":null,"flu":null,"opportunityZone":null,"oz2Eligibility":null,"source":"ga-macon-parcels-13193","appraiserUrl":"https://qpublic.schneidercorp.com/Application.aspx?App=MaconCountyGA&Layer=Parcels&PageType=Report&KeyValue=1042O%20%200006","gisViewerUrl":"https://garc.maps.arcgis.com/apps/webappviewer/index.html?id=3cd0257d900244738f30223999a11445"},"geometry":{"type":"Polygon","coordinates":[[[-84.061126,32.501079],[-84.061107,32.505599],[-84.063988,32.505573],[-84.06399,32.504439],[-84.065429,32.50444],[-84.06546,32.503176],[-84.065458,32.502237],[-84.064397,32.50222],[-84.064404,32.50115],[-84.061126,32.501079]]]}},{"type":"Feature","id":"13193:1030O  0010","properties":{"id":"13193:1030O  0010","parcelId":"1030O  0010","countyFips":"13193","countyName":"Macon","state":"Georgia","marketIds":["Macon"],"situsAddress":null,"situsCity":null,"situsZip":null,"jurisdictionCode":null,"ownerName":"E F DR ET AL SEAY","ownerName2":null,"propertyName":null,"zoningCode":null,"zoningDistrict":null,"jurisdictionPrefix":null,"dorCode":null,"acreage":115.4376,"centroid":[-84.095037,32.500058],"lastSale":{"date":null,"price":null,"qualified":null},"tax":{"marketValue":269795.0,"assessedValue":null,"taxableValue":null,"taxes":null},"mailingAddress":{"line1":null,"line2":null,"city":null,"state":null,"zip":null},"incomeTract":null,"incomeBlockGroup":null,"nearestRoad":null,"flu":null,"opportunityZone":null,"oz2Eligibility":null,"source":"ga-macon-parcels-13193","appraiserUrl":"https://qpublic.schneidercorp.com/Application.aspx?App=MaconCountyGA&Layer=Parcels&PageType=Report&KeyValue=1030O%20%200010","gisViewerUrl":"https://garc.maps.arcgis.com/apps/webappviewer/index.html?id=3cd0257d900244738f30223999a11445"},"geometry":{"type":"Polygon","coordinates":[[[-84.090681,32.501758],[-84.092796,32.501803],[-84.092928,32.501754],[-84.093095,32.501737],[-84.09664,32.501782],[-84.099032,32.501777],[-84.101212,32.501801],[-84.098828,32.496259],[-84.094808,32.496166],[-84.094728,32.497973],[-84.09066,32.497826],[-84.090681,32.501758]]]}},{"type":"Feature","id":"13193:1030O  0009","properties":{"id":"13193:1030O  0009","parcelId":"1030O  0009","countyFips":"13193","countyName":"Macon","state":"Georgia","marketIds":["Macon"],"situsAddress":null,"situsCity":null,"situsZip":null,"jurisdictionCode":null,"ownerName":"VEORA HILL","ownerName2":null,"propertyName":null,"zoningCode":null,"zoningDistrict":null,"jurisdictionPrefix":null,"dorCode":null,"acreage":19.4633,"centroid":[-84.070233,32.509844],"lastSale":{"date":null,"price":null,"qualified":null},"tax":{"marketValue":21059.0,"assessedValue":null,"taxableValue":null,"taxes":null},"mailingAddress":{"line1":null,"line2":null,"city":null,"state":null,"zip":null},"incomeTract":null,"incomeBlockGroup":null,"nearestRoad":null,"flu":null,"opportunityZone":null,"oz2Eligibility":null,"source":"ga-macon-parcels-13193","appraiserUrl":"https://qpublic.schneidercorp.com/Application.aspx?App=MaconCountyGA&Layer=Parcels&PageType=Report&KeyValue=1030O%20%200009","gisViewerUrl":"https://garc.maps.arcgis.com/apps/webappviewer/index.html?id=3cd0257d900244738f30223999a11445"},"geometry":{"type":"Polygon","coordinates":[[[-84.069682,32.513957],[-84.070793,32.514031],[-84.070588,32.505696],[-84.069869,32.505693],[-84.069682,32.513957]]]}},{"type":"Feature","id":"13193:1030O  0009A","properties":{"id":"13193:1030O  0009A","parcelId":"1030O  0009A","countyFips":"13193","countyName":"Macon","state":"Georgia","marketIds":["Macon"],"situsAddress":"0 SYDNEY BRYANT","situsCity":null,"situsZip":null,"jurisdictionCode":null,"ownerName":"SHERRY MILLER","ownerName2":null,"propertyName":null,"zoningCode":null,"zoningDistrict":null,"jurisdictionPrefix":null,"dorCode":null,"acreage":18.8288,"centroid":[-84.069171,32.509417],"lastSale":{"date":null,"price":null,"qualified":null},"tax":{"marketValue":21059.0,"assessedValue":null,"taxableValue":null,"taxes":null},"mailingAddress":{"line1":null,"line2":null,"city":null,"state":null,"zip":null},"incomeTract":null,"incomeBlockGroup":null,"nearestRoad":null,"flu":null,"opportunityZone":null,"oz2Eligibility":null,"source":"ga-macon-parcels-13193","appraiserUrl":"https://qpublic.schneidercorp.com/Application.aspx?App=MaconCountyGA&Layer=Parcels&PageType=Report&KeyValue=1030O%20%200009A","gisViewerUrl":"https://garc.maps.arcgis.com/apps/webappviewer/index.html?id=3cd0257d900244738f30223999a11445"},"geometry":{"type":"Polygon","coordinates":[[[-84.06883,32.5139],[-84.069682,32.513957],[-84.069869,32.505693],[-84.068795,32.505687],[-84.068835,32.50861],[-84.069017,32.508654],[-84.06883,32.5139]]]}},{"type":"Feature","id":"13193:1042O  0001A","properties":{"id":"13193:1042O  0001A","parcelId":"1042O  0001A","countyFips":"13193","countyName":"Macon","state":"Georgia","marketIds":["Macon"],"situsAddress":"6449 GEN JOHN B GORDON ROAD","situsCity":null,"situsZip":null,"jurisdictionCode":null,"ownerName":"RONALD D CONNER","ownerName2":null,"propertyName":null,"zoningCode":null,"zoningDistrict":null,"jurisdictionPrefix":null,"dorCode":null,"acreage":44.117,"centroid":[-84.063412,32.509829],"lastSale":{"date":null,"price":null,"qualified":null},"tax":{"marketValue":469526.0,"assessedValue":null,"taxableValue":null,"taxes":null},"mailingAddress":{"line1":null,"line2":null,"city":null,"state":null,"zip":null},"incomeTract":null,"incomeBlockGroup":null,"nearestRoad":null,"flu":null,"opportunityZone":null,"oz2Eligibility":null,"source":"ga-macon-parcels-13193","appraiserUrl":"https://qpublic.schneidercorp.com/Application.aspx?App=MaconCountyGA&Layer=Parcels&PageType=Report&KeyValue=1042O%20%200001A","gisViewerUrl":"https://garc.maps.arcgis.com/apps/webappviewer/index.html?id=3cd0257d900244738f30223999a11445"},"geometry":{"type":"Polygon","coordinates":[[[-84.062902,32.513651],[-84.065074,32.513657],[-84.065242,32.505677],[-84.063308,32.505739],[-84.063244,32.505782],[-84.063152,32.505916],[-84.063052,32.507937],[-84.063013,32.5101],[-84.062827,32.512614],[-84.062867,32.51339],[-84.062853,32.513651],[-84.062902,32.513651]]]}},{"type":"Feature","id":"13193:1030O  0018","properties":{"id":"13193:1030O  0018","parcelId":"1030O  0018","countyFips":"13193","countyName":"Macon","state":"Georgia","marketIds":["Macon"],"situsAddress":null,"situsCity":null,"situsZip":null,"jurisdictionCode":null,"ownerName":"GEORGIA TIMBER SPECIALISTS INC","ownerName2":null,"propertyName":null,"zoningCode":null,"zoningDistrict":null,"jurisdictionPrefix":null,"dorCode":null,"acreage":41.7044,"centroid":[-84.07193,32.508533],"lastSale":{"date":null,"price":null,"qualified":null},"tax":{"marketValue":51528.0,"assessedValue":null,"taxableValue":null,"taxes":null},"mailingAddress":{"line1":null,"line2":null,"city":null,"state":null,"zip":null},"incomeTract":null,"incomeBlockGroup":null,"nearestRoad":null,"flu":null,"opportunityZone":null,"oz2Eligibility":null,"source":"ga-macon-parcels-13193","appraiserUrl":"https://qpublic.schneidercorp.com/Application.aspx?App=MaconCountyGA&Layer=Parcels&PageType=Report&KeyValue=1030O%20%200018","gisViewerUrl":"https://garc.maps.arcgis.com/apps/webappviewer/index.html?id=3cd0257d900244738f30223999a11445"},"geometry":{"type":"Polygon","coordinates":[[[-84.070793,32.514031],[-84.072591,32.514152],[-84.072669,32.505856],[-84.072563,32.505752],[-84.072379,32.505709],[-84.070588,32.505696],[-84.070793,32.514031]]]}},{"type":"Feature","id":"13193:1042O  0006B","properties":{"id":"13193:1042O  0006B","parcelId":"1042O  0006B","countyFips":"13193","countyName":"Macon","state":"Georgia","marketIds":["Macon"],"situsAddress":"0 SYDNEY BRYANT","situsCity":null,"situsZip":null,"jurisdictionCode":null,"ownerName":"HOUSTON PINES LLC","ownerName2":null,"propertyName":null,"zoningCode":null,"zoningDistrict":null,"jurisdictionPrefix":null,"dorCode":null,"acreage":82.1578,"centroid":[-84.057667,32.503268],"lastSale":{"date":null,"price":null,"qualified":null},"tax":{"marketValue":171321.0,"assessedValue":null,"taxableValue":null,"taxes":null},"mailingAddress":{"line1":null,"line2":null,"city":null,"state":null,"zip":null},"incomeTract":null,"incomeBlockGroup":null,"nearestRoad":null,"flu":null,"opportunityZone":null,"oz2Eligibility":null,"source":"ga-macon-parcels-13193","appraiserUrl":"https://qpublic.schneidercorp.com/Application.aspx?App=MaconCountyGA&Layer=Parcels&PageType=Report&KeyValue=1042O%20%200006B","gisViewerUrl":"https://garc.maps.arcgis.com/apps/webappviewer/index.html?id=3cd0257d900244738f30223999a11445"},"geometry":{"type":"Polygon","coordinates":[[[-84.054118,32.505578],[-84.061107,32.505599],[-84.061126,32.501079],[-84.054317,32.500815],[-84.054118,32.505578]]]}},{"type":"Feature","id":"13193:1030O  0002","properties":{"id":"13193:1030O  0002","parcelId":"1030O  0002","countyFips":"13193","countyName":"Macon","state":"Georgia","marketIds":["Macon"],"situsAddress":null,"situsCity":null,"situsZip":null,"jurisdictionCode":null,"ownerName":"WOD TIMBER COMPANY INC","ownerName2":null,"propertyName":null,"zoningCode":null,"zoningDistrict":null,"jurisdictionPrefix":null,"dorCode":null,"acreage":86.0865,"centroid":[-84.08455,32.511994],"lastSale":{"date":null,"price":null,"qualified":null},"tax":{"marketValue":181378.0,"assessedValue":null,"taxableValue":null,"taxes":null},"mailingAddress":{"line1":null,"line2":null,"city":null,"state":null,"zip":null},"incomeTract":null,"incomeBlockGroup":null,"nearestRoad":null,"flu":null,"opportunityZone":null,"oz2Eligibility":null,"source":"ga-macon-parcels-13193","appraiserUrl":"https://qpublic.schneidercorp.com/Application.aspx?App=MaconCountyGA&Layer=Parcels&PageType=Report&KeyValue=1030O%20%200002","gisViewerUrl":"https://garc.maps.arcgis.com/apps/webappviewer/index.html?id=3cd0257d900244738f30223999a11445"},"geometry":{"type":"Polygon","coordinates":[[[-84.082172,32.514207],[-84.082234,32.514207],[-84.090457,32.514181],[-84.090588,32.510242],[-84.082102,32.510104],[-84.082098,32.51051],[-84.082196,32.51051],[-84.082172,32.514207]]]}},{"type":"Feature","id":"13193:1030O  0008","properties":{"id":"13193:1030O  0008","parcelId":"1030O  0008","countyFips":"13193","countyName":"Macon","state":"Georgia","marketIds":["Macon"],"situsAddress":"836 SIDNEY BRYANT ROAD","situsCity":null,"situsZip":null,"jurisdictionCode":null,"ownerName":"DONALD A & DOROTHY F LANGLEY","ownerName2":null,"propertyName":null,"zoningCode":null,"zoningDistrict":null,"jurisdictionPrefix":null,"dorCode":null,"acreage":71.791,"centroid":[-84.067373,32.509332],"lastSale":{"date":null,"price":null,"qualified":null},"tax":{"marketValue":130633.0,"assessedValue":null,"taxableValue":null,"taxes":null},"mailingAddress":{"line1":null,"line2":null,"city":null,"state":null,"zip":null},"incomeTract":null,"incomeBlockGroup":null,"nearestRoad":null,"flu":null,"opportunityZone":null,"oz2Eligibility":null,"source":"ga-macon-parcels-13193","appraiserUrl":"https://qpublic.schneidercorp.com/Application.aspx?App=MaconCountyGA&Layer=Parcels&PageType=Report&KeyValue=1030O%20%200008","gisViewerUrl":"https://garc.maps.arcgis.com/apps/webappviewer/index.html?id=3cd0257d900244738f30223999a11445"},"geometry":{"type":"Polygon","coordinates":[[[-84.065074,32.513657],[-84.06883,32.5139],[-84.069017,32.508654],[-84.068059,32.508422],[-84.068015,32.505683],[-84.065242,32.505677],[-84.065074,32.513657]]]}},{"type":"Feature","id":"13193:1030O  0005P","properties":{"id":"13193:1030O  0005P","parcelId":"1030O  0005P","countyFips":"13193","countyName":"Macon","state":"Georgia","marketIds":["Macon"],"situsAddress":null,"situsCity":null,"situsZip":null,"jurisdictionCode":null,"ownerName":"WOD TIMBER COMPANY INC","ownerName2":null,"propertyName":null,"zoningCode":null,"zoningDistrict":null,"jurisdictionPrefix":null,"dorCode":null,"acreage":70.6125,"centroid":[-84.076184,32.508864],"lastSale":{"date":null,"price":null,"qualified":null},"tax":{"marketValue":122071.0,"assessedValue":null,"taxableValue":null,"taxes":null},"mailingAddress":{"line1":null,"line2":null,"city":null,"state":null,"zip":null},"incomeTract":null,"incomeBlockGroup":null,"nearestRoad":null,"flu":null,"opportunityZone":null,"oz2Eligibility":null,"source":"ga-macon-parcels-13193","appraiserUrl":"https://qpublic.schneidercorp.com/Application.aspx?App=MaconCountyGA&Layer=Parcels&PageType=Report&KeyValue=1030O%20%200005P","gisViewerUrl":"https://garc.maps.arcgis.com/apps/webappviewer/index.html?id=3cd0257d900244738f30223999a11445"},"geometry":{"type":"Polygon","coordinates":[[[-84.08133,32.510114],[-84.081353,32.51018],[-84.081351,32.509466],[-84.078659,32.509486],[-84.078789,32.505652],[-84.072699,32.505671],[-84.072783,32.505749],[-84.072833,32.50583],[-84.072857,32.505981],[-84.072818,32.507277],[-84.072816,32.508589],[-84.072793,32.509334],[-84.072814,32.50992],[-84.072851,32.510023],[-84.072913,32.510087],[-84.073006,32.510113],[-84.073171,32.510121],[-84.076126,32.510053],[-84.077418,32.510066],[-84.07948,32.510046],[-84.080813,32.510011],[-84.081256,32.510042],[-84.081304,32.510065],[-84.08133,32.510114]]]}},{"type":"Feature","id":"13193:1030O  0003","properties":{"id":"13193:1030O  0003","parcelId":"1030O  0003","countyFips":"13193","countyName":"Macon","state":"Georgia","marketIds":["Macon"],"situsAddress":null,"situsCity":null,"situsZip":null,"jurisdictionCode":null,"ownerName":"WOD TIMBER COMPANY INC","ownerName2":null,"propertyName":null,"zoningCode":null,"zoningDistrict":null,"jurisdictionPrefix":null,"dorCode":null,"acreage":103.8602,"centroid":[-84.085396,32.507675],"lastSale":{"date":null,"price":null,"qualified":null},"tax":{"marketValue":112000.0,"assessedValue":null,"taxableValue":null,"taxes":null},"mailingAddress":{"line1":null,"line2":null,"city":null,"state":null,"zip":null},"incomeTract":null,"incomeBlockGroup":null,"nearestRoad":null,"flu":null,"opportunityZone":null,"oz2Eligibility":null,"source":"ga-macon-parcels-13193","appraiserUrl":"https://qpublic.schneidercorp.com/Application.aspx?App=MaconCountyGA&Layer=Parcels&PageType=Report&KeyValue=1030O%20%200003","gisViewerUrl":"https://garc.maps.arcgis.com/apps/webappviewer/index.html?id=3cd0257d900244738f30223999a11445"},"geometry":{"type":"Polygon","coordinates":[[[-84.082232,32.510106],[-84.090588,32.510242],[-84.090741,32.505662],[-84.088669,32.505635],[-84.081624,32.505436],[-84.081678,32.508328],[-84.082243,32.508315],[-84.082232,32.510106]]]}},{"type":"Feature","id":"13193:1019O  0001C","properties":{"id":"13193:1019O  0001C","parcelId":"1019O  0001C","countyFips":"13193","countyName":"Macon","state":"Georgia","marketIds":["Macon"],"situsAddress":null,"situsCity":null,"situsZip":null,"jurisdictionCode":null,"ownerName":null,"ownerName2":null,"propertyName":null,"zoningCode":null,"zoningDistrict":null,"jurisdictionPrefix":null,"dorCode":null,"acreage":125.3488,"centroid":[-84.10485,32.511738],"lastSale":{"date":null,"price":null,"qualified":null},"tax":{"marketValue":null,"assessedValue":null,"taxableValue":null,"taxes":null},"mailingAddress":{"line1":null,"line2":null,"city":null,"state":null,"zip":null},"incomeTract":null,"incomeBlockGroup":null,"nearestRoad":null,"flu":null,"opportunityZone":null,"oz2Eligibility":null,"source":"ga-macon-parcels-13193","appraiserUrl":"https://qpublic.schneidercorp.com/Application.aspx?App=MaconCountyGA&Layer=Parcels&PageType=Report&KeyValue=1019O%20%200001C","gisViewerUrl":"https://garc.maps.arcgis.com/apps/webappviewer/index.html?id=3cd0257d900244738f30223999a11445"},"geometry":{"type":"Polygon","coordinates":[[[-84.103775,32.514243],[-84.105784,32.514618],[-84.107878,32.514519],[-84.108022,32.506483],[-84.101899,32.506389],[-84.101739,32.514176],[-84.103775,32.514243]]]}},{"type":"Feature","id":"13193:1019O  0006","properties":{"id":"13193:1019O  0006","parcelId":"1019O  0006","countyFips":"13193","countyName":"Macon","state":"Georgia","marketIds":["Macon"],"situsAddress":"351 BRANDY LANE","situsCity":null,"situsZip":null,"jurisdictionCode":null,"ownerName":"MYRTICE L CROOK","ownerName2":null,"propertyName":null,"zoningCode":null,"zoningDistrict":null,"jurisdictionPrefix":null,"dorCode":null,"acreage":76.9872,"centroid":[-84.111307,32.500873],"lastSale":{"date":null,"price":null,"qualified":null},"tax":{"marketValue":137746.0,"assessedValue":null,"taxableValue":null,"taxes":null},"mailingAddress":{"line1":null,"line2":null,"city":null,"state":null,"zip":null},"incomeTract":null,"incomeBlockGroup":null,"nearestRoad":null,"flu":null,"opportunityZone":null,"oz2Eligibility":null,"source":"ga-macon-parcels-13193","appraiserUrl":"https://qpublic.schneidercorp.com/Application.aspx?App=MaconCountyGA&Layer=Parcels&PageType=Report&KeyValue=1019O%20%200006","gisViewerUrl":"https://garc.maps.arcgis.com/apps/webappviewer/index.html?id=3cd0257d900244738f30223999a11445"},"geometry":{"type":"Polygon","coordinates":[[[-84.112717,32.503879],[-84.112795,32.503998],[-84.117311,32.503823],[-84.117441,32.50185],[-84.115214,32.501744],[-84.115094,32.497939],[-84.108223,32.497951],[-84.108216,32.498333],[-84.108349,32.498675],[-84.108365,32.498774],[-84.108672,32.498877],[-84.108811,32.49902],[-84.10882,32.499143],[-84.108698,32.499426],[-84.108924,32.499299],[-84.109115,32.499423],[-84.109592,32.499218],[-84.109682,32.499148],[-84.10978,32.499153],[-84.109989,32.499381],[-84.110338,32.499714],[-84.110669,32.500371],[-84.110971,32.500699],[-84.111059,32.500989],[-84.111344,32.50138],[-84.111698,32.501686],[-84.111936,32.501801],[-84.112209,32.501888],[-84.112484,32.502119],[-84.112534,32.502325],[-84.112439,32.502749],[-84.11278,32.502868],[-84.112891,32.503148],[-84.11276,32.503355],[-84.112484,32.503553],[-84.112633,32.503717],[-84.112717,32.503879]]]}},{"type":"Feature","id":"13193:1054O  0001","properties":{"id":"13193:1054O  0001","parcelId":"1054O  0001","countyFips":"13193","countyName":"Macon","state":"Georgia","marketIds":["Macon"],"situsAddress":null,"situsCity":null,"situsZip":null,"jurisdictionCode":null,"ownerName":"WINDOM RIDGE LLC","ownerName2":null,"propertyName":null,"zoningCode":null,"zoningDistrict":null,"jurisdictionPrefix":null,"dorCode":null,"acreage":65.1335,"centroid":[-84.020193,32.501235],"lastSale":{"date":null,"price":null,"qualified":null},"tax":{"marketValue":66344.0,"assessedValue":null,"taxableValue":null,"taxes":null},"mailingAddress":{"line1":null,"line2":null,"city":null,"state":null,"zip":null},"incomeTract":null,"incomeBlockGroup":null,"nearestRoad":null,"flu":null,"opportunityZone":null,"oz2Eligibility":null,"source":"ga-macon-parcels-13193","appraiserUrl":"https://qpublic.schneidercorp.com/Application.aspx?App=MaconCountyGA&Layer=Parcels&PageType=Report&KeyValue=1054O%20%200001","gisViewerUrl":"https://garc.maps.arcgis.com/apps/webappviewer/index.html?id=3cd0257d900244738f30223999a11445"},"geometry":{"type":"Polygon","coordinates":[[[-84.022672,32.505495],[-84.022774,32.505498],[-84.023043,32.497347],[-84.021468,32.497323],[-84.021283,32.497484],[-84.020942,32.497704],[-84.020572,32.497765],[-84.020067,32.497704],[-84.019629,32.497376],[-84.019235,32.497214],[-84.018564,32.496991],[-84.018026,32.496971],[-84.017821,32.497008],[-84.017702,32.497136],[-84.017649,32.49726],[-84.017418,32.497829],[-84.01736,32.49809],[-84.017343,32.498368],[-84.017354,32.498546],[-84.017409,32.49882],[-84.017498,32.499053],[-84.017591,32.499151],[-84.017719,32.499168],[-84.017886,32.499008],[-84.018213,32.498839],[-84.018706,32.498987],[-84.019337,32.499356],[-84.019507,32.499564],[-84.019646,32.500222],[-84.019903,32.500732],[-84.0201,32.501077],[-84.020118,32.501514],[-84.020057,32.501907],[-84.019899,32.502285],[-84.01973,32.50254],[-84.019108,32.502908],[-84.018666,32.503339],[-84.018619,32.503505],[-84.019072,32.503969],[-84.019223,32.504258],[-84.019334,32.504316],[-84.019501,32.504129],[-84.019637,32.5039],[-84.019906,32.503539],[-84.020122,32.50334],[-84.020514,32.503172],[-84.020802,32.503179],[-84.021407,32.503384],[-84.021565,32.503469],[-84.021657,32.503594],[-84.021823,32.503925],[-84.022162,32.504383],[-84.022551,32.504773],[-84.022682,32.505185],[-84.022672,32.505495]]]}},{"type":"Feature","id":"13193:1019O  0008","properties":{"id":"13193:1019O  0008","parcelId":"1019O  0008","countyFips":"13193","countyName":"Macon","state":"Georgia","marketIds":["Macon"],"situsAddress":"0 STATE ROUTE 128","situsCity":null,"situsZip":null,"jurisdictionCode":null,"ownerName":"MARIO & BARBARA SANTOS","ownerName2":null,"propertyName":null,"zoningCode":null,"zoningDistrict":null,"jurisdictionPrefix":null,"dorCode":null,"acreage":105.2232,"centroid":[-84.103679,32.50115],"lastSale":{"date":null,"price":null,"qualified":null},"tax":{"marketValue":102799.0,"assessedValue":null,"taxableValue":null,"taxes":null},"mailingAddress":{"line1":null,"line2":null,"city":null,"state":null,"zip":null},"incomeTract":null,"incomeBlockGroup":null,"nearestRoad":null,"flu":null,"opportunityZone":null,"oz2Eligibility":null,"source":"ga-macon-parcels-13193","appraiserUrl":"https://qpublic.schneidercorp.com/Application.aspx?App=MaconCountyGA&Layer=Parcels&PageType=Report&KeyValue=1019O%20%200008","gisViewerUrl":"https://garc.maps.arcgis.com/apps/webappviewer/index.html?id=3cd0257d900244738f30223999a11445"},"geometry":{"type":"Polygon","coordinates":[[[-84.104885,32.505867],[-84.108037,32.505876],[-84.108223,32.497951],[-84.101886,32.497885],[-84.101858,32.498683],[-84.102278,32.49869],[-84.102339,32.499107],[-84.101844,32.499099],[-84.101775,32.501113],[-84.103073,32.501122],[-84.103042,32.504197],[-84.104902,32.50421],[-84.104885,32.505867]]]}},{"type":"Feature","id":"13193:1019O  0004","properties":{"id":"13193:1019O  0004","parcelId":"1019O  0004","countyFips":"13193","countyName":"Macon","state":"Georgia","marketIds":["Macon"],"situsAddress":"13385 STATE ROUTE 128","situsCity":null,"situsZip":null,"jurisdictionCode":null,"ownerName":"BARRY ELLIS PARK","ownerName2":null,"propertyName":null,"zoningCode":null,"zoningDistrict":null,"jurisdictionPrefix":null,"dorCode":null,"acreage":79.7837,"centroid":[-84.110531,32.50243],"lastSale":{"date":null,"price":null,"qualified":null},"tax":{"marketValue":99789.0,"assessedValue":null,"taxableValue":null,"taxes":null},"mailingAddress":{"line1":null,"line2":null,"city":null,"state":null,"zip":null},"incomeTract":null,"incomeBlockGroup":null,"nearestRoad":null,"flu":null,"opportunityZone":null,"oz2Eligibility":null,"source":"ga-macon-parcels-13193","appraiserUrl":"https://qpublic.schneidercorp.com/Application.aspx?App=MaconCountyGA&Layer=Parcels&PageType=Report&KeyValue=1019O%20%200004","gisViewerUrl":"https://garc.maps.arcgis.com/apps/webappviewer/index.html?id=3cd0257d900244738f30223999a11445"},"geometry":{"type":"Polygon","coordinates":[[[-84.108022,32.506483],[-84.112845,32.506556],[-84.112638,32.50589],[-84.11274,32.505563],[-84.112703,32.505293],[-84.112572,32.505136],[-84.112532,32.504982],[-84.112583,32.504791],[-84.112775,32.50445],[-84.112827,32.504259],[-84.112867,32.503995],[-84.112795,32.503998],[-84.112633,32.503717],[-84.112484,32.503553],[-84.11276,32.503355],[-84.112891,32.503148],[-84.11278,32.502868],[-84.112439,32.502749],[-84.112534,32.502325],[-84.112484,32.502119],[-84.112209,32.501888],[-84.111936,32.501801],[-84.111698,32.501686],[-84.111344,32.50138],[-84.111059,32.500989],[-84.110971,32.500699],[-84.110669,32.500371],[-84.110338,32.499714],[-84.109989,32.499381],[-84.10978,32.499153],[-84.109682,32.499148],[-84.109592,32.499218],[-84.109115,32.499423],[-84.108924,32.499299],[-84.108698,32.499426],[-84.10882,32.499143],[-84.108811,32.49902],[-84.108672,32.498877],[-84.108365,32.498774],[-84.108349,32.498675],[-84.108216,32.498333],[-84.108037,32.505876],[-84.108231,32.505868],[-84.10823,32.506033],[-84.101901,32.506004],[-84.101899,32.506389],[-84.108022,32.506483]]]}}]}