{"type":"FeatureCollection","name":"12097-8_5","features":[{"type":"Feature","id":"12097:012634000000200000","properties":{"id":"12097:012634000000200000","parcelId":"012634000000200000","countyFips":"12097","countyName":"Osceola","state":"Florida","marketIds":["Orlando"],"situsAddress":"0 DEER PARK","situsCity":"SAINT CLOUD","situsZip":"34771","jurisdictionCode":null,"ownerName":"BLAKE DOROTHY DIANE","ownerName2":null,"propertyName":null,"zoningCode":"AC","zoningDistrict":"Agricultural","jurisdictionPrefix":null,"dorCode":"9911","acreage":40.74,"centroid":[-80.864724,28.252044],"lastSale":{"date":"2003-11-06","price":null,"qualified":"U"},"tax":{"marketValue":77400.0,"assessedValue":62024.0,"taxableValue":71600.0,"taxes":null},"mailingAddress":{"line1":"37718 RICKER DR","line2":null,"city":"LADY LAKE","state":"FL","zip":"32159"},"incomeTract":null,"incomeBlockGroup":null,"nearestRoad":null,"flu":{"code":"rural/agricultural","label":"RURAL/AGRICULTURAL","jurisdiction":"Unincorporated","source":"osceola-flu-12"},"opportunityZone":null,"oz2Eligibility":null,"source":"osceola-parcels-12097","gisViewerUrl":"https://maps.property-appraiser.org/","appraiserUrl":"https://maps.property-appraiser.org/?PIN=012634000000200000"},"geometry":{"type":"Polygon","coordinates":[[[-80.862624,28.250227],[-80.862647,28.253857],[-80.866819,28.25386],[-80.866805,28.250231],[-80.862624,28.250227]]]}},{"type":"Feature","id":"12097:122534000000200000","properties":{"id":"12097:122534000000200000","parcelId":"122534000000200000","countyFips":"12097","countyName":"Osceola","state":"Florida","marketIds":["Orlando"],"situsAddress":null,"situsCity":"SAINT CLOUD","situsZip":"34773","jurisdictionCode":null,"ownerName":"ST JOHNS RIVER WATER MGMT DIST","ownerName2":null,"propertyName":null,"zoningCode":"AC","zoningDistrict":"Agricultural","jurisdictionPrefix":null,"dorCode":"8001","acreage":9.25,"centroid":[-80.863353,28.331961],"lastSale":{"date":"1976-12-17","price":null,"qualified":"U"},"tax":{"marketValue":69400.0,"assessedValue":69400.0,"taxableValue":null,"taxes":null},"mailingAddress":{"line1":"ATTN MARY LOU PICKLES, DIR BUDGET&MGMT RPTG","line2":"4049 REID ST","city":"PALATKA","state":"FL","zip":"32178"},"incomeTract":null,"incomeBlockGroup":null,"nearestRoad":null,"flu":{"code":"rural/agricultural","label":"RURAL/AGRICULTURAL","jurisdiction":"Unincorporated","source":"osceola-flu-12"},"opportunityZone":null,"oz2Eligibility":null,"source":"osceola-parcels-12097","gisViewerUrl":"https://maps.property-appraiser.org/","appraiserUrl":"https://maps.property-appraiser.org/?PIN=122534000000200000"},"geometry":{"type":"Polygon","coordinates":[[[-80.862625,28.329863],[-80.862622,28.33301],[-80.864812,28.333011],[-80.862625,28.329863]]]}}]}