{"type":"FeatureCollection","name":"12019-3_10","features":[{"type":"Feature","id":"12019:004732-010-00","properties":{"id":"12019:004732-010-00","parcelId":"004732-010-00","countyFips":"12019","countyName":"Clay","state":"Florida","marketIds":["Jacksonville"],"situsAddress":"8172 MEADOWLARK Ct","situsCity":"Melrose","situsZip":"32666","jurisdictionCode":"Clay County","ownerName":"Fleming Connie Lynn","ownerName2":null,"propertyName":null,"zoningCode":"AG","zoningDistrict":null,"jurisdictionPrefix":null,"dorCode":"0100","acreage":5.238,"centroid":[-82.032936,29.747812],"lastSale":{"date":null,"price":null,"qualified":null},"tax":{"marketValue":null,"assessedValue":null,"taxableValue":null,"taxes":null},"mailingAddress":{"line1":"8172 Meadowlark Ct","line2":null,"city":"Melrose","state":"FL","zip":"32666"},"incomeTract":null,"incomeBlockGroup":null,"nearestRoad":null,"flu":{"code":"AG","label":"AG","jurisdiction":"Clay County","source":"clay-flum"},"opportunityZone":null,"oz2Eligibility":null,"source":"fl-clay-parcels-lgim-12019","appraiserUrl":"https://www.ccpao.com/","dataGaps":["No sale price, sale date, or tax values on the public county parcel layers."]},"geometry":{"type":"Polygon","coordinates":[[[-82.0338,29.74744],[-82.03379,29.74836],[-82.03165,29.74837],[-82.03165,29.74745],[-82.03379,29.74744],[-82.0338,29.74744]]]}},{"type":"Feature","id":"12019:004732-016-00","properties":{"id":"12019:004732-016-00","parcelId":"004732-016-00","countyFips":"12019","countyName":"Clay","state":"Florida","marketIds":["Jacksonville"],"situsAddress":"8175 MEADOWLARK Ct","situsCity":"Melrose","situsZip":"32666","jurisdictionCode":"Clay County","ownerName":"Berry Edward Jr","ownerName2":null,"propertyName":null,"zoningCode":"AG","zoningDistrict":null,"jurisdictionPrefix":null,"dorCode":"0100","acreage":5.0621,"centroid":[-82.030798,29.74801],"lastSale":{"date":null,"price":null,"qualified":null},"tax":{"marketValue":null,"assessedValue":null,"taxableValue":null,"taxes":null},"mailingAddress":{"line1":"8175 Meadowlark Ct","line2":null,"city":"Melrose","state":"FL","zip":"32666"},"incomeTract":null,"incomeBlockGroup":null,"nearestRoad":null,"flu":{"code":"AG","label":"AG","jurisdiction":"Clay County","source":"clay-flum"},"opportunityZone":null,"oz2Eligibility":null,"source":"fl-clay-parcels-lgim-12019","appraiserUrl":"https://www.ccpao.com/","dataGaps":["No sale price, sale date, or tax values on the public county parcel layers."]},"geometry":{"type":"Polygon","coordinates":[[[-82.02959,29.74839],[-82.02959,29.74746],[-82.03165,29.74745],[-82.03165,29.74837],[-82.03151,29.74838],[-82.02959,29.74839]]]}},{"type":"Feature","id":"12019:004732-017-00","properties":{"id":"12019:004732-017-00","parcelId":"004732-017-00","countyFips":"12019","countyName":"Clay","state":"Florida","marketIds":["Jacksonville"],"situsAddress":"8150 MEADOWLARK Ct","situsCity":"Melrose","situsZip":"32666","jurisdictionCode":"Clay County","ownerName":"Loose Tim M EL/E","ownerName2":null,"propertyName":null,"zoningCode":"AG","zoningDistrict":null,"jurisdictionPrefix":null,"dorCode":"0100","acreage":5.1123,"centroid":[-82.032526,29.749816],"lastSale":{"date":null,"price":null,"qualified":null},"tax":{"marketValue":null,"assessedValue":null,"taxableValue":null,"taxes":null},"mailingAddress":{"line1":"8150 Meadowlark Ct","line2":null,"city":"Melrose","state":"FL","zip":"32666"},"incomeTract":null,"incomeBlockGroup":null,"nearestRoad":null,"flu":{"code":"AG","label":"AG","jurisdiction":"Clay County","source":"clay-flum"},"opportunityZone":null,"oz2Eligibility":null,"source":"fl-clay-parcels-lgim-12019","appraiserUrl":"https://www.ccpao.com/","dataGaps":["No sale price, sale date, or tax values on the public county parcel layers."]},"geometry":{"type":"Polygon","coordinates":[[[-82.03167,29.75018],[-82.03166,29.74927],[-82.03379,29.74927],[-82.03378,29.75018],[-82.03173,29.75018],[-82.03167,29.75018]]]}},{"type":"Feature","id":"12019:004852-004-08","properties":{"id":"12019:004852-004-08","parcelId":"004852-004-08","countyFips":"12019","countyName":"Clay","state":"Florida","marketIds":["Jacksonville"],"situsAddress":"6857 COUNTY ROAD 214","situsCity":"Melrose","situsZip":"32666","jurisdictionCode":"Clay County","ownerName":"Herndon Jackie D","ownerName2":null,"propertyName":null,"zoningCode":"AG","zoningDistrict":null,"jurisdictionPrefix":null,"dorCode":"5000","acreage":17.7023,"centroid":[-82.027467,29.74954],"lastSale":{"date":null,"price":null,"qualified":null},"tax":{"marketValue":null,"assessedValue":null,"taxableValue":null,"taxes":null},"mailingAddress":{"line1":"6857 County Road 214","line2":null,"city":"Melrose","state":"FL","zip":"32666"},"incomeTract":null,"incomeBlockGroup":null,"nearestRoad":null,"flu":{"code":"AG","label":"AG","jurisdiction":"Clay County","source":"clay-flum"},"opportunityZone":null,"oz2Eligibility":null,"source":"fl-clay-parcels-lgim-12019","appraiserUrl":"https://www.ccpao.com/","dataGaps":["No sale price, sale date, or tax values on the public county parcel layers."]},"geometry":{"type":"Polygon","coordinates":[[[-82.02764,29.74833],[-82.02812,29.74873],[-82.02909,29.74787],[-82.02959,29.748],[-82.02959,29.7482],[-82.02662,29.75171],[-82.02611,29.75203],[-82.02566,29.75121],[-82.02537,29.75032],[-82.02688,29.749],[-82.02764,29.74833]]]}},{"type":"Feature","id":"12019:004862-000-00","properties":{"id":"12019:004862-000-00","parcelId":"004862-000-00","countyFips":"12019","countyName":"Clay","state":"Florida","marketIds":["Jacksonville"],"situsAddress":"CARL BROOK Rd","situsCity":"Keystone Heights","situsZip":"32656","jurisdictionCode":"Clay County","ownerName":"BAKER SALES INC","ownerName2":null,"propertyName":null,"zoningCode":"RA","zoningDistrict":null,"jurisdictionPrefix":null,"dorCode":"9500","acreage":7.4288,"centroid":[-82.013692,29.748864],"lastSale":{"date":null,"price":null,"qualified":null},"tax":{"marketValue":null,"assessedValue":null,"taxableValue":null,"taxes":null},"mailingAddress":{"line1":"6348 BAKER RD","line2":null,"city":"KEYSTONE HEIGHTS","state":"FL","zip":"32656"},"incomeTract":null,"incomeBlockGroup":null,"nearestRoad":null,"flu":null,"opportunityZone":null,"oz2Eligibility":null,"source":"fl-clay-parcels-lgim-12019","appraiserUrl":"https://www.ccpao.com/","dataGaps":["No sale price, sale date, or tax values on the public county parcel layers."]},"geometry":{"type":"Polygon","coordinates":[[[-82.013,29.74914],[-82.01299,29.74863],[-82.01309,29.74891],[-82.01324,29.74896],[-82.01412,29.74876],[-82.01451,29.7489],[-82.01421,29.74839],[-82.01384,29.74839],[-82.01384,29.74762],[-82.01456,29.7476],[-82.01458,29.75023],[-82.01301,29.75025],[-82.013,29.74945],[-82.013,29.74914]]]}},{"type":"Feature","id":"12019:004898-000-00","properties":{"id":"12019:004898-000-00","parcelId":"004898-000-00","countyFips":"12019","countyName":"Clay","state":"Florida","marketIds":["Jacksonville"],"situsAddress":"6813 COUNTY ROAD 214","situsCity":"Melrose","situsZip":"32666","jurisdictionCode":"Clay County","ownerName":"FRAZER LEE K S","ownerName2":null,"propertyName":null,"zoningCode":"AG","zoningDistrict":null,"jurisdictionPrefix":null,"dorCode":"0100","acreage":9.8062,"centroid":[-82.026056,29.748298],"lastSale":{"date":null,"price":null,"qualified":null},"tax":{"marketValue":null,"assessedValue":null,"taxableValue":null,"taxes":null},"mailingAddress":{"line1":"425 W 70TH ST","line2":null,"city":"JACKSONVILLE","state":"FL","zip":"32208"},"incomeTract":null,"incomeBlockGroup":null,"nearestRoad":null,"flu":{"code":"AG","label":"AG","jurisdiction":"Clay County","source":"clay-flum"},"opportunityZone":null,"oz2Eligibility":null,"source":"fl-clay-parcels-lgim-12019","appraiserUrl":"https://www.ccpao.com/","dataGaps":["No sale price, sale date, or tax values on the public county parcel layers."]},"geometry":{"type":"Polygon","coordinates":[[[-82.0249,29.74853],[-82.02459,29.7475],[-82.02825,29.74747],[-82.02651,29.74908],[-82.02603,29.74891],[-82.0249,29.74853]]]}},{"type":"Feature","id":"12019:004899-999-00","properties":{"id":"12019:004899-999-00","parcelId":"004899-999-00","countyFips":"12019","countyName":"Clay","state":"Florida","marketIds":["Jacksonville"],"situsAddress":"County Road 214","situsCity":"Keystone Heights","situsZip":"32656","jurisdictionCode":"Clay County","ownerName":"BOT TIIF","ownerName2":null,"propertyName":null,"zoningCode":"WAT","zoningDistrict":null,"jurisdictionPrefix":null,"dorCode":"8085","acreage":108.8705,"centroid":[-82.017003,29.748305],"lastSale":{"date":null,"price":null,"qualified":null},"tax":{"marketValue":null,"assessedValue":null,"taxableValue":null,"taxes":null},"mailingAddress":{"line1":"3900 Commonwealth Blvd.,  Mail","line2":null,"city":"Tallahassee","state":"FL","zip":"32399"},"incomeTract":null,"incomeBlockGroup":null,"nearestRoad":null,"flu":null,"opportunityZone":null,"oz2Eligibility":null,"source":"fl-clay-parcels-lgim-12019","appraiserUrl":"https://www.ccpao.com/","dataGaps":["No sale price, sale date, or tax values on the public county parcel layers."]},"geometry":{"type":"Polygon","coordinates":[[[-82.02046,29.74682],[-82.02131,29.74696],[-82.02131,29.74754],[-82.0217,29.74766],[-82.0232,29.74758],[-82.02313,29.74797],[-82.02251,29.74875],[-82.0214,29.74886],[-82.01966,29.75022],[-82.01818,29.75051],[-82.01564,29.7506],[-82.01576,29.75093],[-82.01484,29.75156],[-82.01403,29.7515],[-82.01402,29.75094],[-82.01384,29.75083],[-82.01381,29.75111],[-82.01198,29.74984],[-82.01214,29.74891],[-82.01241,29.74862],[-82.0128,29.74858],[-82.01299,29.74863],[-82.01301,29.75025],[-82.01458,29.75023],[-82.01456,29.7476],[-82.01377,29.74761],[-82.01523,29.74496],[-82.01767,29.74346],[-82.01854,29.74377],[-82.01875,29.74411],[-82.01863,29.74488],[-82.0188,29.74547],[-82.02044,29.74681],[-82.02046,29.74682]]]}},{"type":"Feature","id":"12019:004902-000-00","properties":{"id":"12019:004902-000-00","parcelId":"004902-000-00","countyFips":"12019","countyName":"Clay","state":"Florida","marketIds":["Jacksonville"],"situsAddress":"6469 BAKER Rd","situsCity":"Keystone Heights","situsZip":"32656","jurisdictionCode":"Clay County","ownerName":"Neal Leon B Jr EL/E","ownerName2":null,"propertyName":null,"zoningCode":"RA","zoningDistrict":null,"jurisdictionPrefix":null,"dorCode":"0100","acreage":5.3711,"centroid":[-82.023368,29.74928],"lastSale":{"date":null,"price":null,"qualified":null},"tax":{"marketValue":null,"assessedValue":null,"taxableValue":null,"taxes":null},"mailingAddress":{"line1":"6469 Baker Rd","line2":null,"city":"Keystone Heights","state":"FL","zip":"32656"},"incomeTract":null,"incomeBlockGroup":null,"nearestRoad":null,"flu":{"code":"RF","label":"RF","jurisdiction":"Clay County","source":"clay-flum"},"opportunityZone":null,"oz2Eligibility":null,"source":"fl-clay-parcels-lgim-12019","appraiserUrl":"https://www.ccpao.com/","dataGaps":["No sale price, sale date, or tax values on the public county parcel layers."]},"geometry":{"type":"Polygon","coordinates":[[[-82.02251,29.74875],[-82.02284,29.74842],[-82.02496,29.74978],[-82.02316,29.75017],[-82.02251,29.74875]]]}},{"type":"Feature","id":"12019:004923-007-01","properties":{"id":"12019:004923-007-01","parcelId":"004923-007-01","countyFips":"12019","countyName":"Clay","state":"Florida","marketIds":["Jacksonville"],"situsAddress":"6379 MARLBROOK Ct","situsCity":"Keystone Heights","situsZip":"32656","jurisdictionCode":"Clay County","ownerName":"Griggs Willie S Jr","ownerName2":null,"propertyName":null,"zoningCode":"AR","zoningDistrict":null,"jurisdictionPrefix":null,"dorCode":"5000","acreage":5.4295,"centroid":[-82.001175,29.748458],"lastSale":{"date":null,"price":null,"qualified":null},"tax":{"marketValue":null,"assessedValue":null,"taxableValue":null,"taxes":null},"mailingAddress":{"line1":"6379 Marlbrook Ct","line2":null,"city":"Keystone Heights","state":"FL","zip":"32656"},"incomeTract":null,"incomeBlockGroup":null,"nearestRoad":null,"flu":{"code":"RF","label":"RF","jurisdiction":"Clay County","source":"clay-flum"},"opportunityZone":null,"oz2Eligibility":null,"source":"fl-clay-parcels-lgim-12019","appraiserUrl":"https://www.ccpao.com/","dataGaps":["No sale price, sale date, or tax values on the public county parcel layers."]},"geometry":{"type":"Polygon","coordinates":[[[-82.00049,29.7492],[-82.00049,29.74774],[-82.0019,29.74773],[-82.00182,29.74916],[-82.00049,29.7492]]]}},{"type":"Feature","id":"12019:004923-007-06","properties":{"id":"12019:004923-007-06","parcelId":"004923-007-06","countyFips":"12019","countyName":"Clay","state":"Florida","marketIds":["Jacksonville"],"situsAddress":"MARLBROOK Ct","situsCity":"Keystone Heights","situsZip":"32656","jurisdictionCode":"Clay County","ownerName":"GRIGGS WILLIE S & BETH","ownerName2":null,"propertyName":null,"zoningCode":"AR","zoningDistrict":null,"jurisdictionPrefix":null,"dorCode":"6200","acreage":7.4805,"centroid":[-82.002908,29.74843],"lastSale":{"date":null,"price":null,"qualified":null},"tax":{"marketValue":null,"assessedValue":null,"taxableValue":null,"taxes":null},"mailingAddress":{"line1":"6379 MARLBROOK CT","line2":null,"city":"KEYSTONE HEIGHTS","state":"FL","zip":"32656"},"incomeTract":null,"incomeBlockGroup":null,"nearestRoad":null,"flu":{"code":"RF","label":"RF","jurisdiction":"Clay County","source":"clay-flum"},"opportunityZone":null,"oz2Eligibility":null,"source":"fl-clay-parcels-lgim-12019","appraiserUrl":"https://www.ccpao.com/","dataGaps":["No sale price, sale date, or tax values on the public county parcel layers."]},"geometry":{"type":"Polygon","coordinates":[[[-82.00398,29.74772],[-82.00385,29.74911],[-82.0019,29.74916],[-82.0019,29.74773],[-82.00398,29.74772]]]}},{"type":"Feature","id":"12019:004923-007-07","properties":{"id":"12019:004923-007-07","parcelId":"004923-007-07","countyFips":"12019","countyName":"Clay","state":"Florida","marketIds":["Jacksonville"],"situsAddress":"6535 County Road 214","situsCity":"Keystone Heights","situsZip":"32656","jurisdictionCode":"Clay County","ownerName":"Clay County Utility Authority","ownerName2":null,"propertyName":null,"zoningCode":"PS-1","zoningDistrict":null,"jurisdictionPrefix":null,"dorCode":"1000","acreage":9.9547,"centroid":[-82.007274,29.748504],"lastSale":{"date":null,"price":null,"qualified":null},"tax":{"marketValue":null,"assessedValue":null,"taxableValue":null,"taxes":null},"mailingAddress":{"line1":"3176 Old Jennings Rd","line2":null,"city":"Middleburg","state":"FL","zip":"32068"},"incomeTract":null,"incomeBlockGroup":null,"nearestRoad":null,"flu":{"code":"RF","label":"RF","jurisdiction":"Clay County","source":"clay-flum"},"opportunityZone":null,"oz2Eligibility":null,"source":"fl-clay-parcels-lgim-12019","appraiserUrl":"https://www.ccpao.com/","dataGaps":["No sale price, sale date, or tax values on the public county parcel layers."]},"geometry":{"type":"Polygon","coordinates":[[[-82.00687,29.74904],[-82.00597,29.74906],[-82.00595,29.7477],[-82.00889,29.74769],[-82.00869,29.74903],[-82.00687,29.74904]]]}},{"type":"Feature","id":"12019:004923-007-10","properties":{"id":"12019:004923-007-10","parcelId":"004923-007-10","countyFips":"12019","countyName":"Clay","state":"Florida","marketIds":["Jacksonville"],"situsAddress":"6513 County Road 214","situsCity":"Keystone Heights","situsZip":"32656","jurisdictionCode":"Clay County","ownerName":"McHollan Bruce R","ownerName2":null,"propertyName":null,"zoningCode":"AR","zoningDistrict":null,"jurisdictionPrefix":null,"dorCode":"5000","acreage":11.823,"centroid":[-82.005339,29.749009],"lastSale":{"date":null,"price":null,"qualified":null},"tax":{"marketValue":null,"assessedValue":null,"taxableValue":null,"taxes":null},"mailingAddress":{"line1":"6513 County Road 214","line2":null,"city":"Keystone Heights","state":"FL","zip":"32656"},"incomeTract":null,"incomeBlockGroup":null,"nearestRoad":null,"flu":{"code":"RF","label":"RF","jurisdiction":"Clay County","source":"clay-flum"},"opportunityZone":null,"oz2Eligibility":null,"source":"fl-clay-parcels-lgim-12019","appraiserUrl":"https://www.ccpao.com/","dataGaps":["No sale price, sale date, or tax values on the public county parcel layers."]},"geometry":{"type":"Polygon","coordinates":[[[-82.00463,29.74967],[-82.00469,29.74909],[-82.00449,29.7491],[-82.00466,29.74828],[-82.00465,29.74771],[-82.00595,29.7477],[-82.00597,29.74906],[-82.00687,29.74904],[-82.00689,29.7502],[-82.00459,29.75024],[-82.00463,29.74967]]]}},{"type":"Feature","id":"12019:005263-000-00","properties":{"id":"12019:005263-000-00","parcelId":"005263-000-00","countyFips":"12019","countyName":"Clay","state":"Florida","marketIds":["Jacksonville"],"situsAddress":"6062 County Road 219","situsCity":"Keystone Heights","situsZip":"32656","jurisdictionCode":"Clay County","ownerName":"BLACKBURN CHARLES E &","ownerName2":null,"propertyName":null,"zoningCode":"AR","zoningDistrict":null,"jurisdictionPrefix":null,"dorCode":"5000","acreage":55.2575,"centroid":[-82.001115,29.746285],"lastSale":{"date":null,"price":null,"qualified":null},"tax":{"marketValue":null,"assessedValue":null,"taxableValue":null,"taxes":null},"mailingAddress":{"line1":"6057 COUNTY ROAD 219","line2":null,"city":"MELROSE","state":"FL","zip":"32666"},"incomeTract":null,"incomeBlockGroup":null,"nearestRoad":null,"flu":{"code":"RF","label":"RF","jurisdiction":"Clay County","source":"clay-flum"},"opportunityZone":null,"oz2Eligibility":null,"source":"fl-clay-parcels-lgim-12019","appraiserUrl":"https://www.ccpao.com/","dataGaps":["No sale price, sale date, or tax values on the public county parcel layers."]},"geometry":{"type":"Polygon","coordinates":[[[-81.99761,29.7478],[-82.00456,29.74182],[-82.00467,29.74771],[-81.99762,29.74781],[-81.99761,29.7478]]]}},{"type":"Feature","id":"12019:005264-000-00","properties":{"id":"12019:005264-000-00","parcelId":"005264-000-00","countyFips":"12019","countyName":"Clay","state":"Florida","marketIds":["Jacksonville"],"situsAddress":"6057 COUNTY ROAD 219","situsCity":"Melrose","situsZip":"32666","jurisdictionCode":"Clay County","ownerName":"Blackburn Charles E","ownerName2":null,"propertyName":null,"zoningCode":"AR","zoningDistrict":null,"jurisdictionPrefix":null,"dorCode":"0100","acreage":26.1859,"centroid":[-82.00207,29.742674],"lastSale":{"date":null,"price":null,"qualified":null},"tax":{"marketValue":null,"assessedValue":null,"taxableValue":null,"taxes":null},"mailingAddress":{"line1":"6057 County Road 219","line2":null,"city":"Melrose","state":"FL","zip":"32666"},"incomeTract":null,"incomeBlockGroup":null,"nearestRoad":null,"flu":{"code":"AR","label":"AR","jurisdiction":"Clay County","source":"clay-flum"},"opportunityZone":null,"oz2Eligibility":null,"source":"fl-clay-parcels-lgim-12019","appraiserUrl":"https://www.ccpao.com/","dataGaps":["No sale price, sale date, or tax values on the public county parcel layers."]},"geometry":{"type":"Polygon","coordinates":[[[-82.0004,29.74143],[-82.00456,29.74044],[-82.00456,29.74154],[-82.00041,29.7451],[-82.00042,29.74486],[-82.0004,29.74143]]]}},{"type":"Feature","id":"12019:005265-000-00","properties":{"id":"12019:005265-000-00","parcelId":"005265-000-00","countyFips":"12019","countyName":"Clay","state":"Florida","marketIds":["Jacksonville"],"situsAddress":"County Road 219","situsCity":"Keystone Heights","situsZip":"32656","jurisdictionCode":"Clay County","ownerName":"Starnes Judith B L/E","ownerName2":null,"propertyName":null,"zoningCode":"AR","zoningDistrict":null,"jurisdictionPrefix":null,"dorCode":"6200","acreage":86.7319,"centroid":[-82.008717,29.740738],"lastSale":{"date":null,"price":null,"qualified":null},"tax":{"marketValue":null,"assessedValue":null,"taxableValue":null,"taxes":null},"mailingAddress":{"line1":"1926 SE 37th Court Cir","line2":null,"city":"Ocala","state":"FL","zip":"34471"},"incomeTract":null,"incomeBlockGroup":null,"nearestRoad":null,"flu":{"code":"RF","label":"RF","jurisdiction":"Clay County","source":"clay-flum"},"opportunityZone":null,"oz2Eligibility":null,"source":"fl-clay-parcels-lgim-12019","appraiserUrl":"https://www.ccpao.com/","dataGaps":["No sale price, sale date, or tax values on the public county parcel layers."]},"geometry":{"type":"Polygon","coordinates":[[[-82.00456,29.74217],[-82.00456,29.74182],[-82.00622,29.74043],[-82.00638,29.74042],[-82.00637,29.74029],[-82.00965,29.73744],[-82.01107,29.73859],[-82.01287,29.7386],[-82.01293,29.74373],[-82.01256,29.74389],[-82.00456,29.74217]]]}},{"type":"Feature","id":"12019:005265-000-01","properties":{"id":"12019:005265-000-01","parcelId":"005265-000-01","countyFips":"12019","countyName":"Clay","state":"Florida","marketIds":["Jacksonville"],"situsAddress":"County Road 214","situsCity":"Keystone Heights","situsZip":"32656","jurisdictionCode":"Clay County","ownerName":"Starnes Judith B L/E","ownerName2":null,"propertyName":null,"zoningCode":"RB","zoningDistrict":null,"jurisdictionPrefix":null,"dorCode":"6200","acreage":73.7223,"centroid":[-82.008306,29.74571],"lastSale":{"date":null,"price":null,"qualified":null},"tax":{"marketValue":null,"assessedValue":null,"taxableValue":null,"taxes":null},"mailingAddress":{"line1":"1926 SE 37th Court Cir","line2":null,"city":"Ocala","state":"FL","zip":"34471"},"incomeTract":null,"incomeBlockGroup":null,"nearestRoad":null,"flu":{"code":"RF","label":"RF","jurisdiction":"Clay County","source":"clay-flum"},"opportunityZone":null,"oz2Eligibility":null,"source":"fl-clay-parcels-lgim-12019","appraiserUrl":"https://www.ccpao.com/","dataGaps":["No sale price, sale date, or tax values on the public county parcel layers."]},"geometry":{"type":"Polygon","coordinates":[[[-82.00467,29.74771],[-82.00456,29.74217],[-82.01256,29.74389],[-82.01154,29.74441],[-82.01041,29.74522],[-82.00915,29.74688],[-82.00889,29.74769],[-82.00467,29.74771],[-82.00467,29.74771]]]}},{"type":"Feature","id":"12019:005265-001-00","properties":{"id":"12019:005265-001-00","parcelId":"005265-001-00","countyFips":"12019","countyName":"Clay","state":"Florida","marketIds":["Jacksonville"],"situsAddress":"6192 COUNTY ROAD 219","situsCity":"Melrose","situsZip":"32666","jurisdictionCode":"Clay County","ownerName":"Bolton Kelsey Et Al","ownerName2":null,"propertyName":null,"zoningCode":"AR","zoningDistrict":null,"jurisdictionPrefix":null,"dorCode":"0100","acreage":9.8464,"centroid":[-82.011448,29.737848],"lastSale":{"date":null,"price":null,"qualified":null},"tax":{"marketValue":null,"assessedValue":null,"taxableValue":null,"taxes":null},"mailingAddress":{"line1":"6192 County Road 219","line2":null,"city":"Melrose","state":"FL","zip":"32666"},"incomeTract":null,"incomeBlockGroup":null,"nearestRoad":null,"flu":{"code":"RF","label":"RF","jurisdiction":"Clay County","source":"clay-flum"},"opportunityZone":null,"oz2Eligibility":null,"source":"fl-clay-parcels-lgim-12019","appraiserUrl":"https://www.ccpao.com/","dataGaps":["No sale price, sale date, or tax values on the public county parcel layers."]},"geometry":{"type":"Polygon","coordinates":[[[-82.00965,29.73744],[-82.01078,29.73647],[-82.01287,29.73814],[-82.01287,29.7386],[-82.01107,29.73859],[-82.00965,29.73744]]]}},{"type":"Feature","id":"12019:005272-000-00","properties":{"id":"12019:005272-000-00","parcelId":"005272-000-00","countyFips":"12019","countyName":"Clay","state":"Florida","marketIds":["Jacksonville"],"situsAddress":"6639 County Road 214","situsCity":"Keystone Heights","situsZip":"32656","jurisdictionCode":"Clay County","ownerName":"Tyson William D","ownerName2":null,"propertyName":null,"zoningCode":"AR","zoningDistrict":null,"jurisdictionPrefix":null,"dorCode":"0200","acreage":6.522,"centroid":[-82.014435,29.74178],"lastSale":{"date":null,"price":null,"qualified":null},"tax":{"marketValue":null,"assessedValue":null,"taxableValue":null,"taxes":null},"mailingAddress":{"line1":"4845 River Basin Dr S","line2":null,"city":"Jacksonville","state":"FL","zip":"32207"},"incomeTract":null,"incomeBlockGroup":null,"nearestRoad":null,"flu":{"code":"RF","label":"RF","jurisdiction":"Clay County","source":"clay-flum"},"opportunityZone":null,"oz2Eligibility":null,"source":"fl-clay-parcels-lgim-12019","appraiserUrl":"https://www.ccpao.com/","dataGaps":["No sale price, sale date, or tax values on the public county parcel layers."]},"geometry":{"type":"Polygon","coordinates":[[[-82.01398,29.74043],[-82.01489,29.74043],[-82.01489,29.74295],[-82.01398,29.74331],[-82.01398,29.74043]]]}},{"type":"Feature","id":"12019:005332-002-00","properties":{"id":"12019:005332-002-00","parcelId":"005332-002-00","countyFips":"12019","countyName":"Clay","state":"Florida","marketIds":["Jacksonville"],"situsAddress":"County Road 214","situsCity":"Keystone Heights","situsZip":"32656","jurisdictionCode":"Clay County","ownerName":"STELMASZEK JOHN & CHRISTINE","ownerName2":null,"propertyName":null,"zoningCode":"RA","zoningDistrict":null,"jurisdictionPrefix":null,"dorCode":"0000","acreage":5.0951,"centroid":[-82.021592,29.745764],"lastSale":{"date":null,"price":null,"qualified":null},"tax":{"marketValue":null,"assessedValue":null,"taxableValue":null,"taxes":null},"mailingAddress":{"line1":"8020 Breezy Point Rd E","line2":null,"city":"Melrose","state":"FL","zip":"32666"},"incomeTract":null,"incomeBlockGroup":null,"nearestRoad":null,"flu":{"code":"RF","label":"RF","jurisdiction":"Clay County","source":"clay-flum"},"opportunityZone":null,"oz2Eligibility":null,"source":"fl-clay-parcels-lgim-12019","appraiserUrl":"https://www.ccpao.com/","dataGaps":["No sale price, sale date, or tax values on the public county parcel layers."]},"geometry":{"type":"Polygon","coordinates":[[[-82.02127,29.74499],[-82.02124,29.74398],[-82.02219,29.74492],[-82.02186,29.74518],[-82.02187,29.7468],[-82.02173,29.74753],[-82.02131,29.74754],[-82.02127,29.74517],[-82.02127,29.74499]]]}},{"type":"Feature","id":"12019:005336-000-00","properties":{"id":"12019:005336-000-00","parcelId":"005336-000-00","countyFips":"12019","countyName":"Clay","state":"Florida","marketIds":["Jacksonville"],"situsAddress":"6781 County Road 214","situsCity":"Keystone Heights","situsZip":"32656","jurisdictionCode":"Clay County","ownerName":"Wacha Kenneth G EL/E","ownerName2":null,"propertyName":null,"zoningCode":"AG","zoningDistrict":null,"jurisdictionPrefix":null,"dorCode":"0100","acreage":5.4154,"centroid":[-82.024442,29.74578],"lastSale":{"date":null,"price":null,"qualified":null},"tax":{"marketValue":null,"assessedValue":null,"taxableValue":null,"taxes":null},"mailingAddress":{"line1":"6781 County Road 214","line2":null,"city":"Keystone Heights","state":"FL","zip":"32656"},"incomeTract":null,"incomeBlockGroup":null,"nearestRoad":null,"flu":{"code":"AG","label":"AG","jurisdiction":"Clay County","source":"clay-flum"},"opportunityZone":null,"oz2Eligibility":null,"source":"fl-clay-parcels-lgim-12019","appraiserUrl":"https://www.ccpao.com/","dataGaps":["No sale price, sale date, or tax values on the public county parcel layers."]},"geometry":{"type":"Polygon","coordinates":[[[-82.02332,29.74567],[-82.02474,29.74524],[-82.02549,29.74524],[-82.02549,29.74603],[-82.02427,29.7468],[-82.02334,29.7457],[-82.02332,29.74567]]]}},{"type":"Feature","id":"12019:005357-000-00","properties":{"id":"12019:005357-000-00","parcelId":"005357-000-00","countyFips":"12019","countyName":"Clay","state":"Florida","marketIds":["Jacksonville"],"situsAddress":"6535 LITTLE LILY LAKE Rd","situsCity":"Keystone Heights","situsZip":"32656","jurisdictionCode":"Clay County","ownerName":"Hart Robert S","ownerName2":null,"propertyName":null,"zoningCode":"AG","zoningDistrict":null,"jurisdictionPrefix":null,"dorCode":"0100","acreage":12.7265,"centroid":[-82.025677,29.741684],"lastSale":{"date":null,"price":null,"qualified":null},"tax":{"marketValue":null,"assessedValue":null,"taxableValue":null,"taxes":null},"mailingAddress":{"line1":"6535 Little Lilly Lake Rd","line2":null,"city":"Keystone Heights","state":"FL","zip":"32656"},"incomeTract":null,"incomeBlockGroup":null,"nearestRoad":null,"flu":{"code":"AG","label":"AG","jurisdiction":"Clay County","source":"clay-flum"},"opportunityZone":null,"oz2Eligibility":null,"source":"fl-clay-parcels-lgim-12019","appraiserUrl":"https://www.ccpao.com/","dataGaps":["No sale price, sale date, or tax values on the public county parcel layers."]},"geometry":{"type":"Polygon","coordinates":[[[-82.02551,29.74244],[-82.02556,29.74151],[-82.02514,29.74117],[-82.02494,29.74021],[-82.02553,29.7402],[-82.02553,29.74047],[-82.02675,29.74047],[-82.0268,29.74388],[-82.0255,29.74389],[-82.02551,29.7426],[-82.02551,29.74244]]]}},{"type":"Feature","id":"12019:005358-000-00","properties":{"id":"12019:005358-000-00","parcelId":"005358-000-00","countyFips":"12019","countyName":"Clay","state":"Florida","marketIds":["Jacksonville"],"situsAddress":"8209 MELROSE Rd","situsCity":"Melrose","situsZip":"32666","jurisdictionCode":"Clay County","ownerName":"Carlock Lewis B","ownerName2":null,"propertyName":null,"zoningCode":"AG","zoningDistrict":null,"jurisdictionPrefix":null,"dorCode":"0100","acreage":9.4172,"centroid":[-82.028808,29.74577],"lastSale":{"date":null,"price":null,"qualified":null},"tax":{"marketValue":null,"assessedValue":null,"taxableValue":null,"taxes":null},"mailingAddress":{"line1":"8199 Melrose Rd","line2":null,"city":"Melrose","state":"FL","zip":"32666"},"incomeTract":null,"incomeBlockGroup":null,"nearestRoad":null,"flu":{"code":"AG","label":"AG","jurisdiction":"Clay County","source":"clay-flum"},"opportunityZone":null,"oz2Eligibility":null,"source":"fl-clay-parcels-lgim-12019","appraiserUrl":"https://www.ccpao.com/","dataGaps":["No sale price, sale date, or tax values on the public county parcel layers."]},"geometry":{"type":"Polygon","coordinates":[[[-82.02827,29.74684],[-82.02836,29.74388],[-82.02958,29.74433],[-82.02958,29.74633],[-82.02825,29.74747],[-82.02827,29.74684]]]}},{"type":"Feature","id":"12019:005358-001-00","properties":{"id":"12019:005358-001-00","parcelId":"005358-001-00","countyFips":"12019","countyName":"Clay","state":"Florida","marketIds":["Jacksonville"],"situsAddress":"8199 MELROSE Rd","situsCity":"Melrose","situsZip":"32666","jurisdictionCode":"Clay County","ownerName":"Carlock Lewis B","ownerName2":null,"propertyName":null,"zoningCode":"AG","zoningDistrict":null,"jurisdictionPrefix":null,"dorCode":"0100","acreage":10.7734,"centroid":[-82.027252,29.74642],"lastSale":{"date":null,"price":null,"qualified":null},"tax":{"marketValue":null,"assessedValue":null,"taxableValue":null,"taxes":null},"mailingAddress":{"line1":"8199 Melrose Rd","line2":null,"city":"Melrose","state":"FL","zip":"32666"},"incomeTract":null,"incomeBlockGroup":null,"nearestRoad":null,"flu":{"code":"AG","label":"AG","jurisdiction":"Clay County","source":"clay-flum"},"opportunityZone":null,"oz2Eligibility":null,"source":"fl-clay-parcels-lgim-12019","appraiserUrl":"https://www.ccpao.com/","dataGaps":["No sale price, sale date, or tax values on the public county parcel layers."]},"geometry":{"type":"Polygon","coordinates":[[[-82.02673,29.7469],[-82.02672,29.7459],[-82.02835,29.74386],[-82.02825,29.74747],[-82.02673,29.74749],[-82.02673,29.7469],[-82.02673,29.7469]]]}},{"type":"Feature","id":"12019:005358-999-00","properties":{"id":"12019:005358-999-00","parcelId":"005358-999-00","countyFips":"12019","countyName":"Clay","state":"Florida","marketIds":["Jacksonville"],"situsAddress":"MELROSE Rd","situsCity":"Melrose","situsZip":"32666","jurisdictionCode":"Clay County","ownerName":"BOT TIIF","ownerName2":null,"propertyName":null,"zoningCode":"WAT","zoningDistrict":null,"jurisdictionPrefix":null,"dorCode":"8085","acreage":21.2236,"centroid":[-82.029191,29.742849],"lastSale":{"date":null,"price":null,"qualified":null},"tax":{"marketValue":null,"assessedValue":null,"taxableValue":null,"taxes":null},"mailingAddress":{"line1":"3099 Commonwealth Blvd., Mail","line2":null,"city":"Tallahassee","state":"FL","zip":"32399"},"incomeTract":null,"incomeBlockGroup":null,"nearestRoad":null,"flu":null,"opportunityZone":null,"oz2Eligibility":null,"source":"fl-clay-parcels-lgim-12019","appraiserUrl":"https://www.ccpao.com/","dataGaps":["No sale price, sale date, or tax values on the public county parcel layers."]},"geometry":{"type":"Polygon","coordinates":[[[-82.02902,29.74414],[-82.02839,29.74391],[-82.02741,29.74277],[-82.02753,29.74221],[-82.02801,29.74186],[-82.02835,29.74127],[-82.02926,29.74099],[-82.02989,29.74125],[-82.03066,29.74186],[-82.03109,29.74352],[-82.03086,29.74381],[-82.02956,29.74382],[-82.02958,29.74433],[-82.02906,29.74415],[-82.02902,29.74414]]]}},{"type":"Feature","id":"12019:005359-000-00","properties":{"id":"12019:005359-000-00","parcelId":"005359-000-00","countyFips":"12019","countyName":"Clay","state":"Florida","marketIds":["Jacksonville"],"situsAddress":"8189 MELROSE Rd","situsCity":"Melrose","situsZip":"32666","jurisdictionCode":"Clay County","ownerName":"Costello Daniel","ownerName2":null,"propertyName":null,"zoningCode":"AG","zoningDistrict":null,"jurisdictionPrefix":null,"dorCode":"0100","acreage":12.2497,"centroid":[-82.02638,29.745373],"lastSale":{"date":null,"price":null,"qualified":null},"tax":{"marketValue":null,"assessedValue":null,"taxableValue":null,"taxes":null},"mailingAddress":{"line1":"7014 Gas Line Rd","line2":null,"city":"Keystone Heights","state":"FL","zip":"32656"},"incomeTract":null,"incomeBlockGroup":null,"nearestRoad":null,"flu":{"code":"AG","label":"AG","jurisdiction":"Clay County","source":"clay-flum"},"opportunityZone":null,"oz2Eligibility":null,"source":"fl-clay-parcels-lgim-12019","appraiserUrl":"https://www.ccpao.com/","dataGaps":["No sale price, sale date, or tax values on the public county parcel layers."]},"geometry":{"type":"Polygon","coordinates":[[[-82.02549,29.74603],[-82.0255,29.74389],[-82.02835,29.74386],[-82.02672,29.7459],[-82.02673,29.74631],[-82.02549,29.74625],[-82.02549,29.74603]]]}},{"type":"Feature","id":"12019:005361-000-00","properties":{"id":"12019:005361-000-00","parcelId":"005361-000-00","countyFips":"12019","countyName":"Clay","state":"Florida","marketIds":["Jacksonville"],"situsAddress":"Lilly Lake Rd","situsCity":"Melrose","situsZip":"32666","jurisdictionCode":"Clay County","ownerName":"Dykes Michael Byron ET AL","ownerName2":null,"propertyName":null,"zoningCode":"AR-2","zoningDistrict":null,"jurisdictionPrefix":null,"dorCode":"5700","acreage":19.5557,"centroid":[-82.028034,29.738052],"lastSale":{"date":null,"price":null,"qualified":null},"tax":{"marketValue":null,"assessedValue":null,"taxableValue":null,"taxes":null},"mailingAddress":{"line1":"6959 Gator Cv","line2":null,"city":"Melrose","state":"FL","zip":"32666"},"incomeTract":null,"incomeBlockGroup":null,"nearestRoad":null,"flu":{"code":"AG","label":"AG","jurisdiction":"Clay County","source":"clay-flum"},"opportunityZone":null,"oz2Eligibility":null,"source":"fl-clay-parcels-lgim-12019","appraiserUrl":"https://www.ccpao.com/","dataGaps":["No sale price, sale date, or tax values on the public county parcel layers."]},"geometry":{"type":"Polygon","coordinates":[[[-82.02691,29.73742],[-82.02753,29.73684],[-82.02846,29.73694],[-82.02967,29.73671],[-82.02962,29.74015],[-82.02766,29.74017],[-82.02765,29.7381],[-82.02677,29.73809],[-82.02691,29.73742]]]}},{"type":"Feature","id":"12019:005408-000-00","properties":{"id":"12019:005408-000-00","parcelId":"005408-000-00","countyFips":"12019","countyName":"Clay","state":"Florida","marketIds":["Jacksonville"],"situsAddress":"6615 County Road 214","situsCity":"Keystone Heights","situsZip":"32656","jurisdictionCode":"Clay County","ownerName":"Tucker Gordon W Jr","ownerName2":null,"propertyName":null,"zoningCode":"AR","zoningDistrict":null,"jurisdictionPrefix":null,"dorCode":"0100","acreage":10.3425,"centroid":[-82.013404,29.741029],"lastSale":{"date":null,"price":null,"qualified":null},"tax":{"marketValue":null,"assessedValue":null,"taxableValue":null,"taxes":null},"mailingAddress":{"line1":"6615 County Road 214","line2":null,"city":"Keystone Heights","state":"FL","zip":"32656"},"incomeTract":null,"incomeBlockGroup":null,"nearestRoad":null,"flu":{"code":"RF","label":"RF","jurisdiction":"Clay County","source":"clay-flum"},"opportunityZone":null,"oz2Eligibility":null,"source":"fl-clay-parcels-lgim-12019","appraiserUrl":"https://www.ccpao.com/","dataGaps":["No sale price, sale date, or tax values on the public county parcel layers."]},"geometry":{"type":"Polygon","coordinates":[[[-82.01289,29.73951],[-82.01347,29.73957],[-82.01369,29.74044],[-82.01398,29.74043],[-82.01398,29.74331],[-82.01293,29.74373],[-82.01289,29.74021],[-82.01289,29.73951]]]}},{"type":"Feature","id":"12019:005418-000-00","properties":{"id":"12019:005418-000-00","parcelId":"005418-000-00","countyFips":"12019","countyName":"Clay","state":"Florida","marketIds":["Jacksonville"],"situsAddress":"8357 Austin Rd","situsCity":"Melrose","situsZip":"32666","jurisdictionCode":"Clay County","ownerName":"Davis Jeffrey S Jr","ownerName2":null,"propertyName":null,"zoningCode":"AR","zoningDistrict":null,"jurisdictionPrefix":null,"dorCode":"0007","acreage":5.2969,"centroid":[-82.017907,29.739705],"lastSale":{"date":null,"price":null,"qualified":null},"tax":{"marketValue":null,"assessedValue":null,"taxableValue":null,"taxes":null},"mailingAddress":{"line1":"8357 Austin Rd","line2":null,"city":"Melrose","state":"FL","zip":"32666"},"incomeTract":null,"incomeBlockGroup":null,"nearestRoad":null,"flu":{"code":"RF","label":"RF","jurisdiction":"Clay County","source":"clay-flum"},"opportunityZone":null,"oz2Eligibility":null,"source":"fl-clay-parcels-lgim-12019","appraiserUrl":"https://www.ccpao.com/","dataGaps":["No sale price, sale date, or tax values on the public county parcel layers."]},"geometry":{"type":"Polygon","coordinates":[[[-82.01722,29.739],[-82.01829,29.73901],[-82.01895,29.7404],[-82.01717,29.74041],[-82.01722,29.739]]]}},{"type":"Feature","id":"12019:005427-000-00","properties":{"id":"12019:005427-000-00","parcelId":"005427-000-00","countyFips":"12019","countyName":"Clay","state":"Florida","marketIds":["Jacksonville"],"situsAddress":"8388 Austin Rd","situsCity":"Melrose","situsZip":"32666","jurisdictionCode":"Clay County","ownerName":"Wilkey Christopher Kirby Trust","ownerName2":null,"propertyName":null,"zoningCode":"RA","zoningDistrict":null,"jurisdictionPrefix":null,"dorCode":"0100","acreage":5.5674,"centroid":[-82.020227,29.73723],"lastSale":{"date":null,"price":null,"qualified":null},"tax":{"marketValue":null,"assessedValue":null,"taxableValue":null,"taxes":null},"mailingAddress":{"line1":"2797 Kelsey Pl","line2":null,"city":"Jacksonville","state":"FL","zip":"32257"},"incomeTract":null,"incomeBlockGroup":null,"nearestRoad":null,"flu":{"code":"RF","label":"RF","jurisdiction":"Clay County","source":"clay-flum"},"opportunityZone":null,"oz2Eligibility":null,"source":"fl-clay-parcels-lgim-12019","appraiserUrl":"https://www.ccpao.com/","dataGaps":["No sale price, sale date, or tax values on the public county parcel layers."]},"geometry":{"type":"Polygon","coordinates":[[[-82.02137,29.73672],[-82.02137,29.73738],[-82.02118,29.73765],[-82.02083,29.73743],[-82.01832,29.73741],[-82.01829,29.73679],[-82.02137,29.73672]]]}},{"type":"Feature","id":"12019:005429-002-00","properties":{"id":"12019:005429-002-00","parcelId":"005429-002-00","countyFips":"12019","countyName":"Clay","state":"Florida","marketIds":["Jacksonville"],"situsAddress":"NEALE Rd","situsCity":"Melrose","situsZip":"32666","jurisdictionCode":"Clay County","ownerName":"Lily Lake Estates Property Own","ownerName2":null,"propertyName":null,"zoningCode":"AR-2","zoningDistrict":null,"jurisdictionPrefix":null,"dorCode":"9700","acreage":5.6265,"centroid":[-82.023879,29.732601],"lastSale":{"date":null,"price":null,"qualified":null},"tax":{"marketValue":null,"assessedValue":null,"taxableValue":null,"taxes":null},"mailingAddress":{"line1":"PO Box 253","line2":null,"city":"Keystone Heights","state":"FL","zip":"32656"},"incomeTract":null,"incomeBlockGroup":null,"nearestRoad":null,"flu":{"code":"AG","label":"AG","jurisdiction":"Clay County","source":"clay-flum"},"opportunityZone":null,"oz2Eligibility":null,"source":"fl-clay-parcels-lgim-12019","appraiserUrl":"https://www.ccpao.com/","dataGaps":["No sale price, sale date, or tax values on the public county parcel layers."]},"geometry":{"type":"MultiPolygon","coordinates":[[[[-82.02542,29.73295],[-82.02539,29.7322],[-82.02438,29.73213],[-82.02376,29.73218],[-82.02319,29.73241],[-82.0225,29.73312],[-82.02133,29.73316],[-82.02133,29.73299],[-82.02241,29.73296],[-82.02313,29.73222],[-82.02311,29.73064],[-82.02559,29.73059],[-82.02566,29.73423],[-82.02557,29.73423],[-82.02542,29.73301],[-82.02542,29.73295]]],[[[-82.02345,29.73213],[-82.02438,29.73196],[-82.02539,29.73203],[-82.02536,29.73078],[-82.0233,29.73082],[-82.02332,29.73218],[-82.02345,29.73213]]]]}},{"type":"Feature","id":"12019:005430-000-00","properties":{"id":"12019:005430-000-00","parcelId":"005430-000-00","countyFips":"12019","countyName":"Clay","state":"Florida","marketIds":["Jacksonville"],"situsAddress":"6486 NEALE Rd","situsCity":"Melrose","situsZip":"32666","jurisdictionCode":"Clay County","ownerName":"Neale James R III P/R","ownerName2":null,"propertyName":null,"zoningCode":"WAT","zoningDistrict":null,"jurisdictionPrefix":null,"dorCode":"0100","acreage":60.1634,"centroid":[-82.022985,29.736151],"lastSale":{"date":null,"price":null,"qualified":null},"tax":{"marketValue":null,"assessedValue":null,"taxableValue":null,"taxes":null},"mailingAddress":{"line1":"789 Treva Anne Dr SW","line2":null,"city":"Concord","state":"NC","zip":"28027"},"incomeTract":null,"incomeBlockGroup":null,"nearestRoad":null,"flu":null,"opportunityZone":null,"oz2Eligibility":null,"source":"fl-clay-parcels-lgim-12019","appraiserUrl":"https://www.ccpao.com/","dataGaps":["No sale price, sale date, or tax values on the public county parcel layers."]},"geometry":{"type":"Polygon","coordinates":[[[-82.0222,29.73649],[-82.02136,29.73567],[-82.02172,29.73576],[-82.02171,29.73454],[-82.02134,29.73448],[-82.02133,29.73316],[-82.02234,29.73313],[-82.02257,29.73381],[-82.02239,29.73515],[-82.02309,29.73557],[-82.02318,29.73515],[-82.02306,29.73487],[-82.02328,29.7343],[-82.02549,29.73423],[-82.02556,29.73683],[-82.02536,29.73698],[-82.02555,29.73746],[-82.02547,29.73822],[-82.02507,29.73822],[-82.02506,29.74005],[-82.0214,29.74012],[-82.02138,29.73798],[-82.02098,29.73798],[-82.02157,29.7371],[-82.02216,29.73652],[-82.0222,29.73649]]]}},{"type":"Feature","id":"12019:005430-999-00","properties":{"id":"12019:005430-999-00","parcelId":"005430-999-00","countyFips":"12019","countyName":"Clay","state":"Florida","marketIds":["Jacksonville"],"situsAddress":"NEALE Rd","situsCity":"Melrose","situsZip":"32666","jurisdictionCode":"Clay County","ownerName":"BOT TIIF","ownerName2":null,"propertyName":null,"zoningCode":"WAT","zoningDistrict":null,"jurisdictionPrefix":null,"dorCode":"8085","acreage":56.4691,"centroid":[-82.023129,29.740422],"lastSale":{"date":null,"price":null,"qualified":null},"tax":{"marketValue":null,"assessedValue":null,"taxableValue":null,"taxes":null},"mailingAddress":{"line1":"3900 Commonwealth Blvd.,  Mail","line2":null,"city":"Tallahassee","state":"FL","zip":"32399"},"incomeTract":null,"incomeBlockGroup":null,"nearestRoad":null,"flu":null,"opportunityZone":null,"oz2Eligibility":null,"source":"fl-clay-parcels-lgim-12019","appraiserUrl":"https://www.ccpao.com/","dataGaps":["No sale price, sale date, or tax values on the public county parcel layers."]},"geometry":{"type":"Polygon","coordinates":[[[-82.02131,29.74244],[-82.02123,29.74239],[-82.02116,29.74255],[-82.02097,29.74231],[-82.02026,29.74042],[-82.02038,29.73936],[-82.02067,29.73852],[-82.02138,29.73852],[-82.0214,29.74012],[-82.02506,29.74005],[-82.02507,29.73822],[-82.02547,29.73822],[-82.02544,29.73837],[-82.02592,29.73926],[-82.02605,29.7399],[-82.02588,29.7402],[-82.02494,29.74021],[-82.02528,29.7418],[-82.02346,29.74255],[-82.02125,29.74302],[-82.02131,29.74244]],[[-82.02556,29.73683],[-82.02549,29.73423],[-82.02566,29.73423],[-82.02564,29.73348],[-82.02686,29.73409],[-82.02734,29.73451],[-82.02776,29.73449],[-82.02824,29.73407],[-82.0286,29.73412],[-82.02874,29.73453],[-82.02907,29.73488],[-82.02963,29.73503],[-82.02962,29.73566],[-82.02816,29.73597],[-82.02781,29.73586],[-82.02704,29.73586],[-82.02557,29.73682],[-82.02556,29.73683]]]}},{"type":"Feature","id":"12019:005431-000-00","properties":{"id":"12019:005431-000-00","parcelId":"005431-000-00","countyFips":"12019","countyName":"Clay","state":"Florida","marketIds":["Jacksonville"],"situsAddress":"NEALE Rd","situsCity":"Melrose","situsZip":"32666","jurisdictionCode":"Clay County","ownerName":"Rotarians for the Development","ownerName2":null,"propertyName":null,"zoningCode":"AR","zoningDistrict":null,"jurisdictionPrefix":null,"dorCode":"9900","acreage":18.6899,"centroid":[-82.016288,29.735392],"lastSale":{"date":null,"price":null,"qualified":null},"tax":{"marketValue":null,"assessedValue":null,"taxableValue":null,"taxes":null},"mailingAddress":{"line1":"312 Saint Johns Ave, Ste 2","line2":null,"city":"Palatka","state":"FL","zip":"32177"},"incomeTract":null,"incomeBlockGroup":null,"nearestRoad":null,"flu":{"code":"RF","label":"RF","jurisdiction":"Clay County","source":"clay-flum"},"opportunityZone":null,"oz2Eligibility":null,"source":"fl-clay-parcels-lgim-12019","appraiserUrl":"https://www.ccpao.com/","dataGaps":["No sale price, sale date, or tax values on the public county parcel layers."]},"geometry":{"type":"Polygon","coordinates":[[[-82.01579,29.73327],[-82.01592,29.73516],[-82.01801,29.73508],[-82.0181,29.73675],[-82.01684,29.73677],[-82.01673,29.73693],[-82.01672,29.73673],[-82.01488,29.73675],[-82.01484,29.73319],[-82.01505,29.73329],[-82.01579,29.73327]]]}},{"type":"Feature","id":"12019:005431-001-00","properties":{"id":"12019:005431-001-00","parcelId":"005431-001-00","countyFips":"12019","countyName":"Clay","state":"Florida","marketIds":["Jacksonville"],"situsAddress":"6470 NEALE Rd","situsCity":"Melrose","situsZip":"32666","jurisdictionCode":"Clay County","ownerName":"TORNWALL GEORGE B & SHERRY B","ownerName2":null,"propertyName":null,"zoningCode":"AR","zoningDistrict":null,"jurisdictionPrefix":null,"dorCode":"9907","acreage":29.7327,"centroid":[-82.01985,29.734622],"lastSale":{"date":null,"price":null,"qualified":null},"tax":{"marketValue":null,"assessedValue":null,"taxableValue":null,"taxes":null},"mailingAddress":{"line1":"6490 NEALE RD","line2":null,"city":"MELROSE","state":"FL","zip":"32666"},"incomeTract":null,"incomeBlockGroup":null,"nearestRoad":null,"flu":{"code":"AG","label":"AG","jurisdiction":"Clay County","source":"clay-flum"},"opportunityZone":null,"oz2Eligibility":null,"source":"fl-clay-parcels-lgim-12019","appraiserUrl":"https://www.ccpao.com/","dataGaps":["No sale price, sale date, or tax values on the public county parcel layers."]},"geometry":{"type":"Polygon","coordinates":[[[-82.02018,29.7332],[-82.02133,29.73316],[-82.02137,29.73672],[-82.01829,29.73679],[-82.01808,29.73324],[-82.02018,29.7332]]]}},{"type":"Feature","id":"12019:005431-002-00","properties":{"id":"12019:005431-002-00","parcelId":"005431-002-00","countyFips":"12019","countyName":"Clay","state":"Florida","marketIds":["Jacksonville"],"situsAddress":"6230 County Road 219","situsCity":"Keystone Heights","situsZip":"32656","jurisdictionCode":"Clay County","ownerName":"Rotarians For The Development","ownerName2":null,"propertyName":null,"zoningCode":"AR","zoningDistrict":null,"jurisdictionPrefix":null,"dorCode":"9907","acreage":26.6969,"centroid":[-82.013227,29.736478],"lastSale":{"date":null,"price":null,"qualified":null},"tax":{"marketValue":null,"assessedValue":null,"taxableValue":null,"taxes":null},"mailingAddress":{"line1":"312 Saint Johns Ave, Ste 2","line2":null,"city":"Palatka","state":"FL","zip":"32177"},"incomeTract":null,"incomeBlockGroup":null,"nearestRoad":null,"flu":{"code":"RF","label":"RF","jurisdiction":"Clay County","source":"clay-flum"},"opportunityZone":null,"oz2Eligibility":null,"source":"fl-clay-parcels-lgim-12019","appraiserUrl":"https://www.ccpao.com/","dataGaps":["No sale price, sale date, or tax values on the public county parcel layers."]},"geometry":{"type":"Polygon","coordinates":[[[-82.01078,29.73647],[-82.01282,29.73467],[-82.01483,29.73319],[-82.01488,29.73675],[-82.01427,29.73741],[-82.01364,29.73709],[-82.01285,29.73704],[-82.01287,29.73814],[-82.0121,29.73754],[-82.01078,29.73647]]]}},{"type":"Feature","id":"12019:005431-003-00","properties":{"id":"12019:005431-003-00","parcelId":"005431-003-00","countyFips":"12019","countyName":"Clay","state":"Florida","marketIds":["Jacksonville"],"situsAddress":"6416 NEALE Rd","situsCity":"Melrose","situsZip":"32666","jurisdictionCode":"Clay County","ownerName":"Rotarians for Development of Y","ownerName2":null,"propertyName":null,"zoningCode":"AR","zoningDistrict":null,"jurisdictionPrefix":null,"dorCode":"0000","acreage":5.2551,"centroid":[-82.016873,29.733728],"lastSale":{"date":null,"price":null,"qualified":null},"tax":{"marketValue":null,"assessedValue":null,"taxableValue":null,"taxes":null},"mailingAddress":{"line1":"312 Saint Johns Ave, Ste 2","line2":null,"city":"Palatka","state":"FL","zip":"32177"},"incomeTract":null,"incomeBlockGroup":null,"nearestRoad":null,"flu":{"code":"RF","label":"RF","jurisdiction":"Clay County","source":"clay-flum"},"opportunityZone":null,"oz2Eligibility":null,"source":"fl-clay-parcels-lgim-12019","appraiserUrl":"https://www.ccpao.com/","dataGaps":["No sale price, sale date, or tax values on the public county parcel layers."]},"geometry":{"type":"Polygon","coordinates":[[[-82.01579,29.73327],[-82.01789,29.73324],[-82.01795,29.73416],[-82.01586,29.73424],[-82.01579,29.73327]]]}},{"type":"Feature","id":"12019:005431-004-00","properties":{"id":"12019:005431-004-00","parcelId":"005431-004-00","countyFips":"12019","countyName":"Clay","state":"Florida","marketIds":["Jacksonville"],"situsAddress":"NEALE Rd","situsCity":"Melrose","situsZip":"32666","jurisdictionCode":"Clay County","ownerName":"Rotarians for Development of Y","ownerName2":null,"propertyName":null,"zoningCode":"AR","zoningDistrict":null,"jurisdictionPrefix":null,"dorCode":"0000","acreage":5.1078,"centroid":[-82.016935,29.73466],"lastSale":{"date":null,"price":null,"qualified":null},"tax":{"marketValue":null,"assessedValue":null,"taxableValue":null,"taxes":null},"mailingAddress":{"line1":"312 Saint Johns Ave, Ste 2","line2":null,"city":"Palatka","state":"FL","zip":"32177"},"incomeTract":null,"incomeBlockGroup":null,"nearestRoad":null,"flu":{"code":"RF","label":"RF","jurisdiction":"Clay County","source":"clay-flum"},"opportunityZone":null,"oz2Eligibility":null,"source":"fl-clay-parcels-lgim-12019","appraiserUrl":"https://www.ccpao.com/","dataGaps":["No sale price, sale date, or tax values on the public county parcel layers."]},"geometry":{"type":"Polygon","coordinates":[[[-82.01586,29.73424],[-82.01795,29.73416],[-82.01801,29.73508],[-82.01592,29.73516],[-82.01586,29.73424]]]}},{"type":"Feature","id":"12019:005435-999-00","properties":{"id":"12019:005435-999-00","parcelId":"005435-999-00","countyFips":"12019","countyName":"Clay","state":"Florida","marketIds":["Jacksonville"],"situsAddress":"LAKE ECHO RIDGE Rd","situsCity":"Melrose","situsZip":"32666","jurisdictionCode":"Clay County","ownerName":"BOT TIIF","ownerName2":null,"propertyName":null,"zoningCode":"WAT","zoningDistrict":null,"jurisdictionPrefix":null,"dorCode":"8085","acreage":10.4401,"centroid":[-82.013802,29.738378],"lastSale":{"date":null,"price":null,"qualified":null},"tax":{"marketValue":null,"assessedValue":null,"taxableValue":null,"taxes":null},"mailingAddress":{"line1":"3900 Commonwealth Blvd., Mail","line2":null,"city":"Tallahassee","state":"FL","zip":"32399"},"incomeTract":null,"incomeBlockGroup":null,"nearestRoad":null,"flu":null,"opportunityZone":null,"oz2Eligibility":null,"source":"fl-clay-parcels-lgim-12019","appraiserUrl":"https://www.ccpao.com/","dataGaps":["No sale price, sale date, or tax values on the public county parcel layers."]},"geometry":{"type":"Polygon","coordinates":[[[-82.01347,29.73957],[-82.01289,29.73951],[-82.01285,29.73704],[-82.01358,29.73708],[-82.01415,29.73728],[-82.01451,29.73764],[-82.01488,29.73852],[-82.01437,29.73919],[-82.01352,29.73957],[-82.01347,29.73957]]]}},{"type":"Feature","id":"12019:005438-002-00","properties":{"id":"12019:005438-002-00","parcelId":"005438-002-00","countyFips":"12019","countyName":"Clay","state":"Florida","marketIds":["Jacksonville"],"situsAddress":"8314 MELROSE Rd","situsCity":"Melrose","situsZip":"32666","jurisdictionCode":"Clay County","ownerName":"Roberts James M","ownerName2":null,"propertyName":null,"zoningCode":"AG","zoningDistrict":null,"jurisdictionPrefix":null,"dorCode":"0100","acreage":5.1647,"centroid":[-82.036928,29.742297],"lastSale":{"date":null,"price":null,"qualified":null},"tax":{"marketValue":null,"assessedValue":null,"taxableValue":null,"taxes":null},"mailingAddress":{"line1":"8314 Melrose Rd","line2":null,"city":"Melrose","state":"FL","zip":"32666"},"incomeTract":null,"incomeBlockGroup":null,"nearestRoad":null,"flu":{"code":"AG","label":"AG","jurisdiction":"Clay County","source":"clay-flum"},"opportunityZone":null,"oz2Eligibility":null,"source":"fl-clay-parcels-lgim-12019","appraiserUrl":"https://www.ccpao.com/","dataGaps":["No sale price, sale date, or tax values on the public county parcel layers."]},"geometry":{"type":"Polygon","coordinates":[[[-82.03672,29.74248],[-82.03582,29.74156],[-82.03646,29.74107],[-82.03791,29.74256],[-82.0379,29.74366],[-82.03676,29.74245],[-82.03672,29.74248]]]}},{"type":"Feature","id":"12019:005438-003-00","properties":{"id":"12019:005438-003-00","parcelId":"005438-003-00","countyFips":"12019","countyName":"Clay","state":"Florida","marketIds":["Jacksonville"],"situsAddress":"Lilly Lake Rd","situsCity":"Melrose","situsZip":"32666","jurisdictionCode":"Clay County","ownerName":"CAPPER PAYTON & DANIELLE","ownerName2":null,"propertyName":null,"zoningCode":"AG","zoningDistrict":null,"jurisdictionPrefix":null,"dorCode":"0000","acreage":5.3551,"centroid":[-82.034294,29.741646],"lastSale":{"date":null,"price":null,"qualified":null},"tax":{"marketValue":null,"assessedValue":null,"taxableValue":null,"taxes":null},"mailingAddress":{"line1":"8291 MELROSE RD","line2":null,"city":"MELROSE","state":"FL","zip":"32666"},"incomeTract":null,"incomeBlockGroup":null,"nearestRoad":null,"flu":{"code":"AG","label":"AG","jurisdiction":"Clay County","source":"clay-flum"},"opportunityZone":null,"oz2Eligibility":null,"source":"fl-clay-parcels-lgim-12019","appraiserUrl":"https://www.ccpao.com/","dataGaps":["No sale price, sale date, or tax values on the public county parcel layers."]},"geometry":{"type":"Polygon","coordinates":[[[-82.03372,29.74201],[-82.0332,29.74201],[-82.03321,29.74098],[-82.03521,29.741],[-82.03578,29.74159],[-82.03506,29.74214],[-82.03441,29.74146],[-82.03376,29.74198],[-82.03372,29.74201]]]}},{"type":"Feature","id":"12019:005440-002-00","properties":{"id":"12019:005440-002-00","parcelId":"005440-002-00","countyFips":"12019","countyName":"Clay","state":"Florida","marketIds":["Jacksonville"],"situsAddress":"8266 MELROSE Rd","situsCity":"Melrose","situsZip":"32666","jurisdictionCode":"Clay County","ownerName":"Smith Timothy W","ownerName2":null,"propertyName":null,"zoningCode":"AG","zoningDistrict":null,"jurisdictionPrefix":null,"dorCode":"0100","acreage":10.3022,"centroid":[-82.036608,29.74474],"lastSale":{"date":null,"price":null,"qualified":null},"tax":{"marketValue":null,"assessedValue":null,"taxableValue":null,"taxes":null},"mailingAddress":{"line1":"8266 Melrose Rd","line2":null,"city":"Melrose","state":"FL","zip":"32666"},"incomeTract":null,"incomeBlockGroup":null,"nearestRoad":null,"flu":{"code":"AG","label":"AG","jurisdiction":"Clay County","source":"clay-flum"},"opportunityZone":null,"oz2Eligibility":null,"source":"fl-clay-parcels-lgim-12019","appraiserUrl":"https://www.ccpao.com/","dataGaps":["No sale price, sale date, or tax values on the public county parcel layers."]},"geometry":{"type":"Polygon","coordinates":[[[-82.03575,29.74377],[-82.0379,29.74375],[-82.03789,29.74556],[-82.03575,29.74559],[-82.03575,29.74503],[-82.03575,29.74377]]]}},{"type":"Feature","id":"12019:005440-003-00","properties":{"id":"12019:005440-003-00","parcelId":"005440-003-00","countyFips":"12019","countyName":"Clay","state":"Florida","marketIds":["Jacksonville"],"situsAddress":"8262 MELROSE Rd","situsCity":"Melrose","situsZip":"32666","jurisdictionCode":"Clay County","ownerName":"Berry Kenneth O","ownerName2":null,"propertyName":null,"zoningCode":"AG","zoningDistrict":null,"jurisdictionPrefix":null,"dorCode":"5000","acreage":9.521,"centroid":[-82.034566,29.744824],"lastSale":{"date":null,"price":null,"qualified":null},"tax":{"marketValue":null,"assessedValue":null,"taxableValue":null,"taxes":null},"mailingAddress":{"line1":"8262 Melrose Rd","line2":null,"city":"Melrose","state":"FL","zip":"32666"},"incomeTract":null,"incomeBlockGroup":null,"nearestRoad":null,"flu":{"code":"AG","label":"AG","jurisdiction":"Clay County","source":"clay-flum"},"opportunityZone":null,"oz2Eligibility":null,"source":"fl-clay-parcels-lgim-12019","appraiserUrl":"https://www.ccpao.com/","dataGaps":["No sale price, sale date, or tax values on the public county parcel layers."]},"geometry":{"type":"Polygon","coordinates":[[[-82.03377,29.74378],[-82.03575,29.74377],[-82.03575,29.74559],[-82.03378,29.74561],[-82.03378,29.74537],[-82.03377,29.74378]]]}},{"type":"Feature","id":"12019:005440-004-00","properties":{"id":"12019:005440-004-00","parcelId":"005440-004-00","countyFips":"12019","countyName":"Clay","state":"Florida","marketIds":["Jacksonville"],"situsAddress":"8222 MELROSE Rd","situsCity":"Melrose","situsZip":"32666","jurisdictionCode":"Clay County","ownerName":"Feeken Lori J Trustee","ownerName2":null,"propertyName":null,"zoningCode":"AG","zoningDistrict":null,"jurisdictionPrefix":null,"dorCode":"0000","acreage":6.325,"centroid":[-82.030823,29.746881],"lastSale":{"date":null,"price":null,"qualified":null},"tax":{"marketValue":null,"assessedValue":null,"taxableValue":null,"taxes":null},"mailingAddress":{"line1":"8230 Melrose Rd","line2":null,"city":"Melrose","state":"FL","zip":"32666"},"incomeTract":null,"incomeBlockGroup":null,"nearestRoad":null,"flu":{"code":"AG","label":"AG","jurisdiction":"Clay County","source":"clay-flum"},"opportunityZone":null,"oz2Eligibility":null,"source":"fl-clay-parcels-lgim-12019","appraiserUrl":"https://www.ccpao.com/","dataGaps":["No sale price, sale date, or tax values on the public county parcel layers."]},"geometry":{"type":"Polygon","coordinates":[[[-82.03165,29.74745],[-82.02959,29.74746],[-82.02959,29.74663],[-82.02988,29.74638],[-82.03044,29.74671],[-82.03064,29.74654],[-82.03098,29.74682],[-82.03192,29.7465],[-82.03272,29.74744],[-82.03165,29.74745]]]}},{"type":"Feature","id":"12019:005440-005-00","properties":{"id":"12019:005440-005-00","parcelId":"005440-005-00","countyFips":"12019","countyName":"Clay","state":"Florida","marketIds":["Jacksonville"],"situsAddress":"8230 MELROSE Rd","situsCity":"Melrose","situsZip":"32666","jurisdictionCode":"Clay County","ownerName":"Feeken Lori J Trustee","ownerName2":null,"propertyName":null,"zoningCode":"AG","zoningDistrict":null,"jurisdictionPrefix":null,"dorCode":"0100","acreage":15.2496,"centroid":[-82.032808,29.745984],"lastSale":{"date":null,"price":null,"qualified":null},"tax":{"marketValue":null,"assessedValue":null,"taxableValue":null,"taxes":null},"mailingAddress":{"line1":"8230 Melrose Rd","line2":null,"city":"Melrose","state":"FL","zip":"32666"},"incomeTract":null,"incomeBlockGroup":null,"nearestRoad":null,"flu":{"code":"AG","label":"AG","jurisdiction":"Clay County","source":"clay-flum"},"opportunityZone":null,"oz2Eligibility":null,"source":"fl-clay-parcels-lgim-12019","appraiserUrl":"https://www.ccpao.com/","dataGaps":["No sale price, sale date, or tax values on the public county parcel layers."]},"geometry":{"type":"Polygon","coordinates":[[[-82.03272,29.74744],[-82.03099,29.74541],[-82.03276,29.74402],[-82.03378,29.74561],[-82.03379,29.74744],[-82.03272,29.74744]]]}},{"type":"Feature","id":"12019:005440-006-00","properties":{"id":"12019:005440-006-00","parcelId":"005440-006-00","countyFips":"12019","countyName":"Clay","state":"Florida","marketIds":["Jacksonville"],"situsAddress":"8242 MELROSE Rd","situsCity":"Melrose","situsZip":"32666","jurisdictionCode":"Clay County","ownerName":"Martin Sharon D","ownerName2":null,"propertyName":null,"zoningCode":"AG","zoningDistrict":null,"jurisdictionPrefix":null,"dorCode":"5000","acreage":21.7597,"centroid":[-82.036548,29.746865],"lastSale":{"date":null,"price":null,"qualified":null},"tax":{"marketValue":null,"assessedValue":null,"taxableValue":null,"taxes":null},"mailingAddress":{"line1":"8242 Melrose Aly","line2":null,"city":"Melrose","state":"FL","zip":"32666"},"incomeTract":null,"incomeBlockGroup":null,"nearestRoad":null,"flu":{"code":"AG","label":"AG","jurisdiction":"Clay County","source":"clay-flum"},"opportunityZone":null,"oz2Eligibility":null,"source":"fl-clay-parcels-lgim-12019","appraiserUrl":"https://www.ccpao.com/","dataGaps":["No sale price, sale date, or tax values on the public county parcel layers."]},"geometry":{"type":"Polygon","coordinates":[[[-82.0338,29.74758],[-82.03378,29.74561],[-82.03789,29.74556],[-82.03788,29.74742],[-82.03797,29.74742],[-82.03797,29.7476],[-82.0338,29.74758]]]}},{"type":"Feature","id":"12019:005453-000-00","properties":{"id":"12019:005453-000-00","parcelId":"005453-000-00","countyFips":"12019","countyName":"Clay","state":"Florida","marketIds":["Jacksonville"],"situsAddress":"6959 GATOR Cv","situsCity":"Melrose","situsZip":"32666","jurisdictionCode":"Clay County","ownerName":"Dykes Michael B","ownerName2":null,"propertyName":null,"zoningCode":"AG","zoningDistrict":null,"jurisdictionPrefix":null,"dorCode":"5000","acreage":37.6516,"centroid":[-82.03236,29.736849],"lastSale":{"date":null,"price":null,"qualified":null},"tax":{"marketValue":null,"assessedValue":null,"taxableValue":null,"taxes":null},"mailingAddress":{"line1":"6959 Gator Cv","line2":null,"city":"Melrose","state":"FL","zip":"32666"},"incomeTract":null,"incomeBlockGroup":null,"nearestRoad":null,"flu":{"code":"AG","label":"AG","jurisdiction":"Clay County","source":"clay-flum"},"opportunityZone":null,"oz2Eligibility":null,"source":"fl-clay-parcels-lgim-12019","appraiserUrl":"https://www.ccpao.com/","dataGaps":["No sale price, sale date, or tax values on the public county parcel layers."]},"geometry":{"type":"Polygon","coordinates":[[[-82.02964,29.73474],[-82.03373,29.73468],[-82.0337,29.73834],[-82.03687,29.73829],[-82.03685,29.74021],[-82.0337,29.74024],[-82.0337,29.73887],[-82.03176,29.7367],[-82.03234,29.73586],[-82.03158,29.73564],[-82.03111,29.73629],[-82.03165,29.73681],[-82.03158,29.73687],[-82.03029,29.73565],[-82.02963,29.73536],[-82.02963,29.73503],[-82.02964,29.73474]]]}},{"type":"Feature","id":"12019:005453-001-00","properties":{"id":"12019:005453-001-00","parcelId":"005453-001-00","countyFips":"12019","countyName":"Clay","state":"Florida","marketIds":["Jacksonville"],"situsAddress":"LILY LAKE Rd","situsCity":"Melrose","situsZip":"32666","jurisdictionCode":"Clay County","ownerName":"PATRAY JAMES W III","ownerName2":null,"propertyName":null,"zoningCode":"AG","zoningDistrict":null,"jurisdictionPrefix":null,"dorCode":"5600","acreage":18.5185,"centroid":[-82.030474,29.7369],"lastSale":{"date":null,"price":null,"qualified":null},"tax":{"marketValue":null,"assessedValue":null,"taxableValue":null,"taxes":null},"mailingAddress":{"line1":"PO BOX 141435","line2":null,"city":"GAINESVILLE","state":"FL","zip":"32614"},"incomeTract":null,"incomeBlockGroup":null,"nearestRoad":null,"flu":{"code":"AG","label":"AG","jurisdiction":"Clay County","source":"clay-flum"},"opportunityZone":null,"oz2Eligibility":null,"source":"fl-clay-parcels-lgim-12019","appraiserUrl":"https://www.ccpao.com/","dataGaps":["No sale price, sale date, or tax values on the public county parcel layers."]},"geometry":{"type":"Polygon","coordinates":[[[-82.02964,29.73886],[-82.02967,29.7366],[-82.0299,29.73654],[-82.02995,29.73581],[-82.02962,29.73566],[-82.02963,29.73536],[-82.03029,29.73565],[-82.03104,29.73635],[-82.03026,29.73673],[-82.03047,29.73741],[-82.03106,29.7372],[-82.03176,29.7367],[-82.0337,29.73887],[-82.02964,29.73886],[-82.02964,29.73886]]]}},{"type":"Feature","id":"12019:005455-000-00","properties":{"id":"12019:005455-000-00","parcelId":"005455-000-00","countyFips":"12019","countyName":"Clay","state":"Florida","marketIds":["Jacksonville"],"situsAddress":"8376 LILY LAKE Rd","situsCity":"Melrose","situsZip":"32666","jurisdictionCode":"Clay County","ownerName":"Sokratov Nikolay","ownerName2":null,"propertyName":null,"zoningCode":"AG","zoningDistrict":null,"jurisdictionPrefix":null,"dorCode":"0100","acreage":14.9589,"centroid":[-82.032035,29.739788],"lastSale":{"date":null,"price":null,"qualified":null},"tax":{"marketValue":null,"assessedValue":null,"taxableValue":null,"taxes":null},"mailingAddress":{"line1":"8376 Lilly Lake Rd","line2":null,"city":"Melrose","state":"FL","zip":"32666"},"incomeTract":null,"incomeBlockGroup":null,"nearestRoad":null,"flu":{"code":"AG","label":"AG","jurisdiction":"Clay County","source":"clay-flum"},"opportunityZone":null,"oz2Eligibility":null,"source":"fl-clay-parcels-lgim-12019","appraiserUrl":"https://www.ccpao.com/","dataGaps":["No sale price, sale date, or tax values on the public county parcel layers."]},"geometry":{"type":"Polygon","coordinates":[[[-82.03244,29.74025],[-82.02962,29.74027],[-82.02964,29.73886],[-82.0337,29.73887],[-82.0337,29.74024],[-82.03311,29.74024],[-82.03244,29.74025]]]}},{"type":"Feature","id":"12019:005461-000-00","properties":{"id":"12019:005461-000-00","parcelId":"005461-000-00","countyFips":"12019","countyName":"Clay","state":"Florida","marketIds":["Jacksonville"],"situsAddress":"8818 STATE ROAD 21","situsCity":"Melrose","situsZip":"32666","jurisdictionCode":"Clay County","ownerName":"Thomas James Trustee","ownerName2":null,"propertyName":null,"zoningCode":"AR","zoningDistrict":null,"jurisdictionPrefix":null,"dorCode":"0000","acreage":5.6023,"centroid":[-82.047393,29.719915],"lastSale":{"date":null,"price":null,"qualified":null},"tax":{"marketValue":null,"assessedValue":null,"taxableValue":null,"taxes":null},"mailingAddress":{"line1":"6131 W Shores Rd","line2":null,"city":"Orange Park","state":"FL","zip":"32003"},"incomeTract":null,"incomeBlockGroup":null,"nearestRoad":null,"flu":{"code":"RF","label":"RF","jurisdiction":"Clay County","source":"clay-flum"},"opportunityZone":null,"oz2Eligibility":null,"source":"fl-clay-parcels-lgim-12019","appraiserUrl":"https://www.ccpao.com/","dataGaps":["No sale price, sale date, or tax values on the public county parcel layers."]},"geometry":{"type":"Polygon","coordinates":[[[-82.04569,29.72021],[-82.04554,29.71961],[-82.04921,29.71963],[-82.04913,29.72021],[-82.04569,29.72021]]]}}]}