{"type":"FeatureCollection","name":"13059--1_27","features":[{"type":"Feature","id":"13059:331    004A","properties":{"id":"13059:331    004A","parcelId":"331    004A","countyFips":"13059","countyName":"Clarke","state":"Georgia","marketIds":["Athens"],"situsAddress":"155 DOUBLE BRIDGES RD","situsCity":null,"situsZip":null,"jurisdictionCode":null,"ownerName":"UNIVERSITY OF GEORGIA, BOARD OF REGENTS","ownerName2":null,"propertyName":null,"zoningCode":"G","zoningDistrict":null,"jurisdictionPrefix":null,"dorCode":null,"acreage":47.43,"centroid":[-83.246913,33.898098],"lastSale":{"date":null,"price":null,"qualified":null},"tax":{"marketValue":null,"assessedValue":null,"taxableValue":null,"taxes":null},"mailingAddress":{"line1":"295 DOUBLE BRIDGES RD","line2":null,"city":"WINTERVILLE","state":"GA","zip":"30683"},"incomeTract":null,"incomeBlockGroup":null,"nearestRoad":null,"flu":"Rural","opportunityZone":null,"oz2Eligibility":null,"source":"ga-clarke-acc-parcels","appraiserUrl":"https://qpublic.schneidercorp.com/Application.aspx?App=ClarkeCountyGA&Layer=Parcels&PageType=Report&KeyValue=331%20%20%20%20004A"},"geometry":{"type":"Polygon","coordinates":[[[-83.246449,33.90245],[-83.247006,33.902828],[-83.246968,33.901055],[-83.246994,33.900799],[-83.247047,33.900549],[-83.247694,33.89817],[-83.24787,33.897398],[-83.247928,33.897033],[-83.247913,33.896804],[-83.24768,33.895941],[-83.247643,33.895581],[-83.247709,33.89499],[-83.2479,33.894135],[-83.247921,33.893918],[-83.247912,33.893237],[-83.243673,33.899876],[-83.244222,33.900254],[-83.243906,33.900747],[-83.246449,33.90245]]]}},{"type":"Feature","id":"13059:331    007B","properties":{"id":"13059:331    007B","parcelId":"331    007B","countyFips":"13059","countyName":"Clarke","state":"Georgia","marketIds":["Athens"],"situsAddress":"120 WALTER SAMS RD","situsCity":null,"situsZip":null,"jurisdictionCode":null,"ownerName":"BAILEY NURSERIES INC","ownerName2":null,"propertyName":null,"zoningCode":"AR","zoningDistrict":null,"jurisdictionPrefix":null,"dorCode":null,"acreage":32.32,"centroid":[-83.24428,33.904223],"lastSale":{"date":null,"price":null,"qualified":null},"tax":{"marketValue":null,"assessedValue":null,"taxableValue":null,"taxes":null},"mailingAddress":{"line1":"1325 BAILEY ROAD","line2":null,"city":"NEWPORT","state":"MN","zip":"55055"},"incomeTract":null,"incomeBlockGroup":null,"nearestRoad":null,"flu":"Rural","opportunityZone":null,"oz2Eligibility":null,"source":"ga-clarke-acc-parcels","appraiserUrl":"https://qpublic.schneidercorp.com/Application.aspx?App=ClarkeCountyGA&Layer=Parcels&PageType=Report&KeyValue=331%20%20%20%20007B"},"geometry":{"type":"Polygon","coordinates":[[[-83.242922,33.90583],[-83.244547,33.906745],[-83.245996,33.905084],[-83.24622,33.904798],[-83.246466,33.904392],[-83.247043,33.903208],[-83.245241,33.901993],[-83.244545,33.902696],[-83.243966,33.902281],[-83.242638,33.90391],[-83.242373,33.903971],[-83.242603,33.904204],[-83.242904,33.904439],[-83.242456,33.905565],[-83.242922,33.90583]]]}},{"type":"Feature","id":"13059:331    003","properties":{"id":"13059:331    003","parcelId":"331    003","countyFips":"13059","countyName":"Clarke","state":"Georgia","marketIds":["Athens"],"situsAddress":"6575 LEXINGTON RD","situsCity":null,"situsZip":null,"jurisdictionCode":null,"ownerName":"GOULD NORMAN R & JOAN B GOULD JTROS","ownerName2":null,"propertyName":null,"zoningCode":"AR","zoningDistrict":null,"jurisdictionPrefix":null,"dorCode":null,"acreage":12.64,"centroid":[-83.243228,33.902236],"lastSale":{"date":null,"price":null,"qualified":null},"tax":{"marketValue":null,"assessedValue":null,"taxableValue":null,"taxes":null},"mailingAddress":{"line1":"6575 LEXINGTON RD","line2":null,"city":"WINTERVILLE","state":"GA","zip":"30683"},"incomeTract":null,"incomeBlockGroup":null,"nearestRoad":null,"flu":"Rural","opportunityZone":null,"oz2Eligibility":null,"source":"ga-clarke-acc-parcels","appraiserUrl":"https://qpublic.schneidercorp.com/Application.aspx?App=ClarkeCountyGA&Layer=Parcels&PageType=Report&KeyValue=331%20%20%20%20003"},"geometry":{"type":"Polygon","coordinates":[[[-83.243202,33.900626],[-83.240969,33.904293],[-83.242638,33.90391],[-83.244361,33.901773],[-83.244008,33.901524],[-83.244191,33.901291],[-83.243202,33.900626]]]}},{"type":"Feature","id":"13059:331    006A","properties":{"id":"13059:331    006A","parcelId":"331    006A","countyFips":"13059","countyName":"Clarke","state":"Georgia","marketIds":["Athens"],"situsAddress":"124 DOUBLE BRIDGES RD","situsCity":null,"situsZip":null,"jurisdictionCode":null,"ownerName":"OWEN ARTHUR D & CYNTHIA L WEST","ownerName2":null,"propertyName":null,"zoningCode":"AR","zoningDistrict":null,"jurisdictionPrefix":null,"dorCode":null,"acreage":8.12,"centroid":[-83.248221,33.90166],"lastSale":{"date":null,"price":null,"qualified":null},"tax":{"marketValue":null,"assessedValue":null,"taxableValue":null,"taxes":null},"mailingAddress":{"line1":"124 DOUBLE BRIDGES ROAD","line2":null,"city":"WINTERVILLE","state":"GA","zip":"30683"},"incomeTract":null,"incomeBlockGroup":null,"nearestRoad":null,"flu":"Rural","opportunityZone":null,"oz2Eligibility":null,"source":"ga-clarke-acc-parcels","appraiserUrl":"https://qpublic.schneidercorp.com/Application.aspx?App=ClarkeCountyGA&Layer=Parcels&PageType=Report&KeyValue=331%20%20%20%20006A"},"geometry":{"type":"Polygon","coordinates":[[[-83.247232,33.901059],[-83.247272,33.902962],[-83.248043,33.902088],[-83.248465,33.901798],[-83.249809,33.902509],[-83.250368,33.901533],[-83.247318,33.900538],[-83.247261,33.900794],[-83.247232,33.901059]]]}},{"type":"Feature","id":"13059:331    006B","properties":{"id":"13059:331    006B","parcelId":"331    006B","countyFips":"13059","countyName":"Clarke","state":"Georgia","marketIds":["Athens"],"situsAddress":"6498 LEXINGTON RD","situsCity":null,"situsZip":null,"jurisdictionCode":null,"ownerName":"LOVE JAMES DANNY & DEBRA G LOVE","ownerName2":null,"propertyName":null,"zoningCode":"AR","zoningDistrict":null,"jurisdictionPrefix":null,"dorCode":null,"acreage":8.0,"centroid":[-83.248371,33.902946],"lastSale":{"date":null,"price":null,"qualified":null},"tax":{"marketValue":null,"assessedValue":null,"taxableValue":null,"taxes":null},"mailingAddress":{"line1":"6498 LEXINGTON RD","line2":null,"city":"WINTERVILLE","state":"GA","zip":"30683"},"incomeTract":null,"incomeBlockGroup":null,"nearestRoad":null,"flu":"Rural","opportunityZone":null,"oz2Eligibility":null,"source":"ga-clarke-acc-parcels","appraiserUrl":"https://qpublic.schneidercorp.com/Application.aspx?App=ClarkeCountyGA&Layer=Parcels&PageType=Report&KeyValue=331%20%20%20%20006B"},"geometry":{"type":"Polygon","coordinates":[[[-83.248852,33.904101],[-83.248885,33.904121],[-83.249809,33.902509],[-83.248465,33.901798],[-83.248043,33.902088],[-83.247272,33.902962],[-83.247274,33.903045],[-83.248852,33.904101]]]}},{"type":"Feature","id":"13059:331    007","properties":{"id":"13059:331    007","parcelId":"331    007","countyFips":"13059","countyName":"Clarke","state":"Georgia","marketIds":["Athens"],"situsAddress":"160 WALTER SAMS RD","situsCity":null,"situsZip":null,"jurisdictionCode":null,"ownerName":"BAILEY NURSERIES INC","ownerName2":null,"propertyName":null,"zoningCode":"AR","zoningDistrict":null,"jurisdictionPrefix":null,"dorCode":null,"acreage":5.38,"centroid":[-83.242823,33.905811],"lastSale":{"date":null,"price":null,"qualified":null},"tax":{"marketValue":null,"assessedValue":null,"taxableValue":null,"taxes":null},"mailingAddress":{"line1":"1325 BAILEY ROAD","line2":null,"city":"NEWPORT","state":"MN","zip":"55055"},"incomeTract":null,"incomeBlockGroup":null,"nearestRoad":null,"flu":"Rural","opportunityZone":null,"oz2Eligibility":null,"source":"ga-clarke-acc-parcels","appraiserUrl":"https://qpublic.schneidercorp.com/Application.aspx?App=ClarkeCountyGA&Layer=Parcels&PageType=Report&KeyValue=331%20%20%20%20007"},"geometry":{"type":"Polygon","coordinates":[[[-83.242829,33.905943],[-83.244446,33.906853],[-83.244547,33.906745],[-83.242456,33.905565],[-83.242904,33.904439],[-83.242603,33.904204],[-83.242373,33.903971],[-83.240969,33.904293],[-83.242072,33.905512],[-83.242829,33.905943]]]}}]}