{"type":"FeatureCollection","name":"45087-5_29","features":[{"type":"Feature","id":"45087:171-00-00-039","properties":{"id":"45087:171-00-00-039","parcelId":"171-00-00-039","countyFips":"45087","countyName":"Union","state":"South Carolina","marketIds":["Greenville"],"situsAddress":null,"situsCity":null,"situsZip":null,"jurisdictionCode":null,"ownerName":null,"ownerName2":null,"propertyName":null,"zoningCode":null,"zoningDistrict":null,"jurisdictionPrefix":null,"dorCode":null,"acreage":22.2911,"centroid":[-81.53601,34.47697],"lastSale":{"date":null,"price":null,"qualified":null},"tax":{"marketValue":200400.0,"assessedValue":null,"taxableValue":null,"taxes":null},"mailingAddress":{"line1":null,"line2":null,"city":null,"state":null,"zip":null},"incomeTract":null,"incomeBlockGroup":null,"nearestRoad":null,"flu":null,"opportunityZone":null,"oz2Eligibility":null,"source":"sc-union-parcels-45087","appraiserUrl":"https://qpublic.schneidercorp.com/Application.aspx?AppID=861&LayerID=16112&PageTypeID=4&PageID=7170&KeyValue=171-00-00-039","gisViewerUrl":"https://qpublic.schneidercorp.com/Application.aspx?AppID=861&LayerID=16112&PageTypeID=2&PageID=7168"},"geometry":{"type":"Polygon","coordinates":[[[-81.533994,34.477174],[-81.533774,34.479094],[-81.533968,34.479109],[-81.534327,34.478925],[-81.534673,34.478663],[-81.534841,34.478454],[-81.535025,34.478037],[-81.53563,34.478144],[-81.536158,34.477898],[-81.536841,34.477441],[-81.536397,34.476782],[-81.536931,34.476437],[-81.537139,34.47633],[-81.537392,34.476242],[-81.53765,34.475372],[-81.53836,34.475061],[-81.537604,34.474169],[-81.537043,34.47433],[-81.536443,34.474766],[-81.533994,34.477174]]]}},{"type":"Feature","id":"45087:172-00-00-038","properties":{"id":"45087:172-00-00-038","parcelId":"172-00-00-038","countyFips":"45087","countyName":"Union","state":"South Carolina","marketIds":["Greenville"],"situsAddress":null,"situsCity":null,"situsZip":null,"jurisdictionCode":null,"ownerName":"POWERS THOMAS F SR & LUCY L","ownerName2":null,"propertyName":null,"zoningCode":null,"zoningDistrict":null,"jurisdictionPrefix":null,"dorCode":null,"acreage":13.1686,"centroid":[-81.502343,34.483071],"lastSale":{"date":null,"price":null,"qualified":null},"tax":{"marketValue":84000.0,"assessedValue":null,"taxableValue":null,"taxes":null},"mailingAddress":{"line1":null,"line2":null,"city":null,"state":null,"zip":null},"incomeTract":null,"incomeBlockGroup":null,"nearestRoad":null,"flu":null,"opportunityZone":null,"oz2Eligibility":null,"source":"sc-union-parcels-45087","appraiserUrl":"https://qpublic.schneidercorp.com/Application.aspx?AppID=861&LayerID=16112&PageTypeID=4&PageID=7170&KeyValue=172-00-00-038","gisViewerUrl":"https://qpublic.schneidercorp.com/Application.aspx?AppID=861&LayerID=16112&PageTypeID=2&PageID=7168"},"geometry":{"type":"Polygon","coordinates":[[[-81.501549,34.484056],[-81.501578,34.484028],[-81.501644,34.48392],[-81.501709,34.483875],[-81.501714,34.483807],[-81.5018,34.483787],[-81.501785,34.483709],[-81.501943,34.48358],[-81.501902,34.483522],[-81.501928,34.483492],[-81.502026,34.483461],[-81.502183,34.483511],[-81.502244,34.483476],[-81.502274,34.483391],[-81.502347,34.48332],[-81.502379,34.483252],[-81.502486,34.483236],[-81.502565,34.483201],[-81.502615,34.483121],[-81.50276,34.483059],[-81.502863,34.482985],[-81.503336,34.482791],[-81.503974,34.48264],[-81.50405,34.482596],[-81.504949,34.481276],[-81.503309,34.481399],[-81.502589,34.481493],[-81.502275,34.481552],[-81.501633,34.481713],[-81.501524,34.482641],[-81.500713,34.48332],[-81.501549,34.484056]]]}},{"type":"Feature","id":"45087:174-00-00-004","properties":{"id":"45087:174-00-00-004","parcelId":"174-00-00-004","countyFips":"45087","countyName":"Union","state":"South Carolina","marketIds":["Greenville"],"situsAddress":null,"situsCity":null,"situsZip":null,"jurisdictionCode":null,"ownerName":"CLARK BROTHERS FARMS LLC","ownerName2":null,"propertyName":null,"zoningCode":null,"zoningDistrict":null,"jurisdictionPrefix":null,"dorCode":null,"acreage":57.3221,"centroid":[-81.554345,34.464233],"lastSale":{"date":null,"price":null,"qualified":null},"tax":{"marketValue":84000.0,"assessedValue":null,"taxableValue":null,"taxes":null},"mailingAddress":{"line1":null,"line2":null,"city":null,"state":null,"zip":null},"incomeTract":null,"incomeBlockGroup":null,"nearestRoad":null,"flu":null,"opportunityZone":null,"oz2Eligibility":null,"source":"sc-union-parcels-45087","appraiserUrl":"https://qpublic.schneidercorp.com/Application.aspx?AppID=861&LayerID=16112&PageTypeID=4&PageID=7170&KeyValue=174-00-00-004","gisViewerUrl":"https://qpublic.schneidercorp.com/Application.aspx?AppID=861&LayerID=16112&PageTypeID=2&PageID=7168"},"geometry":{"type":"Polygon","coordinates":[[[-81.550791,34.462869],[-81.551003,34.467744],[-81.552812,34.467677],[-81.552962,34.467463],[-81.553066,34.467358],[-81.553573,34.467065],[-81.554232,34.466727],[-81.555061,34.46595],[-81.555378,34.46548],[-81.55558,34.465214],[-81.556481,34.464237],[-81.556732,34.464001],[-81.556851,34.463792],[-81.556887,34.463653],[-81.55688,34.463458],[-81.556785,34.46331],[-81.556632,34.463176],[-81.556295,34.462974],[-81.555774,34.46272],[-81.555312,34.462587],[-81.554802,34.462489],[-81.553837,34.462389],[-81.553512,34.4624],[-81.553192,34.462479],[-81.552627,34.462642],[-81.551905,34.462885],[-81.551485,34.462917],[-81.551207,34.462879],[-81.550791,34.462869]]]}},{"type":"Feature","id":"45087:174-00-00-005","properties":{"id":"45087:174-00-00-005","parcelId":"174-00-00-005","countyFips":"45087","countyName":"Union","state":"South Carolina","marketIds":["Greenville"],"situsAddress":null,"situsCity":null,"situsZip":null,"jurisdictionCode":null,"ownerName":"CLARK BROTHERS FARMS LLC","ownerName2":null,"propertyName":null,"zoningCode":null,"zoningDistrict":null,"jurisdictionPrefix":null,"dorCode":null,"acreage":96.9367,"centroid":[-81.544327,34.461952],"lastSale":{"date":null,"price":null,"qualified":null},"tax":{"marketValue":141000.0,"assessedValue":null,"taxableValue":null,"taxes":null},"mailingAddress":{"line1":null,"line2":null,"city":null,"state":null,"zip":null},"incomeTract":null,"incomeBlockGroup":null,"nearestRoad":null,"flu":null,"opportunityZone":null,"oz2Eligibility":null,"source":"sc-union-parcels-45087","appraiserUrl":"https://qpublic.schneidercorp.com/Application.aspx?AppID=861&LayerID=16112&PageTypeID=4&PageID=7170&KeyValue=174-00-00-005","gisViewerUrl":"https://qpublic.schneidercorp.com/Application.aspx?AppID=861&LayerID=16112&PageTypeID=2&PageID=7168"},"geometry":{"type":"Polygon","coordinates":[[[-81.544375,34.463702],[-81.543236,34.466246],[-81.54686,34.4665],[-81.547179,34.462832],[-81.546432,34.462479],[-81.546253,34.462353],[-81.546116,34.462228],[-81.545989,34.462094],[-81.545756,34.461739],[-81.54567,34.461461],[-81.545637,34.461231],[-81.545764,34.460609],[-81.545893,34.460218],[-81.546101,34.459987],[-81.546483,34.459863],[-81.546849,34.459803],[-81.546286,34.459507],[-81.545155,34.459295],[-81.543017,34.459324],[-81.541861,34.458824],[-81.540338,34.460502],[-81.539268,34.462231],[-81.539078,34.464654],[-81.540712,34.464769],[-81.541021,34.464837],[-81.541175,34.463473],[-81.544375,34.463702]]]}},{"type":"Feature","id":"45087:174-00-00-003","properties":{"id":"45087:174-00-00-003","parcelId":"174-00-00-003","countyFips":"45087","countyName":"Union","state":"South Carolina","marketIds":["Greenville"],"situsAddress":null,"situsCity":null,"situsZip":null,"jurisdictionCode":null,"ownerName":"KUSTER & FARLEY INV","ownerName2":null,"propertyName":null,"zoningCode":null,"zoningDistrict":null,"jurisdictionPrefix":null,"dorCode":null,"acreage":135.7421,"centroid":[-81.547489,34.45835],"lastSale":{"date":null,"price":null,"qualified":null},"tax":{"marketValue":202100.0,"assessedValue":null,"taxableValue":null,"taxes":null},"mailingAddress":{"line1":null,"line2":null,"city":null,"state":null,"zip":null},"incomeTract":null,"incomeBlockGroup":null,"nearestRoad":null,"flu":null,"opportunityZone":null,"oz2Eligibility":null,"source":"sc-union-parcels-45087","appraiserUrl":"https://qpublic.schneidercorp.com/Application.aspx?AppID=861&LayerID=16112&PageTypeID=4&PageID=7170&KeyValue=174-00-00-003","gisViewerUrl":"https://qpublic.schneidercorp.com/Application.aspx?AppID=861&LayerID=16112&PageTypeID=2&PageID=7168"},"geometry":{"type":"Polygon","coordinates":[[[-81.53218,34.46663],[-81.538908,34.465595],[-81.539078,34.464654],[-81.539268,34.462231],[-81.540338,34.460502],[-81.541861,34.458824],[-81.543017,34.459324],[-81.545155,34.459295],[-81.546286,34.459507],[-81.546849,34.459803],[-81.547395,34.459772],[-81.547589,34.459785],[-81.547774,34.459901],[-81.547948,34.460083],[-81.548033,34.460204],[-81.548075,34.460339],[-81.548057,34.460782],[-81.548157,34.460868],[-81.548336,34.460893],[-81.548483,34.460854],[-81.548597,34.460753],[-81.548706,34.460527],[-81.548741,34.460231],[-81.548724,34.460027],[-81.548618,34.459526],[-81.548636,34.459294],[-81.548704,34.458998],[-81.54883,34.458744],[-81.54902,34.458564],[-81.549274,34.45842],[-81.549674,34.458302],[-81.549974,34.458317],[-81.550624,34.458446],[-81.550708,34.458556],[-81.550804,34.458635],[-81.550944,34.458634],[-81.551052,34.45855],[-81.551115,34.458407],[-81.551182,34.458085],[-81.551757,34.457683],[-81.551934,34.457635],[-81.552077,34.457563],[-81.552133,34.457488],[-81.552123,34.457373],[-81.552085,34.457283],[-81.551922,34.456988],[-81.55141,34.456414],[-81.551293,34.456223],[-81.551165,34.455824],[-81.551014,34.454444],[-81.550993,34.454023],[-81.551008,34.453601],[-81.55105,34.453143],[-81.55103,34.452781],[-81.550975,34.452597],[-81.550876,34.452368],[-81.550741,34.452184],[-81.550624,34.452089],[-81.550293,34.451913],[-81.5499,34.451819],[-81.549154,34.451556],[-81.550319,34.456909],[-81.545135,34.458494],[-81.541534,34.458517],[-81.540371,34.459167],[-81.53581,34.461836],[-81.534945,34.462741],[-81.533802,34.461907],[-81.532564,34.462729],[-81.53218,34.46663]]]}},{"type":"Feature","id":"45087:174-00-00-002","properties":{"id":"45087:174-00-00-002","parcelId":"174-00-00-002","countyFips":"45087","countyName":"Union","state":"South Carolina","marketIds":["Greenville"],"situsAddress":null,"situsCity":null,"situsZip":null,"jurisdictionCode":null,"ownerName":"HAWAII ERS TIMBERLAND LLC","ownerName2":null,"propertyName":null,"zoningCode":null,"zoningDistrict":null,"jurisdictionPrefix":null,"dorCode":null,"acreage":112.3945,"centroid":[-81.5419,34.458132],"lastSale":{"date":null,"price":null,"qualified":null},"tax":{"marketValue":162000.0,"assessedValue":null,"taxableValue":null,"taxes":null},"mailingAddress":{"line1":null,"line2":null,"city":null,"state":null,"zip":null},"incomeTract":null,"incomeBlockGroup":null,"nearestRoad":null,"flu":null,"opportunityZone":null,"oz2Eligibility":null,"source":"sc-union-parcels-45087","appraiserUrl":"https://qpublic.schneidercorp.com/Application.aspx?AppID=861&LayerID=16112&PageTypeID=4&PageID=7170&KeyValue=174-00-00-002","gisViewerUrl":"https://qpublic.schneidercorp.com/Application.aspx?AppID=861&LayerID=16112&PageTypeID=2&PageID=7168"},"geometry":{"type":"Polygon","coordinates":[[[-81.547522,34.452669],[-81.540412,34.457521],[-81.533802,34.461907],[-81.534945,34.462741],[-81.53581,34.461836],[-81.540371,34.459167],[-81.541534,34.458517],[-81.545135,34.458494],[-81.550319,34.456909],[-81.549154,34.451556],[-81.547522,34.452669]]]}},{"type":"Feature","id":"45087:171-00-00-030","properties":{"id":"45087:171-00-00-030","parcelId":"171-00-00-030","countyFips":"45087","countyName":"Union","state":"South Carolina","marketIds":["Greenville"],"situsAddress":null,"situsCity":null,"situsZip":null,"jurisdictionCode":null,"ownerName":"JARVIS JANICE K","ownerName2":null,"propertyName":null,"zoningCode":null,"zoningDistrict":null,"jurisdictionPrefix":null,"dorCode":null,"acreage":71.3239,"centroid":[-81.537281,34.478066],"lastSale":{"date":null,"price":null,"qualified":null},"tax":{"marketValue":127500.0,"assessedValue":null,"taxableValue":null,"taxes":null},"mailingAddress":{"line1":null,"line2":null,"city":null,"state":null,"zip":null},"incomeTract":null,"incomeBlockGroup":null,"nearestRoad":null,"flu":null,"opportunityZone":null,"oz2Eligibility":null,"source":"sc-union-parcels-45087","appraiserUrl":"https://qpublic.schneidercorp.com/Application.aspx?AppID=861&LayerID=16112&PageTypeID=4&PageID=7170&KeyValue=171-00-00-030","gisViewerUrl":"https://qpublic.schneidercorp.com/Application.aspx?AppID=861&LayerID=16112&PageTypeID=2&PageID=7168"},"geometry":{"type":"Polygon","coordinates":[[[-81.533356,34.480191],[-81.537822,34.479095],[-81.540491,34.480163],[-81.541636,34.479605],[-81.543546,34.478332],[-81.54374,34.476875],[-81.539106,34.475942],[-81.538326,34.476285],[-81.537615,34.476873],[-81.536841,34.477441],[-81.536158,34.477898],[-81.53563,34.478144],[-81.535025,34.478037],[-81.534841,34.478454],[-81.534723,34.478616],[-81.534327,34.478925],[-81.533968,34.479109],[-81.533774,34.479094],[-81.533994,34.477174],[-81.53089,34.476782],[-81.530822,34.47714],[-81.531293,34.477795],[-81.531931,34.477182],[-81.532012,34.477252],[-81.532425,34.478365],[-81.532823,34.478376],[-81.532784,34.478757],[-81.533473,34.478791],[-81.533356,34.480191]]]}},{"type":"Feature","id":"45087:172-00-00-001","properties":{"id":"45087:172-00-00-001","parcelId":"172-00-00-001","countyFips":"45087","countyName":"Union","state":"South Carolina","marketIds":["Greenville"],"situsAddress":null,"situsCity":null,"situsZip":null,"jurisdictionCode":null,"ownerName":"GIBSON MARVIN WATSON SR","ownerName2":null,"propertyName":null,"zoningCode":null,"zoningDistrict":null,"jurisdictionPrefix":null,"dorCode":null,"acreage":96.4318,"centroid":[-81.504079,34.480342],"lastSale":{"date":null,"price":null,"qualified":null},"tax":{"marketValue":142500.0,"assessedValue":null,"taxableValue":null,"taxes":null},"mailingAddress":{"line1":null,"line2":null,"city":null,"state":null,"zip":null},"incomeTract":null,"incomeBlockGroup":null,"nearestRoad":null,"flu":null,"opportunityZone":null,"oz2Eligibility":null,"source":"sc-union-parcels-45087","appraiserUrl":"https://qpublic.schneidercorp.com/Application.aspx?AppID=861&LayerID=16112&PageTypeID=4&PageID=7170&KeyValue=172-00-00-001","gisViewerUrl":"https://qpublic.schneidercorp.com/Application.aspx?AppID=861&LayerID=16112&PageTypeID=2&PageID=7168"},"geometry":{"type":"Polygon","coordinates":[[[-81.499057,34.481822],[-81.499799,34.481906],[-81.500687,34.481829],[-81.502242,34.481451],[-81.503293,34.481296],[-81.505169,34.481159],[-81.50666,34.481156],[-81.507986,34.481236],[-81.506953,34.479509],[-81.513669,34.475923],[-81.505388,34.477093],[-81.498044,34.479725],[-81.499057,34.481822]]]}},{"type":"Feature","id":"45087:172-00-00-003","properties":{"id":"45087:172-00-00-003","parcelId":"172-00-00-003","countyFips":"45087","countyName":"Union","state":"South Carolina","marketIds":["Greenville"],"situsAddress":null,"situsCity":null,"situsZip":null,"jurisdictionCode":null,"ownerName":"WATEREE HOLDINGS LLC","ownerName2":null,"propertyName":null,"zoningCode":null,"zoningDistrict":null,"jurisdictionPrefix":null,"dorCode":null,"acreage":144.8015,"centroid":[-81.529026,34.486142],"lastSale":{"date":null,"price":null,"qualified":null},"tax":{"marketValue":216000.0,"assessedValue":null,"taxableValue":null,"taxes":null},"mailingAddress":{"line1":null,"line2":null,"city":null,"state":null,"zip":null},"incomeTract":null,"incomeBlockGroup":null,"nearestRoad":null,"flu":null,"opportunityZone":null,"oz2Eligibility":null,"source":"sc-union-parcels-45087","appraiserUrl":"https://qpublic.schneidercorp.com/Application.aspx?AppID=861&LayerID=16112&PageTypeID=4&PageID=7170&KeyValue=172-00-00-003","gisViewerUrl":"https://qpublic.schneidercorp.com/Application.aspx?AppID=861&LayerID=16112&PageTypeID=2&PageID=7168"},"geometry":{"type":"Polygon","coordinates":[[[-81.521959,34.490584],[-81.52473,34.490517],[-81.528784,34.48879],[-81.530572,34.489364],[-81.532978,34.48869],[-81.532859,34.488084],[-81.531955,34.486553],[-81.531802,34.48595],[-81.531794,34.485759],[-81.531857,34.484837],[-81.531831,34.484684],[-81.530208,34.484957],[-81.529596,34.483098],[-81.529015,34.482517],[-81.528865,34.481436],[-81.527011,34.482457],[-81.526351,34.484821],[-81.520297,34.487456],[-81.521959,34.490584]]]}},{"type":"Feature","id":"45087:172-00-00-005","properties":{"id":"45087:172-00-00-005","parcelId":"172-00-00-005","countyFips":"45087","countyName":"Union","state":"South Carolina","marketIds":["Greenville"],"situsAddress":null,"situsCity":null,"situsZip":null,"jurisdictionCode":null,"ownerName":"MEANS B F (EST)","ownerName2":null,"propertyName":null,"zoningCode":null,"zoningDistrict":null,"jurisdictionPrefix":null,"dorCode":null,"acreage":8.7993,"centroid":[-81.530956,34.48377],"lastSale":{"date":null,"price":null,"qualified":null},"tax":{"marketValue":12800.0,"assessedValue":null,"taxableValue":null,"taxes":null},"mailingAddress":{"line1":null,"line2":null,"city":null,"state":null,"zip":null},"incomeTract":null,"incomeBlockGroup":null,"nearestRoad":null,"flu":null,"opportunityZone":null,"oz2Eligibility":null,"source":"sc-union-parcels-45087","appraiserUrl":"https://qpublic.schneidercorp.com/Application.aspx?AppID=861&LayerID=16112&PageTypeID=4&PageID=7170&KeyValue=172-00-00-005","gisViewerUrl":"https://qpublic.schneidercorp.com/Application.aspx?AppID=861&LayerID=16112&PageTypeID=2&PageID=7168"},"geometry":{"type":"Polygon","coordinates":[[[-81.529596,34.483098],[-81.530208,34.484957],[-81.531831,34.484684],[-81.531663,34.483303],[-81.531482,34.482806],[-81.529596,34.483098]]]}},{"type":"Feature","id":"45087:172-00-00-007","properties":{"id":"45087:172-00-00-007","parcelId":"172-00-00-007","countyFips":"45087","countyName":"Union","state":"South Carolina","marketIds":["Greenville"],"situsAddress":null,"situsCity":null,"situsZip":null,"jurisdictionCode":null,"ownerName":"PERRIN BRENDA","ownerName2":null,"propertyName":null,"zoningCode":null,"zoningDistrict":null,"jurisdictionPrefix":null,"dorCode":null,"acreage":5.2956,"centroid":[-81.530085,34.482106],"lastSale":{"date":null,"price":null,"qualified":null},"tax":{"marketValue":12100.0,"assessedValue":null,"taxableValue":null,"taxes":null},"mailingAddress":{"line1":null,"line2":null,"city":null,"state":null,"zip":null},"incomeTract":null,"incomeBlockGroup":null,"nearestRoad":null,"flu":null,"opportunityZone":null,"oz2Eligibility":null,"source":"sc-union-parcels-45087","appraiserUrl":"https://qpublic.schneidercorp.com/Application.aspx?AppID=861&LayerID=16112&PageTypeID=4&PageID=7170&KeyValue=172-00-00-007","gisViewerUrl":"https://qpublic.schneidercorp.com/Application.aspx?AppID=861&LayerID=16112&PageTypeID=2&PageID=7168"},"geometry":{"type":"Polygon","coordinates":[[[-81.52934,34.481588],[-81.529007,34.481357],[-81.528865,34.481436],[-81.529015,34.482517],[-81.529596,34.483098],[-81.530719,34.482924],[-81.530604,34.482276],[-81.53136,34.482178],[-81.531276,34.481714],[-81.530963,34.481932],[-81.530191,34.48215],[-81.52934,34.481588]]]}},{"type":"Feature","id":"45087:171-00-00-010","properties":{"id":"45087:171-00-00-010","parcelId":"171-00-00-010","countyFips":"45087","countyName":"Union","state":"South Carolina","marketIds":["Greenville"],"situsAddress":null,"situsCity":null,"situsZip":null,"jurisdictionCode":null,"ownerName":"HUNTER IRMA J","ownerName2":null,"propertyName":null,"zoningCode":null,"zoningDistrict":null,"jurisdictionPrefix":null,"dorCode":null,"acreage":40.8168,"centroid":[-81.549167,34.469272],"lastSale":{"date":null,"price":null,"qualified":null},"tax":{"marketValue":70500.0,"assessedValue":null,"taxableValue":null,"taxes":null},"mailingAddress":{"line1":null,"line2":null,"city":null,"state":null,"zip":null},"incomeTract":null,"incomeBlockGroup":null,"nearestRoad":null,"flu":null,"opportunityZone":null,"oz2Eligibility":null,"source":"sc-union-parcels-45087","appraiserUrl":"https://qpublic.schneidercorp.com/Application.aspx?AppID=861&LayerID=16112&PageTypeID=4&PageID=7170&KeyValue=171-00-00-010","gisViewerUrl":"https://qpublic.schneidercorp.com/Application.aspx?AppID=861&LayerID=16112&PageTypeID=2&PageID=7168"},"geometry":{"type":"Polygon","coordinates":[[[-81.541546,34.470095],[-81.541524,34.470331],[-81.550902,34.470345],[-81.551454,34.470375],[-81.551485,34.470108],[-81.551583,34.469767],[-81.551847,34.46924],[-81.552429,34.468188],[-81.552812,34.467677],[-81.551003,34.467744],[-81.546781,34.467772],[-81.546637,34.469619],[-81.541546,34.470095]]]}},{"type":"Feature","id":"45087:171-00-00-009","properties":{"id":"45087:171-00-00-009","parcelId":"171-00-00-009","countyFips":"45087","countyName":"Union","state":"South Carolina","marketIds":["Greenville"],"situsAddress":null,"situsCity":null,"situsZip":null,"jurisdictionCode":null,"ownerName":"HUNTER JOE KENNETH","ownerName2":null,"propertyName":null,"zoningCode":null,"zoningDistrict":null,"jurisdictionPrefix":null,"dorCode":null,"acreage":86.7683,"centroid":[-81.546274,34.466464],"lastSale":{"date":null,"price":null,"qualified":null},"tax":{"marketValue":180600.0,"assessedValue":null,"taxableValue":null,"taxes":null},"mailingAddress":{"line1":null,"line2":null,"city":null,"state":null,"zip":null},"incomeTract":null,"incomeBlockGroup":null,"nearestRoad":null,"flu":null,"opportunityZone":null,"oz2Eligibility":null,"source":"sc-union-parcels-45087","appraiserUrl":"https://qpublic.schneidercorp.com/Application.aspx?AppID=861&LayerID=16112&PageTypeID=4&PageID=7170&KeyValue=171-00-00-009","gisViewerUrl":"https://qpublic.schneidercorp.com/Application.aspx?AppID=861&LayerID=16112&PageTypeID=2&PageID=7168"},"geometry":{"type":"Polygon","coordinates":[[[-81.541826,34.468877],[-81.541609,34.469083],[-81.541546,34.470095],[-81.546637,34.469619],[-81.546781,34.467772],[-81.551003,34.467744],[-81.550791,34.462869],[-81.549665,34.462958],[-81.54827,34.462981],[-81.547834,34.462957],[-81.547179,34.462832],[-81.54686,34.4665],[-81.543236,34.466246],[-81.542131,34.468588],[-81.541826,34.468877]]]}},{"type":"Feature","id":"45087:171-00-00-021","properties":{"id":"45087:171-00-00-021","parcelId":"171-00-00-021","countyFips":"45087","countyName":"Union","state":"South Carolina","marketIds":["Greenville"],"situsAddress":null,"situsCity":null,"situsZip":null,"jurisdictionCode":null,"ownerName":"HARRIS GERALDINE","ownerName2":null,"propertyName":null,"zoningCode":null,"zoningDistrict":null,"jurisdictionPrefix":null,"dorCode":null,"acreage":15.1606,"centroid":[-81.538359,34.468619],"lastSale":{"date":null,"price":null,"qualified":null},"tax":{"marketValue":52300.0,"assessedValue":null,"taxableValue":null,"taxes":null},"mailingAddress":{"line1":null,"line2":null,"city":null,"state":null,"zip":null},"incomeTract":null,"incomeBlockGroup":null,"nearestRoad":null,"flu":null,"opportunityZone":null,"oz2Eligibility":null,"source":"sc-union-parcels-45087","appraiserUrl":"https://qpublic.schneidercorp.com/Application.aspx?AppID=861&LayerID=16112&PageTypeID=4&PageID=7170&KeyValue=171-00-00-021","gisViewerUrl":"https://qpublic.schneidercorp.com/Application.aspx?AppID=861&LayerID=16112&PageTypeID=2&PageID=7168"},"geometry":{"type":"MultiPolygon","coordinates":[[[[-81.537088,34.469486],[-81.53709,34.469485],[-81.537612,34.469393],[-81.538075,34.469339],[-81.539027,34.469335],[-81.53919,34.468441],[-81.539047,34.468417],[-81.539326,34.467314],[-81.538604,34.46729],[-81.538531,34.467693],[-81.537088,34.469486]]],[[[-81.538908,34.465595],[-81.538835,34.466002],[-81.540608,34.466015],[-81.540712,34.464769],[-81.539078,34.464654],[-81.538908,34.465595]]],[[[-81.540529,34.468363],[-81.540184,34.468913],[-81.54085,34.469129],[-81.54177,34.467311],[-81.540955,34.467145],[-81.540529,34.468363]]]]}},{"type":"Feature","id":"45087:171-00-00-005","properties":{"id":"45087:171-00-00-005","parcelId":"171-00-00-005","countyFips":"45087","countyName":"Union","state":"South Carolina","marketIds":["Greenville"],"situsAddress":null,"situsCity":null,"situsZip":null,"jurisdictionCode":null,"ownerName":"CLARK MINERVA H (LE) ETAL","ownerName2":null,"propertyName":null,"zoningCode":null,"zoningDistrict":null,"jurisdictionPrefix":null,"dorCode":null,"acreage":27.4863,"centroid":[-81.542698,34.465989],"lastSale":{"date":null,"price":null,"qualified":null},"tax":{"marketValue":113500.0,"assessedValue":null,"taxableValue":null,"taxes":null},"mailingAddress":{"line1":null,"line2":null,"city":null,"state":null,"zip":null},"incomeTract":null,"incomeBlockGroup":null,"nearestRoad":null,"flu":null,"opportunityZone":null,"oz2Eligibility":null,"source":"sc-union-parcels-45087","appraiserUrl":"https://qpublic.schneidercorp.com/Application.aspx?AppID=861&LayerID=16112&PageTypeID=4&PageID=7170&KeyValue=171-00-00-005","gisViewerUrl":"https://qpublic.schneidercorp.com/Application.aspx?AppID=861&LayerID=16112&PageTypeID=2&PageID=7168"},"geometry":{"type":"MultiPolygon","coordinates":[[[[-81.541021,34.464837],[-81.541936,34.464974],[-81.542936,34.465031],[-81.541289,34.468268],[-81.542165,34.468506],[-81.543236,34.466246],[-81.544375,34.463702],[-81.541175,34.463473],[-81.541021,34.464837]]],[[[-81.537649,34.472215],[-81.539652,34.471852],[-81.540429,34.470846],[-81.540847,34.470253],[-81.540686,34.469921],[-81.540588,34.469841],[-81.540536,34.46976],[-81.54047,34.469704],[-81.54034,34.46963],[-81.540272,34.469611],[-81.539722,34.469572],[-81.539557,34.470705],[-81.53852,34.470601],[-81.538503,34.470713],[-81.538659,34.470725],[-81.538605,34.471303],[-81.53904,34.47139],[-81.538842,34.471742],[-81.537816,34.471643],[-81.537904,34.471492],[-81.537998,34.471419],[-81.538125,34.471362],[-81.538226,34.471251],[-81.538225,34.471226],[-81.538129,34.471209],[-81.537521,34.470925],[-81.537649,34.472215]]]]}},{"type":"Feature","id":"45087:171-00-00-013","properties":{"id":"45087:171-00-00-013","parcelId":"171-00-00-013","countyFips":"45087","countyName":"Union","state":"South Carolina","marketIds":["Greenville"],"situsAddress":null,"situsCity":null,"situsZip":null,"jurisdictionCode":null,"ownerName":"HUNTER LEO WILFORD","ownerName2":null,"propertyName":null,"zoningCode":null,"zoningDistrict":null,"jurisdictionPrefix":null,"dorCode":null,"acreage":6.3865,"centroid":[-81.5419,34.466116],"lastSale":{"date":null,"price":null,"qualified":null},"tax":{"marketValue":16000.0,"assessedValue":null,"taxableValue":null,"taxes":null},"mailingAddress":{"line1":null,"line2":null,"city":null,"state":null,"zip":null},"incomeTract":null,"incomeBlockGroup":null,"nearestRoad":null,"flu":null,"opportunityZone":null,"oz2Eligibility":null,"source":"sc-union-parcels-45087","appraiserUrl":"https://qpublic.schneidercorp.com/Application.aspx?AppID=861&LayerID=16112&PageTypeID=4&PageID=7170&KeyValue=171-00-00-013","gisViewerUrl":"https://qpublic.schneidercorp.com/Application.aspx?AppID=861&LayerID=16112&PageTypeID=2&PageID=7168"},"geometry":{"type":"MultiPolygon","coordinates":[[[[-81.540955,34.467145],[-81.54177,34.467311],[-81.542936,34.465031],[-81.541938,34.464975],[-81.540955,34.467145]]],[[[-81.539862,34.469425],[-81.540301,34.469503],[-81.540514,34.469585],[-81.540606,34.469662],[-81.540605,34.469631],[-81.54085,34.469129],[-81.540184,34.468913],[-81.539862,34.469425]]]]}},{"type":"Feature","id":"45087:171-00-00-008","properties":{"id":"45087:171-00-00-008","parcelId":"171-00-00-008","countyFips":"45087","countyName":"Union","state":"South Carolina","marketIds":["Greenville"],"situsAddress":null,"situsCity":null,"situsZip":null,"jurisdictionCode":null,"ownerName":"HUNTER JAMES WILLIAM EST","ownerName2":null,"propertyName":null,"zoningCode":null,"zoningDistrict":null,"jurisdictionPrefix":null,"dorCode":null,"acreage":11.2894,"centroid":[-81.540071,34.467208],"lastSale":{"date":null,"price":null,"qualified":null},"tax":{"marketValue":16000.0,"assessedValue":null,"taxableValue":null,"taxes":null},"mailingAddress":{"line1":null,"line2":null,"city":null,"state":null,"zip":null},"incomeTract":null,"incomeBlockGroup":null,"nearestRoad":null,"flu":null,"opportunityZone":null,"oz2Eligibility":null,"source":"sc-union-parcels-45087","appraiserUrl":"https://qpublic.schneidercorp.com/Application.aspx?AppID=861&LayerID=16112&PageTypeID=4&PageID=7170&KeyValue=171-00-00-008","gisViewerUrl":"https://qpublic.schneidercorp.com/Application.aspx?AppID=861&LayerID=16112&PageTypeID=2&PageID=7168"},"geometry":{"type":"Polygon","coordinates":[[[-81.540529,34.468363],[-81.540955,34.467145],[-81.541938,34.464975],[-81.541021,34.464837],[-81.540712,34.464769],[-81.540608,34.466015],[-81.540208,34.466017],[-81.539975,34.467335],[-81.539326,34.467314],[-81.539047,34.468417],[-81.53919,34.468441],[-81.539027,34.469335],[-81.539205,34.469354],[-81.539258,34.468601],[-81.540529,34.468363]]]}},{"type":"Feature","id":"45087:171-00-00-001","properties":{"id":"45087:171-00-00-001","parcelId":"171-00-00-001","countyFips":"45087","countyName":"Union","state":"South Carolina","marketIds":["Greenville"],"situsAddress":null,"situsCity":null,"situsZip":null,"jurisdictionCode":null,"ownerName":"HUDNALL MICHAEL A","ownerName2":null,"propertyName":null,"zoningCode":null,"zoningDistrict":null,"jurisdictionPrefix":null,"dorCode":null,"acreage":145.1298,"centroid":[-81.557669,34.481855],"lastSale":{"date":null,"price":null,"qualified":null},"tax":{"marketValue":264900.0,"assessedValue":null,"taxableValue":null,"taxes":null},"mailingAddress":{"line1":null,"line2":null,"city":null,"state":null,"zip":null},"incomeTract":null,"incomeBlockGroup":null,"nearestRoad":null,"flu":null,"opportunityZone":null,"oz2Eligibility":null,"source":"sc-union-parcels-45087","appraiserUrl":"https://qpublic.schneidercorp.com/Application.aspx?AppID=861&LayerID=16112&PageTypeID=4&PageID=7170&KeyValue=171-00-00-001","gisViewerUrl":"https://qpublic.schneidercorp.com/Application.aspx?AppID=861&LayerID=16112&PageTypeID=2&PageID=7168"},"geometry":{"type":"Polygon","coordinates":[[[-81.549443,34.487129],[-81.552912,34.48606],[-81.557121,34.48476],[-81.560891,34.486506],[-81.563546,34.483239],[-81.563286,34.482863],[-81.563135,34.482703],[-81.562795,34.482438],[-81.562353,34.482231],[-81.561858,34.482087],[-81.561492,34.481946],[-81.561164,34.481783],[-81.560889,34.481611],[-81.560765,34.481505],[-81.560353,34.480995],[-81.560003,34.480824],[-81.559083,34.480468],[-81.558874,34.480361],[-81.558557,34.480101],[-81.558174,34.479866],[-81.557569,34.479228],[-81.557281,34.479016],[-81.557061,34.478891],[-81.55683,34.478726],[-81.556524,34.478585],[-81.555167,34.47823],[-81.555004,34.478441],[-81.554732,34.479864],[-81.553805,34.481205],[-81.553352,34.483262],[-81.550364,34.485009],[-81.550167,34.485991],[-81.548538,34.485296],[-81.549443,34.487129]]]}},{"type":"Feature","id":"45087:171-00-00-003","properties":{"id":"45087:171-00-00-003","parcelId":"171-00-00-003","countyFips":"45087","countyName":"Union","state":"South Carolina","marketIds":["Greenville"],"situsAddress":null,"situsCity":null,"situsZip":null,"jurisdictionCode":null,"ownerName":"US FOREST SERVICE","ownerName2":null,"propertyName":null,"zoningCode":null,"zoningDistrict":null,"jurisdictionPrefix":null,"dorCode":null,"acreage":82.5914,"centroid":[-81.545638,34.475623],"lastSale":{"date":null,"price":null,"qualified":null},"tax":{"marketValue":null,"assessedValue":null,"taxableValue":null,"taxes":null},"mailingAddress":{"line1":null,"line2":null,"city":null,"state":null,"zip":null},"incomeTract":null,"incomeBlockGroup":null,"nearestRoad":null,"flu":null,"opportunityZone":null,"oz2Eligibility":null,"source":"sc-union-parcels-45087","appraiserUrl":"https://qpublic.schneidercorp.com/Application.aspx?AppID=861&LayerID=16112&PageTypeID=4&PageID=7170&KeyValue=171-00-00-003","gisViewerUrl":"https://qpublic.schneidercorp.com/Application.aspx?AppID=861&LayerID=16112&PageTypeID=2&PageID=7168"},"geometry":{"type":"Polygon","coordinates":[[[-81.54374,34.476875],[-81.544579,34.477012],[-81.546482,34.476462],[-81.548552,34.478375],[-81.549074,34.47828],[-81.54923,34.478218],[-81.549671,34.478118],[-81.550198,34.477874],[-81.550268,34.477779],[-81.550276,34.477708],[-81.550254,34.47752],[-81.550266,34.477429],[-81.5503,34.477344],[-81.550701,34.47678],[-81.550815,34.476709],[-81.550953,34.476586],[-81.55114,34.476322],[-81.551193,34.476275],[-81.551319,34.476231],[-81.551396,34.476225],[-81.551594,34.476276],[-81.551931,34.476147],[-81.545443,34.473669],[-81.545008,34.473976],[-81.544601,34.474202],[-81.544337,34.474329],[-81.543964,34.474449],[-81.543806,34.474445],[-81.543418,34.474394],[-81.543285,34.474358],[-81.542812,34.474173],[-81.542111,34.473862],[-81.541535,34.473678],[-81.541127,34.473643],[-81.540448,34.473633],[-81.540193,34.473675],[-81.539894,34.473795],[-81.539649,34.473946],[-81.539487,34.474012],[-81.539252,34.474091],[-81.538707,34.474191],[-81.538358,34.474225],[-81.537604,34.474169],[-81.539106,34.475942],[-81.54374,34.476875]]]}},{"type":"Feature","id":"45087:171-00-00-031","properties":{"id":"45087:171-00-00-031","parcelId":"171-00-00-031","countyFips":"45087","countyName":"Union","state":"South Carolina","marketIds":["Greenville"],"situsAddress":null,"situsCity":null,"situsZip":null,"jurisdictionCode":null,"ownerName":"WEAKLAND RUSSELL E","ownerName2":null,"propertyName":null,"zoningCode":null,"zoningDistrict":null,"jurisdictionPrefix":null,"dorCode":null,"acreage":81.8818,"centroid":[-81.550271,34.477851],"lastSale":{"date":null,"price":null,"qualified":null},"tax":{"marketValue":487300.0,"assessedValue":null,"taxableValue":null,"taxes":null},"mailingAddress":{"line1":null,"line2":null,"city":null,"state":null,"zip":null},"incomeTract":null,"incomeBlockGroup":null,"nearestRoad":null,"flu":null,"opportunityZone":null,"oz2Eligibility":null,"source":"sc-union-parcels-45087","appraiserUrl":"https://qpublic.schneidercorp.com/Application.aspx?AppID=861&LayerID=16112&PageTypeID=4&PageID=7170&KeyValue=171-00-00-031","gisViewerUrl":"https://qpublic.schneidercorp.com/Application.aspx?AppID=861&LayerID=16112&PageTypeID=2&PageID=7168"},"geometry":{"type":"Polygon","coordinates":[[[-81.543546,34.478332],[-81.54476,34.480288],[-81.545146,34.481405],[-81.546359,34.481115],[-81.549289,34.480567],[-81.550766,34.479969],[-81.551312,34.479731],[-81.551598,34.47926],[-81.553103,34.479871],[-81.553434,34.479723],[-81.554157,34.47891],[-81.554783,34.478098],[-81.553614,34.477698],[-81.55319,34.477461],[-81.552821,34.477223],[-81.552619,34.476929],[-81.55236,34.476405],[-81.552275,34.476177],[-81.552029,34.47619],[-81.551931,34.476147],[-81.551594,34.476276],[-81.551396,34.476225],[-81.551319,34.476231],[-81.551193,34.476275],[-81.55114,34.476322],[-81.550953,34.476586],[-81.550815,34.476709],[-81.550701,34.47678],[-81.5503,34.477344],[-81.550266,34.477429],[-81.550254,34.47752],[-81.550276,34.477708],[-81.550268,34.477779],[-81.550198,34.477874],[-81.549671,34.478118],[-81.54923,34.478218],[-81.549074,34.47828],[-81.548552,34.478375],[-81.546482,34.476462],[-81.544579,34.477012],[-81.54374,34.476875],[-81.543546,34.478332]]]}},{"type":"Feature","id":"45087:171-00-00-029","properties":{"id":"45087:171-00-00-029","parcelId":"171-00-00-029","countyFips":"45087","countyName":"Union","state":"South Carolina","marketIds":["Greenville"],"situsAddress":null,"situsCity":null,"situsZip":null,"jurisdictionCode":null,"ownerName":"JARVIS JOSEPHINE A (LE)","ownerName2":null,"propertyName":null,"zoningCode":null,"zoningDistrict":null,"jurisdictionPrefix":null,"dorCode":null,"acreage":23.0244,"centroid":[-81.542725,34.480608],"lastSale":{"date":null,"price":null,"qualified":null},"tax":{"marketValue":38400.0,"assessedValue":null,"taxableValue":null,"taxes":null},"mailingAddress":{"line1":null,"line2":null,"city":null,"state":null,"zip":null},"incomeTract":null,"incomeBlockGroup":null,"nearestRoad":null,"flu":null,"opportunityZone":null,"oz2Eligibility":null,"source":"sc-union-parcels-45087","appraiserUrl":"https://qpublic.schneidercorp.com/Application.aspx?AppID=861&LayerID=16112&PageTypeID=4&PageID=7170&KeyValue=171-00-00-029","gisViewerUrl":"https://qpublic.schneidercorp.com/Application.aspx?AppID=861&LayerID=16112&PageTypeID=2&PageID=7168"},"geometry":{"type":"Polygon","coordinates":[[[-81.543546,34.478332],[-81.541636,34.479605],[-81.540491,34.480163],[-81.540726,34.480252],[-81.542088,34.481571],[-81.542812,34.482011],[-81.543321,34.481842],[-81.545146,34.481405],[-81.54476,34.480288],[-81.543546,34.478332]]]}},{"type":"Feature","id":"45087:171-00-00-032","properties":{"id":"45087:171-00-00-032","parcelId":"171-00-00-032","countyFips":"45087","countyName":"Union","state":"South Carolina","marketIds":["Greenville"],"situsAddress":null,"situsCity":null,"situsZip":null,"jurisdictionCode":null,"ownerName":"RAST ERIC T","ownerName2":null,"propertyName":null,"zoningCode":null,"zoningDistrict":null,"jurisdictionPrefix":null,"dorCode":null,"acreage":6.0168,"centroid":[-81.537576,34.476276],"lastSale":{"date":null,"price":null,"qualified":null},"tax":{"marketValue":12700.0,"assessedValue":null,"taxableValue":null,"taxes":null},"mailingAddress":{"line1":null,"line2":null,"city":null,"state":null,"zip":null},"incomeTract":null,"incomeBlockGroup":null,"nearestRoad":null,"flu":null,"opportunityZone":null,"oz2Eligibility":null,"source":"sc-union-parcels-45087","appraiserUrl":"https://qpublic.schneidercorp.com/Application.aspx?AppID=861&LayerID=16112&PageTypeID=4&PageID=7170&KeyValue=171-00-00-032","gisViewerUrl":"https://qpublic.schneidercorp.com/Application.aspx?AppID=861&LayerID=16112&PageTypeID=2&PageID=7168"},"geometry":{"type":"Polygon","coordinates":[[[-81.53765,34.475372],[-81.537392,34.476242],[-81.537139,34.47633],[-81.536931,34.476437],[-81.536397,34.476782],[-81.536841,34.477441],[-81.537615,34.476873],[-81.538326,34.476285],[-81.539106,34.475942],[-81.53836,34.475061],[-81.53765,34.475372]]]}},{"type":"Feature","id":"45087:171-00-00-014","properties":{"id":"45087:171-00-00-014","parcelId":"171-00-00-014","countyFips":"45087","countyName":"Union","state":"South Carolina","marketIds":["Greenville"],"situsAddress":null,"situsCity":null,"situsZip":null,"jurisdictionCode":null,"ownerName":"TUCKER ARTICE GREENE","ownerName2":null,"propertyName":null,"zoningCode":null,"zoningDistrict":null,"jurisdictionPrefix":null,"dorCode":null,"acreage":14.0795,"centroid":[-81.545078,34.484446],"lastSale":{"date":null,"price":null,"qualified":null},"tax":{"marketValue":30400.0,"assessedValue":null,"taxableValue":null,"taxes":null},"mailingAddress":{"line1":null,"line2":null,"city":null,"state":null,"zip":null},"incomeTract":null,"incomeBlockGroup":null,"nearestRoad":null,"flu":null,"opportunityZone":null,"oz2Eligibility":null,"source":"sc-union-parcels-45087","appraiserUrl":"https://qpublic.schneidercorp.com/Application.aspx?AppID=861&LayerID=16112&PageTypeID=4&PageID=7170&KeyValue=171-00-00-014","gisViewerUrl":"https://qpublic.schneidercorp.com/Application.aspx?AppID=861&LayerID=16112&PageTypeID=2&PageID=7168"},"geometry":{"type":"Polygon","coordinates":[[[-81.54293,34.48341],[-81.542812,34.484391],[-81.548013,34.485921],[-81.548538,34.485296],[-81.543097,34.483214],[-81.54293,34.48341]]]}},{"type":"Feature","id":"45087:171-00-00-016","properties":{"id":"45087:171-00-00-016","parcelId":"171-00-00-016","countyFips":"45087","countyName":"Union","state":"South Carolina","marketIds":["Greenville"],"situsAddress":null,"situsCity":null,"situsZip":null,"jurisdictionCode":null,"ownerName":"TUCKER MARCELIE","ownerName2":null,"propertyName":null,"zoningCode":null,"zoningDistrict":null,"jurisdictionPrefix":null,"dorCode":null,"acreage":18.2249,"centroid":[-81.543696,34.486781],"lastSale":{"date":null,"price":null,"qualified":null},"tax":{"marketValue":30400.0,"assessedValue":null,"taxableValue":null,"taxes":null},"mailingAddress":{"line1":null,"line2":null,"city":null,"state":null,"zip":null},"incomeTract":null,"incomeBlockGroup":null,"nearestRoad":null,"flu":null,"opportunityZone":null,"oz2Eligibility":null,"source":"sc-union-parcels-45087","appraiserUrl":"https://qpublic.schneidercorp.com/Application.aspx?AppID=861&LayerID=16112&PageTypeID=4&PageID=7170&KeyValue=171-00-00-016","gisViewerUrl":"https://qpublic.schneidercorp.com/Application.aspx?AppID=861&LayerID=16112&PageTypeID=2&PageID=7168"},"geometry":{"type":"Polygon","coordinates":[[[-81.541643,34.487079],[-81.546132,34.488289],[-81.546975,34.487131],[-81.541978,34.485582],[-81.541751,34.485823],[-81.541643,34.487079]]]}},{"type":"Feature","id":"45087:171-00-00-015","properties":{"id":"45087:171-00-00-015","parcelId":"171-00-00-015","countyFips":"45087","countyName":"Union","state":"South Carolina","marketIds":["Greenville"],"situsAddress":null,"situsCity":null,"situsZip":null,"jurisdictionCode":null,"ownerName":"TUCKER MARCELIE","ownerName2":null,"propertyName":null,"zoningCode":null,"zoningDistrict":null,"jurisdictionPrefix":null,"dorCode":null,"acreage":18.6476,"centroid":[-81.544974,34.485742],"lastSale":{"date":null,"price":null,"qualified":null},"tax":{"marketValue":30400.0,"assessedValue":null,"taxableValue":null,"taxes":null},"mailingAddress":{"line1":null,"line2":null,"city":null,"state":null,"zip":null},"incomeTract":null,"incomeBlockGroup":null,"nearestRoad":null,"flu":null,"opportunityZone":null,"oz2Eligibility":null,"source":"sc-union-parcels-45087","appraiserUrl":"https://qpublic.schneidercorp.com/Application.aspx?AppID=861&LayerID=16112&PageTypeID=4&PageID=7170&KeyValue=171-00-00-015","gisViewerUrl":"https://qpublic.schneidercorp.com/Application.aspx?AppID=861&LayerID=16112&PageTypeID=2&PageID=7168"},"geometry":{"type":"Polygon","coordinates":[[[-81.541978,34.485582],[-81.546975,34.487131],[-81.547294,34.486691],[-81.548013,34.485921],[-81.542812,34.484391],[-81.542772,34.484735],[-81.541978,34.485582]]]}},{"type":"Feature","id":"45087:167-00-00-046","properties":{"id":"45087:167-00-00-046","parcelId":"167-00-00-046","countyFips":"45087","countyName":"Union","state":"South Carolina","marketIds":["Greenville"],"situsAddress":null,"situsCity":null,"situsZip":null,"jurisdictionCode":null,"ownerName":"HUDNALL MICHAEL A","ownerName2":null,"propertyName":null,"zoningCode":null,"zoningDistrict":null,"jurisdictionPrefix":null,"dorCode":null,"acreage":51.0441,"centroid":[-81.548681,34.489569],"lastSale":{"date":null,"price":null,"qualified":null},"tax":{"marketValue":79500.0,"assessedValue":null,"taxableValue":null,"taxes":null},"mailingAddress":{"line1":null,"line2":null,"city":null,"state":null,"zip":null},"incomeTract":null,"incomeBlockGroup":null,"nearestRoad":null,"flu":null,"opportunityZone":null,"oz2Eligibility":null,"source":"sc-union-parcels-45087","appraiserUrl":"https://qpublic.schneidercorp.com/Application.aspx?AppID=861&LayerID=16112&PageTypeID=4&PageID=7170&KeyValue=167-00-00-046","gisViewerUrl":"https://qpublic.schneidercorp.com/Application.aspx?AppID=861&LayerID=16112&PageTypeID=2&PageID=7168"},"geometry":{"type":"Polygon","coordinates":[[[-81.548021,34.490849],[-81.548011,34.49088],[-81.547978,34.491088],[-81.547898,34.491227],[-81.5478,34.491312],[-81.547603,34.49142],[-81.548436,34.491178],[-81.551024,34.490293],[-81.556708,34.484889],[-81.549443,34.487129],[-81.549198,34.487579],[-81.549105,34.487843],[-81.548874,34.488103],[-81.548554,34.488574],[-81.548208,34.488873],[-81.5479,34.48898],[-81.548026,34.48905],[-81.54786,34.489359],[-81.547831,34.489451],[-81.547845,34.489649],[-81.547897,34.489819],[-81.548199,34.490224],[-81.548268,34.490351],[-81.548268,34.490419],[-81.548078,34.490685],[-81.548021,34.490849]]]}},{"type":"Feature","id":"45087:167-00-00-039","properties":{"id":"45087:167-00-00-039","parcelId":"167-00-00-039","countyFips":"45087","countyName":"Union","state":"South Carolina","marketIds":["Greenville"],"situsAddress":null,"situsCity":null,"situsZip":null,"jurisdictionCode":null,"ownerName":"TUCKER ARTHUR LEE","ownerName2":null,"propertyName":null,"zoningCode":null,"zoningDistrict":null,"jurisdictionPrefix":null,"dorCode":null,"acreage":18.0502,"centroid":[-81.547294,34.490338],"lastSale":{"date":null,"price":null,"qualified":null},"tax":{"marketValue":27200.0,"assessedValue":null,"taxableValue":null,"taxes":null},"mailingAddress":{"line1":null,"line2":null,"city":null,"state":null,"zip":null},"incomeTract":null,"incomeBlockGroup":null,"nearestRoad":null,"flu":null,"opportunityZone":null,"oz2Eligibility":null,"source":"sc-union-parcels-45087","appraiserUrl":"https://qpublic.schneidercorp.com/Application.aspx?AppID=861&LayerID=16112&PageTypeID=4&PageID=7170&KeyValue=167-00-00-039","gisViewerUrl":"https://qpublic.schneidercorp.com/Application.aspx?AppID=861&LayerID=16112&PageTypeID=2&PageID=7168"},"geometry":{"type":"Polygon","coordinates":[[[-81.548021,34.490849],[-81.548078,34.490685],[-81.548268,34.490419],[-81.548268,34.490351],[-81.548199,34.490224],[-81.547897,34.489819],[-81.547845,34.489649],[-81.547831,34.489451],[-81.54786,34.489359],[-81.548026,34.48905],[-81.5479,34.48898],[-81.546132,34.488289],[-81.545817,34.489269],[-81.545609,34.491867],[-81.545527,34.492542],[-81.545575,34.492823],[-81.547352,34.491682],[-81.547081,34.490779],[-81.548021,34.490849]]]}},{"type":"Feature","id":"45087:167-00-00-016","properties":{"id":"45087:167-00-00-016","parcelId":"167-00-00-016","countyFips":"45087","countyName":"Union","state":"South Carolina","marketIds":["Greenville"],"situsAddress":null,"situsCity":null,"situsZip":null,"jurisdictionCode":null,"ownerName":"WITHERSPOON VALERIA","ownerName2":null,"propertyName":null,"zoningCode":null,"zoningDistrict":null,"jurisdictionPrefix":null,"dorCode":null,"acreage":75.5298,"centroid":[-81.551252,34.490786],"lastSale":{"date":null,"price":null,"qualified":null},"tax":{"marketValue":115300.0,"assessedValue":null,"taxableValue":null,"taxes":null},"mailingAddress":{"line1":null,"line2":null,"city":null,"state":null,"zip":null},"incomeTract":null,"incomeBlockGroup":null,"nearestRoad":null,"flu":null,"opportunityZone":null,"oz2Eligibility":null,"source":"sc-union-parcels-45087","appraiserUrl":"https://qpublic.schneidercorp.com/Application.aspx?AppID=861&LayerID=16112&PageTypeID=4&PageID=7170&KeyValue=167-00-00-016","gisViewerUrl":"https://qpublic.schneidercorp.com/Application.aspx?AppID=861&LayerID=16112&PageTypeID=2&PageID=7168"},"geometry":{"type":"Polygon","coordinates":[[[-81.549594,34.493158],[-81.551736,34.493342],[-81.552914,34.491125],[-81.555463,34.492431],[-81.557121,34.48476],[-81.556708,34.484889],[-81.551024,34.490293],[-81.548436,34.491178],[-81.547603,34.49142],[-81.547573,34.491463],[-81.548,34.492275],[-81.548849,34.493094],[-81.549594,34.493158]]]}},{"type":"Feature","id":"45087:167-00-00-038","properties":{"id":"45087:167-00-00-038","parcelId":"167-00-00-038","countyFips":"45087","countyName":"Union","state":"South Carolina","marketIds":["Greenville"],"situsAddress":null,"situsCity":null,"situsZip":null,"jurisdictionCode":null,"ownerName":"HENDERSON ELL","ownerName2":null,"propertyName":null,"zoningCode":null,"zoningDistrict":null,"jurisdictionPrefix":null,"dorCode":null,"acreage":17.5942,"centroid":[-81.547518,34.493314],"lastSale":{"date":null,"price":null,"qualified":null},"tax":{"marketValue":27200.0,"assessedValue":null,"taxableValue":null,"taxes":null},"mailingAddress":{"line1":null,"line2":null,"city":null,"state":null,"zip":null},"incomeTract":null,"incomeBlockGroup":null,"nearestRoad":null,"flu":null,"opportunityZone":null,"oz2Eligibility":null,"source":"sc-union-parcels-45087","appraiserUrl":"https://qpublic.schneidercorp.com/Application.aspx?AppID=861&LayerID=16112&PageTypeID=4&PageID=7170&KeyValue=167-00-00-038","gisViewerUrl":"https://qpublic.schneidercorp.com/Application.aspx?AppID=861&LayerID=16112&PageTypeID=2&PageID=7168"},"geometry":{"type":"Polygon","coordinates":[[[-81.5481,34.495429],[-81.54819,34.495673],[-81.549594,34.493158],[-81.548849,34.493094],[-81.548,34.492275],[-81.547573,34.491463],[-81.547463,34.491616],[-81.545575,34.492823],[-81.545604,34.493112],[-81.546274,34.494072],[-81.547472,34.493737],[-81.5481,34.495429]]]}},{"type":"Feature","id":"45087:167-00-00-037","properties":{"id":"45087:167-00-00-037","parcelId":"167-00-00-037","countyFips":"45087","countyName":"Union","state":"South Carolina","marketIds":["Greenville"],"situsAddress":null,"situsCity":null,"situsZip":null,"jurisdictionCode":null,"ownerName":"TAVERNIER FELIX (DEC'D)","ownerName2":null,"propertyName":null,"zoningCode":null,"zoningDistrict":null,"jurisdictionPrefix":null,"dorCode":null,"acreage":21.1104,"centroid":[-81.549532,34.495668],"lastSale":{"date":null,"price":null,"qualified":null},"tax":{"marketValue":16800.0,"assessedValue":null,"taxableValue":null,"taxes":null},"mailingAddress":{"line1":null,"line2":null,"city":null,"state":null,"zip":null},"incomeTract":null,"incomeBlockGroup":null,"nearestRoad":null,"flu":null,"opportunityZone":null,"oz2Eligibility":null,"source":"sc-union-parcels-45087","appraiserUrl":"https://qpublic.schneidercorp.com/Application.aspx?AppID=861&LayerID=16112&PageTypeID=4&PageID=7170&KeyValue=167-00-00-037","gisViewerUrl":"https://qpublic.schneidercorp.com/Application.aspx?AppID=861&LayerID=16112&PageTypeID=2&PageID=7168"},"geometry":{"type":"Polygon","coordinates":[[[-81.549025,34.497962],[-81.549114,34.498205],[-81.551736,34.493342],[-81.549594,34.493158],[-81.54819,34.495673],[-81.549025,34.497962]]]}},{"type":"Feature","id":"45087:167-00-00-035","properties":{"id":"45087:167-00-00-035","parcelId":"167-00-00-035","countyFips":"45087","countyName":"Union","state":"South Carolina","marketIds":["Greenville"],"situsAddress":null,"situsCity":null,"situsZip":null,"jurisdictionCode":null,"ownerName":"HENDERSON ELMIRA (DEC'D) ETAL","ownerName2":null,"propertyName":null,"zoningCode":null,"zoningDistrict":null,"jurisdictionPrefix":null,"dorCode":null,"acreage":19.8317,"centroid":[-81.538408,34.485869],"lastSale":{"date":null,"price":null,"qualified":null},"tax":{"marketValue":40000.0,"assessedValue":null,"taxableValue":null,"taxes":null},"mailingAddress":{"line1":null,"line2":null,"city":null,"state":null,"zip":null},"incomeTract":null,"incomeBlockGroup":null,"nearestRoad":null,"flu":null,"opportunityZone":null,"oz2Eligibility":null,"source":"sc-union-parcels-45087","appraiserUrl":"https://qpublic.schneidercorp.com/Application.aspx?AppID=861&LayerID=16112&PageTypeID=4&PageID=7170&KeyValue=167-00-00-035","gisViewerUrl":"https://qpublic.schneidercorp.com/Application.aspx?AppID=861&LayerID=16112&PageTypeID=2&PageID=7168"},"geometry":{"type":"Polygon","coordinates":[[[-81.54312,34.483184],[-81.532994,34.488082],[-81.533084,34.488618],[-81.535506,34.487526],[-81.542812,34.484391],[-81.54293,34.48341],[-81.54312,34.483184]]]}},{"type":"Feature","id":"45087:167-00-00-034","properties":{"id":"45087:167-00-00-034","parcelId":"167-00-00-034","countyFips":"45087","countyName":"Union","state":"South Carolina","marketIds":["Greenville"],"situsAddress":null,"situsCity":null,"situsZip":null,"jurisdictionCode":null,"ownerName":"SIMS HATTIE M EST ETAL","ownerName2":null,"propertyName":null,"zoningCode":null,"zoningDistrict":null,"jurisdictionPrefix":null,"dorCode":null,"acreage":27.6361,"centroid":[-81.53869,34.486698],"lastSale":{"date":null,"price":null,"qualified":null},"tax":{"marketValue":38400.0,"assessedValue":null,"taxableValue":null,"taxes":null},"mailingAddress":{"line1":null,"line2":null,"city":null,"state":null,"zip":null},"incomeTract":null,"incomeBlockGroup":null,"nearestRoad":null,"flu":null,"opportunityZone":null,"oz2Eligibility":null,"source":"sc-union-parcels-45087","appraiserUrl":"https://qpublic.schneidercorp.com/Application.aspx?AppID=861&LayerID=16112&PageTypeID=4&PageID=7170&KeyValue=167-00-00-034","gisViewerUrl":"https://qpublic.schneidercorp.com/Application.aspx?AppID=861&LayerID=16112&PageTypeID=2&PageID=7168"},"geometry":{"type":"Polygon","coordinates":[[[-81.541708,34.486317],[-81.541751,34.485823],[-81.542772,34.484735],[-81.542812,34.484391],[-81.535506,34.487526],[-81.533084,34.488618],[-81.533198,34.489475],[-81.541708,34.486317]]]}},{"type":"Feature","id":"45087:167-00-00-033","properties":{"id":"45087:167-00-00-033","parcelId":"167-00-00-033","countyFips":"45087","countyName":"Union","state":"South Carolina","marketIds":["Greenville"],"situsAddress":null,"situsCity":null,"situsZip":null,"jurisdictionCode":null,"ownerName":"AMERICAN TIMBERLAND II LLC","ownerName2":null,"propertyName":null,"zoningCode":null,"zoningDistrict":null,"jurisdictionPrefix":null,"dorCode":null,"acreage":24.4042,"centroid":[-81.538174,34.488236],"lastSale":{"date":null,"price":null,"qualified":null},"tax":{"marketValue":38400.0,"assessedValue":null,"taxableValue":null,"taxes":null},"mailingAddress":{"line1":null,"line2":null,"city":null,"state":null,"zip":null},"incomeTract":null,"incomeBlockGroup":null,"nearestRoad":null,"flu":null,"opportunityZone":null,"oz2Eligibility":null,"source":"sc-union-parcels-45087","appraiserUrl":"https://qpublic.schneidercorp.com/Application.aspx?AppID=861&LayerID=16112&PageTypeID=4&PageID=7170&KeyValue=167-00-00-033","gisViewerUrl":"https://qpublic.schneidercorp.com/Application.aspx?AppID=861&LayerID=16112&PageTypeID=2&PageID=7168"},"geometry":{"type":"Polygon","coordinates":[[[-81.54104,34.488238],[-81.541643,34.487079],[-81.541708,34.486317],[-81.533198,34.489475],[-81.533281,34.490069],[-81.54104,34.488238]]]}},{"type":"Feature","id":"45087:167-00-00-032","properties":{"id":"45087:167-00-00-032","parcelId":"167-00-00-032","countyFips":"45087","countyName":"Union","state":"South Carolina","marketIds":["Greenville"],"situsAddress":null,"situsCity":null,"situsZip":null,"jurisdictionCode":null,"ownerName":"MOONSHINE HOLLOW HUNT CLUB","ownerName2":null,"propertyName":null,"zoningCode":null,"zoningDistrict":null,"jurisdictionPrefix":null,"dorCode":null,"acreage":16.6797,"centroid":[-81.535737,34.489959],"lastSale":{"date":null,"price":null,"qualified":null},"tax":{"marketValue":24000.0,"assessedValue":null,"taxableValue":null,"taxes":null},"mailingAddress":{"line1":null,"line2":null,"city":null,"state":null,"zip":null},"incomeTract":null,"incomeBlockGroup":null,"nearestRoad":null,"flu":null,"opportunityZone":null,"oz2Eligibility":null,"source":"sc-union-parcels-45087","appraiserUrl":"https://qpublic.schneidercorp.com/Application.aspx?AppID=861&LayerID=16112&PageTypeID=4&PageID=7170&KeyValue=167-00-00-032","gisViewerUrl":"https://qpublic.schneidercorp.com/Application.aspx?AppID=861&LayerID=16112&PageTypeID=2&PageID=7168"},"geometry":{"type":"Polygon","coordinates":[[[-81.533281,34.490069],[-81.533314,34.490309],[-81.5334,34.490891],[-81.537651,34.490286],[-81.54104,34.488238],[-81.533281,34.490069]]]}},{"type":"Feature","id":"45087:167-00-00-023","properties":{"id":"45087:167-00-00-023","parcelId":"167-00-00-023","countyFips":"45087","countyName":"Union","state":"South Carolina","marketIds":["Greenville"],"situsAddress":null,"situsCity":null,"situsZip":null,"jurisdictionCode":null,"ownerName":"WHITENER ARTHUR EST","ownerName2":null,"propertyName":null,"zoningCode":null,"zoningDistrict":null,"jurisdictionPrefix":null,"dorCode":null,"acreage":10.1212,"centroid":[-81.534828,34.492595],"lastSale":{"date":null,"price":null,"qualified":null},"tax":{"marketValue":17600.0,"assessedValue":null,"taxableValue":null,"taxes":null},"mailingAddress":{"line1":null,"line2":null,"city":null,"state":null,"zip":null},"incomeTract":null,"incomeBlockGroup":null,"nearestRoad":null,"flu":null,"opportunityZone":null,"oz2Eligibility":null,"source":"sc-union-parcels-45087","appraiserUrl":"https://qpublic.schneidercorp.com/Application.aspx?AppID=861&LayerID=16112&PageTypeID=4&PageID=7170&KeyValue=167-00-00-023","gisViewerUrl":"https://qpublic.schneidercorp.com/Application.aspx?AppID=861&LayerID=16112&PageTypeID=2&PageID=7168"},"geometry":{"type":"Polygon","coordinates":[[[-81.533516,34.492852],[-81.533509,34.49296],[-81.5335,34.493069],[-81.533716,34.493062],[-81.537939,34.492647],[-81.537792,34.491441],[-81.5343,34.492111],[-81.534348,34.49262],[-81.533516,34.492852]]]}},{"type":"Feature","id":"45087:167-00-00-002","properties":{"id":"45087:167-00-00-002","parcelId":"167-00-00-002","countyFips":"45087","countyName":"Union","state":"South Carolina","marketIds":["Greenville"],"situsAddress":null,"situsCity":null,"situsZip":null,"jurisdictionCode":null,"ownerName":"SFG DRAGONFLY LLC","ownerName2":null,"propertyName":null,"zoningCode":null,"zoningDistrict":null,"jurisdictionPrefix":null,"dorCode":null,"acreage":115.1078,"centroid":[-81.544618,34.49965],"lastSale":{"date":null,"price":null,"qualified":null},"tax":{"marketValue":169500.0,"assessedValue":null,"taxableValue":null,"taxes":null},"mailingAddress":{"line1":null,"line2":null,"city":null,"state":null,"zip":null},"incomeTract":null,"incomeBlockGroup":null,"nearestRoad":null,"flu":null,"opportunityZone":null,"oz2Eligibility":null,"source":"sc-union-parcels-45087","appraiserUrl":"https://qpublic.schneidercorp.com/Application.aspx?AppID=861&LayerID=16112&PageTypeID=4&PageID=7170&KeyValue=167-00-00-002","gisViewerUrl":"https://qpublic.schneidercorp.com/Application.aspx?AppID=861&LayerID=16112&PageTypeID=2&PageID=7168"},"geometry":{"type":"Polygon","coordinates":[[[-81.539169,34.503527],[-81.545996,34.504846],[-81.548278,34.498832],[-81.547951,34.498602],[-81.547754,34.49843],[-81.547545,34.498213],[-81.5472,34.497766],[-81.545128,34.497506],[-81.544057,34.497889],[-81.542841,34.498354],[-81.540211,34.499551],[-81.539292,34.502287],[-81.539169,34.503527]]]}},{"type":"Feature","id":"45087:168-00-00-002","properties":{"id":"45087:168-00-00-002","parcelId":"168-00-00-002","countyFips":"45087","countyName":"Union","state":"South Carolina","marketIds":["Greenville"],"situsAddress":null,"situsCity":null,"situsZip":null,"jurisdictionCode":null,"ownerName":"JOHNSON ELMO LELAND & BETTY R","ownerName2":null,"propertyName":null,"zoningCode":null,"zoningDistrict":null,"jurisdictionPrefix":null,"dorCode":null,"acreage":53.6004,"centroid":[-81.500577,34.49935],"lastSale":{"date":null,"price":null,"qualified":null},"tax":{"marketValue":84000.0,"assessedValue":null,"taxableValue":null,"taxes":null},"mailingAddress":{"line1":null,"line2":null,"city":null,"state":null,"zip":null},"incomeTract":null,"incomeBlockGroup":null,"nearestRoad":null,"flu":null,"opportunityZone":null,"oz2Eligibility":null,"source":"sc-union-parcels-45087","appraiserUrl":"https://qpublic.schneidercorp.com/Application.aspx?AppID=861&LayerID=16112&PageTypeID=4&PageID=7170&KeyValue=168-00-00-002","gisViewerUrl":"https://qpublic.schneidercorp.com/Application.aspx?AppID=861&LayerID=16112&PageTypeID=2&PageID=7168"},"geometry":{"type":"Polygon","coordinates":[[[-81.49788,34.495991],[-81.497692,34.496408],[-81.500273,34.499378],[-81.498076,34.503972],[-81.500519,34.505079],[-81.503494,34.501661],[-81.5034,34.501137],[-81.503334,34.500986],[-81.503158,34.500799],[-81.502702,34.500425],[-81.502005,34.499914],[-81.501506,34.499457],[-81.500875,34.498719],[-81.500585,34.498338],[-81.500081,34.497756],[-81.498746,34.496441],[-81.498131,34.495964],[-81.497935,34.495869],[-81.49788,34.495991]]]}},{"type":"Feature","id":"45087:172-00-00-024","properties":{"id":"45087:172-00-00-024","parcelId":"172-00-00-024","countyFips":"45087","countyName":"Union","state":"South Carolina","marketIds":["Greenville"],"situsAddress":null,"situsCity":null,"situsZip":null,"jurisdictionCode":null,"ownerName":"MCCLURKIN JOSEPH H (DEC'D)","ownerName2":null,"propertyName":null,"zoningCode":null,"zoningDistrict":null,"jurisdictionPrefix":null,"dorCode":null,"acreage":108.8399,"centroid":[-81.534786,34.4704],"lastSale":{"date":null,"price":null,"qualified":null},"tax":{"marketValue":163100.0,"assessedValue":null,"taxableValue":null,"taxes":null},"mailingAddress":{"line1":null,"line2":null,"city":null,"state":null,"zip":null},"incomeTract":null,"incomeBlockGroup":null,"nearestRoad":null,"flu":null,"opportunityZone":null,"oz2Eligibility":null,"source":"sc-union-parcels-45087","appraiserUrl":"https://qpublic.schneidercorp.com/Application.aspx?AppID=861&LayerID=16112&PageTypeID=4&PageID=7170&KeyValue=172-00-00-024","gisViewerUrl":"https://qpublic.schneidercorp.com/Application.aspx?AppID=861&LayerID=16112&PageTypeID=2&PageID=7168"},"geometry":{"type":"MultiPolygon","coordinates":[[[[-81.532609,34.472827],[-81.53287,34.472746],[-81.533271,34.472597],[-81.533536,34.472456],[-81.53374,34.472301],[-81.533891,34.472155],[-81.534044,34.47197],[-81.534748,34.470899],[-81.535112,34.470531],[-81.535335,34.470345],[-81.535756,34.470056],[-81.536036,34.469904],[-81.536533,34.469687],[-81.537088,34.469486],[-81.538531,34.467693],[-81.538908,34.465595],[-81.53218,34.46663],[-81.531962,34.469314],[-81.532609,34.472827]],[[-81.534867,34.469278],[-81.534423,34.469726],[-81.533874,34.469316],[-81.534325,34.468869],[-81.534867,34.469278]]],[[[-81.536443,34.474766],[-81.537043,34.47433],[-81.537604,34.474169],[-81.537649,34.472215],[-81.537521,34.470925],[-81.537318,34.469573],[-81.536993,34.46963],[-81.536104,34.469999],[-81.535834,34.470145],[-81.535426,34.470425],[-81.535209,34.470606],[-81.534859,34.470959],[-81.534157,34.472028],[-81.533997,34.472222],[-81.533836,34.472378],[-81.533617,34.472543],[-81.533337,34.472693],[-81.532921,34.472861],[-81.532652,34.472946],[-81.532698,34.473242],[-81.536443,34.474766]]]]}},{"type":"Feature","id":"45087:172-00-00-022","properties":{"id":"45087:172-00-00-022","parcelId":"172-00-00-022","countyFips":"45087","countyName":"Union","state":"South Carolina","marketIds":["Greenville"],"situsAddress":null,"situsCity":null,"situsZip":null,"jurisdictionCode":null,"ownerName":"SHOUSE DALE","ownerName2":null,"propertyName":null,"zoningCode":null,"zoningDistrict":null,"jurisdictionPrefix":null,"dorCode":null,"acreage":48.9526,"centroid":[-81.527565,34.476025],"lastSale":{"date":null,"price":null,"qualified":null},"tax":{"marketValue":75000.0,"assessedValue":null,"taxableValue":null,"taxes":null},"mailingAddress":{"line1":null,"line2":null,"city":null,"state":null,"zip":null},"incomeTract":null,"incomeBlockGroup":null,"nearestRoad":null,"flu":null,"opportunityZone":null,"oz2Eligibility":null,"source":"sc-union-parcels-45087","appraiserUrl":"https://qpublic.schneidercorp.com/Application.aspx?AppID=861&LayerID=16112&PageTypeID=4&PageID=7170&KeyValue=172-00-00-022","gisViewerUrl":"https://qpublic.schneidercorp.com/Application.aspx?AppID=861&LayerID=16112&PageTypeID=2&PageID=7168"},"geometry":{"type":"MultiPolygon","coordinates":[[[[-81.526822,34.477099],[-81.526981,34.477112],[-81.527362,34.477175],[-81.527886,34.477335],[-81.528002,34.477325],[-81.528034,34.4773],[-81.528073,34.477255],[-81.52852,34.475982],[-81.528729,34.47555],[-81.528832,34.475397],[-81.528962,34.475254],[-81.529339,34.474874],[-81.529814,34.474441],[-81.527882,34.473256],[-81.52463,34.473814],[-81.525473,34.475036],[-81.525946,34.476062],[-81.525991,34.477119],[-81.526466,34.477087],[-81.526822,34.477099]]],[[[-81.52911,34.481313],[-81.529877,34.480865],[-81.531085,34.480161],[-81.531026,34.479903],[-81.53047,34.480083],[-81.529787,34.479343],[-81.530106,34.478958],[-81.528468,34.477762],[-81.528239,34.477621],[-81.528002,34.477504],[-81.52744,34.477298],[-81.527167,34.477236],[-81.526637,34.477183],[-81.526009,34.477214],[-81.526536,34.479047],[-81.528351,34.47844],[-81.52911,34.481313]]]]}},{"type":"Feature","id":"45087:172-00-00-004","properties":{"id":"45087:172-00-00-004","parcelId":"172-00-00-004","countyFips":"45087","countyName":"Union","state":"South Carolina","marketIds":["Greenville"],"situsAddress":null,"situsCity":null,"situsZip":null,"jurisdictionCode":null,"ownerName":"BROOM JAMES C","ownerName2":null,"propertyName":null,"zoningCode":null,"zoningDistrict":null,"jurisdictionPrefix":null,"dorCode":null,"acreage":112.2046,"centroid":[-81.536375,34.482009],"lastSale":{"date":null,"price":null,"qualified":null},"tax":{"marketValue":162000.0,"assessedValue":null,"taxableValue":null,"taxes":null},"mailingAddress":{"line1":null,"line2":null,"city":null,"state":null,"zip":null},"incomeTract":null,"incomeBlockGroup":null,"nearestRoad":null,"flu":null,"opportunityZone":null,"oz2Eligibility":null,"source":"sc-union-parcels-45087","appraiserUrl":"https://qpublic.schneidercorp.com/Application.aspx?AppID=861&LayerID=16112&PageTypeID=4&PageID=7170&KeyValue=172-00-00-004","gisViewerUrl":"https://qpublic.schneidercorp.com/Application.aspx?AppID=861&LayerID=16112&PageTypeID=2&PageID=7168"},"geometry":{"type":"MultiPolygon","coordinates":[[[[-81.533356,34.480191],[-81.532928,34.480299],[-81.531515,34.480668],[-81.531523,34.481285],[-81.531953,34.484723],[-81.532103,34.485411],[-81.532372,34.486222],[-81.541262,34.482253],[-81.542421,34.482141],[-81.542812,34.482011],[-81.542088,34.481571],[-81.540726,34.480252],[-81.537822,34.479095],[-81.533356,34.480191]]],[[[-81.531255,34.480743],[-81.531217,34.48116],[-81.531294,34.48188],[-81.53141,34.482501],[-81.531482,34.482806],[-81.531663,34.483303],[-81.531407,34.481295],[-81.531304,34.480729],[-81.531255,34.480743]]],[[[-81.531794,34.485759],[-81.531802,34.48595],[-81.531923,34.486423],[-81.532267,34.486269],[-81.531989,34.485433],[-81.531857,34.484837],[-81.531794,34.485759]]]]}},{"type":"Feature","id":"45087:171-00-00-004","properties":{"id":"45087:171-00-00-004","parcelId":"171-00-00-004","countyFips":"45087","countyName":"Union","state":"South Carolina","marketIds":["Greenville"],"situsAddress":null,"situsCity":null,"situsZip":null,"jurisdictionCode":null,"ownerName":"CLARK BROTHERS FARMS","ownerName2":null,"propertyName":null,"zoningCode":null,"zoningDistrict":null,"jurisdictionPrefix":null,"dorCode":null,"acreage":30.7749,"centroid":[-81.541524,34.473078],"lastSale":{"date":null,"price":null,"qualified":null},"tax":{"marketValue":54400.0,"assessedValue":null,"taxableValue":null,"taxes":null},"mailingAddress":{"line1":null,"line2":null,"city":null,"state":null,"zip":null},"incomeTract":null,"incomeBlockGroup":null,"nearestRoad":null,"flu":null,"opportunityZone":null,"oz2Eligibility":null,"source":"sc-union-parcels-45087","appraiserUrl":"https://qpublic.schneidercorp.com/Application.aspx?AppID=861&LayerID=16112&PageTypeID=4&PageID=7170&KeyValue=171-00-00-004","gisViewerUrl":"https://qpublic.schneidercorp.com/Application.aspx?AppID=861&LayerID=16112&PageTypeID=2&PageID=7168"},"geometry":{"type":"Polygon","coordinates":[[[-81.537604,34.474169],[-81.538358,34.474225],[-81.538707,34.474191],[-81.539252,34.474091],[-81.539649,34.473946],[-81.539894,34.473795],[-81.540193,34.473675],[-81.540311,34.47365],[-81.540448,34.473633],[-81.541127,34.473643],[-81.541535,34.473678],[-81.542111,34.473862],[-81.542812,34.474173],[-81.543285,34.474358],[-81.543418,34.474394],[-81.543806,34.474445],[-81.543964,34.474449],[-81.544337,34.474329],[-81.544601,34.474202],[-81.545008,34.473976],[-81.545443,34.473669],[-81.541409,34.471706],[-81.539652,34.471852],[-81.537649,34.472215],[-81.537604,34.474169]],[[-81.5379,34.472812],[-81.539559,34.472569],[-81.53895,34.473397],[-81.53829,34.473118],[-81.5379,34.472812]],[[-81.541187,34.472759],[-81.54167,34.471965],[-81.542067,34.472176],[-81.541921,34.472837],[-81.541187,34.472759]]]}},{"type":"Feature","id":"45087:171-00-00-011","properties":{"id":"45087:171-00-00-011","parcelId":"171-00-00-011","countyFips":"45087","countyName":"Union","state":"South Carolina","marketIds":["Greenville"],"situsAddress":null,"situsCity":null,"situsZip":null,"jurisdictionCode":null,"ownerName":"CLARK BROTHERS FARM LLC","ownerName2":null,"propertyName":null,"zoningCode":null,"zoningDistrict":null,"jurisdictionPrefix":null,"dorCode":null,"acreage":103.3926,"centroid":[-81.549163,34.472984],"lastSale":{"date":null,"price":null,"qualified":null},"tax":{"marketValue":157500.0,"assessedValue":null,"taxableValue":null,"taxes":null},"mailingAddress":{"line1":null,"line2":null,"city":null,"state":null,"zip":null},"incomeTract":null,"incomeBlockGroup":null,"nearestRoad":null,"flu":null,"opportunityZone":null,"oz2Eligibility":null,"source":"sc-union-parcels-45087","appraiserUrl":"https://qpublic.schneidercorp.com/Application.aspx?AppID=861&LayerID=16112&PageTypeID=4&PageID=7170&KeyValue=171-00-00-011","gisViewerUrl":"https://qpublic.schneidercorp.com/Application.aspx?AppID=861&LayerID=16112&PageTypeID=2&PageID=7168"},"geometry":{"type":"Polygon","coordinates":[[[-81.551931,34.476147],[-81.552029,34.47619],[-81.552275,34.476177],[-81.552189,34.475785],[-81.552175,34.475387],[-81.552232,34.474992],[-81.55236,34.474609],[-81.552483,34.474363],[-81.552636,34.47413],[-81.552915,34.473806],[-81.553132,34.47361],[-81.553142,34.473435],[-81.553052,34.473297],[-81.552437,34.472821],[-81.552055,34.47216],[-81.551762,34.471571],[-81.551523,34.470854],[-81.551454,34.470375],[-81.550902,34.470345],[-81.541524,34.470331],[-81.541956,34.470369],[-81.542155,34.470539],[-81.54215,34.4712],[-81.540429,34.470846],[-81.539652,34.471852],[-81.541409,34.471706],[-81.545443,34.473669],[-81.551931,34.476147]],[[-81.543094,34.471173],[-81.542769,34.471764],[-81.542204,34.471534],[-81.542525,34.47098],[-81.543094,34.471173]]]}}]}