{"type":"FeatureCollection","name":"28121--30_20","features":[{"type":"Feature","id":"28121:STREET_ROW_151751","properties":{"id":"28121:STREET_ROW_151751","parcelId":"STREET_ROW_151751","countyFips":"28121","countyName":"Rankin","state":"Mississippi","marketIds":["Jackson MS"],"situsAddress":null,"situsCity":null,"situsZip":null,"jurisdictionCode":"Pearl","ownerName":null,"ownerName2":null,"propertyName":null,"zoningCode":"L-C / C-3 / SMART CODE / R-1 / I-1 / R-3 / R-2 / R-E","zoningDistrict":null,"jurisdictionPrefix":null,"dorCode":null,"acreage":9.7041,"centroid":[-90.253477,32.150198],"lastSale":{"date":null,"price":null,"qualified":null},"tax":{"marketValue":0.0,"assessedValue":null,"taxableValue":null,"taxes":null},"mailingAddress":{"line1":null,"line2":null,"city":null,"state":null,"zip":null},"incomeTract":null,"incomeBlockGroup":null,"nearestRoad":null,"flu":"High Intensity Commercial / Low Density Residential / General Commercial / Medium Density Residential / Mixed Use Corridor Development / Manufactured Home Residential / Parks/Open Space / Public/Semi-Public","opportunityZone":null,"oz2Eligibility":null,"source":"ms-rankin-cmpdd-parcels","appraiserUrl":"https://www.deltacomputersystems.com/ms/ms61/plinkquerym.html"},"geometry":{"type":"Polygon","coordinates":[[[-90.245226,32.151685],[-90.245976,32.151101],[-90.246098,32.150965],[-90.246282,32.150916],[-90.246396,32.150839],[-90.247481,32.150293],[-90.247601,32.150246],[-90.247838,32.150215],[-90.247952,32.150173],[-90.248083,32.150028],[-90.248688,32.149607],[-90.248926,32.149516],[-90.249045,32.14938],[-90.249106,32.14934],[-90.249355,32.149261],[-90.24962,32.149242],[-90.249796,32.149264],[-90.25117,32.149643],[-90.251814,32.149768],[-90.253223,32.150125],[-90.253503,32.150244],[-90.25379,32.150471],[-90.253995,32.150673],[-90.254213,32.150929],[-90.254241,32.151019],[-90.254136,32.151342],[-90.25392,32.151755],[-90.253809,32.151847],[-90.253567,32.151939],[-90.254402,32.151922],[-90.254523,32.15177],[-90.254608,32.151617],[-90.254685,32.151373],[-90.254701,32.151204],[-90.254687,32.151035],[-90.254645,32.15087],[-90.254562,32.150676],[-90.254449,32.150492],[-90.254309,32.150323],[-90.254145,32.15017],[-90.253958,32.150037],[-90.253753,32.149926],[-90.253418,32.149803],[-90.251768,32.149422],[-90.250151,32.148983],[-90.24992,32.148948],[-90.249681,32.148945],[-90.249376,32.148991],[-90.249183,32.149051],[-90.249001,32.149134],[-90.248834,32.149238],[-90.248323,32.149619],[-90.24801,32.149809],[-90.24768,32.149978],[-90.246742,32.150383],[-90.24618,32.15069],[-90.245233,32.151336],[-90.245226,32.151685]]]}}]}