{"type":"FeatureCollection","name":"47029--2_36","features":[{"type":"Feature","id":"47029:015030    02200","properties":{"id":"47029:015030    02200","parcelId":"015030    02200","countyFips":"47029","countyName":"Cocke","state":"Tennessee","marketIds":["Knoxville"],"situsAddress":"HWY 25E 928","situsCity":null,"situsZip":null,"jurisdictionCode":null,"ownerName":"HOLT DALE ETUX NANCY","ownerName2":null,"propertyName":null,"zoningCode":null,"zoningDistrict":null,"jurisdictionPrefix":null,"dorCode":null,"acreage":92.6518,"centroid":[-83.254516,36.012035],"lastSale":{"date":"1991-06-22","price":7000.0,"qualified":null,"vintage":"2023"},"tax":{"marketValue":236200.0,"assessedValue":null,"taxableValue":null,"taxes":null,"vintage":"2023"},"mailingAddress":{"line1":null,"line2":null,"city":null,"state":null,"zip":null},"incomeTract":null,"incomeBlockGroup":null,"nearestRoad":null,"flu":null,"opportunityZone":null,"oz2Eligibility":null,"source":"tn-oir-public-use-47029","appraiserUrl":"https://assessment.cot.tn.gov/TPAD/Parcel/GIS?gislink=015030%20%20%20%2002200"},"geometry":{"type":"MultiPolygon","coordinates":[[[[-83.253409,36.010927],[-83.25359,36.011719],[-83.254733,36.014135],[-83.254782,36.014206],[-83.254844,36.014274],[-83.254914,36.014332],[-83.254996,36.014384],[-83.255063,36.014417],[-83.255128,36.014441],[-83.255483,36.014547],[-83.255514,36.014485],[-83.255755,36.014116],[-83.255776,36.014045],[-83.255795,36.013948],[-83.255824,36.013867],[-83.255822,36.013768],[-83.255798,36.013582],[-83.255572,36.012621],[-83.255441,36.01192],[-83.255409,36.011734],[-83.255383,36.011501],[-83.255392,36.011244],[-83.255425,36.01093],[-83.255532,36.009431],[-83.255571,36.009206],[-83.255593,36.008889],[-83.255747,36.008119],[-83.255853,36.007647],[-83.254481,36.007548],[-83.25459,36.008781],[-83.244132,36.009598],[-83.244384,36.012395],[-83.253288,36.010395],[-83.253409,36.010927]]],[[[-83.242827,36.0097],[-83.242775,36.010011],[-83.242744,36.010325],[-83.242736,36.01048],[-83.242733,36.010648],[-83.242743,36.010963],[-83.242764,36.0112],[-83.242796,36.011428],[-83.243025,36.0127],[-83.244284,36.012418],[-83.244031,36.009606],[-83.242827,36.0097]]],[[[-83.241464,36.010705],[-83.241355,36.010706],[-83.241256,36.01071],[-83.241747,36.011845],[-83.241611,36.01276],[-83.241501,36.012909],[-83.241617,36.013017],[-83.242763,36.012759],[-83.242527,36.011451],[-83.242494,36.011209],[-83.242471,36.010949],[-83.242357,36.010895],[-83.242241,36.010849],[-83.242113,36.010806],[-83.241991,36.010773],[-83.241857,36.010744],[-83.24173,36.010724],[-83.241593,36.010711],[-83.241464,36.010705]]],[[[-83.241492,36.010623],[-83.241624,36.01063],[-83.241746,36.010643],[-83.241874,36.010663],[-83.241993,36.010687],[-83.242117,36.010719],[-83.242231,36.010755],[-83.242349,36.010799],[-83.242466,36.01085],[-83.242463,36.010597],[-83.242472,36.010345],[-83.241353,36.010427],[-83.241154,36.010474],[-83.241221,36.01063],[-83.241352,36.010623],[-83.241492,36.010623]]]]}},{"type":"Feature","id":"47029:015030    01647","properties":{"id":"47029:015030    01647","parcelId":"015030    01647","countyFips":"47029","countyName":"Cocke","state":"Tennessee","marketIds":["Knoxville"],"situsAddress":"HWY 25E 1183","situsCity":null,"situsZip":null,"jurisdictionCode":null,"ownerName":"STEPHENS WILLIAM A ETUX KAREN A","ownerName2":null,"propertyName":null,"zoningCode":null,"zoningDistrict":null,"jurisdictionPrefix":null,"dorCode":null,"acreage":78.3491,"centroid":[-83.251817,36.028532],"lastSale":{"date":"2019-06-21","price":59000.0,"qualified":null,"vintage":"2023"},"tax":{"marketValue":39700.0,"assessedValue":null,"taxableValue":null,"taxes":null,"vintage":"2023"},"mailingAddress":{"line1":null,"line2":null,"city":null,"state":null,"zip":null},"incomeTract":null,"incomeBlockGroup":null,"nearestRoad":null,"flu":null,"opportunityZone":null,"oz2Eligibility":null,"source":"tn-oir-public-use-47029","appraiserUrl":"https://assessment.cot.tn.gov/TPAD/Parcel/GIS?gislink=015030%20%20%20%2001647"},"geometry":{"type":"MultiPolygon","coordinates":[[[[-83.252478,36.029734],[-83.252336,36.029754],[-83.252384,36.029813],[-83.252538,36.030093],[-83.25876,36.029015],[-83.258923,36.029243],[-83.258976,36.02947],[-83.259352,36.029414],[-83.259288,36.029159],[-83.259133,36.029183],[-83.258665,36.028814],[-83.25791,36.028374],[-83.256706,36.027222],[-83.256771,36.026573],[-83.244175,36.026805],[-83.244409,36.027086],[-83.244639,36.027339],[-83.244889,36.027596],[-83.24515,36.027845],[-83.245412,36.028077],[-83.245705,36.028318],[-83.245987,36.028534],[-83.246295,36.028754],[-83.24656,36.028719],[-83.248039,36.028492],[-83.251579,36.027966],[-83.251736,36.028413],[-83.251964,36.02881],[-83.251933,36.028815],[-83.252478,36.029734]]],[[[-83.258445,36.026245],[-83.258563,36.026499],[-83.258826,36.026649],[-83.258974,36.026868],[-83.259017,36.026874],[-83.259041,36.0266],[-83.258809,36.026482],[-83.258597,36.026185],[-83.258445,36.026245]]],[[[-83.256888,36.027186],[-83.258035,36.028281],[-83.258846,36.028594],[-83.258894,36.028569],[-83.258876,36.028186],[-83.258191,36.02715],[-83.258217,36.027133],[-83.258917,36.027603],[-83.258944,36.02759],[-83.258781,36.027158],[-83.258214,36.026916],[-83.257787,36.026323],[-83.257315,36.025293],[-83.257012,36.025942],[-83.256888,36.027186]]]]}},{"type":"Feature","id":"47029:015023    00501","properties":{"id":"47029:015023    00501","parcelId":"015023    00501","countyFips":"47029","countyName":"Cocke","state":"Tennessee","marketIds":["Knoxville"],"situsAddress":"HWY 25E","situsCity":null,"situsZip":null,"jurisdictionCode":null,"ownerName":"AMASON FORREST RYNE","ownerName2":null,"propertyName":null,"zoningCode":null,"zoningDistrict":null,"jurisdictionPrefix":null,"dorCode":null,"acreage":74.6657,"centroid":[-83.255283,36.035571],"lastSale":{"date":null,"price":null,"qualified":null},"tax":{"marketValue":null,"assessedValue":null,"taxableValue":null,"taxes":null},"mailingAddress":{"line1":null,"line2":null,"city":null,"state":null,"zip":null},"incomeTract":null,"incomeBlockGroup":null,"nearestRoad":null,"flu":null,"opportunityZone":null,"oz2Eligibility":null,"source":"tn-oir-public-use-47029","appraiserUrl":"https://assessment.cot.tn.gov/TPAD/Parcel/GIS?gislink=015023%20%20%20%2000501"},"geometry":{"type":"Polygon","coordinates":[[[-83.254255,36.035042],[-83.255508,36.036831],[-83.255325,36.036967],[-83.255875,36.037431],[-83.255974,36.037567],[-83.256067,36.037712],[-83.256146,36.037852],[-83.256219,36.038],[-83.260643,36.037662],[-83.261011,36.037626],[-83.260296,36.034856],[-83.26026,36.034566],[-83.259802,36.032813],[-83.251208,36.033508],[-83.251419,36.033693],[-83.252043,36.034219],[-83.252181,36.034083],[-83.252676,36.034318],[-83.252899,36.034486],[-83.25309,36.034661],[-83.253282,36.03488],[-83.253245,36.035041],[-83.253268,36.035075],[-83.254089,36.034816],[-83.254255,36.035042]]]}},{"type":"Feature","id":"47029:015023    00500","properties":{"id":"47029:015023    00500","parcelId":"015023    00500","countyFips":"47029","countyName":"Cocke","state":"Tennessee","marketIds":["Knoxville"],"situsAddress":"HWY 25E","situsCity":null,"situsZip":null,"jurisdictionCode":null,"ownerName":"RAY GLENN","ownerName2":null,"propertyName":null,"zoningCode":null,"zoningDistrict":null,"jurisdictionPrefix":null,"dorCode":null,"acreage":74.079,"centroid":[-83.251514,36.031846],"lastSale":{"date":"2021-08-19","price":18000.0,"qualified":null,"vintage":"2023"},"tax":{"marketValue":65600.0,"assessedValue":null,"taxableValue":null,"taxes":null,"vintage":"2023"},"mailingAddress":{"line1":null,"line2":null,"city":null,"state":null,"zip":null},"incomeTract":null,"incomeBlockGroup":null,"nearestRoad":null,"flu":null,"opportunityZone":null,"oz2Eligibility":null,"source":"tn-oir-public-use-47029","appraiserUrl":"https://assessment.cot.tn.gov/TPAD/Parcel/GIS?gislink=015023%20%20%20%2000500"},"geometry":{"type":"Polygon","coordinates":[[[-83.249453,36.030891],[-83.24946,36.030899],[-83.249442,36.030903],[-83.249451,36.030913],[-83.249566,36.031158],[-83.249766,36.031444],[-83.249865,36.031657],[-83.249672,36.031772],[-83.249841,36.032009],[-83.250008,36.032229],[-83.250196,36.032462],[-83.250381,36.032677],[-83.25057,36.032885],[-83.250782,36.033104],[-83.250985,36.033302],[-83.251208,36.033508],[-83.259802,36.032813],[-83.259401,36.031203],[-83.258923,36.029243],[-83.249453,36.030891]]]}},{"type":"Feature","id":"47029:015030    01902","properties":{"id":"47029:015030    01902","parcelId":"015030    01902","countyFips":"47029","countyName":"Cocke","state":"Tennessee","marketIds":["Knoxville"],"situsAddress":"HWY 25E 980","situsCity":null,"situsZip":null,"jurisdictionCode":null,"ownerName":"CUTSHAW STEPHAN B ETUX JENNIFER","ownerName2":null,"propertyName":null,"zoningCode":null,"zoningDistrict":null,"jurisdictionPrefix":null,"dorCode":null,"acreage":43.433,"centroid":[-83.253502,36.014361],"lastSale":{"date":"2014-05-16","price":null,"qualified":null,"vintage":"2023"},"tax":{"marketValue":85700.0,"assessedValue":null,"taxableValue":null,"taxes":null,"vintage":"2023"},"mailingAddress":{"line1":null,"line2":null,"city":null,"state":null,"zip":null},"incomeTract":null,"incomeBlockGroup":null,"nearestRoad":null,"flu":null,"opportunityZone":null,"oz2Eligibility":null,"source":"tn-oir-public-use-47029","appraiserUrl":"https://assessment.cot.tn.gov/TPAD/Parcel/GIS?gislink=015030%20%20%20%2001902"},"geometry":{"type":"MultiPolygon","coordinates":[[[[-83.254058,36.013315],[-83.24461,36.014904],[-83.244732,36.016259],[-83.255623,36.014589],[-83.255152,36.014449],[-83.255095,36.01443],[-83.255038,36.014405],[-83.254983,36.014377],[-83.254931,36.014345],[-83.254881,36.014307],[-83.254835,36.014266],[-83.254791,36.014217],[-83.254753,36.014168],[-83.254723,36.014118],[-83.254322,36.01327],[-83.254058,36.013315]]],[[[-83.244307,36.016239],[-83.243322,36.016437],[-83.243321,36.016476],[-83.244632,36.016275],[-83.244623,36.016176],[-83.244307,36.016239]]],[[[-83.23931,36.017137],[-83.238843,36.017614],[-83.239857,36.01796],[-83.240696,36.016878],[-83.243047,36.016518],[-83.24306,36.016227],[-83.242771,36.016249],[-83.242719,36.016125],[-83.242244,36.016208],[-83.241919,36.016218],[-83.241584,36.016175],[-83.241418,36.016123],[-83.241187,36.016215],[-83.241059,36.016287],[-83.240874,36.016313],[-83.240501,36.016437],[-83.240025,36.016704],[-83.239735,36.016213],[-83.23934,36.016332],[-83.23931,36.017137]]]]}},{"type":"Feature","id":"47029:015023    00100","properties":{"id":"47029:015023    00100","parcelId":"015023    00100","countyFips":"47029","countyName":"Cocke","state":"Tennessee","marketIds":["Knoxville"],"situsAddress":"HWY 25 E","situsCity":null,"situsZip":null,"jurisdictionCode":null,"ownerName":"RAY GLENN","ownerName2":null,"propertyName":null,"zoningCode":null,"zoningDistrict":null,"jurisdictionPrefix":null,"dorCode":null,"acreage":36.3361,"centroid":[-83.258288,36.039872],"lastSale":{"date":"2003-10-03","price":5000.0,"qualified":null,"vintage":"2023"},"tax":{"marketValue":8000.0,"assessedValue":null,"taxableValue":null,"taxes":null,"vintage":"2023"},"mailingAddress":{"line1":null,"line2":null,"city":null,"state":null,"zip":null},"incomeTract":null,"incomeBlockGroup":null,"nearestRoad":null,"flu":null,"opportunityZone":null,"oz2Eligibility":null,"source":"tn-oir-public-use-47029","appraiserUrl":"https://assessment.cot.tn.gov/TPAD/Parcel/GIS?gislink=015023%20%20%20%2000100"},"geometry":{"type":"Polygon","coordinates":[[[-83.256579,36.041205],[-83.256531,36.041395],[-83.257976,36.04252],[-83.258041,36.04248],[-83.258491,36.042149],[-83.258683,36.042],[-83.259092,36.041637],[-83.259354,36.041367],[-83.25948,36.041216],[-83.259948,36.040639],[-83.26016,36.040341],[-83.260267,36.040152],[-83.260349,36.03998],[-83.260453,36.039656],[-83.260479,36.039507],[-83.260507,36.039138],[-83.260513,36.038689],[-83.260491,36.038045],[-83.260484,36.037674],[-83.256219,36.038],[-83.256271,36.038123],[-83.256319,36.038253],[-83.256361,36.038388],[-83.256395,36.038521],[-83.256421,36.03865],[-83.256441,36.038789],[-83.256453,36.038919],[-83.256458,36.039058],[-83.256693,36.039056],[-83.256729,36.040607],[-83.256579,36.041205]]]}},{"type":"Feature","id":"47029:015023L A 10000","properties":{"id":"47029:015023L A 10000","parcelId":"015023L A 10000","countyFips":"47029","countyName":"Cocke","state":"Tennessee","marketIds":["Knoxville"],"situsAddress":"LAKESHORE WAY","situsCity":null,"situsZip":null,"jurisdictionCode":null,"ownerName":"EMERALD POINTE HOMEOWNERS ASSOCIATION","ownerName2":"% KEVIN MCKEE","propertyName":null,"zoningCode":null,"zoningDistrict":null,"jurisdictionPrefix":null,"dorCode":null,"acreage":23.777,"centroid":[-83.252928,36.041191],"lastSale":{"date":"2017-05-23","price":null,"qualified":null,"vintage":"2023"},"tax":{"marketValue":62800.0,"assessedValue":null,"taxableValue":null,"taxes":null,"vintage":"2023"},"mailingAddress":{"line1":null,"line2":null,"city":null,"state":null,"zip":null},"incomeTract":null,"incomeBlockGroup":null,"nearestRoad":null,"flu":null,"opportunityZone":null,"oz2Eligibility":null,"source":"tn-oir-public-use-47029","appraiserUrl":"https://assessment.cot.tn.gov/TPAD/Parcel/GIS?gislink=015023L%20A%2010000"},"geometry":{"type":"MultiPolygon","coordinates":[[[[-83.25364,36.043388],[-83.25394,36.043943],[-83.254599,36.043908],[-83.254929,36.043835],[-83.255063,36.042614],[-83.25469,36.042668],[-83.254097,36.043242],[-83.25325,36.042301],[-83.253233,36.041825],[-83.253201,36.041726],[-83.252859,36.041753],[-83.252839,36.041479],[-83.253163,36.041458],[-83.253074,36.040836],[-83.252669,36.040895],[-83.25257,36.040515],[-83.25263,36.039014],[-83.252729,36.039016],[-83.252728,36.038956],[-83.252659,36.038707],[-83.252984,36.038643],[-83.252905,36.038374],[-83.252602,36.038472],[-83.25246,36.038205],[-83.252278,36.038276],[-83.251992,36.039131],[-83.251983,36.039171],[-83.251827,36.04025],[-83.251825,36.040285],[-83.251828,36.04032],[-83.252104,36.041953],[-83.252118,36.042001],[-83.252369,36.042618],[-83.25239,36.042647],[-83.252425,36.042665],[-83.252475,36.04267],[-83.252518,36.04268],[-83.253104,36.042872],[-83.253456,36.04313],[-83.25364,36.043388]]],[[[-83.255875,36.038748],[-83.255794,36.038755],[-83.255698,36.038945],[-83.255887,36.039089],[-83.255923,36.039093],[-83.255957,36.039083],[-83.255975,36.039069],[-83.255986,36.039051],[-83.255977,36.039006],[-83.255965,36.038874],[-83.255945,36.038742],[-83.255875,36.038748]]],[[[-83.253402,36.038152],[-83.253504,36.038258],[-83.253607,36.038487],[-83.253447,36.038513],[-83.253511,36.038801],[-83.253515,36.039028],[-83.253449,36.040506],[-83.253464,36.040715],[-83.253519,36.041063],[-83.254007,36.040943],[-83.253994,36.040815],[-83.254004,36.040249],[-83.254,36.040153],[-83.253989,36.040057],[-83.25397,36.039961],[-83.253945,36.039867],[-83.253912,36.039774],[-83.253898,36.039691],[-83.253891,36.039607],[-83.253891,36.039523],[-83.253897,36.039439],[-83.25391,36.039356],[-83.25393,36.039273],[-83.253956,36.039192],[-83.254127,36.038789],[-83.254163,36.038746],[-83.254203,36.038706],[-83.254249,36.03867],[-83.254297,36.038639],[-83.254349,36.038612],[-83.254411,36.038587],[-83.254427,36.038584],[-83.254129,36.038086],[-83.254093,36.038107],[-83.254054,36.038122],[-83.254012,36.038132],[-83.253968,36.038136],[-83.253925,36.038134],[-83.253882,36.038126],[-83.253842,36.038112],[-83.253805,36.038092],[-83.253557,36.037935],[-83.253402,36.038152]]],[[[-83.254096,36.039377],[-83.254089,36.039476],[-83.254089,36.039575],[-83.254098,36.039674],[-83.254165,36.040021],[-83.25418,36.040147],[-83.254188,36.040273],[-83.254188,36.0404],[-83.254181,36.040536],[-83.254166,36.040671],[-83.254162,36.040756],[-83.254167,36.040841],[-83.25418,36.040926],[-83.2542,36.041009],[-83.254228,36.041092],[-83.254263,36.041172],[-83.254613,36.04176],[-83.254454,36.041008],[-83.254439,36.040903],[-83.254431,36.040797],[-83.25443,36.040691],[-83.254435,36.040585],[-83.254446,36.040479],[-83.254464,36.040374],[-83.254594,36.039894],[-83.254393,36.039859],[-83.254472,36.039521],[-83.254496,36.039525],[-83.254551,36.039256],[-83.255213,36.03937],[-83.255147,36.039646],[-83.255475,36.0397],[-83.255398,36.039961],[-83.255536,36.039987],[-83.255471,36.040256],[-83.255143,36.040204],[-83.255195,36.039985],[-83.255104,36.039971],[-83.254931,36.040565],[-83.254939,36.040767],[-83.254955,36.040851],[-83.25505,36.041196],[-83.255185,36.041502],[-83.255629,36.041466],[-83.255613,36.041252],[-83.25561,36.041079],[-83.255616,36.040906],[-83.25563,36.040734],[-83.255653,36.040562],[-83.255685,36.04039],[-83.255725,36.040221],[-83.255808,36.040235],[-83.255969,36.03961],[-83.256015,36.03939],[-83.255757,36.039587],[-83.255527,36.039377],[-83.25576,36.039181],[-83.255547,36.039005],[-83.25548,36.038956],[-83.255409,36.038913],[-83.255332,36.038875],[-83.255252,36.038843],[-83.255169,36.038816],[-83.254714,36.038719],[-83.25466,36.038712],[-83.254605,36.038711],[-83.254551,36.038716],[-83.254498,36.038727],[-83.254447,36.038744],[-83.2544,36.038766],[-83.254357,36.038794],[-83.254314,36.03883],[-83.254153,36.03912],[-83.254113,36.039269],[-83.254096,36.039377]]]]}},{"type":"Feature","id":"47029:015024    00200","properties":{"id":"47029:015024    00200","parcelId":"015024    00200","countyFips":"47029","countyName":"Cocke","state":"Tennessee","marketIds":["Knoxville"],"situsAddress":"THURMAN RD 104","situsCity":null,"situsZip":null,"jurisdictionCode":null,"ownerName":"DAWSON LUTHER J &","ownerName2":"RUTH MAE","propertyName":null,"zoningCode":null,"zoningDistrict":null,"jurisdictionPrefix":null,"dorCode":null,"acreage":17.6531,"centroid":[-83.250474,36.035705],"lastSale":{"date":null,"price":null,"qualified":null},"tax":{"marketValue":103000.0,"assessedValue":null,"taxableValue":null,"taxes":null,"vintage":"2023"},"mailingAddress":{"line1":null,"line2":null,"city":null,"state":null,"zip":null},"incomeTract":null,"incomeBlockGroup":null,"nearestRoad":null,"flu":null,"opportunityZone":null,"oz2Eligibility":null,"source":"tn-oir-public-use-47029","appraiserUrl":"https://assessment.cot.tn.gov/TPAD/Parcel/GIS?gislink=015024%20%20%20%2000200"},"geometry":{"type":"Polygon","coordinates":[[[-83.249471,36.036011],[-83.249453,36.036031],[-83.249189,36.036249],[-83.248984,36.036842],[-83.249057,36.037207],[-83.248922,36.037706],[-83.248666,36.03826],[-83.249723,36.03838],[-83.249677,36.038166],[-83.249728,36.0378],[-83.24979,36.037518],[-83.249899,36.037352],[-83.250266,36.037198],[-83.250817,36.036954],[-83.251198,36.036569],[-83.251636,36.036228],[-83.25215,36.035757],[-83.252931,36.035304],[-83.252002,36.034521],[-83.252014,36.034512],[-83.251534,36.034106],[-83.251463,36.03422],[-83.251432,36.034262],[-83.25138,36.034311],[-83.251319,36.034353],[-83.251242,36.03439],[-83.25116,36.034413],[-83.251074,36.034423],[-83.250951,36.034421],[-83.250884,36.034427],[-83.250804,36.034444],[-83.250723,36.034474],[-83.250666,36.034506],[-83.250231,36.034793],[-83.250088,36.0349],[-83.249961,36.03501],[-83.249888,36.03509],[-83.250183,36.035199],[-83.250152,36.035771],[-83.250005,36.035884],[-83.249701,36.035641],[-83.249506,36.035987],[-83.249471,36.036011]]]}},{"type":"Feature","id":"47029:015024    00113","properties":{"id":"47029:015024    00113","parcelId":"015024    00113","countyFips":"47029","countyName":"Cocke","state":"Tennessee","marketIds":["Knoxville"],"situsAddress":"EMERALD SPRINGS WAY","situsCity":null,"situsZip":null,"jurisdictionCode":null,"ownerName":"WOFFORD JEFFERSON B ETUX LINDA J","ownerName2":null,"propertyName":null,"zoningCode":null,"zoningDistrict":null,"jurisdictionPrefix":null,"dorCode":null,"acreage":8.5296,"centroid":[-83.251452,36.037612],"lastSale":{"date":"2015-12-07","price":null,"qualified":null,"vintage":"2023"},"tax":{"marketValue":63400.0,"assessedValue":null,"taxableValue":null,"taxes":null,"vintage":"2023"},"mailingAddress":{"line1":null,"line2":null,"city":null,"state":null,"zip":null},"incomeTract":null,"incomeBlockGroup":null,"nearestRoad":null,"flu":null,"opportunityZone":null,"oz2Eligibility":null,"source":"tn-oir-public-use-47029","appraiserUrl":"https://assessment.cot.tn.gov/TPAD/Parcel/GIS?gislink=015024%20%20%20%2000113"},"geometry":{"type":"Polygon","coordinates":[[[-83.250959,36.037856],[-83.251023,36.037856],[-83.251082,36.037861],[-83.251139,36.037872],[-83.251195,36.037889],[-83.251247,36.03791],[-83.251297,36.037937],[-83.251342,36.037968],[-83.251379,36.038006],[-83.25141,36.038049],[-83.251434,36.038094],[-83.25145,36.038142],[-83.251458,36.038191],[-83.251587,36.038582],[-83.251976,36.038595],[-83.252006,36.038495],[-83.252068,36.038255],[-83.252098,36.038177],[-83.252133,36.038101],[-83.252176,36.038027],[-83.252225,36.037956],[-83.252281,36.037887],[-83.252342,36.037821],[-83.252409,36.03776],[-83.252482,36.037702],[-83.252559,36.037648],[-83.252641,36.0376],[-83.252728,36.037556],[-83.252867,36.037498],[-83.252915,36.037475],[-83.252451,36.037038],[-83.252692,36.036648],[-83.252224,36.036451],[-83.25332,36.035784],[-83.253149,36.03564],[-83.253085,36.035673],[-83.253037,36.035626],[-83.252814,36.035769],[-83.252148,36.036164],[-83.251333,36.036915],[-83.251031,36.037183],[-83.25061,36.037336],[-83.250276,36.037194],[-83.250224,36.037216],[-83.250177,36.037306],[-83.250106,36.037508],[-83.250059,36.037685],[-83.25002,36.037862],[-83.249988,36.038041],[-83.249999,36.038084],[-83.250026,36.038124],[-83.250044,36.038141],[-83.2501,36.038152],[-83.250129,36.038153],[-83.250186,36.038144],[-83.250315,36.038065],[-83.250414,36.038014],[-83.250516,36.037969],[-83.250623,36.037931],[-83.250732,36.037899],[-83.250845,36.037874],[-83.250959,36.037856]]]}},{"type":"Feature","id":"47029:015037    00101","properties":{"id":"47029:015037    00101","parcelId":"015037    00101","countyFips":"47029","countyName":"Cocke","state":"Tennessee","marketIds":["Knoxville"],"situsAddress":"SUGAR VALLEY WAY 2780","situsCity":null,"situsZip":null,"jurisdictionCode":null,"ownerName":"D3 INVESTMENTS LLC","ownerName2":null,"propertyName":null,"zoningCode":null,"zoningDistrict":null,"jurisdictionPrefix":null,"dorCode":null,"acreage":7.2134,"centroid":[-83.275212,36.001026],"lastSale":{"date":"2019-06-24","price":null,"qualified":null,"vintage":"2023"},"tax":{"marketValue":395600.0,"assessedValue":null,"taxableValue":null,"taxes":null,"vintage":"2023"},"mailingAddress":{"line1":null,"line2":null,"city":null,"state":null,"zip":null},"incomeTract":null,"incomeBlockGroup":null,"nearestRoad":null,"flu":null,"opportunityZone":null,"oz2Eligibility":null,"source":"tn-oir-public-use-47029","appraiserUrl":"https://assessment.cot.tn.gov/TPAD/Parcel/GIS?gislink=015037%20%20%20%2000101"},"geometry":{"type":"Polygon","coordinates":[[[-83.273408,36.002037],[-83.27321,36.002233],[-83.276654,36.000776],[-83.277008,36.00043],[-83.275782,35.999652],[-83.273408,36.002037]]]}},{"type":"Feature","id":"47029:015037    00104","properties":{"id":"47029:015037    00104","parcelId":"015037    00104","countyFips":"47029","countyName":"Cocke","state":"Tennessee","marketIds":["Knoxville"],"situsAddress":"SUGAR VALLEY WAY 2784 2790","situsCity":null,"situsZip":null,"jurisdictionCode":null,"ownerName":"D3 INVESTMENTS LLC","ownerName2":null,"propertyName":null,"zoningCode":null,"zoningDistrict":null,"jurisdictionPrefix":null,"dorCode":null,"acreage":6.5442,"centroid":[-83.276106,36.001138],"lastSale":{"date":"2019-06-17","price":null,"qualified":null,"vintage":"2023"},"tax":{"marketValue":665400.0,"assessedValue":null,"taxableValue":null,"taxes":null,"vintage":"2023"},"mailingAddress":{"line1":null,"line2":null,"city":null,"state":null,"zip":null},"incomeTract":null,"incomeBlockGroup":null,"nearestRoad":null,"flu":null,"opportunityZone":null,"oz2Eligibility":null,"source":"tn-oir-public-use-47029","appraiserUrl":"https://assessment.cot.tn.gov/TPAD/Parcel/GIS?gislink=015037%20%20%20%2000104"},"geometry":{"type":"Polygon","coordinates":[[[-83.27321,36.002233],[-83.273613,36.00277],[-83.275863,36.00172],[-83.276027,36.001664],[-83.277869,36.000216],[-83.277943,35.999947],[-83.277673,35.99978],[-83.276654,36.000776],[-83.27321,36.002233]]]}},{"type":"Feature","id":"47029:015030    00601","properties":{"id":"47029:015030    00601","parcelId":"015030    00601","countyFips":"47029","countyName":"Cocke","state":"Tennessee","marketIds":["Knoxville"],"situsAddress":"HWY 25E","situsCity":null,"situsZip":null,"jurisdictionCode":null,"ownerName":"TUCKER MELVIN J AND BILLIE JO TUCKER","ownerName2":null,"propertyName":null,"zoningCode":null,"zoningDistrict":null,"jurisdictionPrefix":null,"dorCode":null,"acreage":6.1259,"centroid":[-83.254096,36.029952],"lastSale":{"date":"2009-08-19","price":null,"qualified":null,"vintage":"2023"},"tax":{"marketValue":15000.0,"assessedValue":null,"taxableValue":null,"taxes":null,"vintage":"2023"},"mailingAddress":{"line1":null,"line2":null,"city":null,"state":null,"zip":null},"incomeTract":null,"incomeBlockGroup":null,"nearestRoad":null,"flu":null,"opportunityZone":null,"oz2Eligibility":null,"source":"tn-oir-public-use-47029","appraiserUrl":"https://assessment.cot.tn.gov/TPAD/Parcel/GIS?gislink=015030%20%20%20%2000601"},"geometry":{"type":"Polygon","coordinates":[[[-83.249247,36.03066],[-83.249453,36.030891],[-83.258923,36.029243],[-83.25876,36.029015],[-83.249247,36.03066]]]}},{"type":"Feature","id":"47029:015024    00102","properties":{"id":"47029:015024    00102","parcelId":"015024    00102","countyFips":"47029","countyName":"Cocke","state":"Tennessee","marketIds":["Knoxville"],"situsAddress":"HEAVENLY VIEW WAY 1351","situsCity":null,"situsZip":null,"jurisdictionCode":null,"ownerName":"SHUTTERS KRAIG A ETUX KATLYN N","ownerName2":null,"propertyName":null,"zoningCode":null,"zoningDistrict":null,"jurisdictionPrefix":null,"dorCode":null,"acreage":6.0058,"centroid":[-83.250626,36.038161],"lastSale":{"date":"2020-06-29","price":369000.0,"qualified":null,"vintage":"2023"},"tax":{"marketValue":256500.0,"assessedValue":null,"taxableValue":null,"taxes":null,"vintage":"2023"},"mailingAddress":{"line1":null,"line2":null,"city":null,"state":null,"zip":null},"incomeTract":null,"incomeBlockGroup":null,"nearestRoad":null,"flu":null,"opportunityZone":null,"oz2Eligibility":null,"source":"tn-oir-public-use-47029","appraiserUrl":"https://assessment.cot.tn.gov/TPAD/Parcel/GIS?gislink=015024%20%20%20%2000102"},"geometry":{"type":"Polygon","coordinates":[[[-83.249723,36.03838],[-83.24981,36.038788],[-83.249709,36.0391],[-83.249665,36.039402],[-83.249697,36.039454],[-83.25076,36.039135],[-83.251179,36.038997],[-83.251638,36.038782],[-83.25179,36.038859],[-83.251873,36.038873],[-83.251976,36.038595],[-83.251587,36.038582],[-83.251458,36.038191],[-83.25145,36.038142],[-83.251434,36.038094],[-83.25141,36.038049],[-83.251379,36.038006],[-83.251342,36.037968],[-83.251297,36.037937],[-83.251247,36.03791],[-83.251195,36.037889],[-83.251139,36.037872],[-83.251082,36.037861],[-83.251023,36.037856],[-83.250959,36.037856],[-83.250845,36.037874],[-83.250732,36.037899],[-83.250623,36.037931],[-83.250516,36.037969],[-83.250414,36.038014],[-83.250315,36.038065],[-83.250186,36.038144],[-83.250129,36.038153],[-83.2501,36.038152],[-83.250044,36.038141],[-83.250026,36.038124],[-83.249999,36.038084],[-83.249988,36.038041],[-83.25002,36.037862],[-83.250059,36.037685],[-83.250106,36.037508],[-83.250177,36.037306],[-83.250224,36.037216],[-83.249899,36.037352],[-83.24979,36.037518],[-83.249728,36.0378],[-83.249677,36.038166],[-83.249723,36.03838]]]}}]}