{"type":"FeatureCollection","name":"37095-28_34","features":[{"type":"Feature","id":"37095:13983","properties":{"id":"37095:13983","parcelId":"13983","countyFips":"37095","countyName":"Hyde","state":"North Carolina","marketIds":["Wilmington"],"situsAddress":null,"situsCity":null,"situsZip":null,"jurisdictionCode":null,"ownerName":"CAHOON, ERIC KELLY","ownerName2":null,"propertyName":null,"zoningCode":null,"zoningDistrict":null,"jurisdictionPrefix":null,"dorCode":null,"acreage":108.0,"centroid":[-75.968132,35.541347],"lastSale":{"date":null,"price":null,"qualified":null},"tax":{"marketValue":615213.0,"assessedValue":null,"taxableValue":128484.0,"taxes":null},"mailingAddress":{"line1":"13256 N. LAKE RD, ENGELHARD NC 27824","line2":null,"city":null,"state":null,"zip":null},"incomeTract":null,"incomeBlockGroup":null,"nearestRoad":null,"flu":null,"opportunityZone":null,"oz2Eligibility":null,"source":"nc-hyde-parcels-37095","appraiserUrl":"https://dl.agd.cc/prc/nc/hyde/13983.pdf","gisViewerUrl":"https://experience.arcgis.com/experience/7d56b8f7909d453bbbf899299b53104d"},"geometry":{"type":"Polygon","coordinates":[[[-75.968499,35.538883],[-75.966711,35.54047],[-75.962198,35.544475],[-75.967754,35.545883],[-75.974678,35.539885],[-75.96895,35.538484],[-75.968499,35.538883]]]}},{"type":"Feature","id":"37095:14524","properties":{"id":"37095:14524","parcelId":"14524","countyFips":"37095","countyName":"Hyde","state":"North Carolina","marketIds":["Wilmington"],"situsAddress":null,"situsCity":null,"situsZip":null,"jurisdictionCode":null,"ownerName":"UNITED STATES OF AMERICA","ownerName2":null,"propertyName":null,"zoningCode":null,"zoningDistrict":null,"jurisdictionPrefix":null,"dorCode":null,"acreage":100.0,"centroid":[-75.907726,35.60522],"lastSale":{"date":null,"price":null,"qualified":null},"tax":{"marketValue":50000.0,"assessedValue":null,"taxableValue":null,"taxes":null},"mailingAddress":{"line1":"1875 CENTURY BLVD, ATLANTA GA 30345","line2":null,"city":null,"state":null,"zip":null},"incomeTract":null,"incomeBlockGroup":null,"nearestRoad":null,"flu":null,"opportunityZone":null,"oz2Eligibility":null,"source":"nc-hyde-parcels-37095","appraiserUrl":"https://dl.agd.cc/prc/nc/hyde/14524.pdf","gisViewerUrl":"https://experience.arcgis.com/experience/7d56b8f7909d453bbbf899299b53104d"},"geometry":{"type":"Polygon","coordinates":[[[-75.905969,35.604344],[-75.915816,35.60936],[-75.923583,35.611345],[-75.923777,35.609612],[-75.89772,35.60083],[-75.899641,35.602721],[-75.900732,35.602883],[-75.902742,35.60375],[-75.90396,35.604381],[-75.904902,35.604083],[-75.906147,35.60411],[-75.905969,35.604344]]]}},{"type":"Feature","id":"37095:14615","properties":{"id":"37095:14615","parcelId":"14615","countyFips":"37095","countyName":"Hyde","state":"North Carolina","marketIds":["Wilmington"],"situsAddress":null,"situsCity":null,"situsZip":null,"jurisdictionCode":null,"ownerName":"GOODWIN, JAMES DAVID","ownerName2":null,"propertyName":null,"zoningCode":null,"zoningDistrict":null,"jurisdictionPrefix":null,"dorCode":null,"acreage":5.0,"centroid":[-75.94735,35.556354],"lastSale":{"date":null,"price":null,"qualified":null},"tax":{"marketValue":8925.0,"assessedValue":null,"taxableValue":8925.0,"taxes":null},"mailingAddress":{"line1":"815 DAN RD, ROBBINS NC 27325","line2":null,"city":null,"state":null,"zip":null},"incomeTract":null,"incomeBlockGroup":null,"nearestRoad":null,"flu":null,"opportunityZone":null,"oz2Eligibility":null,"source":"nc-hyde-parcels-37095","appraiserUrl":"https://dl.agd.cc/prc/nc/hyde/14615.pdf","gisViewerUrl":"https://experience.arcgis.com/experience/7d56b8f7909d453bbbf899299b53104d"},"geometry":{"type":"Polygon","coordinates":[[[-75.945876,35.556647],[-75.947606,35.55714],[-75.948823,35.556061],[-75.947094,35.555568],[-75.945876,35.556647]]]}},{"type":"Feature","id":"37095:15020","properties":{"id":"37095:15020","parcelId":"15020","countyFips":"37095","countyName":"Hyde","state":"North Carolina","marketIds":["Wilmington"],"situsAddress":null,"situsCity":null,"situsZip":null,"jurisdictionCode":null,"ownerName":"5S, LLC","ownerName2":null,"propertyName":null,"zoningCode":null,"zoningDistrict":null,"jurisdictionPrefix":null,"dorCode":null,"acreage":96.0,"centroid":[-75.997528,35.579367],"lastSale":{"date":null,"price":null,"qualified":null},"tax":{"marketValue":67249.0,"assessedValue":null,"taxableValue":49476.0,"taxes":null},"mailingAddress":{"line1":"401 PATETOWN RD, GOLDSBORO NC 27530","line2":null,"city":null,"state":null,"zip":null},"incomeTract":null,"incomeBlockGroup":null,"nearestRoad":null,"flu":null,"opportunityZone":null,"oz2Eligibility":null,"source":"nc-hyde-parcels-37095","appraiserUrl":"https://dl.agd.cc/prc/nc/hyde/15020.pdf","gisViewerUrl":"https://experience.arcgis.com/experience/7d56b8f7909d453bbbf899299b53104d"},"geometry":{"type":"Polygon","coordinates":[[[-75.991713,35.583441],[-75.995128,35.584389],[-76.002998,35.575652],[-76.000273,35.573985],[-75.991713,35.583441]]]}},{"type":"Feature","id":"37095:6059","properties":{"id":"37095:6059","parcelId":"6059","countyFips":"37095","countyName":"Hyde","state":"North Carolina","marketIds":["Wilmington"],"situsAddress":null,"situsCity":null,"situsZip":null,"jurisdictionCode":null,"ownerName":"INNER BANKS MARINA, LLC","ownerName2":null,"propertyName":null,"zoningCode":null,"zoningDistrict":null,"jurisdictionPrefix":null,"dorCode":null,"acreage":8.0,"centroid":[-75.99007,35.509575],"lastSale":{"date":null,"price":null,"qualified":null},"tax":{"marketValue":579864.0,"assessedValue":null,"taxableValue":579864.0,"taxes":null},"mailingAddress":{"line1":"INNER BANKS MARINA, LLC, 1700 S. HAWTHORNE ROAD, WINSTON-SALEM NC 27103","line2":null,"city":null,"state":null,"zip":null},"incomeTract":null,"incomeBlockGroup":null,"nearestRoad":null,"flu":null,"opportunityZone":null,"oz2Eligibility":null,"source":"nc-hyde-parcels-37095","appraiserUrl":"https://dl.agd.cc/prc/nc/hyde/6059.pdf","gisViewerUrl":"https://experience.arcgis.com/experience/7d56b8f7909d453bbbf899299b53104d"},"geometry":{"type":"Polygon","coordinates":[[[-75.988735,35.509562],[-75.988781,35.509592],[-75.989263,35.509909],[-75.98908,35.510156],[-75.990902,35.510862],[-75.991691,35.509481],[-75.991154,35.509256],[-75.990726,35.509494],[-75.990466,35.509403],[-75.990337,35.509286],[-75.990382,35.509254],[-75.990056,35.508931],[-75.989342,35.50929],[-75.988735,35.509562]]]}},{"type":"Feature","id":"37095:6531","properties":{"id":"37095:6531","parcelId":"6531","countyFips":"37095","countyName":"Hyde","state":"North Carolina","marketIds":["Wilmington"],"situsAddress":null,"situsCity":null,"situsZip":null,"jurisdictionCode":null,"ownerName":"WILLIAMS, BONNIE","ownerName2":null,"propertyName":null,"zoningCode":null,"zoningDistrict":null,"jurisdictionPrefix":null,"dorCode":null,"acreage":6.0,"centroid":[-75.993007,35.511239],"lastSale":{"date":null,"price":null,"qualified":null},"tax":{"marketValue":26547.0,"assessedValue":null,"taxableValue":26547.0,"taxes":null},"mailingAddress":{"line1":"MICHAEL DAVIS WILLIAMS, 609 RAVENSTONE DR, CHESAPEAKE VA 23322","line2":null,"city":null,"state":null,"zip":null},"incomeTract":null,"incomeBlockGroup":null,"nearestRoad":null,"flu":null,"opportunityZone":null,"oz2Eligibility":null,"source":"nc-hyde-parcels-37095","appraiserUrl":"https://dl.agd.cc/prc/nc/hyde/6531.pdf","gisViewerUrl":"https://experience.arcgis.com/experience/7d56b8f7909d453bbbf899299b53104d"},"geometry":{"type":"Polygon","coordinates":[[[-75.990902,35.510862],[-75.991155,35.510959],[-75.994228,35.512132],[-75.994534,35.511659],[-75.994379,35.511591],[-75.994512,35.511376],[-75.991341,35.510095],[-75.990902,35.510862]]]}},{"type":"Feature","id":"37095:6248","properties":{"id":"37095:6248","parcelId":"6248","countyFips":"37095","countyName":"Hyde","state":"North Carolina","marketIds":["Wilmington"],"situsAddress":null,"situsCity":null,"situsZip":null,"jurisdictionCode":null,"ownerName":"GIBBS DEVELOPMENT PROPERTIES","ownerName2":null,"propertyName":null,"zoningCode":null,"zoningDistrict":null,"jurisdictionPrefix":null,"dorCode":null,"acreage":16.0,"centroid":[-75.988758,35.512811],"lastSale":{"date":null,"price":null,"qualified":null},"tax":{"marketValue":68000.0,"assessedValue":null,"taxableValue":68000.0,"taxes":null},"mailingAddress":{"line1":"P O BOX 39, ENGELHARD NC 27824","line2":null,"city":null,"state":null,"zip":null},"incomeTract":null,"incomeBlockGroup":null,"nearestRoad":null,"flu":null,"opportunityZone":null,"oz2Eligibility":null,"source":"nc-hyde-parcels-37095","appraiserUrl":"https://dl.agd.cc/prc/nc/hyde/6248.pdf","gisViewerUrl":"https://experience.arcgis.com/experience/7d56b8f7909d453bbbf899299b53104d"},"geometry":{"type":"Polygon","coordinates":[[[-75.99181,35.515413],[-75.991824,35.515418],[-75.991987,35.515477],[-75.992751,35.514425],[-75.993451,35.513334],[-75.990268,35.512121],[-75.987705,35.511121],[-75.987676,35.511144],[-75.987478,35.51109],[-75.9874,35.511121],[-75.987364,35.511169],[-75.987378,35.511174],[-75.987368,35.51143],[-75.987381,35.511552],[-75.987433,35.511575],[-75.987446,35.511605],[-75.98746,35.511856],[-75.987487,35.511879],[-75.987472,35.511921],[-75.987639,35.511988],[-75.987755,35.511975],[-75.98784,35.511986],[-75.987916,35.51202],[-75.987944,35.51208],[-75.987934,35.512119],[-75.987959,35.512183],[-75.987914,35.512234],[-75.987943,35.512274],[-75.987919,35.51234],[-75.987949,35.512393],[-75.987909,35.512422],[-75.987904,35.512464],[-75.987959,35.512594],[-75.988012,35.512634],[-75.987965,35.51268],[-75.987978,35.512759],[-75.987965,35.512808],[-75.988018,35.512792],[-75.989879,35.513499],[-75.989439,35.514353],[-75.989773,35.514489],[-75.989902,35.514566],[-75.990051,35.514622],[-75.990074,35.51465],[-75.990144,35.514665],[-75.990491,35.514822],[-75.990518,35.514855],[-75.990545,35.514844],[-75.99181,35.515413]]]}},{"type":"Feature","id":"37095:6276","properties":{"id":"37095:6276","parcelId":"6276","countyFips":"37095","countyName":"Hyde","state":"North Carolina","marketIds":["Wilmington"],"situsAddress":null,"situsCity":null,"situsZip":null,"jurisdictionCode":null,"ownerName":"GIBBS DEVELOPMENT PROPERTIES","ownerName2":null,"propertyName":null,"zoningCode":null,"zoningDistrict":null,"jurisdictionPrefix":null,"dorCode":null,"acreage":6.0,"centroid":[-75.994642,35.515164],"lastSale":{"date":null,"price":null,"qualified":null},"tax":{"marketValue":43754.0,"assessedValue":null,"taxableValue":43754.0,"taxes":null},"mailingAddress":{"line1":"P O BOX 39, ENGELHARD NC 27824","line2":null,"city":null,"state":null,"zip":null},"incomeTract":null,"incomeBlockGroup":null,"nearestRoad":null,"flu":null,"opportunityZone":null,"oz2Eligibility":null,"source":"nc-hyde-parcels-37095","appraiserUrl":"https://dl.agd.cc/prc/nc/hyde/6276.pdf","gisViewerUrl":"https://experience.arcgis.com/experience/7d56b8f7909d453bbbf899299b53104d"},"geometry":{"type":"Polygon","coordinates":[[[-75.993007,35.515773],[-75.993365,35.515935],[-75.995235,35.51675],[-75.995815,35.515551],[-75.994932,35.515195],[-75.995205,35.514691],[-75.994896,35.514564],[-75.995103,35.514189],[-75.994221,35.513824],[-75.993007,35.515773]]]}},{"type":"Feature","id":"37095:6368","properties":{"id":"37095:6368","parcelId":"6368","countyFips":"37095","countyName":"Hyde","state":"North Carolina","marketIds":["Wilmington"],"situsAddress":null,"situsCity":null,"situsZip":null,"jurisdictionCode":null,"ownerName":"HARRIS, CHRIS","ownerName2":null,"propertyName":null,"zoningCode":null,"zoningDistrict":null,"jurisdictionPrefix":null,"dorCode":null,"acreage":14.0,"centroid":[-75.99834,35.517166],"lastSale":{"date":null,"price":null,"qualified":null},"tax":{"marketValue":3636.0,"assessedValue":null,"taxableValue":2770.0,"taxes":null},"mailingAddress":{"line1":"565 SWAMP RD., ENGELHARD NC 27824","line2":null,"city":null,"state":null,"zip":null},"incomeTract":null,"incomeBlockGroup":null,"nearestRoad":null,"flu":null,"opportunityZone":null,"oz2Eligibility":null,"source":"nc-hyde-parcels-37095","appraiserUrl":"https://dl.agd.cc/prc/nc/hyde/6368.pdf","gisViewerUrl":"https://experience.arcgis.com/experience/7d56b8f7909d453bbbf899299b53104d"},"geometry":{"type":"Polygon","coordinates":[[[-75.998911,35.51806],[-75.999411,35.517338],[-76.0003,35.517691],[-76.000397,35.517543],[-75.995785,35.515613],[-75.995235,35.51675],[-75.998911,35.51806]]]}},{"type":"Feature","id":"37095:5266","properties":{"id":"37095:5266","parcelId":"5266","countyFips":"37095","countyName":"Hyde","state":"North Carolina","marketIds":["Wilmington"],"situsAddress":null,"situsCity":null,"situsZip":null,"jurisdictionCode":null,"ownerName":"BOYLE, JOSEPH H.","ownerName2":null,"propertyName":null,"zoningCode":null,"zoningDistrict":null,"jurisdictionPrefix":null,"dorCode":null,"acreage":46.0,"centroid":[-75.992502,35.5187],"lastSale":{"date":null,"price":null,"qualified":null},"tax":{"marketValue":14041.0,"assessedValue":null,"taxableValue":14041.0,"taxes":null},"mailingAddress":{"line1":"740 SPRUCE MOUNTAIN RD, COLUMBIA FALLS MT 59912","line2":null,"city":null,"state":null,"zip":null},"incomeTract":null,"incomeBlockGroup":null,"nearestRoad":null,"flu":null,"opportunityZone":null,"oz2Eligibility":null,"source":"nc-hyde-parcels-37095","appraiserUrl":"https://dl.agd.cc/prc/nc/hyde/5266.pdf","gisViewerUrl":"https://experience.arcgis.com/experience/7d56b8f7909d453bbbf899299b53104d"},"geometry":{"type":"Polygon","coordinates":[[[-75.990887,35.517241],[-75.990171,35.518192],[-75.989165,35.519493],[-75.995586,35.521471],[-75.998264,35.519905],[-75.992074,35.517997],[-75.99137,35.516603],[-75.990887,35.517241]]]}},{"type":"Feature","id":"37095:6222","properties":{"id":"37095:6222","parcelId":"6222","countyFips":"37095","countyName":"Hyde","state":"North Carolina","marketIds":["Wilmington"],"situsAddress":null,"situsCity":null,"situsZip":null,"jurisdictionCode":null,"ownerName":"DAUGHTRY, DEBBIE C.","ownerName2":null,"propertyName":null,"zoningCode":null,"zoningDistrict":null,"jurisdictionPrefix":null,"dorCode":null,"acreage":35.0,"centroid":[-75.997652,35.520856],"lastSale":{"date":null,"price":null,"qualified":null},"tax":{"marketValue":93963.0,"assessedValue":null,"taxableValue":38062.0,"taxes":null},"mailingAddress":{"line1":"P.O. BOX 383, ENGELHARD NC 27824","line2":null,"city":null,"state":null,"zip":null},"incomeTract":null,"incomeBlockGroup":null,"nearestRoad":null,"flu":null,"opportunityZone":null,"oz2Eligibility":null,"source":"nc-hyde-parcels-37095","appraiserUrl":"https://dl.agd.cc/prc/nc/hyde/6222.pdf","gisViewerUrl":"https://experience.arcgis.com/experience/7d56b8f7909d453bbbf899299b53104d"},"geometry":{"type":"Polygon","coordinates":[[[-75.995586,35.521471],[-75.993407,35.522746],[-75.995484,35.5236],[-76.002335,35.519544],[-76.000232,35.518792],[-75.998254,35.519931],[-75.998264,35.519905],[-75.995586,35.521471]]]}},{"type":"Feature","id":"37095:6602","properties":{"id":"37095:6602","parcelId":"6602","countyFips":"37095","countyName":"Hyde","state":"North Carolina","marketIds":["Wilmington"],"situsAddress":null,"situsCity":null,"situsZip":null,"jurisdictionCode":null,"ownerName":"DAUGHTRY, DEBBIE C.","ownerName2":null,"propertyName":null,"zoningCode":null,"zoningDistrict":null,"jurisdictionPrefix":null,"dorCode":null,"acreage":34.0,"centroid":[-75.999689,35.52212],"lastSale":{"date":null,"price":null,"qualified":null},"tax":{"marketValue":82788.0,"assessedValue":null,"taxableValue":34334.0,"taxes":null},"mailingAddress":{"line1":"P.O. BOX 383, ENGELHARD NC 27824","line2":null,"city":null,"state":null,"zip":null},"incomeTract":null,"incomeBlockGroup":null,"nearestRoad":null,"flu":null,"opportunityZone":null,"oz2Eligibility":null,"source":"nc-hyde-parcels-37095","appraiserUrl":"https://dl.agd.cc/prc/nc/hyde/6602.pdf","gisViewerUrl":"https://experience.arcgis.com/experience/7d56b8f7909d453bbbf899299b53104d"},"geometry":{"type":"Polygon","coordinates":[[[-75.995484,35.5236],[-75.997383,35.524396],[-76.004007,35.520673],[-76.00188,35.519813],[-75.995484,35.5236]]]}},{"type":"Feature","id":"37095:5265","properties":{"id":"37095:5265","parcelId":"5265","countyFips":"37095","countyName":"Hyde","state":"North Carolina","marketIds":["Wilmington"],"situsAddress":null,"situsCity":null,"situsZip":null,"jurisdictionCode":null,"ownerName":"DAUGHTRY, DEBBIE C.","ownerName2":null,"propertyName":null,"zoningCode":null,"zoningDistrict":null,"jurisdictionPrefix":null,"dorCode":null,"acreage":125.0,"centroid":[-75.997982,35.526717],"lastSale":{"date":null,"price":null,"qualified":null},"tax":{"marketValue":338864.0,"assessedValue":null,"taxableValue":201641.0,"taxes":null},"mailingAddress":{"line1":"P.O. BOX 383, ENGELHARD NC 27824","line2":null,"city":null,"state":null,"zip":null},"incomeTract":null,"incomeBlockGroup":null,"nearestRoad":null,"flu":null,"opportunityZone":null,"oz2Eligibility":null,"source":"nc-hyde-parcels-37095","appraiserUrl":"https://dl.agd.cc/prc/nc/hyde/5265.pdf","gisViewerUrl":"https://experience.arcgis.com/experience/7d56b8f7909d453bbbf899299b53104d"},"geometry":{"type":"MultiPolygon","coordinates":[[[[-75.996349,35.528226],[-75.996755,35.528281],[-75.996821,35.528232],[-75.996843,35.528229],[-75.996865,35.528262],[-76.006837,35.522639],[-76.005152,35.520767],[-75.992687,35.527879],[-75.993527,35.527942],[-75.996349,35.528226]]],[[[-75.988589,35.530217],[-75.991041,35.53155],[-75.996603,35.528409],[-75.99641,35.528417],[-75.996191,35.528357],[-75.99595,35.528363],[-75.995823,35.528334],[-75.995729,35.528346],[-75.995673,35.528328],[-75.995608,35.528345],[-75.995193,35.528282],[-75.995142,35.528301],[-75.995095,35.52827],[-75.995008,35.528264],[-75.994926,35.528217],[-75.994843,35.52827],[-75.994743,35.528233],[-75.994672,35.528248],[-75.994524,35.528217],[-75.994335,35.528216],[-75.994314,35.528197],[-75.994292,35.528218],[-75.994206,35.528186],[-75.994196,35.52821],[-75.994174,35.528208],[-75.993916,35.528148],[-75.99385,35.528169],[-75.993723,35.528117],[-75.993685,35.528126],[-75.993684,35.528173],[-75.993602,35.528107],[-75.99351,35.528159],[-75.993349,35.52809],[-75.993275,35.528114],[-75.993247,35.528098],[-75.992964,35.528076],[-75.992893,35.528088],[-75.992825,35.528049],[-75.992603,35.528055],[-75.992552,35.528024],[-75.992472,35.528012],[-75.988589,35.530217]]]]}},{"type":"Feature","id":"37095:5320","properties":{"id":"37095:5320","parcelId":"5320","countyFips":"37095","countyName":"Hyde","state":"North Carolina","marketIds":["Wilmington"],"situsAddress":null,"situsCity":null,"situsZip":null,"jurisdictionCode":null,"ownerName":"CAHOON, ERIC KELLY","ownerName2":null,"propertyName":null,"zoningCode":null,"zoningDistrict":null,"jurisdictionPrefix":null,"dorCode":null,"acreage":10.0,"centroid":[-75.972246,35.538981],"lastSale":{"date":null,"price":null,"qualified":null},"tax":{"marketValue":40689.0,"assessedValue":null,"taxableValue":40689.0,"taxes":null},"mailingAddress":{"line1":"13256 NORTH LAKE RD, ENGELHARD NC 27824","line2":null,"city":null,"state":null,"zip":null},"incomeTract":null,"incomeBlockGroup":null,"nearestRoad":null,"flu":null,"opportunityZone":null,"oz2Eligibility":null,"source":"nc-hyde-parcels-37095","appraiserUrl":"https://dl.agd.cc/prc/nc/hyde/5320.pdf","gisViewerUrl":"https://experience.arcgis.com/experience/7d56b8f7909d453bbbf899299b53104d"},"geometry":{"type":"Polygon","coordinates":[[[-75.96895,35.538484],[-75.974678,35.539885],[-75.975311,35.54004],[-75.970044,35.537515],[-75.96895,35.538484]]]}},{"type":"Feature","id":"37095:6271","properties":{"id":"37095:6271","parcelId":"6271","countyFips":"37095","countyName":"Hyde","state":"North Carolina","marketIds":["Wilmington"],"situsAddress":null,"situsCity":null,"situsZip":null,"jurisdictionCode":null,"ownerName":"GIBBS DEVELOPMENT PROPERTIES","ownerName2":null,"propertyName":null,"zoningCode":null,"zoningDistrict":null,"jurisdictionPrefix":null,"dorCode":null,"acreage":93.0,"centroid":[-75.988091,35.524498],"lastSale":{"date":null,"price":null,"qualified":null},"tax":{"marketValue":31600.0,"assessedValue":null,"taxableValue":31600.0,"taxes":null},"mailingAddress":{"line1":"P O BOX 39, ENGELHARD NC 27824","line2":null,"city":null,"state":null,"zip":null},"incomeTract":null,"incomeBlockGroup":null,"nearestRoad":null,"flu":null,"opportunityZone":null,"oz2Eligibility":null,"source":"nc-hyde-parcels-37095","appraiserUrl":"https://dl.agd.cc/prc/nc/hyde/6271.pdf","gisViewerUrl":"https://experience.arcgis.com/experience/7d56b8f7909d453bbbf899299b53104d"},"geometry":{"type":"Polygon","coordinates":[[[-75.982355,35.526606],[-75.982412,35.526634],[-75.982907,35.526831],[-75.983425,35.526963],[-75.98408,35.52706],[-75.987807,35.527409],[-75.988939,35.52754],[-75.989433,35.527568],[-75.991494,35.527756],[-75.997383,35.524396],[-75.993407,35.522746],[-75.995586,35.521471],[-75.989165,35.519493],[-75.988148,35.520804],[-75.989192,35.521255],[-75.988388,35.522611],[-75.987096,35.52214],[-75.986558,35.522783],[-75.985963,35.523388],[-75.982355,35.526606]]]}},{"type":"Feature","id":"37095:14260","properties":{"id":"37095:14260","parcelId":"14260","countyFips":"37095","countyName":"Hyde","state":"North Carolina","marketIds":["Wilmington"],"situsAddress":null,"situsCity":null,"situsZip":null,"jurisdictionCode":null,"ownerName":"MEEKINS LANDING LLC","ownerName2":null,"propertyName":null,"zoningCode":null,"zoningDistrict":null,"jurisdictionPrefix":null,"dorCode":null,"acreage":19.0,"centroid":[-75.98982,35.511239],"lastSale":{"date":null,"price":null,"qualified":null},"tax":{"marketValue":null,"assessedValue":null,"taxableValue":880942.0,"taxes":null},"mailingAddress":{"line1":"LOT 2A 6.116 AC\"","line2":null,"city":null,"state":null,"zip":null},"incomeTract":null,"incomeBlockGroup":null,"nearestRoad":null,"flu":null,"opportunityZone":null,"oz2Eligibility":null,"source":"nc-hyde-parcels-37095","appraiserUrl":"https://dl.agd.cc/prc/nc/hyde/14260.pdf","gisViewerUrl":"https://experience.arcgis.com/experience/7d56b8f7909d453bbbf899299b53104d"},"geometry":{"type":"Polygon","coordinates":[[[-75.992553,35.512992],[-75.992568,35.512968],[-75.993006,35.512287],[-75.993905,35.512629],[-75.993999,35.512484],[-75.993362,35.51224],[-75.993588,35.511888],[-75.988543,35.509948],[-75.988455,35.50995],[-75.988311,35.510022],[-75.988184,35.510192],[-75.988113,35.510237],[-75.9881,35.51029],[-75.987727,35.51065],[-75.987712,35.510824],[-75.987603,35.510959],[-75.987602,35.510989],[-75.987649,35.511044],[-75.98771,35.51107],[-75.987705,35.511121],[-75.992553,35.512992]]]}},{"type":"Feature","id":"37095:5429","properties":{"id":"37095:5429","parcelId":"5429","countyFips":"37095","countyName":"Hyde","state":"North Carolina","marketIds":["Wilmington"],"situsAddress":null,"situsCity":null,"situsZip":null,"jurisdictionCode":null,"ownerName":"COX  HEIRS, OTIS","ownerName2":null,"propertyName":null,"zoningCode":null,"zoningDistrict":null,"jurisdictionPrefix":null,"dorCode":null,"acreage":6.0,"centroid":[-75.988005,35.521634],"lastSale":{"date":null,"price":null,"qualified":null},"tax":{"marketValue":1250.0,"assessedValue":null,"taxableValue":1250.0,"taxes":null},"mailingAddress":{"line1":"JIMMIE L. COX, 564 EAST MAIN ST, BELHAVEN NC 27810","line2":null,"city":null,"state":null,"zip":null},"incomeTract":null,"incomeBlockGroup":null,"nearestRoad":null,"flu":null,"opportunityZone":null,"oz2Eligibility":null,"source":"nc-hyde-parcels-37095","appraiserUrl":"https://dl.agd.cc/prc/nc/hyde/5429.pdf","gisViewerUrl":"https://experience.arcgis.com/experience/7d56b8f7909d453bbbf899299b53104d"},"geometry":{"type":"Polygon","coordinates":[[[-75.987985,35.521013],[-75.98722,35.521984],[-75.987096,35.52214],[-75.988388,35.522611],[-75.989192,35.521255],[-75.988148,35.520804],[-75.987985,35.521013]]]}},{"type":"Feature","id":"37095:5924","properties":{"id":"37095:5924","parcelId":"5924","countyFips":"37095","countyName":"Hyde","state":"North Carolina","marketIds":["Wilmington"],"situsAddress":null,"situsCity":null,"situsZip":null,"jurisdictionCode":null,"ownerName":"FAR CREEK, LLC","ownerName2":null,"propertyName":null,"zoningCode":null,"zoningDistrict":null,"jurisdictionPrefix":null,"dorCode":null,"acreage":53.0,"centroid":[-75.990636,35.506939],"lastSale":{"date":null,"price":null,"qualified":null},"tax":{"marketValue":264889.0,"assessedValue":null,"taxableValue":264889.0,"taxes":null},"mailingAddress":{"line1":"P O BOX 190, ENGELHARD NC 27824","line2":null,"city":null,"state":null,"zip":null},"incomeTract":null,"incomeBlockGroup":null,"nearestRoad":null,"flu":null,"opportunityZone":null,"oz2Eligibility":null,"source":"nc-hyde-parcels-37095","appraiserUrl":"https://dl.agd.cc/prc/nc/hyde/5924.pdf","gisViewerUrl":"https://experience.arcgis.com/experience/7d56b8f7909d453bbbf899299b53104d"},"geometry":{"type":"Polygon","coordinates":[[[-75.988637,35.508369],[-75.988891,35.508775],[-75.988936,35.508847],[-75.989317,35.508842],[-75.989616,35.508635],[-75.990161,35.508351],[-75.991005,35.508262],[-75.991461,35.508254],[-75.992403,35.506909],[-75.992695,35.507046],[-75.992778,35.506927],[-75.993035,35.506892],[-75.992246,35.508143],[-75.992474,35.508219],[-75.993276,35.50695],[-75.993306,35.50693],[-75.993228,35.506861],[-75.993161,35.506731],[-75.993162,35.50659],[-75.993223,35.506464],[-75.993457,35.50619],[-75.994692,35.504909],[-75.994304,35.504667],[-75.994587,35.504335],[-75.988242,35.504057],[-75.988154,35.505118],[-75.988006,35.505522],[-75.988024,35.505855],[-75.988124,35.506128],[-75.988176,35.506331],[-75.988185,35.506551],[-75.988304,35.506764],[-75.988326,35.50693],[-75.988506,35.506974],[-75.988541,35.507116],[-75.988487,35.50722],[-75.98851,35.507292],[-75.988721,35.507619],[-75.988443,35.508058],[-75.988637,35.508369]]]}},{"type":"Feature","id":"37095:4757","properties":{"id":"37095:4757","parcelId":"4757","countyFips":"37095","countyName":"Hyde","state":"North Carolina","marketIds":["Wilmington"],"situsAddress":null,"situsCity":null,"situsZip":null,"jurisdictionCode":null,"ownerName":"PUGH, DIANNE H.","ownerName2":null,"propertyName":null,"zoningCode":null,"zoningDistrict":null,"jurisdictionPrefix":null,"dorCode":null,"acreage":49.0,"centroid":[-75.997351,35.502914],"lastSale":{"date":null,"price":null,"qualified":null},"tax":{"marketValue":71646.0,"assessedValue":null,"taxableValue":40227.0,"taxes":null},"mailingAddress":{"line1":"32 NEBRASKA RD, ENGELHARD NC 27824","line2":null,"city":null,"state":null,"zip":null},"incomeTract":null,"incomeBlockGroup":null,"nearestRoad":null,"flu":null,"opportunityZone":null,"oz2Eligibility":null,"source":"nc-hyde-parcels-37095","appraiserUrl":"https://dl.agd.cc/prc/nc/hyde/4757.pdf","gisViewerUrl":"https://experience.arcgis.com/experience/7d56b8f7909d453bbbf899299b53104d"},"geometry":{"type":"Polygon","coordinates":[[[-75.997759,35.498364],[-75.997763,35.498515],[-75.997799,35.499327],[-75.997737,35.49995],[-75.997463,35.50143],[-75.997247,35.502189],[-75.99708,35.502636],[-75.996873,35.502928],[-75.993615,35.506293],[-75.993433,35.506494],[-75.993359,35.506628],[-75.993357,35.506688],[-75.993379,35.506747],[-75.993486,35.50683],[-75.99579,35.50768],[-76.001344,35.498148],[-75.999104,35.498172],[-75.999005,35.498366],[-75.997759,35.498364]]]}},{"type":"Feature","id":"37095:5519","properties":{"id":"37095:5519","parcelId":"5519","countyFips":"37095","countyName":"Hyde","state":"North Carolina","marketIds":["Wilmington"],"situsAddress":null,"situsCity":null,"situsZip":null,"jurisdictionCode":null,"ownerName":"SELBY, SHERWOOD J. HEIRS","ownerName2":null,"propertyName":null,"zoningCode":null,"zoningDistrict":null,"jurisdictionPrefix":null,"dorCode":null,"acreage":20.0,"centroid":[-75.998755,35.504872],"lastSale":{"date":null,"price":null,"qualified":null},"tax":{"marketValue":19000.0,"assessedValue":null,"taxableValue":16225.0,"taxes":null},"mailingAddress":{"line1":"VIOLA WILLIAMS, 21811 US HWY 264, SWAN QUARTER NC 27885","line2":null,"city":null,"state":null,"zip":null},"incomeTract":null,"incomeBlockGroup":null,"nearestRoad":null,"flu":null,"opportunityZone":null,"oz2Eligibility":null,"source":"nc-hyde-parcels-37095","appraiserUrl":"https://dl.agd.cc/prc/nc/hyde/5519.pdf","gisViewerUrl":"https://experience.arcgis.com/experience/7d56b8f7909d453bbbf899299b53104d"},"geometry":{"type":"Polygon","coordinates":[[[-75.997076,35.507193],[-75.997087,35.507195],[-75.998032,35.507376],[-75.998759,35.506019],[-76.002389,35.499566],[-76.001411,35.499305],[-75.997854,35.505817],[-75.997429,35.506501],[-75.997076,35.507193]]]}},{"type":"Feature","id":"37095:5601","properties":{"id":"37095:5601","parcelId":"5601","countyFips":"37095","countyName":"Hyde","state":"North Carolina","marketIds":["Wilmington"],"situsAddress":null,"situsCity":null,"situsZip":null,"jurisdictionCode":null,"ownerName":"LAKESIDE ORGANICS, LLC","ownerName2":null,"propertyName":null,"zoningCode":null,"zoningDistrict":null,"jurisdictionPrefix":null,"dorCode":null,"acreage":15.0,"centroid":[-75.998804,35.503095],"lastSale":{"date":null,"price":null,"qualified":null},"tax":{"marketValue":14885.0,"assessedValue":null,"taxableValue":12845.0,"taxes":null},"mailingAddress":{"line1":"PO BOX 39, FAIRFEILD NC 27826","line2":null,"city":null,"state":null,"zip":null},"incomeTract":null,"incomeBlockGroup":null,"nearestRoad":null,"flu":null,"opportunityZone":null,"oz2Eligibility":null,"source":"nc-hyde-parcels-37095","appraiserUrl":"https://dl.agd.cc/prc/nc/hyde/5601.pdf","gisViewerUrl":"https://experience.arcgis.com/experience/7d56b8f7909d453bbbf899299b53104d"},"geometry":{"type":"Polygon","coordinates":[[[-75.99701,35.505584],[-75.996979,35.505637],[-75.997854,35.505817],[-76.001411,35.499305],[-76.000765,35.499132],[-75.99701,35.505584]]]}},{"type":"Feature","id":"37095:6245","properties":{"id":"37095:6245","parcelId":"6245","countyFips":"37095","countyName":"Hyde","state":"North Carolina","marketIds":["Wilmington"],"situsAddress":null,"situsCity":null,"situsZip":null,"jurisdictionCode":null,"ownerName":"GIBBS DEVELOPMENT PROPERTIES","ownerName2":null,"propertyName":null,"zoningCode":null,"zoningDistrict":null,"jurisdictionPrefix":null,"dorCode":null,"acreage":75.0,"centroid":[-75.977245,35.507424],"lastSale":{"date":null,"price":null,"qualified":null},"tax":{"marketValue":78000.0,"assessedValue":null,"taxableValue":78000.0,"taxes":null},"mailingAddress":{"line1":"P O BOX 39, ENGELHARD NC 27824","line2":null,"city":null,"state":null,"zip":null},"incomeTract":null,"incomeBlockGroup":null,"nearestRoad":null,"flu":null,"opportunityZone":null,"oz2Eligibility":null,"source":"nc-hyde-parcels-37095","appraiserUrl":"https://dl.agd.cc/prc/nc/hyde/6245.pdf","gisViewerUrl":"https://experience.arcgis.com/experience/7d56b8f7909d453bbbf899299b53104d"},"geometry":{"type":"Polygon","coordinates":[[[-75.984454,35.510381],[-75.98446,35.510381],[-75.984502,35.510371],[-75.984622,35.510281],[-75.984677,35.510298],[-75.984729,35.510267],[-75.984775,35.510291],[-75.984815,35.510251],[-75.984876,35.510284],[-75.985001,35.510245],[-75.985066,35.510245],[-75.985064,35.510216],[-75.985117,35.510189],[-75.985192,35.510228],[-75.985223,35.510224],[-75.985408,35.510133],[-75.985416,35.510084],[-75.985452,35.510116],[-75.98566,35.510074],[-75.985847,35.510029],[-75.985954,35.50996],[-75.985985,35.50997],[-75.986004,35.510027],[-75.98608,35.510058],[-75.986113,35.510034],[-75.986246,35.510045],[-75.986421,35.509997],[-75.986539,35.50999],[-75.986586,35.509919],[-75.986635,35.509904],[-75.986692,35.509936],[-75.986701,35.509887],[-75.98685,35.509852],[-75.986882,35.509806],[-75.98693,35.5098],[-75.987004,35.509742],[-75.987033,35.509682],[-75.987077,35.509671],[-75.98709,35.509588],[-75.987205,35.509475],[-75.987257,35.509392],[-75.987321,35.509129],[-75.987412,35.509043],[-75.987486,35.509018],[-75.987518,35.508952],[-75.987819,35.508784],[-75.98785,35.508794],[-75.987933,35.508752],[-75.988151,35.508728],[-75.988371,35.508644],[-75.988492,35.508556],[-75.988628,35.508398],[-75.988637,35.508369],[-75.988443,35.508058],[-75.988721,35.507619],[-75.98851,35.507292],[-75.988487,35.50722],[-75.988541,35.507116],[-75.988506,35.506974],[-75.988326,35.50693],[-75.988304,35.506764],[-75.988185,35.506551],[-75.988176,35.506331],[-75.988124,35.506128],[-75.988024,35.505855],[-75.988006,35.505522],[-75.988154,35.505118],[-75.988242,35.504057],[-75.967883,35.503164],[-75.96785,35.503195],[-75.967699,35.503236],[-75.967662,35.503267],[-75.967671,35.503299],[-75.967828,35.503362],[-75.967862,35.50336],[-75.967877,35.503338],[-75.967956,35.503367],[-75.967917,35.503385],[-75.96794,35.50345],[-75.967908,35.50352],[-75.96796,35.503576],[-75.967922,35.503581],[-75.967913,35.503608],[-75.96782,35.503658],[-75.967722,35.503672],[-75.967668,35.503707],[-75.967618,35.503712],[-75.96761,35.503732],[-75.967656,35.503769],[-75.967716,35.503863],[-75.967852,35.503936],[-75.967835,35.503971],[-75.967941,35.504008],[-75.967941,35.504033],[-75.967888,35.504081],[-75.967933,35.504119],[-75.967928,35.504183],[-75.967955,35.504241],[-75.968003,35.504223],[-75.96804,35.50425],[-75.968079,35.504229],[-75.968088,35.504203],[-75.968149,35.50421],[-75.968165,35.504307],[-75.968215,35.5043],[-75.968185,35.504352],[-75.968203,35.504422],[-75.968285,35.504443],[-75.968375,35.50451],[-75.968475,35.504464],[-75.968596,35.504503],[-75.968602,35.50457],[-75.968629,35.504605],[-75.968804,35.504702],[-75.968908,35.504696],[-75.968965,35.504743],[-75.969007,35.504746],[-75.969003,35.504791],[-75.969034,35.504808],[-75.969056,35.504865],[-75.969144,35.504876],[-75.969138,35.504908],[-75.969262,35.50496],[-75.969289,35.504979],[-75.969307,35.505036],[-75.969356,35.505047],[-75.969355,35.50506],[-75.969303,35.505063],[-75.969294,35.505083],[-75.969332,35.505119],[-75.969377,35.50513],[-75.969396,35.505162],[-75.969426,35.505157],[-75.969509,35.505204],[-75.969556,35.505166],[-75.9696,35.50516],[-75.96969,35.505243],[-75.969645,35.505256],[-75.969655,35.505281],[-75.969577,35.505298],[-75.969584,35.505354],[-75.969638,35.505441],[-75.969741,35.505463],[-75.969772,35.505488],[-75.969806,35.505476],[-75.96979,35.50552],[-75.969838,35.505492],[-75.969816,35.505537],[-75.969831,35.505568],[-75.969859,35.505565],[-75.969847,35.505598],[-75.969969,35.505606],[-75.97,35.505651],[-75.969965,35.505692],[-75.970034,35.505692],[-75.969982,35.505729],[-75.970069,35.505756],[-75.970087,35.505802],[-75.970161,35.505835],[-75.970138,35.505863],[-75.970208,35.505907],[-75.970313,35.505955],[-75.970348,35.50589],[-75.970379,35.505885],[-75.970498,35.505937],[-75.970556,35.505971],[-75.970648,35.506067],[-75.970775,35.506094],[-75.970845,35.506163],[-75.970975,35.506166],[-75.970997,35.506207],[-75.971155,35.506308],[-75.971226,35.506315],[-75.971256,35.506342],[-75.971306,35.506328],[-75.971501,35.506458],[-75.971581,35.506482],[-75.971626,35.506463],[-75.971663,35.506508],[-75.971753,35.506541],[-75.971795,35.506586],[-75.971935,35.50663],[-75.971985,35.506672],[-75.972019,35.506738],[-75.972114,35.506692],[-75.972151,35.506711],[-75.972201,35.506704],[-75.972224,35.506668],[-75.972266,35.506679],[-75.972378,35.506557],[-75.972447,35.506516],[-75.97256,35.506505],[-75.972582,35.506475],[-75.972675,35.506465],[-75.972705,35.506468],[-75.972726,35.506499],[-75.972864,35.506475],[-75.972937,35.50651],[-75.973024,35.506507],[-75.973037,35.506552],[-75.973142,35.506621],[-75.973248,35.506608],[-75.973288,35.50662],[-75.973353,35.506599],[-75.97339,35.506679],[-75.97344,35.50664],[-75.973481,35.506639],[-75.973555,35.506729],[-75.973561,35.506768],[-75.973737,35.506763],[-75.973777,35.50678],[-75.973791,35.506881],[-75.973778,35.506951],[-75.973842,35.507018],[-75.973945,35.506983],[-75.97397,35.507023],[-75.97403,35.507043],[-75.974144,35.507155],[-75.974199,35.507114],[-75.974278,35.507119],[-75.974289,35.507207],[-75.974322,35.507228],[-75.974365,35.507214],[-75.974377,35.50726],[-75.974419,35.507263],[-75.974507,35.507221],[-75.974606,35.507236],[-75.974647,35.507276],[-75.974591,35.507364],[-75.974587,35.507443],[-75.974609,35.507502],[-75.974697,35.507507],[-75.97468,35.507444],[-75.974701,35.507432],[-75.974733,35.507436],[-75.974785,35.507499],[-75.974819,35.507499],[-75.974828,35.507468],[-75.974877,35.507488],[-75.974897,35.507548],[-75.975004,35.50757],[-75.975083,35.50762],[-75.975067,35.507738],[-75.975132,35.507838],[-75.975177,35.50785],[-75.975192,35.507878],[-75.975242,35.507876],[-75.975289,35.507907],[-75.975335,35.507884],[-75.975338,35.507845],[-75.975377,35.507805],[-75.975455,35.507815],[-75.975512,35.507796],[-75.975597,35.507846],[-75.975698,35.507805],[-75.975806,35.507836],[-75.97591,35.507788],[-75.975942,35.507815],[-75.976002,35.507793],[-75.97605,35.507812],[-75.976078,35.507795],[-75.976102,35.507812],[-75.976188,35.507798],[-75.976255,35.507843],[-75.97632,35.50782],[-75.976434,35.507841],[-75.976447,35.507871],[-75.976439,35.507975],[-75.976494,35.508016],[-75.97658,35.507973],[-75.976636,35.507979],[-75.976698,35.507938],[-75.976772,35.50795],[-75.976821,35.507984],[-75.976936,35.50796],[-75.976952,35.50788],[-75.976975,35.507864],[-75.97711,35.507895],[-75.977126,35.50779],[-75.977178,35.507788],[-75.977179,35.507732],[-75.977233,35.507662],[-75.977239,35.507609],[-75.977276,35.507601],[-75.977302,35.507617],[-75.977288,35.507575],[-75.977348,35.507599],[-75.977389,35.507561],[-75.977475,35.507617],[-75.977509,35.507568],[-75.977573,35.507565],[-75.977592,35.50758],[-75.977594,35.50762],[-75.977619,35.507627],[-75.977689,35.507594],[-75.977721,35.507553],[-75.977814,35.507545],[-75.977858,35.507587],[-75.977885,35.507543],[-75.977969,35.507522],[-75.978117,35.507567],[-75.978184,35.507503],[-75.978231,35.507519],[-75.978296,35.507486],[-75.97831,35.507493],[-75.978296,35.507542],[-75.978316,35.507566],[-75.97835,35.507531],[-75.978408,35.50756],[-75.978486,35.507548],[-75.978546,35.507597],[-75.97863,35.507559],[-75.978652,35.507609],[-75.978691,35.507629],[-75.978815,35.507587],[-75.978815,35.507623],[-75.978866,35.507641],[-75.978892,35.507671],[-75.978952,35.507656],[-75.978982,35.507686],[-75.979054,35.507693],[-75.97906,35.507742],[-75.979082,35.507763],[-75.979137,35.507759],[-75.979173,35.507792],[-75.979207,35.507751],[-75.979304,35.507768],[-75.979309,35.507801],[-75.979262,35.507851],[-75.979264,35.507909],[-75.979336,35.507916],[-75.979352,35.507973],[-75.9794,35.507982],[-75.979413,35.508015],[-75.979517,35.508081],[-75.979568,35.508018],[-75.9796,35.508036],[-75.979703,35.508024],[-75.979746,35.508042],[-75.97981,35.508017],[-75.979843,35.508026],[-75.979905,35.507943],[-75.980005,35.507983],[-75.980106,35.507938],[-75.980151,35.507967],[-75.980161,35.507997],[-75.980261,35.508014],[-75.980317,35.507991],[-75.980351,35.508015],[-75.980387,35.507994],[-75.980449,35.508031],[-75.980492,35.508013],[-75.98056,35.508017],[-75.980595,35.508049],[-75.980559,35.508103],[-75.980579,35.508157],[-75.980674,35.508187],[-75.980643,35.508274],[-75.980648,35.508396],[-75.980693,35.508457],[-75.980781,35.508477],[-75.980856,35.508554],[-75.980949,35.508712],[-75.980951,35.508844],[-75.981012,35.508849],[-75.981056,35.508803],[-75.981162,35.508786],[-75.981213,35.508796],[-75.981395,35.508904],[-75.981651,35.508876],[-75.981695,35.508928],[-75.981778,35.508946],[-75.981845,35.508999],[-75.981942,35.509007],[-75.981973,35.509027],[-75.981988,35.509049],[-75.981925,35.509093],[-75.981983,35.509106],[-75.98201,35.509157],[-75.982073,35.509116],[-75.982062,35.509194],[-75.982075,35.509216],[-75.982206,35.509227],[-75.98236,35.509283],[-75.982503,35.509475],[-75.982604,35.50948],[-75.98265,35.50946],[-75.98265,35.509492],[-75.98272,35.509563],[-75.982761,35.509645],[-75.98275,35.50976],[-75.982715,35.5098],[-75.98265,35.509821],[-75.982676,35.509884],[-75.98261,35.509932],[-75.982643,35.509973],[-75.982653,35.510024],[-75.982699,35.510039],[-75.982803,35.509964],[-75.982862,35.509994],[-75.98293,35.509982],[-75.982968,35.510004],[-75.982994,35.510091],[-75.983126,35.510176],[-75.9833,35.510156],[-75.983375,35.51012],[-75.983387,35.510156],[-75.983492,35.510259],[-75.983604,35.510271],[-75.983656,35.510236],[-75.983711,35.510234],[-75.983763,35.510322],[-75.983822,35.510314],[-75.983844,35.510365],[-75.983855,35.510338],[-75.983901,35.510362],[-75.983924,35.510338],[-75.983951,35.510368],[-75.983969,35.510351],[-75.983986,35.510367],[-75.98399,35.510299],[-75.984062,35.510274],[-75.984112,35.510333],[-75.98411,35.510279],[-75.984163,35.510315],[-75.984203,35.510293],[-75.984211,35.510322],[-75.984235,35.51033],[-75.984287,35.510281],[-75.984312,35.510345],[-75.984454,35.510381]]]}},{"type":"Feature","id":"37095:15709","properties":{"id":"37095:15709","parcelId":"15709","countyFips":"37095","countyName":"Hyde","state":"North Carolina","marketIds":["Wilmington"],"situsAddress":null,"situsCity":null,"situsZip":null,"jurisdictionCode":null,"ownerName":"HYDE COUNTY","ownerName2":null,"propertyName":null,"zoningCode":null,"zoningDistrict":null,"jurisdictionPrefix":null,"dorCode":null,"acreage":5.0,"centroid":[-75.986875,35.520753],"lastSale":{"date":null,"price":null,"qualified":null},"tax":{"marketValue":84061.0,"assessedValue":null,"taxableValue":null,"taxes":null},"mailingAddress":{"line1":"0 DEFAULT STREET, HYDE NC 00000","line2":null,"city":null,"state":null,"zip":null},"incomeTract":null,"incomeBlockGroup":null,"nearestRoad":null,"flu":null,"opportunityZone":null,"oz2Eligibility":null,"source":"nc-hyde-parcels-37095","appraiserUrl":"https://dl.agd.cc/prc/nc/hyde/15709.pdf","gisViewerUrl":"https://experience.arcgis.com/experience/7d56b8f7909d453bbbf899299b53104d"},"geometry":{"type":"Polygon","coordinates":[[[-75.988063,35.520607],[-75.986351,35.519931],[-75.985762,35.520928],[-75.987325,35.521546],[-75.988063,35.520607]]]}},{"type":"Feature","id":"37095:16298","properties":{"id":"37095:16298","parcelId":"16298","countyFips":"37095","countyName":"Hyde","state":"North Carolina","marketIds":["Wilmington"],"situsAddress":null,"situsCity":null,"situsZip":null,"jurisdictionCode":null,"ownerName":"HATCHELL, DAVID L.","ownerName2":null,"propertyName":null,"zoningCode":null,"zoningDistrict":null,"jurisdictionPrefix":null,"dorCode":null,"acreage":22.0,"centroid":[-75.987299,35.527572],"lastSale":{"date":null,"price":null,"qualified":null},"tax":{"marketValue":28668.0,"assessedValue":null,"taxableValue":28668.0,"taxes":null},"mailingAddress":{"line1":"P.O. BOX 1983, MANTEO NC 27954","line2":null,"city":null,"state":null,"zip":null},"incomeTract":null,"incomeBlockGroup":null,"nearestRoad":null,"flu":null,"opportunityZone":null,"oz2Eligibility":null,"source":"nc-hyde-parcels-37095","appraiserUrl":"https://dl.agd.cc/prc/nc/hyde/16298.pdf","gisViewerUrl":"https://experience.arcgis.com/experience/7d56b8f7909d453bbbf899299b53104d"},"geometry":{"type":"Polygon","coordinates":[[[-75.984478,35.527981],[-75.987868,35.529825],[-75.991174,35.527939],[-75.99111,35.527905],[-75.990922,35.527857],[-75.990825,35.527887],[-75.990777,35.527881],[-75.990689,35.527822],[-75.990596,35.527831],[-75.990555,35.527863],[-75.990524,35.527863],[-75.99045,35.527824],[-75.990403,35.527847],[-75.990349,35.527846],[-75.990236,35.527805],[-75.990139,35.527812],[-75.990062,35.527781],[-75.990012,35.527813],[-75.989969,35.527817],[-75.989808,35.527759],[-75.989647,35.527739],[-75.989593,35.52775],[-75.989535,35.527728],[-75.989477,35.527764],[-75.989382,35.527765],[-75.989343,35.527723],[-75.989213,35.527693],[-75.989135,35.527714],[-75.989053,35.527671],[-75.989013,35.527696],[-75.988946,35.527689],[-75.988864,35.527709],[-75.98882,35.527661],[-75.98877,35.527674],[-75.988686,35.52763],[-75.988629,35.527676],[-75.988541,35.527649],[-75.988493,35.527658],[-75.988425,35.527629],[-75.988214,35.527648],[-75.988124,35.527608],[-75.987776,35.527595],[-75.987569,35.52755],[-75.987485,35.527556],[-75.987408,35.527529],[-75.987313,35.527547],[-75.987223,35.527516],[-75.987183,35.527532],[-75.987089,35.527515],[-75.987055,35.527527],[-75.987007,35.527504],[-75.986931,35.527515],[-75.986848,35.527481],[-75.98672,35.527497],[-75.986666,35.52747],[-75.986527,35.527455],[-75.986478,35.527474],[-75.986446,35.527444],[-75.986383,35.527462],[-75.98629,35.527427],[-75.986229,35.527446],[-75.986183,35.527408],[-75.986159,35.527429],[-75.98602,35.527446],[-75.985786,35.527389],[-75.985751,35.527389],[-75.985735,35.527415],[-75.985624,35.527348],[-75.985476,35.52739],[-75.985385,35.527373],[-75.985357,35.527336],[-75.985234,35.527351],[-75.98513,35.527316],[-75.985112,35.527338],[-75.98505,35.52734],[-75.984991,35.527309],[-75.984945,35.527326],[-75.984878,35.52728],[-75.984827,35.527307],[-75.984761,35.527282],[-75.98468,35.52728],[-75.98462,35.527322],[-75.984487,35.527281],[-75.984439,35.527314],[-75.98439,35.527314],[-75.984278,35.527259],[-75.984235,35.527274],[-75.984204,35.527325],[-75.984185,35.527273],[-75.98412,35.527232],[-75.984057,35.527241],[-75.984019,35.527291],[-75.983999,35.527259],[-75.983941,35.527236],[-75.98385,35.527232],[-75.984478,35.527981]]]}},{"type":"Feature","id":"37095:86","properties":{"id":"37095:86","parcelId":"86","countyFips":"37095","countyName":"Hyde","state":"North Carolina","marketIds":["Wilmington"],"situsAddress":null,"situsCity":null,"situsZip":null,"jurisdictionCode":null,"ownerName":"APPELLE, WALTER W.","ownerName2":null,"propertyName":null,"zoningCode":null,"zoningDistrict":null,"jurisdictionPrefix":null,"dorCode":null,"acreage":10.0,"centroid":[-76.0,35.504801],"lastSale":{"date":null,"price":null,"qualified":null},"tax":{"marketValue":88957.0,"assessedValue":null,"taxableValue":88957.0,"taxes":null},"mailingAddress":{"line1":"13107 LARKALL CIRCLE, FTWASHINGTON MD 20744","line2":null,"city":null,"state":null,"zip":null},"incomeTract":null,"incomeBlockGroup":null,"nearestRoad":null,"flu":null,"opportunityZone":null,"oz2Eligibility":null,"source":"nc-hyde-parcels-37095","appraiserUrl":"https://dl.agd.cc/prc/nc/hyde/86.pdf","gisViewerUrl":"https://experience.arcgis.com/experience/7d56b8f7909d453bbbf899299b53104d"},"geometry":{"type":"Polygon","coordinates":[[[-75.999595,35.506184],[-76.000434,35.506349],[-76.001058,35.505162],[-76.000274,35.504919],[-76.000705,35.504162],[-76.000793,35.504186],[-76.000886,35.504185],[-76.000973,35.504159],[-76.001045,35.504111],[-76.001002,35.504],[-76.001242,35.50358],[-76.000315,35.503253],[-75.998759,35.506019],[-75.999595,35.506184]]]}},{"type":"Feature","id":"37095:6239","properties":{"id":"37095:6239","parcelId":"6239","countyFips":"37095","countyName":"Hyde","state":"North Carolina","marketIds":["Wilmington"],"situsAddress":null,"situsCity":null,"situsZip":null,"jurisdictionCode":null,"ownerName":"NORTH CAROLINA SEAFOOD INDUSTR&PARK AUTHORITY","ownerName2":null,"propertyName":null,"zoningCode":null,"zoningDistrict":null,"jurisdictionPrefix":null,"dorCode":null,"acreage":8.0,"centroid":[-75.994424,35.509108],"lastSale":{"date":null,"price":null,"qualified":null},"tax":{"marketValue":413617.0,"assessedValue":null,"taxableValue":null,"taxes":null},"mailingAddress":{"line1":"1321 MAIL SERVICE CENTER, RALEIGH NC 27699 -1321","line2":null,"city":null,"state":null,"zip":null},"incomeTract":null,"incomeBlockGroup":null,"nearestRoad":null,"flu":null,"opportunityZone":null,"oz2Eligibility":null,"source":"nc-hyde-parcels-37095","appraiserUrl":"https://dl.agd.cc/prc/nc/hyde/6239.pdf","gisViewerUrl":"https://experience.arcgis.com/experience/7d56b8f7909d453bbbf899299b53104d"},"geometry":{"type":"Polygon","coordinates":[[[-75.992265,35.509535],[-75.993059,35.509868],[-75.994535,35.51048],[-75.995092,35.509607],[-75.995215,35.509466],[-75.995302,35.509254],[-75.995389,35.509188],[-75.995393,35.509102],[-75.995426,35.509001],[-75.995408,35.508974],[-75.995352,35.508956],[-75.994788,35.50886],[-75.994405,35.508805],[-75.994289,35.508813],[-75.994173,35.508756],[-75.994045,35.508727],[-75.994028,35.508703],[-75.993635,35.508544],[-75.993587,35.50878],[-75.993089,35.508748],[-75.992265,35.509535]]]}},{"type":"Feature","id":"37095:6074","properties":{"id":"37095:6074","parcelId":"6074","countyFips":"37095","countyName":"Hyde","state":"North Carolina","marketIds":["Wilmington"],"situsAddress":null,"situsCity":null,"situsZip":null,"jurisdictionCode":null,"ownerName":"BUNN, CHAD & REBECCA-TRUSTEES-BUNN REVOCABLE LIVING TRUST","ownerName2":null,"propertyName":null,"zoningCode":null,"zoningDistrict":null,"jurisdictionPrefix":null,"dorCode":null,"acreage":12.0,"centroid":[-75.980833,35.52526],"lastSale":{"date":null,"price":null,"qualified":null},"tax":{"marketValue":18667.0,"assessedValue":null,"taxableValue":18667.0,"taxes":null},"mailingAddress":{"line1":"177 BRANCH CHAPEL CHURCH ROAD, SELMA NC 27576","line2":null,"city":null,"state":null,"zip":null},"incomeTract":null,"incomeBlockGroup":null,"nearestRoad":null,"flu":null,"opportunityZone":null,"oz2Eligibility":null,"source":"nc-hyde-parcels-37095","appraiserUrl":"https://dl.agd.cc/prc/nc/hyde/6074.pdf","gisViewerUrl":"https://experience.arcgis.com/experience/7d56b8f7909d453bbbf899299b53104d"},"geometry":{"type":"Polygon","coordinates":[[[-75.983088,35.525604],[-75.983076,35.525606],[-75.979816,35.524341],[-75.979575,35.524223],[-75.97953,35.52423],[-75.978901,35.523966],[-75.978822,35.523973],[-75.979048,35.524285],[-75.979084,35.524325],[-75.979169,35.524365],[-75.979292,35.524504],[-75.979331,35.524593],[-75.979376,35.524637],[-75.97948,35.524651],[-75.979516,35.524717],[-75.979596,35.524741],[-75.979675,35.524811],[-75.979823,35.524858],[-75.979826,35.524877],[-75.979993,35.524984],[-75.980006,35.525022],[-75.980046,35.525034],[-75.980061,35.525066],[-75.980086,35.525062],[-75.98013,35.525091],[-75.980144,35.525143],[-75.980304,35.525303],[-75.980285,35.525315],[-75.980337,35.525508],[-75.980408,35.525608],[-75.980508,35.525548],[-75.980603,35.525449],[-75.980439,35.525652],[-75.98052,35.525714],[-75.980662,35.525739],[-75.980839,35.52582],[-75.981256,35.525821],[-75.981668,35.525332],[-75.981512,35.525514],[-75.981473,35.525593],[-75.981423,35.525627],[-75.98131,35.525763],[-75.981296,35.525831],[-75.981458,35.525874],[-75.981729,35.526007],[-75.981903,35.526012],[-75.982213,35.525962],[-75.982474,35.525952],[-75.982565,35.525965],[-75.982787,35.525938],[-75.982874,35.525855],[-75.98289,35.525818],[-75.982977,35.525764],[-75.982996,35.525716],[-75.983033,35.525715],[-75.983064,35.52574],[-75.983166,35.52565],[-75.983088,35.525604]]]}},{"type":"Feature","id":"37095:15011","properties":{"id":"37095:15011","parcelId":"15011","countyFips":"37095","countyName":"Hyde","state":"North Carolina","marketIds":["Wilmington"],"situsAddress":null,"situsCity":null,"situsZip":null,"jurisdictionCode":null,"ownerName":"ESCOBAR, FIDEL","ownerName2":null,"propertyName":null,"zoningCode":null,"zoningDistrict":null,"jurisdictionPrefix":null,"dorCode":null,"acreage":108.0,"centroid":[-75.986284,35.515555],"lastSale":{"date":null,"price":null,"qualified":null},"tax":{"marketValue":23350.0,"assessedValue":null,"taxableValue":23350.0,"taxes":null},"mailingAddress":{"line1":"P O BOX 2740, KILL DEVIL HILLS NC 27948","line2":null,"city":null,"state":null,"zip":null},"incomeTract":null,"incomeBlockGroup":null,"nearestRoad":null,"flu":null,"opportunityZone":null,"oz2Eligibility":null,"source":"nc-hyde-parcels-37095","appraiserUrl":"https://dl.agd.cc/prc/nc/hyde/15011.pdf","gisViewerUrl":"https://experience.arcgis.com/experience/7d56b8f7909d453bbbf899299b53104d"},"geometry":{"type":"MultiPolygon","coordinates":[[[[-75.988967,35.519432],[-75.988973,35.519434],[-75.991176,35.516546],[-75.989868,35.516875],[-75.989251,35.516527],[-75.989018,35.516145],[-75.987955,35.515655],[-75.987414,35.515604],[-75.986915,35.515119],[-75.986767,35.514506],[-75.986388,35.514034],[-75.985199,35.513746],[-75.984371,35.513844],[-75.982895,35.513713],[-75.982001,35.513393],[-75.979898,35.513261],[-75.97978,35.5166],[-75.988967,35.519432]]],[[[-75.978491,35.51377],[-75.977409,35.514334],[-75.97676,35.51567],[-75.979165,35.516411],[-75.979286,35.512973],[-75.978491,35.51377]]]]}},{"type":"Feature","id":"37095:5676","properties":{"id":"37095:5676","parcelId":"5676","countyFips":"37095","countyName":"Hyde","state":"North Carolina","marketIds":["Wilmington"],"situsAddress":null,"situsCity":null,"situsZip":null,"jurisdictionCode":null,"ownerName":"BRYANT, MELINDA","ownerName2":null,"propertyName":null,"zoningCode":null,"zoningDistrict":null,"jurisdictionPrefix":null,"dorCode":null,"acreage":19.0,"centroid":[-75.979449,35.51923],"lastSale":{"date":null,"price":null,"qualified":null},"tax":{"marketValue":3750.0,"assessedValue":null,"taxableValue":3750.0,"taxes":null},"mailingAddress":{"line1":"2862 E OLD SPRING HOPE RD, NASHVILLE NC 27856","line2":null,"city":null,"state":null,"zip":null},"incomeTract":null,"incomeBlockGroup":null,"nearestRoad":null,"flu":null,"opportunityZone":null,"oz2Eligibility":null,"source":"nc-hyde-parcels-37095","appraiserUrl":"https://dl.agd.cc/prc/nc/hyde/5676.pdf","gisViewerUrl":"https://experience.arcgis.com/experience/7d56b8f7909d453bbbf899299b53104d"},"geometry":{"type":"Polygon","coordinates":[[[-75.97948,35.522353],[-75.979485,35.522352],[-75.979578,35.522333],[-75.979898,35.513261],[-75.979286,35.512973],[-75.978964,35.52211],[-75.97948,35.522353]]]}},{"type":"Feature","id":"37095:5977","properties":{"id":"37095:5977","parcelId":"5977","countyFips":"37095","countyName":"Hyde","state":"North Carolina","marketIds":["Wilmington"],"situsAddress":null,"situsCity":null,"situsZip":null,"jurisdictionCode":null,"ownerName":"SPENCER, CHRISTOPHER DAVID","ownerName2":null,"propertyName":null,"zoningCode":null,"zoningDistrict":null,"jurisdictionPrefix":null,"dorCode":null,"acreage":34.0,"centroid":[-75.992112,35.502048],"lastSale":{"date":null,"price":null,"qualified":null},"tax":{"marketValue":129810.0,"assessedValue":null,"taxableValue":39925.0,"taxes":null},"mailingAddress":{"line1":"9 RIVERVIEW DR, HAMPTON VA 23669","line2":null,"city":null,"state":null,"zip":null},"incomeTract":null,"incomeBlockGroup":null,"nearestRoad":null,"flu":null,"opportunityZone":null,"oz2Eligibility":null,"source":"nc-hyde-parcels-37095","appraiserUrl":"https://dl.agd.cc/prc/nc/hyde/5977.pdf","gisViewerUrl":"https://experience.arcgis.com/experience/7d56b8f7909d453bbbf899299b53104d"},"geometry":{"type":"Polygon","coordinates":[[[-75.984655,35.501282],[-75.98465,35.501304],[-75.984292,35.502804],[-75.996159,35.502681],[-75.99628,35.502424],[-75.99696,35.502424],[-75.996981,35.502366],[-75.996301,35.50236],[-75.996569,35.501482],[-75.988276,35.501356],[-75.984655,35.501282]]]}},{"type":"Feature","id":"37095:6714","properties":{"id":"37095:6714","parcelId":"6714","countyFips":"37095","countyName":"Hyde","state":"North Carolina","marketIds":["Wilmington"],"situsAddress":null,"situsCity":null,"situsZip":null,"jurisdictionCode":null,"ownerName":"CANADY FARMS HYDE, LLC","ownerName2":null,"propertyName":null,"zoningCode":null,"zoningDistrict":null,"jurisdictionPrefix":null,"dorCode":null,"acreage":40.0,"centroid":[-75.992103,35.503417],"lastSale":{"date":null,"price":null,"qualified":null},"tax":{"marketValue":85860.0,"assessedValue":null,"taxableValue":85860.0,"taxes":null},"mailingAddress":{"line1":"209 BRIGHTWOOD RD, WILMINGTON NC 28409","line2":null,"city":null,"state":null,"zip":null},"incomeTract":null,"incomeBlockGroup":null,"nearestRoad":null,"flu":null,"opportunityZone":null,"oz2Eligibility":null,"source":"nc-hyde-parcels-37095","appraiserUrl":"https://dl.agd.cc/prc/nc/hyde/6714.pdf","gisViewerUrl":"https://experience.arcgis.com/experience/7d56b8f7909d453bbbf899299b53104d"},"geometry":{"type":"Polygon","coordinates":[[[-75.994587,35.504335],[-75.995224,35.504363],[-75.99663,35.502916],[-75.994833,35.502927],[-75.994862,35.502689],[-75.984292,35.502804],[-75.984292,35.503884],[-75.994587,35.504335]]]}},{"type":"Feature","id":"37095:6237","properties":{"id":"37095:6237","parcelId":"6237","countyFips":"37095","countyName":"Hyde","state":"North Carolina","marketIds":["Wilmington"],"situsAddress":null,"situsCity":null,"situsZip":null,"jurisdictionCode":null,"ownerName":"DARK WOODS FARMS, LLC","ownerName2":null,"propertyName":null,"zoningCode":null,"zoningDistrict":null,"jurisdictionPrefix":null,"dorCode":null,"acreage":23.0,"centroid":[-75.995837,35.510979],"lastSale":{"date":null,"price":null,"qualified":null},"tax":{"marketValue":346304.0,"assessedValue":null,"taxableValue":330336.0,"taxes":null},"mailingAddress":{"line1":"P.O. BOX 39, ENGELHARD NC 27824","line2":null,"city":null,"state":null,"zip":null},"incomeTract":null,"incomeBlockGroup":null,"nearestRoad":null,"flu":null,"opportunityZone":null,"oz2Eligibility":null,"source":"nc-hyde-parcels-37095","appraiserUrl":"https://dl.agd.cc/prc/nc/hyde/6237.pdf","gisViewerUrl":"https://experience.arcgis.com/experience/7d56b8f7909d453bbbf899299b53104d"},"geometry":{"type":"Polygon","coordinates":[[[-75.995101,35.512451],[-75.99512,35.512458],[-75.99554,35.511789],[-75.99619,35.512059],[-75.997337,35.510252],[-75.996128,35.509793],[-75.996064,35.509801],[-75.995945,35.509905],[-75.995714,35.510168],[-75.99523,35.510924],[-75.995843,35.511166],[-75.995101,35.512451]]]}},{"type":"Feature","id":"37095:6229","properties":{"id":"37095:6229","parcelId":"6229","countyFips":"37095","countyName":"Hyde","state":"North Carolina","marketIds":["Wilmington"],"situsAddress":null,"situsCity":null,"situsZip":null,"jurisdictionCode":null,"ownerName":"DARK WOODS FARMS, LLC","ownerName2":null,"propertyName":null,"zoningCode":null,"zoningDistrict":null,"jurisdictionPrefix":null,"dorCode":null,"acreage":14.0,"centroid":[-75.997662,35.513611],"lastSale":{"date":null,"price":null,"qualified":null},"tax":{"marketValue":28000.0,"assessedValue":null,"taxableValue":12110.0,"taxes":null},"mailingAddress":{"line1":"P O BOX 39, ENGELHARD NC 27824","line2":null,"city":null,"state":null,"zip":null},"incomeTract":null,"incomeBlockGroup":null,"nearestRoad":null,"flu":null,"opportunityZone":null,"oz2Eligibility":null,"source":"nc-hyde-parcels-37095","appraiserUrl":"https://dl.agd.cc/prc/nc/hyde/6229.pdf","gisViewerUrl":"https://experience.arcgis.com/experience/7d56b8f7909d453bbbf899299b53104d"},"geometry":{"type":"Polygon","coordinates":[[[-75.99632,35.514505],[-75.998515,35.515432],[-75.999228,35.514017],[-75.999533,35.513456],[-75.998163,35.512892],[-75.998186,35.512853],[-75.996977,35.512361],[-75.99657,35.513004],[-75.996884,35.513123],[-75.99624,35.514471],[-75.99632,35.514505]]]}},{"type":"Feature","id":"37095:6015","properties":{"id":"37095:6015","parcelId":"6015","countyFips":"37095","countyName":"Hyde","state":"North Carolina","marketIds":["Wilmington"],"situsAddress":null,"situsCity":null,"situsZip":null,"jurisdictionCode":null,"ownerName":"HARRIS, CHRIS","ownerName2":null,"propertyName":null,"zoningCode":null,"zoningDistrict":null,"jurisdictionPrefix":null,"dorCode":null,"acreage":18.0,"centroid":[-75.999406,35.5166],"lastSale":{"date":null,"price":null,"qualified":null},"tax":{"marketValue":8500.0,"assessedValue":null,"taxableValue":6570.0,"taxes":null},"mailingAddress":{"line1":"565 SWAMP RD., ENGELHARD NC 27824","line2":null,"city":null,"state":null,"zip":null},"incomeTract":null,"incomeBlockGroup":null,"nearestRoad":null,"flu":null,"opportunityZone":null,"oz2Eligibility":null,"source":"nc-hyde-parcels-37095","appraiserUrl":"https://dl.agd.cc/prc/nc/hyde/6015.pdf","gisViewerUrl":"https://experience.arcgis.com/experience/7d56b8f7909d453bbbf899299b53104d"},"geometry":{"type":"Polygon","coordinates":[[[-76.000397,35.517543],[-76.001569,35.518046],[-76.002959,35.517295],[-75.99632,35.514505],[-75.995785,35.515613],[-76.000397,35.517543]]]}},{"type":"Feature","id":"37095:5327","properties":{"id":"37095:5327","parcelId":"5327","countyFips":"37095","countyName":"Hyde","state":"North Carolina","marketIds":["Wilmington"],"situsAddress":null,"situsCity":null,"situsZip":null,"jurisdictionCode":null,"ownerName":"RILEY'S LABOR, LLC","ownerName2":null,"propertyName":null,"zoningCode":null,"zoningDistrict":null,"jurisdictionPrefix":null,"dorCode":null,"acreage":55.0,"centroid":[-75.991076,35.500351],"lastSale":{"date":null,"price":null,"qualified":null},"tax":{"marketValue":199294.0,"assessedValue":null,"taxableValue":199294.0,"taxes":null},"mailingAddress":{"line1":"P.O. BOX 545, NORWOOD NC 28128","line2":null,"city":null,"state":null,"zip":null},"incomeTract":null,"incomeBlockGroup":null,"nearestRoad":null,"flu":null,"opportunityZone":null,"oz2Eligibility":null,"source":"nc-hyde-parcels-37095","appraiserUrl":"https://dl.agd.cc/prc/nc/hyde/5327.pdf","gisViewerUrl":"https://experience.arcgis.com/experience/7d56b8f7909d453bbbf899299b53104d"},"geometry":{"type":"Polygon","coordinates":[[[-75.988316,35.499577],[-75.988311,35.499816],[-75.98397,35.499741],[-75.983928,35.501267],[-75.988276,35.501356],[-75.997242,35.501488],[-75.997496,35.50018],[-75.996023,35.500133],[-75.996118,35.499605],[-75.988316,35.499577]]]}},{"type":"Feature","id":"37095:2273","properties":{"id":"37095:2273","parcelId":"2273","countyFips":"37095","countyName":"Hyde","state":"North Carolina","marketIds":["Wilmington"],"situsAddress":null,"situsCity":null,"situsZip":null,"jurisdictionCode":null,"ownerName":"HATCHELL & HATCHELL","ownerName2":null,"propertyName":null,"zoningCode":null,"zoningDistrict":null,"jurisdictionPrefix":null,"dorCode":null,"acreage":35.0,"centroid":[-75.997933,35.528996],"lastSale":{"date":null,"price":null,"qualified":null},"tax":{"marketValue":21000.0,"assessedValue":null,"taxableValue":18025.0,"taxes":null},"mailingAddress":{"line1":"P.O. BOX 2405, MANTEO NC 27954","line2":null,"city":null,"state":null,"zip":null},"incomeTract":null,"incomeBlockGroup":null,"nearestRoad":null,"flu":null,"opportunityZone":null,"oz2Eligibility":null,"source":"nc-hyde-parcels-37095","appraiserUrl":"https://dl.agd.cc/prc/nc/hyde/2273.pdf","gisViewerUrl":"https://experience.arcgis.com/experience/7d56b8f7909d453bbbf899299b53104d"},"geometry":{"type":"Polygon","coordinates":[[[-75.991041,35.53155],[-75.993457,35.532928],[-75.99369,35.533053],[-75.999778,35.529218],[-76.000498,35.528789],[-76.000324,35.528802],[-76.000317,35.528823],[-76.00021,35.528881],[-76.000156,35.528883],[-76.000091,35.528934],[-75.999688,35.529115],[-75.999456,35.529078],[-75.999146,35.528995],[-75.998975,35.52898],[-75.998925,35.528907],[-75.998863,35.528947],[-75.998826,35.528947],[-75.998726,35.528915],[-75.998695,35.528923],[-75.998661,35.528877],[-75.99862,35.528858],[-75.99859,35.528892],[-75.998547,35.528891],[-75.998421,35.528844],[-75.998347,35.528854],[-75.998156,35.528827],[-75.99801,35.528776],[-75.997952,35.528665],[-75.997837,35.528663],[-75.997833,35.528733],[-75.997682,35.528707],[-75.997609,35.52868],[-75.997521,35.528577],[-75.997429,35.528552],[-75.997327,35.52855],[-75.997286,35.528579],[-75.997309,35.528631],[-75.997255,35.528634],[-75.997194,35.528562],[-75.996985,35.528521],[-75.996939,35.528492],[-75.996848,35.528501],[-75.996818,35.528457],[-75.996778,35.528487],[-75.996751,35.528485],[-75.996678,35.52842],[-75.996603,35.528409],[-75.991041,35.53155]]]}}]}