{"type":"FeatureCollection","name":"45035-8_24","features":[{"type":"Feature","id":"45035:041-00-00-001","properties":{"id":"45035:041-00-00-001","parcelId":"041-00-00-001","parcelIdAlt":"0410000001000","countyFips":"45035","countyName":"Dorchester","state":"South Carolina","marketIds":["Charleston"],"situsAddress":"MCALHANY RD","situsCity":null,"situsZip":null,"jurisdictionCode":null,"ownerName":"MUELSCHLEGEL TIMBERLANDS LLC","ownerName2":null,"propertyName":null,"zoningCode":"AR_DC","zoningDistrict":null,"jurisdictionPrefix":null,"dorCode":null,"acreage":135.8621,"centroid":[-80.750588,33.200358],"lastSale":{"date":"2001-03-20","price":5.0,"qualified":null},"tax":{"marketValue":null,"assessedValue":null,"taxableValue":null,"taxes":null,"landValue":null,"improvementValue":null},"mailingAddress":{"line1":"PO BOX 725","line2":"C/O MORRISON FORESTRY & REAL EST","city":"ESTILL","state":"SC","zip":"29918"},"incomeTract":null,"incomeBlockGroup":null,"nearestRoad":null,"flu":null,"opportunityZone":null,"oz2Eligibility":null,"source":"sc-dorchester-parcels-public"},"geometry":{"type":"Polygon","coordinates":[[[-80.7497,33.19881],[-80.74983,33.19794],[-80.75063,33.19635],[-80.75582,33.19818],[-80.75557,33.19864],[-80.75611,33.19881],[-80.75634,33.19836],[-80.75698,33.19859],[-80.7447,33.20537],[-80.74469,33.20504],[-80.74526,33.20455],[-80.74658,33.20273],[-80.74776,33.20208],[-80.74915,33.20095],[-80.7497,33.19897],[-80.7497,33.19881]],[[-80.75232,33.19353],[-80.7533,33.19193],[-80.75713,33.1961],[-80.75657,33.19832],[-80.75067,33.19623],[-80.75232,33.19353]],[[-80.7482,33.20008],[-80.75053,33.19636],[-80.7498,33.19759],[-80.74959,33.19829],[-80.74955,33.19925],[-80.74897,33.20094],[-80.74812,33.20082],[-80.7482,33.20008]]]}},{"type":"Feature","id":"45035:053-00-00-005","properties":{"id":"45035:053-00-00-005","parcelId":"053-00-00-005","parcelIdAlt":"0530000005000","countyFips":"45035","countyName":"Dorchester","state":"South Carolina","marketIds":["Charleston"],"situsAddress":"WIRE RD","situsCity":null,"situsZip":null,"jurisdictionCode":null,"ownerName":"REEVES ERNESTINE J","ownerName2":null,"propertyName":null,"zoningCode":"AR_DC","zoningDistrict":null,"jurisdictionPrefix":null,"dorCode":null,"acreage":98.8448,"centroid":[-80.778278,33.177304],"lastSale":{"date":"2007-08-20","price":5.0,"qualified":null},"tax":{"marketValue":null,"assessedValue":null,"taxableValue":null,"taxes":null,"landValue":null,"improvementValue":null},"mailingAddress":{"line1":"108 RAILROAD AVE","line2":null,"city":"REEVESVILLE","state":"SC","zip":"29471"},"incomeTract":null,"incomeBlockGroup":null,"nearestRoad":null,"flu":null,"opportunityZone":null,"oz2Eligibility":null,"source":"sc-dorchester-parcels-public"},"geometry":{"type":"Polygon","coordinates":[[[-80.77522,33.17737],[-80.77775,33.17581],[-80.77798,33.17626],[-80.77795,33.17688],[-80.77811,33.17705],[-80.77866,33.17719],[-80.77961,33.17641],[-80.78011,33.17627],[-80.78037,33.17621],[-80.78126,33.17653],[-80.78174,33.17647],[-80.78227,33.17599],[-80.78234,33.17575],[-80.78221,33.17537],[-80.78245,33.17485],[-80.78352,33.17452],[-80.78406,33.17487],[-80.78436,33.17598],[-80.76774,33.18336],[-80.76675,33.18486],[-80.76465,33.18396],[-80.773,33.17872],[-80.77522,33.17737]],[[-80.76518,33.18435],[-80.76509,33.18431],[-80.76664,33.18502],[-80.76527,33.18709],[-80.7649,33.18692],[-80.7647,33.18648],[-80.76496,33.18599],[-80.76512,33.18538],[-80.76501,33.18519],[-80.76506,33.18493],[-80.76525,33.18463],[-80.76518,33.18435]]]}},{"type":"Feature","id":"45035:040-00-00-003","properties":{"id":"45035:040-00-00-003","parcelId":"040-00-00-003","parcelIdAlt":"0400000003000","countyFips":"45035","countyName":"Dorchester","state":"South Carolina","marketIds":["Charleston"],"situsAddress":"WIRE RD","situsCity":null,"situsZip":null,"jurisdictionCode":null,"ownerName":"DANTZLER PATRICK","ownerName2":null,"propertyName":null,"zoningCode":"AR_DC","zoningDistrict":null,"jurisdictionPrefix":null,"dorCode":null,"acreage":97.4385,"centroid":[-80.765951,33.181665],"lastSale":{"date":"2020-04-02","price":217500.0,"qualified":null},"tax":{"marketValue":null,"assessedValue":null,"taxableValue":null,"taxes":null,"landValue":null,"improvementValue":null},"mailingAddress":{"line1":"284 ACADEMY RD","line2":null,"city":"SAINT GEORGE","state":"SC","zip":"29477"},"incomeTract":null,"incomeBlockGroup":null,"nearestRoad":null,"flu":null,"opportunityZone":null,"oz2Eligibility":null,"source":"sc-dorchester-parcels-public"},"geometry":{"type":"Polygon","coordinates":[[[-80.76498,33.1802],[-80.76563,33.18018],[-80.76564,33.18044],[-80.76624,33.18085],[-80.76621,33.18096],[-80.76737,33.18137],[-80.76708,33.18195],[-80.76682,33.18197],[-80.76681,33.1822],[-80.76711,33.18242],[-80.76465,33.18396],[-80.76287,33.18348],[-80.76498,33.1802]],[[-80.7584,33.19007],[-80.76277,33.18364],[-80.76518,33.18435],[-80.76525,33.18463],[-80.76501,33.18519],[-80.76512,33.18538],[-80.7647,33.18648],[-80.7649,33.18692],[-80.76527,33.18709],[-80.76235,33.19148],[-80.75909,33.19032],[-80.7584,33.19007]]]}},{"type":"Feature","id":"45035:053-00-00-001","properties":{"id":"45035:053-00-00-001","parcelId":"053-00-00-001","parcelIdAlt":"0530000001000","countyFips":"45035","countyName":"Dorchester","state":"South Carolina","marketIds":["Charleston"],"situsAddress":"6253 WIRE RD","situsCity":null,"situsZip":null,"jurisdictionCode":null,"ownerName":"DAVIS PAUL NATHAN","ownerName2":null,"propertyName":null,"zoningCode":"AR_DC","zoningDistrict":null,"jurisdictionPrefix":null,"dorCode":null,"acreage":87.6019,"centroid":[-80.758389,33.173363],"lastSale":{"date":"2025-02-25","price":500000.0,"qualified":null},"tax":{"marketValue":null,"assessedValue":null,"taxableValue":null,"taxes":null,"landValue":null,"improvementValue":null},"mailingAddress":{"line1":"758 PATE RD","line2":null,"city":"CAMDEN","state":"SC","zip":"29020"},"incomeTract":null,"incomeBlockGroup":null,"nearestRoad":null,"flu":null,"opportunityZone":null,"oz2Eligibility":null,"source":"sc-dorchester-parcels-public"},"geometry":{"type":"Polygon","coordinates":[[[-80.75231,33.17946],[-80.75596,33.1737],[-80.75619,33.17365],[-80.75683,33.17392],[-80.75708,33.17457],[-80.75762,33.17492],[-80.7585,33.1749],[-80.75885,33.17473],[-80.75909,33.17443],[-80.75925,33.17396],[-80.75918,33.17349],[-80.75871,33.17265],[-80.7575,33.1715],[-80.75746,33.17126],[-80.75758,33.17109],[-80.75791,33.17101],[-80.7584,33.17125],[-80.75889,33.17163],[-80.75938,33.17227],[-80.75999,33.17247],[-80.76137,33.17163],[-80.76195,33.171],[-80.76232,33.17035],[-80.76263,33.17033],[-80.76312,33.17054],[-80.75609,33.18062],[-80.75235,33.17948],[-80.75231,33.17946]]]}},{"type":"Feature","id":"45035:053-00-00-004","properties":{"id":"45035:053-00-00-004","parcelId":"053-00-00-004","parcelIdAlt":"0530000004000","countyFips":"45035","countyName":"Dorchester","state":"South Carolina","marketIds":["Charleston"],"situsAddress":"WIRE RD","situsCity":null,"situsZip":null,"jurisdictionCode":null,"ownerName":"JM SUMMERS PROPERTIES LLC","ownerName2":null,"propertyName":null,"zoningCode":"AR_DC","zoningDistrict":null,"jurisdictionPrefix":null,"dorCode":null,"acreage":87.3746,"centroid":[-80.769742,33.176753],"lastSale":{"date":"2021-08-12","price":5.0,"qualified":null},"tax":{"marketValue":null,"assessedValue":null,"taxableValue":null,"taxes":null,"landValue":null,"improvementValue":null},"mailingAddress":{"line1":"4710 CATTLE CREEK RD","line2":null,"city":"BRANCHVILLE","state":"SC","zip":"29432"},"incomeTract":null,"incomeBlockGroup":null,"nearestRoad":null,"flu":null,"opportunityZone":null,"oz2Eligibility":null,"source":"sc-dorchester-parcels-public"},"geometry":{"type":"Polygon","coordinates":[[[-80.76563,33.18018],[-80.76498,33.1802],[-80.76965,33.17327],[-80.77025,33.17344],[-80.77044,33.17328],[-80.77091,33.17278],[-80.77079,33.17232],[-80.7711,33.17198],[-80.7722,33.17181],[-80.77255,33.17201],[-80.77262,33.1723],[-80.77238,33.17273],[-80.77273,33.17333],[-80.77236,33.1741],[-80.77159,33.17503],[-80.77235,33.17538],[-80.77261,33.17563],[-80.77216,33.17605],[-80.77137,33.17644],[-80.77033,33.17767],[-80.77011,33.17986],[-80.76986,33.18064],[-80.76711,33.18242],[-80.76681,33.1822],[-80.76682,33.18197],[-80.76708,33.18195],[-80.76737,33.18137],[-80.76621,33.18096],[-80.76624,33.18085],[-80.76564,33.18044],[-80.76563,33.18018]]]}},{"type":"Feature","id":"45035:040-00-00-008","properties":{"id":"45035:040-00-00-008","parcelId":"040-00-00-008","parcelIdAlt":"0400000008000","countyFips":"45035","countyName":"Dorchester","state":"South Carolina","marketIds":["Charleston"],"situsAddress":"WIRE RD","situsCity":null,"situsZip":null,"jurisdictionCode":null,"ownerName":"MORRISON A PEACH","ownerName2":null,"propertyName":null,"zoningCode":"AR_DC","zoningDistrict":null,"jurisdictionPrefix":null,"dorCode":null,"acreage":70.4226,"centroid":[-80.764025,33.191495],"lastSale":{"date":"2016-06-24","price":5.0,"qualified":null},"tax":{"marketValue":null,"assessedValue":null,"taxableValue":null,"taxes":null,"landValue":null,"improvementValue":null},"mailingAddress":{"line1":"608 BROAD RIVER DR","line2":null,"city":"BEAUFORT","state":"SC","zip":"29906"},"incomeTract":null,"incomeBlockGroup":null,"nearestRoad":null,"flu":null,"opportunityZone":null,"oz2Eligibility":null,"source":"sc-dorchester-parcels-public"},"geometry":{"type":"Polygon","coordinates":[[[-80.76406,33.18891],[-80.76416,33.18875],[-80.769,33.19229],[-80.76246,33.19573],[-80.76069,33.19397],[-80.76378,33.18932],[-80.76406,33.18891]]]}},{"type":"Feature","id":"45035:053-00-00-006","properties":{"id":"45035:053-00-00-006","parcelId":"053-00-00-006","parcelIdAlt":"0530000006000","countyFips":"45035","countyName":"Dorchester","state":"South Carolina","marketIds":["Charleston"],"situsAddress":"WIRE RD","situsCity":null,"situsZip":null,"jurisdictionCode":null,"ownerName":"SHULER CYNTHIA O","ownerName2":null,"propertyName":null,"zoningCode":"AR_DC","zoningDistrict":null,"jurisdictionPrefix":null,"dorCode":null,"acreage":63.6294,"centroid":[-80.773925,33.175077],"lastSale":{"date":"2023-10-19","price":null,"qualified":null},"tax":{"marketValue":null,"assessedValue":null,"taxableValue":null,"taxes":null,"landValue":null,"improvementValue":null},"mailingAddress":{"line1":"1030 COUNTRY RD","line2":null,"city":"BOWMAN","state":"SC","zip":"29018"},"incomeTract":null,"incomeBlockGroup":null,"nearestRoad":null,"flu":null,"opportunityZone":null,"oz2Eligibility":null,"source":"sc-dorchester-parcels-public"},"geometry":{"type":"Polygon","coordinates":[[[-80.77273,33.17333],[-80.77299,33.17435],[-80.77326,33.17469],[-80.77372,33.17392],[-80.77391,33.17382],[-80.77422,33.17382],[-80.77557,33.17321],[-80.77636,33.17324],[-80.7766,33.17336],[-80.77666,33.17357],[-80.77657,33.17385],[-80.77601,33.17431],[-80.77629,33.17531],[-80.7766,33.17549],[-80.77742,33.17561],[-80.77775,33.17581],[-80.76986,33.18064],[-80.77011,33.17986],[-80.77033,33.17767],[-80.77137,33.17644],[-80.77216,33.17605],[-80.77261,33.17563],[-80.77235,33.17538],[-80.77159,33.17503],[-80.77236,33.1741],[-80.77265,33.17351],[-80.77273,33.17333]]]}},{"type":"Feature","id":"45035:040-00-00-001","properties":{"id":"45035:040-00-00-001","parcelId":"040-00-00-001","parcelIdAlt":"0400000001000","countyFips":"45035","countyName":"Dorchester","state":"South Carolina","marketIds":["Charleston"],"situsAddress":"MCALHANY RD","situsCity":null,"situsZip":null,"jurisdictionCode":null,"ownerName":"MCALHANY YVONNE M (LIFE ESTATE)","ownerName2":null,"propertyName":null,"zoningCode":"AR_DC","zoningDistrict":null,"jurisdictionPrefix":null,"dorCode":null,"acreage":63.0696,"centroid":[-80.75594,33.193687],"lastSale":{"date":"2021-12-14","price":5.0,"qualified":null},"tax":{"marketValue":null,"assessedValue":null,"taxableValue":null,"taxes":null,"landValue":null,"improvementValue":null},"mailingAddress":{"line1":"5465 HUNTERS CHAPEL RD","line2":null,"city":"BAMBERG","state":"SC","zip":"29003"},"incomeTract":null,"incomeBlockGroup":null,"nearestRoad":null,"flu":null,"opportunityZone":null,"oz2Eligibility":null,"source":"sc-dorchester-parcels-public"},"geometry":{"type":"Polygon","coordinates":[[[-80.7533,33.19193],[-80.75525,33.18872],[-80.75909,33.19032],[-80.75687,33.19842],[-80.75657,33.19832],[-80.75713,33.1961],[-80.75337,33.192],[-80.7533,33.19193]]]}},{"type":"Feature","id":"45035:040-00-00-007","properties":{"id":"45035:040-00-00-007","parcelId":"040-00-00-007","parcelIdAlt":"0400000007000","countyFips":"45035","countyName":"Dorchester","state":"South Carolina","marketIds":["Charleston"],"situsAddress":"MCALHANY RD","situsCity":null,"situsZip":null,"jurisdictionCode":null,"ownerName":"MONTGOMERY & JO ANN M (JTROS)","ownerName2":null,"propertyName":null,"zoningCode":"AR_DC","zoningDistrict":null,"jurisdictionPrefix":null,"dorCode":null,"acreage":59.9126,"centroid":[-80.759763,33.194738],"lastSale":{"date":"2019-06-11","price":103867.0,"qualified":null},"tax":{"marketValue":null,"assessedValue":null,"taxableValue":null,"taxes":null,"landValue":null,"improvementValue":null},"mailingAddress":{"line1":"5465 HUNTERS CHAPEL RD","line2":null,"city":"BAMBERG","state":"SC","zip":"29003"},"incomeTract":null,"incomeBlockGroup":null,"nearestRoad":null,"flu":null,"opportunityZone":null,"oz2Eligibility":null,"source":"sc-dorchester-parcels-public"},"geometry":{"type":"Polygon","coordinates":[[[-80.75687,33.19842],[-80.75909,33.19032],[-80.76235,33.19148],[-80.76069,33.19397],[-80.76246,33.19573],[-80.75712,33.19851],[-80.75687,33.19842]]]}}]}