{"type":"FeatureCollection","name":"13075--3_17","features":[{"type":"Feature","id":"13075:0007  001","properties":{"id":"13075:0007  001","parcelId":"0007  001","countyFips":"13075","countyName":"Cook","state":"Georgia","marketIds":["Valdosta"],"situsAddress":null,"situsCity":null,"situsZip":null,"jurisdictionCode":null,"ownerName":"PARKMAN PATRICIA","ownerName2":null,"propertyName":null,"zoningCode":null,"zoningDistrict":null,"jurisdictionPrefix":null,"dorCode":"V","acreage":148.0,"centroid":[-83.511488,31.321361],"lastSale":{"date":null,"price":null,"qualified":null},"tax":{"marketValue":287722.0,"assessedValue":null,"taxableValue":null,"taxes":null},"mailingAddress":{"line1":null,"line2":"5792 UNION ROAD","city":null,"state":null,"zip":null},"incomeTract":null,"incomeBlockGroup":null,"nearestRoad":null,"flu":null,"opportunityZone":null,"oz2Eligibility":null,"source":"ga-cook-parcels-13075","appraiserUrl":"https://qpublic.schneidercorp.com/Application.aspx?App=cookCountyGA&Layer=Parcels&PageType=Report&KeyValue=0007%20%20001","gisViewerUrl":"https://qpublic.schneidercorp.com/Application.aspx?App=cookCountyGA&Layer=Parcels&PageType=Maps"},"geometry":{"type":"Polygon","coordinates":[[[-83.512316,31.327389],[-83.512883,31.327404],[-83.512887,31.326472],[-83.512492,31.325366],[-83.512519,31.325029],[-83.513184,31.3235],[-83.513204,31.322829],[-83.51337,31.322246],[-83.513317,31.321863],[-83.513459,31.321181],[-83.513433,31.320623],[-83.513668,31.319939],[-83.514215,31.319694],[-83.514497,31.31949],[-83.514574,31.319132],[-83.514265,31.31877],[-83.514246,31.318726],[-83.513173,31.318877],[-83.512176,31.318941],[-83.511805,31.318946],[-83.511138,31.318797],[-83.510888,31.318881],[-83.510432,31.319198],[-83.510119,31.319325],[-83.509514,31.319488],[-83.509319,31.319575],[-83.509169,31.319794],[-83.508902,31.320587],[-83.508611,31.32075],[-83.508195,31.320738],[-83.505798,31.320429],[-83.50576,31.323694],[-83.505584,31.327252],[-83.512316,31.327389]]]}},{"type":"Feature","id":"13075:0007  002","properties":{"id":"13075:0007  002","parcelId":"0007  002","countyFips":"13075","countyName":"Cook","state":"Georgia","marketIds":["Valdosta"],"situsAddress":null,"situsCity":null,"situsZip":null,"jurisdictionCode":null,"ownerName":"LOTT RUTLAND JOCAROL, SCOTT RUTLAND","ownerName2":null,"propertyName":null,"zoningCode":null,"zoningDistrict":null,"jurisdictionPrefix":null,"dorCode":"V","acreage":103.0,"centroid":[-83.51068,31.317909],"lastSale":{"date":null,"price":null,"qualified":null},"tax":{"marketValue":230796.0,"assessedValue":null,"taxableValue":null,"taxes":null},"mailingAddress":{"line1":null,"line2":"THOMAS EUGENE GARREN","city":null,"state":null,"zip":null},"incomeTract":null,"incomeBlockGroup":null,"nearestRoad":null,"flu":null,"opportunityZone":null,"oz2Eligibility":null,"source":"ga-cook-parcels-13075","appraiserUrl":"https://qpublic.schneidercorp.com/Application.aspx?App=cookCountyGA&Layer=Parcels&PageType=Report&KeyValue=0007%20%20002","gisViewerUrl":"https://qpublic.schneidercorp.com/Application.aspx?App=cookCountyGA&Layer=Parcels&PageType=Maps"},"geometry":{"type":"Polygon","coordinates":[[[-83.508195,31.320738],[-83.508611,31.32075],[-83.508902,31.320587],[-83.509169,31.319794],[-83.509319,31.319575],[-83.509514,31.319488],[-83.510119,31.319325],[-83.510432,31.319198],[-83.510888,31.318881],[-83.511138,31.318797],[-83.511805,31.318946],[-83.512176,31.318941],[-83.513173,31.318877],[-83.514246,31.318726],[-83.514094,31.318396],[-83.51409,31.318142],[-83.514173,31.317994],[-83.514305,31.317632],[-83.514049,31.317089],[-83.514018,31.316784],[-83.514022,31.316467],[-83.512812,31.31455],[-83.512759,31.31437],[-83.507967,31.314297],[-83.507911,31.315705],[-83.507768,31.315737],[-83.506792,31.315478],[-83.506223,31.315777],[-83.505925,31.315804],[-83.505798,31.320429],[-83.508195,31.320738]]]}},{"type":"Feature","id":"13075:0007  003","properties":{"id":"13075:0007  003","parcelId":"0007  003","countyFips":"13075","countyName":"Cook","state":"Georgia","marketIds":["Valdosta"],"situsAddress":null,"situsCity":null,"situsZip":null,"jurisdictionCode":null,"ownerName":"LENOX RIVER FARMS LLC","ownerName2":null,"propertyName":null,"zoningCode":null,"zoningDistrict":null,"jurisdictionPrefix":null,"dorCode":"V","acreage":44.15,"centroid":[-83.503748,31.316179],"lastSale":{"date":null,"price":null,"qualified":null},"tax":{"marketValue":103253.0,"assessedValue":null,"taxableValue":null,"taxes":null},"mailingAddress":{"line1":null,"line2":"PO BOX 5848","city":null,"state":null,"zip":null},"incomeTract":null,"incomeBlockGroup":null,"nearestRoad":null,"flu":null,"opportunityZone":null,"oz2Eligibility":null,"source":"ga-cook-parcels-13075","appraiserUrl":"https://qpublic.schneidercorp.com/Application.aspx?App=cookCountyGA&Layer=Parcels&PageType=Report&KeyValue=0007%20%20003","gisViewerUrl":"https://qpublic.schneidercorp.com/Application.aspx?App=cookCountyGA&Layer=Parcels&PageType=Maps"},"geometry":{"type":"Polygon","coordinates":[[[-83.500863,31.314344],[-83.502024,31.318645],[-83.505655,31.318637],[-83.505742,31.315498],[-83.504094,31.315537],[-83.504109,31.314415],[-83.500863,31.314344]]]}},{"type":"Feature","id":"13075:0007  004","properties":{"id":"13075:0007  004","parcelId":"0007  004","countyFips":"13075","countyName":"Cook","state":"Georgia","marketIds":["Valdosta"],"situsAddress":null,"situsCity":null,"situsZip":null,"jurisdictionCode":null,"ownerName":"THOMPSON FAYE L","ownerName2":null,"propertyName":null,"zoningCode":null,"zoningDistrict":null,"jurisdictionPrefix":null,"dorCode":"V","acreage":33.73,"centroid":[-83.50244,31.319744],"lastSale":{"date":null,"price":null,"qualified":null},"tax":{"marketValue":100549.0,"assessedValue":null,"taxableValue":null,"taxes":null},"mailingAddress":{"line1":null,"line2":"912 DOC LINDSEY","city":null,"state":null,"zip":null},"incomeTract":null,"incomeBlockGroup":null,"nearestRoad":null,"flu":null,"opportunityZone":null,"oz2Eligibility":null,"source":"ga-cook-parcels-13075","appraiserUrl":"https://qpublic.schneidercorp.com/Application.aspx?App=cookCountyGA&Layer=Parcels&PageType=Report&KeyValue=0007%20%20004","gisViewerUrl":"https://qpublic.schneidercorp.com/Application.aspx?App=cookCountyGA&Layer=Parcels&PageType=Maps"},"geometry":{"type":"Polygon","coordinates":[[[-83.500241,31.320683],[-83.504919,31.320761],[-83.504927,31.320361],[-83.505607,31.320373],[-83.505655,31.318637],[-83.502024,31.318645],[-83.499601,31.318585],[-83.499671,31.318985],[-83.499318,31.320667],[-83.500241,31.320683]]]}},{"type":"Feature","id":"13075:0007  019","properties":{"id":"13075:0007  019","parcelId":"0007  019","countyFips":"13075","countyName":"Cook","state":"Georgia","marketIds":["Valdosta"],"situsAddress":null,"situsCity":null,"situsZip":null,"jurisdictionCode":null,"ownerName":"RUTLAND DAVID MARK","ownerName2":null,"propertyName":null,"zoningCode":null,"zoningDistrict":null,"jurisdictionPrefix":null,"dorCode":"R","acreage":5.3,"centroid":[-83.504929,31.314975],"lastSale":{"date":null,"price":null,"qualified":null},"tax":{"marketValue":178194.0,"assessedValue":null,"taxableValue":null,"taxes":null},"mailingAddress":{"line1":null,"line2":"2992 SUGARHILL RD","city":null,"state":null,"zip":null},"incomeTract":null,"incomeBlockGroup":null,"nearestRoad":null,"flu":null,"opportunityZone":null,"oz2Eligibility":null,"source":"ga-cook-parcels-13075","appraiserUrl":"https://qpublic.schneidercorp.com/Application.aspx?App=cookCountyGA&Layer=Parcels&PageType=Report&KeyValue=0007%20%20019","gisViewerUrl":"https://qpublic.schneidercorp.com/Application.aspx?App=cookCountyGA&Layer=Parcels&PageType=Maps"},"geometry":{"type":"Polygon","coordinates":[[[-83.504109,31.314415],[-83.504094,31.315537],[-83.505742,31.315498],[-83.505771,31.314451],[-83.504109,31.314415]]]}},{"type":"Feature","id":"13075:0007  021","properties":{"id":"13075:0007  021","parcelId":"0007  021","countyFips":"13075","countyName":"Cook","state":"Georgia","marketIds":["Valdosta"],"situsAddress":null,"situsCity":null,"situsZip":null,"jurisdictionCode":null,"ownerName":"THOMPSON JOSEPH D","ownerName2":null,"propertyName":null,"zoningCode":null,"zoningDistrict":null,"jurisdictionPrefix":null,"dorCode":"V","acreage":40.1,"centroid":[-83.502701,31.3262],"lastSale":{"date":null,"price":null,"qualified":null},"tax":{"marketValue":90686.0,"assessedValue":null,"taxableValue":null,"taxes":null},"mailingAddress":{"line1":null,"line2":"270 REGISTER RD","city":null,"state":null,"zip":null},"incomeTract":null,"incomeBlockGroup":null,"nearestRoad":null,"flu":null,"opportunityZone":null,"oz2Eligibility":null,"source":"ga-cook-parcels-13075","appraiserUrl":"https://qpublic.schneidercorp.com/Application.aspx?App=cookCountyGA&Layer=Parcels&PageType=Report&KeyValue=0007%20%20021","gisViewerUrl":"https://qpublic.schneidercorp.com/Application.aspx?App=cookCountyGA&Layer=Parcels&PageType=Maps"},"geometry":{"type":"Polygon","coordinates":[[[-83.503079,31.327213],[-83.505391,31.327249],[-83.505558,31.323897],[-83.500556,31.323857],[-83.500468,31.327172],[-83.501713,31.327192],[-83.50175,31.326498],[-83.50309,31.326525],[-83.503079,31.327213]]]}},{"type":"Feature","id":"13075:0008  004","properties":{"id":"13075:0008  004","parcelId":"0008  004","countyFips":"13075","countyName":"Cook","state":"Georgia","marketIds":["Valdosta"],"situsAddress":null,"situsCity":null,"situsZip":null,"jurisdictionCode":null,"ownerName":"LENOX RIVER FARMS LLC","ownerName2":null,"propertyName":null,"zoningCode":null,"zoningDistrict":null,"jurisdictionPrefix":null,"dorCode":"V","acreage":127.0,"centroid":[-83.511654,31.304842],"lastSale":{"date":null,"price":null,"qualified":null},"tax":{"marketValue":214480.0,"assessedValue":null,"taxableValue":null,"taxes":null},"mailingAddress":{"line1":null,"line2":"PO BOX 5848","city":null,"state":null,"zip":null},"incomeTract":null,"incomeBlockGroup":null,"nearestRoad":null,"flu":null,"opportunityZone":null,"oz2Eligibility":null,"source":"ga-cook-parcels-13075","appraiserUrl":"https://qpublic.schneidercorp.com/Application.aspx?App=cookCountyGA&Layer=Parcels&PageType=Report&KeyValue=0008%20%20004","gisViewerUrl":"https://qpublic.schneidercorp.com/Application.aspx?App=cookCountyGA&Layer=Parcels&PageType=Maps"},"geometry":{"type":"Polygon","coordinates":[[[-83.51011,31.307214],[-83.513919,31.307313],[-83.513994,31.306796],[-83.514453,31.305661],[-83.514583,31.305396],[-83.514624,31.305253],[-83.514642,31.305091],[-83.514624,31.304787],[-83.514529,31.304402],[-83.514499,31.304185],[-83.514552,31.303569],[-83.514612,31.303171],[-83.514614,31.302824],[-83.514052,31.301433],[-83.506159,31.301296],[-83.506088,31.303248],[-83.506051,31.305116],[-83.50514,31.306277],[-83.505838,31.306674],[-83.505992,31.30713],[-83.51011,31.307214]]]}},{"type":"Feature","id":"13075:0008  006","properties":{"id":"13075:0008  006","parcelId":"0008  006","countyFips":"13075","countyName":"Cook","state":"Georgia","marketIds":["Valdosta"],"situsAddress":null,"situsCity":null,"situsZip":null,"jurisdictionCode":null,"ownerName":"PAUL C SUMNER FARMS LLC","ownerName2":null,"propertyName":null,"zoningCode":null,"zoningDistrict":null,"jurisdictionPrefix":null,"dorCode":"V","acreage":23.0,"centroid":[-83.510616,31.295234],"lastSale":{"date":null,"price":null,"qualified":null},"tax":{"marketValue":43792.0,"assessedValue":null,"taxableValue":null,"taxes":null},"mailingAddress":{"line1":null,"line2":"150 PAUL SUMNER ROAD","city":null,"state":null,"zip":null},"incomeTract":null,"incomeBlockGroup":null,"nearestRoad":null,"flu":null,"opportunityZone":null,"oz2Eligibility":null,"source":"ga-cook-parcels-13075","appraiserUrl":"https://qpublic.schneidercorp.com/Application.aspx?App=cookCountyGA&Layer=Parcels&PageType=Report&KeyValue=0008%20%20006","gisViewerUrl":"https://qpublic.schneidercorp.com/Application.aspx?App=cookCountyGA&Layer=Parcels&PageType=Maps"},"geometry":{"type":"Polygon","coordinates":[[[-83.508704,31.296166],[-83.509285,31.29628],[-83.512707,31.295939],[-83.512579,31.295774],[-83.512538,31.295631],[-83.512532,31.295416],[-83.512585,31.295147],[-83.512587,31.295032],[-83.512459,31.294336],[-83.51244,31.294025],[-83.506361,31.293696],[-83.506314,31.295142],[-83.506922,31.29546],[-83.508704,31.296166]]]}},{"type":"Feature","id":"13075:0008  008","properties":{"id":"13075:0008  008","parcelId":"0008  008","countyFips":"13075","countyName":"Cook","state":"Georgia","marketIds":["Valdosta"],"situsAddress":null,"situsCity":null,"situsZip":null,"jurisdictionCode":null,"ownerName":"LENOX RIVER FARMS LLC","ownerName2":null,"propertyName":null,"zoningCode":null,"zoningDistrict":null,"jurisdictionPrefix":null,"dorCode":"V","acreage":135.38,"centroid":[-83.5025,31.299756],"lastSale":{"date":null,"price":null,"qualified":null},"tax":{"marketValue":253030.0,"assessedValue":null,"taxableValue":null,"taxes":null},"mailingAddress":{"line1":null,"line2":"3532 GRICE ROAD","city":null,"state":null,"zip":null},"incomeTract":null,"incomeBlockGroup":null,"nearestRoad":null,"flu":null,"opportunityZone":null,"oz2Eligibility":null,"source":"ga-cook-parcels-13075","appraiserUrl":"https://qpublic.schneidercorp.com/Application.aspx?App=cookCountyGA&Layer=Parcels&PageType=Report&KeyValue=0008%20%20008","gisViewerUrl":"https://qpublic.schneidercorp.com/Application.aspx?App=cookCountyGA&Layer=Parcels&PageType=Maps"},"geometry":{"type":"Polygon","coordinates":[[[-83.502595,31.307861],[-83.502864,31.307877],[-83.503204,31.30785],[-83.503665,31.307727],[-83.50455,31.307412],[-83.505431,31.307213],[-83.505814,31.307198],[-83.505681,31.306779],[-83.504658,31.306202],[-83.503825,31.305959],[-83.502784,31.305874],[-83.502398,31.305642],[-83.502179,31.305217],[-83.502208,31.304771],[-83.502487,31.303981],[-83.502994,31.302645],[-83.503911,31.300786],[-83.505946,31.295608],[-83.506126,31.295387],[-83.505699,31.295107],[-83.505341,31.29534],[-83.505114,31.29529],[-83.504886,31.295337],[-83.504701,31.295337],[-83.504686,31.295422],[-83.504557,31.295556],[-83.504286,31.295774],[-83.504116,31.295724],[-83.504003,31.295638],[-83.503818,31.295601],[-83.503719,31.295515],[-83.503534,31.295599],[-83.503505,31.295648],[-83.50322,31.295695],[-83.503177,31.295768],[-83.503146,31.296073],[-83.502705,31.296071],[-83.502648,31.296229],[-83.502644,31.296681],[-83.502595,31.296831],[-83.502236,31.296591],[-83.501809,31.296164],[-83.501844,31.2964],[-83.501926,31.296585],[-83.501795,31.296808],[-83.501431,31.296913],[-83.500343,31.296873],[-83.500318,31.297496],[-83.499845,31.297519],[-83.499468,31.297809],[-83.497902,31.298295],[-83.498194,31.298788],[-83.497999,31.299033],[-83.497917,31.299336],[-83.498314,31.299676],[-83.498065,31.300107],[-83.498024,31.300727],[-83.498089,31.301108],[-83.499119,31.301129],[-83.500511,31.307645],[-83.501943,31.307863],[-83.502595,31.307861]]]}},{"type":"Feature","id":"13075:0008  009","properties":{"id":"13075:0008  009","parcelId":"0008  009","countyFips":"13075","countyName":"Cook","state":"Georgia","marketIds":["Valdosta"],"situsAddress":null,"situsCity":null,"situsZip":null,"jurisdictionCode":null,"ownerName":"PIERCE PAUL ALAN  LISA KAY CLEMENTS &","ownerName2":null,"propertyName":null,"zoningCode":null,"zoningDistrict":null,"jurisdictionPrefix":null,"dorCode":"V","acreage":68.0,"centroid":[-83.501173,31.29393],"lastSale":{"date":null,"price":null,"qualified":null},"tax":{"marketValue":111440.0,"assessedValue":null,"taxableValue":null,"taxes":null},"mailingAddress":{"line1":null,"line2":"PO BOX 55297","city":null,"state":null,"zip":null},"incomeTract":null,"incomeBlockGroup":null,"nearestRoad":null,"flu":null,"opportunityZone":null,"oz2Eligibility":null,"source":"ga-cook-parcels-13075","appraiserUrl":"https://qpublic.schneidercorp.com/Application.aspx?App=cookCountyGA&Layer=Parcels&PageType=Report&KeyValue=0008%20%20009","gisViewerUrl":"https://qpublic.schneidercorp.com/Application.aspx?App=cookCountyGA&Layer=Parcels&PageType=Maps"},"geometry":{"type":"Polygon","coordinates":[[[-83.502342,31.296669],[-83.502595,31.296831],[-83.502644,31.296681],[-83.502648,31.296229],[-83.502705,31.296071],[-83.503146,31.296073],[-83.503177,31.295768],[-83.50322,31.295695],[-83.503505,31.295648],[-83.503534,31.295599],[-83.503719,31.295515],[-83.503818,31.295601],[-83.504003,31.295638],[-83.504116,31.295724],[-83.504286,31.295774],[-83.504557,31.295556],[-83.504686,31.295422],[-83.504701,31.295337],[-83.504886,31.295337],[-83.505114,31.29529],[-83.505341,31.29534],[-83.505699,31.295107],[-83.499074,31.290561],[-83.497722,31.289747],[-83.49536,31.288626],[-83.495483,31.289523],[-83.495521,31.289635],[-83.495624,31.289822],[-83.496156,31.290623],[-83.496678,31.290632],[-83.49674,31.290725],[-83.496967,31.29137],[-83.497837,31.291829],[-83.498411,31.291872],[-83.498819,31.292217],[-83.499398,31.292359],[-83.499872,31.292402],[-83.500383,31.292994],[-83.500354,31.293381],[-83.500592,31.29369],[-83.500864,31.2939],[-83.500818,31.294071],[-83.50097,31.294844],[-83.501471,31.295039],[-83.501679,31.295306],[-83.501809,31.296164],[-83.502084,31.296453],[-83.502342,31.296669]]]}},{"type":"Feature","id":"13075:0008  010","properties":{"id":"13075:0008  010","parcelId":"0008  010","countyFips":"13075","countyName":"Cook","state":"Georgia","marketIds":["Valdosta"],"situsAddress":null,"situsCity":null,"situsZip":null,"jurisdictionCode":null,"ownerName":"PIERCE PAUL ALAN  LISA KAY CLEMENTS &","ownerName2":null,"propertyName":null,"zoningCode":null,"zoningDistrict":null,"jurisdictionPrefix":null,"dorCode":"V","acreage":95.0,"centroid":[-83.50163,31.290446],"lastSale":{"date":null,"price":null,"qualified":null},"tax":{"marketValue":176288.0,"assessedValue":null,"taxableValue":null,"taxes":null},"mailingAddress":{"line1":null,"line2":"PO BOX 55297","city":null,"state":null,"zip":null},"incomeTract":null,"incomeBlockGroup":null,"nearestRoad":null,"flu":null,"opportunityZone":null,"oz2Eligibility":null,"source":"ga-cook-parcels-13075","appraiserUrl":"https://qpublic.schneidercorp.com/Application.aspx?App=cookCountyGA&Layer=Parcels&PageType=Report&KeyValue=0008%20%20010","gisViewerUrl":"https://qpublic.schneidercorp.com/Application.aspx?App=cookCountyGA&Layer=Parcels&PageType=Maps"},"geometry":{"type":"Polygon","coordinates":[[[-83.505867,31.29487],[-83.506314,31.295164],[-83.506472,31.289389],[-83.506528,31.287951],[-83.495365,31.288035],[-83.495339,31.288302],[-83.497884,31.28951],[-83.49927,31.290344],[-83.505867,31.29487]]]}},{"type":"Feature","id":"13075:0008  015","properties":{"id":"13075:0008  015","parcelId":"0008  015","countyFips":"13075","countyName":"Cook","state":"Georgia","marketIds":["Valdosta"],"situsAddress":null,"situsCity":null,"situsZip":null,"jurisdictionCode":null,"ownerName":"RUTLAND CHARLES","ownerName2":null,"propertyName":null,"zoningCode":null,"zoningDistrict":null,"jurisdictionPrefix":null,"dorCode":"V","acreage":118.0,"centroid":[-83.510878,31.312304],"lastSale":{"date":null,"price":null,"qualified":null},"tax":{"marketValue":213472.0,"assessedValue":null,"taxableValue":null,"taxes":null},"mailingAddress":{"line1":null,"line2":"7628 SAW TIMBER LN","city":null,"state":null,"zip":null},"incomeTract":null,"incomeBlockGroup":null,"nearestRoad":null,"flu":null,"opportunityZone":null,"oz2Eligibility":null,"source":"ga-cook-parcels-13075","appraiserUrl":"https://qpublic.schneidercorp.com/Application.aspx?App=cookCountyGA&Layer=Parcels&PageType=Report&KeyValue=0008%20%20015","gisViewerUrl":"https://qpublic.schneidercorp.com/Application.aspx?App=cookCountyGA&Layer=Parcels&PageType=Maps"},"geometry":{"type":"Polygon","coordinates":[[[-83.505945,31.315108],[-83.505925,31.315804],[-83.506223,31.315777],[-83.506792,31.315478],[-83.507768,31.315737],[-83.507911,31.315705],[-83.507967,31.314297],[-83.512759,31.31437],[-83.51237,31.31371],[-83.512412,31.313579],[-83.512424,31.313337],[-83.512462,31.313193],[-83.512582,31.312994],[-83.512823,31.312756],[-83.513016,31.312526],[-83.513099,31.312391],[-83.513182,31.312198],[-83.513239,31.312001],[-83.513263,31.311892],[-83.513252,31.311737],[-83.513287,31.311645],[-83.513472,31.311451],[-83.513936,31.311108],[-83.514097,31.310934],[-83.514133,31.310847],[-83.51413,31.310732],[-83.514068,31.310497],[-83.513847,31.310042],[-83.51372,31.309362],[-83.513919,31.307313],[-83.505992,31.30713],[-83.50614,31.307544],[-83.506023,31.312118],[-83.506752,31.312166],[-83.506682,31.312741],[-83.506007,31.312719],[-83.505945,31.315108]]]}},{"type":"Feature","id":"13075:0009  001","properties":{"id":"13075:0009  001","parcelId":"0009  001","countyFips":"13075","countyName":"Cook","state":"Georgia","marketIds":["Valdosta"],"situsAddress":null,"situsCity":null,"situsZip":null,"jurisdictionCode":null,"ownerName":"ROWAN GARY & BRITTANY","ownerName2":null,"propertyName":null,"zoningCode":null,"zoningDistrict":null,"jurisdictionPrefix":null,"dorCode":"V","acreage":87.0,"centroid":[-83.503974,31.285259],"lastSale":{"date":null,"price":null,"qualified":null},"tax":{"marketValue":185136.0,"assessedValue":null,"taxableValue":null,"taxes":null},"mailingAddress":{"line1":null,"line2":"1919 LONNIE GRIMSLEY RD","city":null,"state":null,"zip":null},"incomeTract":null,"incomeBlockGroup":null,"nearestRoad":null,"flu":null,"opportunityZone":null,"oz2Eligibility":null,"source":"ga-cook-parcels-13075","appraiserUrl":"https://qpublic.schneidercorp.com/Application.aspx?App=cookCountyGA&Layer=Parcels&PageType=Report&KeyValue=0009%20%20001","gisViewerUrl":"https://qpublic.schneidercorp.com/Application.aspx?App=cookCountyGA&Layer=Parcels&PageType=Maps"},"geometry":{"type":"Polygon","coordinates":[[[-83.500794,31.282581],[-83.500983,31.287989],[-83.507013,31.287948],[-83.507108,31.282516],[-83.500794,31.282581]]]}},{"type":"Feature","id":"13075:0009  006","properties":{"id":"13075:0009  006","parcelId":"0009  006","countyFips":"13075","countyName":"Cook","state":"Georgia","marketIds":["Valdosta"],"situsAddress":null,"situsCity":null,"situsZip":null,"jurisdictionCode":null,"ownerName":"FRANKS BOBBY EVERETT JOE ED FRANKS &","ownerName2":null,"propertyName":null,"zoningCode":null,"zoningDistrict":null,"jurisdictionPrefix":null,"dorCode":"V","acreage":10.54,"centroid":[-83.502156,31.276138],"lastSale":{"date":null,"price":null,"qualified":null},"tax":{"marketValue":32417.0,"assessedValue":null,"taxableValue":null,"taxes":null},"mailingAddress":{"line1":null,"line2":"645 RENTZ BRIDGE ROAD","city":null,"state":null,"zip":null},"incomeTract":null,"incomeBlockGroup":null,"nearestRoad":null,"flu":null,"opportunityZone":null,"oz2Eligibility":null,"source":"ga-cook-parcels-13075","appraiserUrl":"https://qpublic.schneidercorp.com/Application.aspx?App=cookCountyGA&Layer=Parcels&PageType=Report&KeyValue=0009%20%20006","gisViewerUrl":"https://qpublic.schneidercorp.com/Application.aspx?App=cookCountyGA&Layer=Parcels&PageType=Maps"},"geometry":{"type":"Polygon","coordinates":[[[-83.499835,31.276645],[-83.50066,31.276667],[-83.500686,31.276481],[-83.501485,31.276494],[-83.502466,31.276404],[-83.503153,31.276408],[-83.503504,31.276231],[-83.503688,31.275924],[-83.504063,31.275654],[-83.504064,31.275631],[-83.50328,31.275574],[-83.498984,31.275547],[-83.499835,31.276645]]]}},{"type":"Feature","id":"13075:0009  006A","properties":{"id":"13075:0009  006A","parcelId":"0009  006A","countyFips":"13075","countyName":"Cook","state":"Georgia","marketIds":["Valdosta"],"situsAddress":null,"situsCity":null,"situsZip":null,"jurisdictionCode":null,"ownerName":"EASON NANCY KATHERINE","ownerName2":null,"propertyName":null,"zoningCode":null,"zoningDistrict":null,"jurisdictionPrefix":null,"dorCode":"A","acreage":34.56,"centroid":[-83.503374,31.277708],"lastSale":{"date":null,"price":null,"qualified":null},"tax":{"marketValue":90940.0,"assessedValue":null,"taxableValue":null,"taxes":null},"mailingAddress":{"line1":null,"line2":"P O BOX 909","city":null,"state":null,"zip":null},"incomeTract":null,"incomeBlockGroup":null,"nearestRoad":null,"flu":null,"opportunityZone":null,"oz2Eligibility":null,"source":"ga-cook-parcels-13075","appraiserUrl":"https://qpublic.schneidercorp.com/Application.aspx?App=cookCountyGA&Layer=Parcels&PageType=Report&KeyValue=0009%20%20006A","gisViewerUrl":"https://qpublic.schneidercorp.com/Application.aspx?App=cookCountyGA&Layer=Parcels&PageType=Maps"},"geometry":{"type":"Polygon","coordinates":[[[-83.503886,31.279717],[-83.503899,31.279719],[-83.504362,31.279698],[-83.504555,31.279711],[-83.504512,31.279267],[-83.504571,31.279019],[-83.504645,31.278871],[-83.504846,31.278594],[-83.504962,31.278466],[-83.505058,31.278414],[-83.5053,31.278372],[-83.505707,31.278421],[-83.505853,31.278471],[-83.505887,31.278458],[-83.505896,31.278391],[-83.505934,31.278374],[-83.506072,31.278439],[-83.506162,31.278525],[-83.507137,31.278605],[-83.507142,31.275678],[-83.504063,31.275654],[-83.503688,31.275924],[-83.503504,31.276231],[-83.503153,31.276408],[-83.502466,31.276404],[-83.501485,31.276494],[-83.500686,31.276481],[-83.50066,31.276667],[-83.499835,31.276645],[-83.500014,31.276876],[-83.500115,31.276977],[-83.50027,31.27701],[-83.500608,31.276954],[-83.500709,31.276918],[-83.500812,31.276838],[-83.50091,31.276797],[-83.5013,31.276706],[-83.501824,31.276685],[-83.502187,31.276722],[-83.502277,31.27676],[-83.502555,31.276999],[-83.502711,31.277177],[-83.502798,31.277416],[-83.502865,31.277708],[-83.503142,31.278359],[-83.503741,31.279562],[-83.503823,31.279671],[-83.503886,31.279717]]]}},{"type":"Feature","id":"13075:0009  009","properties":{"id":"13075:0009  009","parcelId":"0009  009","countyFips":"13075","countyName":"Cook","state":"Georgia","marketIds":["Valdosta"],"situsAddress":null,"situsCity":null,"situsZip":null,"jurisdictionCode":null,"ownerName":"COOPER BYRON & BRIAN D COOPER","ownerName2":null,"propertyName":null,"zoningCode":null,"zoningDistrict":null,"jurisdictionPrefix":null,"dorCode":"V","acreage":76.0,"centroid":[-83.506493,31.272028],"lastSale":{"date":null,"price":null,"qualified":null},"tax":{"marketValue":183441.0,"assessedValue":null,"taxableValue":null,"taxes":null},"mailingAddress":{"line1":null,"line2":"PO BOX 87","city":null,"state":null,"zip":null},"incomeTract":null,"incomeBlockGroup":null,"nearestRoad":null,"flu":null,"opportunityZone":null,"oz2Eligibility":null,"source":"ga-cook-parcels-13075","appraiserUrl":"https://qpublic.schneidercorp.com/Application.aspx?App=cookCountyGA&Layer=Parcels&PageType=Report&KeyValue=0009%20%20009","gisViewerUrl":"https://qpublic.schneidercorp.com/Application.aspx?App=cookCountyGA&Layer=Parcels&PageType=Maps"},"geometry":{"type":"Polygon","coordinates":[[[-83.504063,31.275654],[-83.507142,31.275678],[-83.50714,31.273855],[-83.507548,31.274317],[-83.508044,31.2745],[-83.508008,31.274425],[-83.50801,31.274352],[-83.508128,31.274071],[-83.508157,31.273949],[-83.508152,31.273827],[-83.508097,31.273687],[-83.507949,31.273534],[-83.507887,31.273426],[-83.507828,31.273241],[-83.507799,31.273039],[-83.507807,31.27293],[-83.507851,31.272809],[-83.508049,31.272414],[-83.508054,31.272296],[-83.508034,31.272146],[-83.507993,31.272083],[-83.507667,31.272097],[-83.50759,31.272049],[-83.507536,31.271987],[-83.507513,31.271924],[-83.507519,31.27185],[-83.507617,31.271706],[-83.507675,31.271522],[-83.507653,31.271468],[-83.507572,31.271384],[-83.50731,31.271207],[-83.507018,31.271143],[-83.50685,31.27107],[-83.506751,31.271002],[-83.506647,31.270891],[-83.506572,31.27077],[-83.506517,31.270632],[-83.506464,31.270391],[-83.506442,31.270099],[-83.506353,31.269815],[-83.506272,31.269719],[-83.506133,31.269623],[-83.505874,31.269544],[-83.505781,31.269493],[-83.505589,31.269303],[-83.505474,31.269152],[-83.505409,31.269025],[-83.505383,31.268883],[-83.505389,31.268681],[-83.500045,31.268544],[-83.499961,31.271771],[-83.501221,31.272277],[-83.500234,31.275379],[-83.503294,31.27541],[-83.504071,31.275475],[-83.504063,31.275654]]]}},{"type":"Feature","id":"13075:0009  010","properties":{"id":"13075:0009  010","parcelId":"0009  010","countyFips":"13075","countyName":"Cook","state":"Georgia","marketIds":["Valdosta"],"situsAddress":null,"situsCity":null,"situsZip":null,"jurisdictionCode":null,"ownerName":"FRANKS EVERETT","ownerName2":null,"propertyName":null,"zoningCode":null,"zoningDistrict":null,"jurisdictionPrefix":null,"dorCode":"V","acreage":6.9,"centroid":[-83.500343,31.2737],"lastSale":{"date":null,"price":null,"qualified":null},"tax":{"marketValue":12331.0,"assessedValue":null,"taxableValue":null,"taxes":null},"mailingAddress":{"line1":null,"line2":"645 RENTZ BRIDGE RD","city":null,"state":null,"zip":null},"incomeTract":null,"incomeBlockGroup":null,"nearestRoad":null,"flu":null,"opportunityZone":null,"oz2Eligibility":null,"source":"ga-cook-parcels-13075","appraiserUrl":"https://qpublic.schneidercorp.com/Application.aspx?App=cookCountyGA&Layer=Parcels&PageType=Report&KeyValue=0009%20%20010","gisViewerUrl":"https://qpublic.schneidercorp.com/Application.aspx?App=cookCountyGA&Layer=Parcels&PageType=Maps"},"geometry":{"type":"Polygon","coordinates":[[[-83.499954,31.275374],[-83.500234,31.275379],[-83.501221,31.272277],[-83.499961,31.271771],[-83.499954,31.275374]]]}},{"type":"Feature","id":"13075:0009  016","properties":{"id":"13075:0009  016","parcelId":"0009  016","countyFips":"13075","countyName":"Cook","state":"Georgia","marketIds":["Valdosta"],"situsAddress":null,"situsCity":null,"situsZip":null,"jurisdictionCode":null,"ownerName":"LINDSEY DEBORAH S","ownerName2":null,"propertyName":null,"zoningCode":null,"zoningDistrict":null,"jurisdictionPrefix":null,"dorCode":"V","acreage":146.52,"centroid":[-83.501992,31.266207],"lastSale":{"date":null,"price":null,"qualified":null},"tax":{"marketValue":370767.0,"assessedValue":null,"taxableValue":null,"taxes":null},"mailingAddress":{"line1":null,"line2":"128 PEACEFUL LN","city":null,"state":null,"zip":null},"incomeTract":null,"incomeBlockGroup":null,"nearestRoad":null,"flu":null,"opportunityZone":null,"oz2Eligibility":null,"source":"ga-cook-parcels-13075","appraiserUrl":"https://qpublic.schneidercorp.com/Application.aspx?App=cookCountyGA&Layer=Parcels&PageType=Report&KeyValue=0009%20%20016","gisViewerUrl":"https://qpublic.schneidercorp.com/Application.aspx?App=cookCountyGA&Layer=Parcels&PageType=Maps"},"geometry":{"type":"Polygon","coordinates":[[[-83.503707,31.268642],[-83.505389,31.268681],[-83.50554,31.268172],[-83.505705,31.267715],[-83.50583,31.267239],[-83.505982,31.26696],[-83.506125,31.26675],[-83.506181,31.266601],[-83.50617,31.266515],[-83.506133,31.266468],[-83.506059,31.266467],[-83.505933,31.266516],[-83.5058,31.26651],[-83.505671,31.266469],[-83.505604,31.266386],[-83.50559,31.266292],[-83.505606,31.266195],[-83.505705,31.265984],[-83.505776,31.265726],[-83.505771,31.265627],[-83.505717,31.265443],[-83.505729,31.265254],[-83.505943,31.265064],[-83.506102,31.264986],[-83.506211,31.264901],[-83.506289,31.264636],[-83.500406,31.264422],[-83.498807,31.264396],[-83.497327,31.264412],[-83.494619,31.264292],[-83.494054,31.265315],[-83.494338,31.265454],[-83.49439,31.265547],[-83.494429,31.265676],[-83.494793,31.265977],[-83.493763,31.265937],[-83.493726,31.266041],[-83.497277,31.266139],[-83.497228,31.266988],[-83.493708,31.267039],[-83.493685,31.268304],[-83.500839,31.268575],[-83.503707,31.268642]]]}},{"type":"Feature","id":"13075:0009  018","properties":{"id":"13075:0009  018","parcelId":"0009  018","countyFips":"13075","countyName":"Cook","state":"Georgia","marketIds":["Valdosta"],"situsAddress":null,"situsCity":null,"situsZip":null,"jurisdictionCode":null,"ownerName":"LENOX RIVER FARMS LLC","ownerName2":null,"propertyName":null,"zoningCode":null,"zoningDistrict":null,"jurisdictionPrefix":null,"dorCode":"V","acreage":35.0,"centroid":[-83.504689,31.263758],"lastSale":{"date":null,"price":null,"qualified":null},"tax":{"marketValue":78848.0,"assessedValue":null,"taxableValue":null,"taxes":null},"mailingAddress":{"line1":null,"line2":"3532 GRICE ROAD","city":null,"state":null,"zip":null},"incomeTract":null,"incomeBlockGroup":null,"nearestRoad":null,"flu":null,"opportunityZone":null,"oz2Eligibility":null,"source":"ga-cook-parcels-13075","appraiserUrl":"https://qpublic.schneidercorp.com/Application.aspx?App=cookCountyGA&Layer=Parcels&PageType=Report&KeyValue=0009%20%20018","gisViewerUrl":"https://qpublic.schneidercorp.com/Application.aspx?App=cookCountyGA&Layer=Parcels&PageType=Maps"},"geometry":{"type":"Polygon","coordinates":[[[-83.505006,31.26459],[-83.506289,31.264636],[-83.506531,31.264359],[-83.505928,31.263994],[-83.505851,31.263777],[-83.506,31.263647],[-83.506192,31.263638],[-83.506331,31.26352],[-83.506267,31.263166],[-83.506403,31.263026],[-83.506789,31.262815],[-83.498853,31.262633],[-83.498807,31.264396],[-83.500406,31.264422],[-83.505006,31.26459]]]}},{"type":"Feature","id":"13075:0010  002","properties":{"id":"13075:0010  002","parcelId":"0010  002","countyFips":"13075","countyName":"Cook","state":"Georgia","marketIds":["Valdosta"],"situsAddress":null,"situsCity":null,"situsZip":null,"jurisdictionCode":null,"ownerName":"LENOX RIVER FARMS LLC","ownerName2":null,"propertyName":null,"zoningCode":null,"zoningDistrict":null,"jurisdictionPrefix":null,"dorCode":"V","acreage":41.4,"centroid":[-83.505476,31.261975],"lastSale":{"date":null,"price":null,"qualified":null},"tax":{"marketValue":78826.0,"assessedValue":null,"taxableValue":null,"taxes":null},"mailingAddress":{"line1":null,"line2":"3532 GRICE ROAD","city":null,"state":null,"zip":null},"incomeTract":null,"incomeBlockGroup":null,"nearestRoad":null,"flu":null,"opportunityZone":null,"oz2Eligibility":null,"source":"ga-cook-parcels-13075","appraiserUrl":"https://qpublic.schneidercorp.com/Application.aspx?App=cookCountyGA&Layer=Parcels&PageType=Report&KeyValue=0010%20%20002","gisViewerUrl":"https://qpublic.schneidercorp.com/Application.aspx?App=cookCountyGA&Layer=Parcels&PageType=Maps"},"geometry":{"type":"Polygon","coordinates":[[[-83.506441,31.262807],[-83.506789,31.262815],[-83.506819,31.262577],[-83.506853,31.262484],[-83.506854,31.262327],[-83.506875,31.262233],[-83.507249,31.261436],[-83.507208,31.261],[-83.507136,31.260755],[-83.499159,31.260654],[-83.498853,31.262633],[-83.506441,31.262807]]]}},{"type":"Feature","id":"13075:0010  003","properties":{"id":"13075:0010  003","parcelId":"0010  003","countyFips":"13075","countyName":"Cook","state":"Georgia","marketIds":["Valdosta"],"situsAddress":null,"situsCity":null,"situsZip":null,"jurisdictionCode":null,"ownerName":"LENOX RIVER FARMS LLC","ownerName2":null,"propertyName":null,"zoningCode":null,"zoningDistrict":null,"jurisdictionPrefix":null,"dorCode":"V","acreage":125.57,"centroid":[-83.505941,31.257486],"lastSale":{"date":null,"price":null,"qualified":null},"tax":{"marketValue":340478.0,"assessedValue":null,"taxableValue":null,"taxes":null},"mailingAddress":{"line1":null,"line2":"3532 GRICE ROAD","city":null,"state":null,"zip":null},"incomeTract":null,"incomeBlockGroup":null,"nearestRoad":null,"flu":null,"opportunityZone":null,"oz2Eligibility":null,"source":"ga-cook-parcels-13075","appraiserUrl":"https://qpublic.schneidercorp.com/Application.aspx?App=cookCountyGA&Layer=Parcels&PageType=Report&KeyValue=0010%20%20003","gisViewerUrl":"https://qpublic.schneidercorp.com/Application.aspx?App=cookCountyGA&Layer=Parcels&PageType=Maps"},"geometry":{"type":"Polygon","coordinates":[[[-83.499159,31.260654],[-83.507136,31.260755],[-83.507014,31.260561],[-83.506522,31.260097],[-83.506248,31.259887],[-83.506112,31.259855],[-83.505863,31.259856],[-83.505334,31.259996],[-83.505129,31.260032],[-83.50509,31.259997],[-83.505084,31.259939],[-83.505134,31.259783],[-83.505259,31.259641],[-83.505531,31.259458],[-83.505818,31.259322],[-83.506103,31.259089],[-83.506228,31.258887],[-83.506288,31.258641],[-83.506462,31.258455],[-83.506529,31.258338],[-83.506535,31.258273],[-83.506513,31.258211],[-83.506475,31.258171],[-83.506418,31.258148],[-83.506193,31.258135],[-83.505962,31.258181],[-83.505723,31.258191],[-83.505607,31.258157],[-83.505539,31.258099],[-83.505536,31.257999],[-83.505609,31.257866],[-83.505697,31.25778],[-83.505868,31.257687],[-83.506033,31.257566],[-83.506112,31.257372],[-83.506104,31.257292],[-83.506075,31.257236],[-83.505942,31.257118],[-83.505776,31.256895],[-83.505746,31.256787],[-83.505749,31.256662],[-83.505807,31.256527],[-83.505888,31.256472],[-83.506104,31.256512],[-83.506356,31.256587],[-83.506498,31.256601],[-83.506823,31.256552],[-83.506882,31.256521],[-83.506942,31.256459],[-83.506971,31.256391],[-83.506968,31.256327],[-83.506903,31.256212],[-83.506744,31.256055],[-83.506708,31.255955],[-83.50672,31.255852],[-83.50689,31.255689],[-83.50716,31.255499],[-83.507405,31.255268],[-83.507613,31.255021],[-83.507689,31.254871],[-83.507694,31.254738],[-83.507662,31.254616],[-83.507559,31.254411],[-83.507375,31.25417],[-83.505073,31.254293],[-83.503006,31.254814],[-83.500065,31.255639],[-83.499203,31.255934],[-83.499159,31.260654]]]}},{"type":"Feature","id":"13075:0010  004","properties":{"id":"13075:0010  004","parcelId":"0010  004","countyFips":"13075","countyName":"Cook","state":"Georgia","marketIds":["Valdosta"],"situsAddress":null,"situsCity":null,"situsZip":null,"jurisdictionCode":null,"ownerName":"DOUBLE G PROPERTIES LLC","ownerName2":null,"propertyName":null,"zoningCode":null,"zoningDistrict":null,"jurisdictionPrefix":null,"dorCode":"A","acreage":10.0,"centroid":[-83.507527,31.251653],"lastSale":{"date":null,"price":null,"qualified":null},"tax":{"marketValue":44800.0,"assessedValue":null,"taxableValue":null,"taxes":null},"mailingAddress":{"line1":null,"line2":"1270 COBBLEMILL WAY","city":null,"state":null,"zip":null},"incomeTract":null,"incomeBlockGroup":null,"nearestRoad":null,"flu":null,"opportunityZone":null,"oz2Eligibility":null,"source":"ga-cook-parcels-13075","appraiserUrl":"https://qpublic.schneidercorp.com/Application.aspx?App=cookCountyGA&Layer=Parcels&PageType=Report&KeyValue=0010%20%20004","gisViewerUrl":"https://qpublic.schneidercorp.com/Application.aspx?App=cookCountyGA&Layer=Parcels&PageType=Maps"},"geometry":{"type":"Polygon","coordinates":[[[-83.507134,31.253507],[-83.507101,31.253967],[-83.507386,31.253948],[-83.507393,31.253545],[-83.507364,31.253077],[-83.507377,31.252794],[-83.507433,31.252647],[-83.507673,31.252239],[-83.507708,31.252037],[-83.507704,31.251818],[-83.507643,31.251463],[-83.507582,31.251269],[-83.507478,31.251051],[-83.507396,31.250764],[-83.507383,31.250594],[-83.507398,31.250455],[-83.507475,31.250315],[-83.507629,31.25016],[-83.507991,31.249932],[-83.508416,31.249562],[-83.507411,31.249561],[-83.507134,31.253507]]]}},{"type":"Feature","id":"13075:0010  006","properties":{"id":"13075:0010  006","parcelId":"0010  006","countyFips":"13075","countyName":"Cook","state":"Georgia","marketIds":["Valdosta"],"situsAddress":null,"situsCity":null,"situsZip":null,"jurisdictionCode":null,"ownerName":"LENOX RIVER FARMS LLC","ownerName2":null,"propertyName":null,"zoningCode":null,"zoningDistrict":null,"jurisdictionPrefix":null,"dorCode":"V","acreage":25.26,"centroid":[-83.505136,31.250787],"lastSale":{"date":null,"price":null,"qualified":null},"tax":{"marketValue":48095.0,"assessedValue":null,"taxableValue":null,"taxes":null},"mailingAddress":{"line1":null,"line2":"3532 GRICE ROAD","city":null,"state":null,"zip":null},"incomeTract":null,"incomeBlockGroup":null,"nearestRoad":null,"flu":null,"opportunityZone":null,"oz2Eligibility":null,"source":"ga-cook-parcels-13075","appraiserUrl":"https://qpublic.schneidercorp.com/Application.aspx?App=cookCountyGA&Layer=Parcels&PageType=Report&KeyValue=0010%20%20006","gisViewerUrl":"https://qpublic.schneidercorp.com/Application.aspx?App=cookCountyGA&Layer=Parcels&PageType=Maps"},"geometry":{"type":"Polygon","coordinates":[[[-83.506059,31.253179],[-83.507155,31.253224],[-83.507411,31.249561],[-83.505154,31.24957],[-83.50314,31.249604],[-83.503536,31.249857],[-83.504035,31.250342],[-83.504599,31.250957],[-83.506059,31.253179]]]}},{"type":"Feature","id":"13075:0010  015","properties":{"id":"13075:0010  015","parcelId":"0010  015","countyFips":"13075","countyName":"Cook","state":"Georgia","marketIds":["Valdosta"],"situsAddress":null,"situsCity":null,"situsZip":null,"jurisdictionCode":null,"ownerName":"WEEKS KATHRYN NICHOLE","ownerName2":null,"propertyName":null,"zoningCode":null,"zoningDistrict":null,"jurisdictionPrefix":null,"dorCode":"R","acreage":6.35,"centroid":[-83.504947,31.252465],"lastSale":{"date":null,"price":null,"qualified":null},"tax":{"marketValue":140894.0,"assessedValue":null,"taxableValue":null,"taxes":null},"mailingAddress":{"line1":null,"line2":"245 BARNEYVILLE RD","city":null,"state":null,"zip":null},"incomeTract":null,"incomeBlockGroup":null,"nearestRoad":null,"flu":null,"opportunityZone":null,"oz2Eligibility":null,"source":"ga-cook-parcels-13075","appraiserUrl":"https://qpublic.schneidercorp.com/Application.aspx?App=cookCountyGA&Layer=Parcels&PageType=Report&KeyValue=0010%20%20015","gisViewerUrl":"https://qpublic.schneidercorp.com/Application.aspx?App=cookCountyGA&Layer=Parcels&PageType=Maps"},"geometry":{"type":"Polygon","coordinates":[[[-83.503817,31.251657],[-83.50537,31.254059],[-83.506389,31.254011],[-83.5046,31.251295],[-83.504557,31.251301],[-83.503817,31.251657]]]}},{"type":"Feature","id":"13075:0010  016","properties":{"id":"13075:0010  016","parcelId":"0010  016","countyFips":"13075","countyName":"Cook","state":"Georgia","marketIds":["Valdosta"],"situsAddress":null,"situsCity":null,"situsZip":null,"jurisdictionCode":null,"ownerName":"LENOX RIVER FARMS LLC","ownerName2":null,"propertyName":null,"zoningCode":null,"zoningDistrict":null,"jurisdictionPrefix":null,"dorCode":"V","acreage":56.91,"centroid":[-83.501271,31.251497],"lastSale":{"date":null,"price":null,"qualified":null},"tax":{"marketValue":108357.0,"assessedValue":null,"taxableValue":null,"taxes":null},"mailingAddress":{"line1":null,"line2":"3532 GRICE ROAD","city":null,"state":null,"zip":null},"incomeTract":null,"incomeBlockGroup":null,"nearestRoad":null,"flu":null,"opportunityZone":null,"oz2Eligibility":null,"source":"ga-cook-parcels-13075","appraiserUrl":"https://qpublic.schneidercorp.com/Application.aspx?App=cookCountyGA&Layer=Parcels&PageType=Report&KeyValue=0010%20%20016","gisViewerUrl":"https://qpublic.schneidercorp.com/Application.aspx?App=cookCountyGA&Layer=Parcels&PageType=Maps"},"geometry":{"type":"Polygon","coordinates":[[[-83.499961,31.249446],[-83.499951,31.255442],[-83.502929,31.254605],[-83.505015,31.254079],[-83.50537,31.254059],[-83.502353,31.249392],[-83.49972,31.249287],[-83.499086,31.249289],[-83.499088,31.249725],[-83.499238,31.249642],[-83.499961,31.249446]]]}}]}