{"type":"FeatureCollection","name":"12089-3_15","features":[{"type":"Feature","id":"12089:04-4N-23-0000-0002-0000","properties":{"id":"12089:04-4N-23-0000-0002-0000","parcelId":"04-4N-23-0000-0002-0000","countyFips":"12089","countyName":"Nassau","state":"Florida","marketIds":["Jacksonville"],"situsAddress":"300027 TRACY RD","situsCity":null,"situsZip":null,"jurisdictionCode":"Nassau County","ownerName":"ST MARYS RIVER RANCH INC","ownerName2":null,"propertyName":null,"zoningCode":"OR","zoningDistrict":"Open Rural","jurisdictionPrefix":null,"dorCode":"5500","acreage":111.9511,"centroid":[-82.022163,30.785818],"lastSale":{"date":null,"price":null,"qualified":null},"tax":{"marketValue":1100000.0,"assessedValue":33405.0,"taxableValue":33405.0,"taxes":null},"mailingAddress":{"line1":"3948 3RD ST S STE #432","line2":null,"city":"JACKSONVILLE BEACH","state":"FL","zip":"32250"},"incomeTract":null,"incomeBlockGroup":null,"nearestRoad":null,"flu":{"code":"AGR","label":"Agriculture","jurisdiction":"Nassau County","source":"nassau-unincorp-flu"},"opportunityZone":null,"oz2Eligibility":null,"source":"fl-nassau-taxmap-12089","gisViewerUrl":"https://maps.ncpafl.com/nassautaxmap/","appraiserUrl":"https://search.ncpafl.com/search/r/04-4N-23-0000-0002-0000"},"geometry":{"type":"MultiPolygon","coordinates":[[[[-82.019482,30.784954],[-82.019547,30.787949],[-82.020312,30.788113],[-82.021248,30.788098],[-82.02189,30.788043],[-82.022422,30.787743],[-82.022868,30.787256],[-82.023155,30.786792],[-82.02326,30.786452],[-82.023365,30.786055],[-82.023521,30.785066],[-82.023674,30.784516],[-82.023701,30.783932],[-82.02357,30.783385],[-82.023173,30.782893],[-82.019416,30.781845],[-82.019482,30.784954]]],[[[-82.015201,30.781327],[-82.01852,30.781326],[-82.015947,30.779197],[-82.015837,30.779143],[-82.015715,30.779115],[-82.015153,30.779109],[-82.015201,30.781327]]],[[[-82.01515,30.778972],[-82.015657,30.778974],[-82.015882,30.77901],[-82.016078,30.779113],[-82.01875,30.781326],[-82.019404,30.781325],[-82.019412,30.781696],[-82.023033,30.78271],[-82.022164,30.78155],[-82.021162,30.780757],[-82.021059,30.780556],[-82.021199,30.780281],[-82.021295,30.779898],[-82.021166,30.779531],[-82.020862,30.779223],[-82.020484,30.779046],[-82.019916,30.779014],[-82.019614,30.778959],[-82.019,30.77851],[-82.018981,30.778279],[-82.019128,30.777968],[-82.019369,30.777843],[-82.019508,30.777696],[-82.015123,30.777698],[-82.01515,30.778972]]]]}},{"type":"Feature","id":"12089:09-4N-23-0000-0001-0000","properties":{"id":"12089:09-4N-23-0000-0001-0000","parcelId":"09-4N-23-0000-0001-0000","countyFips":"12089","countyName":"Nassau","state":"Florida","marketIds":["Jacksonville"],"situsAddress":"TRACY RD","situsCity":null,"situsZip":null,"jurisdictionCode":"Nassau County","ownerName":"SCHNAUSS ROY H III","ownerName2":null,"propertyName":null,"zoningCode":"OR","zoningDistrict":"Open Rural","jurisdictionPrefix":null,"dorCode":"5500","acreage":79.6736,"centroid":[-82.017041,30.782411],"lastSale":{"date":null,"price":null,"qualified":null},"tax":{"marketValue":880000.0,"assessedValue":41830.0,"taxableValue":41830.0,"taxes":null},"mailingAddress":{"line1":"4344 ORTEGA FOREST DR","line2":null,"city":"JACKSONVILLE","state":"FL","zip":"32210"},"incomeTract":null,"incomeBlockGroup":null,"nearestRoad":null,"flu":{"code":"AGR","label":"Agriculture","jurisdiction":"Nassau County","source":"nassau-unincorp-flu"},"opportunityZone":null,"oz2Eligibility":null,"source":"fl-nassau-taxmap-12089","gisViewerUrl":"https://maps.ncpafl.com/nassautaxmap/","appraiserUrl":"https://search.ncpafl.com/search/r/09-4N-23-0000-0001-0000"},"geometry":{"type":"MultiPolygon","coordinates":[[[[-82.011075,30.784958],[-82.019482,30.784954],[-82.019416,30.781845],[-82.01917,30.781749],[-82.018939,30.781631],[-82.018732,30.781496],[-82.01852,30.781326],[-82.010997,30.781329],[-82.011075,30.784958]]],[[[-82.018752,30.781327],[-82.018754,30.781329],[-82.019066,30.781538],[-82.019412,30.781696],[-82.019404,30.781325],[-82.018752,30.781327]]]]}},{"type":"Feature","id":"12089:04-4N-23-0000-0003-0000","properties":{"id":"12089:04-4N-23-0000-0003-0000","parcelId":"04-4N-23-0000-0003-0000","countyFips":"12089","countyName":"Nassau","state":"Florida","marketIds":["Jacksonville"],"situsAddress":"TRACY RD","situsCity":null,"situsZip":null,"jurisdictionCode":"Nassau County","ownerName":"SCHNAUSS ROY H III","ownerName2":null,"propertyName":null,"zoningCode":"OR","zoningDistrict":"Open Rural","jurisdictionPrefix":null,"dorCode":"5900","acreage":72.1388,"centroid":[-82.016632,30.787391],"lastSale":{"date":null,"price":null,"qualified":null},"tax":{"marketValue":825000.0,"assessedValue":22185.0,"taxableValue":22185.0,"taxes":null},"mailingAddress":{"line1":"4344 ORTEGA FOREST DR","line2":null,"city":"JACKSONVILLE","state":"FL","zip":"32210"},"incomeTract":null,"incomeBlockGroup":null,"nearestRoad":null,"flu":{"code":"AGR","label":"Agriculture","jurisdiction":"Nassau County","source":"nassau-unincorp-flu"},"opportunityZone":null,"oz2Eligibility":null,"source":"fl-nassau-taxmap-12089","gisViewerUrl":"https://maps.ncpafl.com/nassautaxmap/","appraiserUrl":"https://search.ncpafl.com/search/r/04-4N-23-0000-0003-0000"},"geometry":{"type":"Polygon","coordinates":[[[-82.011153,30.788586],[-82.016851,30.788584],[-82.016547,30.788272],[-82.016559,30.787875],[-82.016673,30.787586],[-82.017046,30.787331],[-82.017598,30.787334],[-82.018075,30.787424],[-82.018981,30.787835],[-82.019547,30.787949],[-82.019482,30.784954],[-82.011075,30.784958],[-82.011153,30.788586]]]}},{"type":"Feature","id":"12089:22-4N-23-0000-0002-0050","properties":{"id":"12089:22-4N-23-0000-0002-0050","parcelId":"22-4N-23-0000-0002-0050","countyFips":"12089","countyName":"Nassau","state":"Florida","marketIds":["Jacksonville"],"situsAddress":"18375 ANTLER TR","situsCity":null,"situsZip":null,"jurisdictionCode":"Nassau County","ownerName":"MILLER THOMAS E II & CALLY N","ownerName2":null,"propertyName":null,"zoningCode":"OR","zoningDistrict":"Open Rural","jurisdictionPrefix":null,"dorCode":"9900","acreage":37.0749,"centroid":[-82.00398,30.754178],"lastSale":{"date":"2024-10-01","price":680000.0,"qualified":"01"},"tax":{"marketValue":628880.0,"assessedValue":544689.0,"taxableValue":544689.0,"taxes":null},"mailingAddress":{"line1":"18375 ANTLER TR","line2":null,"city":"HILLIARD","state":"FL","zip":"32046"},"incomeTract":null,"incomeBlockGroup":null,"nearestRoad":null,"flu":{"code":"AGR","label":"Agriculture","jurisdiction":"Nassau County","source":"nassau-unincorp-flu"},"opportunityZone":null,"oz2Eligibility":null,"source":"fl-nassau-taxmap-12089","gisViewerUrl":"https://maps.ncpafl.com/nassautaxmap/","appraiserUrl":"https://search.ncpafl.com/search/r/22-4N-23-0000-0002-0050"},"geometry":{"type":"Polygon","coordinates":[[[-82.001586,30.753919],[-82.001614,30.755677],[-82.006071,30.755613],[-82.006078,30.755444],[-82.005771,30.754218],[-82.005181,30.752159],[-82.001559,30.752214],[-82.001586,30.753919]]]}},{"type":"Feature","id":"12089:04-4N-23-0000-0001-0000","properties":{"id":"12089:04-4N-23-0000-0001-0000","parcelId":"04-4N-23-0000-0001-0000","countyFips":"12089","countyName":"Nassau","state":"Florida","marketIds":["Jacksonville"],"situsAddress":"TRACY RD","situsCity":null,"situsZip":null,"jurisdictionCode":"Nassau County","ownerName":"HIXON JOSEPH M III LIV TRUST","ownerName2":null,"propertyName":null,"zoningCode":"OR","zoningDistrict":"Open Rural","jurisdictionPrefix":null,"dorCode":"5900","acreage":26.662,"centroid":[-82.014471,30.790002],"lastSale":{"date":null,"price":null,"qualified":null},"tax":{"marketValue":390000.0,"assessedValue":5700.0,"taxableValue":5700.0,"taxes":null},"mailingAddress":{"line1":"4349 DUVAL DRIVE","line2":null,"city":"JACKSONVILLE","state":"FL","zip":"32250"},"incomeTract":null,"incomeBlockGroup":null,"nearestRoad":null,"flu":{"code":"AGR","label":"Agriculture","jurisdiction":"Nassau County","source":"nassau-unincorp-flu"},"opportunityZone":null,"oz2Eligibility":null,"source":"fl-nassau-taxmap-12089","gisViewerUrl":"https://maps.ncpafl.com/nassautaxmap/","appraiserUrl":"https://search.ncpafl.com/search/r/04-4N-23-0000-0001-0000"},"geometry":{"type":"Polygon","coordinates":[[[-82.015234,30.791348],[-82.015803,30.791401],[-82.016487,30.791316],[-82.017028,30.791139],[-82.017367,30.790819],[-82.017587,30.790291],[-82.017557,30.789836],[-82.017011,30.788745],[-82.016851,30.788584],[-82.011153,30.788586],[-82.011174,30.789597],[-82.011456,30.789574],[-82.01232,30.78912],[-82.012728,30.788973],[-82.013086,30.788905],[-82.014198,30.788983],[-82.014492,30.789132],[-82.014654,30.789405],[-82.014665,30.789657],[-82.014575,30.789896],[-82.014079,30.790354],[-82.013537,30.790495],[-82.01327,30.790505],[-82.013163,30.790614],[-82.013198,30.790765],[-82.013491,30.790835],[-82.014564,30.791187],[-82.015234,30.791348]]]}},{"type":"Feature","id":"12089:22-4N-23-0000-0002-0060","properties":{"id":"12089:22-4N-23-0000-0002-0060","parcelId":"22-4N-23-0000-0002-0060","countyFips":"12089","countyName":"Nassau","state":"Florida","marketIds":["Jacksonville"],"situsAddress":"ANTLER TR","situsCity":null,"situsZip":null,"jurisdictionCode":"Nassau County","ownerName":"WILSON CONNIE & ROBERT SR","ownerName2":null,"propertyName":null,"zoningCode":"OR","zoningDistrict":"Open Rural","jurisdictionPrefix":null,"dorCode":"5400","acreage":16.8539,"centroid":[-82.003557,30.750897],"lastSale":{"date":null,"price":null,"qualified":null},"tax":{"marketValue":218690.0,"assessedValue":12972.0,"taxableValue":12972.0,"taxes":null},"mailingAddress":{"line1":"18261 ANTLER TR","line2":null,"city":"HILLIARD","state":"FL","zip":"32046"},"incomeTract":null,"incomeBlockGroup":null,"nearestRoad":null,"flu":{"code":"AGR","label":"Agriculture","jurisdiction":"Nassau County","source":"nassau-unincorp-flu"},"opportunityZone":null,"oz2Eligibility":null,"source":"fl-nassau-taxmap-12089","gisViewerUrl":"https://maps.ncpafl.com/nassautaxmap/","appraiserUrl":"https://search.ncpafl.com/search/r/22-4N-23-0000-0002-0060"},"geometry":{"type":"Polygon","coordinates":[[[-82.003463,30.751838],[-82.003468,30.752183],[-82.00576,30.75215],[-82.005722,30.749759],[-82.001521,30.749795],[-82.001528,30.75029],[-82.003438,30.750262],[-82.003463,30.751838]]]}},{"type":"Feature","id":"12089:22-4N-23-0000-0003-0020","properties":{"id":"12089:22-4N-23-0000-0003-0020","parcelId":"22-4N-23-0000-0003-0020","countyFips":"12089","countyName":"Nassau","state":"Florida","marketIds":["Jacksonville"],"situsAddress":"18162 JOHNSON RD","situsCity":null,"situsZip":null,"jurisdictionCode":"Nassau County","ownerName":"HOWARD MARTHA M","ownerName2":null,"propertyName":null,"zoningCode":"OR","zoningDistrict":"Open Rural","jurisdictionPrefix":null,"dorCode":"0100","acreage":11.2112,"centroid":[-82.000365,30.751215],"lastSale":{"date":null,"price":null,"qualified":null},"tax":{"marketValue":262514.0,"assessedValue":115387.0,"taxableValue":80387.0,"taxes":null},"mailingAddress":{"line1":"18162 JOHNSON ROAD","line2":null,"city":"HILLIARD","state":"FL","zip":"32046"},"incomeTract":null,"incomeBlockGroup":null,"nearestRoad":null,"flu":{"code":"AGR","label":"Agriculture","jurisdiction":"Nassau County","source":"nassau-unincorp-flu"},"opportunityZone":null,"oz2Eligibility":null,"source":"fl-nassau-taxmap-12089","gisViewerUrl":"https://maps.ncpafl.com/nassautaxmap/","appraiserUrl":"https://search.ncpafl.com/search/r/22-4N-23-0000-0003-0020"},"geometry":{"type":"Polygon","coordinates":[[[-81.999173,30.750321],[-81.999202,30.752135],[-82.001557,30.752109],[-82.001529,30.750295],[-81.999173,30.750321]]]}},{"type":"Feature","id":"12089:22-4N-23-0000-0002-0080","properties":{"id":"12089:22-4N-23-0000-0002-0080","parcelId":"22-4N-23-0000-0002-0080","countyFips":"12089","countyName":"Nassau","state":"Florida","marketIds":["Jacksonville"],"situsAddress":"18261 ANTLER TR","situsCity":null,"situsZip":null,"jurisdictionCode":"Nassau County","ownerName":"WILSON CONNIE & ROBERT SR","ownerName2":null,"propertyName":null,"zoningCode":"OR","zoningDistrict":"Open Rural","jurisdictionPrefix":null,"dorCode":"5000","acreage":9.6418,"centroid":[-82.00231,30.751412],"lastSale":{"date":null,"price":null,"qualified":null},"tax":{"marketValue":666180.0,"assessedValue":336999.0,"taxableValue":306999.0,"taxes":null},"mailingAddress":{"line1":"18261 ANTLER TR","line2":null,"city":"HILLIARD","state":"FL","zip":"32046"},"incomeTract":null,"incomeBlockGroup":null,"nearestRoad":null,"flu":{"code":"AGR","label":"Agriculture","jurisdiction":"Nassau County","source":"nassau-unincorp-flu"},"opportunityZone":null,"oz2Eligibility":null,"source":"fl-nassau-taxmap-12089","gisViewerUrl":"https://maps.ncpafl.com/nassautaxmap/","appraiserUrl":"https://search.ncpafl.com/search/r/22-4N-23-0000-0002-0080"},"geometry":{"type":"Polygon","coordinates":[[[-82.001557,30.752109],[-82.001559,30.752214],[-82.003468,30.752186],[-82.003438,30.750262],[-82.001528,30.75029],[-82.001557,30.752109]]]}},{"type":"Feature","id":"12089:22-4N-23-0000-0002-0070","properties":{"id":"12089:22-4N-23-0000-0002-0070","parcelId":"22-4N-23-0000-0002-0070","countyFips":"12089","countyName":"Nassau","state":"Florida","marketIds":["Jacksonville"],"situsAddress":"JOHNSON RD","situsCity":null,"situsZip":null,"jurisdictionCode":"Nassau County","ownerName":"BLALOCK RICHARD BRUCE SR & BARBARA E L/E","ownerName2":null,"propertyName":null,"zoningCode":"OR","zoningDistrict":"Open Rural","jurisdictionPrefix":null,"dorCode":"5600","acreage":9.6266,"centroid":[-82.00055,30.754819],"lastSale":{"date":null,"price":null,"qualified":null},"tax":{"marketValue":190000.0,"assessedValue":3500.0,"taxableValue":3500.0,"taxes":null},"mailingAddress":{"line1":"18359 JOHNSON ROAD","line2":null,"city":"HILLIARD","state":"FL","zip":"32046"},"incomeTract":null,"incomeBlockGroup":null,"nearestRoad":null,"flu":{"code":"AGR","label":"Agriculture","jurisdiction":"Nassau County","source":"nassau-unincorp-flu"},"opportunityZone":null,"oz2Eligibility":null,"source":"fl-nassau-taxmap-12089","gisViewerUrl":"https://maps.ncpafl.com/nassautaxmap/","appraiserUrl":"https://search.ncpafl.com/search/r/22-4N-23-0000-0002-0070"},"geometry":{"type":"Polygon","coordinates":[[[-81.999486,30.753974],[-81.999513,30.755708],[-82.001614,30.755677],[-82.001586,30.753919],[-81.999486,30.753974]]]}},{"type":"Feature","id":"12089:22-4N-23-0000-0002-0020","properties":{"id":"12089:22-4N-23-0000-0002-0020","parcelId":"22-4N-23-0000-0002-0020","countyFips":"12089","countyName":"Nassau","state":"Florida","marketIds":["Jacksonville"],"situsAddress":"18296 JOHNSON RD","situsCity":null,"situsZip":null,"jurisdictionCode":"Nassau County","ownerName":"WOOD JAKE J JR","ownerName2":null,"propertyName":null,"zoningCode":"OR","zoningDistrict":"Open Rural","jurisdictionPrefix":null,"dorCode":"0100","acreage":5.0,"centroid":[-82.000529,30.753493],"lastSale":{"date":null,"price":null,"qualified":null},"tax":{"marketValue":317442.0,"assessedValue":298840.0,"taxableValue":273840.0,"taxes":null},"mailingAddress":{"line1":"18296 JOHNSON RD","line2":null,"city":"HILLIARD","state":"FL","zip":"32046"},"incomeTract":null,"incomeBlockGroup":null,"nearestRoad":null,"flu":{"code":"AGR","label":"Agriculture","jurisdiction":"Nassau County","source":"nassau-unincorp-flu"},"opportunityZone":null,"oz2Eligibility":null,"source":"fl-nassau-taxmap-12089","gisViewerUrl":"https://maps.ncpafl.com/nassautaxmap/","appraiserUrl":"https://search.ncpafl.com/search/r/22-4N-23-0000-0002-0020"},"geometry":{"type":"Polygon","coordinates":[[[-81.999471,30.753066],[-81.999486,30.753974],[-82.001586,30.753919],[-82.001571,30.753011],[-81.999471,30.753066]]]}}]}