{"type":"FeatureCollection","name":"12023-2_14","features":[{"type":"Feature","id":"12023:14-2N-18-10101-000","properties":{"id":"12023:14-2N-18-10101-000","parcelId":"14-2N-18-10101-000","countyFips":"12023","countyName":"Columbia","state":"Florida","marketIds":["North-Central Florida"],"situsAddress":null,"situsCity":null,"situsZip":"0","jurisdictionCode":null,"ownerName":"LANGDALE FORESTRY COMPANY LLC","ownerName2":null,"propertyName":null,"zoningCode":null,"zoningDistrict":null,"jurisdictionPrefix":null,"dorCode":"056","acreage":146.0,"centroid":[-82.486954,30.575015],"lastSale":{"date":null,"price":null,"qualified":null},"tax":{"marketValue":107808.0,"assessedValue":21543.0,"taxableValue":21543.0,"taxes":null},"mailingAddress":{"line1":"1202 MADISON HWY","line2":null,"city":"VALDOSTA","state":"GA","zip":"31601"},"incomeTract":null,"incomeBlockGroup":null,"nearestRoad":null,"flu":null,"opportunityZone":null,"oz2Eligibility":null,"source":"fl-columbia-parcels-12023","gisViewerUrl":"https://search.ccpafl.com/map/","appraiserUrl":"https://www.columbiacountyfla.com/ParcelDetails.aspx?ParcelNo=14-2N-18-10101-000"},"geometry":{"type":"Polygon","coordinates":[[[-82.49241,30.57353],[-82.492278,30.573531],[-82.476207,30.573686],[-82.476266,30.576675],[-82.485517,30.576941],[-82.493089,30.577216],[-82.492913,30.573525],[-82.49241,30.57353]]]}},{"type":"Feature","id":"12023:13-2N-18-10100-000","properties":{"id":"12023:13-2N-18-10100-000","parcelId":"13-2N-18-10100-000","countyFips":"12023","countyName":"Columbia","state":"Florida","marketIds":["North-Central Florida"],"situsAddress":null,"situsCity":null,"situsZip":"0","jurisdictionCode":null,"ownerName":"LANGDALE FORESTRY COMPANY LLC","ownerName2":null,"propertyName":null,"zoningCode":null,"zoningDistrict":null,"jurisdictionPrefix":null,"dorCode":"056","acreage":108.0,"centroid":[-82.466667,30.574613],"lastSale":{"date":null,"price":null,"qualified":null},"tax":{"marketValue":92290.0,"assessedValue":20745.0,"taxableValue":20745.0,"taxes":null},"mailingAddress":{"line1":"1202 MADISON HWY","line2":null,"city":"VALDOSTA","state":"GA","zip":"31601"},"incomeTract":null,"incomeBlockGroup":null,"nearestRoad":null,"flu":null,"opportunityZone":null,"oz2Eligibility":null,"source":"fl-columbia-parcels-12023","gisViewerUrl":"https://search.ccpafl.com/map/","appraiserUrl":"https://www.columbiacountyfla.com/ParcelDetails.aspx?ParcelNo=13-2N-18-10100-000"},"geometry":{"type":"Polygon","coordinates":[[[-82.464486,30.57383],[-82.464283,30.573833],[-82.459372,30.573893],[-82.459391,30.575764],[-82.476266,30.576675],[-82.476207,30.573686],[-82.464486,30.57383]]]}},{"type":"Feature","id":"12023:36-2N-18-10143-000","properties":{"id":"12023:36-2N-18-10143-000","parcelId":"36-2N-18-10143-000","countyFips":"12023","countyName":"Columbia","state":"Florida","marketIds":["North-Central Florida"],"situsAddress":null,"situsCity":null,"situsZip":"0","jurisdictionCode":null,"ownerName":"LANGDALE FORESTRY COMPANY LLC","ownerName2":null,"propertyName":null,"zoningCode":null,"zoningDistrict":null,"jurisdictionPrefix":null,"dorCode":"059","acreage":80.0,"centroid":[-82.462118,30.543292],"lastSale":{"date":null,"price":null,"qualified":null},"tax":{"marketValue":74880.0,"assessedValue":8628.0,"taxableValue":8628.0,"taxes":null},"mailingAddress":{"line1":"1202 MADISON HWY","line2":null,"city":"VALDOSTA","state":"GA","zip":"31601"},"incomeTract":null,"incomeBlockGroup":null,"nearestRoad":null,"flu":null,"opportunityZone":null,"oz2Eligibility":null,"source":"fl-columbia-parcels-12023","gisViewerUrl":"https://search.ccpafl.com/map/","appraiserUrl":"https://www.columbiacountyfla.com/ParcelDetails.aspx?ParcelNo=36-2N-18-10143-000"},"geometry":{"type":"Polygon","coordinates":[[[-82.458715,30.541197],[-82.458781,30.54468],[-82.458783,30.544826],[-82.467188,30.544693],[-82.467121,30.541064],[-82.458715,30.541197]]]}},{"type":"Feature","id":"12023:26-2N-18-10122-000","properties":{"id":"12023:26-2N-18-10122-000","parcelId":"26-2N-18-10122-000","countyFips":"12023","countyName":"Columbia","state":"Florida","marketIds":["North-Central Florida"],"situsAddress":null,"situsCity":null,"situsZip":"0","jurisdictionCode":null,"ownerName":"LANGDALE FORESTRY COMPANY LLC","ownerName2":null,"propertyName":null,"zoningCode":null,"zoningDistrict":null,"jurisdictionPrefix":null,"dorCode":"059","acreage":10.0,"centroid":[-82.476584,30.545442],"lastSale":{"date":null,"price":null,"qualified":null},"tax":{"marketValue":6500.0,"assessedValue":280.0,"taxableValue":280.0,"taxes":null},"mailingAddress":{"line1":"1202 MADISON HWY","line2":null,"city":"VALDOSTA","state":"GA","zip":"31601"},"incomeTract":null,"incomeBlockGroup":null,"nearestRoad":null,"flu":null,"opportunityZone":null,"oz2Eligibility":null,"source":"fl-columbia-parcels-12023","gisViewerUrl":"https://search.ccpafl.com/map/","appraiserUrl":"https://www.columbiacountyfla.com/ParcelDetails.aspx?ParcelNo=26-2N-18-10122-000"},"geometry":{"type":"Polygon","coordinates":[[[-82.477657,30.546323],[-82.477605,30.544508],[-82.47551,30.544561],[-82.475562,30.546375],[-82.477657,30.546323]]]}}]}