{"type":"FeatureCollection","name":"13043-4_22","features":[{"type":"Feature","id":"13043:059    001","properties":{"id":"13043:059    001","parcelId":"059    001","countyFips":"13043","countyName":"Candler","state":"Georgia","marketIds":["Savannah"],"situsAddress":"TBD","situsCity":null,"situsZip":null,"jurisdictionCode":null,"ownerName":null,"ownerName2":null,"propertyName":null,"zoningCode":null,"zoningDistrict":null,"jurisdictionPrefix":null,"dorCode":null,"acreage":55.0,"centroid":[-81.993142,32.52093],"lastSale":{"date":null,"price":null,"qualified":null},"tax":{"marketValue":null,"assessedValue":null,"taxableValue":null,"taxes":null},"mailingAddress":{"line1":null,"line2":null,"city":null,"state":null,"zip":null},"incomeTract":null,"incomeBlockGroup":null,"nearestRoad":null,"flu":null,"opportunityZone":null,"oz2Eligibility":null,"source":"ga-candler-parcels-13043","appraiserUrl":"https://qpublic.schneidercorp.com/Application.aspx?App=CandlerCountyGA&Layer=Parcels&PageType=Report&KeyValue=059%20%20%20%20001","gisViewerUrl":"https://hogarc-hogarc.opendata.arcgis.com/datasets/HHvUPZ2XuLOAJxjR::candler-county-wide-view/explore"},"geometry":{"type":"MultiPolygon","coordinates":[[[[-81.988139,32.520595],[-81.995049,32.523559],[-81.994864,32.522115],[-81.99478,32.52181],[-81.993127,32.518751],[-81.992894,32.51875],[-81.988139,32.520595]]],[[[-81.993209,32.51864],[-81.993274,32.51876],[-81.994905,32.52178],[-81.994993,32.522102],[-81.995187,32.523618],[-81.998002,32.524826],[-81.995964,32.518109],[-81.993209,32.51864]]]]}},{"type":"Feature","id":"13043:059    004 004","properties":{"id":"13043:059    004 004","parcelId":"059    004 004","countyFips":"13043","countyName":"Candler","state":"Georgia","marketIds":["Savannah"],"situsAddress":"TBD","situsCity":null,"situsZip":null,"jurisdictionCode":null,"ownerName":null,"ownerName2":null,"propertyName":null,"zoningCode":null,"zoningDistrict":null,"jurisdictionPrefix":null,"dorCode":null,"acreage":25.05,"centroid":[-81.996207,32.507683],"lastSale":{"date":null,"price":null,"qualified":null},"tax":{"marketValue":null,"assessedValue":null,"taxableValue":null,"taxes":null},"mailingAddress":{"line1":null,"line2":null,"city":null,"state":null,"zip":null},"incomeTract":null,"incomeBlockGroup":null,"nearestRoad":null,"flu":null,"opportunityZone":null,"oz2Eligibility":null,"source":"ga-candler-parcels-13043","appraiserUrl":"https://qpublic.schneidercorp.com/Application.aspx?App=CandlerCountyGA&Layer=Parcels&PageType=Report&KeyValue=059%20%20%20%20004%20004","gisViewerUrl":"https://hogarc-hogarc.opendata.arcgis.com/datasets/HHvUPZ2XuLOAJxjR::candler-county-wide-view/explore"},"geometry":{"type":"Polygon","coordinates":[[[-81.990695,32.508517],[-81.991353,32.509391],[-81.993898,32.508076],[-81.99423,32.508002],[-81.997337,32.508678],[-81.997289,32.508613],[-81.997179,32.508596],[-81.997214,32.508477],[-81.997172,32.50835],[-81.997009,32.508238],[-81.996729,32.508171],[-81.996751,32.508009],[-81.996906,32.508],[-81.996894,32.507919],[-81.996777,32.507858],[-81.996858,32.507726],[-81.996753,32.507558],[-81.996729,32.507344],[-81.996878,32.507397],[-81.99721,32.507395],[-81.997199,32.5073],[-81.997108,32.507178],[-81.996946,32.507204],[-81.997136,32.506989],[-81.997052,32.506709],[-81.997329,32.506638],[-81.997316,32.506528],[-81.997214,32.50647],[-81.997203,32.506374],[-81.995557,32.506327],[-81.990509,32.50815],[-81.990695,32.508517]]]}},{"type":"Feature","id":"13043:059    006","properties":{"id":"13043:059    006","parcelId":"059    006","countyFips":"13043","countyName":"Candler","state":"Georgia","marketIds":["Savannah"],"situsAddress":"TBD","situsCity":null,"situsZip":null,"jurisdictionCode":null,"ownerName":null,"ownerName2":null,"propertyName":null,"zoningCode":null,"zoningDistrict":null,"jurisdictionPrefix":null,"dorCode":null,"acreage":5.15,"centroid":[-81.990883,32.505889],"lastSale":{"date":null,"price":null,"qualified":null},"tax":{"marketValue":null,"assessedValue":null,"taxableValue":null,"taxes":null},"mailingAddress":{"line1":null,"line2":null,"city":null,"state":null,"zip":null},"incomeTract":null,"incomeBlockGroup":null,"nearestRoad":null,"flu":null,"opportunityZone":null,"oz2Eligibility":null,"source":"ga-candler-parcels-13043","appraiserUrl":"https://qpublic.schneidercorp.com/Application.aspx?App=CandlerCountyGA&Layer=Parcels&PageType=Report&KeyValue=059%20%20%20%20006","gisViewerUrl":"https://hogarc-hogarc.opendata.arcgis.com/datasets/HHvUPZ2XuLOAJxjR::candler-county-wide-view/explore"},"geometry":{"type":"Polygon","coordinates":[[[-81.989474,32.506052],[-81.989798,32.50672],[-81.992273,32.505722],[-81.991987,32.505061],[-81.989474,32.506052]]]}},{"type":"Feature","id":"13043:059    010","properties":{"id":"13043:059    010","parcelId":"059    010","countyFips":"13043","countyName":"Candler","state":"Georgia","marketIds":["Savannah"],"situsAddress":"TBD","situsCity":null,"situsZip":null,"jurisdictionCode":null,"ownerName":null,"ownerName2":null,"propertyName":null,"zoningCode":null,"zoningDistrict":null,"jurisdictionPrefix":null,"dorCode":null,"acreage":45.0,"centroid":[-81.987469,32.50983],"lastSale":{"date":null,"price":null,"qualified":null},"tax":{"marketValue":null,"assessedValue":null,"taxableValue":null,"taxes":null},"mailingAddress":{"line1":null,"line2":null,"city":null,"state":null,"zip":null},"incomeTract":null,"incomeBlockGroup":null,"nearestRoad":null,"flu":null,"opportunityZone":null,"oz2Eligibility":null,"source":"ga-candler-parcels-13043","appraiserUrl":"https://qpublic.schneidercorp.com/Application.aspx?App=CandlerCountyGA&Layer=Parcels&PageType=Report&KeyValue=059%20%20%20%20010","gisViewerUrl":"https://hogarc-hogarc.opendata.arcgis.com/datasets/HHvUPZ2XuLOAJxjR::candler-county-wide-view/explore"},"geometry":{"type":"Polygon","coordinates":[[[-81.985058,32.510624],[-81.985399,32.512017],[-81.988431,32.510741],[-81.988262,32.510394],[-81.98887,32.509733],[-81.990969,32.509136],[-81.990551,32.508582],[-81.989761,32.507021],[-81.983397,32.509501],[-81.983989,32.510551],[-81.985058,32.510624]]]}},{"type":"Feature","id":"13043:059    010 001","properties":{"id":"13043:059    010 001","parcelId":"059    010 001","countyFips":"13043","countyName":"Candler","state":"Georgia","marketIds":["Savannah"],"situsAddress":"TBD","situsCity":null,"situsZip":null,"jurisdictionCode":null,"ownerName":null,"ownerName2":null,"propertyName":null,"zoningCode":null,"zoningDistrict":null,"jurisdictionPrefix":null,"dorCode":null,"acreage":5.0,"centroid":[-81.989562,32.50991],"lastSale":{"date":null,"price":null,"qualified":null},"tax":{"marketValue":null,"assessedValue":null,"taxableValue":null,"taxes":null},"mailingAddress":{"line1":null,"line2":null,"city":null,"state":null,"zip":null},"incomeTract":null,"incomeBlockGroup":null,"nearestRoad":null,"flu":null,"opportunityZone":null,"oz2Eligibility":null,"source":"ga-candler-parcels-13043","appraiserUrl":"https://qpublic.schneidercorp.com/Application.aspx?App=CandlerCountyGA&Layer=Parcels&PageType=Report&KeyValue=059%20%20%20%20010%20001","gisViewerUrl":"https://hogarc-hogarc.opendata.arcgis.com/datasets/HHvUPZ2XuLOAJxjR::candler-county-wide-view/explore"},"geometry":{"type":"Polygon","coordinates":[[[-81.988262,32.510394],[-81.988431,32.510741],[-81.991276,32.509544],[-81.990969,32.509136],[-81.98887,32.509733],[-81.988262,32.510394]]]}},{"type":"Feature","id":"13043:059    010 002","properties":{"id":"13043:059    010 002","parcelId":"059    010 002","countyFips":"13043","countyName":"Candler","state":"Georgia","marketIds":["Savannah"],"situsAddress":"TBD","situsCity":null,"situsZip":null,"jurisdictionCode":null,"ownerName":null,"ownerName2":null,"propertyName":null,"zoningCode":null,"zoningDistrict":null,"jurisdictionPrefix":null,"dorCode":null,"acreage":7.57,"centroid":[-81.988008,32.507307],"lastSale":{"date":null,"price":null,"qualified":null},"tax":{"marketValue":null,"assessedValue":null,"taxableValue":null,"taxes":null},"mailingAddress":{"line1":null,"line2":null,"city":null,"state":null,"zip":null},"incomeTract":null,"incomeBlockGroup":null,"nearestRoad":null,"flu":null,"opportunityZone":null,"oz2Eligibility":null,"source":"ga-candler-parcels-13043","appraiserUrl":"https://qpublic.schneidercorp.com/Application.aspx?App=CandlerCountyGA&Layer=Parcels&PageType=Report&KeyValue=059%20%20%20%20010%20002","gisViewerUrl":"https://hogarc-hogarc.opendata.arcgis.com/datasets/HHvUPZ2XuLOAJxjR::candler-county-wide-view/explore"},"geometry":{"type":"Polygon","coordinates":[[[-81.989282,32.506017],[-81.984981,32.508883],[-81.989761,32.507021],[-81.989282,32.506017]]]}},{"type":"Feature","id":"13043:059    004 010","properties":{"id":"13043:059    004 010","parcelId":"059    004 010","countyFips":"13043","countyName":"Candler","state":"Georgia","marketIds":["Savannah"],"situsAddress":"TBD","situsCity":null,"situsZip":null,"jurisdictionCode":null,"ownerName":null,"ownerName2":null,"propertyName":null,"zoningCode":null,"zoningDistrict":null,"jurisdictionPrefix":null,"dorCode":null,"acreage":7.0,"centroid":[-81.990528,32.505115],"lastSale":{"date":null,"price":null,"qualified":null},"tax":{"marketValue":null,"assessedValue":null,"taxableValue":null,"taxes":null},"mailingAddress":{"line1":null,"line2":null,"city":null,"state":null,"zip":null},"incomeTract":null,"incomeBlockGroup":null,"nearestRoad":null,"flu":null,"opportunityZone":null,"oz2Eligibility":null,"source":"ga-candler-parcels-13043","appraiserUrl":"https://qpublic.schneidercorp.com/Application.aspx?App=CandlerCountyGA&Layer=Parcels&PageType=Report&KeyValue=059%20%20%20%20004%20010","gisViewerUrl":"https://hogarc-hogarc.opendata.arcgis.com/datasets/HHvUPZ2XuLOAJxjR::candler-county-wide-view/explore"},"geometry":{"type":"Polygon","coordinates":[[[-81.989056,32.505187],[-81.989474,32.506052],[-81.991987,32.505061],[-81.991596,32.504159],[-81.989056,32.505187]]]}},{"type":"Feature","id":"13043:059    004 009","properties":{"id":"13043:059    004 009","parcelId":"059    004 009","countyFips":"13043","countyName":"Candler","state":"Georgia","marketIds":["Savannah"],"situsAddress":"TBD","situsCity":null,"situsZip":null,"jurisdictionCode":null,"ownerName":null,"ownerName2":null,"propertyName":null,"zoningCode":null,"zoningDistrict":null,"jurisdictionPrefix":null,"dorCode":null,"acreage":5.06,"centroid":[-81.990182,32.504358],"lastSale":{"date":null,"price":null,"qualified":null},"tax":{"marketValue":null,"assessedValue":null,"taxableValue":null,"taxes":null},"mailingAddress":{"line1":null,"line2":null,"city":null,"state":null,"zip":null},"incomeTract":null,"incomeBlockGroup":null,"nearestRoad":null,"flu":null,"opportunityZone":null,"oz2Eligibility":null,"source":"ga-candler-parcels-13043","appraiserUrl":"https://qpublic.schneidercorp.com/Application.aspx?App=CandlerCountyGA&Layer=Parcels&PageType=Report&KeyValue=059%20%20%20%20004%20009","gisViewerUrl":"https://hogarc-hogarc.opendata.arcgis.com/datasets/HHvUPZ2XuLOAJxjR::candler-county-wide-view/explore"},"geometry":{"type":"Polygon","coordinates":[[[-81.988754,32.504562],[-81.989056,32.505187],[-81.991596,32.504159],[-81.99132,32.503524],[-81.988754,32.504562]]]}},{"type":"Feature","id":"13043:059    004 002","properties":{"id":"13043:059    004 002","parcelId":"059    004 002","countyFips":"13043","countyName":"Candler","state":"Georgia","marketIds":["Savannah"],"situsAddress":"TBD","situsCity":null,"situsZip":null,"jurisdictionCode":null,"ownerName":null,"ownerName2":null,"propertyName":null,"zoningCode":null,"zoningDistrict":null,"jurisdictionPrefix":null,"dorCode":null,"acreage":5.06,"centroid":[-81.989662,32.503888],"lastSale":{"date":null,"price":null,"qualified":null},"tax":{"marketValue":null,"assessedValue":null,"taxableValue":null,"taxes":null},"mailingAddress":{"line1":null,"line2":null,"city":null,"state":null,"zip":null},"incomeTract":null,"incomeBlockGroup":null,"nearestRoad":null,"flu":null,"opportunityZone":null,"oz2Eligibility":null,"source":"ga-candler-parcels-13043","appraiserUrl":"https://qpublic.schneidercorp.com/Application.aspx?App=CandlerCountyGA&Layer=Parcels&PageType=Report&KeyValue=059%20%20%20%20004%20002","gisViewerUrl":"https://hogarc-hogarc.opendata.arcgis.com/datasets/HHvUPZ2XuLOAJxjR::candler-county-wide-view/explore"},"geometry":{"type":"Polygon","coordinates":[[[-81.988454,32.503944],[-81.988732,32.504516],[-81.988754,32.504562],[-81.99132,32.503524],[-81.991048,32.502895],[-81.988454,32.503944]]]}},{"type":"Feature","id":"13043:059    004 008","properties":{"id":"13043:059    004 008","parcelId":"059    004 008","countyFips":"13043","countyName":"Candler","state":"Georgia","marketIds":["Savannah"],"situsAddress":"TBD","situsCity":null,"situsZip":null,"jurisdictionCode":null,"ownerName":null,"ownerName2":null,"propertyName":null,"zoningCode":null,"zoningDistrict":null,"jurisdictionPrefix":null,"dorCode":null,"acreage":5.06,"centroid":[-81.989363,32.503244],"lastSale":{"date":null,"price":null,"qualified":null},"tax":{"marketValue":null,"assessedValue":null,"taxableValue":null,"taxes":null},"mailingAddress":{"line1":null,"line2":null,"city":null,"state":null,"zip":null},"incomeTract":null,"incomeBlockGroup":null,"nearestRoad":null,"flu":null,"opportunityZone":null,"oz2Eligibility":null,"source":"ga-candler-parcels-13043","appraiserUrl":"https://qpublic.schneidercorp.com/Application.aspx?App=CandlerCountyGA&Layer=Parcels&PageType=Report&KeyValue=059%20%20%20%20004%20008","gisViewerUrl":"https://hogarc-hogarc.opendata.arcgis.com/datasets/HHvUPZ2XuLOAJxjR::candler-county-wide-view/explore"},"geometry":{"type":"Polygon","coordinates":[[[-81.98816,32.50333],[-81.988375,32.503779],[-81.988454,32.503944],[-81.991048,32.502895],[-81.990777,32.502271],[-81.98816,32.50333]]]}},{"type":"Feature","id":"13043:059    004 007","properties":{"id":"13043:059    004 007","parcelId":"059    004 007","countyFips":"13043","countyName":"Candler","state":"Georgia","marketIds":["Savannah"],"situsAddress":"TBD","situsCity":null,"situsZip":null,"jurisdictionCode":null,"ownerName":null,"ownerName2":null,"propertyName":null,"zoningCode":null,"zoningDistrict":null,"jurisdictionPrefix":null,"dorCode":null,"acreage":5.06,"centroid":[-81.989329,32.502494],"lastSale":{"date":null,"price":null,"qualified":null},"tax":{"marketValue":null,"assessedValue":null,"taxableValue":null,"taxes":null},"mailingAddress":{"line1":null,"line2":null,"city":null,"state":null,"zip":null},"incomeTract":null,"incomeBlockGroup":null,"nearestRoad":null,"flu":null,"opportunityZone":null,"oz2Eligibility":null,"source":"ga-candler-parcels-13043","appraiserUrl":"https://qpublic.schneidercorp.com/Application.aspx?App=CandlerCountyGA&Layer=Parcels&PageType=Report&KeyValue=059%20%20%20%20004%20007","gisViewerUrl":"https://hogarc-hogarc.opendata.arcgis.com/datasets/HHvUPZ2XuLOAJxjR::candler-county-wide-view/explore"},"geometry":{"type":"Polygon","coordinates":[[[-81.987869,32.502722],[-81.98816,32.50333],[-81.990777,32.502271],[-81.990509,32.501654],[-81.987869,32.502722]]]}},{"type":"Feature","id":"13043:059    004 006","properties":{"id":"13043:059    004 006","parcelId":"059    004 006","countyFips":"13043","countyName":"Candler","state":"Georgia","marketIds":["Savannah"],"situsAddress":"TBD","situsCity":null,"situsZip":null,"jurisdictionCode":null,"ownerName":null,"ownerName2":null,"propertyName":null,"zoningCode":null,"zoningDistrict":null,"jurisdictionPrefix":null,"dorCode":null,"acreage":5.1,"centroid":[-81.98905,32.501881],"lastSale":{"date":null,"price":null,"qualified":null},"tax":{"marketValue":null,"assessedValue":null,"taxableValue":null,"taxes":null},"mailingAddress":{"line1":null,"line2":null,"city":null,"state":null,"zip":null},"incomeTract":null,"incomeBlockGroup":null,"nearestRoad":null,"flu":null,"opportunityZone":null,"oz2Eligibility":null,"source":"ga-candler-parcels-13043","appraiserUrl":"https://qpublic.schneidercorp.com/Application.aspx?App=CandlerCountyGA&Layer=Parcels&PageType=Report&KeyValue=059%20%20%20%20004%20006","gisViewerUrl":"https://hogarc-hogarc.opendata.arcgis.com/datasets/HHvUPZ2XuLOAJxjR::candler-county-wide-view/explore"},"geometry":{"type":"Polygon","coordinates":[[[-81.987579,32.502114],[-81.987869,32.502722],[-81.990509,32.501654],[-81.990242,32.501036],[-81.987579,32.502114]]]}},{"type":"Feature","id":"13043:059    004 003","properties":{"id":"13043:059    004 003","parcelId":"059    004 003","countyFips":"13043","countyName":"Candler","state":"Georgia","marketIds":["Savannah"],"situsAddress":"TBD","situsCity":null,"situsZip":null,"jurisdictionCode":null,"ownerName":null,"ownerName2":null,"propertyName":null,"zoningCode":null,"zoningDistrict":null,"jurisdictionPrefix":null,"dorCode":null,"acreage":6.0,"centroid":[-81.989272,32.500971],"lastSale":{"date":null,"price":null,"qualified":null},"tax":{"marketValue":null,"assessedValue":null,"taxableValue":null,"taxes":null},"mailingAddress":{"line1":null,"line2":null,"city":null,"state":null,"zip":null},"incomeTract":null,"incomeBlockGroup":null,"nearestRoad":null,"flu":null,"opportunityZone":null,"oz2Eligibility":null,"source":"ga-candler-parcels-13043","appraiserUrl":"https://qpublic.schneidercorp.com/Application.aspx?App=CandlerCountyGA&Layer=Parcels&PageType=Report&KeyValue=059%20%20%20%20004%20003","gisViewerUrl":"https://hogarc-hogarc.opendata.arcgis.com/datasets/HHvUPZ2XuLOAJxjR::candler-county-wide-view/explore"},"geometry":{"type":"Polygon","coordinates":[[[-81.990242,32.501036],[-81.989925,32.500307],[-81.989645,32.500413],[-81.98988,32.500932],[-81.989802,32.501038],[-81.989721,32.501072],[-81.989445,32.500489],[-81.98721,32.50134],[-81.987579,32.502114],[-81.990242,32.501036]]]}},{"type":"Feature","id":"13043:059    004 005","properties":{"id":"13043:059    004 005","parcelId":"059    004 005","countyFips":"13043","countyName":"Candler","state":"Georgia","marketIds":["Savannah"],"situsAddress":"TBD","situsCity":null,"situsZip":null,"jurisdictionCode":null,"ownerName":null,"ownerName2":null,"propertyName":null,"zoningCode":null,"zoningDistrict":null,"jurisdictionPrefix":null,"dorCode":null,"acreage":13.66,"centroid":[-81.992758,32.506636],"lastSale":{"date":null,"price":null,"qualified":null},"tax":{"marketValue":null,"assessedValue":null,"taxableValue":null,"taxes":null},"mailingAddress":{"line1":null,"line2":null,"city":null,"state":null,"zip":null},"incomeTract":null,"incomeBlockGroup":null,"nearestRoad":null,"flu":null,"opportunityZone":null,"oz2Eligibility":null,"source":"ga-candler-parcels-13043","appraiserUrl":"https://qpublic.schneidercorp.com/Application.aspx?App=CandlerCountyGA&Layer=Parcels&PageType=Report&KeyValue=059%20%20%20%20004%20005","gisViewerUrl":"https://hogarc-hogarc.opendata.arcgis.com/datasets/HHvUPZ2XuLOAJxjR::candler-county-wide-view/explore"},"geometry":{"type":"Polygon","coordinates":[[[-81.990006,32.507159],[-81.990509,32.50815],[-81.995396,32.506385],[-81.99502,32.505766],[-81.992915,32.506319],[-81.992703,32.506034],[-81.990006,32.507159]]]}},{"type":"Feature","id":"13043:059    004","properties":{"id":"13043:059    004","parcelId":"059    004","countyFips":"13043","countyName":"Candler","state":"Georgia","marketIds":["Savannah"],"situsAddress":"TBD","situsCity":null,"situsZip":null,"jurisdictionCode":null,"ownerName":null,"ownerName2":null,"propertyName":null,"zoningCode":null,"zoningDistrict":null,"jurisdictionPrefix":null,"dorCode":null,"acreage":22.69,"centroid":[-81.996519,32.50554],"lastSale":{"date":null,"price":null,"qualified":null},"tax":{"marketValue":null,"assessedValue":null,"taxableValue":null,"taxes":null},"mailingAddress":{"line1":null,"line2":null,"city":null,"state":null,"zip":null},"incomeTract":null,"incomeBlockGroup":null,"nearestRoad":null,"flu":null,"opportunityZone":null,"oz2Eligibility":null,"source":"ga-candler-parcels-13043","appraiserUrl":"https://qpublic.schneidercorp.com/Application.aspx?App=CandlerCountyGA&Layer=Parcels&PageType=Report&KeyValue=059%20%20%20%20004","gisViewerUrl":"https://hogarc-hogarc.opendata.arcgis.com/datasets/HHvUPZ2XuLOAJxjR::candler-county-wide-view/explore"},"geometry":{"type":"Polygon","coordinates":[[[-81.989798,32.50672],[-81.9898,32.506725],[-81.990006,32.507159],[-81.992703,32.506034],[-81.992915,32.506319],[-81.99502,32.505766],[-81.995396,32.506385],[-81.995557,32.506327],[-81.997203,32.506374],[-81.997204,32.506287],[-81.997311,32.506175],[-81.99744,32.506142],[-81.997573,32.506297],[-81.997691,32.506247],[-81.997715,32.506095],[-81.997805,32.506093],[-81.997881,32.50595],[-81.997834,32.50583],[-81.997862,32.505702],[-81.998006,32.505746],[-81.998023,32.505687],[-81.997771,32.505384],[-81.997877,32.505222],[-81.998079,32.505266],[-81.998125,32.505211],[-81.998022,32.505104],[-81.998001,32.504985],[-81.997925,32.504974],[-81.997797,32.504773],[-81.997883,32.50473],[-81.997657,32.504466],[-81.997698,32.504322],[-81.997505,32.504311],[-81.99754,32.504373],[-81.997485,32.504386],[-81.997378,32.504295],[-81.997259,32.504277],[-81.997242,32.5042],[-81.992273,32.505722],[-81.989798,32.50672]]]}}]}