{"type":"FeatureCollection","name":"13153--4_22","features":[{"type":"Feature","id":"13153:000150    018000","properties":{"id":"13153:000150    018000","parcelId":"000150    018000","countyFips":"13153","countyName":"Houston","state":"Georgia","marketIds":["Macon"],"situsAddress":"0 HARPER RD","situsCity":"Perry","situsZip":"31069","jurisdictionCode":null,"ownerName":"BRANTLEY GERALD K","ownerName2":null,"propertyName":null,"zoningCode":"RAG","zoningDistrict":null,"jurisdictionPrefix":null,"dorCode":null,"acreage":30.44,"centroid":[-83.778115,32.503755],"lastSale":{"date":null,"price":null,"qualified":null},"tax":{"marketValue":206400.0,"assessedValue":null,"taxableValue":null,"taxes":null},"mailingAddress":{"line1":null,"line2":null,"city":null,"state":null,"zip":null},"incomeTract":null,"incomeBlockGroup":null,"nearestRoad":null,"flu":null,"opportunityZone":null,"oz2Eligibility":null,"source":"ga-houston-parcels-13153","appraiserUrl":"https://qpublic.schneidercorp.com/Application.aspx?App=HoustonCountyGA&Layer=Parcels&PageType=Report&KeyValue=000150%20%20%20%20018000","gisViewerUrl":"https://garc.maps.arcgis.com/apps/webappviewer/index.html?id=bc820c2f01784c4f8e47e7327e866932"},"geometry":{"type":"Polygon","coordinates":[[[-83.776971,32.504984],[-83.778442,32.504971],[-83.778576,32.504179],[-83.779527,32.504283],[-83.779548,32.502846],[-83.778242,32.502833],[-83.778302,32.502757],[-83.778278,32.502495],[-83.778126,32.502156],[-83.777995,32.501928],[-83.778013,32.501895],[-83.778011,32.501766],[-83.77798,32.501751],[-83.777983,32.501682],[-83.777928,32.50162],[-83.777901,32.501405],[-83.777763,32.501217],[-83.777692,32.501188],[-83.777524,32.501068],[-83.777537,32.500987],[-83.777358,32.500897],[-83.777184,32.500767],[-83.777203,32.500663],[-83.777173,32.500646],[-83.777146,32.500549],[-83.774857,32.500545],[-83.774852,32.502415],[-83.7725,32.502411],[-83.772498,32.501788],[-83.772478,32.50159],[-83.772413,32.501332],[-83.772307,32.501084],[-83.772433,32.501396],[-83.772494,32.501722],[-83.772501,32.502961],[-83.773873,32.503015],[-83.773861,32.503057],[-83.774727,32.503092],[-83.775213,32.503087],[-83.775192,32.50174],[-83.776574,32.501724],[-83.776971,32.504984]]]}},{"type":"Feature","id":"13153:000150    014000","properties":{"id":"13153:000150    014000","parcelId":"000150    014000","countyFips":"13153","countyName":"Houston","state":"Georgia","marketIds":["Macon"],"situsAddress":"0 HARPER RD","situsCity":"Perry","situsZip":"31069","jurisdictionCode":null,"ownerName":"HUNNICUTT ROBERT T","ownerName2":null,"propertyName":null,"zoningCode":"RAG","zoningDistrict":null,"jurisdictionPrefix":null,"dorCode":null,"acreage":25.0,"centroid":[-83.781651,32.502458],"lastSale":{"date":null,"price":null,"qualified":null},"tax":{"marketValue":184000.0,"assessedValue":null,"taxableValue":null,"taxes":null},"mailingAddress":{"line1":null,"line2":null,"city":null,"state":null,"zip":null},"incomeTract":null,"incomeBlockGroup":null,"nearestRoad":null,"flu":null,"opportunityZone":null,"oz2Eligibility":null,"source":"ga-houston-parcels-13153","appraiserUrl":"https://qpublic.schneidercorp.com/Application.aspx?App=HoustonCountyGA&Layer=Parcels&PageType=Report&KeyValue=000150%20%20%20%20014000","gisViewerUrl":"https://garc.maps.arcgis.com/apps/webappviewer/index.html?id=bc820c2f01784c4f8e47e7327e866932"},"geometry":{"type":"Polygon","coordinates":[[[-83.780534,32.50496],[-83.781097,32.504962],[-83.780967,32.503747],[-83.781586,32.503562],[-83.782476,32.503584],[-83.782487,32.502971],[-83.781902,32.501687],[-83.782496,32.501701],[-83.782427,32.498697],[-83.780535,32.498705],[-83.780534,32.50496]]]}},{"type":"Feature","id":"13153:000150    021000","properties":{"id":"13153:000150    021000","parcelId":"000150    021000","countyFips":"13153","countyName":"Houston","state":"Georgia","marketIds":["Macon"],"situsAddress":"619 HARPER RD","situsCity":"Perry","situsZip":"31069","jurisdictionCode":null,"ownerName":"GAMBLIN RYAN","ownerName2":null,"propertyName":null,"zoningCode":"RAG","zoningDistrict":null,"jurisdictionPrefix":null,"dorCode":null,"acreage":10.38,"centroid":[-83.775017,32.503971],"lastSale":{"date":null,"price":null,"qualified":null},"tax":{"marketValue":593300.0,"assessedValue":null,"taxableValue":null,"taxes":null},"mailingAddress":{"line1":null,"line2":null,"city":null,"state":null,"zip":null},"incomeTract":null,"incomeBlockGroup":null,"nearestRoad":null,"flu":null,"opportunityZone":null,"oz2Eligibility":null,"source":"ga-houston-parcels-13153","appraiserUrl":"https://qpublic.schneidercorp.com/Application.aspx?App=HoustonCountyGA&Layer=Parcels&PageType=Report&KeyValue=000150%20%20%20%20021000","gisViewerUrl":"https://garc.maps.arcgis.com/apps/webappviewer/index.html?id=bc820c2f01784c4f8e47e7327e866932"},"geometry":{"type":"Polygon","coordinates":[[[-83.773708,32.503622],[-83.773846,32.503841],[-83.774561,32.503851],[-83.774729,32.504164],[-83.774969,32.50416],[-83.774984,32.50441],[-83.775632,32.5044],[-83.775668,32.504998],[-83.776873,32.504985],[-83.77664,32.503071],[-83.774727,32.503092],[-83.773861,32.503057],[-83.773708,32.503622]]]}},{"type":"Feature","id":"13153:0P38A0    049000","properties":{"id":"13153:0P38A0    049000","parcelId":"0P38A0    049000","countyFips":"13153","countyName":"Houston","state":"Georgia","marketIds":["Macon"],"situsAddress":"460 AIRPORT RD","situsCity":"Perry","situsZip":"31069","jurisdictionCode":null,"ownerName":"PERRY-HOUSTON COUNTY AIRPORT AUTH","ownerName2":null,"propertyName":null,"zoningCode":"M2","zoningDistrict":null,"jurisdictionPrefix":null,"dorCode":null,"acreage":7.37,"centroid":[-83.768941,32.500327],"lastSale":{"date":null,"price":null,"qualified":null},"tax":{"marketValue":77500.0,"assessedValue":null,"taxableValue":null,"taxes":null},"mailingAddress":{"line1":null,"line2":null,"city":null,"state":null,"zip":null},"incomeTract":null,"incomeBlockGroup":null,"nearestRoad":null,"flu":null,"opportunityZone":null,"oz2Eligibility":null,"source":"ga-houston-parcels-13153","appraiserUrl":"https://qpublic.schneidercorp.com/Application.aspx?App=HoustonCountyGA&Layer=Parcels&PageType=Report&KeyValue=0P38A0%20%20%20%20049000","gisViewerUrl":"https://garc.maps.arcgis.com/apps/webappviewer/index.html?id=bc820c2f01784c4f8e47e7327e866932"},"geometry":{"type":"Polygon","coordinates":[[[-83.770298,32.500103],[-83.768587,32.499637],[-83.768286,32.499533],[-83.768421,32.499851],[-83.768506,32.500227],[-83.768521,32.500457],[-83.768524,32.501409],[-83.770386,32.501403],[-83.770298,32.500103]]]}},{"type":"Feature","id":"13153:000140    001000","properties":{"id":"13153:000140    001000","parcelId":"000140    001000","countyFips":"13153","countyName":"Houston","state":"Georgia","marketIds":["Macon"],"situsAddress":"600 ANDEL RD","situsCity":"Perry","situsZip":"31069","jurisdictionCode":null,"ownerName":"FENSTER LAND HOLDINGS LLC","ownerName2":null,"propertyName":null,"zoningCode":"RAG","zoningDistrict":null,"jurisdictionPrefix":null,"dorCode":null,"acreage":105.77,"centroid":[-83.784536,32.510124],"lastSale":{"date":null,"price":null,"qualified":null},"tax":{"marketValue":512300.0,"assessedValue":null,"taxableValue":null,"taxes":null},"mailingAddress":{"line1":null,"line2":null,"city":null,"state":null,"zip":null},"incomeTract":null,"incomeBlockGroup":null,"nearestRoad":null,"flu":null,"opportunityZone":null,"oz2Eligibility":null,"source":"ga-houston-parcels-13153","appraiserUrl":"https://qpublic.schneidercorp.com/Application.aspx?App=HoustonCountyGA&Layer=Parcels&PageType=Report&KeyValue=000140%20%20%20%20001000","gisViewerUrl":"https://garc.maps.arcgis.com/apps/webappviewer/index.html?id=bc820c2f01784c4f8e47e7327e866932"},"geometry":{"type":"Polygon","coordinates":[[[-83.787473,32.5092],[-83.787391,32.509143],[-83.787083,32.508891],[-83.786879,32.508681],[-83.777766,32.508653],[-83.777747,32.513137],[-83.787414,32.513166],[-83.787473,32.5092]]]}},{"type":"Feature","id":"13153:000140    003000","properties":{"id":"13153:000140    003000","parcelId":"000140    003000","countyFips":"13153","countyName":"Houston","state":"Georgia","marketIds":["Macon"],"situsAddress":"677 HARPER RD","situsCity":"Perry","situsZip":"31069","jurisdictionCode":null,"ownerName":"VINING MILLARD","ownerName2":null,"propertyName":null,"zoningCode":"RAG","zoningDistrict":null,"jurisdictionPrefix":null,"dorCode":null,"acreage":5.17,"centroid":[-83.786541,32.506585],"lastSale":{"date":null,"price":null,"qualified":null},"tax":{"marketValue":191800.0,"assessedValue":null,"taxableValue":null,"taxes":null},"mailingAddress":{"line1":null,"line2":null,"city":null,"state":null,"zip":null},"incomeTract":null,"incomeBlockGroup":null,"nearestRoad":null,"flu":null,"opportunityZone":null,"oz2Eligibility":null,"source":"ga-houston-parcels-13153","appraiserUrl":"https://qpublic.schneidercorp.com/Application.aspx?App=HoustonCountyGA&Layer=Parcels&PageType=Report&KeyValue=000140%20%20%20%20003000","gisViewerUrl":"https://garc.maps.arcgis.com/apps/webappviewer/index.html?id=bc820c2f01784c4f8e47e7327e866932"},"geometry":{"type":"Polygon","coordinates":[[[-83.787505,32.507093],[-83.787522,32.505942],[-83.785216,32.506219],[-83.785921,32.507088],[-83.787505,32.507093]]]}},{"type":"Feature","id":"13153:000140    004000","properties":{"id":"13153:000140    004000","parcelId":"000140    004000","countyFips":"13153","countyName":"Houston","state":"Georgia","marketIds":["Macon"],"situsAddress":"0 HARPER RD","situsCity":"Perry","situsZip":"31069","jurisdictionCode":null,"ownerName":"FENSTER LAND HOLDINGS LLC","ownerName2":null,"propertyName":null,"zoningCode":"RAG","zoningDistrict":null,"jurisdictionPrefix":null,"dorCode":null,"acreage":76.83,"centroid":[-83.783248,32.506304],"lastSale":{"date":null,"price":null,"qualified":null},"tax":{"marketValue":373900.0,"assessedValue":null,"taxableValue":null,"taxes":null},"mailingAddress":{"line1":null,"line2":null,"city":null,"state":null,"zip":null},"incomeTract":null,"incomeBlockGroup":null,"nearestRoad":null,"flu":null,"opportunityZone":null,"oz2Eligibility":null,"source":"ga-houston-parcels-13153","appraiserUrl":"https://qpublic.schneidercorp.com/Application.aspx?App=HoustonCountyGA&Layer=Parcels&PageType=Report&KeyValue=000140%20%20%20%20004000","gisViewerUrl":"https://garc.maps.arcgis.com/apps/webappviewer/index.html?id=bc820c2f01784c4f8e47e7327e866932"},"geometry":{"type":"Polygon","coordinates":[[[-83.786879,32.508681],[-83.786819,32.508609],[-83.78443,32.505586],[-83.784233,32.505382],[-83.784127,32.505295],[-83.784051,32.505259],[-83.783684,32.505211],[-83.782707,32.505187],[-83.777781,32.505181],[-83.777766,32.508653],[-83.786879,32.508681]]]}},{"type":"Feature","id":"13153:0P38A0    023000","properties":{"id":"13153:0P38A0    023000","parcelId":"0P38A0    023000","countyFips":"13153","countyName":"Houston","state":"Georgia","marketIds":["Macon"],"situsAddress":"500 AIRPORT RD","situsCity":"Perry","situsZip":"31069","jurisdictionCode":null,"ownerName":"PERRY-HOUSTON COUNTY AIRPORT AUTHORITY","ownerName2":null,"propertyName":null,"zoningCode":"M2","zoningDistrict":null,"jurisdictionPrefix":null,"dorCode":null,"acreage":71.14,"centroid":[-83.768002,32.50129],"lastSale":{"date":null,"price":null,"qualified":null},"tax":{"marketValue":1613100.0,"assessedValue":null,"taxableValue":null,"taxes":null},"mailingAddress":{"line1":null,"line2":null,"city":null,"state":null,"zip":null},"incomeTract":null,"incomeBlockGroup":null,"nearestRoad":null,"flu":null,"opportunityZone":null,"oz2Eligibility":null,"source":"ga-houston-parcels-13153","appraiserUrl":"https://qpublic.schneidercorp.com/Application.aspx?App=HoustonCountyGA&Layer=Parcels&PageType=Report&KeyValue=0P38A0%20%20%20%20023000","gisViewerUrl":"https://garc.maps.arcgis.com/apps/webappviewer/index.html?id=bc820c2f01784c4f8e47e7327e866932"},"geometry":{"type":"Polygon","coordinates":[[[-83.765489,32.505976],[-83.771364,32.505994],[-83.771374,32.503631],[-83.771055,32.503632],[-83.770147,32.503693],[-83.770126,32.503471],[-83.768782,32.503565],[-83.768667,32.503542],[-83.768583,32.503483],[-83.768533,32.503362],[-83.768514,32.500303],[-83.768443,32.499925],[-83.768317,32.499593],[-83.768286,32.499533],[-83.768259,32.499522],[-83.767639,32.500401],[-83.767548,32.500501],[-83.767328,32.500636],[-83.767068,32.500695],[-83.767024,32.500479],[-83.767231,32.500431],[-83.76739,32.50032],[-83.767998,32.499463],[-83.768004,32.499416],[-83.767645,32.49915],[-83.765518,32.497205],[-83.76551,32.498374],[-83.764707,32.49838],[-83.7655,32.502742],[-83.765489,32.505976]],[[-83.767692,32.500805],[-83.767693,32.500531],[-83.768342,32.500533],[-83.76834,32.500807],[-83.767692,32.500805]]]}},{"type":"Feature","id":"13153:0P38A0    039000","properties":{"id":"13153:0P38A0    039000","parcelId":"0P38A0    039000","countyFips":"13153","countyName":"Houston","state":"Georgia","marketIds":["Macon"],"situsAddress":"0 AIRPORT RD","situsCity":"Perry","situsZip":"31069","jurisdictionCode":null,"ownerName":"PERRY-HOUSTON COUNTY AIRPORT AUTH","ownerName2":null,"propertyName":null,"zoningCode":"M2","zoningDistrict":null,"jurisdictionPrefix":null,"dorCode":null,"acreage":8.73,"centroid":[-83.769177,32.502854],"lastSale":{"date":null,"price":null,"qualified":null},"tax":{"marketValue":174600.0,"assessedValue":null,"taxableValue":null,"taxes":null},"mailingAddress":{"line1":null,"line2":null,"city":null,"state":null,"zip":null},"incomeTract":null,"incomeBlockGroup":null,"nearestRoad":null,"flu":null,"opportunityZone":null,"oz2Eligibility":null,"source":"ga-houston-parcels-13153","appraiserUrl":"https://qpublic.schneidercorp.com/Application.aspx?App=HoustonCountyGA&Layer=Parcels&PageType=Report&KeyValue=0P38A0%20%20%20%20039000","gisViewerUrl":"https://garc.maps.arcgis.com/apps/webappviewer/index.html?id=bc820c2f01784c4f8e47e7327e866932"},"geometry":{"type":"Polygon","coordinates":[[[-83.77013,32.50266],[-83.770135,32.501404],[-83.768524,32.501409],[-83.768533,32.503355],[-83.768553,32.503439],[-83.768638,32.503527],[-83.768774,32.503565],[-83.770126,32.503471],[-83.77013,32.50266]]]}},{"type":"Feature","id":"13153:0P38A0    046000","properties":{"id":"13153:0P38A0    046000","parcelId":"0P38A0    046000","countyFips":"13153","countyName":"Houston","state":"Georgia","marketIds":["Macon"],"situsAddress":"0 AIRPORT RD","situsCity":"Perry","situsZip":"31069","jurisdictionCode":null,"ownerName":"PERRY-HOUSTON COUNTY AIRPORT AUTHORITY","ownerName2":null,"propertyName":null,"zoningCode":"M2","zoningDistrict":null,"jurisdictionPrefix":null,"dorCode":null,"acreage":8.9,"centroid":[-83.764739,32.504557],"lastSale":{"date":null,"price":null,"qualified":null},"tax":{"marketValue":89000.0,"assessedValue":null,"taxableValue":null,"taxes":null},"mailingAddress":{"line1":null,"line2":null,"city":null,"state":null,"zip":null},"incomeTract":null,"incomeBlockGroup":null,"nearestRoad":null,"flu":null,"opportunityZone":null,"oz2Eligibility":null,"source":"ga-houston-parcels-13153","appraiserUrl":"https://qpublic.schneidercorp.com/Application.aspx?App=HoustonCountyGA&Layer=Parcels&PageType=Report&KeyValue=0P38A0%20%20%20%20046000","gisViewerUrl":"https://garc.maps.arcgis.com/apps/webappviewer/index.html?id=bc820c2f01784c4f8e47e7327e866932"},"geometry":{"type":"Polygon","coordinates":[[[-83.765497,32.503626],[-83.764782,32.503612],[-83.763951,32.503598],[-83.763976,32.505971],[-83.765489,32.505976],[-83.765497,32.503626]]]}},{"type":"Feature","id":"13153:0P38A0    048000","properties":{"id":"13153:0P38A0    048000","parcelId":"0P38A0    048000","countyFips":"13153","countyName":"Houston","state":"Georgia","marketIds":["Macon"],"situsAddress":"0 AIRPORT RD","situsCity":"Perry","situsZip":"31069","jurisdictionCode":null,"ownerName":"PERRY-HOUSTON COUNTY AIRPORT AUTH","ownerName2":null,"propertyName":null,"zoningCode":"M2","zoningDistrict":null,"jurisdictionPrefix":null,"dorCode":null,"acreage":8.92,"centroid":[-83.771373,32.501514],"lastSale":{"date":null,"price":null,"qualified":null},"tax":{"marketValue":91100.0,"assessedValue":null,"taxableValue":null,"taxes":null},"mailingAddress":{"line1":null,"line2":null,"city":null,"state":null,"zip":null},"incomeTract":null,"incomeBlockGroup":null,"nearestRoad":null,"flu":null,"opportunityZone":null,"oz2Eligibility":null,"source":"ga-houston-parcels-13153","appraiserUrl":"https://qpublic.schneidercorp.com/Application.aspx?App=HoustonCountyGA&Layer=Parcels&PageType=Report&KeyValue=0P38A0%20%20%20%20048000","gisViewerUrl":"https://garc.maps.arcgis.com/apps/webappviewer/index.html?id=bc820c2f01784c4f8e47e7327e866932"},"geometry":{"type":"Polygon","coordinates":[[[-83.772241,32.502238],[-83.77224,32.501854],[-83.772197,32.501507],[-83.772144,32.501339],[-83.772042,32.501123],[-83.771943,32.50097],[-83.771782,32.500782],[-83.771488,32.500538],[-83.770327,32.500536],[-83.770386,32.501403],[-83.770135,32.501404],[-83.77013,32.50266],[-83.771086,32.502606],[-83.771088,32.502235],[-83.772241,32.502238]]]}},{"type":"Feature","id":"13153:000150    005000","properties":{"id":"13153:000150    005000","parcelId":"000150    005000","countyFips":"13153","countyName":"Houston","state":"Georgia","marketIds":["Macon"],"situsAddress":"617 HARPER RD","situsCity":"Perry","situsZip":"31069","jurisdictionCode":null,"ownerName":"THOMPSON CONNIE ELAINE","ownerName2":null,"propertyName":null,"zoningCode":"RAG","zoningDistrict":null,"jurisdictionPrefix":null,"dorCode":null,"acreage":5.49,"centroid":[-83.779744,32.503827],"lastSale":{"date":null,"price":null,"qualified":null},"tax":{"marketValue":277800.0,"assessedValue":null,"taxableValue":null,"taxes":null},"mailingAddress":{"line1":null,"line2":null,"city":null,"state":null,"zip":null},"incomeTract":null,"incomeBlockGroup":null,"nearestRoad":null,"flu":null,"opportunityZone":null,"oz2Eligibility":null,"source":"ga-houston-parcels-13153","appraiserUrl":"https://qpublic.schneidercorp.com/Application.aspx?App=HoustonCountyGA&Layer=Parcels&PageType=Report&KeyValue=000150%20%20%20%20005000","gisViewerUrl":"https://garc.maps.arcgis.com/apps/webappviewer/index.html?id=bc820c2f01784c4f8e47e7327e866932"},"geometry":{"type":"Polygon","coordinates":[[[-83.779548,32.502846],[-83.779527,32.504283],[-83.779526,32.504581],[-83.779558,32.504581],[-83.779557,32.504964],[-83.780339,32.504959],[-83.78034,32.5022],[-83.779558,32.502198],[-83.779548,32.502846]]]}},{"type":"Feature","id":"13153:000150    001000","properties":{"id":"13153:000150    001000","parcelId":"000150    001000","countyFips":"13153","countyName":"Houston","state":"Georgia","marketIds":["Macon"],"situsAddress":"667 HARPER RD","situsCity":"Perry","situsZip":"31069","jurisdictionCode":null,"ownerName":"BISHOP GARY","ownerName2":null,"propertyName":null,"zoningCode":"RAG","zoningDistrict":null,"jurisdictionPrefix":null,"dorCode":null,"acreage":91.27,"centroid":[-83.784207,32.501294],"lastSale":{"date":null,"price":null,"qualified":null},"tax":{"marketValue":1187740.0,"assessedValue":null,"taxableValue":null,"taxes":null},"mailingAddress":{"line1":null,"line2":null,"city":null,"state":null,"zip":null},"incomeTract":null,"incomeBlockGroup":null,"nearestRoad":null,"flu":null,"opportunityZone":null,"oz2Eligibility":null,"source":"ga-houston-parcels-13153","appraiserUrl":"https://qpublic.schneidercorp.com/Application.aspx?App=HoustonCountyGA&Layer=Parcels&PageType=Report&KeyValue=000150%20%20%20%20001000","gisViewerUrl":"https://garc.maps.arcgis.com/apps/webappviewer/index.html?id=bc820c2f01784c4f8e47e7327e866932"},"geometry":{"type":"Polygon","coordinates":[[[-83.784612,32.497807],[-83.780536,32.497799],[-83.780535,32.498705],[-83.782427,32.498697],[-83.782496,32.501701],[-83.783659,32.504437],[-83.783663,32.504762],[-83.78657,32.504748],[-83.786579,32.503877],[-83.787553,32.503884],[-83.787643,32.497812],[-83.784612,32.497807]]]}},{"type":"Feature","id":"13153:000150    002000","properties":{"id":"13153:000150    002000","parcelId":"000150    002000","countyFips":"13153","countyName":"Houston","state":"Georgia","marketIds":["Macon"],"situsAddress":"663 HARPER RD","situsCity":"Perry","situsZip":"31069","jurisdictionCode":null,"ownerName":"WARD MICHAEL D","ownerName2":null,"propertyName":null,"zoningCode":"RAG","zoningDistrict":null,"jurisdictionPrefix":null,"dorCode":null,"acreage":7.23,"centroid":[-83.782777,32.503464],"lastSale":{"date":null,"price":null,"qualified":null},"tax":{"marketValue":287700.0,"assessedValue":null,"taxableValue":null,"taxes":null},"mailingAddress":{"line1":null,"line2":null,"city":null,"state":null,"zip":null},"incomeTract":null,"incomeBlockGroup":null,"nearestRoad":null,"flu":null,"opportunityZone":null,"oz2Eligibility":null,"source":"ga-houston-parcels-13153","appraiserUrl":"https://qpublic.schneidercorp.com/Application.aspx?App=HoustonCountyGA&Layer=Parcels&PageType=Report&KeyValue=000150%20%20%20%20002000","gisViewerUrl":"https://garc.maps.arcgis.com/apps/webappviewer/index.html?id=bc820c2f01784c4f8e47e7327e866932"},"geometry":{"type":"Polygon","coordinates":[[[-83.782496,32.501701],[-83.781902,32.501687],[-83.782487,32.502971],[-83.78245,32.504966],[-83.783666,32.505023],[-83.783659,32.504437],[-83.782496,32.501701]]]}},{"type":"Feature","id":"13153:000150    004000","properties":{"id":"13153:000150    004000","parcelId":"000150    004000","countyFips":"13153","countyName":"Houston","state":"Georgia","marketIds":["Macon"],"situsAddress":"661 HARPER RD","situsCity":"Perry","situsZip":"31069","jurisdictionCode":null,"ownerName":"HUNNICUTT ROBERT T","ownerName2":null,"propertyName":null,"zoningCode":"RAG","zoningDistrict":null,"jurisdictionPrefix":null,"dorCode":null,"acreage":5.0,"centroid":[-83.781715,32.504164],"lastSale":{"date":null,"price":null,"qualified":null},"tax":{"marketValue":336800.0,"assessedValue":null,"taxableValue":null,"taxes":null},"mailingAddress":{"line1":null,"line2":null,"city":null,"state":null,"zip":null},"incomeTract":null,"incomeBlockGroup":null,"nearestRoad":null,"flu":null,"opportunityZone":null,"oz2Eligibility":null,"source":"ga-houston-parcels-13153","appraiserUrl":"https://qpublic.schneidercorp.com/Application.aspx?App=HoustonCountyGA&Layer=Parcels&PageType=Report&KeyValue=000150%20%20%20%20004000","gisViewerUrl":"https://garc.maps.arcgis.com/apps/webappviewer/index.html?id=bc820c2f01784c4f8e47e7327e866932"},"geometry":{"type":"Polygon","coordinates":[[[-83.78245,32.504966],[-83.782476,32.503584],[-83.781586,32.503562],[-83.780967,32.503747],[-83.781097,32.504962],[-83.78245,32.504966]]]}},{"type":"Feature","id":"13153:000150    18B000","properties":{"id":"13153:000150    18B000","parcelId":"000150    18B000","countyFips":"13153","countyName":"Houston","state":"Georgia","marketIds":["Macon"],"situsAddress":"613 HARPER RD","situsCity":"Perry","situsZip":"31069","jurisdictionCode":null,"ownerName":"BRANTLEY GERALD K","ownerName2":null,"propertyName":null,"zoningCode":"RAG","zoningDistrict":null,"jurisdictionPrefix":null,"dorCode":null,"acreage":5.52,"centroid":[-83.776508,32.502032],"lastSale":{"date":null,"price":null,"qualified":null},"tax":{"marketValue":451500.0,"assessedValue":null,"taxableValue":null,"taxes":null},"mailingAddress":{"line1":null,"line2":null,"city":null,"state":null,"zip":null},"incomeTract":null,"incomeBlockGroup":null,"nearestRoad":null,"flu":null,"opportunityZone":null,"oz2Eligibility":null,"source":"ga-houston-parcels-13153","appraiserUrl":"https://qpublic.schneidercorp.com/Application.aspx?App=HoustonCountyGA&Layer=Parcels&PageType=Report&KeyValue=000150%20%20%20%2018B000","gisViewerUrl":"https://garc.maps.arcgis.com/apps/webappviewer/index.html?id=bc820c2f01784c4f8e47e7327e866932"},"geometry":{"type":"Polygon","coordinates":[[[-83.775213,32.503087],[-83.77664,32.503071],[-83.776873,32.504985],[-83.776971,32.504984],[-83.776574,32.501724],[-83.775192,32.50174],[-83.775213,32.503087]]]}},{"type":"Feature","id":"13153:000150    020000","properties":{"id":"13153:000150    020000","parcelId":"000150    020000","countyFips":"13153","countyName":"Houston","state":"Georgia","marketIds":["Macon"],"situsAddress":"615 HARPER RD","situsCity":"Perry","situsZip":"31069","jurisdictionCode":null,"ownerName":"WALTON WILLIAM","ownerName2":null,"propertyName":null,"zoningCode":"RAG","zoningDistrict":null,"jurisdictionPrefix":null,"dorCode":null,"acreage":26.22,"centroid":[-83.778228,32.501545],"lastSale":{"date":null,"price":null,"qualified":null},"tax":{"marketValue":937290.0,"assessedValue":null,"taxableValue":null,"taxes":null},"mailingAddress":{"line1":null,"line2":null,"city":null,"state":null,"zip":null},"incomeTract":null,"incomeBlockGroup":null,"nearestRoad":null,"flu":null,"opportunityZone":null,"oz2Eligibility":null,"source":"ga-houston-parcels-13153","appraiserUrl":"https://qpublic.schneidercorp.com/Application.aspx?App=HoustonCountyGA&Layer=Parcels&PageType=Report&KeyValue=000150%20%20%20%20020000","gisViewerUrl":"https://garc.maps.arcgis.com/apps/webappviewer/index.html?id=bc820c2f01784c4f8e47e7327e866932"},"geometry":{"type":"Polygon","coordinates":[[[-83.780437,32.504959],[-83.780437,32.503067],[-83.780438,32.499205],[-83.7772,32.499106],[-83.777256,32.499276],[-83.77713,32.499683],[-83.777054,32.500088],[-83.777147,32.50058],[-83.777173,32.500646],[-83.777203,32.500663],[-83.777184,32.500767],[-83.777358,32.500897],[-83.777537,32.500987],[-83.777524,32.501068],[-83.777692,32.501188],[-83.777763,32.501217],[-83.777901,32.501405],[-83.777928,32.50162],[-83.777983,32.501682],[-83.77798,32.501751],[-83.778011,32.501766],[-83.778013,32.501895],[-83.777995,32.501928],[-83.778126,32.502156],[-83.778278,32.502495],[-83.778302,32.502757],[-83.778242,32.502833],[-83.779548,32.502846],[-83.779558,32.502198],[-83.78034,32.5022],[-83.780339,32.504959],[-83.780437,32.504959]]]}},{"type":"Feature","id":"13153:000150    028000","properties":{"id":"13153:000150    028000","parcelId":"000150    028000","countyFips":"13153","countyName":"Houston","state":"Georgia","marketIds":["Macon"],"situsAddress":"0 AIRPORT RD","situsCity":"Perry","situsZip":"31069","jurisdictionCode":null,"ownerName":"BRANTLEY GERALD K","ownerName2":null,"propertyName":null,"zoningCode":"RAG","zoningDistrict":null,"jurisdictionPrefix":null,"dorCode":null,"acreage":12.0,"centroid":[-83.772763,32.501252],"lastSale":{"date":null,"price":null,"qualified":null},"tax":{"marketValue":115200.0,"assessedValue":null,"taxableValue":null,"taxes":null},"mailingAddress":{"line1":null,"line2":null,"city":null,"state":null,"zip":null},"incomeTract":null,"incomeBlockGroup":null,"nearestRoad":null,"flu":null,"opportunityZone":null,"oz2Eligibility":null,"source":"ga-houston-parcels-13153","appraiserUrl":"https://qpublic.schneidercorp.com/Application.aspx?App=HoustonCountyGA&Layer=Parcels&PageType=Report&KeyValue=000150%20%20%20%20028000","gisViewerUrl":"https://garc.maps.arcgis.com/apps/webappviewer/index.html?id=bc820c2f01784c4f8e47e7327e866932"},"geometry":{"type":"Polygon","coordinates":[[[-83.771874,32.500539],[-83.771927,32.500588],[-83.772119,32.500796],[-83.772239,32.500966],[-83.772337,32.501145],[-83.772433,32.501396],[-83.772494,32.501722],[-83.7725,32.502411],[-83.774852,32.502415],[-83.774857,32.500545],[-83.771874,32.500539]]]}}]}