{"type":"FeatureCollection","name":"47055--16_31","features":[{"type":"Feature","id":"47055:028183    00400","properties":{"id":"47055:028183    00400","parcelId":"028183    00400","countyFips":"47055","countyName":"Giles","state":"Tennessee","marketIds":["Huntsville"],"situsAddress":"CAVE BRANCH ROAD (E OF)","situsCity":null,"situsZip":null,"jurisdictionCode":null,"ownerName":"BARBER EDDY BRUCE","ownerName2":null,"propertyName":null,"zoningCode":null,"zoningDistrict":null,"jurisdictionPrefix":null,"dorCode":null,"acreage":135.6798,"centroid":[-86.962215,34.996684],"lastSale":{"date":"2021-04-09","price":600000.0,"qualified":null,"vintage":"2023"},"tax":{"marketValue":166800.0,"assessedValue":null,"taxableValue":null,"taxes":null,"vintage":"2023"},"mailingAddress":{"line1":null,"line2":null,"city":null,"state":null,"zip":null},"incomeTract":null,"incomeBlockGroup":null,"nearestRoad":null,"flu":null,"opportunityZone":null,"oz2Eligibility":null,"source":"tn-oir-public-use-47055","appraiserUrl":"https://assessment.cot.tn.gov/TPAD/Parcel/GIS?gislink=028183%20%20%20%2000400"},"geometry":{"type":"Polygon","coordinates":[[[-86.957235,34.996755],[-86.959304,34.996856],[-86.959172,34.99958],[-86.96689,34.999669],[-86.967116,34.996142],[-86.968892,34.996085],[-86.969042,34.994309],[-86.9556,34.994028],[-86.956683,34.996728],[-86.957235,34.996755]]]}},{"type":"Feature","id":"47055:028184    00400","properties":{"id":"47055:028184    00400","parcelId":"028184    00400","countyFips":"47055","countyName":"Giles","state":"Tennessee","marketIds":["Huntsville"],"situsAddress":"STATE LINE RD","situsCity":null,"situsZip":null,"jurisdictionCode":null,"ownerName":"ANDERSON FARMS INC","ownerName2":"C/O JACK ANDERSON","propertyName":null,"zoningCode":null,"zoningDistrict":null,"jurisdictionPrefix":null,"dorCode":null,"acreage":124.3686,"centroid":[-86.995036,34.999638],"lastSale":{"date":"1964-01-01","price":null,"qualified":null,"vintage":"2023"},"tax":{"marketValue":186300.0,"assessedValue":null,"taxableValue":null,"taxes":null,"vintage":"2023"},"mailingAddress":{"line1":null,"line2":null,"city":null,"state":null,"zip":null},"incomeTract":null,"incomeBlockGroup":null,"nearestRoad":null,"flu":null,"opportunityZone":null,"oz2Eligibility":null,"source":"tn-oir-public-use-47055","appraiserUrl":"https://assessment.cot.tn.gov/TPAD/Parcel/GIS?gislink=028184%20%20%20%2000400"},"geometry":{"type":"Polygon","coordinates":[[[-86.991994,34.999957],[-86.991958,35.001827],[-86.99549,35.001945],[-86.995512,35.002256],[-86.998991,35.001677],[-86.999215,34.994963],[-86.992092,34.994844],[-86.991994,34.999957]]]}},{"type":"Feature","id":"47055:028181    01603","properties":{"id":"47055:028181    01603","parcelId":"028181    01603","countyFips":"47055","countyName":"Giles","state":"Tennessee","marketIds":["Huntsville"],"situsAddress":"MAIN ST 25400","situsCity":null,"situsZip":null,"jurisdictionCode":null,"ownerName":"WARNER DOUGLAS MARTEN","ownerName2":"ETUX TAMARA R","propertyName":null,"zoningCode":null,"zoningDistrict":null,"jurisdictionPrefix":null,"dorCode":null,"acreage":106.1902,"centroid":[-86.868757,34.996206],"lastSale":{"date":"2002-08-20","price":null,"qualified":null,"vintage":"2023"},"tax":{"marketValue":73500.0,"assessedValue":null,"taxableValue":null,"taxes":null,"vintage":"2023"},"mailingAddress":{"line1":null,"line2":null,"city":null,"state":null,"zip":null},"incomeTract":null,"incomeBlockGroup":null,"nearestRoad":null,"flu":null,"opportunityZone":null,"oz2Eligibility":null,"source":"tn-oir-public-use-47055","appraiserUrl":"https://assessment.cot.tn.gov/TPAD/Parcel/GIS?gislink=028181%20%20%20%2001603"},"geometry":{"type":"Polygon","coordinates":[[[-86.861867,34.9981],[-86.86315,34.999113],[-86.863858,34.99966],[-86.864069,34.999812],[-86.864302,34.999969],[-86.864542,35.000121],[-86.864772,35.000258],[-86.864987,34.999938],[-86.865916,34.998883],[-86.866358,34.998817],[-86.866606,34.998228],[-86.86654,34.998021],[-86.866607,34.997936],[-86.866546,34.997537],[-86.866419,34.997473],[-86.866444,34.99716],[-86.865193,34.997857],[-86.863725,34.997701],[-86.863308,34.997738],[-86.863596,34.997298],[-86.864172,34.996869],[-86.864191,34.996312],[-86.864298,34.996006],[-86.865208,34.995689],[-86.865636,34.995404],[-86.866513,34.994422],[-86.86793,34.995897],[-86.868028,34.995911],[-86.868821,34.996251],[-86.869767,34.99627],[-86.872013,34.998107],[-86.872482,34.997125],[-86.87562,34.999719],[-86.87561,34.999662],[-86.875611,34.999612],[-86.875624,34.999559],[-86.875646,34.999513],[-86.875248,34.999244],[-86.874823,34.998878],[-86.874576,34.99864],[-86.874199,34.998304],[-86.873835,34.997927],[-86.873607,34.997764],[-86.873514,34.997615],[-86.873392,34.99718],[-86.873257,34.997122],[-86.873159,34.997118],[-86.873037,34.997094],[-86.872915,34.997025],[-86.872828,34.996951],[-86.87282,34.996821],[-86.872717,34.996634],[-86.873432,34.995139],[-86.872264,34.994189],[-86.872249,34.992255],[-86.865852,34.992153],[-86.865907,34.992527],[-86.865403,34.992646],[-86.864683,34.993636],[-86.863907,34.994279],[-86.863576,34.996373],[-86.863062,34.996316],[-86.862703,34.9977],[-86.861907,34.998098],[-86.861867,34.9981]]]}},{"type":"Feature","id":"47055:028184    00800","properties":{"id":"47055:028184    00800","parcelId":"028184    00800","countyFips":"47055","countyName":"Giles","state":"Tennessee","marketIds":["Huntsville"],"situsAddress":"STATE LINE RD","situsCity":null,"situsZip":null,"jurisdictionCode":null,"ownerName":"TUCKER MIDDLE TENNESSEE FAMILY","ownerName2":"LIMITED PARTNERSHIP","propertyName":null,"zoningCode":null,"zoningDistrict":null,"jurisdictionPrefix":null,"dorCode":null,"acreage":106.1488,"centroid":[-86.986837,34.998642],"lastSale":{"date":"1997-03-21","price":133750.0,"qualified":null,"vintage":"2023"},"tax":{"marketValue":177900.0,"assessedValue":null,"taxableValue":null,"taxes":null,"vintage":"2023"},"mailingAddress":{"line1":null,"line2":null,"city":null,"state":null,"zip":null},"incomeTract":null,"incomeBlockGroup":null,"nearestRoad":null,"flu":null,"opportunityZone":null,"oz2Eligibility":null,"source":"tn-oir-public-use-47055","appraiserUrl":"https://assessment.cot.tn.gov/TPAD/Parcel/GIS?gislink=028184%20%20%20%2000800"},"geometry":{"type":"Polygon","coordinates":[[[-86.981063,35.00167],[-86.985333,35.001733],[-86.985331,35.000834],[-86.988047,35.000972],[-86.987914,35.000527],[-86.987802,35.000104],[-86.987731,34.999791],[-86.987671,34.999454],[-86.987624,34.9991],[-86.987595,34.998752],[-86.987582,34.998403],[-86.987586,34.998039],[-86.987605,34.997722],[-86.987636,34.997413],[-86.987681,34.997097],[-86.98774,34.996783],[-86.987832,34.996396],[-86.988273,34.994765],[-86.981859,34.994649],[-86.981063,35.00167]]]}},{"type":"Feature","id":"47055:028183    00901","properties":{"id":"47055:028183    00901","parcelId":"028183    00901","countyFips":"47055","countyName":"Giles","state":"Tennessee","marketIds":["Huntsville"],"situsAddress":"PLEASANT HILL RD 275 245","situsCity":null,"situsZip":null,"jurisdictionCode":null,"ownerName":"HEAD JESSICA E","ownerName2":null,"propertyName":null,"zoningCode":null,"zoningDistrict":null,"jurisdictionPrefix":null,"dorCode":null,"acreage":100.4452,"centroid":[-86.937537,34.998292],"lastSale":{"date":"2021-07-19","price":null,"qualified":null,"vintage":"2023"},"tax":{"marketValue":156500.0,"assessedValue":null,"taxableValue":null,"taxes":null,"vintage":"2023"},"mailingAddress":{"line1":null,"line2":null,"city":null,"state":null,"zip":null},"incomeTract":null,"incomeBlockGroup":null,"nearestRoad":null,"flu":null,"opportunityZone":null,"oz2Eligibility":null,"source":"tn-oir-public-use-47055","appraiserUrl":"https://assessment.cot.tn.gov/TPAD/Parcel/GIS?gislink=028183%20%20%20%2000901"},"geometry":{"type":"Polygon","coordinates":[[[-86.938703,35.001542],[-86.939207,35.001766],[-86.939694,35.00196],[-86.939939,35.002196],[-86.940187,35.002514],[-86.940237,35.002604],[-86.94162,35.002762],[-86.941762,34.99359],[-86.939512,34.993588],[-86.937667,34.993605],[-86.93751,34.993602],[-86.937525,34.99378],[-86.937526,34.993964],[-86.937513,34.994145],[-86.937486,34.994325],[-86.937453,34.994476],[-86.937297,34.995072],[-86.937192,34.99553],[-86.937119,34.995878],[-86.936807,34.997485],[-86.936766,34.997633],[-86.936716,34.997754],[-86.936656,34.997866],[-86.936582,34.997975],[-86.93649,34.998085],[-86.936381,34.99819],[-86.936006,34.998494],[-86.93585,34.998632],[-86.935704,34.998768],[-86.935748,34.998818],[-86.935877,34.998941],[-86.935929,34.999048],[-86.935956,34.999234],[-86.936007,34.999277],[-86.936111,34.999378],[-86.936443,34.999869],[-86.936813,35.000312],[-86.937124,35.000525],[-86.937417,35.000872],[-86.937839,35.001352],[-86.937982,35.001421],[-86.938183,35.001416],[-86.938703,35.001542]]]}},{"type":"Feature","id":"47055:028182    02100","properties":{"id":"47055:028182    02100","parcelId":"028182    02100","countyFips":"47055","countyName":"Giles","state":"Tennessee","marketIds":["Huntsville"],"situsAddress":"ROLIN HOLLOW RD 755","situsCity":null,"situsZip":null,"jurisdictionCode":null,"ownerName":"CURTIS HAROLD DEAN ET UX JOANNA L/E","ownerName2":"DARLA CURTIS","propertyName":null,"zoningCode":null,"zoningDistrict":null,"jurisdictionPrefix":null,"dorCode":null,"acreage":96.4786,"centroid":[-86.884626,34.994874],"lastSale":{"date":"1999-05-17","price":60000.0,"qualified":null,"vintage":"2023"},"tax":{"marketValue":120200.0,"assessedValue":null,"taxableValue":null,"taxes":null,"vintage":"2023"},"mailingAddress":{"line1":null,"line2":null,"city":null,"state":null,"zip":null},"incomeTract":null,"incomeBlockGroup":null,"nearestRoad":null,"flu":null,"opportunityZone":null,"oz2Eligibility":null,"source":"tn-oir-public-use-47055","appraiserUrl":"https://assessment.cot.tn.gov/TPAD/Parcel/GIS?gislink=028182%20%20%20%2002100"},"geometry":{"type":"Polygon","coordinates":[[[-86.879032,34.99581],[-86.882537,34.995962],[-86.884843,34.995971],[-86.885158,34.99397],[-86.88619,34.994819],[-86.887299,34.995618],[-86.890963,34.995858],[-86.891746,34.992563],[-86.8797,34.992373],[-86.878795,34.995799],[-86.879032,34.99581]]]}},{"type":"Feature","id":"47055:028181    03300","properties":{"id":"47055:028181    03300","parcelId":"028181    03300","countyFips":"47055","countyName":"Giles","state":"Tennessee","marketIds":["Huntsville"],"situsAddress":"GOWAN RD 30350","situsCity":null,"situsZip":null,"jurisdictionCode":null,"ownerName":"JAMES ALEX ETUX TINA JAMES","ownerName2":null,"propertyName":null,"zoningCode":null,"zoningDistrict":null,"jurisdictionPrefix":null,"dorCode":null,"acreage":76.504,"centroid":[-86.874794,34.997159],"lastSale":{"date":"2022-10-03","price":null,"qualified":null,"vintage":"2023"},"tax":{"marketValue":98000.0,"assessedValue":null,"taxableValue":null,"taxes":null,"vintage":"2023"},"mailingAddress":{"line1":null,"line2":null,"city":null,"state":null,"zip":null},"incomeTract":null,"incomeBlockGroup":null,"nearestRoad":null,"flu":null,"opportunityZone":null,"oz2Eligibility":null,"source":"tn-oir-public-use-47055","appraiserUrl":"https://assessment.cot.tn.gov/TPAD/Parcel/GIS?gislink=028181%20%20%20%2003300"},"geometry":{"type":"Polygon","coordinates":[[[-86.873037,34.997094],[-86.873159,34.997118],[-86.873257,34.997122],[-86.873392,34.99718],[-86.873514,34.997615],[-86.873607,34.997764],[-86.873835,34.997927],[-86.874199,34.998304],[-86.874576,34.99864],[-86.874823,34.998878],[-86.875248,34.999244],[-86.875646,34.999513],[-86.875882,34.999199],[-86.875933,34.999116],[-86.875975,34.999032],[-86.876008,34.998947],[-86.876031,34.998864],[-86.876113,34.998436],[-86.876593,34.998198],[-86.876689,34.998086],[-86.877165,34.997834],[-86.878374,34.993255],[-86.878047,34.993197],[-86.878271,34.99235],[-86.872249,34.992255],[-86.872264,34.994189],[-86.873432,34.995139],[-86.872717,34.996634],[-86.87282,34.996821],[-86.872828,34.996951],[-86.872915,34.997025],[-86.873037,34.997094]]]}},{"type":"Feature","id":"47055:028183    00200","properties":{"id":"47055:028183    00200","parcelId":"028183    00200","countyFips":"47055","countyName":"Giles","state":"Tennessee","marketIds":["Huntsville"],"situsAddress":"CAVE BRANCH RD 19231","situsCity":null,"situsZip":null,"jurisdictionCode":null,"ownerName":"BARBER EDDY BRUCE JR","ownerName2":null,"propertyName":null,"zoningCode":null,"zoningDistrict":null,"jurisdictionPrefix":null,"dorCode":null,"acreage":75.142,"centroid":[-86.970498,34.997733],"lastSale":{"date":"2021-04-09","price":600000.0,"qualified":null,"vintage":"2023"},"tax":{"marketValue":550000.0,"assessedValue":null,"taxableValue":null,"taxes":null,"vintage":"2023"},"mailingAddress":{"line1":null,"line2":null,"city":null,"state":null,"zip":null},"incomeTract":null,"incomeBlockGroup":null,"nearestRoad":null,"flu":null,"opportunityZone":null,"oz2Eligibility":null,"source":"tn-oir-public-use-47055","appraiserUrl":"https://assessment.cot.tn.gov/TPAD/Parcel/GIS?gislink=028183%20%20%20%2000200"},"geometry":{"type":"Polygon","coordinates":[[[-86.966971,34.998396],[-86.970378,34.997759],[-86.970448,34.99907],[-86.970309,35.000512],[-86.970311,35.001092],[-86.972938,35.001157],[-86.972958,35.00101],[-86.974025,34.994412],[-86.969042,34.994309],[-86.968892,34.996085],[-86.967116,34.996142],[-86.966971,34.998396]]]}},{"type":"Feature","id":"47055:028182    01100","properties":{"id":"47055:028182    01100","parcelId":"028182    01100","countyFips":"47055","countyName":"Giles","state":"Tennessee","marketIds":["Huntsville"],"situsAddress":"ROLIN HOLLOW RD 1066","situsCity":null,"situsZip":null,"jurisdictionCode":null,"ownerName":"CURRY ALBERTA","ownerName2":null,"propertyName":null,"zoningCode":null,"zoningDistrict":null,"jurisdictionPrefix":null,"dorCode":null,"acreage":71.0899,"centroid":[-86.894309,34.99643],"lastSale":{"date":"1945-01-01","price":null,"qualified":null,"vintage":"2023"},"tax":{"marketValue":166400.0,"assessedValue":null,"taxableValue":null,"taxes":null,"vintage":"2023"},"mailingAddress":{"line1":null,"line2":null,"city":null,"state":null,"zip":null},"incomeTract":null,"incomeBlockGroup":null,"nearestRoad":null,"flu":null,"opportunityZone":null,"oz2Eligibility":null,"source":"tn-oir-public-use-47055","appraiserUrl":"https://assessment.cot.tn.gov/TPAD/Parcel/GIS?gislink=028182%20%20%20%2001100"},"geometry":{"type":"Polygon","coordinates":[[[-86.897794,34.999126],[-86.899925,34.999386],[-86.90056,34.994827],[-86.89967,34.994712],[-86.895217,34.994269],[-86.894983,34.99496],[-86.894935,34.995116],[-86.894878,34.995358],[-86.894855,34.995486],[-86.894836,34.995632],[-86.894826,34.995674],[-86.894811,34.995714],[-86.89479,34.995753],[-86.894736,34.995822],[-86.894688,34.995865],[-86.894635,34.9959],[-86.894574,34.995929],[-86.894508,34.99595],[-86.894423,34.995964],[-86.894223,34.995973],[-86.89407,34.99599],[-86.893913,34.996022],[-86.893755,34.996068],[-86.893626,34.996117],[-86.893482,34.996185],[-86.893347,34.99626],[-86.893213,34.996345],[-86.893082,34.996442],[-86.892957,34.996551],[-86.892259,34.99725],[-86.892137,34.99736],[-86.892024,34.997445],[-86.891969,34.997481],[-86.891929,34.997503],[-86.891886,34.99752],[-86.891838,34.997534],[-86.891791,34.997542],[-86.891741,34.997546],[-86.891625,34.997963],[-86.897839,34.998667],[-86.897794,34.999126]]]}},{"type":"Feature","id":"47055:028182    00301","properties":{"id":"47055:028182    00301","parcelId":"028182    00301","countyFips":"47055","countyName":"Giles","state":"Tennessee","marketIds":["Huntsville"],"situsAddress":"HOLT HOLLOW RD 870","situsCity":null,"situsZip":null,"jurisdictionCode":null,"ownerName":"WHARTON LONZO L","ownerName2":"ETUX MARY E","propertyName":null,"zoningCode":null,"zoningDistrict":null,"jurisdictionPrefix":null,"dorCode":null,"acreage":60.825,"centroid":[-86.912937,34.998927],"lastSale":{"date":"1985-05-13","price":null,"qualified":null,"vintage":"2023"},"tax":{"marketValue":170600.0,"assessedValue":null,"taxableValue":null,"taxes":null,"vintage":"2023"},"mailingAddress":{"line1":null,"line2":null,"city":null,"state":null,"zip":null},"incomeTract":null,"incomeBlockGroup":null,"nearestRoad":null,"flu":null,"opportunityZone":null,"oz2Eligibility":null,"source":"tn-oir-public-use-47055","appraiserUrl":"https://assessment.cot.tn.gov/TPAD/Parcel/GIS?gislink=028182%20%20%20%2000301"},"geometry":{"type":"Polygon","coordinates":[[[-86.910722,34.997385],[-86.910691,34.99743],[-86.910653,34.997473],[-86.910264,34.997825],[-86.910165,34.997921],[-86.91005,34.998047],[-86.90995,34.998173],[-86.909835,34.998343],[-86.909742,34.998512],[-86.909623,34.99877],[-86.909584,34.998867],[-86.909554,34.998959],[-86.909529,34.999074],[-86.909517,34.999179],[-86.909516,34.999296],[-86.909527,34.999412],[-86.909546,34.999506],[-86.909795,35.000539],[-86.909814,35.000665],[-86.918731,35.001335],[-86.918173,35.000903],[-86.91807,35.000834],[-86.917643,35.000572],[-86.917472,35.000434],[-86.917223,35.000212],[-86.917035,35.000053],[-86.916914,34.999873],[-86.916591,34.998947],[-86.916436,34.998639],[-86.916282,34.998185],[-86.916208,34.997991],[-86.916193,34.997904],[-86.916045,34.997623],[-86.916077,34.997539],[-86.911836,34.997565],[-86.910724,34.997382],[-86.910722,34.997385]]]}},{"type":"Feature","id":"47055:028183    00600","properties":{"id":"47055:028183    00600","parcelId":"028183    00600","countyFips":"47055","countyName":"Giles","state":"Tennessee","marketIds":["Huntsville"],"situsAddress":"WHITFIELD RD 445","situsCity":null,"situsZip":null,"jurisdictionCode":null,"ownerName":"TANKERSLEY JOE A ET UX DEBORAH G","ownerName2":null,"propertyName":null,"zoningCode":null,"zoningDistrict":null,"jurisdictionPrefix":null,"dorCode":null,"acreage":60.0794,"centroid":[-86.954849,34.99987],"lastSale":{"date":"2018-12-21","price":166841.0,"qualified":null,"vintage":"2023"},"tax":{"marketValue":346600.0,"assessedValue":null,"taxableValue":null,"taxes":null,"vintage":"2023"},"mailingAddress":{"line1":null,"line2":null,"city":null,"state":null,"zip":null},"incomeTract":null,"incomeBlockGroup":null,"nearestRoad":null,"flu":null,"opportunityZone":null,"oz2Eligibility":null,"source":"tn-oir-public-use-47055","appraiserUrl":"https://assessment.cot.tn.gov/TPAD/Parcel/GIS?gislink=028183%20%20%20%2000600"},"geometry":{"type":"Polygon","coordinates":[[[-86.95225,35.00114],[-86.953964,35.001318],[-86.953833,35.002321],[-86.958033,35.002971],[-86.958244,35.001419],[-86.958552,35.001208],[-86.958636,35.000817],[-86.958874,35.000325],[-86.959008,35.00021],[-86.958919,35.000082],[-86.958443,34.999724],[-86.958485,34.998237],[-86.953886,34.997906],[-86.953909,34.997949],[-86.953903,34.998002],[-86.953884,34.998087],[-86.953831,34.998172],[-86.95375,34.998256],[-86.953288,34.998571],[-86.953155,34.998674],[-86.952813,34.999029],[-86.952354,34.99962],[-86.95233,34.999671],[-86.952314,34.99974],[-86.952297,35.000418],[-86.952289,35.000535],[-86.952259,35.000826],[-86.952256,35.00112],[-86.95225,35.00114]],[[-86.953988,34.99874],[-86.954945,34.998545],[-86.955175,34.99932],[-86.954916,34.999394],[-86.954654,34.999451],[-86.954382,34.999489],[-86.954215,34.999504],[-86.953988,34.99874]]]}},{"type":"Feature","id":"47055:028182    01300","properties":{"id":"47055:028182    01300","parcelId":"028182    01300","countyFips":"47055","countyName":"Giles","state":"Tennessee","marketIds":["Huntsville"],"situsAddress":"HOLT HOLLOW RD 1166","situsCity":null,"situsZip":null,"jurisdictionCode":null,"ownerName":"CURRY J B & VIRGIE MAE","ownerName2":null,"propertyName":null,"zoningCode":null,"zoningDistrict":null,"jurisdictionPrefix":null,"dorCode":null,"acreage":50.9694,"centroid":[-86.914456,34.996115],"lastSale":{"date":"1977-09-30","price":null,"qualified":null,"vintage":"2023"},"tax":{"marketValue":203300.0,"assessedValue":null,"taxableValue":null,"taxes":null,"vintage":"2023"},"mailingAddress":{"line1":null,"line2":null,"city":null,"state":null,"zip":null},"incomeTract":null,"incomeBlockGroup":null,"nearestRoad":null,"flu":null,"opportunityZone":null,"oz2Eligibility":null,"source":"tn-oir-public-use-47055","appraiserUrl":"https://assessment.cot.tn.gov/TPAD/Parcel/GIS?gislink=028182%20%20%20%2001300"},"geometry":{"type":"Polygon","coordinates":[[[-86.916077,34.997539],[-86.916249,34.997538],[-86.916751,34.997595],[-86.917492,34.996954],[-86.917718,34.996809],[-86.917858,34.996623],[-86.918075,34.996465],[-86.918282,34.996267],[-86.918622,34.995998],[-86.919163,34.995234],[-86.915087,34.994431],[-86.914164,34.994205],[-86.911944,34.993905],[-86.911255,34.993891],[-86.91143,34.99418],[-86.911822,34.99532],[-86.912102,34.996175],[-86.912139,34.996163],[-86.912179,34.996238],[-86.911858,34.996337],[-86.911229,34.996505],[-86.911707,34.997387],[-86.911909,34.997433],[-86.911836,34.997565],[-86.916077,34.997539]]]}},{"type":"Feature","id":"47055:028181    01500","properties":{"id":"47055:028181    01500","parcelId":"028181    01500","countyFips":"47055","countyName":"Giles","state":"Tennessee","marketIds":["Huntsville"],"situsAddress":"AUSTIN WHITT RD","situsCity":null,"situsZip":null,"jurisdictionCode":null,"ownerName":"HODGES CHADWICK ALAN ET UX TRACY A","ownerName2":null,"propertyName":null,"zoningCode":null,"zoningDistrict":null,"jurisdictionPrefix":null,"dorCode":null,"acreage":50.5973,"centroid":[-86.853197,34.996986],"lastSale":{"date":"2021-08-13","price":529900.0,"qualified":null,"vintage":"2023"},"tax":{"marketValue":71100.0,"assessedValue":null,"taxableValue":null,"taxes":null,"vintage":"2023"},"mailingAddress":{"line1":null,"line2":null,"city":null,"state":null,"zip":null},"incomeTract":null,"incomeBlockGroup":null,"nearestRoad":null,"flu":null,"opportunityZone":null,"oz2Eligibility":null,"source":"tn-oir-public-use-47055","appraiserUrl":"https://assessment.cot.tn.gov/TPAD/Parcel/GIS?gislink=028181%20%20%20%2001500"},"geometry":{"type":"Polygon","coordinates":[[[-86.849723,34.999974],[-86.850444,35.000052],[-86.8541,35.000406],[-86.854214,35.000388],[-86.854304,35.000366],[-86.854421,34.99958],[-86.854019,34.999543],[-86.854377,34.995479],[-86.854025,34.995456],[-86.854209,34.99475],[-86.854052,34.994696],[-86.853857,34.995445],[-86.853721,34.995437],[-86.853688,34.995425],[-86.853682,34.995438],[-86.853343,34.995403],[-86.853231,34.995712],[-86.852029,34.995621],[-86.852149,34.995335],[-86.850347,34.995219],[-86.849723,34.999974]]]}},{"type":"Feature","id":"47055:028184    00600","properties":{"id":"47055:028184    00600","parcelId":"028184    00600","countyFips":"47055","countyName":"Giles","state":"Tennessee","marketIds":["Huntsville"],"situsAddress":"STATE LINE RD","situsCity":null,"situsZip":null,"jurisdictionCode":null,"ownerName":"EVANS SHERRY BRYANT","ownerName2":null,"propertyName":null,"zoningCode":null,"zoningDistrict":null,"jurisdictionPrefix":null,"dorCode":null,"acreage":49.0675,"centroid":[-86.988915,34.997394],"lastSale":{"date":"2005-12-15","price":null,"qualified":null,"vintage":"2023"},"tax":{"marketValue":87600.0,"assessedValue":null,"taxableValue":null,"taxes":null,"vintage":"2023"},"mailingAddress":{"line1":null,"line2":null,"city":null,"state":null,"zip":null},"incomeTract":null,"incomeBlockGroup":null,"nearestRoad":null,"flu":null,"opportunityZone":null,"oz2Eligibility":null,"source":"tn-oir-public-use-47055","appraiserUrl":"https://assessment.cot.tn.gov/TPAD/Parcel/GIS?gislink=028184%20%20%20%2000600"},"geometry":{"type":"Polygon","coordinates":[[[-86.988204,34.999937],[-86.991994,34.999957],[-86.992076,34.995678],[-86.991202,34.995638],[-86.991237,34.994829],[-86.990701,34.99482],[-86.990695,34.995321],[-86.989952,34.995309],[-86.98995,34.994808],[-86.988508,34.994784],[-86.988064,34.996422],[-86.987986,34.996741],[-86.987929,34.997026],[-86.987884,34.997311],[-86.98785,34.997598],[-86.987828,34.997878],[-86.987818,34.998106],[-86.987815,34.998318],[-86.987819,34.998538],[-86.987829,34.99875],[-86.987845,34.998962],[-86.987868,34.999181],[-86.987897,34.999392],[-86.987933,34.99961],[-86.988,34.999936],[-86.988204,34.999937]]]}},{"type":"Feature","id":"47055:028182    00600","properties":{"id":"47055:028182    00600","parcelId":"028182    00600","countyFips":"47055","countyName":"Giles","state":"Tennessee","marketIds":["Huntsville"],"situsAddress":"ROLIN HOLLOW RD 696698 692 690","situsCity":null,"situsZip":null,"jurisdictionCode":null,"ownerName":"SANDERS CAROL","ownerName2":"C/O ERIC GOWING","propertyName":null,"zoningCode":null,"zoningDistrict":null,"jurisdictionPrefix":null,"dorCode":null,"acreage":47.2224,"centroid":[-86.891368,34.99959],"lastSale":{"date":"1988-11-18","price":28000.0,"qualified":null,"vintage":"2023"},"tax":{"marketValue":375500.0,"assessedValue":null,"taxableValue":null,"taxes":null,"vintage":"2023"},"mailingAddress":{"line1":null,"line2":null,"city":null,"state":null,"zip":null},"incomeTract":null,"incomeBlockGroup":null,"nearestRoad":null,"flu":null,"opportunityZone":null,"oz2Eligibility":null,"source":"tn-oir-public-use-47055","appraiserUrl":"https://assessment.cot.tn.gov/TPAD/Parcel/GIS?gislink=028182%20%20%20%2000600"},"geometry":{"type":"Polygon","coordinates":[[[-86.889767,35.000619],[-86.897603,35.001215],[-86.897839,34.998667],[-86.891625,34.997963],[-86.891454,34.998219],[-86.891282,34.99854],[-86.891139,34.99928],[-86.89079,34.999313],[-86.890782,34.9997],[-86.890647,34.999746],[-86.889849,34.999742],[-86.889836,34.999796],[-86.88983,34.999848],[-86.889832,35.000076],[-86.88982,35.000273],[-86.889798,35.00045],[-86.889767,35.000619]]]}},{"type":"Feature","id":"47055:028181    03200","properties":{"id":"47055:028181    03200","parcelId":"028181    03200","countyFips":"47055","countyName":"Giles","state":"Tennessee","marketIds":["Huntsville"],"situsAddress":"I-65 WEST SIDE","situsCity":null,"situsZip":null,"jurisdictionCode":null,"ownerName":"ROLIN BARRY WADE TRUSTEE BARRY W","ownerName2":"ROLIN REVOC LIVING TRUST","propertyName":null,"zoningCode":null,"zoningDistrict":null,"jurisdictionPrefix":null,"dorCode":null,"acreage":46.3382,"centroid":[-86.879874,34.998631],"lastSale":{"date":"2017-03-01","price":null,"qualified":null,"vintage":"2023"},"tax":{"marketValue":31600.0,"assessedValue":null,"taxableValue":null,"taxes":null,"vintage":"2023"},"mailingAddress":{"line1":null,"line2":null,"city":null,"state":null,"zip":null},"incomeTract":null,"incomeBlockGroup":null,"nearestRoad":null,"flu":null,"opportunityZone":null,"oz2Eligibility":null,"source":"tn-oir-public-use-47055","appraiserUrl":"https://assessment.cot.tn.gov/TPAD/Parcel/GIS?gislink=028181%20%20%20%2003200"},"geometry":{"type":"Polygon","coordinates":[[[-86.878818,35.001373],[-86.879605,35.001476],[-86.880439,35.001527],[-86.881095,34.998095],[-86.881292,34.997339],[-86.883097,34.997541],[-86.884584,34.997621],[-86.884843,34.995971],[-86.882537,34.995962],[-86.879032,34.99581],[-86.878625,34.997349],[-86.878551,34.997666],[-86.8785,34.997939],[-86.878461,34.998214],[-86.878434,34.998489],[-86.878419,34.998752],[-86.878415,34.999062],[-86.878425,34.999365],[-86.878449,34.999668],[-86.878488,34.999969],[-86.878531,35.000223],[-86.878587,35.000482],[-86.878818,35.001373]]]}},{"type":"Feature","id":"47055:028182    01200","properties":{"id":"47055:028182    01200","parcelId":"028182    01200","countyFips":"47055","countyName":"Giles","state":"Tennessee","marketIds":["Huntsville"],"situsAddress":"BATES HOLLOW RD 633","situsCity":null,"situsZip":null,"jurisdictionCode":null,"ownerName":"MONTGOMERY LADDIN S ETUX","ownerName2":"HEATHER L","propertyName":null,"zoningCode":null,"zoningDistrict":null,"jurisdictionPrefix":null,"dorCode":null,"acreage":45.1457,"centroid":[-86.903145,34.998202],"lastSale":{"date":"2005-12-21","price":111125.0,"qualified":null,"vintage":"2023"},"tax":{"marketValue":31400.0,"assessedValue":null,"taxableValue":null,"taxes":null,"vintage":"2023"},"mailingAddress":{"line1":null,"line2":null,"city":null,"state":null,"zip":null},"incomeTract":null,"incomeBlockGroup":null,"nearestRoad":null,"flu":null,"opportunityZone":null,"oz2Eligibility":null,"source":"tn-oir-public-use-47055","appraiserUrl":"https://assessment.cot.tn.gov/TPAD/Parcel/GIS?gislink=028182%20%20%20%2001200"},"geometry":{"type":"Polygon","coordinates":[[[-86.899925,34.999386],[-86.905071,35.000014],[-86.905077,34.999905],[-86.903758,34.999749],[-86.904482,34.995331],[-86.90056,34.994827],[-86.899925,34.999386]]]}},{"type":"Feature","id":"47055:028182    01501","properties":{"id":"47055:028182    01501","parcelId":"028182    01501","countyFips":"47055","countyName":"Giles","state":"Tennessee","marketIds":["Huntsville"],"situsAddress":"RAGSDALE CREEK RD","situsCity":null,"situsZip":null,"jurisdictionCode":null,"ownerName":"NEWBY JERRY A ET UX ET AL","ownerName2":"NEWBY MARITAL TRUST JOHN M NEWBY TRUSTEE","propertyName":null,"zoningCode":null,"zoningDistrict":null,"jurisdictionPrefix":null,"dorCode":null,"acreage":45.0612,"centroid":[-86.932441,34.998439],"lastSale":{"date":"2023-01-24","price":null,"qualified":null,"vintage":"2023"},"tax":{"marketValue":78700.0,"assessedValue":null,"taxableValue":null,"taxes":null,"vintage":"2023"},"mailingAddress":{"line1":null,"line2":null,"city":null,"state":null,"zip":null},"incomeTract":null,"incomeBlockGroup":null,"nearestRoad":null,"flu":null,"opportunityZone":null,"oz2Eligibility":null,"source":"tn-oir-public-use-47055","appraiserUrl":"https://assessment.cot.tn.gov/TPAD/Parcel/GIS?gislink=028182%20%20%20%2001501"},"geometry":{"type":"Polygon","coordinates":[[[-86.934846,34.998061],[-86.934593,34.997711],[-86.934353,34.997423],[-86.934042,34.997242],[-86.933419,34.996864],[-86.933256,34.996794],[-86.933075,34.996768],[-86.932779,34.996735],[-86.927913,34.996576],[-86.927938,34.996768],[-86.927954,34.996827],[-86.927975,34.996881],[-86.928007,34.996944],[-86.928045,34.997001],[-86.928092,34.997057],[-86.92815,34.997113],[-86.929648,34.998251],[-86.932202,35.000274],[-86.932338,35.000371],[-86.932484,35.000462],[-86.932633,35.000545],[-86.932788,35.000621],[-86.932978,35.0007],[-86.933802,35.001009],[-86.933876,35.000891],[-86.933946,35.000791],[-86.934975,34.999427],[-86.935137,34.999231],[-86.935297,34.99905],[-86.935465,34.998875],[-86.935651,34.998692],[-86.93536,34.998511],[-86.935087,34.998335],[-86.934886,34.998117],[-86.934846,34.998061]]]}},{"type":"Feature","id":"47055:028182    02000","properties":{"id":"47055:028182    02000","parcelId":"028182    02000","countyFips":"47055","countyName":"Giles","state":"Tennessee","marketIds":["Huntsville"],"situsAddress":"ROLIN HOLLOW RD 1121","situsCity":null,"situsZip":null,"jurisdictionCode":null,"ownerName":"GATES PHILLIP R ETAL","ownerName2":"TIFFINI REED/BRANDON GATES","propertyName":null,"zoningCode":null,"zoningDistrict":null,"jurisdictionPrefix":null,"dorCode":null,"acreage":39.1563,"centroid":[-86.893654,34.995579],"lastSale":{"date":"2009-06-19","price":40000.0,"qualified":null,"vintage":"2023"},"tax":{"marketValue":163100.0,"assessedValue":null,"taxableValue":null,"taxes":null,"vintage":"2023"},"mailingAddress":{"line1":null,"line2":null,"city":null,"state":null,"zip":null},"incomeTract":null,"incomeBlockGroup":null,"nearestRoad":null,"flu":null,"opportunityZone":null,"oz2Eligibility":null,"source":"tn-oir-public-use-47055","appraiserUrl":"https://assessment.cot.tn.gov/TPAD/Parcel/GIS?gislink=028182%20%20%20%2002000"},"geometry":{"type":"Polygon","coordinates":[[[-86.890963,34.995858],[-86.890576,34.997485],[-86.890656,34.997462],[-86.890735,34.997453],[-86.891739,34.997463],[-86.891804,34.997456],[-86.891866,34.997437],[-86.891912,34.997414],[-86.891995,34.997357],[-86.892074,34.997295],[-86.892144,34.997234],[-86.892837,34.99654],[-86.892944,34.996441],[-86.893027,34.996372],[-86.893114,34.996306],[-86.893289,34.996192],[-86.893419,34.99612],[-86.893558,34.996053],[-86.893682,34.996004],[-86.893805,34.995964],[-86.893947,34.995929],[-86.894102,34.995902],[-86.894223,34.99589],[-86.894394,34.995884],[-86.89445,34.995877],[-86.894531,34.995854],[-86.894603,34.995816],[-86.894644,34.995785],[-86.894676,34.995751],[-86.894704,34.99571],[-86.894724,34.995667],[-86.894736,34.995622],[-86.894756,34.995478],[-86.894781,34.995334],[-86.89484,34.995088],[-86.894889,34.994929],[-86.895138,34.994196],[-86.895177,34.994094],[-86.895228,34.993992],[-86.895288,34.993893],[-86.895357,34.993799],[-86.89574,34.992684],[-86.895444,34.992684],[-86.895219,34.992677],[-86.894327,34.992616],[-86.893953,34.992599],[-86.891746,34.992563],[-86.890963,34.995858]]]}},{"type":"Feature","id":"47055:028181    01401","properties":{"id":"47055:028181    01401","parcelId":"028181    01401","countyFips":"47055","countyName":"Giles","state":"Tennessee","marketIds":["Huntsville"],"situsAddress":"AUSTIN WHITT ROAD RD 26400","situsCity":null,"situsZip":null,"jurisdictionCode":null,"ownerName":"CITY OF ARDMORE","ownerName2":"EXEMPT PROPERTY","propertyName":null,"zoningCode":null,"zoningDistrict":null,"jurisdictionPrefix":null,"dorCode":null,"acreage":37.1482,"centroid":[-86.848403,34.997298],"lastSale":{"date":"2004-02-26","price":null,"qualified":null,"vintage":"2023"},"tax":{"marketValue":271100.0,"assessedValue":null,"taxableValue":null,"taxes":null,"vintage":"2023"},"mailingAddress":{"line1":null,"line2":null,"city":null,"state":null,"zip":null},"incomeTract":null,"incomeBlockGroup":null,"nearestRoad":null,"flu":null,"opportunityZone":null,"oz2Eligibility":null,"source":"tn-oir-public-use-47055","appraiserUrl":"https://assessment.cot.tn.gov/TPAD/Parcel/GIS?gislink=028181%20%20%20%2001401"},"geometry":{"type":"Polygon","coordinates":[[[-86.848558,34.999845],[-86.849134,34.999927],[-86.849715,35.000001],[-86.849723,34.999974],[-86.850347,34.995219],[-86.849322,34.995153],[-86.849316,34.995552],[-86.847349,34.99516],[-86.84736,34.995019],[-86.846707,34.994999],[-86.846358,34.995624],[-86.846765,34.999128],[-86.848582,34.999277],[-86.848558,34.999845]]]}},{"type":"Feature","id":"47055:028182    01502","properties":{"id":"47055:028182    01502","parcelId":"028182    01502","countyFips":"47055","countyName":"Giles","state":"Tennessee","marketIds":["Huntsville"],"situsAddress":"RAGSDALE RD 555","situsCity":null,"situsZip":null,"jurisdictionCode":null,"ownerName":"OLIVER MICHAEL H","ownerName2":"ET UX REGINA R","propertyName":null,"zoningCode":null,"zoningDistrict":null,"jurisdictionPrefix":null,"dorCode":null,"acreage":30.3396,"centroid":[-86.926705,34.997236],"lastSale":{"date":"2000-06-26","price":45000.0,"qualified":null,"vintage":"2023"},"tax":{"marketValue":53100.0,"assessedValue":null,"taxableValue":null,"taxes":null,"vintage":"2023"},"mailingAddress":{"line1":null,"line2":null,"city":null,"state":null,"zip":null},"incomeTract":null,"incomeBlockGroup":null,"nearestRoad":null,"flu":null,"opportunityZone":null,"oz2Eligibility":null,"source":"tn-oir-public-use-47055","appraiserUrl":"https://assessment.cot.tn.gov/TPAD/Parcel/GIS?gislink=028182%20%20%20%2001502"},"geometry":{"type":"Polygon","coordinates":[[[-86.922979,34.996344],[-86.92301,34.996966],[-86.923165,34.997557],[-86.923316,34.997441],[-86.92752,34.999779],[-86.929268,34.998071],[-86.928112,34.997197],[-86.928024,34.997119],[-86.927979,34.997068],[-86.927935,34.997009],[-86.9279,34.99695],[-86.92787,34.996882],[-86.927851,34.996826],[-86.927837,34.996766],[-86.927811,34.996572],[-86.922979,34.996344]]]}},{"type":"Feature","id":"47055:028182    01701","properties":{"id":"47055:028182    01701","parcelId":"028182    01701","countyFips":"47055","countyName":"Giles","state":"Tennessee","marketIds":["Huntsville"],"situsAddress":"BATES HOLLOW RD 1146","situsCity":null,"situsZip":null,"jurisdictionCode":null,"ownerName":"PETTIT MATTHEW ET UX SYDNEY","ownerName2":null,"propertyName":null,"zoningCode":null,"zoningDistrict":null,"jurisdictionPrefix":null,"dorCode":null,"acreage":27.9099,"centroid":[-86.909064,34.993924],"lastSale":{"date":"1980-12-17","price":null,"qualified":null,"vintage":"2023"},"tax":{"marketValue":174900.0,"assessedValue":null,"taxableValue":null,"taxes":null,"vintage":"2023"},"mailingAddress":{"line1":null,"line2":null,"city":null,"state":null,"zip":null},"incomeTract":null,"incomeBlockGroup":null,"nearestRoad":null,"flu":null,"opportunityZone":null,"oz2Eligibility":null,"source":"tn-oir-public-use-47055","appraiserUrl":"https://assessment.cot.tn.gov/TPAD/Parcel/GIS?gislink=028182%20%20%20%2001701"},"geometry":{"type":"Polygon","coordinates":[[[-86.908149,34.99496],[-86.909242,34.995044],[-86.911433,34.995276],[-86.911822,34.99532],[-86.91143,34.99418],[-86.911255,34.993891],[-86.911114,34.993688],[-86.911119,34.99363],[-86.910813,34.993418],[-86.910651,34.993177],[-86.910478,34.993037],[-86.908853,34.993003],[-86.908178,34.992983],[-86.907634,34.992961],[-86.904986,34.992842],[-86.905136,34.993918],[-86.905208,34.99437],[-86.906508,34.994433],[-86.908212,34.994426],[-86.908149,34.99496]]]}},{"type":"Feature","id":"47055:028182    01800","properties":{"id":"47055:028182    01800","parcelId":"028182    01800","countyFips":"47055","countyName":"Giles","state":"Tennessee","marketIds":["Huntsville"],"situsAddress":"BATES HOLLOW RD 757","situsCity":null,"situsZip":null,"jurisdictionCode":null,"ownerName":"SISK TOMMY R ETUX LINDA M","ownerName2":null,"propertyName":null,"zoningCode":null,"zoningDistrict":null,"jurisdictionPrefix":null,"dorCode":null,"acreage":26.1262,"centroid":[-86.904769,34.996859],"lastSale":{"date":"2015-07-17","price":225000.0,"qualified":null,"vintage":"2023"},"tax":{"marketValue":222300.0,"assessedValue":null,"taxableValue":null,"taxes":null,"vintage":"2023"},"mailingAddress":{"line1":null,"line2":null,"city":null,"state":null,"zip":null},"incomeTract":null,"incomeBlockGroup":null,"nearestRoad":null,"flu":null,"opportunityZone":null,"oz2Eligibility":null,"source":"tn-oir-public-use-47055","appraiserUrl":"https://assessment.cot.tn.gov/TPAD/Parcel/GIS?gislink=028182%20%20%20%2001800"},"geometry":{"type":"Polygon","coordinates":[[[-86.902394,34.995063],[-86.904482,34.995331],[-86.903758,34.999749],[-86.905077,34.999905],[-86.905084,34.999569],[-86.90508,34.999396],[-86.90507,34.999236],[-86.905048,34.99908],[-86.90497,34.998703],[-86.904963,34.998639],[-86.904962,34.998581],[-86.905113,34.997283],[-86.905144,34.996976],[-86.905244,34.995698],[-86.90525,34.995557],[-86.905249,34.995407],[-86.905239,34.995231],[-86.905219,34.995053],[-86.905046,34.993992],[-86.904885,34.992837],[-86.902865,34.992748],[-86.902394,34.995063]]]}},{"type":"Feature","id":"47055:028182    00800","properties":{"id":"47055:028182    00800","parcelId":"028182    00800","countyFips":"47055","countyName":"Giles","state":"Tennessee","marketIds":["Huntsville"],"situsAddress":"ROLIN HOLLOW RD 749","situsCity":null,"situsZip":null,"jurisdictionCode":null,"ownerName":"CURTIS HAROLD ETUX JO ANN L/E ETAL","ownerName2":"LESLIE CURTIS","propertyName":null,"zoningCode":null,"zoningDistrict":null,"jurisdictionPrefix":null,"dorCode":null,"acreage":24.7838,"centroid":[-86.888262,34.997238],"lastSale":{"date":"1994-08-31","price":35000.0,"qualified":null,"vintage":"2023"},"tax":{"marketValue":138000.0,"assessedValue":null,"taxableValue":null,"taxes":null,"vintage":"2023"},"mailingAddress":{"line1":null,"line2":null,"city":null,"state":null,"zip":null},"incomeTract":null,"incomeBlockGroup":null,"nearestRoad":null,"flu":null,"opportunityZone":null,"oz2Eligibility":null,"source":"tn-oir-public-use-47055","appraiserUrl":"https://assessment.cot.tn.gov/TPAD/Parcel/GIS?gislink=028182%20%20%20%2000800"},"geometry":{"type":"Polygon","coordinates":[[[-86.884598,34.997532],[-86.885715,34.997795],[-86.886316,34.997878],[-86.886342,34.997254],[-86.888108,34.997683],[-86.888606,34.99776],[-86.888634,34.997823],[-86.888859,34.998248],[-86.889303,34.998849],[-86.889797,34.999617],[-86.88988,34.999449],[-86.889775,34.999351],[-86.889684,34.999244],[-86.888858,34.998081],[-86.88876,34.997919],[-86.888691,34.99778],[-86.888629,34.997622],[-86.888586,34.997468],[-86.888556,34.997291],[-86.888553,34.99723],[-86.888556,34.997166],[-86.888577,34.997063],[-86.888633,34.996896],[-86.888671,34.996767],[-86.888716,34.996549],[-86.888741,34.996327],[-86.888758,34.995903],[-86.888776,34.995849],[-86.88881,34.995797],[-86.888855,34.995755],[-86.888911,34.995723],[-86.887299,34.995618],[-86.88619,34.994819],[-86.885158,34.99397],[-86.884598,34.997532]]]}},{"type":"Feature","id":"47055:028181    01613","properties":{"id":"47055:028181    01613","parcelId":"028181    01613","countyFips":"47055","countyName":"Giles","state":"Tennessee","marketIds":["Huntsville"],"situsAddress":"US HWY 31 MAIN ST ARDMORE","situsCity":null,"situsZip":null,"jurisdictionCode":null,"ownerName":"CITY OF ARDMORE","ownerName2":null,"propertyName":null,"zoningCode":null,"zoningDistrict":null,"jurisdictionPrefix":null,"dorCode":null,"acreage":22.7195,"centroid":[-86.855812,34.997496],"lastSale":{"date":"2013-10-31","price":null,"qualified":null,"vintage":"2023"},"tax":{"marketValue":755700.0,"assessedValue":null,"taxableValue":null,"taxes":null,"vintage":"2023"},"mailingAddress":{"line1":null,"line2":null,"city":null,"state":null,"zip":null},"incomeTract":null,"incomeBlockGroup":null,"nearestRoad":null,"flu":null,"opportunityZone":null,"oz2Eligibility":null,"source":"tn-oir-public-use-47055","appraiserUrl":"https://assessment.cot.tn.gov/TPAD/Parcel/GIS?gislink=028181%20%20%20%2001613"},"geometry":{"type":"Polygon","coordinates":[[[-86.855057,34.999639],[-86.855161,34.999648],[-86.856051,34.999701],[-86.856057,34.99955],[-86.856312,34.999551],[-86.85648,34.997882],[-86.856499,34.997409],[-86.857763,34.996659],[-86.856374,34.996138],[-86.856654,34.995579],[-86.856593,34.995558],[-86.856211,34.996321],[-86.854623,34.995781],[-86.854757,34.995503],[-86.854377,34.995479],[-86.854019,34.999543],[-86.855057,34.999639]]]}},{"type":"Feature","id":"47055:028182    01700","properties":{"id":"47055:028182    01700","parcelId":"028182    01700","countyFips":"47055","countyName":"Giles","state":"Tennessee","marketIds":["Huntsville"],"situsAddress":"BATES HOLLOW RD 886 890","situsCity":null,"situsZip":null,"jurisdictionCode":null,"ownerName":"HILL BRUCE WAYNE","ownerName2":"ET UX JULIE WEBB","propertyName":null,"zoningCode":null,"zoningDistrict":null,"jurisdictionPrefix":null,"dorCode":null,"acreage":21.6903,"centroid":[-86.906309,34.995939],"lastSale":{"date":"1999-12-09","price":67500.0,"qualified":null,"vintage":"2023"},"tax":{"marketValue":214700.0,"assessedValue":null,"taxableValue":null,"taxes":null,"vintage":"2023"},"mailingAddress":{"line1":null,"line2":null,"city":null,"state":null,"zip":null},"incomeTract":null,"incomeBlockGroup":null,"nearestRoad":null,"flu":null,"opportunityZone":null,"oz2Eligibility":null,"source":"tn-oir-public-use-47055","appraiserUrl":"https://assessment.cot.tn.gov/TPAD/Parcel/GIS?gislink=028182%20%20%20%2001700"},"geometry":{"type":"Polygon","coordinates":[[[-86.905208,34.99437],[-86.905327,34.995105],[-86.905346,34.995321],[-86.90535,34.995535],[-86.905342,34.995727],[-86.905249,34.996914],[-86.90522,34.997223],[-86.905162,34.99772],[-86.90598,34.997632],[-86.907698,34.997695],[-86.907814,34.997064],[-86.908068,34.994953],[-86.908149,34.99496],[-86.908212,34.994426],[-86.906508,34.994433],[-86.905208,34.99437]]]}},{"type":"Feature","id":"47055:028182    00801","properties":{"id":"47055:028182    00801","parcelId":"028182    00801","countyFips":"47055","countyName":"Giles","state":"Tennessee","marketIds":["Huntsville"],"situsAddress":"ROLIN HOLLOW RD","situsCity":null,"situsZip":null,"jurisdictionCode":null,"ownerName":"CURTIS HAROLD ETUX JO ANN L/E ETAL","ownerName2":"LESLIE CURTIS","propertyName":null,"zoningCode":null,"zoningDistrict":null,"jurisdictionPrefix":null,"dorCode":null,"acreage":20.4493,"centroid":[-86.888041,34.998701],"lastSale":{"date":"2004-01-30","price":null,"qualified":null,"vintage":"2023"},"tax":{"marketValue":18400.0,"assessedValue":null,"taxableValue":null,"taxes":null,"vintage":"2023"},"mailingAddress":{"line1":null,"line2":null,"city":null,"state":null,"zip":null},"incomeTract":null,"incomeBlockGroup":null,"nearestRoad":null,"flu":null,"opportunityZone":null,"oz2Eligibility":null,"source":"tn-oir-public-use-47055","appraiserUrl":"https://assessment.cot.tn.gov/TPAD/Parcel/GIS?gislink=028182%20%20%20%2000801"},"geometry":{"type":"Polygon","coordinates":[[[-86.888483,34.999786],[-86.889731,34.999913],[-86.889731,34.999834],[-86.889742,34.999759],[-86.889764,34.999686],[-86.889797,34.999617],[-86.889303,34.998849],[-86.888859,34.998248],[-86.888634,34.997823],[-86.888606,34.99776],[-86.888108,34.997683],[-86.886342,34.997254],[-86.886316,34.997878],[-86.885715,34.997795],[-86.884598,34.997532],[-86.884366,34.999007],[-86.888603,34.999495],[-86.888483,34.999786]]]}},{"type":"Feature","id":"47055:028181    03002","properties":{"id":"47055:028181    03002","parcelId":"028181    03002","countyFips":"47055","countyName":"Giles","state":"Tennessee","marketIds":["Huntsville"],"situsAddress":"GOWAN RD","situsCity":null,"situsZip":null,"jurisdictionCode":null,"ownerName":"JAMES ALEX ETUX TINA JAMES","ownerName2":null,"propertyName":null,"zoningCode":null,"zoningDistrict":null,"jurisdictionPrefix":null,"dorCode":null,"acreage":19.2631,"centroid":[-86.873462,34.999147],"lastSale":{"date":"2022-10-03","price":null,"qualified":null,"vintage":"2023"},"tax":{"marketValue":29300.0,"assessedValue":null,"taxableValue":null,"taxes":null,"vintage":"2023"},"mailingAddress":{"line1":null,"line2":null,"city":null,"state":null,"zip":null},"incomeTract":null,"incomeBlockGroup":null,"nearestRoad":null,"flu":null,"opportunityZone":null,"oz2Eligibility":null,"source":"tn-oir-public-use-47055","appraiserUrl":"https://assessment.cot.tn.gov/TPAD/Parcel/GIS?gislink=028181%20%20%20%2003002"},"geometry":{"type":"Polygon","coordinates":[[[-86.874038,35.000001],[-86.874454,35.000143],[-86.875138,35.000113],[-86.875654,34.999946],[-86.875649,34.99986],[-86.87562,34.999719],[-86.872482,34.997125],[-86.872013,34.998107],[-86.869411,34.997771],[-86.870158,34.998684],[-86.874038,35.000001]]]}},{"type":"Feature","id":"47055:028181    01900","properties":{"id":"47055:028181    01900","parcelId":"028181    01900","countyFips":"47055","countyName":"Giles","state":"Tennessee","marketIds":["Huntsville"],"situsAddress":"PLEASANT VIEW DR 31450","situsCity":null,"situsZip":null,"jurisdictionCode":null,"ownerName":"GOREE ELI MICHAEL JARRELL","ownerName2":null,"propertyName":null,"zoningCode":null,"zoningDistrict":null,"jurisdictionPrefix":null,"dorCode":null,"acreage":17.8099,"centroid":[-86.868196,34.997138],"lastSale":{"date":"2022-04-14","price":595000.0,"qualified":null,"vintage":"2023"},"tax":{"marketValue":391600.0,"assessedValue":null,"taxableValue":null,"taxes":null,"vintage":"2023"},"mailingAddress":{"line1":null,"line2":null,"city":null,"state":null,"zip":null},"incomeTract":null,"incomeBlockGroup":null,"nearestRoad":null,"flu":null,"opportunityZone":null,"oz2Eligibility":null,"source":"tn-oir-public-use-47055","appraiserUrl":"https://assessment.cot.tn.gov/TPAD/Parcel/GIS?gislink=028181%20%20%20%2001900"},"geometry":{"type":"Polygon","coordinates":[[[-86.866444,34.99716],[-86.866419,34.997473],[-86.866546,34.997537],[-86.866607,34.997936],[-86.86654,34.998021],[-86.866606,34.998228],[-86.86902,34.99777],[-86.868711,34.997544],[-86.868756,34.996664],[-86.869441,34.996517],[-86.869458,34.997221],[-86.869634,34.997246],[-86.869654,34.997803],[-86.872013,34.998107],[-86.869767,34.99627],[-86.868821,34.996251],[-86.868028,34.995911],[-86.866739,34.995734],[-86.866519,34.996227],[-86.866444,34.99716]]]}},{"type":"Feature","id":"47055:028182    01302","properties":{"id":"47055:028182    01302","parcelId":"028182    01302","countyFips":"47055","countyName":"Giles","state":"Tennessee","marketIds":["Huntsville"],"situsAddress":"HOLT HOLLOW RD 1075","situsCity":null,"situsZip":null,"jurisdictionCode":null,"ownerName":"DAVIS DANNY HOUSTON ETUX","ownerName2":"JANICE CURRY DAVIS","propertyName":null,"zoningCode":null,"zoningDistrict":null,"jurisdictionPrefix":null,"dorCode":null,"acreage":16.2328,"centroid":[-86.909961,34.996071],"lastSale":{"date":"2016-07-25","price":88000.0,"qualified":null,"vintage":"2023"},"tax":{"marketValue":65400.0,"assessedValue":null,"taxableValue":null,"taxes":null,"vintage":"2023"},"mailingAddress":{"line1":null,"line2":null,"city":null,"state":null,"zip":null},"incomeTract":null,"incomeBlockGroup":null,"nearestRoad":null,"flu":null,"opportunityZone":null,"oz2Eligibility":null,"source":"tn-oir-public-use-47055","appraiserUrl":"https://assessment.cot.tn.gov/TPAD/Parcel/GIS?gislink=028182%20%20%20%2001302"},"geometry":{"type":"Polygon","coordinates":[[[-86.908475,34.997103],[-86.909907,34.997189],[-86.910252,34.996104],[-86.910868,34.996275],[-86.910836,34.99643],[-86.910981,34.996502],[-86.911026,34.996477],[-86.911075,34.996459],[-86.911804,34.996265],[-86.912102,34.996175],[-86.911822,34.99532],[-86.911433,34.995276],[-86.909242,34.995044],[-86.908068,34.994953],[-86.90782,34.997015],[-86.908448,34.997152],[-86.908475,34.997103]]]}},{"type":"Feature","id":"47055:028181    01616","properties":{"id":"47055:028181    01616","parcelId":"028181    01616","countyFips":"47055","countyName":"Giles","state":"Tennessee","marketIds":["Huntsville"],"situsAddress":"MAIN ST 25400","situsCity":null,"situsZip":null,"jurisdictionCode":null,"ownerName":"WARNER DOUGLAS MARTEN","ownerName2":"ETUX TAMARA R","propertyName":null,"zoningCode":null,"zoningDistrict":null,"jurisdictionPrefix":null,"dorCode":null,"acreage":16.0964,"centroid":[-86.865248,34.996451],"lastSale":{"date":"2002-08-20","price":null,"qualified":null,"vintage":"2023"},"tax":{"marketValue":542300.0,"assessedValue":null,"taxableValue":null,"taxes":null,"vintage":"2023"},"mailingAddress":{"line1":null,"line2":null,"city":null,"state":null,"zip":null},"incomeTract":null,"incomeBlockGroup":null,"nearestRoad":null,"flu":null,"opportunityZone":null,"oz2Eligibility":null,"source":"tn-oir-public-use-47055","appraiserUrl":"https://assessment.cot.tn.gov/TPAD/Parcel/GIS?gislink=028181%20%20%20%2001616"},"geometry":{"type":"Polygon","coordinates":[[[-86.86793,34.995897],[-86.866513,34.994422],[-86.865636,34.995404],[-86.865208,34.995689],[-86.864298,34.996006],[-86.864191,34.996312],[-86.864172,34.996869],[-86.863596,34.997298],[-86.863308,34.997738],[-86.863725,34.997701],[-86.865193,34.997857],[-86.866444,34.99716],[-86.866519,34.996227],[-86.866739,34.995734],[-86.86793,34.995897]]]}},{"type":"Feature","id":"47055:028182    01901","properties":{"id":"47055:028182    01901","parcelId":"028182    01901","countyFips":"47055","countyName":"Giles","state":"Tennessee","marketIds":["Huntsville"],"situsAddress":"ROLIN HOLLOW RD 1622","situsCity":null,"situsZip":null,"jurisdictionCode":null,"ownerName":"LASTER RANDY L","ownerName2":"ETUX MARY J","propertyName":null,"zoningCode":null,"zoningDistrict":null,"jurisdictionPrefix":null,"dorCode":null,"acreage":15.7985,"centroid":[-86.900411,34.993117],"lastSale":{"date":"2010-04-27","price":null,"qualified":null,"vintage":"2023"},"tax":{"marketValue":228100.0,"assessedValue":null,"taxableValue":null,"taxes":null,"vintage":"2023"},"mailingAddress":{"line1":null,"line2":null,"city":null,"state":null,"zip":null},"incomeTract":null,"incomeBlockGroup":null,"nearestRoad":null,"flu":null,"opportunityZone":null,"oz2Eligibility":null,"source":"tn-oir-public-use-47055","appraiserUrl":"https://assessment.cot.tn.gov/TPAD/Parcel/GIS?gislink=028182%20%20%20%2001901"},"geometry":{"type":"MultiPolygon","coordinates":[[[[-86.899696,34.994715],[-86.902394,34.995063],[-86.902865,34.992748],[-86.900194,34.992688],[-86.900151,34.99272],[-86.900106,34.992746],[-86.900055,34.992767],[-86.900004,34.992783],[-86.899948,34.992793],[-86.899893,34.992797],[-86.899839,34.992795],[-86.899782,34.992787],[-86.899696,34.994715]]],[[[-86.899779,34.992702],[-86.899848,34.992713],[-86.89991,34.992714],[-86.899975,34.992704],[-86.900034,34.992685],[-86.89978,34.992679],[-86.899779,34.992702]]]]}},{"type":"Feature","id":"47055:028182    01504","properties":{"id":"47055:028182    01504","parcelId":"028182    01504","countyFips":"47055","countyName":"Giles","state":"Tennessee","marketIds":["Huntsville"],"situsAddress":"RAGSDALE RD","situsCity":null,"situsZip":null,"jurisdictionCode":null,"ownerName":"LAFONTANT LOUIS","ownerName2":"ET UX CORA","propertyName":null,"zoningCode":null,"zoningDistrict":null,"jurisdictionPrefix":null,"dorCode":null,"acreage":14.5792,"centroid":[-86.929404,34.999573],"lastSale":{"date":"1998-11-27","price":22700.0,"qualified":null,"vintage":"2023"},"tax":{"marketValue":408200.0,"assessedValue":null,"taxableValue":null,"taxes":null,"vintage":"2023"},"mailingAddress":{"line1":null,"line2":null,"city":null,"state":null,"zip":null},"incomeTract":null,"incomeBlockGroup":null,"nearestRoad":null,"flu":null,"opportunityZone":null,"oz2Eligibility":null,"source":"tn-oir-public-use-47055","appraiserUrl":"https://assessment.cot.tn.gov/TPAD/Parcel/GIS?gislink=028182%20%20%20%2001504"},"geometry":{"type":"Polygon","coordinates":[[[-86.92752,34.999779],[-86.928571,35.000364],[-86.929964,35.001065],[-86.93137,34.99973],[-86.929733,34.998432],[-86.929268,34.998071],[-86.92752,34.999779]]]}},{"type":"Feature","id":"47055:028182    00900","properties":{"id":"47055:028182    00900","parcelId":"028182    00900","countyFips":"47055","countyName":"Giles","state":"Tennessee","marketIds":["Huntsville"],"situsAddress":"ROLIN HOLLOW RD 871","situsCity":null,"situsZip":null,"jurisdictionCode":null,"ownerName":"CURTIS HAROLD ETUX JO ANN L/E ETAL","ownerName2":"CANDY BRASEL","propertyName":null,"zoningCode":null,"zoningDistrict":null,"jurisdictionPrefix":null,"dorCode":null,"acreage":13.795,"centroid":[-86.889409,34.997438],"lastSale":{"date":"2014-06-18","price":175000.0,"qualified":null,"vintage":"2023"},"tax":{"marketValue":308400.0,"assessedValue":null,"taxableValue":null,"taxes":null,"vintage":"2023"},"mailingAddress":{"line1":null,"line2":null,"city":null,"state":null,"zip":null},"incomeTract":null,"incomeBlockGroup":null,"nearestRoad":null,"flu":null,"opportunityZone":null,"oz2Eligibility":null,"source":"tn-oir-public-use-47055","appraiserUrl":"https://assessment.cot.tn.gov/TPAD/Parcel/GIS?gislink=028182%20%20%20%2000900"},"geometry":{"type":"Polygon","coordinates":[[[-86.888911,34.995723],[-86.888855,34.995755],[-86.88881,34.995797],[-86.888776,34.995849],[-86.888758,34.995903],[-86.888741,34.996327],[-86.888716,34.996549],[-86.888671,34.996767],[-86.888633,34.996896],[-86.888577,34.997063],[-86.888556,34.997171],[-86.888553,34.99724],[-86.888557,34.997304],[-86.888574,34.997411],[-86.888598,34.997517],[-86.888646,34.99767],[-86.888704,34.997809],[-86.888779,34.997952],[-86.888873,34.998104],[-86.889684,34.999244],[-86.889775,34.999351],[-86.88988,34.999449],[-86.889926,34.999328],[-86.889961,34.999211],[-86.89021,34.998097],[-86.890238,34.997994],[-86.89027,34.997895],[-86.89034,34.997725],[-86.890375,34.997654],[-86.890399,34.997616],[-86.890434,34.997576],[-86.890476,34.99754],[-86.890526,34.997509],[-86.890576,34.997485],[-86.890963,34.995858],[-86.888911,34.995723]]]}},{"type":"Feature","id":"47055:028181    02100","properties":{"id":"47055:028181    02100","parcelId":"028181    02100","countyFips":"47055","countyName":"Giles","state":"Tennessee","marketIds":["Huntsville"],"situsAddress":"PLEASANT VIEW DR 31614","situsCity":null,"situsZip":null,"jurisdictionCode":null,"ownerName":"KEITH CARRIE L","ownerName2":null,"propertyName":null,"zoningCode":null,"zoningDistrict":null,"jurisdictionPrefix":null,"dorCode":null,"acreage":13.4481,"centroid":[-86.867104,34.999806],"lastSale":{"date":"1998-05-26","price":null,"qualified":null,"vintage":"2023"},"tax":{"marketValue":299900.0,"assessedValue":null,"taxableValue":null,"taxes":null,"vintage":"2023"},"mailingAddress":{"line1":null,"line2":null,"city":null,"state":null,"zip":null},"incomeTract":null,"incomeBlockGroup":null,"nearestRoad":null,"flu":null,"opportunityZone":null,"oz2Eligibility":null,"source":"tn-oir-public-use-47055","appraiserUrl":"https://assessment.cot.tn.gov/TPAD/Parcel/GIS?gislink=028181%20%20%20%2002100"},"geometry":{"type":"Polygon","coordinates":[[[-86.865689,35.000725],[-86.866077,35.000893],[-86.866327,35.001008],[-86.866603,35.001144],[-86.866871,35.001286],[-86.866909,35.001264],[-86.867535,34.999851],[-86.868048,35.000067],[-86.868097,34.999945],[-86.868155,34.999822],[-86.868208,34.999724],[-86.868269,34.999627],[-86.868363,34.9995],[-86.868726,34.999067],[-86.867918,34.998692],[-86.868013,34.997961],[-86.866606,34.998228],[-86.866358,34.998817],[-86.865916,34.998883],[-86.865558,34.999289],[-86.866143,34.99949],[-86.86589,35.000444],[-86.865689,35.000725]]]}},{"type":"Feature","id":"47055:028181    01602","properties":{"id":"47055:028181    01602","parcelId":"028181    01602","countyFips":"47055","countyName":"Giles","state":"Tennessee","marketIds":["Huntsville"],"situsAddress":"UNION HILL RD 2472","situsCity":null,"situsZip":null,"jurisdictionCode":null,"ownerName":"GONZALEZ FAMILY TRUST","ownerName2":"JOSE GUILLERMO MARIA EVA TRUSTEES","propertyName":null,"zoningCode":null,"zoningDistrict":null,"jurisdictionPrefix":null,"dorCode":null,"acreage":12.8505,"centroid":[-86.858987,34.998732],"lastSale":{"date":"2022-01-19","price":450000.0,"qualified":null,"vintage":"2023"},"tax":{"marketValue":31200.0,"assessedValue":null,"taxableValue":null,"taxes":null,"vintage":"2023"},"mailingAddress":{"line1":null,"line2":null,"city":null,"state":null,"zip":null},"incomeTract":null,"incomeBlockGroup":null,"nearestRoad":null,"flu":null,"opportunityZone":null,"oz2Eligibility":null,"source":"tn-oir-public-use-47055","appraiserUrl":"https://assessment.cot.tn.gov/TPAD/Parcel/GIS?gislink=028181%20%20%20%2001602"},"geometry":{"type":"Polygon","coordinates":[[[-86.859605,34.999967],[-86.861184,35.000119],[-86.861422,35.000136],[-86.861662,35.000144],[-86.861161,34.999393],[-86.860218,34.999865],[-86.859971,34.999484],[-86.859103,34.998265],[-86.858446,34.99732],[-86.857812,34.998288],[-86.857258,34.998043],[-86.857027,34.998094],[-86.85648,34.997882],[-86.856312,34.999551],[-86.856311,34.999683],[-86.856523,34.99969],[-86.856742,34.999702],[-86.857186,34.999741],[-86.857973,34.999671],[-86.858096,34.998614],[-86.858809,34.998683],[-86.858747,34.999218],[-86.859649,34.999306],[-86.859605,34.999967]]]}},{"type":"Feature","id":"47055:028181    03400","properties":{"id":"47055:028181    03400","parcelId":"028181    03400","countyFips":"47055","countyName":"Giles","state":"Tennessee","marketIds":["Huntsville"],"situsAddress":"STATE LINE RD (NE OF)","situsCity":null,"situsZip":null,"jurisdictionCode":null,"ownerName":"ARDMORE DEVELOPMENT","ownerName2":"COMISSION","propertyName":null,"zoningCode":null,"zoningDistrict":null,"jurisdictionPrefix":null,"dorCode":null,"acreage":12.7306,"centroid":[-86.86009,34.993905],"lastSale":{"date":null,"price":null,"qualified":null},"tax":{"marketValue":104200.0,"assessedValue":null,"taxableValue":null,"taxes":null,"vintage":"2023"},"mailingAddress":{"line1":null,"line2":null,"city":null,"state":null,"zip":null},"incomeTract":null,"incomeBlockGroup":null,"nearestRoad":null,"flu":null,"opportunityZone":null,"oz2Eligibility":null,"source":"tn-oir-public-use-47055","appraiserUrl":"https://assessment.cot.tn.gov/TPAD/Parcel/GIS?gislink=028181%20%20%20%2003400"},"geometry":{"type":"Polygon","coordinates":[[[-86.859281,34.99405],[-86.863337,34.993967],[-86.863761,34.995203],[-86.863907,34.994279],[-86.864683,34.993636],[-86.865403,34.992646],[-86.865907,34.992527],[-86.865852,34.992153],[-86.862735,34.992103],[-86.862594,34.992188],[-86.862727,34.992992],[-86.863482,34.992926],[-86.863713,34.993622],[-86.863233,34.993742],[-86.859286,34.993823],[-86.859281,34.99405]]]}},{"type":"Feature","id":"47055:028182    01305","properties":{"id":"47055:028182    01305","parcelId":"028182    01305","countyFips":"47055","countyName":"Giles","state":"Tennessee","marketIds":["Huntsville"],"situsAddress":"HOLT HOLLOW RD 789","situsCity":null,"situsZip":null,"jurisdictionCode":null,"ownerName":"DAVIS JANICE K","ownerName2":null,"propertyName":null,"zoningCode":null,"zoningDistrict":null,"jurisdictionPrefix":null,"dorCode":null,"acreage":12.1323,"centroid":[-86.908818,34.999417],"lastSale":{"date":"2011-06-28","price":null,"qualified":null,"vintage":"2023"},"tax":{"marketValue":127700.0,"assessedValue":null,"taxableValue":null,"taxes":null,"vintage":"2023"},"mailingAddress":{"line1":null,"line2":null,"city":null,"state":null,"zip":null},"incomeTract":null,"incomeBlockGroup":null,"nearestRoad":null,"flu":null,"opportunityZone":null,"oz2Eligibility":null,"source":"tn-oir-public-use-47055","appraiserUrl":"https://assessment.cot.tn.gov/TPAD/Parcel/GIS?gislink=028182%20%20%20%2001305"},"geometry":{"type":"Polygon","coordinates":[[[-86.908323,35.000386],[-86.908489,35.000395],[-86.908969,35.000377],[-86.908971,35.000661],[-86.909716,35.0007],[-86.90971,35.000629],[-86.909696,35.00055],[-86.909439,34.999488],[-86.90942,34.999364],[-86.909415,34.999231],[-86.909421,34.999131],[-86.909434,34.99904],[-86.909454,34.998949],[-86.909484,34.998852],[-86.909543,34.998708],[-86.90961,34.998559],[-86.909679,34.998423],[-86.909744,34.998309],[-86.907917,34.998125],[-86.907606,34.998112],[-86.907582,34.998272],[-86.907487,34.998692],[-86.907415,34.99904],[-86.907215,35.00023],[-86.907198,35.00026],[-86.908322,35.000372],[-86.908323,35.000386]]]}},{"type":"Feature","id":"47055:028181    04100","properties":{"id":"47055:028181    04100","parcelId":"028181    04100","countyFips":"47055","countyName":"Giles","state":"Tennessee","marketIds":["Huntsville"],"situsAddress":"CLAYTON RD","situsCity":null,"situsZip":null,"jurisdictionCode":null,"ownerName":"CHB INVESTMENTS LLC","ownerName2":null,"propertyName":null,"zoningCode":null,"zoningDistrict":null,"jurisdictionPrefix":null,"dorCode":null,"acreage":11.782,"centroid":[-86.857873,34.993427],"lastSale":{"date":"2015-01-27","price":null,"qualified":null,"vintage":"2023"},"tax":{"marketValue":51500.0,"assessedValue":null,"taxableValue":null,"taxes":null,"vintage":"2023"},"mailingAddress":{"line1":null,"line2":null,"city":null,"state":null,"zip":null},"incomeTract":null,"incomeBlockGroup":null,"nearestRoad":null,"flu":null,"opportunityZone":null,"oz2Eligibility":null,"source":"tn-oir-public-use-47055","appraiserUrl":"https://assessment.cot.tn.gov/TPAD/Parcel/GIS?gislink=028181%20%20%20%2004100"},"geometry":{"type":"MultiPolygon","coordinates":[[[[-86.857399,34.994192],[-86.857968,34.993924],[-86.85808,34.994092],[-86.859079,34.994135],[-86.859123,34.992093],[-86.856572,34.992074],[-86.856891,34.99348],[-86.857399,34.994192]]],[[[-86.857754,34.994686],[-86.858619,34.99585],[-86.8587,34.995848],[-86.85871,34.995763],[-86.857871,34.994632],[-86.857754,34.994686]]]]}},{"type":"Feature","id":"47055:028183    00900","properties":{"id":"47055:028183    00900","parcelId":"028183    00900","countyFips":"47055","countyName":"Giles","state":"Tennessee","marketIds":["Huntsville"],"situsAddress":"PLEASANT HILL RD 256","situsCity":null,"situsZip":null,"jurisdictionCode":null,"ownerName":"STEWART DAWN M","ownerName2":null,"propertyName":null,"zoningCode":null,"zoningDistrict":null,"jurisdictionPrefix":null,"dorCode":null,"acreage":11.1593,"centroid":[-86.936185,34.997256],"lastSale":{"date":"2018-11-14","price":null,"qualified":null,"vintage":"2023"},"tax":{"marketValue":97000.0,"assessedValue":null,"taxableValue":null,"taxes":null,"vintage":"2023"},"mailingAddress":{"line1":null,"line2":null,"city":null,"state":null,"zip":null},"incomeTract":null,"incomeBlockGroup":null,"nearestRoad":null,"flu":null,"opportunityZone":null,"oz2Eligibility":null,"source":"tn-oir-public-use-47055","appraiserUrl":"https://assessment.cot.tn.gov/TPAD/Parcel/GIS?gislink=028183%20%20%20%2000900"},"geometry":{"type":"Polygon","coordinates":[[[-86.934846,34.998061],[-86.934886,34.998117],[-86.935087,34.998335],[-86.935134,34.998366],[-86.935571,34.997591],[-86.936202,34.998219],[-86.936341,34.998104],[-86.936405,34.998041],[-86.936459,34.99798],[-86.936527,34.99789],[-86.936588,34.997793],[-86.936637,34.997695],[-86.936675,34.997594],[-86.936708,34.997472],[-86.936826,34.996863],[-86.936324,34.996972],[-86.936136,34.996189],[-86.936953,34.996213],[-86.937056,34.99569],[-86.937142,34.995297],[-86.936673,34.995164],[-86.934886,34.995982],[-86.934846,34.998061]]]}},{"type":"Feature","id":"47055:028182    01902","properties":{"id":"47055:028182    01902","parcelId":"028182    01902","countyFips":"47055","countyName":"Giles","state":"Tennessee","marketIds":["Huntsville"],"situsAddress":"ROLIN HOLLOW RD 1600","situsCity":null,"situsZip":null,"jurisdictionCode":null,"ownerName":"GATLIN KEVIN B","ownerName2":null,"propertyName":null,"zoningCode":null,"zoningDistrict":null,"jurisdictionPrefix":null,"dorCode":null,"acreage":10.1229,"centroid":[-86.896946,34.993411],"lastSale":{"date":"2012-06-01","price":90000.0,"qualified":null,"vintage":"2023"},"tax":{"marketValue":158500.0,"assessedValue":null,"taxableValue":null,"taxes":null,"vintage":"2023"},"mailingAddress":{"line1":null,"line2":null,"city":null,"state":null,"zip":null},"incomeTract":null,"incomeBlockGroup":null,"nearestRoad":null,"flu":null,"opportunityZone":null,"oz2Eligibility":null,"source":"tn-oir-public-use-47055","appraiserUrl":"https://assessment.cot.tn.gov/TPAD/Parcel/GIS?gislink=028182%20%20%20%2001902"},"geometry":{"type":"Polygon","coordinates":[[[-86.895217,34.994269],[-86.897972,34.994543],[-86.899359,34.992712],[-86.899286,34.992708],[-86.899202,34.992709],[-86.899126,34.992716],[-86.899045,34.99273],[-86.897548,34.993094],[-86.897357,34.993131],[-86.896433,34.993277],[-86.896273,34.993314],[-86.896119,34.993365],[-86.89596,34.993434],[-86.895808,34.993519],[-86.895668,34.993618],[-86.895544,34.993729],[-86.895435,34.993851],[-86.895346,34.99398],[-86.895273,34.994119],[-86.895217,34.994269]]]}},{"type":"Feature","id":"47055:028181    03401","properties":{"id":"47055:028181    03401","parcelId":"028181    03401","countyFips":"47055","countyName":"Giles","state":"Tennessee","marketIds":["Huntsville"],"situsAddress":"CLAYTON RD 30225","situsCity":null,"situsZip":null,"jurisdictionCode":null,"ownerName":"CHB INVESTMENTS","ownerName2":null,"propertyName":null,"zoningCode":null,"zoningDistrict":null,"jurisdictionPrefix":null,"dorCode":null,"acreage":8.7627,"centroid":[-86.861317,34.99551],"lastSale":{"date":"2015-01-27","price":null,"qualified":null,"vintage":"2023"},"tax":{"marketValue":1185800.0,"assessedValue":null,"taxableValue":null,"taxes":null,"vintage":"2023"},"mailingAddress":{"line1":null,"line2":null,"city":null,"state":null,"zip":null},"incomeTract":null,"incomeBlockGroup":null,"nearestRoad":null,"flu":null,"opportunityZone":null,"oz2Eligibility":null,"source":"tn-oir-public-use-47055","appraiserUrl":"https://assessment.cot.tn.gov/TPAD/Parcel/GIS?gislink=028181%20%20%20%2003401"},"geometry":{"type":"Polygon","coordinates":[[[-86.862154,34.99509],[-86.859265,34.994784],[-86.859241,34.995891],[-86.862395,34.996242],[-86.862553,34.995542],[-86.862296,34.995512],[-86.862154,34.99509]]]}},{"type":"Feature","id":"47055:028182    00501","properties":{"id":"47055:028182    00501","parcelId":"028182    00501","countyFips":"47055","countyName":"Giles","state":"Tennessee","marketIds":["Huntsville"],"situsAddress":"BATES HOLLOW RD 808","situsCity":null,"situsZip":null,"jurisdictionCode":null,"ownerName":"GARRETT WILLIAM J","ownerName2":null,"propertyName":null,"zoningCode":null,"zoningDistrict":null,"jurisdictionPrefix":null,"dorCode":null,"acreage":8.2536,"centroid":[-86.905921,34.999476],"lastSale":{"date":"2013-08-08","price":90000.0,"qualified":null,"vintage":"2023"},"tax":{"marketValue":223100.0,"assessedValue":null,"taxableValue":null,"taxes":null,"vintage":"2023"},"mailingAddress":{"line1":null,"line2":null,"city":null,"state":null,"zip":null},"incomeTract":null,"incomeBlockGroup":null,"nearestRoad":null,"flu":null,"opportunityZone":null,"oz2Eligibility":null,"source":"tn-oir-public-use-47055","appraiserUrl":"https://assessment.cot.tn.gov/TPAD/Parcel/GIS?gislink=028182%20%20%20%2000501"},"geometry":{"type":"Polygon","coordinates":[[[-86.906485,35.000188],[-86.907198,35.00026],[-86.907215,35.00023],[-86.907415,34.99904],[-86.907487,34.998692],[-86.905063,34.99864],[-86.905072,34.998708],[-86.905149,34.999078],[-86.905172,34.999257],[-86.905182,34.999466],[-86.905185,34.99967],[-86.905179,34.999879],[-86.905166,35.000083],[-86.906485,35.000188]]]}},{"type":"Feature","id":"47055:028181    03406","properties":{"id":"47055:028181    03406","parcelId":"028181    03406","countyFips":"47055","countyName":"Giles","state":"Tennessee","marketIds":["Huntsville"],"situsAddress":"INDUSTRIAL PARK DR 25400","situsCity":null,"situsZip":null,"jurisdictionCode":null,"ownerName":"SHANI SAI LLC","ownerName2":null,"propertyName":null,"zoningCode":null,"zoningDistrict":null,"jurisdictionPrefix":null,"dorCode":null,"acreage":8.1727,"centroid":[-86.86275,34.995506],"lastSale":{"date":"2022-08-15","price":597700.0,"qualified":null,"vintage":"2023"},"tax":{"marketValue":597700.0,"assessedValue":null,"taxableValue":null,"taxes":null,"vintage":"2023"},"mailingAddress":{"line1":null,"line2":null,"city":null,"state":null,"zip":null},"incomeTract":null,"incomeBlockGroup":null,"nearestRoad":null,"flu":null,"opportunityZone":null,"oz2Eligibility":null,"source":"tn-oir-public-use-47055","appraiserUrl":"https://assessment.cot.tn.gov/TPAD/Parcel/GIS?gislink=028181%20%20%20%2003406"},"geometry":{"type":"Polygon","coordinates":[[[-86.863103,34.996321],[-86.863576,34.996373],[-86.863761,34.995203],[-86.863337,34.993967],[-86.861982,34.993995],[-86.861887,34.994979],[-86.862125,34.995004],[-86.862296,34.995512],[-86.862553,34.995542],[-86.862395,34.996242],[-86.862816,34.996289],[-86.862816,34.996067],[-86.863104,34.996082],[-86.863103,34.996321]]]}},{"type":"Feature","id":"47055:028181    03500","properties":{"id":"47055:028181    03500","parcelId":"028181    03500","countyFips":"47055","countyName":"Giles","state":"Tennessee","marketIds":["Huntsville"],"situsAddress":"STATE LINE","situsCity":null,"situsZip":null,"jurisdictionCode":null,"ownerName":"COTHREN KATHY B AND","ownerName2":"GOATS PAULETTE","propertyName":null,"zoningCode":null,"zoningDistrict":null,"jurisdictionPrefix":null,"dorCode":null,"acreage":7.744,"centroid":[-86.861438,34.992837],"lastSale":{"date":"2014-07-14","price":null,"qualified":null,"vintage":"2023"},"tax":{"marketValue":62000.0,"assessedValue":null,"taxableValue":null,"taxes":null,"vintage":"2023"},"mailingAddress":{"line1":null,"line2":null,"city":null,"state":null,"zip":null},"incomeTract":null,"incomeBlockGroup":null,"nearestRoad":null,"flu":null,"opportunityZone":null,"oz2Eligibility":null,"source":"tn-oir-public-use-47055","appraiserUrl":"https://assessment.cot.tn.gov/TPAD/Parcel/GIS?gislink=028181%20%20%20%2003500"},"geometry":{"type":"Polygon","coordinates":[[[-86.86003,34.992684],[-86.860016,34.993139],[-86.860296,34.993126],[-86.860302,34.993802],[-86.862852,34.99375],[-86.862594,34.992188],[-86.862735,34.992103],[-86.862039,34.992092],[-86.862025,34.992816],[-86.861669,34.992811],[-86.861258,34.992695],[-86.86003,34.992684]]]}},{"type":"Feature","id":"47055:028181F B 00500","properties":{"id":"47055:028181F B 00500","parcelId":"028181F B 00500","countyFips":"47055","countyName":"Giles","state":"Tennessee","marketIds":["Huntsville"],"situsAddress":"MAIN ST","situsCity":null,"situsZip":null,"jurisdictionCode":null,"ownerName":"GONZALEZ FAMILY TRUST","ownerName2":"JOSE GUILLERMO MARIA EVA TRUSTEES","propertyName":null,"zoningCode":null,"zoningDistrict":null,"jurisdictionPrefix":null,"dorCode":null,"acreage":6.0334,"centroid":[-86.861833,34.997239],"lastSale":{"date":"2014-11-17","price":70000.0,"qualified":null,"vintage":"2023"},"tax":{"marketValue":267900.0,"assessedValue":null,"taxableValue":null,"taxes":null,"vintage":"2023"},"mailingAddress":{"line1":null,"line2":null,"city":null,"state":null,"zip":null},"incomeTract":null,"incomeBlockGroup":null,"nearestRoad":null,"flu":null,"opportunityZone":null,"oz2Eligibility":null,"source":"tn-oir-public-use-47055","appraiserUrl":"https://assessment.cot.tn.gov/TPAD/Parcel/GIS?gislink=028181F%20B%2000500"},"geometry":{"type":"Polygon","coordinates":[[[-86.861544,34.997844],[-86.861867,34.9981],[-86.861907,34.998098],[-86.862703,34.9977],[-86.863062,34.996316],[-86.861454,34.996137],[-86.860916,34.996715],[-86.861426,34.99707],[-86.861474,34.997018],[-86.861977,34.99739],[-86.861544,34.997844]]]}},{"type":"Feature","id":"47055:028181F A 00500","properties":{"id":"47055:028181F A 00500","parcelId":"028181F A 00500","countyFips":"47055","countyName":"Giles","state":"Tennessee","marketIds":["Huntsville"],"situsAddress":"MAIN ST 26180","situsCity":null,"situsZip":null,"jurisdictionCode":null,"ownerName":"NYSA INVESTMENT INC","ownerName2":null,"propertyName":null,"zoningCode":null,"zoningDistrict":null,"jurisdictionPrefix":null,"dorCode":null,"acreage":5.8085,"centroid":[-86.852572,34.992977],"lastSale":{"date":"2023-01-20","price":700000.0,"qualified":null,"vintage":"2023"},"tax":{"marketValue":715900.0,"assessedValue":null,"taxableValue":null,"taxes":null,"vintage":"2023"},"mailingAddress":{"line1":null,"line2":null,"city":null,"state":null,"zip":null},"incomeTract":null,"incomeBlockGroup":null,"nearestRoad":null,"flu":null,"opportunityZone":null,"oz2Eligibility":null,"source":"tn-oir-public-use-47055","appraiserUrl":"https://assessment.cot.tn.gov/TPAD/Parcel/GIS?gislink=028181F%20A%2000500"},"geometry":{"type":"Polygon","coordinates":[[[-86.851471,34.993523],[-86.852811,34.993978],[-86.853158,34.993294],[-86.853265,34.993325],[-86.853394,34.99204],[-86.852624,34.992035],[-86.852214,34.992431],[-86.851643,34.993193],[-86.851471,34.993523]]]}},{"type":"Feature","id":"47055:028181    03201","properties":{"id":"47055:028181    03201","parcelId":"028181    03201","countyFips":"47055","countyName":"Giles","state":"Tennessee","marketIds":["Huntsville"],"situsAddress":"ROLIN HOLLOW RD 701","situsCity":null,"situsZip":null,"jurisdictionCode":null,"ownerName":"ROLIN JOHNNY WADE","ownerName2":null,"propertyName":null,"zoningCode":null,"zoningDistrict":null,"jurisdictionPrefix":null,"dorCode":null,"acreage":5.7657,"centroid":[-86.886828,34.999572],"lastSale":{"date":"2008-02-25","price":12000.0,"qualified":null,"vintage":"2023"},"tax":{"marketValue":36300.0,"assessedValue":null,"taxableValue":null,"taxes":null,"vintage":"2023"},"mailingAddress":{"line1":null,"line2":null,"city":null,"state":null,"zip":null},"incomeTract":null,"incomeBlockGroup":null,"nearestRoad":null,"flu":null,"opportunityZone":null,"oz2Eligibility":null,"source":"tn-oir-public-use-47055","appraiserUrl":"https://assessment.cot.tn.gov/TPAD/Parcel/GIS?gislink=028181%20%20%20%2003201"},"geometry":{"type":"Polygon","coordinates":[[[-86.884283,34.999534],[-86.888405,35.000039],[-86.888483,34.999786],[-86.888603,34.999495],[-86.884366,34.999007],[-86.884283,34.999534]]]}},{"type":"Feature","id":"47055:028181F A 00302","properties":{"id":"47055:028181F A 00302","parcelId":"028181F A 00302","countyFips":"47055","countyName":"Giles","state":"Tennessee","marketIds":["Huntsville"],"situsAddress":"MAIN ST","situsCity":null,"situsZip":null,"jurisdictionCode":null,"ownerName":"HOBBS PROPERTIES MGMT LLC","ownerName2":null,"propertyName":null,"zoningCode":null,"zoningDistrict":null,"jurisdictionPrefix":null,"dorCode":null,"acreage":5.3897,"centroid":[-86.855674,34.993706],"lastSale":{"date":"2023-05-24","price":80000.0,"qualified":null,"vintage":"2023"},"tax":{"marketValue":25400.0,"assessedValue":null,"taxableValue":null,"taxes":null,"vintage":"2023"},"mailingAddress":{"line1":null,"line2":null,"city":null,"state":null,"zip":null},"incomeTract":null,"incomeBlockGroup":null,"nearestRoad":null,"flu":null,"opportunityZone":null,"oz2Eligibility":null,"source":"tn-oir-public-use-47055","appraiserUrl":"https://assessment.cot.tn.gov/TPAD/Parcel/GIS?gislink=028181F%20A%2000302"},"geometry":{"type":"Polygon","coordinates":[[[-86.855719,34.994965],[-86.856182,34.995122],[-86.856553,34.99443],[-86.856224,34.994323],[-86.856232,34.994105],[-86.855954,34.993587],[-86.855357,34.993721],[-86.855192,34.992319],[-86.855827,34.992313],[-86.855781,34.992068],[-86.854797,34.99206],[-86.854591,34.99365],[-86.855484,34.993962],[-86.8553,34.994377],[-86.855922,34.994588],[-86.855719,34.994965]]]}},{"type":"Feature","id":"47055:028181    01621","properties":{"id":"47055:028181    01621","parcelId":"028181    01621","countyFips":"47055","countyName":"Giles","state":"Tennessee","marketIds":["Huntsville"],"situsAddress":"UNION HILL RD 2472","situsCity":null,"situsZip":null,"jurisdictionCode":null,"ownerName":"HSC ARDMORE LLC","ownerName2":null,"propertyName":null,"zoningCode":null,"zoningDistrict":null,"jurisdictionPrefix":null,"dorCode":null,"acreage":5.3627,"centroid":[-86.857773,34.99727],"lastSale":{"date":null,"price":null,"qualified":null},"tax":{"marketValue":null,"assessedValue":null,"taxableValue":null,"taxes":null},"mailingAddress":{"line1":null,"line2":null,"city":null,"state":null,"zip":null},"incomeTract":null,"incomeBlockGroup":null,"nearestRoad":null,"flu":null,"opportunityZone":null,"oz2Eligibility":null,"source":"tn-oir-public-use-47055","appraiserUrl":"https://assessment.cot.tn.gov/TPAD/Parcel/GIS?gislink=028181%20%20%20%2001621"},"geometry":{"type":"Polygon","coordinates":[[[-86.85648,34.997882],[-86.857027,34.998094],[-86.857258,34.998043],[-86.857812,34.998288],[-86.858446,34.99732],[-86.858736,34.997175],[-86.858194,34.997026],[-86.858567,34.996315],[-86.858394,34.996236],[-86.858103,34.996788],[-86.857763,34.996659],[-86.856499,34.997409],[-86.85648,34.997882]]]}},{"type":"Feature","id":"47055:028182    01301","properties":{"id":"47055:028182    01301","parcelId":"028182    01301","countyFips":"47055","countyName":"Giles","state":"Tennessee","marketIds":["Huntsville"],"situsAddress":"HOLT HOLLOW RD 937","situsCity":null,"situsZip":null,"jurisdictionCode":null,"ownerName":"MILLER SONNY W","ownerName2":"ETUX TAMMIE","propertyName":null,"zoningCode":null,"zoningDistrict":null,"jurisdictionPrefix":null,"dorCode":null,"acreage":5.2345,"centroid":[-86.909697,34.997808],"lastSale":{"date":"1988-05-14","price":5000.0,"qualified":null,"vintage":"2023"},"tax":{"marketValue":286700.0,"assessedValue":null,"taxableValue":null,"taxes":null,"vintage":"2023"},"mailingAddress":{"line1":null,"line2":null,"city":null,"state":null,"zip":null},"incomeTract":null,"incomeBlockGroup":null,"nearestRoad":null,"flu":null,"opportunityZone":null,"oz2Eligibility":null,"source":"tn-oir-public-use-47055","appraiserUrl":"https://assessment.cot.tn.gov/TPAD/Parcel/GIS?gislink=028182%20%20%20%2001301"},"geometry":{"type":"Polygon","coordinates":[[[-86.907917,34.998125],[-86.909744,34.998309],[-86.909803,34.998216],[-86.909872,34.998119],[-86.909942,34.998031],[-86.910017,34.997944],[-86.910158,34.9978],[-86.91044,34.997544],[-86.910114,34.997488],[-86.910188,34.997205],[-86.908475,34.997103],[-86.907917,34.998125]]]}},{"type":"Feature","id":"47055:028181E B 00200","properties":{"id":"47055:028181E B 00200","parcelId":"028181E B 00200","countyFips":"47055","countyName":"Giles","state":"Tennessee","marketIds":["Huntsville"],"situsAddress":"R/R ST","situsCity":null,"situsZip":null,"jurisdictionCode":null,"ownerName":"WOLVERINE ACQ CORP","ownerName2":"A DELAWARE CORP","propertyName":null,"zoningCode":null,"zoningDistrict":null,"jurisdictionPrefix":null,"dorCode":null,"acreage":5.1408,"centroid":[-86.844352,34.998237],"lastSale":{"date":"1987-03-19","price":null,"qualified":null,"vintage":"2023"},"tax":{"marketValue":919500.0,"assessedValue":null,"taxableValue":null,"taxes":null,"vintage":"2023"},"mailingAddress":{"line1":null,"line2":null,"city":null,"state":null,"zip":null},"incomeTract":null,"incomeBlockGroup":null,"nearestRoad":null,"flu":null,"opportunityZone":null,"oz2Eligibility":null,"source":"tn-oir-public-use-47055","appraiserUrl":"https://assessment.cot.tn.gov/TPAD/Parcel/GIS?gislink=028181E%20B%2000200"},"geometry":{"type":"Polygon","coordinates":[[[-86.84526,34.99627],[-86.843941,34.998587],[-86.843887,34.998698],[-86.84384,34.998815],[-86.843805,34.998927],[-86.843777,34.999048],[-86.844383,34.999156],[-86.845925,34.996391],[-86.84526,34.99627]]]}},{"type":"Feature","id":"47055:028182    01900","properties":{"id":"47055:028182    01900","parcelId":"028182    01900","countyFips":"47055","countyName":"Giles","state":"Tennessee","marketIds":["Huntsville"],"situsAddress":"ROLIN HOLLOW RD 1612","situsCity":null,"situsZip":null,"jurisdictionCode":null,"ownerName":"CUNNINGHAM WILLIAM D ET UX HELEN R","ownerName2":null,"propertyName":null,"zoningCode":null,"zoningDistrict":null,"jurisdictionPrefix":null,"dorCode":null,"acreage":5.138,"centroid":[-86.899386,34.993336],"lastSale":{"date":"2009-01-16","price":30000.0,"qualified":null,"vintage":"2023"},"tax":{"marketValue":301000.0,"assessedValue":null,"taxableValue":null,"taxes":null,"vintage":"2023"},"mailingAddress":{"line1":null,"line2":null,"city":null,"state":null,"zip":null},"incomeTract":null,"incomeBlockGroup":null,"nearestRoad":null,"flu":null,"opportunityZone":null,"oz2Eligibility":null,"source":"tn-oir-public-use-47055","appraiserUrl":"https://assessment.cot.tn.gov/TPAD/Parcel/GIS?gislink=028182%20%20%20%2001900"},"geometry":{"type":"Polygon","coordinates":[[[-86.899647,34.992761],[-86.899457,34.992724],[-86.899359,34.992712],[-86.897972,34.994543],[-86.899696,34.994715],[-86.899767,34.993132],[-86.899594,34.993123],[-86.899597,34.992982],[-86.899647,34.992761]]]}},{"type":"Feature","id":"47055:028181    04000","properties":{"id":"47055:028181    04000","parcelId":"028181    04000","countyFips":"47055","countyName":"Giles","state":"Tennessee","marketIds":["Huntsville"],"situsAddress":"STATE LINE RD 25995","situsCity":null,"situsZip":null,"jurisdictionCode":null,"ownerName":"LEONARD RUSSELL L","ownerName2":null,"propertyName":null,"zoningCode":null,"zoningDistrict":null,"jurisdictionPrefix":null,"dorCode":null,"acreage":5.128,"centroid":[-86.855933,34.992646],"lastSale":{"date":"2018-05-31","price":70000.0,"qualified":null,"vintage":"2023"},"tax":{"marketValue":84300.0,"assessedValue":null,"taxableValue":null,"taxes":null,"vintage":"2023"},"mailingAddress":{"line1":null,"line2":null,"city":null,"state":null,"zip":null},"incomeTract":null,"incomeBlockGroup":null,"nearestRoad":null,"flu":null,"opportunityZone":null,"oz2Eligibility":null,"source":"tn-oir-public-use-47055","appraiserUrl":"https://assessment.cot.tn.gov/TPAD/Parcel/GIS?gislink=028181%20%20%20%2004000"},"geometry":{"type":"Polygon","coordinates":[[[-86.855781,34.992068],[-86.855827,34.992313],[-86.855192,34.992319],[-86.855357,34.993721],[-86.856869,34.993381],[-86.856572,34.992074],[-86.855781,34.992068]]]}}]}