{"type":"FeatureCollection","name":"13293--6_24","features":[{"type":"Feature","id":"13293:052 001","properties":{"id":"13293:052 001","parcelId":"052 001","countyFips":"13293","countyName":"Upson","state":"Georgia","marketIds":["Macon"],"situsAddress":"0 JUGTOWN RD","situsCity":null,"situsZip":null,"jurisdictionCode":null,"ownerName":null,"ownerName2":null,"propertyName":null,"zoningCode":"AGRICULTURAL-RESIDENTIAL","zoningDistrict":null,"jurisdictionPrefix":null,"dorCode":null,"acreage":52.8176,"centroid":[-84.301154,33.002234],"lastSale":{"date":null,"price":null,"qualified":null},"tax":{"marketValue":null,"assessedValue":null,"taxableValue":null,"taxes":null},"mailingAddress":{"line1":null,"line2":null,"city":null,"state":null,"zip":null},"incomeTract":null,"incomeBlockGroup":null,"nearestRoad":null,"flu":null,"opportunityZone":null,"oz2Eligibility":null,"source":"ga-upson-parcels-13293","appraiserUrl":"https://qpublic.schneidercorp.com/Application.aspx?App=UpsonCountyGA&Layer=Parcels&PageType=Report&KeyValue=052%20001","gisViewerUrl":"https://experience.arcgis.com/experience/81c901d54d2440e381265a871d3666b1"},"geometry":{"type":"Polygon","coordinates":[[[-84.303612,33.004341],[-84.303606,33.000122],[-84.298697,33.000127],[-84.298703,33.004346],[-84.303612,33.004341]]]}}]}