{"type":"FeatureCollection","name":"12111-11_1","features":[{"type":"Feature","id":"12111:3534-411-0001-000-8","properties":{"id":"12111:3534-411-0001-000-8","parcelId":"3534-411-0001-000-8","countyFips":"12111","countyName":"St. Lucie","state":"Florida","marketIds":["Vero Beach"],"situsAddress":"9101 S OCEAN DRIVE","situsCity":"St Lucie County","situsZip":"0.0","jurisdictionCode":null,"ownerName":"St Lucie County","ownerName2":null,"propertyName":null,"zoningCode":null,"zoningDistrict":null,"jurisdictionPrefix":null,"dorCode":"082","acreage":126.67,"centroid":[-80.225585,27.297416],"lastSale":{"date":null,"price":null,"qualified":null},"tax":{"marketValue":6013400.0,"assessedValue":6013400.0,"taxableValue":0.0,"taxes":null},"mailingAddress":{"line1":"2300 Virginia Ave","line2":null,"city":"Fort Pierce","state":"FL","zip":"34982"},"incomeTract":null,"incomeBlockGroup":null,"nearestRoad":null,"flu":null,"opportunityZone":null,"oz2Eligibility":null,"source":"fl-doh-ehwaters-12111"},"geometry":{"type":"Polygon","coordinates":[[[-80.21835,27.29959],[-80.21637,27.29479],[-80.22685,27.2948],[-80.22689,27.29517],[-80.22677,27.29535],[-80.22692,27.29545],[-80.22696,27.29566],[-80.22672,27.29577],[-80.22669,27.29609],[-80.22688,27.29652],[-80.22675,27.29662],[-80.22674,27.29704],[-80.22688,27.29776],[-80.2265,27.29817],[-80.22674,27.29844],[-80.22653,27.29847],[-80.22664,27.29865],[-80.22642,27.29863],[-80.22638,27.29876],[-80.2266,27.29899],[-80.22639,27.29897],[-80.22623,27.29912],[-80.22599,27.2996],[-80.21985,27.29958],[-80.21835,27.29959]]]}},{"type":"Feature","id":"12111:4509-801-0009-010-9","properties":{"id":"12111:4509-801-0009-010-9","parcelId":"4509-801-0009-010-9","countyFips":"12111","countyName":"St. Lucie","state":"Florida","marketIds":["Vero Beach"],"situsAddress":"TBD","situsCity":"St Lucie County","situsZip":"0.0","jurisdictionCode":null,"ownerName":"Florida Inland Navigation Dist","ownerName2":null,"propertyName":null,"zoningCode":null,"zoningDistrict":null,"jurisdictionPrefix":null,"dorCode":"087","acreage":70.42,"centroid":[-80.236432,27.264146],"lastSale":{"date":null,"price":null,"qualified":null},"tax":{"marketValue":1392400.0,"assessedValue":1392400.0,"taxableValue":0.0,"taxes":null},"mailingAddress":{"line1":"1314 Marcinski Rd","line2":null,"city":"Jupiter","state":"FL","zip":"33477"},"incomeTract":null,"incomeBlockGroup":null,"nearestRoad":null,"flu":null,"opportunityZone":null,"oz2Eligibility":null,"source":"fl-doh-ehwaters-12111"},"geometry":{"type":"Polygon","coordinates":[[[-80.23833,27.26494],[-80.23516,27.2649],[-80.23374,27.26314],[-80.23699,27.26329],[-80.23794,27.26446],[-80.23833,27.26494]]]}},{"type":"Feature","id":"12111:4509-240-0000-000-2","properties":{"id":"12111:4509-240-0000-000-2","parcelId":"4509-240-0000-000-2","countyFips":"12111","countyName":"St. Lucie","state":"Florida","marketIds":["Vero Beach"],"situsAddress":"TBD","situsCity":"St Lucie County","situsZip":"0.0","jurisdictionCode":null,"ownerName":"Tr Int Imp Trust Fund","ownerName2":null,"propertyName":null,"zoningCode":null,"zoningDistrict":null,"jurisdictionPrefix":null,"dorCode":"080","acreage":59.0,"centroid":[-80.245857,27.274444],"lastSale":{"date":null,"price":null,"qualified":null},"tax":{"marketValue":47200.0,"assessedValue":47200.0,"taxableValue":0.0,"taxes":null},"mailingAddress":{"line1":"3900 Commonwealth Blvd","line2":null,"city":"Tallahassee","state":"FL","zip":"32399"},"incomeTract":null,"incomeBlockGroup":null,"nearestRoad":null,"flu":null,"opportunityZone":null,"oz2Eligibility":null,"source":"fl-doh-ehwaters-12111"},"geometry":{"type":"Polygon","coordinates":[[[-80.24499,27.27246],[-80.24467,27.27246],[-80.24456,27.27044],[-80.24837,27.27046],[-80.24827,27.27794],[-80.24657,27.27791],[-80.24634,27.27749],[-80.2463,27.27706],[-80.24608,27.27685],[-80.24607,27.27661],[-80.24574,27.27604],[-80.24567,27.27482],[-80.2451,27.27342],[-80.24536,27.27321],[-80.24536,27.27303],[-80.24512,27.27286],[-80.245,27.27248],[-80.24499,27.27246]]]}},{"type":"Feature","id":"12111:3534-111-0005-000-5","properties":{"id":"12111:3534-111-0005-000-5","parcelId":"3534-111-0005-000-5","countyFips":"12111","countyName":"St. Lucie","state":"Florida","marketIds":["Vero Beach"],"situsAddress":"A1A","situsCity":"St Lucie County","situsZip":"0.0","jurisdictionCode":null,"ownerName":"Island Dunes Country Club Inc","ownerName2":null,"propertyName":null,"zoningCode":null,"zoningDistrict":null,"jurisdictionPrefix":null,"dorCode":"038","acreage":48.36,"centroid":[-80.223419,27.302143],"lastSale":{"date":null,"price":null,"qualified":null},"tax":{"marketValue":1293700.0,"assessedValue":1293700.0,"taxableValue":0.0,"taxes":null},"mailingAddress":{"line1":"8735 S Ocean Dr","line2":null,"city":"Jensen Beach","state":"FL","zip":"34957"},"incomeTract":null,"incomeBlockGroup":null,"nearestRoad":null,"flu":null,"opportunityZone":null,"oz2Eligibility":null,"source":"fl-doh-ehwaters-12111"},"geometry":{"type":"MultiPolygon","coordinates":[[[[-80.22321,27.30532],[-80.22309,27.30531],[-80.22317,27.30538],[-80.22275,27.30613],[-80.22081,27.30557],[-80.21835,27.29959],[-80.22122,27.29958],[-80.22147,27.30038],[-80.22142,27.30092],[-80.22161,27.30154],[-80.22185,27.30175],[-80.22295,27.30206],[-80.22296,27.30191],[-80.22437,27.30181],[-80.22481,27.30135],[-80.22495,27.30086],[-80.22534,27.30049],[-80.22571,27.2996],[-80.22599,27.2996],[-80.22573,27.30009],[-80.22581,27.3004],[-80.2251,27.30114],[-80.22509,27.30138],[-80.22402,27.30284],[-80.22399,27.30319],[-80.22328,27.30439],[-80.22325,27.30527],[-80.22321,27.30532]]],[[[-80.22177,27.30535],[-80.22161,27.3053],[-80.22174,27.30493],[-80.22154,27.30487],[-80.22166,27.30449],[-80.22096,27.30428],[-80.22084,27.30463],[-80.22105,27.3047],[-80.22091,27.3051],[-80.221,27.30535],[-80.22169,27.30554],[-80.22177,27.30535]]],[[[-80.22386,27.30247],[-80.22407,27.30217],[-80.22272,27.3021],[-80.22173,27.30178],[-80.22178,27.30218],[-80.22199,27.30241],[-80.22205,27.30403],[-80.22222,27.30464],[-80.22272,27.3047],[-80.22286,27.30415],[-80.2237,27.30298],[-80.22386,27.30247]]]]}},{"type":"Feature","id":"12111:4504-323-0001-000-8","properties":{"id":"12111:4504-323-0001-000-8","parcelId":"4504-323-0001-000-8","countyFips":"12111","countyName":"St. Lucie","state":"Florida","marketIds":["Vero Beach"],"situsAddress":"TBD","situsCity":"St Lucie County","situsZip":"34950","jurisdictionCode":null,"ownerName":"Tr Int Imp Trust Fund","ownerName2":null,"propertyName":null,"zoningCode":null,"zoningDistrict":null,"jurisdictionPrefix":null,"dorCode":"082","acreage":42.0,"centroid":[-80.249456,27.280479],"lastSale":{"date":null,"price":null,"qualified":null},"tax":{"marketValue":49200.0,"assessedValue":49200.0,"taxableValue":0.0,"taxes":null},"mailingAddress":{"line1":"3900 Commonwealth Blvd","line2":null,"city":"Tallahassee","state":"FL","zip":"32399"},"incomeTract":null,"incomeBlockGroup":null,"nearestRoad":null,"flu":null,"opportunityZone":null,"oz2Eligibility":null,"source":"fl-doh-ehwaters-12111"},"geometry":{"type":"Polygon","coordinates":[[[-80.24851,27.28155],[-80.24853,27.28091],[-80.24826,27.28035],[-80.24827,27.27794],[-80.2523,27.27803],[-80.25223,27.28099],[-80.24902,27.28248],[-80.24853,27.28158],[-80.24851,27.28155]]]}},{"type":"Feature","id":"12111:3515-422-0001-000-3","properties":{"id":"12111:3515-422-0001-000-3","parcelId":"3515-422-0001-000-3","countyFips":"12111","countyName":"St. Lucie","state":"Florida","marketIds":["Vero Beach"],"situsAddress":"TBD","situsCity":"St Lucie County","situsZip":"0.0","jurisdictionCode":null,"ownerName":"Florida Power and Light Co","ownerName2":null,"propertyName":null,"zoningCode":null,"zoningDistrict":null,"jurisdictionPrefix":null,"dorCode":"091","acreage":26.78,"centroid":[-80.232997,27.337299],"lastSale":{"date":null,"price":null,"qualified":null},"tax":{"marketValue":284900.0,"assessedValue":284900.0,"taxableValue":284900.0,"taxes":null},"mailingAddress":{"line1":"PO Box 14000","line2":null,"city":"Juno Beach","state":"FL","zip":"33408"},"incomeTract":null,"incomeBlockGroup":null,"nearestRoad":null,"flu":null,"opportunityZone":null,"oz2Eligibility":null,"source":"fl-doh-ehwaters-12111"},"geometry":{"type":"Polygon","coordinates":[[[-80.23413,27.3417],[-80.23315,27.33915],[-80.23263,27.33718],[-80.23058,27.33237],[-80.23162,27.33238],[-80.23326,27.33643],[-80.23353,27.33748],[-80.23508,27.3417],[-80.23413,27.3417]]]}},{"type":"Feature","id":"12111:4503-100-0001-000-0","properties":{"id":"12111:4503-100-0001-000-0","parcelId":"4503-100-0001-000-0","countyFips":"12111","countyName":"St. Lucie","state":"Florida","marketIds":["Vero Beach"],"situsAddress":"TBD","situsCity":"St Lucie County","situsZip":"0.0","jurisdictionCode":null,"ownerName":"Slc Mosquito Control Dist","ownerName2":null,"propertyName":null,"zoningCode":null,"zoningDistrict":null,"jurisdictionPrefix":null,"dorCode":"086","acreage":26.41,"centroid":[-80.223898,27.29195],"lastSale":{"date":null,"price":null,"qualified":null},"tax":{"marketValue":26400.0,"assessedValue":26400.0,"taxableValue":0.0,"taxes":null},"mailingAddress":{"line1":"2300 Virginia Ave","line2":null,"city":"Fort Pierce","state":"FL","zip":"34982"},"incomeTract":null,"incomeBlockGroup":null,"nearestRoad":null,"flu":null,"opportunityZone":null,"oz2Eligibility":null,"source":"fl-doh-ehwaters-12111"},"geometry":{"type":"Polygon","coordinates":[[[-80.21989,27.29293],[-80.21989,27.29053],[-80.22132,27.29061],[-80.22206,27.29108],[-80.22406,27.29169],[-80.22414,27.29188],[-80.22429,27.29169],[-80.22664,27.29235],[-80.22674,27.29223],[-80.22744,27.29209],[-80.22723,27.29235],[-80.22704,27.29299],[-80.21994,27.29293],[-80.21989,27.29293]]]}},{"type":"Feature","id":"12111:3522-312-0003-000-1","properties":{"id":"12111:3522-312-0003-000-1","parcelId":"3522-312-0003-000-1","countyFips":"12111","countyName":"St. Lucie","state":"Florida","marketIds":["Vero Beach"],"situsAddress":"7600 S OCEAN DRIVE","situsCity":"St Lucie County","situsZip":"0.0","jurisdictionCode":null,"ownerName":"St Lucie County","ownerName2":null,"propertyName":null,"zoningCode":null,"zoningDistrict":null,"jurisdictionPrefix":null,"dorCode":"086","acreage":24.79,"centroid":[-80.232422,27.326402],"lastSale":{"date":null,"price":null,"qualified":null},"tax":{"marketValue":4584300.0,"assessedValue":4584300.0,"taxableValue":0.0,"taxes":null},"mailingAddress":{"line1":"2300 Virginia Ave","line2":null,"city":"Fort Pierce","state":"FL","zip":"34982"},"incomeTract":null,"incomeBlockGroup":null,"nearestRoad":null,"flu":null,"opportunityZone":null,"oz2Eligibility":null,"source":"fl-doh-ehwaters-12111"},"geometry":{"type":"Polygon","coordinates":[[[-80.23478,27.32748],[-80.232,27.32755],[-80.23189,27.32736],[-80.23121,27.32757],[-80.22988,27.32496],[-80.2318,27.32496],[-80.23211,27.32507],[-80.23216,27.32525],[-80.23367,27.32639],[-80.23472,27.32743],[-80.23478,27.32748]]]}},{"type":"Feature","id":"12111:3534-113-0005-000-1","properties":{"id":"12111:3534-113-0005-000-1","parcelId":"3534-113-0005-000-1","countyFips":"12111","countyName":"St. Lucie","state":"Florida","marketIds":["Vero Beach"],"situsAddress":"TBD","situsCity":"St Lucie County","situsZip":"0.0","jurisdictionCode":null,"ownerName":"Slc Mosquito Control Dist","ownerName2":null,"propertyName":null,"zoningCode":null,"zoningDistrict":null,"jurisdictionPrefix":null,"dorCode":"086","acreage":22.13,"centroid":[-80.22307,27.300914],"lastSale":{"date":null,"price":null,"qualified":null},"tax":{"marketValue":22100.0,"assessedValue":22100.0,"taxableValue":0.0,"taxes":null},"mailingAddress":{"line1":"2300 Virginia Ave","line2":null,"city":"Fort Pierce","state":"FL","zip":"34982"},"incomeTract":null,"incomeBlockGroup":null,"nearestRoad":null,"flu":null,"opportunityZone":null,"oz2Eligibility":null,"source":"fl-doh-ehwaters-12111"},"geometry":{"type":"Polygon","coordinates":[[[-80.22122,27.29958],[-80.22571,27.2996],[-80.2255,27.30022],[-80.22495,27.30086],[-80.22467,27.30156],[-80.22437,27.30181],[-80.22296,27.30191],[-80.22295,27.30206],[-80.22185,27.30175],[-80.22161,27.30154],[-80.22142,27.30092],[-80.22147,27.30038],[-80.22123,27.29969],[-80.22122,27.29958]]]}},{"type":"Feature","id":"12111:3534-434-0002-000-6","properties":{"id":"12111:3534-434-0002-000-6","parcelId":"3534-434-0002-000-6","countyFips":"12111","countyName":"St. Lucie","state":"Florida","marketIds":["Vero Beach"],"situsAddress":"TBD","situsCity":"St Lucie County","situsZip":"0.0","jurisdictionCode":null,"ownerName":"St Lucie County","ownerName2":null,"propertyName":null,"zoningCode":null,"zoningDistrict":null,"jurisdictionPrefix":null,"dorCode":"086","acreage":21.18,"centroid":[-80.224328,27.293453],"lastSale":{"date":null,"price":null,"qualified":null},"tax":{"marketValue":21200.0,"assessedValue":21200.0,"taxableValue":0.0,"taxes":null},"mailingAddress":{"line1":"2300 Virginia Ave","line2":null,"city":"Fort Pierce","state":"FL","zip":"34982"},"incomeTract":null,"incomeBlockGroup":null,"nearestRoad":null,"flu":null,"opportunityZone":null,"oz2Eligibility":null,"source":"fl-doh-ehwaters-12111"},"geometry":{"type":"Polygon","coordinates":[[[-80.21888,27.29292],[-80.22704,27.29299],[-80.22712,27.2935],[-80.227,27.29366],[-80.22705,27.29383],[-80.21888,27.29382],[-80.21888,27.29292]]]}},{"type":"Feature","id":"12111:3534-434-0001-000-9","properties":{"id":"12111:3534-434-0001-000-9","parcelId":"3534-434-0001-000-9","countyFips":"12111","countyName":"St. Lucie","state":"Florida","marketIds":["Vero Beach"],"situsAddress":"TBD","situsCity":"St Lucie County","situsZip":"0.0","jurisdictionCode":null,"ownerName":"St Lucie County","ownerName2":null,"propertyName":null,"zoningCode":null,"zoningDistrict":null,"jurisdictionPrefix":null,"dorCode":"086","acreage":21.14,"centroid":[-80.223103,27.294437],"lastSale":{"date":null,"price":null,"qualified":null},"tax":{"marketValue":21100.0,"assessedValue":21100.0,"taxableValue":0.0,"taxes":null},"mailingAddress":{"line1":"2300 Virginia Ave","line2":null,"city":"Fort Pierce","state":"FL","zip":"34982"},"incomeTract":null,"incomeBlockGroup":null,"nearestRoad":null,"flu":null,"opportunityZone":null,"oz2Eligibility":null,"source":"fl-doh-ehwaters-12111"},"geometry":{"type":"Polygon","coordinates":[[[-80.21988,27.29479],[-80.21889,27.29479],[-80.21888,27.29382],[-80.22705,27.29383],[-80.22707,27.29459],[-80.22685,27.2948],[-80.21988,27.29479]]]}},{"type":"Feature","id":"12111:3527-132-0001-000-0","properties":{"id":"12111:3527-132-0001-000-0","parcelId":"3527-132-0001-000-0","countyFips":"12111","countyName":"St. Lucie","state":"Florida","marketIds":["Vero Beach"],"situsAddress":"TBD","situsCity":"St Lucie County","situsZip":"0.0","jurisdictionCode":null,"ownerName":"Hutchinson Island 45 Inc","ownerName2":null,"propertyName":null,"zoningCode":null,"zoningDistrict":null,"jurisdictionPrefix":null,"dorCode":"000","acreage":21.07,"centroid":[-80.225598,27.316455],"lastSale":{"date":null,"price":null,"qualified":null},"tax":{"marketValue":4000.0,"assessedValue":4000.0,"taxableValue":4000.0,"taxes":null},"mailingAddress":{"line1":"1951 NW 19th St #200","line2":null,"city":"Boca Raton","state":"FL","zip":"33431"},"incomeTract":null,"incomeBlockGroup":null,"nearestRoad":null,"flu":null,"opportunityZone":null,"oz2Eligibility":null,"source":"fl-doh-ehwaters-12111"},"geometry":{"type":"Polygon","coordinates":[[[-80.22475,27.3147],[-80.22487,27.31466],[-80.22666,27.3185],[-80.22653,27.31855],[-80.226,27.31757],[-80.22478,27.31475],[-80.22475,27.3147]]]}},{"type":"Feature","id":"12111:4502-213-0003-000-8","properties":{"id":"12111:4502-213-0003-000-8","parcelId":"4502-213-0003-000-8","countyFips":"12111","countyName":"St. Lucie","state":"Florida","marketIds":["Vero Beach"],"situsAddress":"TBD","situsCity":"St Lucie County","situsZip":"0.0","jurisdictionCode":null,"ownerName":"Edgar III (TR) Charles W","ownerName2":null,"propertyName":null,"zoningCode":null,"zoningDistrict":null,"jurisdictionPrefix":null,"dorCode":"000","acreage":20.0423,"centroid":[-80.216722,27.289981],"lastSale":{"date":null,"price":null,"qualified":null},"tax":{"marketValue":421600.0,"assessedValue":421600.0,"taxableValue":421600.0,"taxes":null},"mailingAddress":{"line1":"8409 N Military Tr #123","line2":null,"city":"Palm Beach Gardens","state":"FL","zip":"33410"},"incomeTract":null,"incomeBlockGroup":null,"nearestRoad":null,"flu":null,"opportunityZone":null,"oz2Eligibility":null,"source":"fl-doh-ehwaters-12111"},"geometry":{"type":"Polygon","coordinates":[[[-80.2154,27.29057],[-80.21534,27.28996],[-80.21481,27.28997],[-80.21433,27.29018],[-80.21393,27.28934],[-80.21998,27.28921],[-80.22003,27.28951],[-80.22101,27.29052],[-80.21567,27.29057],[-80.2154,27.29057]]]}},{"type":"Feature","id":"12111:4503-100-0002-000-7","properties":{"id":"12111:4503-100-0002-000-7","parcelId":"4503-100-0002-000-7","countyFips":"12111","countyName":"St. Lucie","state":"Florida","marketIds":["Vero Beach"],"situsAddress":"1402 S OCEAN DR","situsCity":"St Lucie County","situsZip":"34950","jurisdictionCode":null,"ownerName":"Radnor/Island Co","ownerName2":null,"propertyName":null,"zoningCode":null,"zoningDistrict":null,"jurisdictionPrefix":null,"dorCode":"095","acreage":18.33,"centroid":[-80.223912,27.291302],"lastSale":{"date":null,"price":null,"qualified":null},"tax":{"marketValue":18300.0,"assessedValue":18300.0,"taxableValue":0.0,"taxes":null},"mailingAddress":{"line1":"1801 Market St","line2":null,"city":"Philadelphia","state":"PA","zip":"19103"},"incomeTract":null,"incomeBlockGroup":null,"nearestRoad":null,"flu":null,"opportunityZone":null,"oz2Eligibility":null,"source":"fl-doh-ehwaters-12111"},"geometry":{"type":"Polygon","coordinates":[[[-80.22101,27.29052],[-80.22745,27.2905],[-80.22715,27.29215],[-80.22664,27.29235],[-80.22429,27.29169],[-80.22414,27.29188],[-80.22406,27.29169],[-80.22206,27.29108],[-80.22132,27.29061],[-80.221,27.29055],[-80.22101,27.29052]]]}},{"type":"Feature","id":"12111:3522-231-0002-000-6","properties":{"id":"12111:3522-231-0002-000-6","parcelId":"3522-231-0002-000-6","countyFips":"12111","countyName":"St. Lucie","state":"Florida","marketIds":["Vero Beach"],"situsAddress":"7571 S OCEAN DR","situsCity":"St Lucie County","situsZip":"0.0","jurisdictionCode":null,"ownerName":"St Lucie County","ownerName2":null,"propertyName":null,"zoningCode":null,"zoningDistrict":null,"jurisdictionPrefix":null,"dorCode":"086","acreage":17.97,"centroid":[-80.234355,27.329366],"lastSale":{"date":null,"price":null,"qualified":null},"tax":{"marketValue":319000.0,"assessedValue":319000.0,"taxableValue":0.0,"taxes":null},"mailingAddress":{"line1":"2300 Virginia Ave","line2":null,"city":"Fort Pierce","state":"FL","zip":"34982"},"incomeTract":null,"incomeBlockGroup":null,"nearestRoad":null,"flu":null,"opportunityZone":null,"oz2Eligibility":null,"source":"fl-doh-ehwaters-12111"},"geometry":{"type":"Polygon","coordinates":[[[-80.23294,27.33102],[-80.23142,27.32798],[-80.2324,27.32754],[-80.23478,27.32748],[-80.23499,27.3278],[-80.23618,27.3288],[-80.23563,27.32875],[-80.23551,27.32894],[-80.23515,27.32904],[-80.23443,27.32982],[-80.23451,27.33035],[-80.23422,27.33046],[-80.23437,27.33062],[-80.23432,27.33086],[-80.23448,27.33103],[-80.23294,27.33102]]]}},{"type":"Feature","id":"12111:4502-221-0001-000-9","properties":{"id":"12111:4502-221-0001-000-9","parcelId":"4502-221-0001-000-9","countyFips":"12111","countyName":"St. Lucie","state":"Florida","marketIds":["Vero Beach"],"situsAddress":"TBD","situsCity":"St Lucie County","situsZip":"0.0","jurisdictionCode":null,"ownerName":"Slc Mosquito Control Dist","ownerName2":null,"propertyName":null,"zoningCode":null,"zoningDistrict":null,"jurisdictionPrefix":null,"dorCode":"086","acreage":17.21,"centroid":[-80.217857,27.29192],"lastSale":{"date":null,"price":null,"qualified":null},"tax":{"marketValue":17200.0,"assessedValue":17200.0,"taxableValue":0.0,"taxes":null},"mailingAddress":{"line1":"2300 Virginia Ave","line2":null,"city":"Fort Pierce","state":"FL","zip":"34982"},"incomeTract":null,"incomeBlockGroup":null,"nearestRoad":null,"flu":null,"opportunityZone":null,"oz2Eligibility":null,"source":"fl-doh-ehwaters-12111"},"geometry":{"type":"Polygon","coordinates":[[[-80.21888,27.29292],[-80.21761,27.29291],[-80.21743,27.29265],[-80.21749,27.29222],[-80.21697,27.29173],[-80.21685,27.29141],[-80.21702,27.29134],[-80.21654,27.29056],[-80.21989,27.29053],[-80.21989,27.29293],[-80.21888,27.29292]]]}},{"type":"Feature","id":"12111:4502-341-0001-000-8","properties":{"id":"12111:4502-341-0001-000-8","parcelId":"4502-341-0001-000-8","countyFips":"12111","countyName":"St. Lucie","state":"Florida","marketIds":["Vero Beach"],"situsAddress":"TBD","situsCity":"St Lucie County","situsZip":"0.0","jurisdictionCode":null,"ownerName":"St Lucie County","ownerName2":null,"propertyName":null,"zoningCode":null,"zoningDistrict":null,"jurisdictionPrefix":null,"dorCode":"086","acreage":16.66,"centroid":[-80.212505,27.280259],"lastSale":{"date":null,"price":null,"qualified":null},"tax":{"marketValue":237800.0,"assessedValue":237800.0,"taxableValue":0.0,"taxes":null},"mailingAddress":{"line1":"2300 Virginia Ave","line2":null,"city":"Fort Pierce","state":"FL","zip":"34982"},"incomeTract":null,"incomeBlockGroup":null,"nearestRoad":null,"flu":null,"opportunityZone":null,"oz2Eligibility":null,"source":"fl-doh-ehwaters-12111"},"geometry":{"type":"Polygon","coordinates":[[[-80.20954,27.27992],[-80.2101,27.27993],[-80.2101,27.27927],[-80.21404,27.27928],[-80.2138,27.27987],[-80.21398,27.27997],[-80.21388,27.28058],[-80.21399,27.28067],[-80.21393,27.28101],[-80.21407,27.28116],[-80.21013,27.28119],[-80.20954,27.27992]]]}},{"type":"Feature","id":"12111:3527-421-0001-000-7","properties":{"id":"12111:3527-421-0001-000-7","parcelId":"3527-421-0001-000-7","countyFips":"12111","countyName":"St. Lucie","state":"Florida","marketIds":["Vero Beach"],"situsAddress":"TBD","situsCity":"St Lucie County","situsZip":"0.0","jurisdictionCode":null,"ownerName":"Hutchinson Island 45 Inc","ownerName2":null,"propertyName":null,"zoningCode":null,"zoningDistrict":null,"jurisdictionPrefix":null,"dorCode":"000","acreage":16.25,"centroid":[-80.224447,27.313835],"lastSale":{"date":null,"price":null,"qualified":null},"tax":{"marketValue":2700.0,"assessedValue":2700.0,"taxableValue":2700.0,"taxes":null},"mailingAddress":{"line1":"1951 NW 19th St #200","line2":null,"city":"Boca Raton","state":"FL","zip":"33431"},"incomeTract":null,"incomeBlockGroup":null,"nearestRoad":null,"flu":null,"opportunityZone":null,"oz2Eligibility":null,"source":"fl-doh-ehwaters-12111"},"geometry":{"type":"Polygon","coordinates":[[[-80.22487,27.31466],[-80.22475,27.3147],[-80.22331,27.31134],[-80.22486,27.31464],[-80.22487,27.31466]]]}},{"type":"Feature","id":"12111:4502-801-0008-000-8","properties":{"id":"12111:4502-801-0008-000-8","parcelId":"4502-801-0008-000-8","countyFips":"12111","countyName":"St. Lucie","state":"Florida","marketIds":["Vero Beach"],"situsAddress":"TBD","situsCity":"St Lucie County","situsZip":"0.0","jurisdictionCode":null,"ownerName":"Tailers Cove Development LLC","ownerName2":null,"propertyName":null,"zoningCode":null,"zoningDistrict":null,"jurisdictionPrefix":null,"dorCode":"000","acreage":15.73,"centroid":[-80.212066,27.278734],"lastSale":{"date":null,"price":null,"qualified":null},"tax":{"marketValue":851400.0,"assessedValue":851400.0,"taxableValue":851400.0,"taxes":null},"mailingAddress":{"line1":"PO Box 267803","line2":null,"city":"Weston","state":"FL","zip":"33326"},"incomeTract":null,"incomeBlockGroup":null,"nearestRoad":null,"flu":null,"opportunityZone":null,"oz2Eligibility":null,"source":"fl-doh-ehwaters-12111"},"geometry":{"type":"Polygon","coordinates":[[[-80.20873,27.27818],[-80.21384,27.2782],[-80.21434,27.27874],[-80.21418,27.27928],[-80.20924,27.27927],[-80.20873,27.27818]]]}},{"type":"Feature","id":"12111:4511-815-0001-000-0","properties":{"id":"12111:4511-815-0001-000-0","parcelId":"4511-815-0001-000-0","countyFips":"12111","countyName":"St. Lucie","state":"Florida","marketIds":["Vero Beach"],"situsAddress":"TBD","situsCity":"St Lucie County","situsZip":"0.0","jurisdictionCode":null,"ownerName":"Alghita Adnan K","ownerName2":null,"propertyName":null,"zoningCode":null,"zoningDistrict":null,"jurisdictionPrefix":null,"dorCode":"096","acreage":15.1807,"centroid":[-80.209679,27.264888],"lastSale":{"date":null,"price":null,"qualified":null},"tax":{"marketValue":11600.0,"assessedValue":11600.0,"taxableValue":11600.0,"taxes":null},"mailingAddress":{"line1":"25 Aqua Ra Dr","line2":null,"city":"Jensen Beach","state":"FL","zip":"34957"},"incomeTract":null,"incomeBlockGroup":null,"nearestRoad":null,"flu":null,"opportunityZone":null,"oz2Eligibility":null,"source":"fl-doh-ehwaters-12111"},"geometry":{"type":"Polygon","coordinates":[[[-80.21016,27.26405],[-80.21002,27.26449],[-80.21012,27.26475],[-80.20985,27.2648],[-80.20996,27.26506],[-80.20985,27.26557],[-80.20881,27.26562],[-80.2088,27.26528],[-80.20888,27.26554],[-80.20966,27.26541],[-80.20967,27.26488],[-80.2099,27.26407],[-80.21015,27.26402],[-80.21016,27.26405]]]}},{"type":"Feature","id":"12111:4502-231-0001-000-0","properties":{"id":"12111:4502-231-0001-000-0","parcelId":"4502-231-0001-000-0","countyFips":"12111","countyName":"St. Lucie","state":"Florida","marketIds":["Vero Beach"],"situsAddress":"TBD","situsCity":"St Lucie County","situsZip":"0.0","jurisdictionCode":null,"ownerName":"St Lucie County","ownerName2":null,"propertyName":null,"zoningCode":null,"zoningDistrict":null,"jurisdictionPrefix":null,"dorCode":"086","acreage":14.8,"centroid":[-80.217922,27.288662],"lastSale":{"date":null,"price":null,"qualified":null},"tax":{"marketValue":454200.0,"assessedValue":454200.0,"taxableValue":0.0,"taxes":null},"mailingAddress":{"line1":"2300 Virginia Ave","line2":null,"city":"Fort Pierce","state":"FL","zip":"34982"},"incomeTract":null,"incomeBlockGroup":null,"nearestRoad":null,"flu":null,"opportunityZone":null,"oz2Eligibility":null,"source":"fl-doh-ehwaters-12111"},"geometry":{"type":"Polygon","coordinates":[[[-80.21989,27.28921],[-80.21507,27.28931],[-80.21487,27.28802],[-80.2186,27.28797],[-80.21912,27.28825],[-80.21998,27.28921],[-80.21989,27.28921]]]}},{"type":"Feature","id":"12111:3535-333-0001-000-2","properties":{"id":"12111:3535-333-0001-000-2","parcelId":"3535-333-0001-000-2","countyFips":"12111","countyName":"St. Lucie","state":"Florida","marketIds":["Vero Beach"],"situsAddress":"TBD","situsCity":"St Lucie County","situsZip":"0.0","jurisdictionCode":null,"ownerName":"Island Village Il of HI OA","ownerName2":null,"propertyName":null,"zoningCode":null,"zoningDistrict":null,"jurisdictionPrefix":null,"dorCode":"000","acreage":10.97,"centroid":[-80.217237,27.2937],"lastSale":{"date":null,"price":null,"qualified":null},"tax":{"marketValue":0.0,"assessedValue":0.0,"taxableValue":0.0,"taxes":null},"mailingAddress":{"line1":"1930 Commerce Ln #1","line2":null,"city":"Jupiter","state":"FL","zip":"34958"},"incomeTract":null,"incomeBlockGroup":null,"nearestRoad":null,"flu":null,"opportunityZone":null,"oz2Eligibility":null,"source":"fl-doh-ehwaters-12111"},"geometry":{"type":"MultiPolygon","coordinates":[[[[-80.21665,27.29376],[-80.21689,27.29376],[-80.21689,27.29313],[-80.21736,27.29312],[-80.21735,27.29301],[-80.21689,27.29302],[-80.21689,27.2929],[-80.21888,27.29292],[-80.21889,27.29479],[-80.21694,27.29479],[-80.21695,27.29448],[-80.21679,27.29448],[-80.21671,27.29394],[-80.21665,27.29376]]],[[[-80.21766,27.29371],[-80.21779,27.29376],[-80.21778,27.29322],[-80.21766,27.29322],[-80.21766,27.29367],[-80.21766,27.29371]]],[[[-80.21768,27.29441],[-80.21781,27.29445],[-80.2178,27.29391],[-80.21767,27.29391],[-80.21768,27.29436],[-80.21768,27.29441]]],[[[-80.21747,27.29312],[-80.21797,27.29311],[-80.21797,27.293],[-80.21746,27.29301],[-80.21747,27.29312]]],[[[-80.21691,27.29362],[-80.21703,27.29367],[-80.21702,27.29323],[-80.2169,27.29323],[-80.2169,27.29358],[-80.21691,27.29362]]],[[[-80.21706,27.29414],[-80.21756,27.29413],[-80.21756,27.29402],[-80.21706,27.29403],[-80.21706,27.29414]]],[[[-80.21683,27.29431],[-80.21696,27.29436],[-80.21695,27.294],[-80.21682,27.294],[-80.21683,27.29427],[-80.21683,27.29431]]],[[[-80.21715,27.29366],[-80.21755,27.29365],[-80.21755,27.29354],[-80.21715,27.29355],[-80.21715,27.29366]]],[[[-80.21705,27.29467],[-80.21746,27.29467],[-80.21745,27.29455],[-80.21705,27.29456],[-80.21705,27.29467]]],[[[-80.21757,27.29467],[-80.21788,27.29466],[-80.21788,27.29455],[-80.21757,27.29455],[-80.21757,27.29467]]],[[[-80.21737,27.29388],[-80.2175,27.29393],[-80.2175,27.29374],[-80.21737,27.29384],[-80.21737,27.29388]]]]}},{"type":"Feature","id":"12111:3527-431-0001-000-8","properties":{"id":"12111:3527-431-0001-000-8","parcelId":"3527-431-0001-000-8","countyFips":"12111","countyName":"St. Lucie","state":"Florida","marketIds":["Vero Beach"],"situsAddress":"TBD","situsCity":"St Lucie County","situsZip":"0.0","jurisdictionCode":null,"ownerName":"Sands End Development Llc","ownerName2":null,"propertyName":null,"zoningCode":null,"zoningDistrict":null,"jurisdictionPrefix":null,"dorCode":"000","acreage":10.57,"centroid":[-80.223087,27.31075],"lastSale":{"date":null,"price":null,"qualified":null},"tax":{"marketValue":10600.0,"assessedValue":10600.0,"taxableValue":10600.0,"taxes":null},"mailingAddress":{"line1":"13221 Ponderosa Way","line2":null,"city":"Fort Myers","state":"FL","zip":"33907"},"incomeTract":null,"incomeBlockGroup":null,"nearestRoad":null,"flu":null,"opportunityZone":null,"oz2Eligibility":null,"source":"fl-doh-ehwaters-12111"},"geometry":{"type":"Polygon","coordinates":[[[-80.22339,27.31134],[-80.2225,27.3096],[-80.22337,27.31131],[-80.22339,27.31134]]]}},{"type":"Feature","id":"12111:3521-141-0002-000-7","properties":{"id":"12111:3521-141-0002-000-7","parcelId":"3521-141-0002-000-7","countyFips":"12111","countyName":"St. Lucie","state":"Florida","marketIds":["Vero Beach"],"situsAddress":"TBD","situsCity":"St Lucie County","situsZip":"0.0","jurisdictionCode":null,"ownerName":"Slc Mosquito Control Dist","ownerName2":null,"propertyName":null,"zoningCode":null,"zoningDistrict":null,"jurisdictionPrefix":null,"dorCode":"086","acreage":10.3,"centroid":[-80.235212,27.3317],"lastSale":{"date":null,"price":null,"qualified":null},"tax":{"marketValue":16600.0,"assessedValue":16600.0,"taxableValue":0.0,"taxes":null},"mailingAddress":{"line1":"2300 Virginia Ave","line2":null,"city":"Fort Pierce","state":"FL","zip":"34982"},"incomeTract":null,"incomeBlockGroup":null,"nearestRoad":null,"flu":null,"opportunityZone":null,"oz2Eligibility":null,"source":"fl-doh-ehwaters-12111"},"geometry":{"type":"Polygon","coordinates":[[[-80.23618,27.3324],[-80.23362,27.33239],[-80.23294,27.33102],[-80.23448,27.33103],[-80.23457,27.33126],[-80.2348,27.33133],[-80.2358,27.33129],[-80.23649,27.33169],[-80.23654,27.33218],[-80.2367,27.33241],[-80.23618,27.3324]]]}},{"type":"Feature","id":"12111:3527-442-0001-000-2","properties":{"id":"12111:3527-442-0001-000-2","parcelId":"3527-442-0001-000-2","countyFips":"12111","countyName":"St. Lucie","state":"Florida","marketIds":["Vero Beach"],"situsAddress":"TBD","situsCity":"St Lucie County","situsZip":"0.0","jurisdictionCode":null,"ownerName":"Sands End Development Llc","ownerName2":null,"propertyName":null,"zoningCode":null,"zoningDistrict":null,"jurisdictionPrefix":null,"dorCode":"000","acreage":10.15,"centroid":[-80.222212,27.30846],"lastSale":{"date":null,"price":null,"qualified":null},"tax":{"marketValue":11100.0,"assessedValue":11100.0,"taxableValue":11100.0,"taxes":null},"mailingAddress":{"line1":"13221 Ponderosa Way","line2":null,"city":"Fort Myers","state":"FL","zip":"33907"},"incomeTract":null,"incomeBlockGroup":null,"nearestRoad":null,"flu":null,"opportunityZone":null,"oz2Eligibility":null,"source":"fl-doh-ehwaters-12111"},"geometry":{"type":"Polygon","coordinates":[[[-80.22251,27.30957],[-80.22161,27.3075],[-80.22231,27.3075],[-80.22213,27.30819],[-80.2225,27.30954],[-80.22251,27.30957]]]}},{"type":"Feature","id":"12111:4511-444-0001-000-2","properties":{"id":"12111:4511-444-0001-000-2","parcelId":"4511-444-0001-000-2","countyFips":"12111","countyName":"St. Lucie","state":"Florida","marketIds":["Vero Beach"],"situsAddress":"TBD","situsCity":"St Lucie County","situsZip":"0.0","jurisdictionCode":null,"ownerName":"Bayport Associates LLC","ownerName2":null,"propertyName":null,"zoningCode":null,"zoningDistrict":null,"jurisdictionPrefix":null,"dorCode":"000","acreage":9.91,"centroid":[-80.203778,27.26424],"lastSale":{"date":null,"price":null,"qualified":null},"tax":{"marketValue":328300.0,"assessedValue":328300.0,"taxableValue":328300.0,"taxes":null},"mailingAddress":{"line1":"801 Asbury Ave Ste 404","line2":null,"city":"Ocean City","state":"NJ","zip":"82260"},"incomeTract":null,"incomeBlockGroup":null,"nearestRoad":null,"flu":null,"opportunityZone":null,"oz2Eligibility":null,"source":"fl-doh-ehwaters-12111"},"geometry":{"type":"Polygon","coordinates":[[[-80.2028,27.26418],[-80.20237,27.26331],[-80.2057,27.26349],[-80.2057,27.26461],[-80.20372,27.26461],[-80.20372,27.26477],[-80.20325,27.26477],[-80.20296,27.26418],[-80.2028,27.26418]]]}},{"type":"Feature","id":"12111:3534-113-0004-000-4","properties":{"id":"12111:3534-113-0004-000-4","parcelId":"3534-113-0004-000-4","countyFips":"12111","countyName":"St. Lucie","state":"Florida","marketIds":["Vero Beach"],"situsAddress":"TBD","situsCity":"St Lucie County","situsZip":"0.0","jurisdictionCode":null,"ownerName":"Slc Mosquito Control Dist","ownerName2":null,"propertyName":null,"zoningCode":null,"zoningDistrict":null,"jurisdictionPrefix":null,"dorCode":"086","acreage":9.65,"centroid":[-80.222428,27.303066],"lastSale":{"date":null,"price":null,"qualified":null},"tax":{"marketValue":1000.0,"assessedValue":1000.0,"taxableValue":0.0,"taxes":null},"mailingAddress":{"line1":"2300 Virginia Ave","line2":null,"city":"Fort Pierce","state":"FL","zip":"34982"},"incomeTract":null,"incomeBlockGroup":null,"nearestRoad":null,"flu":null,"opportunityZone":null,"oz2Eligibility":null,"source":"fl-doh-ehwaters-12111"},"geometry":{"type":"Polygon","coordinates":[[[-80.22173,27.30178],[-80.22272,27.3021],[-80.22407,27.30217],[-80.2235,27.30332],[-80.22286,27.30415],[-80.22272,27.3047],[-80.22222,27.30464],[-80.22211,27.30439],[-80.22198,27.30314],[-80.22207,27.30293],[-80.22199,27.30241],[-80.22178,27.30218],[-80.22181,27.30195],[-80.22173,27.30178]]]}},{"type":"Feature","id":"12111:4502-801-0011-000-2","properties":{"id":"12111:4502-801-0011-000-2","parcelId":"4502-801-0011-000-2","countyFips":"12111","countyName":"St. Lucie","state":"Florida","marketIds":["Vero Beach"],"situsAddress":"10251 S OCEAN DR","situsCity":"St Lucie County","situsZip":"0.0","jurisdictionCode":null,"ownerName":"Indigo Land Majestic Bay LLC","ownerName2":null,"propertyName":null,"zoningCode":null,"zoningDistrict":null,"jurisdictionPrefix":null,"dorCode":"000","acreage":9.12,"centroid":[-80.210688,27.276322],"lastSale":{"date":"2011-01-01","price":100.0,"qualified":"11"},"tax":{"marketValue":918800.0,"assessedValue":918800.0,"taxableValue":918800.0,"taxes":null},"mailingAddress":{"line1":"250 Greenwich St","line2":null,"city":"New York","state":"NY","zip":"10007"},"incomeTract":null,"incomeBlockGroup":null,"nearestRoad":null,"flu":null,"opportunityZone":null,"oz2Eligibility":null,"source":"fl-doh-ehwaters-12111"},"geometry":{"type":"Polygon","coordinates":[[[-80.2082,27.27706],[-80.2076,27.27581],[-80.21217,27.27586],[-80.21161,27.27608],[-80.21129,27.27591],[-80.21116,27.27597],[-80.21147,27.27632],[-80.21129,27.27676],[-80.2114,27.27713],[-80.2082,27.27706]]]}},{"type":"Feature","id":"12111:4502-231-0002-000-7","properties":{"id":"12111:4502-231-0002-000-7","parcelId":"4502-231-0002-000-7","countyFips":"12111","countyName":"St. Lucie","state":"Florida","marketIds":["Vero Beach"],"situsAddress":"TBD","situsCity":"St Lucie County","situsZip":"0.0","jurisdictionCode":null,"ownerName":"Rigel Robert P","ownerName2":null,"propertyName":null,"zoningCode":null,"zoningDistrict":null,"jurisdictionPrefix":null,"dorCode":"000","acreage":8.76,"centroid":[-80.215839,27.28754],"lastSale":{"date":null,"price":null,"qualified":null},"tax":{"marketValue":737000.0,"assessedValue":737000.0,"taxableValue":737000.0,"taxes":null},"mailingAddress":{"line1":"PO Box 6201","line2":null,"city":"Jensen Beach","state":"FL","zip":"34957"},"incomeTract":null,"incomeBlockGroup":null,"nearestRoad":null,"flu":null,"opportunityZone":null,"oz2Eligibility":null,"source":"fl-doh-ehwaters-12111"},"geometry":{"type":"Polygon","coordinates":[[[-80.21333,27.28805],[-80.21319,27.28773],[-80.21707,27.28669],[-80.21759,27.28699],[-80.21791,27.2874],[-80.21637,27.28744],[-80.21638,27.288],[-80.21487,27.28802],[-80.21333,27.28805]]]}},{"type":"Feature","id":"12111:4511-815-0001-010-3","properties":{"id":"12111:4511-815-0001-010-3","parcelId":"4511-815-0001-010-3","countyFips":"12111","countyName":"St. Lucie","state":"Florida","marketIds":["Vero Beach"],"situsAddress":"TBD","situsCity":"St Lucie County","situsZip":"0.0","jurisdictionCode":null,"ownerName":"Alghita Adnan K","ownerName2":null,"propertyName":null,"zoningCode":null,"zoningDistrict":null,"jurisdictionPrefix":null,"dorCode":"096","acreage":8.225,"centroid":[-80.207765,27.2638],"lastSale":{"date":null,"price":null,"qualified":null},"tax":{"marketValue":8300.0,"assessedValue":8300.0,"taxableValue":8300.0,"taxes":null},"mailingAddress":{"line1":"25 Aqua Ra Dr","line2":null,"city":"Jensen Beach","state":"FL","zip":"34957"},"incomeTract":null,"incomeBlockGroup":null,"nearestRoad":null,"flu":null,"opportunityZone":null,"oz2Eligibility":null,"source":"fl-doh-ehwaters-12111"},"geometry":{"type":"Polygon","coordinates":[[[-80.2058,27.26465],[-80.2057,27.26461],[-80.20568,27.26301],[-80.2101,27.26303],[-80.21035,27.26324],[-80.21011,27.26321],[-80.21028,27.26355],[-80.20995,27.2638],[-80.20582,27.26358],[-80.20576,27.26446],[-80.20587,27.26466],[-80.2058,27.26465]]]}},{"type":"Feature","id":"12111:3509-211-0001-000-6","properties":{"id":"12111:3509-211-0001-000-6","parcelId":"3509-211-0001-000-6","countyFips":"12111","countyName":"St. Lucie","state":"Florida","marketIds":["Vero Beach"],"situsAddress":"5460 S OCEAN DRIVE","situsCity":"St Lucie County","situsZip":"0.0","jurisdictionCode":null,"ownerName":"St Lucie County","ownerName2":null,"propertyName":null,"zoningCode":null,"zoningDistrict":null,"jurisdictionPrefix":null,"dorCode":"086","acreage":7.61,"centroid":[-80.247664,27.364574],"lastSale":{"date":null,"price":null,"qualified":null},"tax":{"marketValue":207000.0,"assessedValue":207000.0,"taxableValue":0.0,"taxes":null},"mailingAddress":{"line1":"2300 Virginia Ave","line2":null,"city":"Fort Pierce","state":"FL","zip":"34982"},"incomeTract":null,"incomeBlockGroup":null,"nearestRoad":null,"flu":null,"opportunityZone":null,"oz2Eligibility":null,"source":"fl-doh-ehwaters-12111"},"geometry":{"type":"Polygon","coordinates":[[[-80.24933,27.36511],[-80.24575,27.36506],[-80.24513,27.3639],[-80.24886,27.36389],[-80.24925,27.36491],[-80.24933,27.36511]]]}},{"type":"Feature","id":"12111:3527-441-0001-000-9","properties":{"id":"12111:3527-441-0001-000-9","parcelId":"3527-441-0001-000-9","countyFips":"12111","countyName":"St. Lucie","state":"Florida","marketIds":["Vero Beach"],"situsAddress":"TBD","situsCity":"St Lucie County","situsZip":"0.0","jurisdictionCode":null,"ownerName":"Sands End Development Llc","ownerName2":null,"propertyName":null,"zoningCode":null,"zoningDistrict":null,"jurisdictionPrefix":null,"dorCode":"010","acreage":7.51,"centroid":[-80.221065,27.30856],"lastSale":{"date":null,"price":null,"qualified":null},"tax":{"marketValue":4351200.0,"assessedValue":4351200.0,"taxableValue":4351200.0,"taxes":null},"mailingAddress":{"line1":"13221 Ponderosa Way","line2":null,"city":"Fort Myers","state":"FL","zip":"33907"},"incomeTract":null,"incomeBlockGroup":null,"nearestRoad":null,"flu":null,"opportunityZone":null,"oz2Eligibility":null,"source":"fl-doh-ehwaters-12111"},"geometry":{"type":"Polygon","coordinates":[[[-80.2222,27.30964],[-80.22085,27.30963],[-80.21994,27.30748],[-80.22127,27.30749],[-80.2222,27.30964]]]}},{"type":"Feature","id":"12111:4511-110-0005-200-6","properties":{"id":"12111:4511-110-0005-200-6","parcelId":"4511-110-0005-200-6","countyFips":"12111","countyName":"St. Lucie","state":"Florida","marketIds":["Vero Beach"],"situsAddress":"TBD","situsCity":"St Lucie County","situsZip":"0.0","jurisdictionCode":null,"ownerName":"Tr Int Imp Trust Fund","ownerName2":null,"propertyName":null,"zoningCode":null,"zoningDistrict":null,"jurisdictionPrefix":null,"dorCode":"082","acreage":7.49,"centroid":[-80.210707,27.274203],"lastSale":{"date":null,"price":null,"qualified":null},"tax":{"marketValue":236300.0,"assessedValue":236300.0,"taxableValue":0.0,"taxes":null},"mailingAddress":{"line1":"3900 Commonwealth Blvd","line2":null,"city":"Tallahassee","state":"FL","zip":"32399"},"incomeTract":null,"incomeBlockGroup":null,"nearestRoad":null,"flu":null,"opportunityZone":null,"oz2Eligibility":null,"source":"fl-doh-ehwaters-12111"},"geometry":{"type":"Polygon","coordinates":[[[-80.21218,27.27505],[-80.21014,27.27502],[-80.20971,27.27413],[-80.20933,27.27379],[-80.20921,27.27348],[-80.20992,27.27318],[-80.21067,27.2736],[-80.21102,27.27403],[-80.21169,27.27437],[-80.21173,27.27456],[-80.21218,27.27502],[-80.21218,27.27505]]]}},{"type":"Feature","id":"12111:3522-342-0002-000-7","properties":{"id":"12111:3522-342-0002-000-7","parcelId":"3522-342-0002-000-7","countyFips":"12111","countyName":"St. Lucie","state":"Florida","marketIds":["Vero Beach"],"situsAddress":"TBD","situsCity":"St Lucie County","situsZip":"0.0","jurisdictionCode":null,"ownerName":"Ocean Property Holdings LLC","ownerName2":null,"propertyName":null,"zoningCode":null,"zoningDistrict":null,"jurisdictionPrefix":null,"dorCode":"000","acreage":7.37,"centroid":[-80.22834,27.324188],"lastSale":{"date":"2010-07-01","price":4800000.0,"qualified":"05"},"tax":{"marketValue":2466400.0,"assessedValue":2466400.0,"taxableValue":2466400.0,"taxes":null},"mailingAddress":{"line1":"15430 Avery Rd","line2":null,"city":"Rockville","state":"MD","zip":"20855"},"incomeTract":null,"incomeBlockGroup":null,"nearestRoad":null,"flu":null,"opportunityZone":null,"oz2Eligibility":null,"source":"fl-doh-ehwaters-12111"},"geometry":{"type":"Polygon","coordinates":[[[-80.22955,27.32496],[-80.22781,27.32495],[-80.22722,27.32342],[-80.22878,27.32342],[-80.22955,27.32496]]]}},{"type":"Feature","id":"12111:4509-801-0008-000-9","properties":{"id":"12111:4509-801-0008-000-9","parcelId":"4509-801-0008-000-9","countyFips":"12111","countyName":"St. Lucie","state":"Florida","marketIds":["Vero Beach"],"situsAddress":"TBD","situsCity":"St Lucie County","situsZip":"0.0","jurisdictionCode":null,"ownerName":"Tr Int Imp Trust Fund","ownerName2":null,"propertyName":null,"zoningCode":null,"zoningDistrict":null,"jurisdictionPrefix":null,"dorCode":"082","acreage":7.3,"centroid":[-80.242734,27.26927],"lastSale":{"date":null,"price":null,"qualified":null},"tax":{"marketValue":11000.0,"assessedValue":11000.0,"taxableValue":0.0,"taxes":null},"mailingAddress":{"line1":"3900 Commonwealth Blvd","line2":null,"city":"Tallahassee","state":"FL","zip":"32399"},"incomeTract":null,"incomeBlockGroup":null,"nearestRoad":null,"flu":null,"opportunityZone":null,"oz2Eligibility":null,"source":"fl-doh-ehwaters-12111"},"geometry":{"type":"Polygon","coordinates":[[[-80.24273,27.26963],[-80.24142,27.26962],[-80.24096,27.26871],[-80.24428,27.26874],[-80.24428,27.26965],[-80.24273,27.26963]]]}},{"type":"Feature","id":"12111:3509-211-0002-000-3","properties":{"id":"12111:3509-211-0002-000-3","parcelId":"3509-211-0002-000-3","countyFips":"12111","countyName":"St. Lucie","state":"Florida","marketIds":["Vero Beach"],"situsAddress":"TBD","situsCity":"St Lucie County","situsZip":"0.0","jurisdictionCode":null,"ownerName":"Florida Power and Light Co","ownerName2":null,"propertyName":null,"zoningCode":null,"zoningDistrict":null,"jurisdictionPrefix":null,"dorCode":"091","acreage":6.96,"centroid":[-80.24661,27.363008],"lastSale":{"date":null,"price":null,"qualified":null},"tax":{"marketValue":73200.0,"assessedValue":73200.0,"taxableValue":73200.0,"taxes":null},"mailingAddress":{"line1":"PO Box 14000","line2":null,"city":"Juno Beach","state":"FL","zip":"33408"},"incomeTract":null,"incomeBlockGroup":null,"nearestRoad":null,"flu":null,"opportunityZone":null,"oz2Eligibility":null,"source":"fl-doh-ehwaters-12111"},"geometry":{"type":"Polygon","coordinates":[[[-80.24886,27.36389],[-80.24513,27.3639],[-80.24419,27.36212],[-80.24826,27.36212],[-80.24886,27.36389]]]}},{"type":"Feature","id":"12111:3527-123-0003-000-6","properties":{"id":"12111:3527-123-0003-000-6","parcelId":"3527-123-0003-000-6","countyFips":"12111","countyName":"St. Lucie","state":"Florida","marketIds":["Vero Beach"],"situsAddress":"TBD","situsCity":"St Lucie County","situsZip":"0.0","jurisdictionCode":null,"ownerName":"Hutchinson Island 45 Inc","ownerName2":null,"propertyName":null,"zoningCode":null,"zoningDistrict":null,"jurisdictionPrefix":null,"dorCode":"000","acreage":6.64,"centroid":[-80.226848,27.319026],"lastSale":{"date":null,"price":null,"qualified":null},"tax":{"marketValue":900.0,"assessedValue":900.0,"taxableValue":900.0,"taxes":null},"mailingAddress":{"line1":"1951 NW 19th St #200","line2":null,"city":"Boca Raton","state":"FL","zip":"33431"},"incomeTract":null,"incomeBlockGroup":null,"nearestRoad":null,"flu":null,"opportunityZone":null,"oz2Eligibility":null,"source":"fl-doh-ehwaters-12111"},"geometry":{"type":"Polygon","coordinates":[[[-80.22653,27.31855],[-80.22666,27.3185],[-80.2273,27.31974],[-80.22721,27.31977],[-80.22654,27.31857],[-80.22653,27.31855]]]}},{"type":"Feature","id":"12111:4504-343-0010-000-6","properties":{"id":"12111:4504-343-0010-000-6","parcelId":"4504-343-0010-000-6","countyFips":"12111","countyName":"St. Lucie","state":"Florida","marketIds":["Vero Beach"],"situsAddress":"S INDIAN RIVER DR","situsCity":"St Lucie County","situsZip":"34950","jurisdictionCode":null,"ownerName":"3 Golden Holdings Llc","ownerName2":null,"propertyName":null,"zoningCode":null,"zoningDistrict":null,"jurisdictionPrefix":null,"dorCode":"000","acreage":6.2,"centroid":[-80.247752,27.27923],"lastSale":{"date":null,"price":null,"qualified":null},"tax":{"marketValue":5000.0,"assessedValue":5000.0,"taxableValue":5000.0,"taxes":null},"mailingAddress":{"line1":"12525 Oak Arbor Lane","line2":null,"city":"Boynton Beach","state":"FL","zip":"33482"},"incomeTract":null,"incomeBlockGroup":null,"nearestRoad":null,"flu":null,"opportunityZone":null,"oz2Eligibility":null,"source":"fl-doh-ehwaters-12111"},"geometry":{"type":"Polygon","coordinates":[[[-80.2477,27.28002],[-80.24657,27.27791],[-80.24827,27.27794],[-80.24826,27.28035],[-80.24796,27.27993],[-80.2477,27.28002]]]}},{"type":"Feature","id":"12111:4502-314-0001-000-4","properties":{"id":"12111:4502-314-0001-000-4","parcelId":"4502-314-0001-000-4","countyFips":"12111","countyName":"St. Lucie","state":"Florida","marketIds":["Vero Beach"],"situsAddress":"TBD","situsCity":"St Lucie County","situsZip":"0.0","jurisdictionCode":null,"ownerName":"St Lucie County","ownerName2":null,"propertyName":null,"zoningCode":null,"zoningDistrict":null,"jurisdictionPrefix":null,"dorCode":"086","acreage":5.83,"centroid":[-80.21274,27.28248],"lastSale":{"date":null,"price":null,"qualified":null},"tax":{"marketValue":106200.0,"assessedValue":106200.0,"taxableValue":0.0,"taxes":null},"mailingAddress":{"line1":"2300 Virginia Ave","line2":null,"city":"Fort Pierce","state":"FL","zip":"34982"},"incomeTract":null,"incomeBlockGroup":null,"nearestRoad":null,"flu":null,"opportunityZone":null,"oz2Eligibility":null,"source":"fl-doh-ehwaters-12111"},"geometry":{"type":"Polygon","coordinates":[[[-80.21099,27.28302],[-80.21074,27.28248],[-80.21206,27.28248],[-80.21188,27.2821],[-80.21383,27.28208],[-80.21412,27.28221],[-80.21419,27.28244],[-80.21411,27.28303],[-80.21099,27.28302]]]}},{"type":"Feature","id":"12111:3527-413-0001-000-2","properties":{"id":"12111:3527-413-0001-000-2","parcelId":"3527-413-0001-000-2","countyFips":"12111","countyName":"St. Lucie","state":"Florida","marketIds":["Vero Beach"],"situsAddress":"TBD","situsCity":"St Lucie County","situsZip":"0.0","jurisdictionCode":null,"ownerName":"Sands End Development Llc","ownerName2":null,"propertyName":null,"zoningCode":null,"zoningDistrict":null,"jurisdictionPrefix":null,"dorCode":"000","acreage":5.82,"centroid":[-80.221938,27.31069],"lastSale":{"date":null,"price":null,"qualified":null},"tax":{"marketValue":3363100.0,"assessedValue":3363100.0,"taxableValue":3363100.0,"taxes":null},"mailingAddress":{"line1":"13221 Ponderosa Way","line2":null,"city":"Fort Myers","state":"FL","zip":"33907"},"incomeTract":null,"incomeBlockGroup":null,"nearestRoad":null,"flu":null,"opportunityZone":null,"oz2Eligibility":null,"source":"fl-doh-ehwaters-12111"},"geometry":{"type":"Polygon","coordinates":[[[-80.22187,27.31139],[-80.22085,27.30963],[-80.2222,27.30964],[-80.2229,27.3114],[-80.22187,27.31139],[-80.22187,27.31139]]]}},{"type":"Feature","id":"12111:4509-130-0007-000-3","properties":{"id":"12111:4509-130-0007-000-3","parcelId":"4509-130-0007-000-3","countyFips":"12111","countyName":"St. Lucie","state":"Florida","marketIds":["Vero Beach"],"situsAddress":"0  TBD","situsCity":"St Lucie County","situsZip":"0.0","jurisdictionCode":null,"ownerName":"Tr Int Imp Trust Fund","ownerName2":null,"propertyName":null,"zoningCode":null,"zoningDistrict":null,"jurisdictionPrefix":null,"dorCode":"087","acreage":5.8,"centroid":[-80.243358,27.270888],"lastSale":{"date":null,"price":null,"qualified":null},"tax":{"marketValue":9400.0,"assessedValue":9400.0,"taxableValue":0.0,"taxes":null},"mailingAddress":{"line1":"3900 Commonwealth Blvd","line2":null,"city":"Tallahassee","state":"FL","zip":"32399"},"incomeTract":null,"incomeBlockGroup":null,"nearestRoad":null,"flu":null,"opportunityZone":null,"oz2Eligibility":null,"source":"fl-doh-ehwaters-12111"},"geometry":{"type":"Polygon","coordinates":[[[-80.2425,27.27172],[-80.24182,27.27042],[-80.24456,27.27044],[-80.24455,27.27097],[-80.2425,27.27172]]]}},{"type":"Feature","id":"12111:4502-311-0002-000-2","properties":{"id":"12111:4502-311-0002-000-2","parcelId":"4502-311-0002-000-2","countyFips":"12111","countyName":"St. Lucie","state":"Florida","marketIds":["Vero Beach"],"situsAddress":"TBD","situsCity":"St Lucie County","situsZip":"0.0","jurisdictionCode":null,"ownerName":"Miramar POA Inc","ownerName2":null,"propertyName":null,"zoningCode":null,"zoningDistrict":null,"jurisdictionPrefix":null,"dorCode":"000","acreage":5.78,"centroid":[-80.21338,27.283513],"lastSale":{"date":null,"price":null,"qualified":null},"tax":{"marketValue":14900.0,"assessedValue":14900.0,"taxableValue":0.0,"taxes":null},"mailingAddress":{"line1":"P O Box 413","line2":null,"city":"Jensen Beach","state":"FL","zip":"34958"},"incomeTract":null,"incomeBlockGroup":null,"nearestRoad":null,"flu":null,"opportunityZone":null,"oz2Eligibility":null,"source":"fl-doh-ehwaters-12111"},"geometry":{"type":"Polygon","coordinates":[[[-80.21407,27.28391],[-80.21141,27.28391],[-80.21099,27.28302],[-80.21411,27.28303],[-80.21404,27.28318],[-80.21422,27.28345],[-80.21402,27.28369],[-80.21418,27.28391],[-80.21407,27.28391]]]}},{"type":"Feature","id":"12111:4509-802-0001-000-3","properties":{"id":"12111:4509-802-0001-000-3","parcelId":"4509-802-0001-000-3","countyFips":"12111","countyName":"St. Lucie","state":"Florida","marketIds":["Vero Beach"],"situsAddress":"10947  WETLAND WAY","situsCity":"St Lucie County","situsZip":"34950","jurisdictionCode":null,"ownerName":"Albertson Lamont E","ownerName2":null,"propertyName":null,"zoningCode":null,"zoningDistrict":null,"jurisdictionPrefix":null,"dorCode":"008","acreage":5.64,"centroid":[-80.242482,27.264695],"lastSale":{"date":null,"price":null,"qualified":null},"tax":{"marketValue":106200.0,"assessedValue":106200.0,"taxableValue":106200.0,"taxes":null},"mailingAddress":{"line1":"PO Box 717","line2":null,"city":"Steinhatchee","state":"FL","zip":"32359"},"incomeTract":null,"incomeBlockGroup":null,"nearestRoad":null,"flu":null,"opportunityZone":null,"oz2Eligibility":null,"source":"fl-doh-ehwaters-12111"},"geometry":{"type":"Polygon","coordinates":[[[-80.24427,27.26501],[-80.24078,27.26497],[-80.24061,27.26436],[-80.24427,27.26444],[-80.24427,27.26501]]]}}]}