{"type":"FeatureCollection","name":"01121--14_26","features":[{"type":"Feature","id":"01121:10658","properties":{"id":"01121:10658","parcelId":"10658","countyFips":"01121","countyName":"Talladega","state":"Alabama","marketIds":["Birmingham"],"situsAddress":"0","situsCity":null,"situsZip":null,"jurisdictionCode":null,"ownerName":"DEAL PAUL L & YALILE GONZALEZ DEAL","ownerName2":null,"propertyName":null,"zoningCode":null,"zoningDistrict":null,"jurisdictionPrefix":null,"dorCode":null,"acreage":6.0,"centroid":[-86.271972,33.50791],"lastSale":{"date":"2017-10-13","price":null,"qualified":null},"tax":{"marketValue":43800.0,"assessedValue":4380.0,"taxableValue":null,"taxes":127.02},"mailingAddress":{"line1":"430 PARADISE PT","line2":null,"city":"TALLADEGA","state":"AL","zip":"35160"},"incomeTract":null,"incomeBlockGroup":null,"nearestRoad":null,"flu":null,"opportunityZone":null,"oz2Eligibility":null,"source":"al-talladega-parcels-01121","appraiserUrl":"https://talladegaproperty.countygovservices.com/Property/Property/Summary?ppin=10658&taxyear=2026","gisViewerUrl":"https://isv.kcsgis.com/al.talladega_revenue/"},"geometry":{"type":"Polygon","coordinates":[[[-86.270831,33.507462],[-86.270843,33.507575],[-86.270977,33.508839],[-86.273094,33.508659],[-86.27288,33.507916],[-86.272814,33.507747],[-86.272758,33.507664],[-86.271582,33.507415],[-86.270831,33.507462]]]}},{"type":"Feature","id":"01121:68143","properties":{"id":"01121:68143","parcelId":"68143","countyFips":"01121","countyName":"Talladega","state":"Alabama","marketIds":["Birmingham"],"situsAddress":"0","situsCity":null,"situsZip":null,"jurisdictionCode":null,"ownerName":"FICARRA RICHARD","ownerName2":null,"propertyName":null,"zoningCode":null,"zoningDistrict":null,"jurisdictionPrefix":null,"dorCode":null,"acreage":7.0,"centroid":[-86.273002,33.502536],"lastSale":{"date":"2014-04-08","price":null,"qualified":null},"tax":{"marketValue":49400.0,"assessedValue":5920.0,"taxableValue":null,"taxes":171.68},"mailingAddress":{"line1":"3826 GRIFFITH BEND RD","line2":null,"city":"TALLADEGA","state":"AL","zip":"35160"},"incomeTract":null,"incomeBlockGroup":null,"nearestRoad":null,"flu":null,"opportunityZone":null,"oz2Eligibility":null,"source":"al-talladega-parcels-01121","appraiserUrl":"https://talladegaproperty.countygovservices.com/Property/Property/Summary?ppin=68143&taxyear=2026","gisViewerUrl":"https://isv.kcsgis.com/al.talladega_revenue/"},"geometry":{"type":"MultiPolygon","coordinates":[[[[-86.272206,33.502814],[-86.272207,33.50283],[-86.272225,33.503032],[-86.273546,33.502761],[-86.274833,33.502919],[-86.274831,33.501863],[-86.272029,33.501849],[-86.272139,33.502217],[-86.272206,33.502814]]],[[[-86.271714,33.502837],[-86.271791,33.502963],[-86.271808,33.50318],[-86.271968,33.503148],[-86.271937,33.502756],[-86.271827,33.502748],[-86.271714,33.502837]]]]}},{"type":"Feature","id":"01121:10682","properties":{"id":"01121:10682","parcelId":"10682","countyFips":"01121","countyName":"Talladega","state":"Alabama","marketIds":["Birmingham"],"situsAddress":"0","situsCity":null,"situsZip":null,"jurisdictionCode":null,"ownerName":"WILKINSON DAVID G","ownerName2":null,"propertyName":null,"zoningCode":null,"zoningDistrict":null,"jurisdictionPrefix":null,"dorCode":null,"acreage":23.0,"centroid":[-86.276899,33.501088],"lastSale":{"date":"2016-10-26","price":null,"qualified":null},"tax":{"marketValue":76800.0,"assessedValue":7680.0,"taxableValue":null,"taxes":226.17},"mailingAddress":{"line1":"2631 ALTA VISTA DRIVE","line2":null,"city":"BIRMINGHAM","state":"AL","zip":"35243"},"incomeTract":null,"incomeBlockGroup":null,"nearestRoad":null,"flu":null,"opportunityZone":null,"oz2Eligibility":null,"source":"al-talladega-parcels-01121","appraiserUrl":"https://talladegaproperty.countygovservices.com/Property/Property/Summary?ppin=10682&taxyear=2026","gisViewerUrl":"https://isv.kcsgis.com/al.talladega_revenue/"},"geometry":{"type":"Polygon","coordinates":[[[-86.274829,33.500299],[-86.274829,33.500318],[-86.274833,33.503232],[-86.276107,33.503269],[-86.276649,33.502694],[-86.276917,33.502159],[-86.27702,33.502014],[-86.277787,33.501228],[-86.277823,33.501101],[-86.277872,33.499852],[-86.278573,33.499802],[-86.279261,33.499855],[-86.27926,33.499783],[-86.274828,33.499621],[-86.274829,33.500299]]]}},{"type":"Feature","id":"01121:10649","properties":{"id":"01121:10649","parcelId":"10649","countyFips":"01121","countyName":"Talladega","state":"Alabama","marketIds":["Birmingham"],"situsAddress":"0","situsCity":null,"situsZip":null,"jurisdictionCode":null,"ownerName":"WILKINSON DAVID G","ownerName2":null,"propertyName":null,"zoningCode":null,"zoningDistrict":null,"jurisdictionPrefix":null,"dorCode":null,"acreage":14.0,"centroid":[-86.27447,33.504207],"lastSale":{"date":"2016-10-26","price":null,"qualified":null},"tax":{"marketValue":46900.0,"assessedValue":4700.0,"taxableValue":null,"taxes":136.3},"mailingAddress":{"line1":"2631 ALTA VISTA DRIVE","line2":null,"city":"BIRMINGHAM","state":"AL","zip":"35243"},"incomeTract":null,"incomeBlockGroup":null,"nearestRoad":null,"flu":null,"opportunityZone":null,"oz2Eligibility":null,"source":"al-talladega-parcels-01121","appraiserUrl":"https://talladegaproperty.countygovservices.com/Property/Property/Summary?ppin=10649&taxyear=2026","gisViewerUrl":"https://isv.kcsgis.com/al.talladega_revenue/"},"geometry":{"type":"MultiPolygon","coordinates":[[[[-86.272702,33.504367],[-86.272761,33.504424],[-86.272892,33.504528],[-86.273196,33.504719],[-86.273654,33.504959],[-86.275427,33.505696],[-86.275555,33.50429],[-86.275602,33.50404],[-86.275671,33.503851],[-86.275767,33.503671],[-86.275898,33.503493],[-86.276107,33.503269],[-86.273596,33.503195],[-86.273747,33.504401],[-86.272702,33.504367]]],[[[-86.275705,33.50619],[-86.275624,33.506084],[-86.27549,33.505945],[-86.275335,33.505857],[-86.275311,33.505893],[-86.273688,33.505223],[-86.273368,33.505073],[-86.272814,33.504757],[-86.272537,33.504545],[-86.272473,33.504905],[-86.27265,33.504897],[-86.272748,33.504912],[-86.272869,33.504975],[-86.273069,33.505042],[-86.273238,33.505155],[-86.273373,33.505336],[-86.273539,33.50544],[-86.273602,33.505463],[-86.273691,33.505466],[-86.27385,33.505431],[-86.273909,33.50544],[-86.274415,33.505611],[-86.274557,33.505695],[-86.274576,33.505739],[-86.274571,33.505801],[-86.274496,33.505878],[-86.27433,33.505934],[-86.273931,33.505922],[-86.27374,33.505866],[-86.273366,33.505862],[-86.273212,33.505798],[-86.272935,33.50564],[-86.272656,33.505532],[-86.272591,33.505484],[-86.272427,33.50523],[-86.272395,33.505459],[-86.272667,33.505817],[-86.275705,33.50619]]]]}},{"type":"Feature","id":"01121:10683","properties":{"id":"01121:10683","parcelId":"10683","countyFips":"01121","countyName":"Talladega","state":"Alabama","marketIds":["Birmingham"],"situsAddress":"0","situsCity":null,"situsZip":null,"jurisdictionCode":null,"ownerName":"JONES CONNIE C","ownerName2":null,"propertyName":null,"zoningCode":null,"zoningDistrict":null,"jurisdictionPrefix":null,"dorCode":null,"acreage":11.0,"centroid":[-86.272624,33.501012],"lastSale":{"date":null,"price":null,"qualified":null},"tax":{"marketValue":161900.0,"assessedValue":16200.0,"taxableValue":null,"taxes":426.45},"mailingAddress":{"line1":"3709 GRIFFITT BEND RD","line2":null,"city":"TALLADEGA","state":"AL","zip":"35160"},"incomeTract":null,"incomeBlockGroup":null,"nearestRoad":null,"flu":null,"opportunityZone":null,"oz2Eligibility":null,"source":"al-talladega-parcels-01121","appraiserUrl":"https://talladegaproperty.countygovservices.com/Property/Property/Summary?ppin=10683&taxyear=2026","gisViewerUrl":"https://isv.kcsgis.com/al.talladega_revenue/"},"geometry":{"type":"Polygon","coordinates":[[[-86.272557,33.501719],[-86.272558,33.501744],[-86.272564,33.501852],[-86.274831,33.501863],[-86.274829,33.500299],[-86.27211,33.500075],[-86.272193,33.50034],[-86.271245,33.500618],[-86.271509,33.501005],[-86.272239,33.500925],[-86.272353,33.50089],[-86.272505,33.500813],[-86.272557,33.501719]]]}},{"type":"Feature","id":"01121:49658","properties":{"id":"01121:49658","parcelId":"49658","countyFips":"01121","countyName":"Talladega","state":"Alabama","marketIds":["Birmingham"],"situsAddress":"171 PARADISE POINT","situsCity":null,"situsZip":null,"jurisdictionCode":null,"ownerName":"MARTIN LARRY STEPHEN & APRIL FOSTER","ownerName2":null,"propertyName":null,"zoningCode":null,"zoningDistrict":null,"jurisdictionPrefix":null,"dorCode":null,"acreage":5.0,"centroid":[-86.271804,33.507033],"lastSale":{"date":"2005-12-30","price":null,"qualified":null},"tax":{"marketValue":281900.0,"assessedValue":28220.0,"taxableValue":null,"taxes":773.38},"mailingAddress":{"line1":"171 PARADISE POINT","line2":null,"city":"TALLADEGA","state":"AL","zip":"35160"},"incomeTract":null,"incomeBlockGroup":null,"nearestRoad":null,"flu":null,"opportunityZone":null,"oz2Eligibility":null,"source":"al-talladega-parcels-01121","appraiserUrl":"https://talladegaproperty.countygovservices.com/Property/Property/Summary?ppin=49658&taxyear=2026","gisViewerUrl":"https://isv.kcsgis.com/al.talladega_revenue/"},"geometry":{"type":"Polygon","coordinates":[[[-86.272758,33.507664],[-86.272682,33.507565],[-86.27222,33.507092],[-86.272079,33.506902],[-86.271588,33.506021],[-86.27069,33.506142],[-86.270831,33.507462],[-86.271582,33.507415],[-86.272758,33.507664]]]}},{"type":"Feature","id":"01121:10668","properties":{"id":"01121:10668","parcelId":"10668","countyFips":"01121","countyName":"Talladega","state":"Alabama","marketIds":["Birmingham"],"situsAddress":"4500 GRIFFITT BEND ROAD","situsCity":null,"situsZip":null,"jurisdictionCode":null,"ownerName":"PENNINGTON ADAM S & CYNTHIA A","ownerName2":null,"propertyName":null,"zoningCode":null,"zoningDistrict":null,"jurisdictionPrefix":null,"dorCode":null,"acreage":16.0,"centroid":[-86.27542,33.50872],"lastSale":{"date":null,"price":null,"qualified":null},"tax":{"marketValue":60012.0,"assessedValue":6020.0,"taxableValue":null,"taxes":129.58},"mailingAddress":{"line1":"4500 GRIFFITT BEND RD","line2":null,"city":"TALLADEGA","state":"AL","zip":"35160"},"incomeTract":null,"incomeBlockGroup":null,"nearestRoad":null,"flu":null,"opportunityZone":null,"oz2Eligibility":null,"source":"al-talladega-parcels-01121","appraiserUrl":"https://talladegaproperty.countygovservices.com/Property/Property/Summary?ppin=10668&taxyear=2026","gisViewerUrl":"https://isv.kcsgis.com/al.talladega_revenue/"},"geometry":{"type":"Polygon","coordinates":[[[-86.273077,33.507676],[-86.273269,33.508678],[-86.273521,33.509601],[-86.273734,33.509535],[-86.276072,33.509192],[-86.276384,33.509125],[-86.276585,33.509022],[-86.276887,33.508761],[-86.27693,33.508707],[-86.276949,33.508611],[-86.276209,33.507015],[-86.273077,33.507676]]]}},{"type":"Feature","id":"01121:10643","properties":{"id":"01121:10643","parcelId":"10643","countyFips":"01121","countyName":"Talladega","state":"Alabama","marketIds":["Birmingham"],"situsAddress":"4335 GRIFFITT BEND ROAD","situsCity":null,"situsZip":null,"jurisdictionCode":null,"ownerName":"WELLS JOE R & SUE PARSONS","ownerName2":null,"propertyName":null,"zoningCode":null,"zoningDistrict":null,"jurisdictionPrefix":null,"dorCode":null,"acreage":13.3,"centroid":[-86.277252,33.506295],"lastSale":{"date":"2003-03-27","price":null,"qualified":null},"tax":{"marketValue":169415.0,"assessedValue":16940.0,"taxableValue":null,"taxes":null},"mailingAddress":{"line1":"4335 GRIFFITT BEND RD","line2":null,"city":"TALLADEGA","state":"AL","zip":"35160"},"incomeTract":null,"incomeBlockGroup":null,"nearestRoad":null,"flu":null,"opportunityZone":null,"oz2Eligibility":null,"source":"al-talladega-parcels-01121","appraiserUrl":"https://talladegaproperty.countygovservices.com/Property/Property/Summary?ppin=10643&taxyear=2026","gisViewerUrl":"https://isv.kcsgis.com/al.talladega_revenue/"},"geometry":{"type":"Polygon","coordinates":[[[-86.276817,33.507966],[-86.276802,33.507971],[-86.276912,33.508199],[-86.27734,33.508124],[-86.277363,33.507988],[-86.277425,33.50785],[-86.277596,33.507528],[-86.277651,33.507477],[-86.277751,33.507461],[-86.277813,33.507423],[-86.277987,33.507375],[-86.278134,33.507259],[-86.278558,33.507054],[-86.279121,33.506923],[-86.279185,33.506838],[-86.279198,33.506736],[-86.279173,33.506689],[-86.279061,33.506617],[-86.278908,33.506597],[-86.278599,33.506511],[-86.278474,33.506442],[-86.278304,33.506276],[-86.278242,33.506253],[-86.278123,33.506228],[-86.277923,33.506226],[-86.277608,33.50631],[-86.277459,33.506279],[-86.27734,33.506213],[-86.27724,33.506098],[-86.277198,33.505943],[-86.277206,33.505845],[-86.277364,33.505562],[-86.277367,33.505527],[-86.277277,33.50544],[-86.277083,33.505373],[-86.276839,33.505343],[-86.27663,33.505448],[-86.276572,33.505449],[-86.276173,33.505292],[-86.276133,33.505216],[-86.276265,33.504964],[-86.276489,33.504646],[-86.276194,33.504422],[-86.276087,33.5045],[-86.275916,33.504695],[-86.275763,33.504961],[-86.275654,33.505054],[-86.275578,33.505826],[-86.275669,33.505902],[-86.276465,33.505893],[-86.276487,33.505947],[-86.275717,33.505956],[-86.275909,33.506211],[-86.27626,33.506772],[-86.276447,33.507143],[-86.276817,33.507966]]]}},{"type":"Feature","id":"01121:10669","properties":{"id":"01121:10669","parcelId":"10669","countyFips":"01121","countyName":"Talladega","state":"Alabama","marketIds":["Birmingham"],"situsAddress":"0","situsCity":null,"situsZip":null,"jurisdictionCode":null,"ownerName":"WELLS JOE R & SUE PARSONS","ownerName2":null,"propertyName":null,"zoningCode":null,"zoningDistrict":null,"jurisdictionPrefix":null,"dorCode":null,"acreage":12.0,"centroid":[-86.274441,33.506752],"lastSale":{"date":null,"price":null,"qualified":null},"tax":{"marketValue":6384.0,"assessedValue":640.0,"taxableValue":null,"taxes":18.56},"mailingAddress":{"line1":"4335 GRIFFITT BEND RD","line2":null,"city":"TALLADEGA","state":"AL","zip":"35160"},"incomeTract":null,"incomeBlockGroup":null,"nearestRoad":null,"flu":null,"opportunityZone":null,"oz2Eligibility":null,"source":"al-talladega-parcels-01121","appraiserUrl":"https://talladegaproperty.countygovservices.com/Property/Property/Summary?ppin=10669&taxyear=2026","gisViewerUrl":"https://isv.kcsgis.com/al.talladega_revenue/"},"geometry":{"type":"Polygon","coordinates":[[[-86.272978,33.507163],[-86.273077,33.507676],[-86.276209,33.507015],[-86.27601,33.506654],[-86.275705,33.50619],[-86.272667,33.505817],[-86.272978,33.507163]]]}}]}