{"type":"FeatureCollection","name":"12009-8_4","features":[{"type":"Feature","id":"12009:28 360600  750","properties":{"id":"12009:28 360600  750","parcelId":"28 360600  750","countyFips":"12009","countyName":"Brevard","state":"Florida","marketIds":["Vero Beach","Melbourne"],"situsAddress":null,"situsCity":null,"situsZip":"0.0","jurisdictionCode":null,"ownerName":"ST JOHNS RIVER WATER MANAGEMEN","ownerName2":null,"propertyName":null,"zoningCode":null,"zoningDistrict":null,"jurisdictionPrefix":null,"dorCode":"080","acreage":149.0,"centroid":[-80.755701,28.074955],"lastSale":{"date":null,"price":null,"qualified":null},"tax":{"marketValue":74500.0,"assessedValue":74500.0,"taxableValue":0.0,"taxes":null},"mailingAddress":{"line1":"P O BOX 1429","line2":null,"city":"PALATKA","state":"FL","zip":"32177"},"incomeTract":null,"incomeBlockGroup":null,"nearestRoad":null,"flu":null,"opportunityZone":null,"oz2Eligibility":null,"source":"fl-doh-ehwaters-12009"},"geometry":{"type":"Polygon","coordinates":[[[-80.75673,28.07507],[-80.75673,28.07496],[-80.75276,28.07499],[-80.75287,28.07143],[-80.76064,28.07136],[-80.76042,28.07837],[-80.75269,28.07837],[-80.75277,28.07509],[-80.75673,28.07507]]]}},{"type":"Feature","id":"12009:27 351300    1","properties":{"id":"12009:27 351300    1","parcelId":"27 351300    1","countyFips":"12009","countyName":"Brevard","state":"Florida","marketIds":["Vero Beach","Melbourne"],"situsAddress":null,"situsCity":null,"situsZip":"0.0","jurisdictionCode":null,"ownerName":"ST JOHNS RIVER WATER MANAGEMEN","ownerName2":null,"propertyName":null,"zoningCode":null,"zoningDistrict":null,"jurisdictionPrefix":null,"dorCode":"080","acreage":148.0,"centroid":[-80.766418,28.137992],"lastSale":{"date":null,"price":null,"qualified":null},"tax":{"marketValue":74000.0,"assessedValue":74000.0,"taxableValue":0.0,"taxes":null},"mailingAddress":{"line1":"P O BOX 1429","line2":null,"city":"PALATKA","state":"FL","zip":"32177"},"incomeTract":null,"incomeBlockGroup":null,"nearestRoad":null,"flu":null,"opportunityZone":null,"oz2Eligibility":null,"source":"fl-doh-ehwaters-12009"},"geometry":{"type":"Polygon","coordinates":[[[-80.76826,28.14533],[-80.76466,28.14535],[-80.76465,28.13064],[-80.7681,28.13065],[-80.76826,28.14533]]]}},{"type":"Feature","id":"12009:26 350500    3","properties":{"id":"12009:26 350500    3","parcelId":"26 350500    3","countyFips":"12009","countyName":"Brevard","state":"Florida","marketIds":["Vero Beach","Melbourne"],"situsAddress":null,"situsCity":null,"situsZip":"0.0","jurisdictionCode":null,"ownerName":"ST JOHNS RIVER WATER MANAGEMEN","ownerName2":null,"propertyName":null,"zoningCode":null,"zoningDistrict":null,"jurisdictionPrefix":null,"dorCode":"080","acreage":146.0,"centroid":[-80.841001,28.249883],"lastSale":{"date":null,"price":null,"qualified":null},"tax":{"marketValue":14600.0,"assessedValue":14600.0,"taxableValue":0.0,"taxes":null},"mailingAddress":{"line1":"P O BOX 1429","line2":null,"city":"PALATKA","state":"FL","zip":"32177"},"incomeTract":null,"incomeBlockGroup":null,"nearestRoad":null,"flu":null,"opportunityZone":null,"oz2Eligibility":null,"source":"fl-doh-ehwaters-12009"},"geometry":{"type":"Polygon","coordinates":[[[-80.83886,28.25875],[-80.83685,28.25874],[-80.8369,28.25174],[-80.83818,28.2511],[-80.83901,28.25053],[-80.84035,28.24892],[-80.84079,28.24774],[-80.84109,28.24765],[-80.84107,28.24782],[-80.84122,28.24777],[-80.84133,28.24735],[-80.84186,28.24649],[-80.84268,28.24557],[-80.84342,28.24517],[-80.84403,28.24467],[-80.84477,28.24467],[-80.84481,28.25217],[-80.84092,28.25216],[-80.84088,28.25877],[-80.83886,28.25875]]]}},{"type":"Feature","id":"12009:27 353601  500","properties":{"id":"12009:27 353601  500","parcelId":"27 353601  500","countyFips":"12009","countyName":"Brevard","state":"Florida","marketIds":["Vero Beach","Melbourne"],"situsAddress":"8109 HIGHWAY 192","situsCity":"MELBOURNE","situsZip":"32904","jurisdictionCode":null,"ownerName":"DEER PARK RANCH LTD","ownerName2":null,"propertyName":null,"zoningCode":null,"zoningDistrict":null,"jurisdictionPrefix":null,"dorCode":"061","acreage":145.79,"centroid":[-80.774518,28.089734],"lastSale":{"date":null,"price":null,"qualified":null},"tax":{"marketValue":119770.0,"assessedValue":58920.0,"taxableValue":58920.0,"taxes":null},"mailingAddress":{"line1":"6254 KEMPFER RD","line2":null,"city":"ST CLOUD","state":"FL","zip":"34773"},"incomeTract":null,"incomeBlockGroup":null,"nearestRoad":null,"flu":null,"opportunityZone":null,"oz2Eligibility":null,"source":"fl-doh-ehwaters-12009"},"geometry":{"type":"Polygon","coordinates":[[[-80.76753,28.09186],[-80.77605,28.08659],[-80.78078,28.0865],[-80.78069,28.09186],[-80.76754,28.09186],[-80.76753,28.09186]]]}},{"type":"Feature","id":"12009:26 352700  500","properties":{"id":"12009:26 352700  500","parcelId":"26 352700  500","countyFips":"12009","countyName":"Brevard","state":"Florida","marketIds":["Vero Beach","Melbourne"],"situsAddress":null,"situsCity":null,"situsZip":"0.0","jurisdictionCode":null,"ownerName":"ST JOHNS RIVER WATER MANAGEMEN","ownerName2":null,"propertyName":null,"zoningCode":null,"zoningDistrict":null,"jurisdictionPrefix":null,"dorCode":"080","acreage":145.0,"centroid":[-80.810926,28.190614],"lastSale":{"date":null,"price":null,"qualified":null},"tax":{"marketValue":72500.0,"assessedValue":72500.0,"taxableValue":0.0,"taxes":null},"mailingAddress":{"line1":"P O BOX 1429","line2":null,"city":"PALATKA","state":"FL","zip":"32177"},"incomeTract":null,"incomeBlockGroup":null,"nearestRoad":null,"flu":null,"opportunityZone":null,"oz2Eligibility":null,"source":"fl-doh-ehwaters-12009"},"geometry":{"type":"Polygon","coordinates":[[[-80.82067,28.20073],[-80.80525,28.19073],[-80.80408,28.18971],[-80.80406,28.18586],[-80.82057,28.18604],[-80.82067,28.20073]]]}},{"type":"Feature","id":"12009:27 352400    1","properties":{"id":"12009:27 352400    1","parcelId":"27 352400    1","countyFips":"12009","countyName":"Brevard","state":"Florida","marketIds":["Vero Beach","Melbourne"],"situsAddress":null,"situsCity":null,"situsZip":"0.0","jurisdictionCode":null,"ownerName":"ST JOHNS RIVER WATER MANAGEMEN","ownerName2":null,"propertyName":null,"zoningCode":null,"zoningDistrict":null,"jurisdictionPrefix":null,"dorCode":"080","acreage":143.0,"centroid":[-80.766328,28.123292],"lastSale":{"date":null,"price":null,"qualified":null},"tax":{"marketValue":71500.0,"assessedValue":71500.0,"taxableValue":0.0,"taxes":null},"mailingAddress":{"line1":"P O BOX 1429","line2":null,"city":"PALATKA","state":"FL","zip":"32177"},"incomeTract":null,"incomeBlockGroup":null,"nearestRoad":null,"flu":null,"opportunityZone":null,"oz2Eligibility":null,"source":"fl-doh-ehwaters-12009"},"geometry":{"type":"Polygon","coordinates":[[[-80.7681,28.13065],[-80.76465,28.13064],[-80.76461,28.11594],[-80.76795,28.11594],[-80.7681,28.13065]]]}},{"type":"Feature","id":"12009:28 351000    1","properties":{"id":"12009:28 351000    1","parcelId":"28 351000    1","countyFips":"12009","countyName":"Brevard","state":"Florida","marketIds":["Vero Beach","Melbourne"],"situsAddress":null,"situsCity":null,"situsZip":"0.0","jurisdictionCode":null,"ownerName":"DEER PARK RANCH LTD","ownerName2":null,"propertyName":null,"zoningCode":null,"zoningDistrict":null,"jurisdictionPrefix":null,"dorCode":"061","acreage":135.72,"centroid":[-80.819275,28.070525],"lastSale":{"date":null,"price":null,"qualified":null},"tax":{"marketValue":91880.0,"assessedValue":8400.0,"taxableValue":8400.0,"taxes":null},"mailingAddress":{"line1":"6254 KEMPFER RD","line2":null,"city":"ST CLOUD","state":"FL","zip":"34773"},"incomeTract":null,"incomeBlockGroup":null,"nearestRoad":null,"flu":null,"opportunityZone":null,"oz2Eligibility":null,"source":"fl-doh-ehwaters-12009"},"geometry":{"type":"Polygon","coordinates":[[[-80.81912,28.07026],[-80.81944,28.07025],[-80.81944,28.07079],[-80.8191,28.0708],[-80.81912,28.07026]]]}},{"type":"Feature","id":"12009:28 360500  253","properties":{"id":"12009:28 360500  253","parcelId":"28 360500  253","countyFips":"12009","countyName":"Brevard","state":"Florida","marketIds":["Vero Beach","Melbourne"],"situsAddress":null,"situsCity":null,"situsZip":"0.0","jurisdictionCode":null,"ownerName":"ST JOHNS RIVER WATER MANAGEMEN","ownerName2":null,"propertyName":null,"zoningCode":null,"zoningDistrict":null,"jurisdictionPrefix":null,"dorCode":"080","acreage":131.9,"centroid":[-80.751983,28.08298],"lastSale":{"date":null,"price":null,"qualified":null},"tax":{"marketValue":65950.0,"assessedValue":65950.0,"taxableValue":0.0,"taxes":null},"mailingAddress":{"line1":"P O BOX 1429","line2":null,"city":"PALATKA","state":"FL","zip":"32177"},"incomeTract":null,"incomeBlockGroup":null,"nearestRoad":null,"flu":null,"opportunityZone":null,"oz2Eligibility":null,"source":"fl-doh-ehwaters-12009"},"geometry":{"type":"Polygon","coordinates":[[[-80.75241,28.08414],[-80.75107,28.08328],[-80.75247,28.08152],[-80.75241,28.08414]]]}},{"type":"Feature","id":"12009:26 351800    1","properties":{"id":"12009:26 351800    1","parcelId":"26 351800    1","countyFips":"12009","countyName":"Brevard","state":"Florida","marketIds":["Vero Beach","Melbourne"],"situsAddress":null,"situsCity":null,"situsZip":"0.0","jurisdictionCode":null,"ownerName":"ST JOHNS RIVER WATER MANAGEMEN","ownerName2":null,"propertyName":null,"zoningCode":null,"zoningDistrict":null,"jurisdictionPrefix":null,"dorCode":"080","acreage":114.0,"centroid":[-80.85626,28.223909],"lastSale":{"date":null,"price":null,"qualified":null},"tax":{"marketValue":57000.0,"assessedValue":57000.0,"taxableValue":0.0,"taxes":null},"mailingAddress":{"line1":"P O BOX 1429","line2":null,"city":"PALATKA","state":"FL","zip":"32177"},"incomeTract":null,"incomeBlockGroup":null,"nearestRoad":null,"flu":null,"opportunityZone":null,"oz2Eligibility":null,"source":"fl-doh-ehwaters-12009"},"geometry":{"type":"Polygon","coordinates":[[[-80.85766,28.23051],[-80.85306,28.23043],[-80.85333,28.21539],[-80.85589,28.21727],[-80.85791,28.22051],[-80.8579,28.22162],[-80.85718,28.22274],[-80.85687,28.22293],[-80.85682,28.22208],[-80.85649,28.22222],[-80.85511,28.22662],[-80.85551,28.228],[-80.85765,28.2305],[-80.85766,28.23051]]]}},{"type":"Feature","id":"12009:26 361800    4","properties":{"id":"12009:26 361800    4","parcelId":"26 361800    4","countyFips":"12009","countyName":"Brevard","state":"Florida","marketIds":["Vero Beach","Melbourne"],"situsAddress":null,"situsCity":null,"situsZip":"0.0","jurisdictionCode":null,"ownerName":"BREVARD COUNTY","ownerName2":null,"propertyName":null,"zoningCode":null,"zoningDistrict":null,"jurisdictionPrefix":null,"dorCode":"080","acreage":110.5,"centroid":[-80.759383,28.221833],"lastSale":{"date":null,"price":null,"qualified":null},"tax":{"marketValue":198900.0,"assessedValue":198900.0,"taxableValue":0.0,"taxes":null},"mailingAddress":{"line1":"700 PARK AVE S","line2":null,"city":"TITUSVILLE","state":"FL","zip":"32780"},"incomeTract":null,"incomeBlockGroup":null,"nearestRoad":null,"flu":null,"opportunityZone":null,"oz2Eligibility":null,"source":"fl-doh-ehwaters-12009"},"geometry":{"type":"Polygon","coordinates":[[[-80.75479,28.21904],[-80.76644,28.21899],[-80.76645,28.22145],[-80.76109,28.22148],[-80.75958,28.22289],[-80.75708,28.2241],[-80.75482,28.22453],[-80.75481,28.22218],[-80.75479,28.21904]]]}},{"type":"Feature","id":"12009:27 353201    1","properties":{"id":"12009:27 353201    1","parcelId":"27 353201    1","countyFips":"12009","countyName":"Brevard","state":"Florida","marketIds":["Vero Beach","Melbourne"],"situsAddress":"251 CARACARA LN","situsCity":"MELBOURNE","situsZip":"32935","jurisdictionCode":null,"ownerName":"FARMLAND RESERVE INC","ownerName2":null,"propertyName":null,"zoningCode":null,"zoningDistrict":null,"jurisdictionPrefix":null,"dorCode":"061","acreage":109.37,"centroid":[-80.83297,28.09579],"lastSale":{"date":null,"price":null,"qualified":null},"tax":{"marketValue":54690.0,"assessedValue":53040.0,"taxableValue":53040.0,"taxes":null},"mailingAddress":{"line1":"50 E NORTH TEMPLE ST","line2":null,"city":"SALT LAKE CITY","state":"UT","zip":"84150"},"incomeTract":null,"incomeBlockGroup":null,"nearestRoad":null,"flu":null,"opportunityZone":null,"oz2Eligibility":null,"source":"fl-doh-ehwaters-12009"},"geometry":{"type":"Polygon","coordinates":[[[-80.83527,28.09924],[-80.83014,28.09925],[-80.83036,28.09235],[-80.83611,28.09232],[-80.83527,28.09924]]]}},{"type":"Feature","id":"12009:26 352900    2","properties":{"id":"12009:26 352900    2","parcelId":"26 352900    2","countyFips":"12009","countyName":"Brevard","state":"Florida","marketIds":["Vero Beach","Melbourne"],"situsAddress":null,"situsCity":null,"situsZip":"0.0","jurisdictionCode":null,"ownerName":"FARMLAND RESERVE INC","ownerName2":null,"propertyName":null,"zoningCode":null,"zoningDistrict":null,"jurisdictionPrefix":null,"dorCode":"061","acreage":104.0,"centroid":[-80.851497,28.18969],"lastSale":{"date":null,"price":null,"qualified":null},"tax":{"marketValue":52000.0,"assessedValue":39130.0,"taxableValue":39130.0,"taxes":null},"mailingAddress":{"line1":"50 E NORTH TEMPLE ST","line2":null,"city":"SALT LAKE CITY","state":"UT","zip":"84150"},"incomeTract":null,"incomeBlockGroup":null,"nearestRoad":null,"flu":null,"opportunityZone":null,"oz2Eligibility":null,"source":"fl-doh-ehwaters-12009"},"geometry":{"type":"Polygon","coordinates":[[[-80.8536,28.1861],[-80.85367,28.19688],[-80.84722,28.18609],[-80.8536,28.1861]]]}},{"type":"Feature","id":"12009:26 351900    3","properties":{"id":"12009:26 351900    3","parcelId":"26 351900    3","countyFips":"12009","countyName":"Brevard","state":"Florida","marketIds":["Vero Beach","Melbourne"],"situsAddress":null,"situsCity":null,"situsZip":"0.0","jurisdictionCode":null,"ownerName":"ST JOHNS RIVER WATER MANAGEMEN","ownerName2":null,"propertyName":null,"zoningCode":null,"zoningDistrict":null,"jurisdictionPrefix":null,"dorCode":"080","acreage":101.0,"centroid":[-80.856634,28.212966],"lastSale":{"date":null,"price":null,"qualified":null},"tax":{"marketValue":50500.0,"assessedValue":50500.0,"taxableValue":0.0,"taxes":null},"mailingAddress":{"line1":"P O BOX 1429","line2":null,"city":"PALATKA","state":"FL","zip":"32177"},"incomeTract":null,"incomeBlockGroup":null,"nearestRoad":null,"flu":null,"opportunityZone":null,"oz2Eligibility":null,"source":"fl-doh-ehwaters-12009"},"geometry":{"type":"Polygon","coordinates":[[[-80.8557,28.21535],[-80.8541,28.21378],[-80.85412,28.21336],[-80.8534,28.21337],[-80.8536,28.20461],[-80.86276,28.21497],[-80.86276,28.21532],[-80.8557,28.21535]]]}},{"type":"Feature","id":"12009:26 360700    2","properties":{"id":"12009:26 360700    2","parcelId":"26 360700    2","countyFips":"12009","countyName":"Brevard","state":"Florida","marketIds":["Vero Beach","Melbourne"],"situsAddress":null,"situsCity":null,"situsZip":"0.0","jurisdictionCode":null,"ownerName":"BREVARD COUNTY","ownerName2":null,"propertyName":null,"zoningCode":null,"zoningDistrict":null,"jurisdictionPrefix":null,"dorCode":"080","acreage":95.33,"centroid":[-80.756851,28.234329],"lastSale":{"date":null,"price":null,"qualified":null},"tax":{"marketValue":10.0,"assessedValue":10.0,"taxableValue":0.0,"taxes":null},"mailingAddress":{"line1":"700 PARK AVE S","line2":null,"city":"TITUSVILLE","state":"FL","zip":"32780"},"incomeTract":null,"incomeBlockGroup":null,"nearestRoad":null,"flu":null,"opportunityZone":null,"oz2Eligibility":null,"source":"fl-doh-ehwaters-12009"},"geometry":{"type":"Polygon","coordinates":[[[-80.75917,28.23954],[-80.75491,28.23945],[-80.75486,28.2304],[-80.75532,28.23041],[-80.75533,28.2313],[-80.75918,28.23138],[-80.75919,28.23782],[-80.75917,28.23954]]]}},{"type":"Feature","id":"12009:27 352900  750","properties":{"id":"12009:27 352900  750","parcelId":"27 352900  750","countyFips":"12009","countyName":"Brevard","state":"Florida","marketIds":["Vero Beach","Melbourne"],"situsAddress":null,"situsCity":null,"situsZip":"0.0","jurisdictionCode":null,"ownerName":"FARMLAND RESERVE INC","ownerName2":null,"propertyName":null,"zoningCode":null,"zoningDistrict":null,"jurisdictionPrefix":null,"dorCode":"061","acreage":93.3,"centroid":[-80.832453,28.102953],"lastSale":{"date":null,"price":null,"qualified":null},"tax":{"marketValue":46650.0,"assessedValue":45250.0,"taxableValue":45250.0,"taxes":null},"mailingAddress":{"line1":"50 E NORTH TEMPLE ST","line2":null,"city":"SALT LAKE CITY","state":"UT","zip":"84150"},"incomeTract":null,"incomeBlockGroup":null,"nearestRoad":null,"flu":null,"opportunityZone":null,"oz2Eligibility":null,"source":"fl-doh-ehwaters-12009"},"geometry":{"type":"Polygon","coordinates":[[[-80.83014,28.09925],[-80.83527,28.09924],[-80.83439,28.10664],[-80.83001,28.10668],[-80.83014,28.09925]]]}},{"type":"Feature","id":"12009:28 352100    2","properties":{"id":"12009:28 352100    2","parcelId":"28 352100    2","countyFips":"12009","countyName":"Brevard","state":"Florida","marketIds":["Vero Beach","Melbourne"],"situsAddress":null,"situsCity":null,"situsZip":"0.0","jurisdictionCode":null,"ownerName":"ST JOHNS RIVER WATER MANAGEMEN","ownerName2":null,"propertyName":null,"zoningCode":null,"zoningDistrict":null,"jurisdictionPrefix":null,"dorCode":"080","acreage":91.87,"centroid":[-80.822338,28.038248],"lastSale":{"date":null,"price":null,"qualified":null},"tax":{"marketValue":18370.0,"assessedValue":18370.0,"taxableValue":0.0,"taxes":null},"mailingAddress":{"line1":"P O BOX 1429","line2":null,"city":"PALATKA","state":"FL","zip":"32177"},"incomeTract":null,"incomeBlockGroup":null,"nearestRoad":null,"flu":null,"opportunityZone":null,"oz2Eligibility":null,"source":"fl-doh-ehwaters-12009"},"geometry":{"type":"Polygon","coordinates":[[[-80.82502,28.04136],[-80.81954,28.04143],[-80.81972,28.03125],[-80.82507,28.03895],[-80.82502,28.04136]]]}},{"type":"Feature","id":"12009:26 362900  500","properties":{"id":"12009:26 362900  500","parcelId":"26 362900  500","countyFips":"12009","countyName":"Brevard","state":"Florida","marketIds":["Vero Beach","Melbourne"],"situsAddress":null,"situsCity":null,"situsZip":"0.0","jurisdictionCode":null,"ownerName":"ST JOHNS RIVER WATER MANAGEMEN","ownerName2":null,"propertyName":null,"zoningCode":null,"zoningDistrict":null,"jurisdictionPrefix":null,"dorCode":"080","acreage":90.5,"centroid":[-80.753112,28.186698],"lastSale":{"date":null,"price":null,"qualified":null},"tax":{"marketValue":45260.0,"assessedValue":45260.0,"taxableValue":0.0,"taxes":null},"mailingAddress":{"line1":"P O BOX 1429","line2":null,"city":"PALATKA","state":"FL","zip":"32177"},"incomeTract":null,"incomeBlockGroup":null,"nearestRoad":null,"flu":null,"opportunityZone":null,"oz2Eligibility":null,"source":"fl-doh-ehwaters-12009"},"geometry":{"type":"Polygon","coordinates":[[[-80.75442,28.18784],[-80.75399,28.18731],[-80.75254,28.1866],[-80.75022,28.18588],[-80.75439,28.18586],[-80.75442,28.18784]]]}},{"type":"Feature","id":"12009:28 351500  251","properties":{"id":"12009:28 351500  251","parcelId":"28 351500  251","countyFips":"12009","countyName":"Brevard","state":"Florida","marketIds":["Vero Beach","Melbourne"],"situsAddress":null,"situsCity":null,"situsZip":"0.0","jurisdictionCode":null,"ownerName":"ST JOHNS RIVER WATER MANAGEMEN","ownerName2":null,"propertyName":null,"zoningCode":null,"zoningDistrict":null,"jurisdictionPrefix":null,"dorCode":"080","acreage":80.0,"centroid":[-80.815188,28.05044],"lastSale":{"date":null,"price":null,"qualified":null},"tax":{"marketValue":16000.0,"assessedValue":16000.0,"taxableValue":0.0,"taxes":null},"mailingAddress":{"line1":"P O BOX 1429","line2":null,"city":"PALATKA","state":"FL","zip":"32177"},"incomeTract":null,"incomeBlockGroup":null,"nearestRoad":null,"flu":null,"opportunityZone":null,"oz2Eligibility":null,"source":"fl-doh-ehwaters-12009"},"geometry":{"type":"Polygon","coordinates":[[[-80.81935,28.05218],[-80.81097,28.05228],[-80.81102,28.04873],[-80.81941,28.04857],[-80.81935,28.05218]]]}},{"type":"Feature","id":"12009:26 353400    1","properties":{"id":"12009:26 353400    1","parcelId":"26 353400    1","countyFips":"12009","countyName":"Brevard","state":"Florida","marketIds":["Vero Beach","Melbourne"],"situsAddress":null,"situsCity":null,"situsZip":"0.0","jurisdictionCode":null,"ownerName":"ST JOHNS RIVER WATER MANAGEMEN","ownerName2":null,"propertyName":null,"zoningCode":null,"zoningDistrict":null,"jurisdictionPrefix":null,"dorCode":"080","acreage":80.0,"centroid":[-80.812285,28.180193],"lastSale":{"date":null,"price":null,"qualified":null},"tax":{"marketValue":40000.0,"assessedValue":40000.0,"taxableValue":0.0,"taxes":null},"mailingAddress":{"line1":"P O BOX 1429","line2":null,"city":"PALATKA","state":"FL","zip":"32177"},"incomeTract":null,"incomeBlockGroup":null,"nearestRoad":null,"flu":null,"opportunityZone":null,"oz2Eligibility":null,"source":"fl-doh-ehwaters-12009"},"geometry":{"type":"Polygon","coordinates":[[[-80.82057,28.18604],[-80.80406,28.18586],[-80.80399,28.17442],[-80.82052,28.17445],[-80.82057,28.18604]]]}},{"type":"Feature","id":"12009:26 353500  250","properties":{"id":"12009:26 353500  250","parcelId":"26 353500  250","countyFips":"12009","countyName":"Brevard","state":"Florida","marketIds":["Vero Beach","Melbourne"],"situsAddress":null,"situsCity":null,"situsZip":"0.0","jurisdictionCode":null,"ownerName":"ST JOHNS RIVER WATER MANAGEMEN","ownerName2":null,"propertyName":null,"zoningCode":null,"zoningDistrict":null,"jurisdictionPrefix":null,"dorCode":"080","acreage":61.47,"centroid":[-80.7953,28.183246],"lastSale":{"date":null,"price":null,"qualified":null},"tax":{"marketValue":30740.0,"assessedValue":30740.0,"taxableValue":0.0,"taxes":null},"mailingAddress":{"line1":"P O BOX 1429","line2":null,"city":"PALATKA","state":"FL","zip":"32177"},"incomeTract":null,"incomeBlockGroup":null,"nearestRoad":null,"flu":null,"opportunityZone":null,"oz2Eligibility":null,"source":"fl-doh-ehwaters-12009"},"geometry":{"type":"Polygon","coordinates":[[[-80.80406,28.18586],[-80.79357,28.18575],[-80.78743,28.18421],[-80.78741,28.18022],[-80.80403,28.18019],[-80.80406,28.18586]]]}},{"type":"Feature","id":"12009:27 352501    1","properties":{"id":"12009:27 352501    1","parcelId":"27 352501    1","countyFips":"12009","countyName":"Brevard","state":"Florida","marketIds":["Vero Beach","Melbourne"],"situsAddress":null,"situsCity":null,"situsZip":"0.0","jurisdictionCode":null,"ownerName":"ST JOHNS RIVER WATER MANAGEMEN","ownerName2":null,"propertyName":null,"zoningCode":null,"zoningDistrict":null,"jurisdictionPrefix":null,"dorCode":"080","acreage":61.0,"centroid":[-80.766238,28.107775],"lastSale":{"date":null,"price":null,"qualified":null},"tax":{"marketValue":30500.0,"assessedValue":30500.0,"taxableValue":0.0,"taxes":null},"mailingAddress":{"line1":"P O BOX 1429","line2":null,"city":"PALATKA","state":"FL","zip":"32177"},"incomeTract":null,"incomeBlockGroup":null,"nearestRoad":null,"flu":null,"opportunityZone":null,"oz2Eligibility":null,"source":"fl-doh-ehwaters-12009"},"geometry":{"type":"Polygon","coordinates":[[[-80.76461,28.11594],[-80.76458,28.09962],[-80.76781,28.0996],[-80.76795,28.11594],[-80.76461,28.11594]]]}},{"type":"Feature","id":"12009:27 353601    1","properties":{"id":"12009:27 353601    1","parcelId":"27 353601    1","countyFips":"12009","countyName":"Brevard","state":"Florida","marketIds":["Vero Beach","Melbourne"],"situsAddress":null,"situsCity":null,"situsZip":"0.0","jurisdictionCode":null,"ownerName":"ST JOHNS RIVER WATER MANAGEMEN","ownerName2":null,"propertyName":null,"zoningCode":null,"zoningDistrict":null,"jurisdictionPrefix":null,"dorCode":"080","acreage":61.0,"centroid":[-80.765854,28.095404],"lastSale":{"date":null,"price":null,"qualified":null},"tax":{"marketValue":30500.0,"assessedValue":30500.0,"taxableValue":0.0,"taxes":null},"mailingAddress":{"line1":"P O BOX 1429","line2":null,"city":"PALATKA","state":"FL","zip":"32177"},"incomeTract":null,"incomeBlockGroup":null,"nearestRoad":null,"flu":null,"opportunityZone":null,"oz2Eligibility":null,"source":"fl-doh-ehwaters-12009"},"geometry":{"type":"Polygon","coordinates":[[[-80.76455,28.09302],[-80.76456,28.09234],[-80.76777,28.09244],[-80.76781,28.0996],[-80.76458,28.09962],[-80.76455,28.09302]]]}},{"type":"Feature","id":"12009:26 352800    1","properties":{"id":"12009:26 352800    1","parcelId":"26 352800    1","countyFips":"12009","countyName":"Brevard","state":"Florida","marketIds":["Vero Beach","Melbourne"],"situsAddress":null,"situsCity":null,"situsZip":"0.0","jurisdictionCode":null,"ownerName":"ST JOHNS RIVER WATER MANAGEMEN","ownerName2":null,"propertyName":null,"zoningCode":null,"zoningDistrict":null,"jurisdictionPrefix":null,"dorCode":"080","acreage":60.0,"centroid":[-80.824216,28.199206],"lastSale":{"date":null,"price":null,"qualified":null},"tax":{"marketValue":30000.0,"assessedValue":30000.0,"taxableValue":0.0,"taxes":null},"mailingAddress":{"line1":"P O BOX 1429","line2":null,"city":"PALATKA","state":"FL","zip":"32177"},"incomeTract":null,"incomeBlockGroup":null,"nearestRoad":null,"flu":null,"opportunityZone":null,"oz2Eligibility":null,"source":"fl-doh-ehwaters-12009"},"geometry":{"type":"Polygon","coordinates":[[[-80.82907,28.20068],[-80.82066,28.20071],[-80.82064,28.19696],[-80.82168,28.1976],[-80.82113,28.19824],[-80.82727,28.19957],[-80.82906,28.20068],[-80.82907,28.20068]]]}},{"type":"Feature","id":"12009:27 350401    1","properties":{"id":"12009:27 350401    1","parcelId":"27 350401    1","countyFips":"12009","countyName":"Brevard","state":"Florida","marketIds":["Vero Beach","Melbourne"],"situsAddress":null,"situsCity":null,"situsZip":"0.0","jurisdictionCode":null,"ownerName":"ST JOHNS RIVER WATER MANAGEMEN","ownerName2":null,"propertyName":null,"zoningCode":null,"zoningDistrict":null,"jurisdictionPrefix":null,"dorCode":"080","acreage":57.0,"centroid":[-80.818263,28.16847],"lastSale":{"date":null,"price":null,"qualified":null},"tax":{"marketValue":28500.0,"assessedValue":28500.0,"taxableValue":0.0,"taxes":null},"mailingAddress":{"line1":"P O BOX 1429","line2":null,"city":"PALATKA","state":"FL","zip":"32177"},"incomeTract":null,"incomeBlockGroup":null,"nearestRoad":null,"flu":null,"opportunityZone":null,"oz2Eligibility":null,"source":"fl-doh-ehwaters-12009"},"geometry":{"type":"Polygon","coordinates":[[[-80.82938,28.17453],[-80.81305,28.17451],[-80.8131,28.16215],[-80.81359,28.1624],[-80.81469,28.1648],[-80.81467,28.1688],[-80.82936,28.1721],[-80.82938,28.17453]]]}},{"type":"Feature","id":"12009:26 352100    2","properties":{"id":"12009:26 352100    2","parcelId":"26 352100    2","countyFips":"12009","countyName":"Brevard","state":"Florida","marketIds":["Vero Beach","Melbourne"],"situsAddress":null,"situsCity":null,"situsZip":"0.0","jurisdictionCode":null,"ownerName":"ST JOHNS RIVER WATER MANAGEMEN","ownerName2":null,"propertyName":null,"zoningCode":null,"zoningDistrict":null,"jurisdictionPrefix":null,"dorCode":"080","acreage":53.0,"centroid":[-80.833955,28.203793],"lastSale":{"date":null,"price":null,"qualified":null},"tax":{"marketValue":26500.0,"assessedValue":26500.0,"taxableValue":0.0,"taxes":null},"mailingAddress":{"line1":"P O BOX 1429","line2":null,"city":"PALATKA","state":"FL","zip":"32177"},"incomeTract":null,"incomeBlockGroup":null,"nearestRoad":null,"flu":null,"opportunityZone":null,"oz2Eligibility":null,"source":"fl-doh-ehwaters-12009"},"geometry":{"type":"Polygon","coordinates":[[[-80.83685,28.20758],[-80.8322,28.20506],[-80.83095,28.2033],[-80.82997,28.20068],[-80.8369,28.20065],[-80.83686,28.20549],[-80.83685,28.20758]]]}},{"type":"Feature","id":"12009:28 350100  252","properties":{"id":"12009:28 350100  252","parcelId":"28 350100  252","countyFips":"12009","countyName":"Brevard","state":"Florida","marketIds":["Vero Beach","Melbourne"],"situsAddress":null,"situsCity":null,"situsZip":"0.0","jurisdictionCode":null,"ownerName":"DEER PARK RANCH LTD","ownerName2":null,"propertyName":null,"zoningCode":null,"zoningDistrict":null,"jurisdictionPrefix":null,"dorCode":"061","acreage":52.12,"centroid":[-80.784683,28.083415],"lastSale":{"date":null,"price":null,"qualified":null},"tax":{"marketValue":10420.0,"assessedValue":3650.0,"taxableValue":3650.0,"taxes":null},"mailingAddress":{"line1":"6254 KEMPFER RD","line2":null,"city":"ST CLOUD","state":"FL","zip":"34773"},"incomeTract":null,"incomeBlockGroup":null,"nearestRoad":null,"flu":null,"opportunityZone":null,"oz2Eligibility":null,"source":"fl-doh-ehwaters-12009"},"geometry":{"type":"Polygon","coordinates":[[[-80.78334,28.08243],[-80.78599,28.0813],[-80.78602,28.08496],[-80.78338,28.08497],[-80.78334,28.08243]]]}},{"type":"Feature","id":"12009:27 350301  500","properties":{"id":"12009:27 350301  500","parcelId":"27 350301  500","countyFips":"12009","countyName":"Brevard","state":"Florida","marketIds":["Vero Beach","Melbourne"],"situsAddress":null,"situsCity":null,"situsZip":"0.0","jurisdictionCode":null,"ownerName":"FARMLAND RESERVE INC","ownerName2":null,"propertyName":null,"zoningCode":null,"zoningDistrict":null,"jurisdictionPrefix":null,"dorCode":"061","acreage":52.0,"centroid":[-80.800578,28.158972],"lastSale":{"date":null,"price":null,"qualified":null},"tax":{"marketValue":26000.0,"assessedValue":14040.0,"taxableValue":14040.0,"taxes":null},"mailingAddress":{"line1":"50 E NORTH TEMPLE ST","line2":null,"city":"SALT LAKE CITY","state":"UT","zip":"84150"},"incomeTract":null,"incomeBlockGroup":null,"nearestRoad":null,"flu":null,"opportunityZone":null,"oz2Eligibility":null,"source":"fl-doh-ehwaters-12009"},"geometry":{"type":"Polygon","coordinates":[[[-80.79732,28.16035],[-80.79741,28.15783],[-80.80518,28.15779],[-80.80567,28.15829],[-80.79731,28.1606],[-80.79732,28.16035]]]}},{"type":"Feature","id":"12009:26 352000    1","properties":{"id":"12009:26 352000    1","parcelId":"26 352000    1","countyFips":"12009","countyName":"Brevard","state":"Florida","marketIds":["Vero Beach","Melbourne"],"situsAddress":null,"situsCity":null,"situsZip":"0.0","jurisdictionCode":null,"ownerName":"ST JOHNS RIVER WATER MANAGEMEN","ownerName2":null,"propertyName":null,"zoningCode":null,"zoningDistrict":null,"jurisdictionPrefix":null,"dorCode":"080","acreage":50.0,"centroid":[-80.84584,28.211834],"lastSale":{"date":null,"price":null,"qualified":null},"tax":{"marketValue":25000.0,"assessedValue":25000.0,"taxableValue":0.0,"taxes":null},"mailingAddress":{"line1":"P O BOX 1429","line2":null,"city":"PALATKA","state":"FL","zip":"32177"},"incomeTract":null,"incomeBlockGroup":null,"nearestRoad":null,"flu":null,"opportunityZone":null,"oz2Eligibility":null,"source":"fl-doh-ehwaters-12009"},"geometry":{"type":"Polygon","coordinates":[[[-80.85336,28.21537],[-80.83679,28.21552],[-80.83685,28.20784],[-80.84148,28.20864],[-80.8425,28.20977],[-80.84224,28.21038],[-80.84288,28.21012],[-80.84595,28.21075],[-80.84798,28.21051],[-80.84907,28.21166],[-80.84896,28.21239],[-80.85027,28.21368],[-80.85006,28.21405],[-80.85337,28.215],[-80.85336,28.21537]]]}},{"type":"Feature","id":"12009:26 360500  500","properties":{"id":"12009:26 360500  500","parcelId":"26 360500  500","countyFips":"12009","countyName":"Brevard","state":"Florida","marketIds":["Vero Beach","Melbourne"],"situsAddress":null,"situsCity":null,"situsZip":"0.0","jurisdictionCode":null,"ownerName":"LENNAR HOMES LLC","ownerName2":null,"propertyName":null,"zoningCode":null,"zoningDistrict":null,"jurisdictionPrefix":null,"dorCode":"099","acreage":38.96,"centroid":[-80.751168,28.245415],"lastSale":{"date":null,"price":null,"qualified":null},"tax":{"marketValue":1051920.0,"assessedValue":1051920.0,"taxableValue":1051920.0,"taxes":null},"mailingAddress":{"line1":"15550 LIGHTWAVE DR #210","line2":null,"city":"CLEARWATER","state":"FL","zip":"33760"},"incomeTract":null,"incomeBlockGroup":null,"nearestRoad":null,"flu":null,"opportunityZone":null,"oz2Eligibility":null,"source":"fl-doh-ehwaters-12009"},"geometry":{"type":"Polygon","coordinates":[[[-80.75092,28.24405],[-80.75421,28.24402],[-80.75423,28.24735],[-80.7496,28.2474],[-80.74959,28.24613],[-80.74974,28.24549],[-80.75015,28.2448],[-80.7509,28.24408],[-80.75092,28.24405]]]}},{"type":"Feature","id":"12009:26 361800    2","properties":{"id":"12009:26 361800    2","parcelId":"26 361800    2","countyFips":"12009","countyName":"Brevard","state":"Florida","marketIds":["Vero Beach","Melbourne"],"situsAddress":"10001 WICKHAM RD N","situsCity":"MELBOURNE","situsZip":"32940","jurisdictionCode":null,"ownerName":"BREVARD COUNTY","ownerName2":null,"propertyName":null,"zoningCode":null,"zoningDistrict":null,"jurisdictionPrefix":null,"dorCode":"086","acreage":38.68,"centroid":[-80.756805,28.227667],"lastSale":{"date":null,"price":null,"qualified":null},"tax":{"marketValue":13145580.0,"assessedValue":13145580.0,"taxableValue":0.0,"taxes":null},"mailingAddress":{"line1":"700 PARK AVE S","line2":null,"city":"TITUSVILLE","state":"FL","zip":"32780"},"incomeTract":null,"incomeBlockGroup":null,"nearestRoad":null,"flu":null,"opportunityZone":null,"oz2Eligibility":null,"source":"fl-doh-ehwaters-12009"},"geometry":{"type":"Polygon","coordinates":[[[-80.75485,28.22944],[-80.75483,28.22581],[-80.75875,28.22589],[-80.75879,28.22953],[-80.75485,28.22944]]]}},{"type":"Feature","id":"12009:28 350101  251","properties":{"id":"12009:28 350101  251","parcelId":"28 350101  251","countyFips":"12009","countyName":"Brevard","state":"Florida","marketIds":["Vero Beach","Melbourne"],"situsAddress":null,"situsCity":null,"situsZip":"0.0","jurisdictionCode":null,"ownerName":"ST JOHNS RIVER WATER MANAGEMEN","ownerName2":null,"propertyName":null,"zoningCode":null,"zoningDistrict":null,"jurisdictionPrefix":null,"dorCode":"080","acreage":38.67,"centroid":[-80.784652,28.080405],"lastSale":{"date":null,"price":null,"qualified":null},"tax":{"marketValue":7730.0,"assessedValue":7730.0,"taxableValue":0.0,"taxes":null},"mailingAddress":{"line1":"P O BOX 1429","line2":null,"city":"PALATKA","state":"FL","zip":"32177"},"incomeTract":null,"incomeBlockGroup":null,"nearestRoad":null,"flu":null,"opportunityZone":null,"oz2Eligibility":null,"source":"fl-doh-ehwaters-12009"},"geometry":{"type":"Polygon","coordinates":[[[-80.78334,28.08243],[-80.7833,28.07899],[-80.78598,28.0789],[-80.78599,28.0813],[-80.78334,28.08243]]]}},{"type":"Feature","id":"12009:27 350501    1","properties":{"id":"12009:27 350501    1","parcelId":"27 350501    1","countyFips":"12009","countyName":"Brevard","state":"Florida","marketIds":["Vero Beach","Melbourne"],"situsAddress":null,"situsCity":null,"situsZip":"0.0","jurisdictionCode":null,"ownerName":"ST JOHNS RIVER WATER MANAGEMEN","ownerName2":null,"propertyName":null,"zoningCode":null,"zoningDistrict":null,"jurisdictionPrefix":null,"dorCode":"080","acreage":37.0,"centroid":[-80.832883,28.173697],"lastSale":{"date":null,"price":null,"qualified":null},"tax":{"marketValue":18500.0,"assessedValue":18500.0,"taxableValue":0.0,"taxes":null},"mailingAddress":{"line1":"P O BOX 1429","line2":null,"city":"PALATKA","state":"FL","zip":"32177"},"incomeTract":null,"incomeBlockGroup":null,"nearestRoad":null,"flu":null,"opportunityZone":null,"oz2Eligibility":null,"source":"fl-doh-ehwaters-12009"},"geometry":{"type":"Polygon","coordinates":[[[-80.83991,28.17446],[-80.82938,28.17453],[-80.82936,28.1721],[-80.83991,28.17446]]]}},{"type":"Feature","id":"12009:28 361900    2","properties":{"id":"12009:28 361900    2","parcelId":"28 361900    2","countyFips":"12009","countyName":"Brevard","state":"Florida","marketIds":["Vero Beach","Melbourne"],"situsAddress":null,"situsCity":null,"situsZip":"0.0","jurisdictionCode":null,"ownerName":"MELBOURNE-TILLMAN WATER CONTRO","ownerName2":null,"propertyName":null,"zoningCode":null,"zoningDistrict":null,"jurisdictionPrefix":null,"dorCode":"080","acreage":36.36,"centroid":[-80.753448,28.035072],"lastSale":{"date":null,"price":null,"qualified":null},"tax":{"marketValue":7270.0,"assessedValue":7270.0,"taxableValue":0.0,"taxes":null},"mailingAddress":{"line1":"5900 MINTON RD NW","line2":null,"city":"PALM BAY","state":"FL","zip":"32907"},"incomeTract":null,"incomeBlockGroup":null,"nearestRoad":null,"flu":null,"opportunityZone":null,"oz2Eligibility":null,"source":"fl-doh-ehwaters-12009"},"geometry":{"type":"Polygon","coordinates":[[[-80.7531,28.03516],[-80.7532,28.03516],[-80.75334,28.02788],[-80.75416,28.02783],[-80.75391,28.0422],[-80.75298,28.0422],[-80.7531,28.03516]]]}},{"type":"Feature","id":"12009:28 363000    4","properties":{"id":"12009:28 363000    4","parcelId":"28 363000    4","countyFips":"12009","countyName":"Brevard","state":"Florida","marketIds":["Vero Beach","Melbourne"],"situsAddress":null,"situsCity":null,"situsZip":"0.0","jurisdictionCode":null,"ownerName":"MELBOURNE-TILLMAN WATER CONTRO","ownerName2":null,"propertyName":null,"zoningCode":null,"zoningDistrict":null,"jurisdictionPrefix":null,"dorCode":"080","acreage":36.36,"centroid":[-80.75434,28.017265],"lastSale":{"date":null,"price":null,"qualified":null},"tax":{"marketValue":7270.0,"assessedValue":7270.0,"taxableValue":0.0,"taxes":null},"mailingAddress":{"line1":"5900 MINTON RD NW","line2":null,"city":"PALM BAY","state":"FL","zip":"32907"},"incomeTract":null,"incomeBlockGroup":null,"nearestRoad":null,"flu":null,"opportunityZone":null,"oz2Eligibility":null,"source":"fl-doh-ehwaters-12009"},"geometry":{"type":"Polygon","coordinates":[[[-80.75486,28.01384],[-80.75474,28.02067],[-80.75384,28.0207],[-80.75392,28.01385],[-80.75486,28.01384]]]}},{"type":"Feature","id":"12009:28 361800    2","properties":{"id":"12009:28 361800    2","parcelId":"28 361800    2","countyFips":"12009","countyName":"Brevard","state":"Florida","marketIds":["Vero Beach","Melbourne"],"situsAddress":null,"situsCity":null,"situsZip":"0.0","jurisdictionCode":null,"ownerName":"MELBOURNE-TILLMAN WATER CONTRO","ownerName2":null,"propertyName":null,"zoningCode":null,"zoningDistrict":null,"jurisdictionPrefix":null,"dorCode":"080","acreage":35.81,"centroid":[-80.753372,28.04596],"lastSale":{"date":null,"price":null,"qualified":null},"tax":{"marketValue":35810.0,"assessedValue":35810.0,"taxableValue":0.0,"taxes":null},"mailingAddress":{"line1":"5900 MINTON RD NW","line2":null,"city":"PALM BAY","state":"FL","zip":"32907"},"incomeTract":null,"incomeBlockGroup":null,"nearestRoad":null,"flu":null,"opportunityZone":null,"oz2Eligibility":null,"source":"fl-doh-ehwaters-12009"},"geometry":{"type":"Polygon","coordinates":[[[-80.75379,28.04946],[-80.75282,28.04947],[-80.75297,28.04246],[-80.75391,28.04245],[-80.75379,28.04946]]]}},{"type":"Feature","id":"12009:28 350900  751","properties":{"id":"12009:28 350900  751","parcelId":"28 350900  751","countyFips":"12009","countyName":"Brevard","state":"Florida","marketIds":["Vero Beach","Melbourne"],"situsAddress":null,"situsCity":null,"situsZip":"0.0","jurisdictionCode":null,"ownerName":"ST JOHNS RIVER WATER MANAGEMEN","ownerName2":null,"propertyName":null,"zoningCode":null,"zoningDistrict":null,"jurisdictionPrefix":null,"dorCode":"080","acreage":34.21,"centroid":[-80.82116,28.057403],"lastSale":{"date":null,"price":null,"qualified":null},"tax":{"marketValue":6840.0,"assessedValue":6840.0,"taxableValue":0.0,"taxes":null},"mailingAddress":{"line1":"P O BOX 1429","line2":null,"city":"PALATKA","state":"FL","zip":"32177"},"incomeTract":null,"incomeBlockGroup":null,"nearestRoad":null,"flu":null,"opportunityZone":null,"oz2Eligibility":null,"source":"fl-doh-ehwaters-12009"},"geometry":{"type":"Polygon","coordinates":[[[-80.81931,28.06094],[-80.81942,28.05567],[-80.82475,28.0556],[-80.81931,28.06094]]]}},{"type":"Feature","id":"12009:26 353600  500","properties":{"id":"12009:26 353600  500","parcelId":"26 353600  500","countyFips":"12009","countyName":"Brevard","state":"Florida","marketIds":["Vero Beach","Melbourne"],"situsAddress":null,"situsCity":null,"situsZip":"0.0","jurisdictionCode":null,"ownerName":"ST JOHNS RIVER WATER MANAGEMEN","ownerName2":null,"propertyName":null,"zoningCode":null,"zoningDistrict":null,"jurisdictionPrefix":null,"dorCode":"080","acreage":34.0,"centroid":[-80.77909,28.175875],"lastSale":{"date":null,"price":null,"qualified":null},"tax":{"marketValue":17000.0,"assessedValue":17000.0,"taxableValue":0.0,"taxes":null},"mailingAddress":{"line1":"P O BOX 1429","line2":null,"city":"PALATKA","state":"FL","zip":"32177"},"incomeTract":null,"incomeBlockGroup":null,"nearestRoad":null,"flu":null,"opportunityZone":null,"oz2Eligibility":null,"source":"fl-doh-ehwaters-12009"},"geometry":{"type":"Polygon","coordinates":[[[-80.77081,28.17728],[-80.77079,28.17451],[-80.78737,28.17449],[-80.78739,28.17722],[-80.77081,28.17728]]]}},{"type":"Feature","id":"12009:26 350700    2","properties":{"id":"12009:26 350700    2","parcelId":"26 350700    2","countyFips":"12009","countyName":"Brevard","state":"Florida","marketIds":["Vero Beach","Melbourne"],"situsAddress":null,"situsCity":null,"situsZip":"0.0","jurisdictionCode":null,"ownerName":"ST JOHNS RIVER WATER MANAGEMEN","ownerName2":null,"propertyName":null,"zoningCode":null,"zoningDistrict":null,"jurisdictionPrefix":null,"dorCode":"080","acreage":34.0,"centroid":[-80.861431,28.23563],"lastSale":{"date":null,"price":null,"qualified":null},"tax":{"marketValue":17000.0,"assessedValue":17000.0,"taxableValue":0.0,"taxes":null},"mailingAddress":{"line1":"P O BOX 1429","line2":null,"city":"PALATKA","state":"FL","zip":"32177"},"incomeTract":null,"incomeBlockGroup":null,"nearestRoad":null,"flu":null,"opportunityZone":null,"oz2Eligibility":null,"source":"fl-doh-ehwaters-12009"},"geometry":{"type":"Polygon","coordinates":[[[-80.86227,28.23824],[-80.86215,28.23913],[-80.8604,28.23803],[-80.86092,28.23496],[-80.86014,28.23238],[-80.85893,28.23053],[-80.86279,28.2306],[-80.86279,28.23785],[-80.86165,28.23635],[-80.86227,28.23823],[-80.86227,28.23824]]]}},{"type":"Feature","id":"12009:28 360700    3","properties":{"id":"12009:28 360700    3","parcelId":"28 360700    3","countyFips":"12009","countyName":"Brevard","state":"Florida","marketIds":["Vero Beach","Melbourne"],"situsAddress":null,"situsCity":null,"situsZip":"0.0","jurisdictionCode":null,"ownerName":"MELBOURNE-TILLMAN WATER CONTRO","ownerName2":null,"propertyName":null,"zoningCode":null,"zoningDistrict":null,"jurisdictionPrefix":null,"dorCode":"080","acreage":33.1,"centroid":[-80.753375,28.060537],"lastSale":{"date":null,"price":null,"qualified":null},"tax":{"marketValue":16550.0,"assessedValue":16550.0,"taxableValue":0.0,"taxes":null},"mailingAddress":{"line1":"5900 MINTON RD NW","line2":null,"city":"PALM BAY","state":"FL","zip":"32907"},"incomeTract":null,"incomeBlockGroup":null,"nearestRoad":null,"flu":null,"opportunityZone":null,"oz2Eligibility":null,"source":"fl-doh-ehwaters-12009"},"geometry":{"type":"Polygon","coordinates":[[[-80.75275,28.06408],[-80.75315,28.057],[-80.75399,28.05699],[-80.75361,28.06408],[-80.75275,28.06408]]]}},{"type":"Feature","id":"12009:28 363100  752","properties":{"id":"12009:28 363100  752","parcelId":"28 363100  752","countyFips":"12009","countyName":"Brevard","state":"Florida","marketIds":["Vero Beach","Melbourne"],"situsAddress":"4002 MALABAR RD W","situsCity":"PALM BAY","situsZip":"32907","jurisdictionCode":null,"ownerName":"ST JOHNS RIVER WATER MANAGEMEN","ownerName2":null,"propertyName":null,"zoningCode":null,"zoningDistrict":null,"jurisdictionPrefix":null,"dorCode":"087","acreage":31.23,"centroid":[-80.755244,28.000242],"lastSale":{"date":null,"price":null,"qualified":null},"tax":{"marketValue":100430.0,"assessedValue":100430.0,"taxableValue":0.0,"taxes":null},"mailingAddress":{"line1":"P O BOX 1429","line2":null,"city":"PALATKA","state":"FL","zip":"32177"},"incomeTract":null,"incomeBlockGroup":null,"nearestRoad":null,"flu":null,"opportunityZone":null,"oz2Eligibility":null,"source":"fl-doh-ehwaters-12009"},"geometry":{"type":"Polygon","coordinates":[[[-80.75403,28.00016],[-80.75403,27.99914],[-80.7545,27.99916],[-80.7545,27.99898],[-80.75778,27.99899],[-80.75777,28.00267],[-80.7547,28.00269],[-80.75464,28.00015],[-80.75403,28.00016]]]}},{"type":"Feature","id":"12009:26 352600  500","properties":{"id":"12009:26 352600  500","parcelId":"26 352600  500","countyFips":"12009","countyName":"Brevard","state":"Florida","marketIds":["Vero Beach","Melbourne"],"situsAddress":null,"situsCity":null,"situsZip":"0.0","jurisdictionCode":null,"ownerName":"ST JOHNS RIVER WATER MANAGEMEN","ownerName2":null,"propertyName":null,"zoningCode":null,"zoningDistrict":null,"jurisdictionPrefix":null,"dorCode":"080","acreage":30.0,"centroid":[-80.800885,28.187293],"lastSale":{"date":null,"price":null,"qualified":null},"tax":{"marketValue":15000.0,"assessedValue":15000.0,"taxableValue":0.0,"taxes":null},"mailingAddress":{"line1":"P O BOX 1429","line2":null,"city":"PALATKA","state":"FL","zip":"32177"},"incomeTract":null,"incomeBlockGroup":null,"nearestRoad":null,"flu":null,"opportunityZone":null,"oz2Eligibility":null,"source":"fl-doh-ehwaters-12009"},"geometry":{"type":"Polygon","coordinates":[[[-80.80406,28.18586],[-80.80408,28.18971],[-80.80183,28.18785],[-80.79357,28.18575],[-80.80406,28.18586]]]}},{"type":"Feature","id":"12009:27 351100    2","properties":{"id":"12009:27 351100    2","parcelId":"27 351100    2","countyFips":"12009","countyName":"Brevard","state":"Florida","marketIds":["Vero Beach","Melbourne"],"situsAddress":null,"situsCity":null,"situsZip":"0.0","jurisdictionCode":null,"ownerName":"ST JOHNS RIVER WATER MANAGEMEN","ownerName2":null,"propertyName":null,"zoningCode":null,"zoningDistrict":null,"jurisdictionPrefix":null,"dorCode":"080","acreage":29.0,"centroid":[-80.782912,28.158605],"lastSale":{"date":null,"price":null,"qualified":null},"tax":{"marketValue":14500.0,"assessedValue":14500.0,"taxableValue":0.0,"taxes":null},"mailingAddress":{"line1":"P O BOX 1429","line2":null,"city":"PALATKA","state":"FL","zip":"32177"},"incomeTract":null,"incomeBlockGroup":null,"nearestRoad":null,"flu":null,"opportunityZone":null,"oz2Eligibility":null,"source":"fl-doh-ehwaters-12009"},"geometry":{"type":"Polygon","coordinates":[[[-80.78106,28.16001],[-80.78104,28.15722],[-80.78173,28.15719],[-80.78782,28.16],[-80.78106,28.16001]]]}},{"type":"Feature","id":"12009:26 360800  251","properties":{"id":"12009:26 360800  251","parcelId":"26 360800  251","countyFips":"12009","countyName":"Brevard","state":"Florida","marketIds":["Vero Beach","Melbourne"],"situsAddress":null,"situsCity":null,"situsZip":"0.0","jurisdictionCode":null,"ownerName":"A DUDA & SONS INC","ownerName2":null,"propertyName":null,"zoningCode":null,"zoningDistrict":null,"jurisdictionPrefix":null,"dorCode":"099","acreage":22.02,"centroid":[-80.752857,28.235503],"lastSale":{"date":null,"price":null,"qualified":null},"tax":{"marketValue":11010.0,"assessedValue":11010.0,"taxableValue":11010.0,"taxes":null},"mailingAddress":{"line1":"P O BOX 620257","line2":null,"city":"OVIEDO","state":"FL","zip":"32762"},"incomeTract":null,"incomeBlockGroup":null,"nearestRoad":null,"flu":null,"opportunityZone":null,"oz2Eligibility":null,"source":"fl-doh-ehwaters-12009"},"geometry":{"type":"Polygon","coordinates":[[[-80.7542,28.24222],[-80.75412,28.22964],[-80.74908,28.2297],[-80.74908,28.22949],[-80.75459,28.22943],[-80.75472,28.24402],[-80.75421,28.24402],[-80.7542,28.24222]]]}},{"type":"Feature","id":"12009:28 350301  751","properties":{"id":"12009:28 350301  751","parcelId":"28 350301  751","countyFips":"12009","countyName":"Brevard","state":"Florida","marketIds":["Vero Beach","Melbourne"],"situsAddress":null,"situsCity":null,"situsZip":"0.0","jurisdictionCode":null,"ownerName":"ST JOHNS RIVER WATER MANAGEMEN","ownerName2":null,"propertyName":null,"zoningCode":null,"zoningDistrict":null,"jurisdictionPrefix":null,"dorCode":"080","acreage":20.95,"centroid":[-80.80429,28.07212],"lastSale":{"date":null,"price":null,"qualified":null},"tax":{"marketValue":4190.0,"assessedValue":4190.0,"taxableValue":0.0,"taxes":null},"mailingAddress":{"line1":"P O BOX 1429","line2":null,"city":"PALATKA","state":"FL","zip":"32177"},"incomeTract":null,"incomeBlockGroup":null,"nearestRoad":null,"flu":null,"opportunityZone":null,"oz2Eligibility":null,"source":"fl-doh-ehwaters-12009"},"geometry":{"type":"Polygon","coordinates":[[[-80.80268,28.07418],[-80.80265,28.07114],[-80.80754,28.07104],[-80.80268,28.07418]]]}},{"type":"Feature","id":"12009:28 363000  750","properties":{"id":"12009:28 363000  750","parcelId":"28 363000  750","countyFips":"12009","countyName":"Brevard","state":"Florida","marketIds":["Vero Beach","Melbourne"],"situsAddress":null,"situsCity":null,"situsZip":"0.0","jurisdictionCode":null,"ownerName":"ST JOHNS RIVER WATER MANAGEMEN","ownerName2":null,"propertyName":null,"zoningCode":null,"zoningDistrict":null,"jurisdictionPrefix":null,"dorCode":"080","acreage":20.0,"centroid":[-80.75968,28.019645],"lastSale":{"date":null,"price":null,"qualified":null},"tax":{"marketValue":4000.0,"assessedValue":4000.0,"taxableValue":0.0,"taxes":null},"mailingAddress":{"line1":"P O BOX 1429","line2":null,"city":"PALATKA","state":"FL","zip":"32177"},"incomeTract":null,"incomeBlockGroup":null,"nearestRoad":null,"flu":null,"opportunityZone":null,"oz2Eligibility":null,"source":"fl-doh-ehwaters-12009"},"geometry":{"type":"Polygon","coordinates":[[[-80.76159,28.01875],[-80.76159,28.02042],[-80.75778,28.02056],[-80.75776,28.01885],[-80.76159,28.01875]]]}},{"type":"Feature","id":"12009:28 361900  250","properties":{"id":"12009:28 361900  250","parcelId":"28 361900  250","countyFips":"12009","countyName":"Brevard","state":"Florida","marketIds":["Vero Beach","Melbourne"],"situsAddress":null,"situsCity":null,"situsZip":"0.0","jurisdictionCode":null,"ownerName":"ST JOHNS RIVER WATER MANAGEMEN","ownerName2":null,"propertyName":null,"zoningCode":null,"zoningDistrict":null,"jurisdictionPrefix":null,"dorCode":"080","acreage":18.64,"centroid":[-80.767308,28.035935],"lastSale":{"date":null,"price":null,"qualified":null},"tax":{"marketValue":3730.0,"assessedValue":3730.0,"taxableValue":0.0,"taxes":null},"mailingAddress":{"line1":"P O BOX 1429","line2":null,"city":"PALATKA","state":"FL","zip":"32177"},"incomeTract":null,"incomeBlockGroup":null,"nearestRoad":null,"flu":null,"opportunityZone":null,"oz2Eligibility":null,"source":"fl-doh-ehwaters-12009"},"geometry":{"type":"Polygon","coordinates":[[[-80.76922,28.03683],[-80.76538,28.03686],[-80.76539,28.03503],[-80.76924,28.03502],[-80.76922,28.03683]]]}},{"type":"Feature","id":"12009:28 363200  251","properties":{"id":"12009:28 363200  251","parcelId":"28 363200  251","countyFips":"12009","countyName":"Brevard","state":"Florida","marketIds":["Vero Beach","Melbourne"],"situsAddress":null,"situsCity":null,"situsZip":"0.0","jurisdictionCode":null,"ownerName":"ST JOHNS RIVER WATER MANAGEMEN","ownerName2":null,"propertyName":null,"zoningCode":null,"zoningDistrict":null,"jurisdictionPrefix":null,"dorCode":"099","acreage":18.0,"centroid":[-80.751852,28.00871],"lastSale":{"date":null,"price":null,"qualified":null},"tax":{"marketValue":45000.0,"assessedValue":45000.0,"taxableValue":0.0,"taxes":null},"mailingAddress":{"line1":"P O BOX 1429","line2":null,"city":"PALATKA","state":"FL","zip":"32177"},"incomeTract":null,"incomeBlockGroup":null,"nearestRoad":null,"flu":null,"opportunityZone":null,"oz2Eligibility":null,"source":"fl-doh-ehwaters-12009"},"geometry":{"type":"Polygon","coordinates":[[[-80.75342,28.00798],[-80.75341,28.00978],[-80.74962,28.0098],[-80.74963,28.00801],[-80.75318,28.00798],[-80.75342,28.00798]]]}},{"type":"Feature","id":"12009:27 353501  751","properties":{"id":"12009:27 353501  751","parcelId":"27 353501  751","countyFips":"12009","countyName":"Brevard","state":"Florida","marketIds":["Vero Beach","Melbourne"],"situsAddress":null,"situsCity":null,"situsZip":"0.0","jurisdictionCode":null,"ownerName":"DEER PARK RANCH LTD","ownerName2":null,"propertyName":null,"zoningCode":null,"zoningDistrict":null,"jurisdictionPrefix":null,"dorCode":"061","acreage":17.34,"centroid":[-80.78163,28.087167],"lastSale":{"date":null,"price":null,"qualified":null},"tax":{"marketValue":8670.0,"assessedValue":870.0,"taxableValue":870.0,"taxes":null},"mailingAddress":{"line1":"6254 KEMPFER RD","line2":null,"city":"ST CLOUD","state":"FL","zip":"34773"},"incomeTract":null,"incomeBlockGroup":null,"nearestRoad":null,"flu":null,"opportunityZone":null,"oz2Eligibility":null,"source":"fl-doh-ehwaters-12009"},"geometry":{"type":"Polygon","coordinates":[[[-80.78078,28.0865],[-80.78337,28.08645],[-80.78074,28.08855],[-80.78078,28.0865]]]}},{"type":"Feature","id":"12009:28 360600    1","properties":{"id":"12009:28 360600    1","parcelId":"28 360600    1","countyFips":"12009","countyName":"Brevard","state":"Florida","marketIds":["Vero Beach","Melbourne"],"situsAddress":null,"situsCity":null,"situsZip":"0.0","jurisdictionCode":null,"ownerName":"SAFFAN, HELEN","ownerName2":null,"propertyName":null,"zoningCode":null,"zoningDistrict":null,"jurisdictionPrefix":null,"dorCode":"099","acreage":17.05,"centroid":[-80.75612,28.079484],"lastSale":{"date":null,"price":null,"qualified":null},"tax":{"marketValue":8530.0,"assessedValue":8530.0,"taxableValue":8530.0,"taxes":null},"mailingAddress":{"line1":"6908 TROUVILLE ES PLANADE","line2":null,"city":"MIAMI BCH","state":"FL","zip":"33141"},"incomeTract":null,"incomeBlockGroup":null,"nearestRoad":null,"flu":null,"opportunityZone":null,"oz2Eligibility":null,"source":"fl-doh-ehwaters-12009"},"geometry":{"type":"Polygon","coordinates":[[[-80.7606,28.07919],[-80.7544,28.07923],[-80.75246,28.0816],[-80.75254,28.07871],[-80.7606,28.07869],[-80.7606,28.07919]]]}},{"type":"Feature","id":"12009:28 350201    2","properties":{"id":"12009:28 350201    2","parcelId":"28 350201    2","countyFips":"12009","countyName":"Brevard","state":"Florida","marketIds":["Vero Beach","Melbourne"],"situsAddress":null,"situsCity":null,"situsZip":"0.0","jurisdictionCode":null,"ownerName":"ST JOHNS RIVER WATER MANAGEMEN","ownerName2":null,"propertyName":null,"zoningCode":null,"zoningDistrict":null,"jurisdictionPrefix":null,"dorCode":"080","acreage":14.35,"centroid":[-80.78793,28.079677],"lastSale":{"date":null,"price":null,"qualified":null},"tax":{"marketValue":2870.0,"assessedValue":2870.0,"taxableValue":0.0,"taxes":null},"mailingAddress":{"line1":"P O BOX 1429","line2":null,"city":"PALATKA","state":"FL","zip":"32177"},"incomeTract":null,"incomeBlockGroup":null,"nearestRoad":null,"flu":null,"opportunityZone":null,"oz2Eligibility":null,"source":"fl-doh-ehwaters-12009"},"geometry":{"type":"Polygon","coordinates":[[[-80.78599,28.0813],[-80.78598,28.07892],[-80.79182,28.07881],[-80.78599,28.0813]]]}},{"type":"Feature","id":"12009:26 360800  255","properties":{"id":"12009:26 360800  255","parcelId":"26 360800  255","countyFips":"12009","countyName":"Brevard","state":"Florida","marketIds":["Vero Beach","Melbourne"],"situsAddress":null,"situsCity":null,"situsZip":"0.0","jurisdictionCode":null,"ownerName":"LENNAR HOMES LLC","ownerName2":null,"propertyName":null,"zoningCode":null,"zoningDistrict":null,"jurisdictionPrefix":null,"dorCode":"099","acreage":14.13,"centroid":[-80.752222,28.243005],"lastSale":{"date":null,"price":null,"qualified":null},"tax":{"marketValue":381510.0,"assessedValue":381510.0,"taxableValue":381510.0,"taxes":null},"mailingAddress":{"line1":"15550 LIGHTWAVE DR #210","line2":null,"city":"CLEARWATER","state":"FL","zip":"33760"},"incomeTract":null,"incomeBlockGroup":null,"nearestRoad":null,"flu":null,"opportunityZone":null,"oz2Eligibility":null,"source":"fl-doh-ehwaters-12009"},"geometry":{"type":"Polygon","coordinates":[[[-80.75132,28.24224],[-80.7542,28.24222],[-80.75421,28.24402],[-80.75092,28.24405],[-80.75135,28.24322],[-80.75133,28.24228],[-80.75132,28.24224]]]}},{"type":"Feature","id":"12009:28 363100    2","properties":{"id":"12009:28 363100    2","parcelId":"28 363100    2","countyFips":"12009","countyName":"Brevard","state":"Florida","marketIds":["Vero Beach","Melbourne"],"situsAddress":null,"situsCity":null,"situsZip":"0.0","jurisdictionCode":null,"ownerName":"MELBOURNE-TILLMAN WATER CONTRO","ownerName2":null,"propertyName":null,"zoningCode":null,"zoningDistrict":null,"jurisdictionPrefix":null,"dorCode":"080","acreage":13.59,"centroid":[-80.756056,28.004455],"lastSale":{"date":null,"price":null,"qualified":null},"tax":{"marketValue":2720.0,"assessedValue":2720.0,"taxableValue":0.0,"taxes":null},"mailingAddress":{"line1":"5900 MINTON RD NW","line2":null,"city":"PALM BAY","state":"FL","zip":"32907"},"incomeTract":null,"incomeBlockGroup":null,"nearestRoad":null,"flu":null,"opportunityZone":null,"oz2Eligibility":null,"source":"fl-doh-ehwaters-12009"},"geometry":{"type":"Polygon","coordinates":[[[-80.75418,28.01305],[-80.75403,28.01305],[-80.75403,28.00269],[-80.75777,28.00267],[-80.75778,27.99899],[-80.75824,27.999],[-80.75823,28.00309],[-80.75419,28.0031],[-80.75418,28.01305]]]}},{"type":"Feature","id":"12009:28 340100    2","properties":{"id":"12009:28 340100    2","parcelId":"28 340100    2","countyFips":"12009","countyName":"Brevard","state":"Florida","marketIds":["Vero Beach","Melbourne"],"situsAddress":"6499 SAPLING LN","situsCity":"MELBOURNE","situsZip":"32904","jurisdictionCode":null,"ownerName":"KEMPFER, GEORGE HOPKINS","ownerName2":null,"propertyName":null,"zoningCode":null,"zoningDistrict":null,"jurisdictionPrefix":null,"dorCode":"061","acreage":10.0,"centroid":[-80.865225,28.082645],"lastSale":{"date":null,"price":null,"qualified":null},"tax":{"marketValue":145060.0,"assessedValue":140980.0,"taxableValue":115980.0,"taxes":null},"mailingAddress":{"line1":"6499 SAPLING LN","line2":null,"city":"MELBOURNE","state":"FL","zip":"32904"},"incomeTract":null,"incomeBlockGroup":null,"nearestRoad":null,"flu":null,"opportunityZone":null,"oz2Eligibility":null,"source":"fl-doh-ehwaters-12009"},"geometry":{"type":"Polygon","coordinates":[[[-80.86349,28.08323],[-80.86349,28.08198],[-80.8664,28.08201],[-80.86642,28.0827],[-80.86577,28.08269],[-80.86578,28.08326],[-80.86349,28.08323]]]}},{"type":"Feature","id":"12009:28 350301    2","properties":{"id":"12009:28 350301    2","parcelId":"28 350301    2","countyFips":"12009","countyName":"Brevard","state":"Florida","marketIds":["Vero Beach","Melbourne"],"situsAddress":"8053 OCEAN PRAIRIE LN","situsCity":"MELBOURNE","situsZip":"32904","jurisdictionCode":null,"ownerName":"KEMPFER, WILLIAM C","ownerName2":null,"propertyName":null,"zoningCode":null,"zoningDistrict":null,"jurisdictionPrefix":null,"dorCode":"061","acreage":10.0,"centroid":[-80.8049,28.084285],"lastSale":{"date":null,"price":null,"qualified":null},"tax":{"marketValue":167390.0,"assessedValue":162500.0,"taxableValue":137500.0,"taxes":null},"mailingAddress":{"line1":"8053 OCEAN PRAIRIE LANE","line2":null,"city":"MELBOURNE","state":"FL","zip":"32904"},"incomeTract":null,"incomeBlockGroup":null,"nearestRoad":null,"flu":null,"opportunityZone":null,"oz2Eligibility":null,"source":"fl-doh-ehwaters-12009"},"geometry":{"type":"Polygon","coordinates":[[[-80.80702,28.086],[-80.80278,28.08608],[-80.80275,28.08252],[-80.80705,28.08254],[-80.80702,28.086]]]}},{"type":"Feature","id":"12009:28 350400    2","properties":{"id":"12009:28 350400    2","parcelId":"28 350400    2","countyFips":"12009","countyName":"Brevard","state":"Florida","marketIds":["Vero Beach","Melbourne"],"situsAddress":null,"situsCity":null,"situsZip":"0.0","jurisdictionCode":null,"ownerName":"MARSHALL, BLUE KEMPFER","ownerName2":null,"propertyName":null,"zoningCode":null,"zoningDistrict":null,"jurisdictionPrefix":null,"dorCode":"061","acreage":10.0,"centroid":[-80.821095,28.07852],"lastSale":{"date":null,"price":null,"qualified":null},"tax":{"marketValue":10000.0,"assessedValue":4850.0,"taxableValue":4850.0,"taxes":null},"mailingAddress":{"line1":"6224 KEMPFER RD","line2":null,"city":"ST CLOUD","state":"FL","zip":"34773"},"incomeTract":null,"incomeBlockGroup":null,"nearestRoad":null,"flu":null,"opportunityZone":null,"oz2Eligibility":null,"source":"fl-doh-ehwaters-12009"},"geometry":{"type":"Polygon","coordinates":[[[-80.81977,28.07775],[-80.82247,28.07794],[-80.82247,28.07904],[-80.81967,28.07935],[-80.81977,28.07775]]]}},{"type":"Feature","id":"12009:28 363100  500","properties":{"id":"12009:28 363100  500","parcelId":"28 363100  500","countyFips":"12009","countyName":"Brevard","state":"Florida","marketIds":["Vero Beach","Melbourne"],"situsAddress":null,"situsCity":null,"situsZip":"0.0","jurisdictionCode":null,"ownerName":"ST JOHNS RIVER WATER MANAGEMEN","ownerName2":null,"propertyName":null,"zoningCode":null,"zoningDistrict":null,"jurisdictionPrefix":null,"dorCode":"080","acreage":9.79,"centroid":[-80.763595,28.00486],"lastSale":{"date":null,"price":null,"qualified":null},"tax":{"marketValue":1960.0,"assessedValue":1960.0,"taxableValue":0.0,"taxes":null},"mailingAddress":{"line1":"P O BOX 1429","line2":null,"city":"PALATKA","state":"FL","zip":"32177"},"incomeTract":null,"incomeBlockGroup":null,"nearestRoad":null,"flu":null,"opportunityZone":null,"oz2Eligibility":null,"source":"fl-doh-ehwaters-12009"},"geometry":{"type":"Polygon","coordinates":[[[-80.76197,28.00532],[-80.76193,28.00441],[-80.76485,28.0044],[-80.76563,28.00531],[-80.76197,28.00532]]]}},{"type":"Feature","id":"12009:26 361800  500","properties":{"id":"12009:26 361800  500","parcelId":"26 361800  500","countyFips":"12009","countyName":"Brevard","state":"Florida","marketIds":["Vero Beach","Melbourne"],"situsAddress":null,"situsCity":null,"situsZip":"0.0","jurisdictionCode":null,"ownerName":"BREVARD COUNTY","ownerName2":null,"propertyName":null,"zoningCode":null,"zoningDistrict":null,"jurisdictionPrefix":null,"dorCode":"080","acreage":9.54,"centroid":[-80.760615,28.218865],"lastSale":{"date":null,"price":null,"qualified":null},"tax":{"marketValue":17170.0,"assessedValue":17170.0,"taxableValue":0.0,"taxes":null},"mailingAddress":{"line1":"700 S PARK AVENUE","line2":null,"city":"TITUSVILLE","state":"FL","zip":"32780"},"incomeTract":null,"incomeBlockGroup":null,"nearestRoad":null,"flu":null,"opportunityZone":null,"oz2Eligibility":null,"source":"fl-doh-ehwaters-12009"},"geometry":{"type":"Polygon","coordinates":[[[-80.76644,28.21899],[-80.75479,28.21904],[-80.75479,28.21874],[-80.76644,28.21869],[-80.76644,28.21899]]]}},{"type":"Feature","id":"12009:26 360700  750","properties":{"id":"12009:26 360700  750","parcelId":"26 360700  750","countyFips":"12009","countyName":"Brevard","state":"Florida","marketIds":["Vero Beach","Melbourne"],"situsAddress":null,"situsCity":null,"situsZip":"0.0","jurisdictionCode":null,"ownerName":"A DUDA & SONS INC","ownerName2":null,"propertyName":null,"zoningCode":null,"zoningDistrict":null,"jurisdictionPrefix":null,"dorCode":"061","acreage":9.17,"centroid":[-80.757255,28.230898],"lastSale":{"date":null,"price":null,"qualified":null},"tax":{"marketValue":182730.0,"assessedValue":145150.0,"taxableValue":145150.0,"taxes":null},"mailingAddress":{"line1":"P O BOX 620257","line2":null,"city":"OVIEDO","state":"FL","zip":"32762"},"incomeTract":null,"incomeBlockGroup":null,"nearestRoad":null,"flu":null,"opportunityZone":null,"oz2Eligibility":null,"source":"fl-doh-ehwaters-12009"},"geometry":{"type":"Polygon","coordinates":[[[-80.75533,28.2313],[-80.75532,28.23041],[-80.75919,28.2305],[-80.75918,28.23138],[-80.75533,28.2313]]]}},{"type":"Feature","id":"12009:28 350301  500","properties":{"id":"12009:28 350301  500","parcelId":"28 350301  500","countyFips":"12009","countyName":"Brevard","state":"Florida","marketIds":["Vero Beach","Melbourne"],"situsAddress":null,"situsCity":null,"situsZip":"0.0","jurisdictionCode":null,"ownerName":"KEMPFER, W MICHAEL","ownerName2":null,"propertyName":null,"zoningCode":null,"zoningDistrict":null,"jurisdictionPrefix":null,"dorCode":"061","acreage":9.0,"centroid":[-80.815493,28.077656],"lastSale":{"date":null,"price":null,"qualified":null},"tax":{"marketValue":9000.0,"assessedValue":4370.0,"taxableValue":4370.0,"taxes":null},"mailingAddress":{"line1":"8057 OCEAN PRAIRIE LANE","line2":null,"city":"MELBOURNE","state":"FL","zip":"32904"},"incomeTract":null,"incomeBlockGroup":null,"nearestRoad":null,"flu":null,"opportunityZone":null,"oz2Eligibility":null,"source":"fl-doh-ehwaters-12009"},"geometry":{"type":"Polygon","coordinates":[[[-80.81584,28.07811],[-80.81318,28.07816],[-80.81315,28.07711],[-80.81666,28.07704],[-80.81669,28.0781],[-80.81631,28.0781],[-80.81629,28.07731],[-80.81582,28.07732],[-80.81584,28.07811]]]}},{"type":"Feature","id":"12009:27 350201  500","properties":{"id":"12009:27 350201  500","parcelId":"27 350201  500","countyFips":"12009","countyName":"Brevard","state":"Florida","marketIds":["Vero Beach","Melbourne"],"situsAddress":null,"situsCity":null,"situsZip":"0.0","jurisdictionCode":null,"ownerName":"FARMLAND RESERVE INC","ownerName2":null,"propertyName":null,"zoningCode":null,"zoningDistrict":null,"jurisdictionPrefix":null,"dorCode":"061","acreage":9.0,"centroid":[-80.79415,28.160462],"lastSale":{"date":null,"price":null,"qualified":null},"tax":{"marketValue":4500.0,"assessedValue":2430.0,"taxableValue":2430.0,"taxes":null},"mailingAddress":{"line1":"50 E NORTH TEMPLE ST","line2":null,"city":"SALT LAKE CITY","state":"UT","zip":"84150"},"incomeTract":null,"incomeBlockGroup":null,"nearestRoad":null,"flu":null,"opportunityZone":null,"oz2Eligibility":null,"source":"fl-doh-ehwaters-12009"},"geometry":{"type":"Polygon","coordinates":[[[-80.79732,28.16035],[-80.79731,28.1606],[-80.79096,28.16134],[-80.78782,28.16],[-80.79734,28.16002],[-80.79732,28.16035]]]}},{"type":"Feature","id":"12009:28 350500  250","properties":{"id":"12009:28 350500  250","parcelId":"28 350500  250","countyFips":"12009","countyName":"Brevard","state":"Florida","marketIds":["Vero Beach","Melbourne"],"situsAddress":"1 BUMPY RD","situsCity":"MELBOURNE","situsZip":"32904","jurisdictionCode":null,"ownerName":"KEMPFER, HENRY HYATT","ownerName2":null,"propertyName":null,"zoningCode":null,"zoningDistrict":null,"jurisdictionPrefix":null,"dorCode":"061","acreage":9.0,"centroid":[-80.843414,28.0844],"lastSale":{"date":null,"price":null,"qualified":null},"tax":{"marketValue":133930.0,"assessedValue":129550.0,"taxableValue":104550.0,"taxes":null},"mailingAddress":{"line1":"1 BUMPY ROAD","line2":null,"city":"MELBOURNE","state":"FL","zip":"32904"},"incomeTract":null,"incomeBlockGroup":null,"nearestRoad":null,"flu":null,"opportunityZone":null,"oz2Eligibility":null,"source":"fl-doh-ehwaters-12009"},"geometry":{"type":"MultiPolygon","coordinates":[[[[-80.84431,28.08476],[-80.8417,28.08477],[-80.84169,28.08384],[-80.84469,28.08387],[-80.84468,28.08476],[-80.84431,28.08476]]],[[[-80.84365,28.08447],[-80.8443,28.08447],[-80.84431,28.08389],[-80.84366,28.0839],[-80.84365,28.08447]]]]}},{"type":"Feature","id":"12009:28 363100  250","properties":{"id":"12009:28 363100  250","parcelId":"28 363100  250","countyFips":"12009","countyName":"Brevard","state":"Florida","marketIds":["Vero Beach","Melbourne"],"situsAddress":null,"situsCity":null,"situsZip":"0.0","jurisdictionCode":null,"ownerName":"ST JOHNS RIVER WATER MANAGEMEN","ownerName2":null,"propertyName":null,"zoningCode":null,"zoningDistrict":null,"jurisdictionPrefix":null,"dorCode":"080","acreage":8.96,"centroid":[-80.76832,28.006588],"lastSale":{"date":null,"price":null,"qualified":null},"tax":{"marketValue":1790.0,"assessedValue":1790.0,"taxableValue":0.0,"taxes":null},"mailingAddress":{"line1":"P O BOX 1429","line2":null,"city":"PALATKA","state":"FL","zip":"32177"},"incomeTract":null,"incomeBlockGroup":null,"nearestRoad":null,"flu":null,"opportunityZone":null,"oz2Eligibility":null,"source":"fl-doh-ehwaters-12009"},"geometry":{"type":"Polygon","coordinates":[[[-80.76951,28.00703],[-80.76749,28.00703],[-80.76677,28.00615],[-80.76951,28.00614],[-80.76951,28.00703]]]}},{"type":"Feature","id":"12009:26 3608UP        R1","properties":{"id":"12009:26 3608UP        R1","parcelId":"26 3608UP        R1","countyFips":"12009","countyName":"Brevard","state":"Florida","marketIds":["Vero Beach","Melbourne"],"situsAddress":null,"situsCity":null,"situsZip":"0.0","jurisdictionCode":null,"ownerName":"LENNAR HOMES LLC","ownerName2":null,"propertyName":null,"zoningCode":null,"zoningDistrict":null,"jurisdictionPrefix":null,"dorCode":"094","acreage":8.53,"centroid":[-80.750091,28.242979],"lastSale":{"date":null,"price":null,"qualified":null},"tax":{"marketValue":10.0,"assessedValue":10.0,"taxableValue":10.0,"taxes":null},"mailingAddress":{"line1":"15550 LIGHTWAVE DR #210","line2":null,"city":"CLEARWATER","state":"FL","zip":"33760"},"incomeTract":null,"incomeBlockGroup":null,"nearestRoad":null,"flu":null,"opportunityZone":null,"oz2Eligibility":null,"source":"fl-doh-ehwaters-12009"},"geometry":{"type":"Polygon","coordinates":[[[-80.75043,28.24405],[-80.75095,28.24328],[-80.75098,28.24239],[-80.75014,28.23972],[-80.74873,28.23836],[-80.74896,28.23818],[-80.75041,28.23957],[-80.75134,28.24274],[-80.75106,28.24375],[-80.74974,28.24533],[-80.74954,28.24741],[-80.74923,28.24741],[-80.74936,28.24544],[-80.75041,28.24407],[-80.75043,28.24405]]]}},{"type":"Feature","id":"12009:26 352000    3","properties":{"id":"12009:26 352000    3","parcelId":"26 352000    3","countyFips":"12009","countyName":"Brevard","state":"Florida","marketIds":["Vero Beach","Melbourne"],"situsAddress":null,"situsCity":null,"situsZip":"0.0","jurisdictionCode":null,"ownerName":"FARMLAND RESERVE INC","ownerName2":null,"propertyName":null,"zoningCode":null,"zoningDistrict":null,"jurisdictionPrefix":null,"dorCode":"061","acreage":5.5,"centroid":[-80.85322,28.202356],"lastSale":{"date":null,"price":null,"qualified":null},"tax":{"marketValue":2750.0,"assessedValue":280.0,"taxableValue":280.0,"taxes":null},"mailingAddress":{"line1":"50 E NORTH TEMPLE ST","line2":null,"city":"SALT LAKE CITY","state":"UT","zip":"84150"},"incomeTract":null,"incomeBlockGroup":null,"nearestRoad":null,"flu":null,"opportunityZone":null,"oz2Eligibility":null,"source":"fl-doh-ehwaters-12009"},"geometry":{"type":"Polygon","coordinates":[[[-80.85293,28.20061],[-80.85369,28.20061],[-80.8536,28.20461],[-80.85345,28.20451],[-80.85243,28.20144],[-80.85293,28.20061]]]}},{"type":"Feature","id":"12009:26 351300  500","properties":{"id":"12009:26 351300  500","parcelId":"26 351300  500","countyFips":"12009","countyName":"Brevard","state":"Florida","marketIds":["Vero Beach","Melbourne"],"situsAddress":null,"situsCity":null,"situsZip":"0.0","jurisdictionCode":null,"ownerName":"ST JOHNS RIVER WATER MANAGEMEN","ownerName2":null,"propertyName":null,"zoningCode":null,"zoningDistrict":null,"jurisdictionPrefix":null,"dorCode":"080","acreage":5.31,"centroid":[-80.78627,28.21518],"lastSale":{"date":null,"price":null,"qualified":null},"tax":{"marketValue":2660.0,"assessedValue":2660.0,"taxableValue":0.0,"taxes":null},"mailingAddress":{"line1":"P O BOX 1429","line2":null,"city":"PALATKA","state":"FL","zip":"32177"},"incomeTract":null,"incomeBlockGroup":null,"nearestRoad":null,"flu":null,"opportunityZone":null,"oz2Eligibility":null,"source":"fl-doh-ehwaters-12009"},"geometry":{"type":"Polygon","coordinates":[[[-80.78497,28.21519],[-80.78491,28.21516],[-80.7876,28.21516],[-80.7876,28.21521],[-80.78497,28.21519]]]}},{"type":"Feature","id":"12009:26 351900    1","properties":{"id":"12009:26 351900    1","parcelId":"26 351900    1","countyFips":"12009","countyName":"Brevard","state":"Florida","marketIds":["Vero Beach","Melbourne"],"situsAddress":null,"situsCity":null,"situsZip":"0.0","jurisdictionCode":null,"ownerName":"ST JOHNS RIVER WATER MANAGEMEN","ownerName2":null,"propertyName":null,"zoningCode":null,"zoningDistrict":null,"jurisdictionPrefix":null,"dorCode":"080","acreage":5.0,"centroid":[-80.853595,28.215273],"lastSale":{"date":null,"price":null,"qualified":null},"tax":{"marketValue":500.0,"assessedValue":500.0,"taxableValue":0.0,"taxes":null},"mailingAddress":{"line1":"P O BOX 1429","line2":null,"city":"PALATKA","state":"FL","zip":"32177"},"incomeTract":null,"incomeBlockGroup":null,"nearestRoad":null,"flu":null,"opportunityZone":null,"oz2Eligibility":null,"source":"fl-doh-ehwaters-12009"},"geometry":{"type":"Polygon","coordinates":[[[-80.85383,28.21536],[-80.85336,28.21537],[-80.85337,28.215],[-80.85382,28.21536],[-80.85383,28.21536]]]}},{"type":"Feature","id":"12009:28 363100  754","properties":{"id":"12009:28 363100  754","parcelId":"28 363100  754","countyFips":"12009","countyName":"Brevard","state":"Florida","marketIds":["Vero Beach","Melbourne"],"situsAddress":"4006 MALABAR RD W","situsCity":"PALM BAY","situsZip":"32907","jurisdictionCode":null,"ownerName":"VELIE, THOMAS","ownerName2":null,"propertyName":null,"zoningCode":null,"zoningDistrict":null,"jurisdictionPrefix":null,"dorCode":"001","acreage":5.0,"centroid":[-80.754328,28.001425],"lastSale":{"date":null,"price":null,"qualified":null},"tax":{"marketValue":64210.0,"assessedValue":64210.0,"taxableValue":39210.0,"taxes":null},"mailingAddress":{"line1":"4006 MALABAR RD NW","line2":null,"city":"PALM BAY","state":"FL","zip":"32907"},"incomeTract":null,"incomeBlockGroup":null,"nearestRoad":null,"flu":null,"opportunityZone":null,"oz2Eligibility":null,"source":"fl-doh-ehwaters-12009"},"geometry":{"type":"Polygon","coordinates":[[[-80.7547,28.00269],[-80.75395,28.00269],[-80.75395,28.00016],[-80.75471,28.00016],[-80.7547,28.00269]]]}}]}