{"type":"FeatureCollection","name":"12073--4_14","features":[{"type":"Feature","id":"12073:1626204100000","properties":{"id":"12073:1626204100000","parcelId":"1626204100000","countyFips":"12073","countyName":"Leon","state":"Florida","marketIds":["Big Bend"],"situsAddress":"16800 SUNRAY RD","situsCity":null,"situsZip":null,"jurisdictionCode":"Leon County","ownerName":"WRIGHT C L","ownerName2":null,"propertyName":null,"zoningCode":"R","zoningDistrict":"Rural","jurisdictionPrefix":"LEON","dorCode":null,"acreage":107.35,"centroid":[-83.992799,30.539848],"lastSale":{"date":null,"price":null,"qualified":null},"tax":{"marketValue":1297152.0,"assessedValue":null,"taxableValue":89786.0,"taxes":1329.0},"mailingAddress":{"line1":"16940 SUNRAY RD","line2":null,"city":"Tallahassee","state":"FL","zip":"32309"},"incomeTract":null,"incomeBlockGroup":null,"nearestRoad":null,"flu":{"code":"R","label":"Rural","jurisdiction":"Leon County","source":"tlc-propinfo"},"opportunityZone":null,"oz2Eligibility":null,"source":"fl-leon-overlay-parcel-12073","appraiserUrl":"https://search.leonpa.gov/Property/Details/1626204100000","dataGaps":null},"geometry":{"type":"Polygon","coordinates":[[[-83.990823,30.543787],[-83.990842,30.543787],[-83.997459,30.54382],[-83.99693,30.536556],[-83.993717,30.536567],[-83.993506,30.536481],[-83.993098,30.538601],[-83.992879,30.538452],[-83.992718,30.538643],[-83.991972,30.538723],[-83.990814,30.538927],[-83.990826,30.540981],[-83.990805,30.542705],[-83.990823,30.543787]]]}},{"type":"Feature","id":"12073:1636206030000","properties":{"id":"12073:1636206030000","parcelId":"1636206030000","countyFips":"12073","countyName":"Leon","state":"Florida","marketIds":["Big Bend"],"situsAddress":null,"situsCity":null,"situsZip":null,"jurisdictionCode":"Leon County","ownerName":"OLD FIELDS PLANTATION LLC","ownerName2":null,"propertyName":null,"zoningCode":"R","zoningDistrict":"Rural","jurisdictionPrefix":"LEON","dorCode":null,"acreage":70.44,"centroid":[-83.989212,30.525359],"lastSale":{"date":null,"price":7800000.0,"qualified":null},"tax":{"marketValue":415080.0,"assessedValue":null,"taxableValue":null,"taxes":null},"mailingAddress":{"line1":"225 NW MIZNER BLVD STE 510","line2":"BOCA RATON FL 33432","city":"MIZNER PARK OFFICE TOWER","state":null,"zip":null},"incomeTract":null,"incomeBlockGroup":null,"nearestRoad":null,"flu":{"code":"R","label":"Rural","jurisdiction":"Leon County","source":"tlc-propinfo"},"opportunityZone":null,"oz2Eligibility":null,"source":"fl-leon-overlay-parcel-12073","appraiserUrl":"https://search.leonpa.gov/Property/Details/1636206030000","dataGaps":null},"geometry":{"type":"Polygon","coordinates":[[[-83.986591,30.528522],[-83.990481,30.528543],[-83.990534,30.528544],[-83.990565,30.522808],[-83.990625,30.521864],[-83.986476,30.521876],[-83.986591,30.528522]]]}},{"type":"Feature","id":"12073:1635204160000","properties":{"id":"12073:1635204160000","parcelId":"1635204160000","countyFips":"12073","countyName":"Leon","state":"Florida","marketIds":["Big Bend"],"situsAddress":"4490 VALLEY VIEW RD","situsCity":null,"situsZip":null,"jurisdictionCode":"Leon County","ownerName":"WALKER TEMPA LEE","ownerName2":null,"propertyName":null,"zoningCode":"R","zoningDistrict":"Rural","jurisdictionPrefix":"LEON","dorCode":null,"acreage":66.33,"centroid":[-83.996865,30.524939],"lastSale":{"date":null,"price":null,"qualified":null},"tax":{"marketValue":829493.0,"assessedValue":null,"taxableValue":324373.0,"taxes":4800.0},"mailingAddress":{"line1":"4061 BROWN RD","line2":null,"city":"De Funiak Springs","state":"FL","zip":"32433"},"incomeTract":null,"incomeBlockGroup":null,"nearestRoad":null,"flu":{"code":"R","label":"Rural","jurisdiction":"Leon County","source":"tlc-propinfo"},"opportunityZone":null,"oz2Eligibility":null,"source":"fl-leon-overlay-parcel-12073","appraiserUrl":"https://search.leonpa.gov/Property/Details/1635204160000","dataGaps":null},"geometry":{"type":"Polygon","coordinates":[[[-83.997016,30.521855],[-83.994866,30.521858],[-83.994959,30.528332],[-83.996311,30.528112],[-83.999011,30.527622],[-83.999027,30.521852],[-83.997016,30.521855]]]}},{"type":"Feature","id":"12073:1614200010000","properties":{"id":"12073:1614200010000","parcelId":"1614200010000","countyFips":"12073","countyName":"Leon","state":"Florida","marketIds":["Big Bend"],"situsAddress":"16364 RING OAK LN","situsCity":null,"situsZip":null,"jurisdictionCode":"Leon County","ownerName":"OAK POINT TRUST","ownerName2":null,"propertyName":null,"zoningCode":"R","zoningDistrict":"Rural","jurisdictionPrefix":"LEON","dorCode":null,"acreage":60.52,"centroid":[-83.997618,30.577497],"lastSale":{"date":null,"price":100.0,"qualified":null},"tax":{"marketValue":1639820.0,"assessedValue":null,"taxableValue":1245806.0,"taxes":18436.0},"mailingAddress":{"line1":"8280 MONTGOMERY RD STE 102","line2":null,"city":"Cincinnati","state":"OH","zip":"45236"},"incomeTract":null,"incomeBlockGroup":null,"nearestRoad":null,"flu":{"code":"R","label":"Rural","jurisdiction":"Leon County","source":"tlc-propinfo"},"opportunityZone":null,"oz2Eligibility":null,"source":"fl-leon-overlay-parcel-12073","appraiserUrl":"https://search.leonpa.gov/Property/Details/1614200010000","dataGaps":null},"geometry":{"type":"Polygon","coordinates":[[[-84.002013,30.574572],[-83.998494,30.5746],[-83.997505,30.574804],[-83.996806,30.575655],[-83.996523,30.57617],[-83.996503,30.576391],[-83.996291,30.576401],[-83.996247,30.576665],[-83.996282,30.577168],[-83.996257,30.577389],[-83.996316,30.577592],[-83.996356,30.577864],[-83.996315,30.57802],[-83.996342,30.578075],[-83.996814,30.578762],[-83.996884,30.578966],[-83.997255,30.579444],[-83.997421,30.579591],[-83.997721,30.579927],[-83.997968,30.580094],[-83.998023,30.580208],[-83.998082,30.580279],[-84.002235,30.576648],[-84.002181,30.57465],[-84.002013,30.574572]]]}},{"type":"Feature","id":"12073:1626206090010","properties":{"id":"12073:1626206090010","parcelId":"1626206090010","countyFips":"12073","countyName":"Leon","state":"Florida","marketIds":["Big Bend"],"situsAddress":null,"situsCity":null,"situsZip":null,"jurisdictionCode":"Leon County","ownerName":"FS#119","ownerName2":null,"propertyName":null,"zoningCode":null,"zoningDistrict":null,"jurisdictionPrefix":"LEON","dorCode":null,"acreage":54.0,"centroid":[-83.998333,30.538757],"lastSale":{"date":null,"price":null,"qualified":null},"tax":{"marketValue":null,"assessedValue":null,"taxableValue":null,"taxes":null},"mailingAddress":{"line1":null,"line2":null,"city":null,"state":null,"zip":null},"incomeTract":null,"incomeBlockGroup":null,"nearestRoad":null,"flu":null,"opportunityZone":null,"oz2Eligibility":null,"source":"fl-leon-overlay-parcel-12073","appraiserUrl":"https://search.leonpa.gov/Property/Details/1626206090010","dataGaps":["No PropInfo row for this TAXID."]},"geometry":{"type":"Polygon","coordinates":[[[-83.997459,30.54382],[-84.000641,30.543823],[-84.000129,30.536809],[-83.998668,30.536552],[-83.998768,30.537924],[-83.997088,30.538016],[-83.996982,30.536557],[-83.99693,30.536556],[-83.997459,30.54382]]]}},{"type":"Feature","id":"12073:1625200050020","properties":{"id":"12073:1625200050020","parcelId":"1625200050020","countyFips":"12073","countyName":"Leon","state":"Florida","marketIds":["Big Bend"],"situsAddress":"5001 GENTLE BREEZE DR","situsCity":null,"situsZip":null,"jurisdictionCode":"Leon County","ownerName":"BEGGS LOUISE C LIFE ESTATE","ownerName2":null,"propertyName":null,"zoningCode":"R","zoningDistrict":"Rural","jurisdictionPrefix":"LEON","dorCode":null,"acreage":52.42,"centroid":[-83.987465,30.536753],"lastSale":{"date":null,"price":100.0,"qualified":null},"tax":{"marketValue":870748.0,"assessedValue":null,"taxableValue":64629.0,"taxes":1094.0},"mailingAddress":{"line1":"5001 GENTLE BREEZE DR","line2":null,"city":"Tallahassee","state":"FL","zip":"32309"},"incomeTract":null,"incomeBlockGroup":null,"nearestRoad":null,"flu":{"code":"R","label":"Rural","jurisdiction":"Leon County","source":"tlc-propinfo"},"opportunityZone":null,"oz2Eligibility":null,"source":"fl-leon-overlay-parcel-12073","appraiserUrl":"https://search.leonpa.gov/Property/Details/1625200050020","dataGaps":null},"geometry":{"type":"Polygon","coordinates":[[[-83.986149,30.538827],[-83.986149,30.53891],[-83.99066,30.538919],[-83.990665,30.538429],[-83.988511,30.538419],[-83.988844,30.536612],[-83.990676,30.53636],[-83.990682,30.534928],[-83.989539,30.534925],[-83.989541,30.534594],[-83.99069,30.534597],[-83.990694,30.534146],[-83.986522,30.534136],[-83.986521,30.536609],[-83.982664,30.536603],[-83.982916,30.53716],[-83.983134,30.537934],[-83.98398,30.537935],[-83.9846,30.537503],[-83.986155,30.537505],[-83.986149,30.538827]]]}},{"type":"Feature","id":"12073:1636202060000","properties":{"id":"12073:1636202060000","parcelId":"1636202060000","countyFips":"12073","countyName":"Leon","state":"Florida","marketIds":["Big Bend"],"situsAddress":null,"situsCity":null,"situsZip":null,"jurisdictionCode":"Leon County","ownerName":"OLD FIELDS PLANTATION LLC","ownerName2":null,"propertyName":null,"zoningCode":"R","zoningDistrict":"Rural","jurisdictionPrefix":"LEON","dorCode":null,"acreage":51.64,"centroid":[-83.981026,30.52437],"lastSale":{"date":null,"price":7800000.0,"qualified":null},"tax":{"marketValue":108900.0,"assessedValue":null,"taxableValue":null,"taxes":null},"mailingAddress":{"line1":"225 NW MIZNER BLVD STE 510","line2":"BOCA RATON FL 33432","city":"MIZNER PARK OFFICE TOWER","state":null,"zip":null},"incomeTract":null,"incomeBlockGroup":null,"nearestRoad":null,"flu":{"code":"R","label":"Rural","jurisdiction":"Leon County","source":"tlc-propinfo"},"opportunityZone":null,"oz2Eligibility":null,"source":"fl-leon-overlay-parcel-12073","appraiserUrl":"https://search.leonpa.gov/Property/Details/1636202060000","dataGaps":null},"geometry":{"type":"Polygon","coordinates":[[[-83.983244,30.528507],[-83.983276,30.528507],[-83.984101,30.528511],[-83.98399,30.523959],[-83.98395,30.523757],[-83.983841,30.523468],[-83.983737,30.52329],[-83.983478,30.522964],[-83.983331,30.522675],[-83.983261,30.52247],[-83.983216,30.522258],[-83.983192,30.521886],[-83.978033,30.5219],[-83.978044,30.522355],[-83.978185,30.52242],[-83.978503,30.523038],[-83.978736,30.523327],[-83.97875,30.524146],[-83.978827,30.52494],[-83.979061,30.525399],[-83.979327,30.525072],[-83.979479,30.525036],[-83.979775,30.524785],[-83.97982,30.524768],[-83.979881,30.524783],[-83.979923,30.524849],[-83.979857,30.525243],[-83.979863,30.525341],[-83.979923,30.525456],[-83.980035,30.525166],[-83.983168,30.525185],[-83.983244,30.528507]]]}},{"type":"Feature","id":"12073:1636206040000","properties":{"id":"12073:1636206040000","parcelId":"1636206040000","countyFips":"12073","countyName":"Leon","state":"Florida","marketIds":["Big Bend"],"situsAddress":null,"situsCity":null,"situsZip":null,"jurisdictionCode":"Leon County","ownerName":"OLD FIELDS PLANTATION LLC","ownerName2":null,"propertyName":null,"zoningCode":"R","zoningDistrict":"Rural","jurisdictionPrefix":"LEON","dorCode":null,"acreage":46.18,"centroid":[-83.984168,30.524158],"lastSale":{"date":null,"price":7800000.0,"qualified":null},"tax":{"marketValue":90200.0,"assessedValue":null,"taxableValue":null,"taxes":null},"mailingAddress":{"line1":"225 NW MIZNER BLVD STE 510","line2":"BOCA RATON FL 33432","city":"MIZNER PARK OFFICE TOWER","state":null,"zip":null},"incomeTract":null,"incomeBlockGroup":null,"nearestRoad":null,"flu":{"code":"R","label":"Rural","jurisdiction":"Leon County","source":"tlc-propinfo"},"opportunityZone":null,"oz2Eligibility":null,"source":"fl-leon-overlay-parcel-12073","appraiserUrl":"https://search.leonpa.gov/Property/Details/1636206040000","dataGaps":null},"geometry":{"type":"Polygon","coordinates":[[[-83.984101,30.528511],[-83.98505,30.528515],[-83.986591,30.528522],[-83.986476,30.521876],[-83.983192,30.521886],[-83.983216,30.522258],[-83.983261,30.52247],[-83.983331,30.522675],[-83.983478,30.522964],[-83.983737,30.52329],[-83.983841,30.523468],[-83.98392,30.523658],[-83.98399,30.523959],[-83.984101,30.528511]]]}},{"type":"Feature","id":"12073:1635200050000","properties":{"id":"12073:1635200050000","parcelId":"1635200050000","countyFips":"12073","countyName":"Leon","state":"Florida","marketIds":["Big Bend"],"situsAddress":"16624 SUNRAY RD","situsCity":null,"situsZip":null,"jurisdictionCode":"Leon County","ownerName":"VAN DYKE J M","ownerName2":null,"propertyName":null,"zoningCode":"R","zoningDistrict":"Rural","jurisdictionPrefix":"LEON","dorCode":null,"acreage":41.44,"centroid":[-83.995183,30.533413],"lastSale":{"date":null,"price":24000.0,"qualified":null},"tax":{"marketValue":842307.0,"assessedValue":null,"taxableValue":215485.0,"taxes":3327.0},"mailingAddress":{"line1":"16624 SUN RAY RD","line2":null,"city":"Tallahassee","state":"FL","zip":"32309"},"incomeTract":null,"incomeBlockGroup":null,"nearestRoad":null,"flu":{"code":"R","label":"Rural","jurisdiction":"Leon County","source":"tlc-propinfo"},"opportunityZone":null,"oz2Eligibility":null,"source":"fl-leon-overlay-parcel-12073","appraiserUrl":"https://search.leonpa.gov/Property/Details/1635200050000","dataGaps":null},"geometry":{"type":"Polygon","coordinates":[[[-83.996992,30.536439],[-83.996813,30.534641],[-83.9966,30.532129],[-83.996642,30.530258],[-83.99336,30.530236],[-83.993343,30.531397],[-83.993971,30.531392],[-83.993957,30.534214],[-83.99399,30.535208],[-83.995676,30.535214],[-83.99567,30.536418],[-83.996992,30.536439]]]}},{"type":"Feature","id":"12073:1636200100000","properties":{"id":"12073:1636200100000","parcelId":"1636200100000","countyFips":"12073","countyName":"Leon","state":"Florida","marketIds":["Big Bend"],"situsAddress":"17462 MAHAN DR","situsCity":null,"situsZip":null,"jurisdictionCode":"Leon County","ownerName":"WYCHE ROBERT C & THERESA ANGELA","ownerName2":null,"propertyName":null,"zoningCode":"R","zoningDistrict":"Rural","jurisdictionPrefix":"LEON","dorCode":null,"acreage":35.86,"centroid":[-83.98277,30.531074],"lastSale":{"date":null,"price":null,"qualified":null},"tax":{"marketValue":1319719.0,"assessedValue":null,"taxableValue":1128965.0,"taxes":16845.0},"mailingAddress":{"line1":"17500 MAHAN DR","line2":null,"city":"Tallahassee","state":"FL","zip":"32309"},"incomeTract":null,"incomeBlockGroup":null,"nearestRoad":null,"flu":{"code":"R","label":"Rural","jurisdiction":"Leon County","source":"tlc-propinfo"},"opportunityZone":null,"oz2Eligibility":null,"source":"fl-leon-overlay-parcel-12073","appraiserUrl":"https://search.leonpa.gov/Property/Details/1636200100000","dataGaps":null},"geometry":{"type":"Polygon","coordinates":[[[-83.981211,30.529559],[-83.981552,30.530192],[-83.981777,30.530434],[-83.982135,30.530965],[-83.982278,30.531412],[-83.982559,30.531536],[-83.982678,30.531722],[-83.982761,30.532209],[-83.983018,30.532488],[-83.983331,30.532652],[-83.985817,30.532672],[-83.985842,30.52908],[-83.981047,30.529046],[-83.981211,30.529559]]]}},{"type":"Feature","id":"12073:1611200010000","properties":{"id":"12073:1611200010000","parcelId":"1611200010000","countyFips":"12073","countyName":"Leon","state":"Florida","marketIds":["Big Bend"],"situsAddress":"16333 RING OAK LN","situsCity":null,"situsZip":null,"jurisdictionCode":"Leon County","ownerName":"RING OAK LODGE LLC","ownerName2":null,"propertyName":null,"zoningCode":"R","zoningDistrict":"Rural","jurisdictionPrefix":"LEON","dorCode":null,"acreage":33.56,"centroid":[-83.999774,30.581259],"lastSale":{"date":null,"price":100.0,"qualified":null},"tax":{"marketValue":1430200.0,"assessedValue":null,"taxableValue":1245913.0,"taxes":18438.0},"mailingAddress":{"line1":"20600 CHAGRIN BLVD E STE 430","line2":null,"city":"Shaker Hts","state":"OH","zip":"44122"},"incomeTract":null,"incomeBlockGroup":null,"nearestRoad":null,"flu":{"code":"R","label":"Rural","jurisdiction":"Leon County","source":"tlc-propinfo"},"opportunityZone":null,"oz2Eligibility":null,"source":"fl-leon-overlay-parcel-12073","appraiserUrl":"https://search.leonpa.gov/Property/Details/1611200010000","dataGaps":null},"geometry":{"type":"Polygon","coordinates":[[[-83.998082,30.580279],[-83.998103,30.580304],[-83.998138,30.580374],[-83.998196,30.580417],[-83.998383,30.580486],[-83.998493,30.580588],[-83.998866,30.581057],[-83.999068,30.581271],[-83.999265,30.581435],[-83.999324,30.581528],[-83.999551,30.581793],[-83.999682,30.582045],[-84.000099,30.58248],[-84.000253,30.582716],[-84.000445,30.58285],[-84.000576,30.582915],[-84.000639,30.582976],[-84.003142,30.581903],[-84.003521,30.580801],[-84.001485,30.579554],[-83.999933,30.578661],[-83.998082,30.580279]]]}},{"type":"Feature","id":"12073:1625202020000","properties":{"id":"12073:1625202020000","parcelId":"1625202020000","countyFips":"12073","countyName":"Leon","state":"Florida","marketIds":["Big Bend"],"situsAddress":"16988 SUNRAY RD","situsCity":null,"situsZip":null,"jurisdictionCode":"Leon County","ownerName":"BEGGS LOUISE C LIFE ESTATE","ownerName2":null,"propertyName":null,"zoningCode":"R","zoningDistrict":"Rural","jurisdictionPrefix":"LEON","dorCode":null,"acreage":22.66,"centroid":[-83.983204,30.535433],"lastSale":{"date":null,"price":100.0,"qualified":null},"tax":{"marketValue":138000.0,"assessedValue":null,"taxableValue":9890.0,"taxes":146.0},"mailingAddress":{"line1":"5001 GENTLE BREEZE DR","line2":null,"city":"Tallahassee","state":"FL","zip":"32309"},"incomeTract":null,"incomeBlockGroup":null,"nearestRoad":null,"flu":{"code":"R","label":"Rural","jurisdiction":"Leon County","source":"tlc-propinfo"},"opportunityZone":null,"oz2Eligibility":null,"source":"fl-leon-overlay-parcel-12073","appraiserUrl":"https://search.leonpa.gov/Property/Details/1625202020000","dataGaps":null},"geometry":{"type":"Polygon","coordinates":[[[-83.982868,30.535777],[-83.982854,30.535798],[-83.982884,30.535964],[-83.982916,30.536039],[-83.982886,30.536222],[-83.982818,30.536332],[-83.982763,30.536523],[-83.982694,30.536603],[-83.986521,30.536609],[-83.986522,30.534136],[-83.982745,30.534127],[-83.982761,30.534312],[-83.982821,30.53439],[-83.982828,30.534428],[-83.982776,30.534668],[-83.982953,30.534976],[-83.982983,30.535223],[-83.982972,30.535325],[-83.983005,30.535396],[-83.982978,30.535473],[-83.982986,30.535563],[-83.982963,30.535632],[-83.982868,30.535777]],[[-83.986375,30.535466],[-83.985792,30.535782],[-83.985428,30.535284],[-83.986006,30.534966],[-83.986375,30.535466]]]}},{"type":"Feature","id":"12073:1625200120000","properties":{"id":"12073:1625200120000","parcelId":"1625200120000","countyFips":"12073","countyName":"Leon","state":"Florida","marketIds":["Big Bend"],"situsAddress":"5231 GENTLE BREEZE DR","situsCity":null,"situsZip":null,"jurisdictionCode":"Leon County","ownerName":"REESE THOMAS CODY","ownerName2":null,"propertyName":null,"zoningCode":"R","zoningDistrict":"Rural","jurisdictionPrefix":"LEON","dorCode":null,"acreage":20.04,"centroid":[-83.987166,30.539718],"lastSale":{"date":null,"price":100.0,"qualified":null},"tax":{"marketValue":701208.0,"assessedValue":null,"taxableValue":279851.0,"taxes":4279.0},"mailingAddress":{"line1":"5231 GENTLE BREEZE DR","line2":null,"city":"Tallahassee","state":"FL","zip":"32309"},"incomeTract":null,"incomeBlockGroup":null,"nearestRoad":null,"flu":{"code":"R","label":"Rural","jurisdiction":"Leon County","source":"tlc-propinfo"},"opportunityZone":null,"oz2Eligibility":null,"source":"fl-leon-overlay-parcel-12073","appraiserUrl":"https://search.leonpa.gov/Property/Details/1625200120000","dataGaps":null},"geometry":{"type":"Polygon","coordinates":[[[-83.984707,30.540735],[-83.984797,30.540735],[-83.988038,30.540748],[-83.988047,30.538985],[-83.990659,30.538996],[-83.99066,30.538919],[-83.983256,30.538905],[-83.984707,30.540735]]]}},{"type":"Feature","id":"12073:1636202070000","properties":{"id":"12073:1636202070000","parcelId":"1636202070000","countyFips":"12073","countyName":"Leon","state":"Florida","marketIds":["Big Bend"],"situsAddress":"17000 SUNRAY RD","situsCity":null,"situsZip":null,"jurisdictionCode":"Leon County","ownerName":"KINARD KRISTEN DAWN","ownerName2":null,"propertyName":null,"zoningCode":"R","zoningDistrict":"Rural","jurisdictionPrefix":"LEON","dorCode":null,"acreage":19.99,"centroid":[-83.985078,30.53319],"lastSale":{"date":null,"price":100.0,"qualified":null},"tax":{"marketValue":900443.0,"assessedValue":null,"taxableValue":519256.0,"taxes":7822.0},"mailingAddress":{"line1":"17000 SUNRAY RD","line2":null,"city":"Tallahassee","state":"FL","zip":"32309"},"incomeTract":null,"incomeBlockGroup":null,"nearestRoad":null,"flu":{"code":"R","label":"Rural","jurisdiction":"Leon County","source":"tlc-propinfo"},"opportunityZone":null,"oz2Eligibility":null,"source":"fl-leon-overlay-parcel-12073","appraiserUrl":"https://search.leonpa.gov/Property/Details/1636202070000","dataGaps":null},"geometry":{"type":"Polygon","coordinates":[[[-83.983834,30.533042],[-83.98354,30.533423],[-83.983303,30.533731],[-83.982738,30.533925],[-83.982724,30.534127],[-83.988241,30.53414],[-83.988247,30.53209],[-83.987414,30.532082],[-83.987409,30.532685],[-83.983331,30.532652],[-83.983834,30.533042]]]}},{"type":"Feature","id":"12073:1625200080000","properties":{"id":"12073:1625200080000","parcelId":"1625200080000","countyFips":"12073","countyName":"Leon","state":"Florida","marketIds":["Big Bend"],"situsAddress":null,"situsCity":null,"situsZip":null,"jurisdictionCode":"Leon County","ownerName":"GRASSY POINT HOLDING 2 LLC","ownerName2":null,"propertyName":null,"zoningCode":"R","zoningDistrict":"Rural","jurisdictionPrefix":"LEON","dorCode":null,"acreage":16.52,"centroid":[-83.987555,30.543125],"lastSale":{"date":null,"price":450000.0,"qualified":null},"tax":{"marketValue":129780.0,"assessedValue":null,"taxableValue":129780.0,"taxes":1921.0},"mailingAddress":{"line1":"5401 GENTLE BREEZE DR","line2":null,"city":"Tallahassee","state":"FL","zip":"32309"},"incomeTract":null,"incomeBlockGroup":null,"nearestRoad":null,"flu":{"code":"R","label":"Rural","jurisdiction":"Leon County","source":"tlc-propinfo"},"opportunityZone":null,"oz2Eligibility":null,"source":"fl-leon-overlay-parcel-12073","appraiserUrl":"https://search.leonpa.gov/Property/Details/1625200080000","dataGaps":null},"geometry":{"type":"Polygon","coordinates":[[[-83.98561,30.542702],[-83.984873,30.543806],[-83.990823,30.543787],[-83.990805,30.542705],[-83.985662,30.542625],[-83.98561,30.542702]]]}},{"type":"Feature","id":"12073:1635200070000","properties":{"id":"12073:1635200070000","parcelId":"1635200070000","countyFips":"12073","countyName":"Leon","state":"Florida","marketIds":["Big Bend"],"situsAddress":"17025 SUNRAY RD","situsCity":null,"situsZip":null,"jurisdictionCode":"Leon County","ownerName":"CHELLMAN DOUGLAS W","ownerName2":null,"propertyName":null,"zoningCode":"R","zoningDistrict":"Rural","jurisdictionPrefix":"LEON","dorCode":null,"acreage":15.67,"centroid":[-83.991811,30.530213],"lastSale":{"date":null,"price":100.0,"qualified":null},"tax":{"marketValue":513490.0,"assessedValue":null,"taxableValue":137003.0,"taxes":2166.0},"mailingAddress":{"line1":"17025 SUNRAY RD","line2":null,"city":"Tallahassee","state":"FL","zip":"32309"},"incomeTract":null,"incomeBlockGroup":null,"nearestRoad":null,"flu":{"code":"R","label":"Rural","jurisdiction":"Leon County","source":"tlc-propinfo"},"opportunityZone":null,"oz2Eligibility":null,"source":"fl-leon-overlay-parcel-12073","appraiserUrl":"https://search.leonpa.gov/Property/Details/1635200070000","dataGaps":null},"geometry":{"type":"Polygon","coordinates":[[[-83.990884,30.530176],[-83.990875,30.531128],[-83.99087,30.531579],[-83.993343,30.531397],[-83.993369,30.529046],[-83.992441,30.529086],[-83.990895,30.52908],[-83.990884,30.530176]]]}},{"type":"Feature","id":"12073:1636204010000","properties":{"id":"12073:1636204010000","parcelId":"1636204010000","countyFips":"12073","countyName":"Leon","state":"Florida","marketIds":["Big Bend"],"situsAddress":"17677 MAHAN DR","situsCity":null,"situsZip":null,"jurisdictionCode":"Leon County","ownerName":"BURCH BEN F","ownerName2":null,"propertyName":null,"zoningCode":"R","zoningDistrict":"Rural","jurisdictionPrefix":"LEON","dorCode":null,"acreage":15.49,"centroid":[-83.980629,30.526974],"lastSale":{"date":null,"price":25600.0,"qualified":null},"tax":{"marketValue":208678.0,"assessedValue":null,"taxableValue":73511.0,"taxes":1226.0},"mailingAddress":{"line1":"17677 MAHAN DR","line2":null,"city":"Tallahassee","state":"FL","zip":"32309"},"incomeTract":null,"incomeBlockGroup":null,"nearestRoad":null,"flu":{"code":"R","label":"Rural","jurisdiction":"Leon County","source":"tlc-propinfo"},"opportunityZone":null,"oz2Eligibility":null,"source":"fl-leon-overlay-parcel-12073","appraiserUrl":"https://search.leonpa.gov/Property/Details/1636204010000","dataGaps":null},"geometry":{"type":"Polygon","coordinates":[[[-83.98058,30.528491],[-83.980865,30.528493],[-83.982095,30.528502],[-83.982019,30.525177],[-83.980035,30.525166],[-83.979805,30.525762],[-83.980198,30.52595],[-83.980197,30.526394],[-83.98046,30.526672],[-83.980339,30.527288],[-83.980605,30.527708],[-83.98035,30.528079],[-83.98058,30.528491]]]}},{"type":"Feature","id":"12073:1625200060020","properties":{"id":"12073:1625200060020","parcelId":"1625200060020","countyFips":"12073","countyName":"Leon","state":"Florida","marketIds":["Big Bend"],"situsAddress":"5225 GENTLE BREEZE DR","situsCity":null,"situsZip":null,"jurisdictionCode":"Leon County","ownerName":"ANDREWS BRYAN L","ownerName2":null,"propertyName":null,"zoningCode":"R","zoningDistrict":"Rural","jurisdictionPrefix":"LEON","dorCode":null,"acreage":15.18,"centroid":[-83.98548,30.540833],"lastSale":{"date":null,"price":365000.0,"qualified":null},"tax":{"marketValue":1081643.0,"assessedValue":null,"taxableValue":827818.0,"taxes":12389.0},"mailingAddress":{"line1":"5225 GENTLE BREEZE DR","line2":null,"city":"Tallahassee","state":"FL","zip":"32309"},"incomeTract":null,"incomeBlockGroup":null,"nearestRoad":null,"flu":{"code":"R","label":"Rural","jurisdiction":"Leon County","source":"tlc-propinfo"},"opportunityZone":null,"oz2Eligibility":null,"source":"fl-leon-overlay-parcel-12073","appraiserUrl":"https://search.leonpa.gov/Property/Details/1625200060020","dataGaps":null},"geometry":{"type":"Polygon","coordinates":[[[-83.984707,30.540735],[-83.984885,30.540958],[-83.98804,30.540928],[-83.990636,30.540981],[-83.990659,30.538996],[-83.988047,30.538985],[-83.988038,30.540748],[-83.984707,30.540735]]]}},{"type":"Feature","id":"12073:1625200100020","properties":{"id":"12073:1625200100020","parcelId":"1625200100020","countyFips":"12073","countyName":"Leon","state":"Florida","marketIds":["Big Bend"],"situsAddress":"17189 GENTLE BREEZE DR","situsCity":null,"situsZip":null,"jurisdictionCode":"Leon County","ownerName":"GRASSY POINT HOLDINGS LLC","ownerName2":null,"propertyName":null,"zoningCode":"R","zoningDistrict":"Rural","jurisdictionPrefix":"LEON","dorCode":null,"acreage":15.04,"centroid":[-83.987474,30.541976],"lastSale":{"date":null,"price":920000.0,"qualified":null},"tax":{"marketValue":930259.0,"assessedValue":null,"taxableValue":930259.0,"taxes":13767.0},"mailingAddress":{"line1":"560 NW ENTERPRISE DR","line2":null,"city":"Port Saint Lucie","state":"FL","zip":"34986"},"incomeTract":null,"incomeBlockGroup":null,"nearestRoad":null,"flu":{"code":"R","label":"Rural","jurisdiction":"Leon County","source":"tlc-propinfo"},"opportunityZone":null,"oz2Eligibility":null,"source":"fl-leon-overlay-parcel-12073","appraiserUrl":"https://search.leonpa.gov/Property/Details/1625200100020","dataGaps":null},"geometry":{"type":"Polygon","coordinates":[[[-83.988869,30.541553],[-83.985424,30.541712],[-83.985225,30.541721],[-83.985513,30.542051],[-83.985662,30.542625],[-83.990805,30.542705],[-83.99082,30.541462],[-83.988869,30.541553]]]}},{"type":"Feature","id":"12073:1636202030000","properties":{"id":"12073:1636202030000","parcelId":"1636202030000","countyFips":"12073","countyName":"Leon","state":"Florida","marketIds":["Big Bend"],"situsAddress":"17450 MAHAN DR","situsCity":null,"situsZip":null,"jurisdictionCode":"Leon County","ownerName":"BOLTZ MATTHEW","ownerName2":null,"propertyName":null,"zoningCode":"R","zoningDistrict":"Rural","jurisdictionPrefix":"LEON","dorCode":null,"acreage":14.97,"centroid":[-83.986593,30.530297],"lastSale":{"date":null,"price":10800.0,"qualified":null},"tax":{"marketValue":440832.0,"assessedValue":null,"taxableValue":270097.0,"taxes":4135.0},"mailingAddress":{"line1":"17450 MAHAN DR","line2":null,"city":"Tallahassee","state":"FL","zip":"32309"},"incomeTract":null,"incomeBlockGroup":null,"nearestRoad":null,"flu":{"code":"R","label":"Rural","jurisdiction":"Leon County","source":"tlc-propinfo"},"opportunityZone":null,"oz2Eligibility":null,"source":"fl-leon-overlay-parcel-12073","appraiserUrl":"https://search.leonpa.gov/Property/Details/1636202030000","dataGaps":null},"geometry":{"type":"Polygon","coordinates":[[[-83.985842,30.52908],[-83.985817,30.532672],[-83.987409,30.532685],[-83.987444,30.529149],[-83.986525,30.52914],[-83.986523,30.529054],[-83.985842,30.52908]]]}},{"type":"Feature","id":"12073:1635200240000","properties":{"id":"12073:1635200240000","parcelId":"1635200240000","countyFips":"12073","countyName":"Leon","state":"Florida","marketIds":["Big Bend"],"situsAddress":"16893 SUNRAY RD","situsCity":null,"situsZip":null,"jurisdictionCode":"Leon County","ownerName":"TROTMAN BRADLEY","ownerName2":null,"propertyName":null,"zoningCode":"R","zoningDistrict":"Rural","jurisdictionPrefix":"LEON","dorCode":null,"acreage":13.06,"centroid":[-83.992182,30.535373],"lastSale":{"date":null,"price":240000.0,"qualified":null},"tax":{"marketValue":433261.0,"assessedValue":null,"taxableValue":235791.0,"taxes":3627.0},"mailingAddress":{"line1":"8220 HUNTERS RIDGE TRL","line2":null,"city":"Tallahassee","state":"FL","zip":"32312"},"incomeTract":null,"incomeBlockGroup":null,"nearestRoad":null,"flu":{"code":"R","label":"Rural","jurisdiction":"Leon County","source":"tlc-propinfo"},"opportunityZone":null,"oz2Eligibility":null,"source":"fl-leon-overlay-parcel-12073","appraiserUrl":"https://search.leonpa.gov/Property/Details/1635200240000","dataGaps":null},"geometry":{"type":"Polygon","coordinates":[[[-83.990889,30.534202],[-83.990913,30.534766],[-83.990956,30.534961],[-83.991055,30.535135],[-83.9912,30.535273],[-83.991316,30.535339],[-83.992356,30.535845],[-83.992839,30.536045],[-83.993171,30.53615],[-83.99351,30.536232],[-83.994026,30.536309],[-83.993957,30.534214],[-83.990889,30.534202]]]}},{"type":"Feature","id":"12073:1636202040000","properties":{"id":"12073:1636202040000","parcelId":"1636202040000","countyFips":"12073","countyName":"Leon","state":"Florida","marketIds":["Big Bend"],"situsAddress":"17024 SUNRAY RD","situsCity":null,"situsZip":null,"jurisdictionCode":"Leon County","ownerName":"COULTER WILLIAM M REVOCABLE TRUST","ownerName2":null,"propertyName":null,"zoningCode":"R","zoningDistrict":"Rural","jurisdictionPrefix":"LEON","dorCode":null,"acreage":12.87,"centroid":[-83.988987,30.531432],"lastSale":{"date":null,"price":1250000.0,"qualified":null},"tax":{"marketValue":739257.0,"assessedValue":null,"taxableValue":688535.0,"taxes":10328.0},"mailingAddress":{"line1":"17024 SUNRAY RD","line2":null,"city":"Tallahassee","state":"FL","zip":"32309"},"incomeTract":null,"incomeBlockGroup":null,"nearestRoad":null,"flu":{"code":"R","label":"Rural","jurisdiction":"Leon County","source":"tlc-propinfo"},"opportunityZone":null,"oz2Eligibility":null,"source":"fl-leon-overlay-parcel-12073","appraiserUrl":"https://search.leonpa.gov/Property/Details/1636202040000","dataGaps":null},"geometry":{"type":"Polygon","coordinates":[[[-83.987414,30.532082],[-83.988247,30.53209],[-83.988998,30.532097],[-83.989391,30.531526],[-83.990708,30.53154],[-83.990716,30.530361],[-83.987432,30.530327],[-83.987414,30.532082]]]}},{"type":"Feature","id":"12073:1626204120000","properties":{"id":"12073:1626204120000","parcelId":"1626204120000","countyFips":"12073","countyName":"Leon","state":"Florida","marketIds":["Big Bend"],"situsAddress":"16952 SUNRAY RD","situsCity":null,"situsZip":null,"jurisdictionCode":"Leon County","ownerName":"WRIGHT MARK R","ownerName2":null,"propertyName":null,"zoningCode":"R","zoningDistrict":"Rural","jurisdictionPrefix":"LEON","dorCode":null,"acreage":12.51,"centroid":[-83.991344,30.536568],"lastSale":{"date":null,"price":null,"qualified":null},"tax":{"marketValue":133069.0,"assessedValue":null,"taxableValue":35721.0,"taxes":667.0},"mailingAddress":{"line1":"16952 SUN RAY RD","line2":null,"city":"Tallahassee","state":"FL","zip":"32309"},"incomeTract":null,"incomeBlockGroup":null,"nearestRoad":null,"flu":{"code":"R","label":"Rural","jurisdiction":"Leon County","source":"tlc-propinfo"},"opportunityZone":null,"oz2Eligibility":null,"source":"fl-leon-overlay-parcel-12073","appraiserUrl":"https://search.leonpa.gov/Property/Details/1626204120000","dataGaps":null},"geometry":{"type":"Polygon","coordinates":[[[-83.99066,30.538919],[-83.990814,30.538919],[-83.991972,30.538723],[-83.992361,30.538681],[-83.991744,30.537072],[-83.992314,30.536571],[-83.992312,30.535984],[-83.991223,30.535483],[-83.991031,30.535364],[-83.990874,30.535202],[-83.990762,30.535006],[-83.990719,30.534863],[-83.99069,30.534597],[-83.99066,30.538919]]]}},{"type":"Feature","id":"12073:1635200320010","properties":{"id":"12073:1635200320010","parcelId":"1635200320010","countyFips":"12073","countyName":"Leon","state":"Florida","marketIds":["Big Bend"],"situsAddress":"4557 SUNRAY PL","situsCity":null,"situsZip":null,"jurisdictionCode":"Leon County","ownerName":"WOLFE CYNTHIA","ownerName2":null,"propertyName":null,"zoningCode":"R","zoningDistrict":"Rural","jurisdictionPrefix":"LEON","dorCode":null,"acreage":12.1,"centroid":[-83.999611,30.530486],"lastSale":{"date":null,"price":400000.0,"qualified":null},"tax":{"marketValue":384695.0,"assessedValue":null,"taxableValue":174584.0,"taxes":2865.0},"mailingAddress":{"line1":"4557 SUNRAY PL","line2":null,"city":"Tallahassee","state":"FL","zip":"32309"},"incomeTract":null,"incomeBlockGroup":null,"nearestRoad":null,"flu":{"code":"R","label":"Rural","jurisdiction":"Leon County","source":"tlc-propinfo"},"opportunityZone":null,"oz2Eligibility":null,"source":"fl-leon-overlay-parcel-12073","appraiserUrl":"https://search.leonpa.gov/Property/Details/1635200320010","dataGaps":null},"geometry":{"type":"Polygon","coordinates":[[[-84.000684,30.531143],[-84.001827,30.531382],[-84.000175,30.529256],[-83.997987,30.52926],[-83.997966,30.530636],[-83.999097,30.530637],[-83.999094,30.530842],[-84.000057,30.530728],[-84.000684,30.531143]]]}},{"type":"Feature","id":"12073:1636202090000","properties":{"id":"12073:1636202090000","parcelId":"1636202090000","countyFips":"12073","countyName":"Leon","state":"Florida","marketIds":["Big Bend"],"situsAddress":"17032 SUNRAY RD","situsCity":null,"situsZip":null,"jurisdictionCode":"Leon County","ownerName":"HILDEBRANDT TAYLOR R","ownerName2":null,"propertyName":null,"zoningCode":"R","zoningDistrict":"Rural","jurisdictionPrefix":"LEON","dorCode":null,"acreage":11.19,"centroid":[-83.988573,30.529471],"lastSale":{"date":null,"price":140000.0,"qualified":null},"tax":{"marketValue":163860.0,"assessedValue":null,"taxableValue":140649.0,"taxes":2206.0},"mailingAddress":{"line1":"15800 MAHAN DR","line2":null,"city":"Tallahassee","state":"FL","zip":"32309"},"incomeTract":null,"incomeBlockGroup":null,"nearestRoad":null,"flu":{"code":"R","label":"Rural","jurisdiction":"Leon County","source":"tlc-propinfo"},"opportunityZone":null,"oz2Eligibility":null,"source":"fl-leon-overlay-parcel-12073","appraiserUrl":"https://search.leonpa.gov/Property/Details/1636202090000","dataGaps":null},"geometry":{"type":"Polygon","coordinates":[[[-83.986525,30.52914],[-83.987444,30.529149],[-83.987432,30.530327],[-83.990716,30.530361],[-83.990724,30.529183],[-83.99065,30.529081],[-83.986523,30.529054],[-83.986525,30.52914]]]}},{"type":"Feature","id":"12073:1623208010000","properties":{"id":"12073:1623208010000","parcelId":"1623208010000","countyFips":"12073","countyName":"Leon","state":"Florida","marketIds":["Big Bend"],"situsAddress":"16900 RO CO CO RD","situsCity":null,"situsZip":null,"jurisdictionCode":"Leon County","ownerName":"LEON COUNTY","ownerName2":null,"propertyName":null,"zoningCode":"R","zoningDistrict":"Rural","jurisdictionPrefix":"LEON","dorCode":null,"acreage":10.99,"centroid":[-83.99118,30.561775],"lastSale":{"date":null,"price":null,"qualified":null},"tax":{"marketValue":16485.0,"assessedValue":null,"taxableValue":null,"taxes":null},"mailingAddress":{"line1":"301 S MONROE ST STE 202","line2":null,"city":"Tallahassee","state":"FL","zip":"32301"},"incomeTract":null,"incomeBlockGroup":null,"nearestRoad":null,"flu":{"code":"R","label":"Rural","jurisdiction":"Leon County","source":"tlc-propinfo"},"opportunityZone":null,"oz2Eligibility":null,"source":"fl-leon-overlay-parcel-12073","appraiserUrl":"https://search.leonpa.gov/Property/Details/1623208010000","dataGaps":null},"geometry":{"type":"Polygon","coordinates":[[[-83.990945,30.560754],[-83.990968,30.560813],[-83.990886,30.560912],[-83.990871,30.560957],[-83.990909,30.561025],[-83.990898,30.561099],[-83.990776,30.561421],[-83.990757,30.561596],[-83.990798,30.561739],[-83.990926,30.562012],[-83.990913,30.562151],[-83.990938,30.562282],[-83.990934,30.562383],[-83.991119,30.56265],[-83.991135,30.562743],[-83.991278,30.563003],[-83.991261,30.563105],[-83.991406,30.563257],[-83.993068,30.561913],[-83.993074,30.560734],[-83.990912,30.560726],[-83.990945,30.560754]]]}},{"type":"Feature","id":"12073:1635204300000","properties":{"id":"12073:1635204300000","parcelId":"1635204300000","countyFips":"12073","countyName":"Leon","state":"Florida","marketIds":["Big Bend"],"situsAddress":"16895 MAHAN DR","situsCity":null,"situsZip":null,"jurisdictionCode":"Leon County","ownerName":"DEPUTY STEVEN","ownerName2":null,"propertyName":null,"zoningCode":"R","zoningDistrict":"Rural","jurisdictionPrefix":"LEON","dorCode":null,"acreage":10.3,"centroid":[-83.993877,30.527308],"lastSale":{"date":null,"price":199000.0,"qualified":null},"tax":{"marketValue":94090.0,"assessedValue":null,"taxableValue":80549.0,"taxes":1265.0},"mailingAddress":{"line1":"220 RIVERWAY DR","line2":null,"city":"Vero Beach","state":"FL","zip":"32963"},"incomeTract":null,"incomeBlockGroup":null,"nearestRoad":null,"flu":{"code":"R","label":"Rural","jurisdiction":"Leon County","source":"tlc-propinfo"},"opportunityZone":null,"oz2Eligibility":null,"source":"fl-leon-overlay-parcel-12073","appraiserUrl":"https://search.leonpa.gov/Property/Details/1635204300000","dataGaps":null},"geometry":{"type":"Polygon","coordinates":[[[-83.993655,30.526556],[-83.992913,30.526633],[-83.992926,30.528588],[-83.994959,30.528332],[-83.99493,30.526431],[-83.993655,30.526556]]]}},{"type":"Feature","id":"12073:1636202050000","properties":{"id":"12073:1636202050000","parcelId":"1636202050000","countyFips":"12073","countyName":"Leon","state":"Florida","marketIds":["Big Bend"],"situsAddress":null,"situsCity":null,"situsZip":null,"jurisdictionCode":"Leon County","ownerName":"KINARD KRISTEN DAWN","ownerName2":null,"propertyName":null,"zoningCode":"R","zoningDistrict":"Rural","jurisdictionPrefix":"LEON","dorCode":null,"acreage":10.25,"centroid":[-83.989144,30.533045],"lastSale":{"date":null,"price":100.0,"qualified":null},"tax":{"marketValue":56375.0,"assessedValue":null,"taxableValue":3075.0,"taxes":46.0},"mailingAddress":{"line1":"17000 SUNRAY RD","line2":null,"city":"Tallahassee","state":"FL","zip":"32309"},"incomeTract":null,"incomeBlockGroup":null,"nearestRoad":null,"flu":{"code":"R","label":"Rural","jurisdiction":"Leon County","source":"tlc-propinfo"},"opportunityZone":null,"oz2Eligibility":null,"source":"fl-leon-overlay-parcel-12073","appraiserUrl":"https://search.leonpa.gov/Property/Details/1636202050000","dataGaps":null},"geometry":{"type":"Polygon","coordinates":[[[-83.988243,30.533426],[-83.988241,30.53414],[-83.990637,30.534146],[-83.990643,30.532715],[-83.988996,30.532701],[-83.988998,30.532097],[-83.988247,30.53209],[-83.988243,30.533426]]]}},{"type":"Feature","id":"12073:1635200400000","properties":{"id":"12073:1635200400000","parcelId":"1635200400000","countyFips":"12073","countyName":"Leon","state":"Florida","marketIds":["Big Bend"],"situsAddress":null,"situsCity":null,"situsZip":null,"jurisdictionCode":"Leon County","ownerName":"CUMMINGS JOHN TODD","ownerName2":null,"propertyName":null,"zoningCode":"R","zoningDistrict":"Rural","jurisdictionPrefix":"LEON","dorCode":null,"acreage":10.2,"centroid":[-83.997188,30.529851],"lastSale":{"date":null,"price":100.0,"qualified":null},"tax":{"marketValue":75000.0,"assessedValue":null,"taxableValue":75000.0,"taxes":1110.0},"mailingAddress":{"line1":"16716 MAHAN DR","line2":null,"city":"Tallahassee","state":"FL","zip":"32309"},"incomeTract":null,"incomeBlockGroup":null,"nearestRoad":null,"flu":{"code":"R","label":"Rural","jurisdiction":"Leon County","source":"tlc-propinfo"},"opportunityZone":null,"oz2Eligibility":null,"source":"fl-leon-overlay-parcel-12073","appraiserUrl":"https://search.leonpa.gov/Property/Details/1635200400000","dataGaps":null},"geometry":{"type":"Polygon","coordinates":[[[-83.996642,30.530258],[-83.9966,30.532129],[-83.997931,30.53213],[-83.997987,30.52926],[-83.99736,30.529261],[-83.997175,30.528532],[-83.997081,30.528549],[-83.997251,30.529283],[-83.996663,30.52926],[-83.996642,30.530258]]]}},{"type":"Feature","id":"12073:1625200010000","properties":{"id":"12073:1625200010000","parcelId":"1625200010000","countyFips":"12073","countyName":"Leon","state":"Florida","marketIds":["Big Bend"],"situsAddress":"5011 GENTLE BREEZE DR","situsCity":null,"situsZip":null,"jurisdictionCode":"Leon County","ownerName":"COXETTER WILLIAM C JR","ownerName2":null,"propertyName":null,"zoningCode":"R","zoningDistrict":"Rural","jurisdictionPrefix":"LEON","dorCode":null,"acreage":10.1,"centroid":[-83.989674,30.537455],"lastSale":{"date":null,"price":25000.0,"qualified":null},"tax":{"marketValue":166904.0,"assessedValue":null,"taxableValue":116182.0,"taxes":1857.0},"mailingAddress":{"line1":"5011 GENTLE BREEZE DR","line2":null,"city":"Tallahassee","state":"FL","zip":"32309"},"incomeTract":null,"incomeBlockGroup":null,"nearestRoad":null,"flu":{"code":"R","label":"Rural","jurisdiction":"Leon County","source":"tlc-propinfo"},"opportunityZone":null,"oz2Eligibility":null,"source":"fl-leon-overlay-parcel-12073","appraiserUrl":"https://search.leonpa.gov/Property/Details/1625200010000","dataGaps":null},"geometry":{"type":"Polygon","coordinates":[[[-83.990676,30.53636],[-83.988844,30.536612],[-83.988511,30.538419],[-83.990665,30.538429],[-83.990676,30.53636]]]}},{"type":"Feature","id":"12073:1636204020000","properties":{"id":"12073:1636204020000","parcelId":"1636204020000","countyFips":"12073","countyName":"Leon","state":"Florida","marketIds":["Big Bend"],"situsAddress":"17601 MAHAN DR","situsCity":null,"situsZip":null,"jurisdictionCode":"Leon County","ownerName":"WYCHE ROBERT C AND THERESA ANGELA TRUST","ownerName2":null,"propertyName":null,"zoningCode":"R","zoningDistrict":"Rural","jurisdictionPrefix":"LEON","dorCode":null,"acreage":10.04,"centroid":[-83.982631,30.526843],"lastSale":{"date":null,"price":197000.0,"qualified":null},"tax":{"marketValue":140504.0,"assessedValue":null,"taxableValue":140504.0,"taxes":2079.0},"mailingAddress":{"line1":"17500 MAHAN DR","line2":null,"city":"Tallahassee","state":"FL","zip":"32309"},"incomeTract":null,"incomeBlockGroup":null,"nearestRoad":null,"flu":{"code":"R","label":"Rural","jurisdiction":"Leon County","source":"tlc-propinfo"},"opportunityZone":null,"oz2Eligibility":null,"source":"fl-leon-overlay-parcel-12073","appraiserUrl":"https://search.leonpa.gov/Property/Details/1636204020000","dataGaps":null},"geometry":{"type":"Polygon","coordinates":[[[-83.982095,30.528502],[-83.983244,30.528507],[-83.983168,30.525185],[-83.982019,30.525177],[-83.982095,30.528502]]]}},{"type":"Feature","id":"12073:1625200050010","properties":{"id":"12073:1625200050010","parcelId":"1625200050010","countyFips":"12073","countyName":"Leon","state":"Florida","marketIds":["Big Bend"],"situsAddress":"5277 GENTLE BREEZE DR","situsCity":null,"situsZip":null,"jurisdictionCode":"Leon County","ownerName":"COXETTER WILLIAM S","ownerName2":null,"propertyName":null,"zoningCode":"R","zoningDistrict":"Rural","jurisdictionPrefix":"LEON","dorCode":null,"acreage":9.99,"centroid":[-83.984289,30.538214],"lastSale":{"date":null,"price":80000.0,"qualified":null},"tax":{"marketValue":187560.0,"assessedValue":null,"taxableValue":34656.0,"taxes":603.0},"mailingAddress":{"line1":"9114 OLD MAGNOLIA RD","line2":null,"city":"Tallahassee","state":"FL","zip":"32309"},"incomeTract":null,"incomeBlockGroup":null,"nearestRoad":null,"flu":{"code":"R","label":"Rural","jurisdiction":"Leon County","source":"tlc-propinfo"},"opportunityZone":null,"oz2Eligibility":null,"source":"fl-leon-overlay-parcel-12073","appraiserUrl":"https://search.leonpa.gov/Property/Details/1625200050010","dataGaps":null},"geometry":{"type":"Polygon","coordinates":[[[-83.983134,30.537934],[-83.983023,30.538807],[-83.98298,30.538904],[-83.986149,30.53891],[-83.986155,30.537505],[-83.9846,30.537503],[-83.98398,30.537935],[-83.983134,30.537934]]]}},{"type":"Feature","id":"12073:1625200060010","properties":{"id":"12073:1625200060010","parcelId":"1625200060010","countyFips":"12073","countyName":"Leon","state":"Florida","marketIds":["Big Bend"],"situsAddress":"5301 GENTLE BREEZE DR","situsCity":null,"situsZip":null,"jurisdictionCode":"Leon County","ownerName":"BERRY BRENTON","ownerName2":null,"propertyName":null,"zoningCode":"R","zoningDistrict":"Rural","jurisdictionPrefix":"LEON","dorCode":null,"acreage":9.93,"centroid":[-83.987,30.5412],"lastSale":{"date":null,"price":469000.0,"qualified":null},"tax":{"marketValue":216796.0,"assessedValue":null,"taxableValue":216796.0,"taxes":3208.0},"mailingAddress":{"line1":"16161 SUNRAY RD","line2":null,"city":"Tallahassee","state":"FL","zip":"32309"},"incomeTract":null,"incomeBlockGroup":null,"nearestRoad":null,"flu":{"code":"R","label":"Rural","jurisdiction":"Leon County","source":"tlc-propinfo"},"opportunityZone":null,"oz2Eligibility":null,"source":"fl-leon-overlay-parcel-12073","appraiserUrl":"https://search.leonpa.gov/Property/Details/1625200060010","dataGaps":null},"geometry":{"type":"Polygon","coordinates":[[[-83.984303,30.540956],[-83.984541,30.541064],[-83.985053,30.541297],[-83.985415,30.541712],[-83.99082,30.541462],[-83.990826,30.540981],[-83.98804,30.540928],[-83.984303,30.540956]]]}},{"type":"Feature","id":"12073:1635200320040","properties":{"id":"12073:1635200320040","parcelId":"1635200320040","countyFips":"12073","countyName":"Leon","state":"Florida","marketIds":["Big Bend"],"situsAddress":"16393 SUNRAY RD","situsCity":null,"situsZip":null,"jurisdictionCode":"Leon County","ownerName":"DYBENDAHL KNUT","ownerName2":null,"propertyName":null,"zoningCode":"R","zoningDistrict":"Rural","jurisdictionPrefix":"LEON","dorCode":null,"acreage":9.31,"centroid":[-83.998706,30.534951],"lastSale":{"date":null,"price":155000.0,"qualified":null},"tax":{"marketValue":254423.0,"assessedValue":null,"taxableValue":130532.0,"taxes":2070.0},"mailingAddress":{"line1":"PO BOX 1102","line2":null,"city":"Monticello","state":"FL","zip":"32345"},"incomeTract":null,"incomeBlockGroup":null,"nearestRoad":null,"flu":{"code":"R","label":"Rural","jurisdiction":"Leon County","source":"tlc-propinfo"},"opportunityZone":null,"oz2Eligibility":null,"source":"fl-leon-overlay-parcel-12073","appraiserUrl":"https://search.leonpa.gov/Property/Details/1635200320040","dataGaps":null},"geometry":{"type":"Polygon","coordinates":[[[-83.999047,30.534068],[-83.999038,30.534642],[-83.997353,30.534641],[-83.997488,30.536447],[-83.998568,30.536445],[-83.998384,30.535505],[-83.99949,30.535252],[-83.999921,30.534675],[-83.999064,30.532885],[-83.999047,30.534068]]]}},{"type":"Feature","id":"12073:1635206110000","properties":{"id":"12073:1635206110000","parcelId":"1635206110000","countyFips":"12073","countyName":"Leon","state":"Florida","marketIds":["Big Bend"],"situsAddress":"4023 LOGANS RUN","situsCity":null,"situsZip":null,"jurisdictionCode":"Leon County","ownerName":"OWENS JASON","ownerName2":null,"propertyName":null,"zoningCode":"R","zoningDistrict":"Rural","jurisdictionPrefix":"LEON","dorCode":null,"acreage":9.17,"centroid":[-83.999958,30.526173],"lastSale":{"date":null,"price":118000.0,"qualified":null},"tax":{"marketValue":564678.0,"assessedValue":null,"taxableValue":357104.0,"taxes":5423.0},"mailingAddress":{"line1":"4023 LOGANS RUN","line2":null,"city":"Tallahassee","state":"FL","zip":"32309"},"incomeTract":null,"incomeBlockGroup":null,"nearestRoad":null,"flu":{"code":"R","label":"Rural","jurisdiction":"Leon County","source":"tlc-propinfo"},"opportunityZone":null,"oz2Eligibility":null,"source":"fl-leon-overlay-parcel-12073","appraiserUrl":"https://search.leonpa.gov/Property/Details/1635206110000","dataGaps":null},"geometry":{"type":"Polygon","coordinates":[[[-84.00061,30.5253],[-84.000546,30.525299],[-83.999022,30.525288],[-83.999011,30.527622],[-84.0006,30.527357],[-84.00061,30.5253]]]}},{"type":"Feature","id":"12073:1635200310000","properties":{"id":"12073:1635200310000","parcelId":"1635200310000","countyFips":"12073","countyName":"Leon","state":"Florida","marketIds":["Big Bend"],"situsAddress":"4588 SUNRAY PL","situsCity":null,"situsZip":null,"jurisdictionCode":"Leon County","ownerName":"JOYNER JIMMIE W","ownerName2":null,"propertyName":null,"zoningCode":"R","zoningDistrict":"Rural","jurisdictionPrefix":"LEON","dorCode":null,"acreage":8.48,"centroid":[-83.997872,30.533151],"lastSale":{"date":null,"price":100.0,"qualified":null},"tax":{"marketValue":187584.0,"assessedValue":null,"taxableValue":null,"taxes":194.0},"mailingAddress":{"line1":"4588 SUNRAY PL","line2":null,"city":"Tallahassee","state":"FL","zip":"32309"},"incomeTract":null,"incomeBlockGroup":null,"nearestRoad":null,"flu":{"code":"R","label":"Rural","jurisdiction":"Leon County","source":"tlc-propinfo"},"opportunityZone":null,"oz2Eligibility":null,"source":"fl-leon-overlay-parcel-12073","appraiserUrl":"https://search.leonpa.gov/Property/Details/1635200310000","dataGaps":null},"geometry":{"type":"Polygon","coordinates":[[[-83.99826,30.532693],[-83.997434,30.532693],[-83.996656,30.532692],[-83.996766,30.534067],[-83.999047,30.534068],[-83.999067,30.532693],[-83.99826,30.532693]]]}},{"type":"Feature","id":"12073:1635206220000","properties":{"id":"12073:1635206220000","parcelId":"1635206220000","countyFips":"12073","countyName":"Leon","state":"Florida","marketIds":["Big Bend"],"situsAddress":"4013 LOGANS RUN","situsCity":null,"situsZip":null,"jurisdictionCode":"Leon County","ownerName":"WILLIAMS CHRISTIAN","ownerName2":null,"propertyName":null,"zoningCode":"R","zoningDistrict":"Rural","jurisdictionPrefix":"LEON","dorCode":null,"acreage":8.0,"centroid":[-83.999965,30.524529],"lastSale":{"date":null,"price":271000.0,"qualified":null},"tax":{"marketValue":382607.0,"assessedValue":null,"taxableValue":235739.0,"taxes":3627.0},"mailingAddress":{"line1":"4013 LOGANS RUN","line2":null,"city":"Tallahassee","state":"FL","zip":"32309"},"incomeTract":null,"incomeBlockGroup":null,"nearestRoad":null,"flu":{"code":"R","label":"Rural","jurisdiction":"Leon County","source":"tlc-propinfo"},"opportunityZone":null,"oz2Eligibility":null,"source":"fl-leon-overlay-parcel-12073","appraiserUrl":"https://search.leonpa.gov/Property/Details/1635206220000","dataGaps":null},"geometry":{"type":"Polygon","coordinates":[[[-83.999022,30.525288],[-84.000546,30.525299],[-84.00061,30.5253],[-84.000618,30.523384],[-83.99903,30.523372],[-83.999022,30.525288]]]}},{"type":"Feature","id":"12073:1626204110000","properties":{"id":"12073:1626204110000","parcelId":"1626204110000","countyFips":"12073","countyName":"Leon","state":"Florida","marketIds":["Big Bend"],"situsAddress":"16940 SUNRAY RD","situsCity":null,"situsZip":null,"jurisdictionCode":"Leon County","ownerName":"WRIGHT CHRISTOPHER L","ownerName2":null,"propertyName":null,"zoningCode":"R","zoningDistrict":"Rural","jurisdictionPrefix":"LEON","dorCode":null,"acreage":7.75,"centroid":[-83.992609,30.537398],"lastSale":{"date":null,"price":100.0,"qualified":null},"tax":{"marketValue":468202.0,"assessedValue":null,"taxableValue":287736.0,"taxes":4396.0},"mailingAddress":{"line1":"16940 SUNRAY RD","line2":null,"city":"Tallahassee","state":"FL","zip":"32309"},"incomeTract":null,"incomeBlockGroup":null,"nearestRoad":null,"flu":{"code":"R","label":"Rural","jurisdiction":"Leon County","source":"tlc-propinfo"},"opportunityZone":null,"oz2Eligibility":null,"source":"fl-leon-overlay-parcel-12073","appraiserUrl":"https://search.leonpa.gov/Property/Details/1626204110000","dataGaps":null},"geometry":{"type":"Polygon","coordinates":[[[-83.992361,30.538681],[-83.992718,30.538643],[-83.992879,30.538452],[-83.993098,30.538601],[-83.993506,30.536481],[-83.992547,30.536097],[-83.992312,30.535984],[-83.992314,30.536571],[-83.991744,30.537072],[-83.992361,30.538681]]]}},{"type":"Feature","id":"12073:1635204020000","properties":{"id":"12073:1635204020000","parcelId":"1635204020000","countyFips":"12073","countyName":"Leon","state":"Florida","marketIds":["Big Bend"],"situsAddress":"16824 MAHAN DR","situsCity":null,"situsZip":null,"jurisdictionCode":"Leon County","ownerName":"JOHNSON KIRRA R","ownerName2":null,"propertyName":null,"zoningCode":"R","zoningDistrict":"Rural","jurisdictionPrefix":"LEON","dorCode":null,"acreage":7.57,"centroid":[-83.995548,30.529389],"lastSale":{"date":null,"price":500000.0,"qualified":null},"tax":{"marketValue":390652.0,"assessedValue":null,"taxableValue":247115.0,"taxes":3795.0},"mailingAddress":{"line1":"16824 MAHAN DR","line2":null,"city":"Tallahassee","state":"FL","zip":"32309"},"incomeTract":null,"incomeBlockGroup":null,"nearestRoad":null,"flu":{"code":"R","label":"Rural","jurisdiction":"Leon County","source":"tlc-propinfo"},"opportunityZone":null,"oz2Eligibility":null,"source":"fl-leon-overlay-parcel-12073","appraiserUrl":"https://search.leonpa.gov/Property/Details/1635204020000","dataGaps":null},"geometry":{"type":"Polygon","coordinates":[[[-83.994847,30.528916],[-83.994845,30.529249],[-83.994333,30.52925],[-83.994512,30.530243],[-83.996642,30.530258],[-83.996663,30.52926],[-83.996338,30.529257],[-83.996206,30.528682],[-83.994847,30.528916]]]}},{"type":"Feature","id":"12073:1635206130000","properties":{"id":"12073:1635206130000","parcelId":"1635206130000","countyFips":"12073","countyName":"Leon","state":"Florida","marketIds":["Big Bend"],"situsAddress":"4003 LOGANS RUN","situsCity":null,"situsZip":null,"jurisdictionCode":"Leon County","ownerName":"GARLAND MAX H JR","ownerName2":null,"propertyName":null,"zoningCode":"R","zoningDistrict":"Rural","jurisdictionPrefix":"LEON","dorCode":null,"acreage":6.37,"centroid":[-83.999971,30.522771],"lastSale":{"date":null,"price":520000.0,"qualified":null},"tax":{"marketValue":467478.0,"assessedValue":null,"taxableValue":267577.0,"taxes":4098.0},"mailingAddress":{"line1":"4003 LOGANS RUN","line2":null,"city":"Tallahassee","state":"FL","zip":"32309"},"incomeTract":null,"incomeBlockGroup":null,"nearestRoad":null,"flu":{"code":"R","label":"Rural","jurisdiction":"Leon County","source":"tlc-propinfo"},"opportunityZone":null,"oz2Eligibility":null,"source":"fl-leon-overlay-parcel-12073","appraiserUrl":"https://search.leonpa.gov/Property/Details/1635206130000","dataGaps":null},"geometry":{"type":"Polygon","coordinates":[[[-83.99903,30.523372],[-84.000555,30.523383],[-84.000618,30.523384],[-84.000625,30.521864],[-83.999027,30.521852],[-83.99903,30.523372]]]}},{"type":"Feature","id":"12073:1635200060000","properties":{"id":"12073:1635200060000","parcelId":"1635200060000","countyFips":"12073","countyName":"Leon","state":"Florida","marketIds":["Big Bend"],"situsAddress":"16785 SUNRAY RD","situsCity":null,"situsZip":null,"jurisdictionCode":"Leon County","ownerName":"CONGDON WM H","ownerName2":null,"propertyName":null,"zoningCode":"R","zoningDistrict":"Rural","jurisdictionPrefix":"LEON","dorCode":null,"acreage":5.08,"centroid":[-83.994741,30.535897],"lastSale":{"date":null,"price":75400.0,"qualified":null},"tax":{"marketValue":100480.0,"assessedValue":null,"taxableValue":91398.0,"taxes":1401.0},"mailingAddress":{"line1":"414 CAMELIA TRL","line2":null,"city":"Saint Augustine","state":"FL","zip":"32086"},"incomeTract":null,"incomeBlockGroup":null,"nearestRoad":null,"flu":{"code":"R","label":"Rural","jurisdiction":"Leon County","source":"tlc-propinfo"},"opportunityZone":null,"oz2Eligibility":null,"source":"fl-leon-overlay-parcel-12073","appraiserUrl":"https://search.leonpa.gov/Property/Details/1635200060000","dataGaps":null},"geometry":{"type":"Polygon","coordinates":[[[-83.994026,30.536309],[-83.994344,30.536338],[-83.99567,30.536418],[-83.995676,30.535214],[-83.99399,30.535208],[-83.994026,30.536309]]]}}]}