{"type":"FeatureCollection","name":"37187-24_34","features":[{"type":"Feature","id":"37187:6753154147","properties":{"id":"37187:6753154147","parcelId":"6753154147","countyFips":"37187","countyName":"Washington","state":"North Carolina","marketIds":["Raleigh-Durham"],"situsAddress":"LONG RIDGE RD","situsCity":null,"situsZip":null,"jurisdictionCode":null,"ownerName":"BROWNING, JOHN R. & SHEREE B.","ownerName2":null,"propertyName":null,"zoningCode":null,"zoningDistrict":null,"jurisdictionPrefix":null,"dorCode":"20","acreage":72.053,"centroid":[-76.805395,35.749555],"lastSale":{"date":"2016-09-07","price":40000.0,"qualified":"Qual"},"tax":{"marketValue":36670.0,"assessedValue":null,"taxableValue":null,"taxes":null},"mailingAddress":{"line1":"2200 GRESHAM LAKE ROAD","line2":"RALEIGH, NC","city":null,"state":null,"zip":"27615"},"incomeTract":null,"incomeBlockGroup":null,"nearestRoad":null,"flu":null,"opportunityZone":null,"oz2Eligibility":null,"source":"nc-washington-parcels-37187","appraiserUrl":"http://taxweb.washconc.org/Parcel.aspx?7184","gisViewerUrl":"https://experience.arcgis.com/experience/3bffabc4dd484e1bbfa49186361dce5d"},"geometry":{"type":"Polygon","coordinates":[[[-76.804326,35.745965],[-76.80063,35.751473],[-76.801907,35.752009],[-76.804719,35.753242],[-76.806467,35.750714],[-76.807481,35.748843],[-76.807878,35.748263],[-76.807387,35.748047],[-76.807764,35.747436],[-76.804326,35.745965]]]}},{"type":"Feature","id":"37187:6762401275","properties":{"id":"37187:6762401275","parcelId":"6762401275","countyFips":"37187","countyName":"Washington","state":"North Carolina","marketIds":["Raleigh-Durham"],"situsAddress":"NC HWY 32 S","situsCity":null,"situsZip":null,"jurisdictionCode":null,"ownerName":"COX, MARCUS CZERNIK","ownerName2":null,"propertyName":null,"zoningCode":null,"zoningDistrict":null,"jurisdictionPrefix":null,"dorCode":"20","acreage":10.836,"centroid":[-76.763047,35.708151],"lastSale":{"date":"1996-06-07","price":22000.0,"qualified":"Qual"},"tax":{"marketValue":27420.0,"assessedValue":null,"taxableValue":null,"taxes":null},"mailingAddress":{"line1":"11286 NC HWY 32 S","line2":"PLYMOUTH, NC","city":null,"state":null,"zip":"27962"},"incomeTract":null,"incomeBlockGroup":null,"nearestRoad":null,"flu":null,"opportunityZone":null,"oz2Eligibility":null,"source":"nc-washington-parcels-37187","appraiserUrl":"http://taxweb.washconc.org/Parcel.aspx?8443","gisViewerUrl":"https://experience.arcgis.com/experience/3bffabc4dd484e1bbfa49186361dce5d"},"geometry":{"type":"Polygon","coordinates":[[[-76.761145,35.708596],[-76.762454,35.709203],[-76.763778,35.708573],[-76.76508,35.708061],[-76.76351,35.707474],[-76.762312,35.707001],[-76.761145,35.708596]]]}},{"type":"Feature","id":"37187:6763139970","properties":{"id":"37187:6763139970","parcelId":"6763139970","countyFips":"37187","countyName":"Washington","state":"North Carolina","marketIds":["Raleigh-Durham"],"situsAddress":"1816 HOLLIS RD","situsCity":null,"situsZip":null,"jurisdictionCode":null,"ownerName":"CRAFT, EDWARD E. & ELIZ.(VIOLA) G.","ownerName2":null,"propertyName":null,"zoningCode":null,"zoningDistrict":null,"jurisdictionPrefix":null,"dorCode":"11","acreage":27.94,"centroid":[-76.768157,35.746066],"lastSale":{"date":null,"price":null,"qualified":"Disq"},"tax":{"marketValue":114550.0,"assessedValue":null,"taxableValue":null,"taxes":null},"mailingAddress":{"line1":"1816 HOLLIS ROAD","line2":"PLYMOUTH, NC","city":null,"state":null,"zip":"27962"},"incomeTract":null,"incomeBlockGroup":null,"nearestRoad":null,"flu":null,"opportunityZone":null,"oz2Eligibility":null,"source":"nc-washington-parcels-37187","appraiserUrl":"http://taxweb.washconc.org/Parcel.aspx?7206","gisViewerUrl":"https://experience.arcgis.com/experience/3bffabc4dd484e1bbfa49186361dce5d"},"geometry":{"type":"Polygon","coordinates":[[[-76.765346,35.747473],[-76.766732,35.749171],[-76.770967,35.745148],[-76.76968,35.743699],[-76.769742,35.74366],[-76.769129,35.742962],[-76.768626,35.743313],[-76.769705,35.744523],[-76.765346,35.747473]]]}},{"type":"Feature","id":"37187:6742753659","properties":{"id":"37187:6742753659","parcelId":"6742753659","countyFips":"37187","countyName":"Washington","state":"North Carolina","marketIds":["Raleigh-Durham"],"situsAddress":"8278 LONG RIDGE RD","situsCity":null,"situsZip":null,"jurisdictionCode":null,"ownerName":"MIZELLE, MARJORY P. TRUSTEE HEIRS","ownerName2":"MAJORY MIZELLE REVOCABLE LIVING TRUS","propertyName":null,"zoningCode":null,"zoningDistrict":null,"jurisdictionPrefix":null,"dorCode":"21","acreage":100.081,"centroid":[-76.820492,35.724587],"lastSale":{"date":"2006-05-03","price":null,"qualified":null},"tax":{"marketValue":129000.0,"assessedValue":null,"taxableValue":null,"taxes":null},"mailingAddress":{"line1":"8650 LONG RIDGE RD","line2":"PLYMOUTH, NC","city":null,"state":null,"zip":"27962"},"incomeTract":null,"incomeBlockGroup":null,"nearestRoad":null,"flu":null,"opportunityZone":null,"oz2Eligibility":null,"source":"nc-washington-parcels-37187","appraiserUrl":"http://taxweb.washconc.org/Parcel.aspx?7197","gisViewerUrl":"https://experience.arcgis.com/experience/3bffabc4dd484e1bbfa49186361dce5d"},"geometry":{"type":"MultiPolygon","coordinates":[[[[-76.819214,35.725064],[-76.818737,35.725986],[-76.818097,35.727235],[-76.81804,35.727383],[-76.817929,35.727876],[-76.817827,35.728629],[-76.818423,35.728679],[-76.820448,35.726989],[-76.822353,35.723046],[-76.823156,35.721259],[-76.822763,35.721029],[-76.821537,35.720496],[-76.821173,35.721238],[-76.822394,35.72174],[-76.822171,35.722232],[-76.820928,35.721721],[-76.819836,35.723854],[-76.820448,35.724083],[-76.820077,35.724805],[-76.819462,35.724577],[-76.819214,35.725064]]],[[[-76.818745,35.72044],[-76.81854,35.720897],[-76.817917,35.721758],[-76.817527,35.722425],[-76.817402,35.722553],[-76.818224,35.723473],[-76.820594,35.719271],[-76.820226,35.719263],[-76.819872,35.719225],[-76.819315,35.719256],[-76.81903,35.719299],[-76.8186,35.71947],[-76.818436,35.71948],[-76.818241,35.719441],[-76.817762,35.719401],[-76.817503,35.719525],[-76.817443,35.71952],[-76.817378,35.719474],[-76.817246,35.719518],[-76.818745,35.72044]]],[[[-76.819419,35.721686],[-76.818337,35.723602],[-76.819252,35.724566],[-76.820896,35.721356],[-76.81982,35.720973],[-76.819419,35.721686]]],[[[-76.816633,35.723341],[-76.816182,35.723941],[-76.815952,35.724442],[-76.815353,35.725321],[-76.814561,35.727989],[-76.815528,35.728251],[-76.818196,35.723521],[-76.81736,35.722596],[-76.816633,35.723341]]],[[[-76.816993,35.729021],[-76.817053,35.728543],[-76.817609,35.728752],[-76.817729,35.727854],[-76.817794,35.727521],[-76.817907,35.727179],[-76.819226,35.724616],[-76.818308,35.723653],[-76.81558,35.728488],[-76.816993,35.729021]]]]}},{"type":"Feature","id":"37187:6753626144","properties":{"id":"37187:6753626144","parcelId":"6753626144","countyFips":"37187","countyName":"Washington","state":"North Carolina","marketIds":["Raleigh-Durham"],"situsAddress":"HOLLIS RD","situsCity":null,"situsZip":null,"jurisdictionCode":null,"ownerName":"BEDDARD, MERVIN JAMES JR.","ownerName2":null,"propertyName":null,"zoningCode":null,"zoningDistrict":null,"jurisdictionPrefix":null,"dorCode":"20","acreage":104.485,"centroid":[-76.790483,35.740095],"lastSale":{"date":"1996-12-17","price":47000.0,"qualified":"Disq"},"tax":{"marketValue":62130.0,"assessedValue":null,"taxableValue":null,"taxes":null},"mailingAddress":{"line1":"3266 HOLLIS RD","line2":"PLYMOUTH, NC","city":null,"state":null,"zip":"27962"},"incomeTract":null,"incomeBlockGroup":null,"nearestRoad":null,"flu":null,"opportunityZone":null,"oz2Eligibility":null,"source":"nc-washington-parcels-37187","appraiserUrl":"http://taxweb.washconc.org/Parcel.aspx?7810","gisViewerUrl":"https://experience.arcgis.com/experience/3bffabc4dd484e1bbfa49186361dce5d"},"geometry":{"type":"Polygon","coordinates":[[[-76.782485,35.739921],[-76.785977,35.744933],[-76.791331,35.742451],[-76.794333,35.740699],[-76.794194,35.740298],[-76.79387,35.739843],[-76.793655,35.73929],[-76.793368,35.739345],[-76.792998,35.739378],[-76.792023,35.739383],[-76.789422,35.740033],[-76.789288,35.739852],[-76.790057,35.739384],[-76.789549,35.73937],[-76.789098,35.739276],[-76.786074,35.738057],[-76.782485,35.739921]],[[-76.78795,35.740337],[-76.788507,35.740129],[-76.78905,35.740908],[-76.788171,35.741226],[-76.787632,35.740457],[-76.78795,35.740337]]]}},{"type":"Feature","id":"37187:6763643079","properties":{"id":"37187:6763643079","parcelId":"6763643079","countyFips":"37187","countyName":"Washington","state":"North Carolina","marketIds":["Raleigh-Durham"],"situsAddress":"799 HOLLIS RD","situsCity":null,"situsZip":null,"jurisdictionCode":null,"ownerName":"THE ALLEN PARTNERSHIP","ownerName2":null,"propertyName":null,"zoningCode":null,"zoningDistrict":null,"jurisdictionPrefix":null,"dorCode":"20","acreage":36.764,"centroid":[-76.753795,35.746667],"lastSale":{"date":"2012-11-26","price":null,"qualified":"Disq"},"tax":{"marketValue":59850.0,"assessedValue":null,"taxableValue":null,"taxes":null},"mailingAddress":{"line1":"511 ALDERSON RD","line2":"WASHINGTON, NC","city":null,"state":null,"zip":"27889"},"incomeTract":null,"incomeBlockGroup":null,"nearestRoad":null,"flu":null,"opportunityZone":null,"oz2Eligibility":null,"source":"nc-washington-parcels-37187","appraiserUrl":"http://taxweb.washconc.org/Parcel.aspx?7209","gisViewerUrl":"https://experience.arcgis.com/experience/3bffabc4dd484e1bbfa49186361dce5d"},"geometry":{"type":"Polygon","coordinates":[[[-76.751455,35.748066],[-76.752852,35.74831],[-76.75472,35.748632],[-76.757825,35.74445],[-76.754666,35.743903],[-76.752505,35.74665],[-76.752545,35.746661],[-76.751455,35.748066]]]}},{"type":"Feature","id":"37187:6743818158","properties":{"id":"37187:6743818158","parcelId":"6743818158","countyFips":"37187","countyName":"Washington","state":"North Carolina","marketIds":["Raleigh-Durham"],"situsAddress":"LONG RIDGE RD","situsCity":null,"situsZip":null,"jurisdictionCode":null,"ownerName":"WEST, HARVEY LEE, SR. & LYNDA DUNN","ownerName2":null,"propertyName":null,"zoningCode":null,"zoningDistrict":null,"jurisdictionPrefix":null,"dorCode":"20","acreage":24.39,"centroid":[-76.812719,35.739835],"lastSale":{"date":"2016-10-04","price":70000.0,"qualified":"Disq"},"tax":{"marketValue":34510.0,"assessedValue":null,"taxableValue":null,"taxes":null},"mailingAddress":{"line1":"64 ARABIAN LN","line2":"PLYMOUTH, NC","city":null,"state":null,"zip":"27962"},"incomeTract":null,"incomeBlockGroup":null,"nearestRoad":null,"flu":null,"opportunityZone":null,"oz2Eligibility":null,"source":"nc-washington-parcels-37187","appraiserUrl":"http://taxweb.washconc.org/Parcel.aspx?7190","gisViewerUrl":"https://experience.arcgis.com/experience/3bffabc4dd484e1bbfa49186361dce5d"},"geometry":{"type":"Polygon","coordinates":[[[-76.81309,35.738405],[-76.81171,35.740857],[-76.811112,35.741845],[-76.810974,35.742135],[-76.812356,35.742734],[-76.815607,35.736682],[-76.814182,35.736189],[-76.81309,35.738405]]]}},{"type":"Feature","id":"37187:6742891710","properties":{"id":"37187:6742891710","parcelId":"6742891710","countyFips":"37187","countyName":"Washington","state":"North Carolina","marketIds":["Raleigh-Durham"],"situsAddress":"7580 LONG RIDGE RD","situsCity":null,"situsZip":null,"jurisdictionCode":null,"ownerName":"WEST, LYNDA DUNN","ownerName2":null,"propertyName":null,"zoningCode":null,"zoningDistrict":null,"jurisdictionPrefix":null,"dorCode":"11","acreage":6.598,"centroid":[-76.815527,35.73544],"lastSale":{"date":"1996-09-24","price":null,"qualified":"Disq"},"tax":{"marketValue":118160.0,"assessedValue":null,"taxableValue":null,"taxes":null},"mailingAddress":{"line1":"64 ARABIAN LN","line2":"PLYMOUTH, NC","city":null,"state":null,"zip":"27962"},"incomeTract":null,"incomeBlockGroup":null,"nearestRoad":null,"flu":null,"opportunityZone":null,"oz2Eligibility":null,"source":"nc-washington-parcels-37187","appraiserUrl":"http://taxweb.washconc.org/Parcel.aspx?7189","gisViewerUrl":"https://experience.arcgis.com/experience/3bffabc4dd484e1bbfa49186361dce5d"},"geometry":{"type":"Polygon","coordinates":[[[-76.815066,35.734501],[-76.815013,35.734602],[-76.815686,35.734836],[-76.815156,35.735847],[-76.814481,35.735612],[-76.814182,35.736189],[-76.815607,35.736682],[-76.816872,35.734504],[-76.815995,35.734198],[-76.815717,35.734728],[-76.815066,35.734501]]]}},{"type":"Feature","id":"37187:6763126602","properties":{"id":"37187:6763126602","parcelId":"6763126602","countyFips":"37187","countyName":"Washington","state":"North Carolina","marketIds":["Raleigh-Durham"],"situsAddress":"1902 HOLLIS RD","situsCity":null,"situsZip":null,"jurisdictionCode":null,"ownerName":"OAKLEY, GLORIA DALE","ownerName2":null,"propertyName":null,"zoningCode":null,"zoningDistrict":null,"jurisdictionPrefix":null,"dorCode":"11","acreage":6.11,"centroid":[-76.770707,35.743332],"lastSale":{"date":"1994-03-31","price":5500.0,"qualified":"Qual"},"tax":{"marketValue":60700.0,"assessedValue":null,"taxableValue":null,"taxes":null},"mailingAddress":{"line1":"1902 HOLLIS RD","line2":"PLYMOUTH, NC","city":null,"state":null,"zip":"27962"},"incomeTract":null,"incomeBlockGroup":null,"nearestRoad":null,"flu":null,"opportunityZone":null,"oz2Eligibility":null,"source":"nc-washington-parcels-37187","appraiserUrl":"http://taxweb.washconc.org/Parcel.aspx?4925","gisViewerUrl":"https://experience.arcgis.com/experience/3bffabc4dd484e1bbfa49186361dce5d"},"geometry":{"type":"Polygon","coordinates":[[[-76.770092,35.743222],[-76.771408,35.744728],[-76.771502,35.74464],[-76.771259,35.742915],[-76.770409,35.741856],[-76.769574,35.74263],[-76.770092,35.743222]]]}},{"type":"Feature","id":"37187:6762669145","properties":{"id":"37187:6762669145","parcelId":"6762669145","countyFips":"37187","countyName":"Washington","state":"North Carolina","marketIds":["Raleigh-Durham"],"situsAddress":"9998 NC HWY 32 S","situsCity":null,"situsZip":null,"jurisdictionCode":null,"ownerName":"ALLEN, JAN MICHAEL & SANDRA YVONNE","ownerName2":"TRUSTEES OF THE ALLEN FAMILY TRUST","propertyName":null,"zoningCode":null,"zoningDistrict":null,"jurisdictionPrefix":null,"dorCode":"21","acreage":33.045,"centroid":[-76.750913,35.720872],"lastSale":{"date":"2023-03-14","price":null,"qualified":"Disq"},"tax":{"marketValue":132860.0,"assessedValue":null,"taxableValue":null,"taxes":null},"mailingAddress":{"line1":"401 CROSS LAKE DRIVE","line2":"FUQUAY VARINA, NC","city":null,"state":null,"zip":"27526"},"incomeTract":null,"incomeBlockGroup":null,"nearestRoad":null,"flu":null,"opportunityZone":null,"oz2Eligibility":null,"source":"nc-washington-parcels-37187","appraiserUrl":"http://taxweb.washconc.org/Parcel.aspx?7210","gisViewerUrl":"https://experience.arcgis.com/experience/3bffabc4dd484e1bbfa49186361dce5d"},"geometry":{"type":"MultiPolygon","coordinates":[[[[-76.75273,35.720419],[-76.75106,35.719694],[-76.750585,35.719473],[-76.748966,35.721921],[-76.751223,35.722854],[-76.75273,35.720419]]],[[[-76.754804,35.724347],[-76.751402,35.722932],[-76.750687,35.724088],[-76.752017,35.724848],[-76.75217,35.724738],[-76.754445,35.726038],[-76.754643,35.725867],[-76.754579,35.725502],[-76.754569,35.725204],[-76.754639,35.724982],[-76.754675,35.724647],[-76.754804,35.724347]]]]}},{"type":"Feature","id":"37187:6743830719","properties":{"id":"37187:6743830719","parcelId":"6743830719","countyFips":"37187","countyName":"Washington","state":"North Carolina","marketIds":["Raleigh-Durham"],"situsAddress":"LONG RIDGE RD","situsCity":null,"situsZip":null,"jurisdictionCode":null,"ownerName":"CLC OUTDOORS, LLC","ownerName2":null,"propertyName":null,"zoningCode":null,"zoningDistrict":null,"jurisdictionPrefix":null,"dorCode":"20","acreage":84.05,"centroid":[-76.816772,35.747636],"lastSale":{"date":"2025-06-04","price":400000.0,"qualified":"Qual"},"tax":{"marketValue":46290.0,"assessedValue":null,"taxableValue":null,"taxes":null},"mailingAddress":{"line1":"138 SALT CREEK LN","line2":"NEWPORT, NC","city":null,"state":null,"zip":"28570"},"incomeTract":null,"incomeBlockGroup":null,"nearestRoad":null,"flu":null,"opportunityZone":null,"oz2Eligibility":null,"source":"nc-washington-parcels-37187","appraiserUrl":"http://taxweb.washconc.org/Parcel.aspx?7182","gisViewerUrl":"https://experience.arcgis.com/experience/3bffabc4dd484e1bbfa49186361dce5d"},"geometry":{"type":"Polygon","coordinates":[[[-76.812191,35.747028],[-76.816641,35.750775],[-76.817069,35.751729],[-76.818134,35.751922],[-76.819101,35.751667],[-76.81947,35.75164],[-76.819371,35.75149],[-76.81922,35.751334],[-76.819207,35.751258],[-76.819246,35.75113],[-76.819194,35.750995],[-76.819014,35.750892],[-76.818834,35.750838],[-76.818763,35.750776],[-76.818698,35.750525],[-76.81869,35.750293],[-76.818581,35.750057],[-76.818355,35.749853],[-76.818062,35.749691],[-76.817715,35.749455],[-76.817438,35.749327],[-76.817259,35.749278],[-76.817182,35.749223],[-76.817109,35.749103],[-76.817046,35.748872],[-76.81704,35.748763],[-76.817056,35.748687],[-76.817319,35.748181],[-76.817574,35.747919],[-76.817777,35.747587],[-76.817827,35.747537],[-76.818038,35.747407],[-76.818164,35.747282],[-76.8184,35.747131],[-76.818581,35.74705],[-76.818726,35.747022],[-76.819542,35.747007],[-76.819809,35.746973],[-76.820262,35.746879],[-76.820778,35.746721],[-76.821098,35.746595],[-76.821228,35.746513],[-76.821352,35.746364],[-76.8146,35.743351],[-76.812191,35.747028]]]}},{"type":"Feature","id":"37187:6752689467","properties":{"id":"37187:6752689467","parcelId":"6752689467","countyFips":"37187","countyName":"Washington","state":"North Carolina","marketIds":["Raleigh-Durham"],"situsAddress":"379 LLAMA RD","situsCity":null,"situsZip":null,"jurisdictionCode":null,"ownerName":"COLLIER, ALFRED C. III.","ownerName2":null,"propertyName":null,"zoningCode":null,"zoningDistrict":null,"jurisdictionPrefix":null,"dorCode":"11","acreage":8.923,"centroid":[-76.782321,35.735793],"lastSale":{"date":"1997-11-12","price":28000.0,"qualified":"Qual"},"tax":{"marketValue":151400.0,"assessedValue":null,"taxableValue":null,"taxes":null},"mailingAddress":{"line1":"379 LLAMA ROAD","line2":"PLYMOUTH, NC","city":null,"state":null,"zip":"27962"},"incomeTract":null,"incomeBlockGroup":null,"nearestRoad":null,"flu":null,"opportunityZone":null,"oz2Eligibility":null,"source":"nc-washington-parcels-37187","appraiserUrl":"http://taxweb.washconc.org/Parcel.aspx?8004","gisViewerUrl":"https://experience.arcgis.com/experience/3bffabc4dd484e1bbfa49186361dce5d"},"geometry":{"type":"Polygon","coordinates":[[[-76.784335,35.73354],[-76.784212,35.733788],[-76.783644,35.734933],[-76.781763,35.736109],[-76.781925,35.736174],[-76.783772,35.735024],[-76.78448,35.733615],[-76.785562,35.732673],[-76.785447,35.73255],[-76.784335,35.73354]]]}},{"type":"Feature","id":"37187:6762656703","properties":{"id":"37187:6762656703","parcelId":"6762656703","countyFips":"37187","countyName":"Washington","state":"North Carolina","marketIds":["Raleigh-Durham"],"situsAddress":"NC HWY 32 S","situsCity":null,"situsZip":null,"jurisdictionCode":null,"ownerName":"ORTIZ, DONNA ALLEN","ownerName2":null,"propertyName":null,"zoningCode":null,"zoningDistrict":null,"jurisdictionPrefix":null,"dorCode":"10","acreage":11.471,"centroid":[-76.754471,35.723332],"lastSale":{"date":null,"price":null,"qualified":"Disq"},"tax":{"marketValue":12240.0,"assessedValue":null,"taxableValue":null,"taxes":null},"mailingAddress":{"line1":"3128 JACOB HAMBLIN DR","line2":"SAINT GEORGE, UT","city":null,"state":null,"zip":"84790"},"incomeTract":null,"incomeBlockGroup":null,"nearestRoad":null,"flu":null,"opportunityZone":null,"oz2Eligibility":null,"source":"nc-washington-parcels-37187","appraiserUrl":"http://taxweb.washconc.org/Parcel.aspx?8214","gisViewerUrl":"https://experience.arcgis.com/experience/3bffabc4dd484e1bbfa49186361dce5d"},"geometry":{"type":"Polygon","coordinates":[[[-76.751402,35.722932],[-76.754804,35.724347],[-76.754942,35.724216],[-76.755059,35.724069],[-76.75516,35.723873],[-76.755227,35.723662],[-76.7553,35.723515],[-76.75534,35.723339],[-76.755394,35.723262],[-76.755524,35.72325],[-76.75573,35.723172],[-76.753507,35.722274],[-76.753279,35.722642],[-76.751921,35.722093],[-76.751402,35.722932]]]}},{"type":"Feature","id":"37187:6761394328","properties":{"id":"37187:6761394328","parcelId":"6761394328","countyFips":"37187","countyName":"Washington","state":"North Carolina","marketIds":["Raleigh-Durham"],"situsAddress":"11400 NC HWY 32 S","situsCity":null,"situsZip":null,"jurisdictionCode":null,"ownerName":"KNOX, ANPHUS LLEWELLYN AND","ownerName2":"KNOX, AMY SHAW","propertyName":null,"zoningCode":null,"zoningDistrict":null,"jurisdictionPrefix":null,"dorCode":"20","acreage":7.286,"centroid":[-76.764262,35.706013],"lastSale":{"date":"2025-08-08","price":null,"qualified":"Disq"},"tax":{"marketValue":20410.0,"assessedValue":null,"taxableValue":null,"taxes":null},"mailingAddress":{"line1":"1680 GOOSE RD","line2":"ROBERSONVILLE, NC","city":null,"state":null,"zip":"27871"},"incomeTract":null,"incomeBlockGroup":null,"nearestRoad":null,"flu":null,"opportunityZone":null,"oz2Eligibility":null,"source":"nc-washington-parcels-37187","appraiserUrl":"http://taxweb.washconc.org/Parcel.aspx?8299","gisViewerUrl":"https://experience.arcgis.com/experience/3bffabc4dd484e1bbfa49186361dce5d"},"geometry":{"type":"Polygon","coordinates":[[[-76.763704,35.706227],[-76.763704,35.706227],[-76.765669,35.706958],[-76.766378,35.705869],[-76.765466,35.705529],[-76.76367,35.705527],[-76.764111,35.705693],[-76.76376,35.706186],[-76.763097,35.705936],[-76.763062,35.705983],[-76.763704,35.706227]]]}},{"type":"Feature","id":"37187:6762656135","properties":{"id":"37187:6762656135","parcelId":"6762656135","countyFips":"37187","countyName":"Washington","state":"North Carolina","marketIds":["Raleigh-Durham"],"situsAddress":"NC HWY 32 S","situsCity":null,"situsZip":null,"jurisdictionCode":null,"ownerName":"RESPASS, JESSE W.","ownerName2":null,"propertyName":null,"zoningCode":null,"zoningDistrict":null,"jurisdictionPrefix":null,"dorCode":"20","acreage":14.299,"centroid":[-76.754767,35.722138],"lastSale":{"date":"1997-12-15","price":31000.0,"qualified":"Qual"},"tax":{"marketValue":22280.0,"assessedValue":null,"taxableValue":null,"taxes":null},"mailingAddress":{"line1":"11323 NC HWY 32 S","line2":"PLYMOUTH, NC","city":null,"state":null,"zip":"27962"},"incomeTract":null,"incomeBlockGroup":null,"nearestRoad":null,"flu":null,"opportunityZone":null,"oz2Eligibility":null,"source":"nc-washington-parcels-37187","appraiserUrl":"http://taxweb.washconc.org/Parcel.aspx?7211","gisViewerUrl":"https://experience.arcgis.com/experience/3bffabc4dd484e1bbfa49186361dce5d"},"geometry":{"type":"Polygon","coordinates":[[[-76.753507,35.722274],[-76.75573,35.723172],[-76.756245,35.722933],[-76.75642,35.722803],[-76.756643,35.722587],[-76.757312,35.722419],[-76.753763,35.720862],[-76.753387,35.721472],[-76.752516,35.721137],[-76.752148,35.721725],[-76.753507,35.722274]]]}},{"type":"Feature","id":"37187:6752097581","properties":{"id":"37187:6752097581","parcelId":"6752097581","countyFips":"37187","countyName":"Washington","state":"North Carolina","marketIds":["Raleigh-Durham"],"situsAddress":"HOLLIS RD","situsCity":null,"situsZip":null,"jurisdictionCode":null,"ownerName":"WEYERHAEUSER FOREST HOLDINGS, INC.","ownerName2":null,"propertyName":null,"zoningCode":null,"zoningDistrict":null,"jurisdictionPrefix":null,"dorCode":"20","acreage":90.994,"centroid":[-76.807251,35.73417],"lastSale":{"date":"2024-10-04","price":null,"qualified":"Disq"},"tax":{"marketValue":42960.0,"assessedValue":null,"taxableValue":null,"taxes":null},"mailingAddress":{"line1":"ATTN: TAX GROUP","line2":"205 PERRY LANE ROAD","city":null,"state":null,"zip":"31525"},"incomeTract":null,"incomeBlockGroup":null,"nearestRoad":null,"flu":null,"opportunityZone":null,"oz2Eligibility":null,"source":"nc-washington-parcels-37187","appraiserUrl":"http://taxweb.washconc.org/Parcel.aspx?8040","gisViewerUrl":"https://experience.arcgis.com/experience/3bffabc4dd484e1bbfa49186361dce5d"},"geometry":{"type":"Polygon","coordinates":[[[-76.81132,35.735247],[-76.812951,35.732802],[-76.809945,35.732412],[-76.809628,35.732348],[-76.808803,35.732132],[-76.808426,35.732119],[-76.808071,35.732179],[-76.804722,35.733466],[-76.80434,35.733652],[-76.804181,35.733747],[-76.803899,35.733958],[-76.800451,35.736618],[-76.803454,35.738534],[-76.805996,35.736085],[-76.80933,35.736456],[-76.810505,35.734973],[-76.81132,35.735247]]]}},{"type":"Feature","id":"37187:6742883170","properties":{"id":"37187:6742883170","parcelId":"6742883170","countyFips":"37187","countyName":"Washington","state":"North Carolina","marketIds":["Raleigh-Durham"],"situsAddress":"8061 LONG RIDGE RD","situsCity":null,"situsZip":null,"jurisdictionCode":null,"ownerName":"GURGANUS, HENRY C. AND WIFE","ownerName2":"GURGANUS, CAROL W.","propertyName":null,"zoningCode":null,"zoningDistrict":null,"jurisdictionPrefix":null,"dorCode":"20","acreage":15.943,"centroid":[-76.816142,35.730185],"lastSale":{"date":"2022-04-12","price":null,"qualified":"Disq"},"tax":{"marketValue":45110.0,"assessedValue":null,"taxableValue":null,"taxes":null},"mailingAddress":{"line1":"7920 LONG RIDGE RD","line2":"PLYMOUTH, NC","city":null,"state":null,"zip":"27962"},"incomeTract":null,"incomeBlockGroup":null,"nearestRoad":null,"flu":null,"opportunityZone":null,"oz2Eligibility":null,"source":"nc-washington-parcels-37187","appraiserUrl":"http://taxweb.washconc.org/Parcel.aspx?9047","gisViewerUrl":"https://experience.arcgis.com/experience/3bffabc4dd484e1bbfa49186361dce5d"},"geometry":{"type":"Polygon","coordinates":[[[-76.81408,35.731142],[-76.81408,35.731142],[-76.816207,35.731802],[-76.816827,35.730616],[-76.817365,35.729648],[-76.817473,35.729418],[-76.817528,35.729223],[-76.81558,35.728488],[-76.81408,35.731142]]]}},{"type":"Feature","id":"37187:6761793667","properties":{"id":"37187:6761793667","parcelId":"6761793667","countyFips":"37187","countyName":"Washington","state":"North Carolina","marketIds":["Raleigh-Durham"],"situsAddress":"NC HWY 32 S","situsCity":null,"situsZip":null,"jurisdictionCode":null,"ownerName":"HEBER FARMS, LLC","ownerName2":null,"propertyName":null,"zoningCode":null,"zoningDistrict":null,"jurisdictionPrefix":null,"dorCode":"20","acreage":24.868,"centroid":[-76.752298,35.706826],"lastSale":{"date":"2010-11-15","price":null,"qualified":"Disq"},"tax":{"marketValue":22690.0,"assessedValue":null,"taxableValue":null,"taxes":null},"mailingAddress":{"line1":"2134 EATON FERRY ROAD","line2":"LITTLETON, NC","city":null,"state":null,"zip":"27850"},"incomeTract":null,"incomeBlockGroup":null,"nearestRoad":null,"flu":null,"opportunityZone":null,"oz2Eligibility":null,"source":"nc-washington-parcels-37187","appraiserUrl":"http://taxweb.washconc.org/Parcel.aspx?7385","gisViewerUrl":"https://experience.arcgis.com/experience/3bffabc4dd484e1bbfa49186361dce5d"},"geometry":{"type":"Polygon","coordinates":[[[-76.749627,35.70818],[-76.751117,35.708827],[-76.752355,35.707594],[-76.752537,35.707642],[-76.75438,35.705674],[-76.753969,35.705682],[-76.753556,35.705507],[-76.750841,35.705502],[-76.749627,35.70818]]]}},{"type":"Feature","id":"37187:6761298443","properties":{"id":"37187:6761298443","parcelId":"6761298443","countyFips":"37187","countyName":"Washington","state":"North Carolina","marketIds":["Raleigh-Durham"],"situsAddress":"11396 NC HWY 32 S","situsCity":null,"situsZip":null,"jurisdictionCode":null,"ownerName":"MASON, TILLIE F. MAYO","ownerName2":null,"propertyName":null,"zoningCode":null,"zoningDistrict":null,"jurisdictionPrefix":null,"dorCode":"20","acreage":8.116,"centroid":[-76.766758,35.706435],"lastSale":{"date":"1997-09-25","price":7000.0,"qualified":"Qual"},"tax":{"marketValue":26210.0,"assessedValue":null,"taxableValue":null,"taxes":null},"mailingAddress":{"line1":"11396 NC HWY 32 SOUTH","line2":"PLYMOUTH, NC","city":null,"state":null,"zip":"27962"},"incomeTract":null,"incomeBlockGroup":null,"nearestRoad":null,"flu":null,"opportunityZone":null,"oz2Eligibility":null,"source":"nc-washington-parcels-37187","appraiserUrl":"http://taxweb.washconc.org/Parcel.aspx?9275","gisViewerUrl":"https://experience.arcgis.com/experience/3bffabc4dd484e1bbfa49186361dce5d"},"geometry":{"type":"Polygon","coordinates":[[[-76.765669,35.706959],[-76.766147,35.707136],[-76.766617,35.707311],[-76.767605,35.706136],[-76.767914,35.705535],[-76.766597,35.705533],[-76.765669,35.706959]]]}},{"type":"Feature","id":"37187:6762610845","properties":{"id":"37187:6762610845","parcelId":"6762610845","countyFips":"37187","countyName":"Washington","state":"North Carolina","marketIds":["Raleigh-Durham"],"situsAddress":"NC HWY 32 S","situsCity":null,"situsZip":null,"jurisdictionCode":null,"ownerName":"HAR FARMS, LLC","ownerName2":"C/O H A RESPASS","propertyName":null,"zoningCode":null,"zoningDistrict":null,"jurisdictionPrefix":null,"dorCode":"20","acreage":20.057,"centroid":[-76.754228,35.710116],"lastSale":{"date":"2022-10-13","price":null,"qualified":"Disq"},"tax":{"marketValue":119330.0,"assessedValue":null,"taxableValue":null,"taxes":null},"mailingAddress":{"line1":"2134 EATON FERRY ROAD","line2":"LITTLETON NC","city":null,"state":null,"zip":"27850"},"incomeTract":null,"incomeBlockGroup":null,"nearestRoad":null,"flu":null,"opportunityZone":null,"oz2Eligibility":null,"source":"nc-washington-parcels-37187","appraiserUrl":"http://taxweb.washconc.org/Parcel.aspx?7213","gisViewerUrl":"https://experience.arcgis.com/experience/3bffabc4dd484e1bbfa49186361dce5d"},"geometry":{"type":"MultiPolygon","coordinates":[[[[-76.753686,35.712525],[-76.754223,35.712803],[-76.75658,35.714501],[-76.758132,35.712384],[-76.754811,35.710995],[-76.754986,35.710757],[-76.755047,35.710802],[-76.756837,35.70915],[-76.755217,35.708053],[-76.755026,35.708136],[-76.753076,35.707069],[-76.752537,35.707642],[-76.752354,35.707593],[-76.751117,35.708827],[-76.749796,35.710502],[-76.753686,35.712525]]],[[[-76.758374,35.712375],[-76.757033,35.714201],[-76.756734,35.714609],[-76.757998,35.713891],[-76.758769,35.712563],[-76.758374,35.712375]]]]}},{"type":"Feature","id":"37187:6752892799","properties":{"id":"37187:6752892799","parcelId":"6752892799","countyFips":"37187","countyName":"Washington","state":"North Carolina","marketIds":["Raleigh-Durham"],"situsAddress":"87 LLAMA RD","situsCity":null,"situsZip":null,"jurisdictionCode":null,"ownerName":"ROBERTSON, JANET L.","ownerName2":null,"propertyName":null,"zoningCode":null,"zoningDistrict":null,"jurisdictionPrefix":null,"dorCode":"11","acreage":5.151,"centroid":[-76.781608,35.735067],"lastSale":{"date":"2022-05-18","price":25000.0,"qualified":"Qual"},"tax":{"marketValue":92800.0,"assessedValue":null,"taxableValue":null,"taxes":null},"mailingAddress":{"line1":"87 LLAMA RD","line2":"PLYMOUTH, NC","city":null,"state":null,"zip":"27962"},"incomeTract":null,"incomeBlockGroup":null,"nearestRoad":null,"flu":null,"opportunityZone":null,"oz2Eligibility":null,"source":"nc-washington-parcels-37187","appraiserUrl":"http://taxweb.washconc.org/Parcel.aspx?4175","gisViewerUrl":"https://experience.arcgis.com/experience/3bffabc4dd484e1bbfa49186361dce5d"},"geometry":{"type":"Polygon","coordinates":[[[-76.782734,35.7355],[-76.781377,35.734053],[-76.780497,35.73465],[-76.781824,35.736067],[-76.782734,35.7355]]]}},{"type":"Feature","id":"37187:6752890519","properties":{"id":"37187:6752890519","parcelId":"6752890519","countyFips":"37187","countyName":"Washington","state":"North Carolina","marketIds":["Raleigh-Durham"],"situsAddress":"99 LLAMA RD","situsCity":null,"situsZip":null,"jurisdictionCode":null,"ownerName":"STYONS, GERALD THOMAS & BRENDA A.","ownerName2":null,"propertyName":null,"zoningCode":null,"zoningDistrict":null,"jurisdictionPrefix":null,"dorCode":"11","acreage":5.371,"centroid":[-76.782504,35.734487],"lastSale":{"date":"1990-06-20","price":null,"qualified":"Disq"},"tax":{"marketValue":99800.0,"assessedValue":null,"taxableValue":null,"taxes":null},"mailingAddress":{"line1":"99 LLAMA ROAD","line2":"PLYMOUTH, NC","city":null,"state":null,"zip":"27962"},"incomeTract":null,"incomeBlockGroup":null,"nearestRoad":null,"flu":null,"opportunityZone":null,"oz2Eligibility":null,"source":"nc-washington-parcels-37187","appraiserUrl":"http://taxweb.washconc.org/Parcel.aspx?7465","gisViewerUrl":"https://experience.arcgis.com/experience/3bffabc4dd484e1bbfa49186361dce5d"},"geometry":{"type":"Polygon","coordinates":[[[-76.782734,35.7355],[-76.783644,35.734933],[-76.782262,35.733461],[-76.781377,35.734053],[-76.782734,35.7355]]]}},{"type":"Feature","id":"37187:6742128835","properties":{"id":"37187:6742128835","parcelId":"6742128835","countyFips":"37187","countyName":"Washington","state":"North Carolina","marketIds":["Raleigh-Durham"],"situsAddress":"LONG RIDGE RD","situsCity":null,"situsZip":null,"jurisdictionCode":null,"ownerName":"PORTER, JAMES F. JR.","ownerName2":null,"propertyName":null,"zoningCode":null,"zoningDistrict":null,"jurisdictionPrefix":null,"dorCode":"20","acreage":49.707,"centroid":[-76.834021,35.718748],"lastSale":{"date":"1999-11-19","price":500.0,"qualified":"Disq"},"tax":{"marketValue":16880.0,"assessedValue":null,"taxableValue":null,"taxes":null},"mailingAddress":{"line1":"PO BOX 477","line2":"PLYMOUTH, NC","city":null,"state":null,"zip":"27962"},"incomeTract":null,"incomeBlockGroup":null,"nearestRoad":null,"flu":null,"opportunityZone":null,"oz2Eligibility":null,"source":"nc-washington-parcels-37187","appraiserUrl":"http://taxweb.washconc.org/Parcel.aspx?4286","gisViewerUrl":"https://experience.arcgis.com/experience/3bffabc4dd484e1bbfa49186361dce5d"},"geometry":{"type":"Polygon","coordinates":[[[-76.833251,35.71953],[-76.838527,35.72108],[-76.838609,35.719189],[-76.838734,35.712291],[-76.839343,35.710133],[-76.838641,35.710124],[-76.838777,35.711921],[-76.838618,35.712284],[-76.837559,35.715428],[-76.835646,35.717374],[-76.835525,35.717382],[-76.835075,35.717624],[-76.834027,35.7187],[-76.833251,35.71953]]]}},{"type":"Feature","id":"37187:6762518045","properties":{"id":"37187:6762518045","parcelId":"6762518045","countyFips":"37187","countyName":"Washington","state":"North Carolina","marketIds":["Raleigh-Durham"],"situsAddress":"10865 NC HWY 32 S","situsCity":null,"situsZip":null,"jurisdictionCode":null,"ownerName":"HAR FARMS, LLC","ownerName2":"C/O H A RESPASS","propertyName":null,"zoningCode":null,"zoningDistrict":null,"jurisdictionPrefix":null,"dorCode":"21","acreage":19.19,"centroid":[-76.757033,35.710478],"lastSale":{"date":"2026-03-16","price":null,"qualified":"Disq"},"tax":{"marketValue":239360.0,"assessedValue":null,"taxableValue":null,"taxes":null},"mailingAddress":{"line1":"2134 EATON FERRY ROAD","line2":"LITTLETON NC","city":null,"state":null,"zip":"27850"},"incomeTract":null,"incomeBlockGroup":null,"nearestRoad":null,"flu":null,"opportunityZone":null,"oz2Eligibility":null,"source":"nc-washington-parcels-37187","appraiserUrl":"http://taxweb.washconc.org/Parcel.aspx?7218","gisViewerUrl":"https://experience.arcgis.com/experience/3bffabc4dd484e1bbfa49186361dce5d"},"geometry":{"type":"Polygon","coordinates":[[[-76.756837,35.70915],[-76.755047,35.710802],[-76.754986,35.710757],[-76.754811,35.710995],[-76.758132,35.712384],[-76.759344,35.710731],[-76.758448,35.710293],[-76.758708,35.70994],[-76.75698,35.709246],[-76.756837,35.70915]]]}},{"type":"Feature","id":"37187:6761599528","properties":{"id":"37187:6761599528","parcelId":"6761599528","countyFips":"37187","countyName":"Washington","state":"North Carolina","marketIds":["Raleigh-Durham"],"situsAddress":"NC HWY 32 S","situsCity":null,"situsZip":null,"jurisdictionCode":null,"ownerName":"RESPASS, JESSE W.","ownerName2":null,"propertyName":null,"zoningCode":null,"zoningDistrict":null,"jurisdictionPrefix":null,"dorCode":"20","acreage":6.042,"centroid":[-76.756288,35.706068],"lastSale":{"date":"2017-08-04","price":26000.0,"qualified":"Disq"},"tax":{"marketValue":3330.0,"assessedValue":null,"taxableValue":null,"taxes":null},"mailingAddress":{"line1":"11323 NC HWY 32 S","line2":"PLYMOUTH, NC","city":null,"state":null,"zip":"27962"},"incomeTract":null,"incomeBlockGroup":null,"nearestRoad":null,"flu":null,"opportunityZone":null,"oz2Eligibility":null,"source":"nc-washington-parcels-37187","appraiserUrl":"http://taxweb.washconc.org/Parcel.aspx?9050","gisViewerUrl":"https://experience.arcgis.com/experience/3bffabc4dd484e1bbfa49186361dce5d"},"geometry":{"type":"Polygon","coordinates":[[[-76.754746,35.70551],[-76.754744,35.705523],[-76.754686,35.705595],[-76.754579,35.705623],[-76.75855,35.707471],[-76.75865,35.707312],[-76.756928,35.705991],[-76.757423,35.705515],[-76.754746,35.70551]]]}},{"type":"Feature","id":"37187:6753037529","properties":{"id":"37187:6753037529","parcelId":"6753037529","countyFips":"37187","countyName":"Washington","state":"North Carolina","marketIds":["Raleigh-Durham"],"situsAddress":"6831 LONG RIDGE RD","situsCity":null,"situsZip":null,"jurisdictionCode":null,"ownerName":"BOYD, IRA HUGHES","ownerName2":null,"propertyName":null,"zoningCode":null,"zoningDistrict":null,"jurisdictionPrefix":null,"dorCode":"21","acreage":19.978,"centroid":[-76.807204,35.746042],"lastSale":{"date":"1989-07-24","price":25000.0,"qualified":"Disq"},"tax":{"marketValue":58200.0,"assessedValue":null,"taxableValue":null,"taxes":null},"mailingAddress":{"line1":"6897 LONG RIDGE ROAD","line2":"PLYMOUTH, NC","city":null,"state":null,"zip":"27962"},"incomeTract":null,"incomeBlockGroup":null,"nearestRoad":null,"flu":null,"opportunityZone":null,"oz2Eligibility":null,"source":"nc-washington-parcels-37187","appraiserUrl":"http://taxweb.washconc.org/Parcel.aspx?7192","gisViewerUrl":"https://experience.arcgis.com/experience/3bffabc4dd484e1bbfa49186361dce5d"},"geometry":{"type":"Polygon","coordinates":[[[-76.807764,35.747436],[-76.808089,35.746772],[-76.808644,35.746947],[-76.809166,35.745879],[-76.807015,35.744972],[-76.805426,35.744326],[-76.804326,35.745965],[-76.807764,35.747436]]]}},{"type":"Feature","id":"37187:6762762685","properties":{"id":"37187:6762762685","parcelId":"6762762685","countyFips":"37187","countyName":"Washington","state":"North Carolina","marketIds":["Raleigh-Durham"],"situsAddress":"NC HWY 32 S","situsCity":null,"situsZip":null,"jurisdictionCode":null,"ownerName":"ORTIZ, DONNA ALLEN","ownerName2":null,"propertyName":null,"zoningCode":null,"zoningDistrict":null,"jurisdictionPrefix":null,"dorCode":"20","acreage":20.332,"centroid":[-76.752733,35.725726],"lastSale":{"date":null,"price":null,"qualified":"Disq"},"tax":{"marketValue":16730.0,"assessedValue":null,"taxableValue":null,"taxes":null},"mailingAddress":{"line1":"3128 JACOB HAMBLIN DR","line2":"SAINT GEORGE, UT","city":null,"state":null,"zip":"84790"},"incomeTract":null,"incomeBlockGroup":null,"nearestRoad":null,"flu":null,"opportunityZone":null,"oz2Eligibility":null,"source":"nc-washington-parcels-37187","appraiserUrl":"http://taxweb.washconc.org/Parcel.aspx?5553","gisViewerUrl":"https://experience.arcgis.com/experience/3bffabc4dd484e1bbfa49186361dce5d"},"geometry":{"type":"Polygon","coordinates":[[[-76.750045,35.725125],[-76.753853,35.727423],[-76.754446,35.727192],[-76.754204,35.726355],[-76.754445,35.726038],[-76.75217,35.724738],[-76.752017,35.724848],[-76.750687,35.724088],[-76.750045,35.725125]]]}},{"type":"Feature","id":"37187:6743951167","properties":{"id":"37187:6743951167","parcelId":"6743951167","countyFips":"37187","countyName":"Washington","state":"North Carolina","marketIds":["Raleigh-Durham"],"situsAddress":"6642 LONG RIDGE RD","situsCity":null,"situsZip":null,"jurisdictionCode":null,"ownerName":"WISE, CHRISTIE ANN & CHARLES MICHAEL","ownerName2":null,"propertyName":null,"zoningCode":null,"zoningDistrict":null,"jurisdictionPrefix":null,"dorCode":"21","acreage":102.262,"centroid":[-76.810023,35.748782],"lastSale":{"date":"2026-05-26","price":null,"qualified":"Disq"},"tax":{"marketValue":95940.0,"assessedValue":null,"taxableValue":null,"taxes":null},"mailingAddress":{"line1":"6122 LONG RIDGE RD","line2":"PLYMOUTH, NC","city":null,"state":null,"zip":"27962"},"incomeTract":null,"incomeBlockGroup":null,"nearestRoad":null,"flu":null,"opportunityZone":null,"oz2Eligibility":null,"source":"nc-washington-parcels-37187","appraiserUrl":"http://taxweb.washconc.org/Parcel.aspx?7183","gisViewerUrl":"https://experience.arcgis.com/experience/3bffabc4dd484e1bbfa49186361dce5d"},"geometry":{"type":"Polygon","coordinates":[[[-76.816641,35.750775],[-76.812191,35.747028],[-76.810343,35.746239],[-76.80981,35.747362],[-76.80889,35.746923],[-76.808477,35.747765],[-76.808205,35.748195],[-76.807821,35.748705],[-76.807645,35.748974],[-76.806744,35.750626],[-76.813486,35.754009],[-76.816641,35.750775]]]}},{"type":"Feature","id":"37187:6761295760","properties":{"id":"37187:6761295760","parcelId":"6761295760","countyFips":"37187","countyName":"Washington","state":"North Carolina","marketIds":["Raleigh-Durham"],"situsAddress":"NC HWY 32 S","situsCity":null,"situsZip":null,"jurisdictionCode":null,"ownerName":"KRASZESKI, MARLENE M. & DANIEL J.","ownerName2":null,"propertyName":null,"zoningCode":null,"zoningDistrict":null,"jurisdictionPrefix":null,"dorCode":"20","acreage":34.3,"centroid":[-76.765581,35.709137],"lastSale":{"date":"2009-02-23","price":null,"qualified":"Disq"},"tax":{"marketValue":13790.0,"assessedValue":null,"taxableValue":null,"taxes":null},"mailingAddress":{"line1":"2500 PACKHOUSE RD","line2":"ZEBULON, NC","city":null,"state":null,"zip":"27597"},"incomeTract":null,"incomeBlockGroup":null,"nearestRoad":null,"flu":null,"opportunityZone":null,"oz2Eligibility":null,"source":"nc-washington-parcels-37187","appraiserUrl":"http://taxweb.washconc.org/Parcel.aspx?7381","gisViewerUrl":"https://experience.arcgis.com/experience/3bffabc4dd484e1bbfa49186361dce5d"},"geometry":{"type":"Polygon","coordinates":[[[-76.762589,35.709356],[-76.766679,35.711248],[-76.770068,35.70836],[-76.767937,35.707145],[-76.767651,35.707484],[-76.766849,35.707027],[-76.76605,35.707974],[-76.765491,35.708474],[-76.764617,35.709138],[-76.764481,35.708991],[-76.763208,35.709594],[-76.762408,35.709226],[-76.762454,35.709203],[-76.761145,35.708596],[-76.761095,35.708665],[-76.762589,35.709356]]]}},{"type":"Feature","id":"37187:6762503359","properties":{"id":"37187:6762503359","parcelId":"6762503359","countyFips":"37187","countyName":"Washington","state":"North Carolina","marketIds":["Raleigh-Durham"],"situsAddress":"11133 NC HWY 32 S","situsCity":null,"situsZip":null,"jurisdictionCode":null,"ownerName":"RHODES, GREGORY TY & GERDA D.","ownerName2":null,"propertyName":null,"zoningCode":null,"zoningDistrict":null,"jurisdictionPrefix":null,"dorCode":"21","acreage":47.016,"centroid":[-76.756527,35.708182],"lastSale":{"date":"1989-07-12","price":null,"qualified":"Disq"},"tax":{"marketValue":211860.0,"assessedValue":null,"taxableValue":null,"taxes":null},"mailingAddress":{"line1":"11133 NC HWY 32 SOUTH","line2":"PLYMOUTH, NC","city":null,"state":null,"zip":"27962"},"incomeTract":null,"incomeBlockGroup":null,"nearestRoad":null,"flu":null,"opportunityZone":null,"oz2Eligibility":null,"source":"nc-washington-parcels-37187","appraiserUrl":"http://taxweb.washconc.org/Parcel.aspx?7384","gisViewerUrl":"https://experience.arcgis.com/experience/3bffabc4dd484e1bbfa49186361dce5d"},"geometry":{"type":"MultiPolygon","coordinates":[[[[-76.756837,35.70915],[-76.75698,35.709246],[-76.758708,35.70994],[-76.759547,35.710351],[-76.760922,35.708579],[-76.754579,35.705623],[-76.75438,35.705674],[-76.753076,35.707069],[-76.755027,35.708137],[-76.755217,35.708053],[-76.756837,35.70915]]],[[[-76.760914,35.708911],[-76.759775,35.710464],[-76.761475,35.711271],[-76.762589,35.709356],[-76.761095,35.708665],[-76.760914,35.708911]]]]}},{"type":"Feature","id":"37187:6742897141","properties":{"id":"37187:6742897141","parcelId":"6742897141","countyFips":"37187","countyName":"Washington","state":"North Carolina","marketIds":["Raleigh-Durham"],"situsAddress":"7711 LONG RIDGE RD","situsCity":null,"situsZip":null,"jurisdictionCode":null,"ownerName":"RIDDICK, ERIK JAMES","ownerName2":null,"propertyName":null,"zoningCode":null,"zoningDistrict":null,"jurisdictionPrefix":null,"dorCode":"11","acreage":7.876,"centroid":[-76.8139,35.733733],"lastSale":{"date":"1992-08-10","price":70000.0,"qualified":"Disq"},"tax":{"marketValue":142170.0,"assessedValue":null,"taxableValue":null,"taxes":null},"mailingAddress":{"line1":"7711 LONG RIDGE RD","line2":"PLYMOUTH, NC","city":null,"state":null,"zip":"27962"},"incomeTract":null,"incomeBlockGroup":null,"nearestRoad":null,"flu":null,"opportunityZone":null,"oz2Eligibility":null,"source":"nc-washington-parcels-37187","appraiserUrl":"http://taxweb.washconc.org/Parcel.aspx?7199","gisViewerUrl":"https://experience.arcgis.com/experience/3bffabc4dd484e1bbfa49186361dce5d"},"geometry":{"type":"Polygon","coordinates":[[[-76.813118,35.73283],[-76.81237,35.733956],[-76.814747,35.734684],[-76.815363,35.733463],[-76.813118,35.73283]]]}},{"type":"Feature","id":"37187:6761391166","properties":{"id":"37187:6761391166","parcelId":"6761391166","countyFips":"37187","countyName":"Washington","state":"North Carolina","marketIds":["Raleigh-Durham"],"situsAddress":"NC HWY 32 S(COUNTY LINE)","situsCity":null,"situsZip":null,"jurisdictionCode":null,"ownerName":"RESPESS, DYLAN MICHAEL","ownerName2":null,"propertyName":null,"zoningCode":null,"zoningDistrict":null,"jurisdictionPrefix":null,"dorCode":"10","acreage":13.47,"centroid":[-76.765977,35.705615],"lastSale":{"date":"2025-10-02","price":null,"qualified":"Disq"},"tax":{"marketValue":1450.0,"assessedValue":null,"taxableValue":null,"taxes":null},"mailingAddress":{"line1":"23757 NC HWY 32 S","line2":"PLYMOUTH, NC","city":null,"state":null,"zip":"27962"},"incomeTract":null,"incomeBlockGroup":null,"nearestRoad":null,"flu":null,"opportunityZone":null,"oz2Eligibility":null,"source":"nc-washington-parcels-37187","appraiserUrl":"http://taxweb.washconc.org/Parcel.aspx?2594","gisViewerUrl":"https://experience.arcgis.com/experience/3bffabc4dd484e1bbfa49186361dce5d"},"geometry":{"type":"Polygon","coordinates":[[[-76.765467,35.705529],[-76.765466,35.705529],[-76.766378,35.705869],[-76.766597,35.705533],[-76.765467,35.705529]]]}},{"type":"Feature","id":"37187:6752068376","properties":{"id":"37187:6752068376","parcelId":"6752068376","countyFips":"37187","countyName":"Washington","state":"North Carolina","marketIds":["Raleigh-Durham"],"situsAddress":"LONG RIDGE RD-TRACT 1","situsCity":null,"situsZip":null,"jurisdictionCode":null,"ownerName":"B5,LLC","ownerName2":null,"propertyName":null,"zoningCode":null,"zoningDistrict":null,"jurisdictionPrefix":null,"dorCode":"40","acreage":47.395,"centroid":[-76.805526,35.725008],"lastSale":{"date":"2019-04-22","price":100000.0,"qualified":"Disq"},"tax":{"marketValue":25360.0,"assessedValue":null,"taxableValue":null,"taxes":null},"mailingAddress":{"line1":"1458 MORRATTOCK RD","line2":"PLYMOUTH, NC","city":null,"state":null,"zip":"27962"},"incomeTract":null,"incomeBlockGroup":null,"nearestRoad":null,"flu":null,"opportunityZone":null,"oz2Eligibility":null,"source":"nc-washington-parcels-37187","appraiserUrl":"http://taxweb.washconc.org/Parcel.aspx?7195","gisViewerUrl":"https://experience.arcgis.com/experience/3bffabc4dd484e1bbfa49186361dce5d"},"geometry":{"type":"Polygon","coordinates":[[[-76.805064,35.723505],[-76.804845,35.723842],[-76.804589,35.724211],[-76.804044,35.724853],[-76.803838,35.725173],[-76.803556,35.725451],[-76.808144,35.728686],[-76.810509,35.725959],[-76.805147,35.723393],[-76.805064,35.723505]]]}},{"type":"Feature","id":"37187:6762520153","properties":{"id":"37187:6762520153","parcelId":"6762520153","countyFips":"37187","countyName":"Washington","state":"North Carolina","marketIds":["Raleigh-Durham"],"situsAddress":"NC HWY 32 S","situsCity":null,"situsZip":null,"jurisdictionCode":null,"ownerName":"RIDER, RUTH B.","ownerName2":null,"propertyName":null,"zoningCode":null,"zoningDistrict":null,"jurisdictionPrefix":null,"dorCode":"20","acreage":10.774,"centroid":[-76.759373,35.71349],"lastSale":{"date":"1995-04-17","price":155500.0,"qualified":"Disq"},"tax":{"marketValue":5510.0,"assessedValue":null,"taxableValue":null,"taxes":null},"mailingAddress":{"line1":"PO BOX 1067","line2":"WARRENTON, VA","city":null,"state":null,"zip":"20188"},"incomeTract":null,"incomeBlockGroup":null,"nearestRoad":null,"flu":null,"opportunityZone":null,"oz2Eligibility":null,"source":"nc-washington-parcels-37187","appraiserUrl":"http://taxweb.washconc.org/Parcel.aspx?7214","gisViewerUrl":"https://experience.arcgis.com/experience/3bffabc4dd484e1bbfa49186361dce5d"},"geometry":{"type":"Polygon","coordinates":[[[-76.758769,35.712563],[-76.757998,35.713891],[-76.760124,35.71513],[-76.761124,35.713424],[-76.758852,35.712444],[-76.758769,35.712563]]]}},{"type":"Feature","id":"37187:6763649070","properties":{"id":"37187:6763649070","parcelId":"6763649070","countyFips":"37187","countyName":"Washington","state":"North Carolina","marketIds":["Raleigh-Durham"],"situsAddress":"615 HOLLIS RD","situsCity":null,"situsZip":null,"jurisdictionCode":null,"ownerName":"HOGGE JR., ROBERT C.","ownerName2":null,"propertyName":null,"zoningCode":null,"zoningDistrict":null,"jurisdictionPrefix":null,"dorCode":"11","acreage":5.065,"centroid":[-76.752601,35.745448],"lastSale":{"date":"2009-05-20","price":134000.0,"qualified":"Qual"},"tax":{"marketValue":107400.0,"assessedValue":null,"taxableValue":null,"taxes":null},"mailingAddress":{"line1":"615 HOLLIS RD","line2":"PLYMOUTH, NC","city":null,"state":null,"zip":"27962"},"incomeTract":null,"incomeBlockGroup":null,"nearestRoad":null,"flu":null,"opportunityZone":null,"oz2Eligibility":null,"source":"nc-washington-parcels-37187","appraiserUrl":"http://taxweb.washconc.org/Parcel.aspx?4374","gisViewerUrl":"https://experience.arcgis.com/experience/3bffabc4dd484e1bbfa49186361dce5d"},"geometry":{"type":"Polygon","coordinates":[[[-76.754057,35.743877],[-76.754112,35.743807],[-76.753584,35.743716],[-76.750397,35.747879],[-76.750853,35.74796],[-76.754057,35.743877]]]}},{"type":"Feature","id":"37187:6753025899","properties":{"id":"37187:6753025899","parcelId":"6753025899","countyFips":"37187","countyName":"Washington","state":"North Carolina","marketIds":["Raleigh-Durham"],"situsAddress":"6897 LONG RIDGE RD","situsCity":null,"situsZip":null,"jurisdictionCode":null,"ownerName":"BOYD, IRA HUGHES & MONA M.","ownerName2":null,"propertyName":null,"zoningCode":null,"zoningDistrict":null,"jurisdictionPrefix":null,"dorCode":"21","acreage":11.938,"centroid":[-76.80761,35.744378],"lastSale":{"date":null,"price":null,"qualified":"Disq"},"tax":{"marketValue":167200.0,"assessedValue":null,"taxableValue":null,"taxes":null},"mailingAddress":{"line1":"6897 LONG RIDGE ROAD","line2":"PLYMOUTH, NC","city":null,"state":null,"zip":"27962"},"incomeTract":null,"incomeBlockGroup":null,"nearestRoad":null,"flu":null,"opportunityZone":null,"oz2Eligibility":null,"source":"nc-washington-parcels-37187","appraiserUrl":"http://taxweb.washconc.org/Parcel.aspx?7193","gisViewerUrl":"https://experience.arcgis.com/experience/3bffabc4dd484e1bbfa49186361dce5d"},"geometry":{"type":"Polygon","coordinates":[[[-76.809514,35.745195],[-76.809899,35.744424],[-76.806366,35.742923],[-76.805426,35.744326],[-76.807015,35.744972],[-76.807441,35.744426],[-76.809514,35.745195]]]}},{"type":"Feature","id":"37187:6752797381","properties":{"id":"37187:6752797381","parcelId":"6752797381","countyFips":"37187","countyName":"Washington","state":"North Carolina","marketIds":["Raleigh-Durham"],"situsAddress":"161 LLAMA RD","situsCity":null,"situsZip":null,"jurisdictionCode":null,"ownerName":"MILLER, MELISSA","ownerName2":null,"propertyName":null,"zoningCode":null,"zoningDistrict":null,"jurisdictionPrefix":null,"dorCode":"11","acreage":5.067,"centroid":[-76.783348,35.733742],"lastSale":{"date":"2000-06-16","price":19500.0,"qualified":"Qual"},"tax":{"marketValue":33300.0,"assessedValue":null,"taxableValue":null,"taxes":null},"mailingAddress":{"line1":"161 LLAMA ROAD","line2":"PLYMOUTH, NC","city":null,"state":null,"zip":"27962"},"incomeTract":null,"incomeBlockGroup":null,"nearestRoad":null,"flu":null,"opportunityZone":null,"oz2Eligibility":null,"source":"nc-washington-parcels-37187","appraiserUrl":"http://taxweb.washconc.org/Parcel.aspx?7760","gisViewerUrl":"https://experience.arcgis.com/experience/3bffabc4dd484e1bbfa49186361dce5d"},"geometry":{"type":"Polygon","coordinates":[[[-76.783273,35.732787],[-76.782262,35.733461],[-76.783644,35.734933],[-76.784212,35.733788],[-76.783273,35.732787]]]}},{"type":"Feature","id":"37187:6742788610","properties":{"id":"37187:6742788610","parcelId":"6742788610","countyFips":"37187","countyName":"Washington","state":"North Carolina","marketIds":["Raleigh-Durham"],"situsAddress":"7920 LONG RIDGE RD","situsCity":null,"situsZip":null,"jurisdictionCode":null,"ownerName":"GURGANUS, HENRY C. JR.","ownerName2":null,"propertyName":null,"zoningCode":null,"zoningDistrict":null,"jurisdictionPrefix":null,"dorCode":"22","acreage":8.901,"centroid":[-76.817249,35.731972],"lastSale":{"date":"1995-08-22","price":null,"qualified":"Disq"},"tax":{"marketValue":65240.0,"assessedValue":null,"taxableValue":null,"taxes":null},"mailingAddress":{"line1":"7920 LONG RIDGE RD.","line2":"PLYMOUTH, NC","city":null,"state":null,"zip":"27962"},"incomeTract":null,"incomeBlockGroup":null,"nearestRoad":null,"flu":null,"opportunityZone":null,"oz2Eligibility":null,"source":"nc-washington-parcels-37187","appraiserUrl":"http://taxweb.washconc.org/Parcel.aspx?7191","gisViewerUrl":"https://experience.arcgis.com/experience/3bffabc4dd484e1bbfa49186361dce5d"},"geometry":{"type":"Polygon","coordinates":[[[-76.81804,35.731142],[-76.817074,35.730659],[-76.817036,35.73064],[-76.815871,35.732891],[-76.81763,35.733435],[-76.817843,35.733066],[-76.81804,35.731142]]]}},{"type":"Feature","id":"37187:6761592623","properties":{"id":"37187:6761592623","parcelId":"6761592623","countyFips":"37187","countyName":"Washington","state":"North Carolina","marketIds":["Raleigh-Durham"],"situsAddress":"NC HWY 32 S","situsCity":null,"situsZip":null,"jurisdictionCode":null,"ownerName":"BEASLEY, MYRA JUNE","ownerName2":null,"propertyName":null,"zoningCode":null,"zoningDistrict":null,"jurisdictionPrefix":null,"dorCode":"20","acreage":21.692,"centroid":[-76.760282,35.706728],"lastSale":{"date":"1999-04-30","price":null,"qualified":"Disq"},"tax":{"marketValue":30790.0,"assessedValue":null,"taxableValue":null,"taxes":null},"mailingAddress":{"line1":"25286 NC HWY 32 N","line2":"PLYMOUTH, NC","city":null,"state":null,"zip":"27962"},"incomeTract":null,"incomeBlockGroup":null,"nearestRoad":null,"flu":null,"opportunityZone":null,"oz2Eligibility":null,"source":"nc-washington-parcels-37187","appraiserUrl":"http://taxweb.washconc.org/Parcel.aspx?8336","gisViewerUrl":"https://experience.arcgis.com/experience/3bffabc4dd484e1bbfa49186361dce5d"},"geometry":{"type":"Polygon","coordinates":[[[-76.75865,35.707312],[-76.75865,35.707312],[-76.75855,35.707471],[-76.760922,35.708579],[-76.761839,35.707338],[-76.76131,35.707102],[-76.761545,35.706782],[-76.76208,35.70701],[-76.762114,35.706963],[-76.761216,35.70658],[-76.761281,35.706484],[-76.760443,35.706131],[-76.760823,35.705557],[-76.760744,35.705521],[-76.757423,35.705515],[-76.756928,35.705991],[-76.75865,35.707312]]]}},{"type":"Feature","id":"37187:6761395803","properties":{"id":"37187:6761395803","parcelId":"6761395803","countyFips":"37187","countyName":"Washington","state":"North Carolina","marketIds":["Raleigh-Durham"],"situsAddress":"11286 NC HWY 32 S","situsCity":null,"situsZip":null,"jurisdictionCode":null,"ownerName":"COX, MARCUS CZERNIK","ownerName2":null,"propertyName":null,"zoningCode":null,"zoningDistrict":null,"jurisdictionPrefix":null,"dorCode":"20","acreage":9.602,"centroid":[-76.7648,35.70761],"lastSale":{"date":"1995-03-31","price":14000.0,"qualified":"Disq"},"tax":{"marketValue":40590.0,"assessedValue":null,"taxableValue":null,"taxes":null},"mailingAddress":{"line1":"11286 NC HWY 32 S","line2":"PLYMOUTH, NC","city":null,"state":null,"zip":"27962"},"incomeTract":null,"incomeBlockGroup":null,"nearestRoad":null,"flu":null,"opportunityZone":null,"oz2Eligibility":null,"source":"nc-washington-parcels-37187","appraiserUrl":"http://taxweb.washconc.org/Parcel.aspx?6579","gisViewerUrl":"https://experience.arcgis.com/experience/3bffabc4dd484e1bbfa49186361dce5d"},"geometry":{"type":"Polygon","coordinates":[[[-76.763424,35.706767],[-76.763892,35.706953],[-76.763509,35.707474],[-76.76508,35.708061],[-76.764824,35.708164],[-76.765261,35.708636],[-76.765491,35.708474],[-76.76605,35.707974],[-76.766617,35.707311],[-76.763847,35.706281],[-76.763424,35.706767]]]}},{"type":"Feature","id":"37187:6741099061","properties":{"id":"37187:6741099061","parcelId":"6741099061","countyFips":"37187","countyName":"Washington","state":"North Carolina","marketIds":["Raleigh-Durham"],"situsAddress":"LONG RIDGE RD-TRACT 21","situsCity":null,"situsZip":null,"jurisdictionCode":null,"ownerName":"WEYERHAEUSER FOREST HOLDINGS, INC.","ownerName2":null,"propertyName":null,"zoningCode":null,"zoningDistrict":null,"jurisdictionPrefix":null,"dorCode":"40","acreage":26.285,"centroid":[-76.839585,35.706096],"lastSale":{"date":"2025-11-12","price":null,"qualified":"Disq"},"tax":{"marketValue":13580.0,"assessedValue":null,"taxableValue":null,"taxes":null},"mailingAddress":{"line1":"ATTN: TAX GROUP","line2":"205 PERRY LANE ROAD","city":null,"state":null,"zip":"31525"},"incomeTract":null,"incomeBlockGroup":null,"nearestRoad":null,"flu":null,"opportunityZone":null,"oz2Eligibility":null,"source":"nc-washington-parcels-37187","appraiserUrl":"http://taxweb.washconc.org/Parcel.aspx?7181","gisViewerUrl":"https://experience.arcgis.com/experience/3bffabc4dd484e1bbfa49186361dce5d"},"geometry":{"type":"Polygon","coordinates":[[[-76.839287,35.705692],[-76.839066,35.70654],[-76.83863,35.709986],[-76.838641,35.710124],[-76.839343,35.710133],[-76.839741,35.708616],[-76.839665,35.707083],[-76.842612,35.707038],[-76.842727,35.707166],[-76.844308,35.706706],[-76.844546,35.705722],[-76.839287,35.705692]]]}}]}