{"type":"FeatureCollection","name":"45001-3_29","features":[{"type":"Feature","id":"45001:016-00-00-032","properties":{"id":"45001:016-00-00-032","parcelId":"016-00-00-032","countyFips":"45001","countyName":"Abbeville","state":"South Carolina","marketIds":["Greenville"],"situsAddress":null,"situsCity":null,"situsZip":null,"jurisdictionCode":null,"ownerName":"LEE IV DREW KUKER & TRACEY D","ownerName2":null,"propertyName":null,"zoningCode":null,"zoningDistrict":null,"jurisdictionPrefix":null,"dorCode":null,"acreage":27.6817,"centroid":[-82.249056,34.410134],"lastSale":{"date":null,"price":null,"qualified":null},"tax":{"marketValue":null,"assessedValue":null,"taxableValue":null,"taxes":null},"mailingAddress":{"line1":null,"line2":null,"city":null,"state":null,"zip":null},"incomeTract":null,"incomeBlockGroup":null,"nearestRoad":null,"flu":null,"opportunityZone":null,"oz2Eligibility":null,"source":"sc-abbeville-parcels-45001","appraiserUrl":"https://qpublic.schneidercorp.com/Application.aspx?AppID=613&LayerID=10508&PageTypeID=4&PageID=4485&KeyValue=016-00-00-032","gisViewerUrl":"https://qpublic.schneidercorp.com/Application.aspx?AppID=613&LayerID=10508&PageTypeID=2&PageID=4483"},"geometry":{"type":"Polygon","coordinates":[[[-82.248019,34.411853],[-82.248386,34.412169],[-82.249435,34.412863],[-82.250973,34.411955],[-82.250627,34.411816],[-82.250498,34.411065],[-82.251041,34.410818],[-82.251955,34.410351],[-82.252123,34.410208],[-82.251988,34.410096],[-82.2516,34.409542],[-82.251412,34.409612],[-82.251216,34.409658],[-82.250916,34.40968],[-82.249421,34.409651],[-82.249066,34.409596],[-82.248837,34.409526],[-82.248522,34.409376],[-82.248294,34.409211],[-82.247712,34.408579],[-82.247328,34.408933],[-82.248451,34.409731],[-82.248313,34.409751],[-82.248129,34.409879],[-82.247886,34.409885],[-82.247745,34.409838],[-82.2476,34.409829],[-82.24733,34.409915],[-82.247198,34.409913],[-82.247025,34.409877],[-82.246896,34.40982],[-82.246643,34.409555],[-82.246271,34.409879],[-82.248019,34.411853]]]}}]}