{"type":"FeatureCollection","name":"47047--26_31","features":[{"type":"Feature","id":"47047:024196    00800","properties":{"id":"47047:024196    00800","parcelId":"024196    00800","countyFips":"47047","countyName":"Fayette","state":"Tennessee","marketIds":["Memphis"],"situsAddress":"YAGER DR","situsCity":null,"situsZip":null,"jurisdictionCode":null,"ownerName":"TRIPLE Q LAND COMPANY LLC","ownerName2":null,"propertyName":null,"zoningCode":"R1","zoningDistrict":null,"jurisdictionPrefix":null,"dorCode":null,"acreage":111.5388,"centroid":[-89.28388,34.996211],"lastSale":{"date":"2021-07-01","price":301822.0,"qualified":null,"vintage":"2023"},"tax":{"marketValue":155200.0,"assessedValue":null,"taxableValue":null,"taxes":null,"vintage":"2023"},"mailingAddress":{"line1":null,"line2":null,"city":null,"state":null,"zip":null},"incomeTract":null,"incomeBlockGroup":null,"nearestRoad":null,"flu":null,"opportunityZone":null,"oz2Eligibility":null,"source":"tn-oir-public-use-47047","appraiserUrl":"https://assessment.cot.tn.gov/TPAD/Parcel/GIS?gislink=024196%20%20%20%2000800"},"geometry":{"type":"MultiPolygon","coordinates":[[[[-89.279115,34.997009],[-89.278976,34.997073],[-89.278848,34.997143],[-89.27873,34.997219],[-89.278617,34.997303],[-89.278572,34.997349],[-89.27854,34.997399],[-89.278518,34.997455],[-89.278509,34.997516],[-89.27901,34.99753],[-89.279508,34.997551],[-89.282444,34.997725],[-89.282847,34.997743],[-89.283272,34.997754],[-89.283882,34.997756],[-89.284193,34.99775],[-89.284526,34.997739],[-89.285043,34.997712],[-89.286075,34.99764],[-89.286081,34.997344],[-89.286106,34.997319],[-89.286143,34.997222],[-89.286139,34.99715],[-89.286304,34.996957],[-89.286367,34.99679],[-89.286254,34.996634],[-89.286475,34.996511],[-89.28648,34.996612],[-89.286526,34.996653],[-89.286623,34.996681],[-89.28682,34.996599],[-89.286999,34.996227],[-89.28729,34.996099],[-89.28715,34.995702],[-89.287155,34.995616],[-89.287188,34.995538],[-89.287251,34.995509],[-89.287318,34.995515],[-89.287404,34.995573],[-89.287548,34.995566],[-89.287611,34.99554],[-89.287619,34.995483],[-89.287461,34.995431],[-89.287387,34.99534],[-89.287502,34.995049],[-89.287719,34.994996],[-89.287779,34.994916],[-89.287768,34.994838],[-89.287667,34.994716],[-89.287645,34.99457],[-89.287723,34.994374],[-89.287689,34.994277],[-89.28767,34.99426],[-89.281535,34.99431],[-89.281423,34.994509],[-89.281348,34.994625],[-89.281225,34.994803],[-89.281145,34.994944],[-89.281106,34.99503],[-89.281013,34.99527],[-89.280893,34.995526],[-89.280829,34.995679],[-89.280768,34.995842],[-89.280704,34.996049],[-89.280682,34.996106],[-89.280624,34.996214],[-89.28055,34.996311],[-89.280491,34.99637],[-89.280423,34.996426],[-89.280346,34.996478],[-89.280265,34.996522],[-89.279115,34.997009]]],[[[-89.273682,34.997606],[-89.273726,34.997656],[-89.273773,34.997701],[-89.274306,34.998125],[-89.274443,34.998021],[-89.274584,34.997929],[-89.274741,34.997841],[-89.274904,34.997765],[-89.275072,34.9977],[-89.275247,34.997645],[-89.275426,34.997601],[-89.275597,34.99757],[-89.275786,34.997549],[-89.275976,34.997539],[-89.277541,34.997511],[-89.277977,34.99751],[-89.278409,34.997514],[-89.278415,34.997458],[-89.278432,34.997401],[-89.278459,34.997346],[-89.278495,34.997295],[-89.278536,34.997254],[-89.278598,34.997205],[-89.278688,34.99714],[-89.278775,34.997085],[-89.278898,34.997016],[-89.279035,34.99695],[-89.28021,34.996453],[-89.280278,34.996417],[-89.280341,34.996376],[-89.2804,34.99633],[-89.280455,34.996277],[-89.28053,34.996184],[-89.280586,34.996082],[-89.280606,34.996029],[-89.280675,34.995811],[-89.280738,34.995642],[-89.280803,34.995489],[-89.28092,34.99524],[-89.281012,34.995003],[-89.281053,34.994913],[-89.281125,34.994782],[-89.281307,34.994514],[-89.281426,34.994311],[-89.273573,34.994375],[-89.273579,34.997323],[-89.273587,34.997396],[-89.273608,34.997472],[-89.27364,34.997542],[-89.273682,34.997606]]],[[[-89.273792,34.998742],[-89.273881,34.998593],[-89.273986,34.998448],[-89.274104,34.998313],[-89.274236,34.998184],[-89.273727,34.997778],[-89.273792,34.998742]]]]}},{"type":"Feature","id":"47047:024196    00600","properties":{"id":"47047:024196    00600","parcelId":"024196    00600","countyFips":"47047","countyName":"Fayette","state":"Tennessee","marketIds":["Memphis"],"situsAddress":"YAGER DR 10330","situsCity":null,"situsZip":null,"jurisdictionCode":null,"ownerName":"SULLIVAN JOHN S JR","ownerName2":"ETUX TINA R","propertyName":null,"zoningCode":"R1","zoningDistrict":null,"jurisdictionPrefix":null,"dorCode":null,"acreage":107.4334,"centroid":[-89.289122,34.996164],"lastSale":{"date":"2018-07-10","price":901105.0,"qualified":null,"vintage":"2023"},"tax":{"marketValue":184400.0,"assessedValue":null,"taxableValue":null,"taxes":null,"vintage":"2023"},"mailingAddress":{"line1":null,"line2":null,"city":null,"state":null,"zip":null},"incomeTract":null,"incomeBlockGroup":null,"nearestRoad":null,"flu":null,"opportunityZone":null,"oz2Eligibility":null,"source":"tn-oir-public-use-47047","appraiserUrl":"https://assessment.cot.tn.gov/TPAD/Parcel/GIS?gislink=024196%20%20%20%2000600"},"geometry":{"type":"Polygon","coordinates":[[[-89.288122,34.997541],[-89.288693,34.997529],[-89.289223,34.997524],[-89.293884,34.99753],[-89.299187,34.997499],[-89.299603,34.997505],[-89.300018,34.997525],[-89.299986,34.996384],[-89.299975,34.995755],[-89.299973,34.995075],[-89.299983,34.994158],[-89.28767,34.99426],[-89.287689,34.994277],[-89.287723,34.994374],[-89.287645,34.99457],[-89.287667,34.994716],[-89.287768,34.994838],[-89.287779,34.994916],[-89.287719,34.994996],[-89.287502,34.995049],[-89.287387,34.99534],[-89.287461,34.995431],[-89.287619,34.995483],[-89.287611,34.99554],[-89.287548,34.995566],[-89.287404,34.995573],[-89.287318,34.995515],[-89.287251,34.995509],[-89.287188,34.995538],[-89.287155,34.995616],[-89.28715,34.995702],[-89.28729,34.996099],[-89.286999,34.996227],[-89.28682,34.996599],[-89.286623,34.996681],[-89.286526,34.996653],[-89.28648,34.996612],[-89.286475,34.996511],[-89.286254,34.996634],[-89.286367,34.99679],[-89.286304,34.996957],[-89.286139,34.99715],[-89.286143,34.997222],[-89.286106,34.997319],[-89.286081,34.997344],[-89.286075,34.99764],[-89.286603,34.997606],[-89.287125,34.997578],[-89.287647,34.997556],[-89.288122,34.997541]]]}},{"type":"Feature","id":"47047:024198    00500","properties":{"id":"47047:024198    00500","parcelId":"024198    00500","countyFips":"47047","countyName":"Fayette","state":"Tennessee","marketIds":["Memphis"],"situsAddress":"CANDY OWENS RD E OF","situsCity":null,"situsZip":null,"jurisdictionCode":null,"ownerName":"CONCORD ROAD FARMS LLC","ownerName2":null,"propertyName":null,"zoningCode":"R1","zoningDistrict":null,"jurisdictionPrefix":null,"dorCode":null,"acreage":104.2293,"centroid":[-89.396732,34.997813],"lastSale":{"date":"2010-08-31","price":242000.0,"qualified":null,"vintage":"2023"},"tax":{"marketValue":91700.0,"assessedValue":null,"taxableValue":null,"taxes":null,"vintage":"2023"},"mailingAddress":{"line1":null,"line2":null,"city":null,"state":null,"zip":null},"incomeTract":null,"incomeBlockGroup":null,"nearestRoad":null,"flu":null,"opportunityZone":null,"oz2Eligibility":null,"source":"tn-oir-public-use-47047","appraiserUrl":"https://assessment.cot.tn.gov/TPAD/Parcel/GIS?gislink=024198%20%20%20%2000500"},"geometry":{"type":"Polygon","coordinates":[[[-89.39671,35.002027],[-89.400152,35.001993],[-89.399932,34.996838],[-89.399926,34.994121],[-89.395653,34.994155],[-89.392373,34.994127],[-89.392381,34.997659],[-89.396764,34.997912],[-89.396693,35.001482],[-89.39671,35.002027]]]}},{"type":"Feature","id":"47047:024198    00410","properties":{"id":"47047:024198    00410","parcelId":"024198    00410","countyFips":"47047","countyName":"Fayette","state":"Tennessee","marketIds":["Memphis"],"situsAddress":"CANDY OWENS RD","situsCity":null,"situsZip":null,"jurisdictionCode":null,"ownerName":"CONCORD ROAD FARMS LLC","ownerName2":null,"propertyName":null,"zoningCode":null,"zoningDistrict":null,"jurisdictionPrefix":null,"dorCode":null,"acreage":98.2411,"centroid":[-89.404015,34.997889],"lastSale":{"date":"2011-03-18","price":null,"qualified":null,"vintage":"2023"},"tax":{"marketValue":79200.0,"assessedValue":null,"taxableValue":null,"taxes":null,"vintage":"2023"},"mailingAddress":{"line1":null,"line2":null,"city":null,"state":null,"zip":null},"incomeTract":null,"incomeBlockGroup":null,"nearestRoad":null,"flu":null,"opportunityZone":null,"oz2Eligibility":null,"source":"tn-oir-public-use-47047","appraiserUrl":"https://assessment.cot.tn.gov/TPAD/Parcel/GIS?gislink=024198%20%20%20%2000410"},"geometry":{"type":"MultiPolygon","coordinates":[[[[-89.400152,35.001993],[-89.400164,35.002286],[-89.405151,35.002188],[-89.405165,35.001618],[-89.405851,35.001562],[-89.405764,34.99952],[-89.405098,34.999706],[-89.405101,34.999576],[-89.404228,34.999819],[-89.404184,34.998989],[-89.40496,34.998472],[-89.404981,34.998207],[-89.404986,34.997797],[-89.404317,34.997822],[-89.404286,34.996619],[-89.403704,34.996626],[-89.403694,34.99588],[-89.405627,34.995867],[-89.405621,34.995648],[-89.404961,34.995651],[-89.404935,34.995054],[-89.404131,34.995088],[-89.404142,34.994071],[-89.403329,34.994094],[-89.399926,34.994121],[-89.399932,34.996838],[-89.400152,35.001993]]],[[[-89.404977,34.997607],[-89.405642,34.99761],[-89.40564,34.997197],[-89.404961,34.997194],[-89.404977,34.997607]]]]}},{"type":"Feature","id":"47047:024197    00303","properties":{"id":"47047:024197    00303","parcelId":"024197    00303","countyFips":"47047","countyName":"Fayette","state":"Tennessee","marketIds":["Memphis"],"situsAddress":"HONEYSUCKLE RD 720","situsCity":null,"situsZip":null,"jurisdictionCode":null,"ownerName":"EDGE GARY J","ownerName2":"& JUDITH H EDGE TRUSTEES","propertyName":null,"zoningCode":null,"zoningDistrict":null,"jurisdictionPrefix":null,"dorCode":null,"acreage":95.4891,"centroid":[-89.344112,34.995652],"lastSale":{"date":"2018-12-20","price":null,"qualified":null,"vintage":"2023"},"tax":{"marketValue":355500.0,"assessedValue":null,"taxableValue":null,"taxes":null,"vintage":"2023"},"mailingAddress":{"line1":null,"line2":null,"city":null,"state":null,"zip":null},"incomeTract":null,"incomeBlockGroup":null,"nearestRoad":null,"flu":null,"opportunityZone":null,"oz2Eligibility":null,"source":"tn-oir-public-use-47047","appraiserUrl":"https://assessment.cot.tn.gov/TPAD/Parcel/GIS?gislink=024197%20%20%20%2000303"},"geometry":{"type":"Polygon","coordinates":[[[-89.34863,34.997496],[-89.348846,34.997497],[-89.352718,34.997437],[-89.352699,34.993801],[-89.343458,34.993828],[-89.343461,34.994404],[-89.337702,34.994454],[-89.337512,34.994764],[-89.337017,34.994765],[-89.336775,34.994583],[-89.335506,34.994589],[-89.335518,34.994893],[-89.343119,34.994836],[-89.343136,34.99491],[-89.343167,34.995197],[-89.343177,34.995489],[-89.343165,34.995766],[-89.343164,34.996026],[-89.343155,34.996114],[-89.343139,34.996202],[-89.343117,34.996289],[-89.343089,34.996375],[-89.342917,34.996771],[-89.3425,34.997357],[-89.342463,34.997453],[-89.342457,34.997504],[-89.3446,34.997491],[-89.34863,34.997496]]]}},{"type":"Feature","id":"47047:024197    00800","properties":{"id":"47047:024197    00800","parcelId":"024197    00800","countyFips":"47047","countyName":"Fayette","state":"Tennessee","marketIds":["Memphis"],"situsAddress":"HONEYSUCKLE RD","situsCity":null,"situsZip":null,"jurisdictionCode":null,"ownerName":"HONEYSUCKLE ESTATES LLC","ownerName2":"% THOMAS HUMPHREY","propertyName":null,"zoningCode":"R1","zoningDistrict":null,"jurisdictionPrefix":null,"dorCode":null,"acreage":87.1928,"centroid":[-89.330366,34.997526],"lastSale":{"date":"2008-12-12","price":null,"qualified":null,"vintage":"2023"},"tax":{"marketValue":185300.0,"assessedValue":null,"taxableValue":null,"taxes":null,"vintage":"2023"},"mailingAddress":{"line1":null,"line2":null,"city":null,"state":null,"zip":null},"incomeTract":null,"incomeBlockGroup":null,"nearestRoad":null,"flu":null,"opportunityZone":null,"oz2Eligibility":null,"source":"tn-oir-public-use-47047","appraiserUrl":"https://assessment.cot.tn.gov/TPAD/Parcel/GIS?gislink=024197%20%20%20%2000800"},"geometry":{"type":"Polygon","coordinates":[[[-89.332838,34.999472],[-89.332847,34.999336],[-89.332853,34.998623],[-89.332822,34.993874],[-89.326591,34.99393],[-89.326624,34.995964],[-89.326611,34.999515],[-89.33174,34.99949],[-89.332838,34.999472]]]}},{"type":"Feature","id":"47047:024197    00809","properties":{"id":"47047:024197    00809","parcelId":"024197    00809","countyFips":"47047","countyName":"Fayette","state":"Tennessee","marketIds":["Memphis"],"situsAddress":"DORSE RD","situsCity":null,"situsZip":null,"jurisdictionCode":null,"ownerName":"WARREN MATTHEW TYLER","ownerName2":"ETUX KIMBERLY KIRKLAND","propertyName":null,"zoningCode":null,"zoningDistrict":null,"jurisdictionPrefix":null,"dorCode":null,"acreage":83.5377,"centroid":[-89.322179,34.996147],"lastSale":{"date":null,"price":null,"qualified":null},"tax":{"marketValue":null,"assessedValue":null,"taxableValue":null,"taxes":null},"mailingAddress":{"line1":null,"line2":null,"city":null,"state":null,"zip":null},"incomeTract":null,"incomeBlockGroup":null,"nearestRoad":null,"flu":null,"opportunityZone":null,"oz2Eligibility":null,"source":"tn-oir-public-use-47047","appraiserUrl":"https://assessment.cot.tn.gov/TPAD/Parcel/GIS?gislink=024197%20%20%20%2000809"},"geometry":{"type":"Polygon","coordinates":[[[-89.317746,34.997512],[-89.317746,34.997755],[-89.326618,34.997714],[-89.326624,34.995964],[-89.326591,34.99393],[-89.317747,34.994009],[-89.317746,34.997512]]]}},{"type":"Feature","id":"47047:024199    00300","properties":{"id":"47047:024199    00300","parcelId":"024199    00300","countyFips":"47047","countyName":"Fayette","state":"Tennessee","marketIds":["Memphis"],"situsAddress":"STATE LINE","situsCity":null,"situsZip":null,"jurisdictionCode":null,"ownerName":"MALL MYRON M","ownerName2":null,"propertyName":null,"zoningCode":"R1","zoningDistrict":null,"jurisdictionPrefix":null,"dorCode":null,"acreage":82.7115,"centroid":[-89.418718,34.996147],"lastSale":{"date":"1997-05-27","price":48760.0,"qualified":null,"vintage":"2023"},"tax":{"marketValue":101000.0,"assessedValue":null,"taxableValue":null,"taxes":null,"vintage":"2023"},"mailingAddress":{"line1":null,"line2":null,"city":null,"state":null,"zip":null},"incomeTract":null,"incomeBlockGroup":null,"nearestRoad":null,"flu":null,"opportunityZone":null,"oz2Eligibility":null,"source":"tn-oir-public-use-47047","appraiserUrl":"https://assessment.cot.tn.gov/TPAD/Parcel/GIS?gislink=024199%20%20%20%2000300"},"geometry":{"type":"Polygon","coordinates":[[[-89.414463,34.995679],[-89.41448,34.997662],[-89.422233,34.997768],[-89.423381,34.997776],[-89.423301,34.993965],[-89.414449,34.994033],[-89.414463,34.995679]]]}},{"type":"Feature","id":"47047:024200    00502","properties":{"id":"47047:024200    00502","parcelId":"024200    00502","countyFips":"47047","countyName":"Fayette","state":"Tennessee","marketIds":["Memphis"],"situsAddress":"LINWOOD DR 945","situsCity":null,"situsZip":null,"jurisdictionCode":null,"ownerName":"PLEASANTS ANDREW FLEMINGS","ownerName2":null,"propertyName":null,"zoningCode":null,"zoningDistrict":null,"jurisdictionPrefix":null,"dorCode":null,"acreage":81.102,"centroid":[-89.49602,34.99598],"lastSale":{"date":"2021-04-01","price":null,"qualified":null,"vintage":"2023"},"tax":{"marketValue":256400.0,"assessedValue":null,"taxableValue":null,"taxes":null,"vintage":"2023"},"mailingAddress":{"line1":null,"line2":null,"city":null,"state":null,"zip":null},"incomeTract":null,"incomeBlockGroup":null,"nearestRoad":null,"flu":null,"opportunityZone":null,"oz2Eligibility":null,"source":"tn-oir-public-use-47047","appraiserUrl":"https://assessment.cot.tn.gov/TPAD/Parcel/GIS?gislink=024200%20%20%20%2000502"},"geometry":{"type":"Polygon","coordinates":[[[-89.493445,34.995363],[-89.493396,34.998201],[-89.493385,35.00004],[-89.499174,35.000045],[-89.499168,34.994404],[-89.497135,34.994356],[-89.497126,34.99492],[-89.497026,34.994926],[-89.496414,34.994916],[-89.496446,34.99434],[-89.493504,34.99427],[-89.493445,34.995363]]]}},{"type":"Feature","id":"47047:024197    00600","properties":{"id":"47047:024197    00600","parcelId":"024197    00600","countyFips":"47047","countyName":"Fayette","state":"Tennessee","marketIds":["Memphis"],"situsAddress":"YAGER DR","situsCity":null,"situsZip":null,"jurisdictionCode":null,"ownerName":"PIERCE JOHNNY W JR","ownerName2":null,"propertyName":null,"zoningCode":"R1","zoningDistrict":null,"jurisdictionPrefix":null,"dorCode":null,"acreage":75.7756,"centroid":[-89.331111,34.999839],"lastSale":{"date":"2007-10-12","price":null,"qualified":null,"vintage":"2023"},"tax":{"marketValue":93700.0,"assessedValue":null,"taxableValue":null,"taxes":null,"vintage":"2023"},"mailingAddress":{"line1":null,"line2":null,"city":null,"state":null,"zip":null},"incomeTract":null,"incomeBlockGroup":null,"nearestRoad":null,"flu":null,"opportunityZone":null,"oz2Eligibility":null,"source":"tn-oir-public-use-47047","appraiserUrl":"https://assessment.cot.tn.gov/TPAD/Parcel/GIS?gislink=024197%20%20%20%2000600"},"geometry":{"type":"Polygon","coordinates":[[[-89.331768,34.999489],[-89.326611,34.999515],[-89.326618,34.997714],[-89.321222,34.997739],[-89.32135,35.001096],[-89.328911,35.001056],[-89.328968,35.002252],[-89.330858,35.002228],[-89.330991,35.00487],[-89.33136,35.004877],[-89.331213,35.002048],[-89.331906,35.002011],[-89.331768,34.999489]]]}},{"type":"Feature","id":"47047:024195    00501","properties":{"id":"47047:024195    00501","parcelId":"024195    00501","countyFips":"47047","countyName":"Fayette","state":"Tennessee","marketIds":["Memphis"],"situsAddress":"MISSISSIPPI RD","situsCity":null,"situsZip":null,"jurisdictionCode":null,"ownerName":"MILLER KAREN SUE","ownerName2":"ETVIR GARY E MILLER","propertyName":null,"zoningCode":null,"zoningDistrict":null,"jurisdictionPrefix":null,"dorCode":null,"acreage":65.4779,"centroid":[-89.267884,34.995682],"lastSale":{"date":"2012-04-03","price":null,"qualified":null,"vintage":"2023"},"tax":{"marketValue":94700.0,"assessedValue":null,"taxableValue":null,"taxes":null,"vintage":"2023"},"mailingAddress":{"line1":null,"line2":null,"city":null,"state":null,"zip":null},"incomeTract":null,"incomeBlockGroup":null,"nearestRoad":null,"flu":null,"opportunityZone":null,"oz2Eligibility":null,"source":"tn-oir-public-use-47047","appraiserUrl":"https://assessment.cot.tn.gov/TPAD/Parcel/GIS?gislink=024195%20%20%20%2000501"},"geometry":{"type":"Polygon","coordinates":[[[-89.264757,34.996076],[-89.264773,34.997631],[-89.273485,34.997391],[-89.273478,34.99731],[-89.273473,34.994376],[-89.272307,34.994385],[-89.265895,34.994411],[-89.265737,34.994751],[-89.265616,34.994951],[-89.265381,34.995213],[-89.26495,34.995742],[-89.264756,34.995942],[-89.264757,34.996076]]]}},{"type":"Feature","id":"47047:024199    00206","properties":{"id":"47047:024199    00206","parcelId":"024199    00206","countyFips":"47047","countyName":"Fayette","state":"Tennessee","marketIds":["Memphis"],"situsAddress":"SLAYDEN RD","situsCity":null,"situsZip":null,"jurisdictionCode":null,"ownerName":"CRUMP MADELEINE MALLORY TRUSTEE","ownerName2":null,"propertyName":null,"zoningCode":"R1","zoningDistrict":null,"jurisdictionPrefix":null,"dorCode":null,"acreage":56.2872,"centroid":[-89.436605,34.995146],"lastSale":{"date":"2000-04-20","price":null,"qualified":null,"vintage":"2023"},"tax":{"marketValue":75600.0,"assessedValue":null,"taxableValue":null,"taxes":null,"vintage":"2023"},"mailingAddress":{"line1":null,"line2":null,"city":null,"state":null,"zip":null},"incomeTract":null,"incomeBlockGroup":null,"nearestRoad":null,"flu":null,"opportunityZone":null,"oz2Eligibility":null,"source":"tn-oir-public-use-47047","appraiserUrl":"https://assessment.cot.tn.gov/TPAD/Parcel/GIS?gislink=024199%20%20%20%2000206"},"geometry":{"type":"Polygon","coordinates":[[[-89.432224,34.996444],[-89.440977,34.996418],[-89.440987,34.993827],[-89.432234,34.993896],[-89.432224,34.996444]]]}},{"type":"Feature","id":"47047:024199    00700","properties":{"id":"47047:024199    00700","parcelId":"024199    00700","countyFips":"47047","countyName":"Fayette","state":"Tennessee","marketIds":["Memphis"],"situsAddress":"SUGAR HILL DR 923","situsCity":null,"situsZip":null,"jurisdictionCode":null,"ownerName":"HODGE DERRIE CAMPBELL","ownerName2":null,"propertyName":null,"zoningCode":null,"zoningDistrict":null,"jurisdictionPrefix":null,"dorCode":null,"acreage":37.6208,"centroid":[-89.450931,34.999239],"lastSale":{"date":"2012-03-10","price":178332.0,"qualified":null,"vintage":"2023"},"tax":{"marketValue":903300.0,"assessedValue":null,"taxableValue":null,"taxes":null,"vintage":"2023"},"mailingAddress":{"line1":null,"line2":null,"city":null,"state":null,"zip":null},"incomeTract":null,"incomeBlockGroup":null,"nearestRoad":null,"flu":null,"opportunityZone":null,"oz2Eligibility":null,"source":"tn-oir-public-use-47047","appraiserUrl":"https://assessment.cot.tn.gov/TPAD/Parcel/GIS?gislink=024199%20%20%20%2000700"},"geometry":{"type":"Polygon","coordinates":[[[-89.451224,34.9979],[-89.451108,34.997939],[-89.450998,34.997967],[-89.450895,34.997984],[-89.450747,34.998],[-89.450275,34.998045],[-89.449805,34.998083],[-89.449363,34.998111],[-89.448929,34.998132],[-89.449045,34.99863],[-89.45025,35.000222],[-89.450344,35.000529],[-89.4506,35.000972],[-89.450941,35.001234],[-89.451335,35.001407],[-89.451515,35.001417],[-89.451496,35.001637],[-89.454188,35.0018],[-89.454028,34.998067],[-89.451231,34.998042],[-89.451229,34.997898],[-89.451224,34.9979]]]}},{"type":"Feature","id":"47047:024198    00308","properties":{"id":"47047:024198    00308","parcelId":"024198    00308","countyFips":"47047","countyName":"Fayette","state":"Tennessee","marketIds":["Memphis"],"situsAddress":"CANDY OWENS RD 1610","situsCity":null,"situsZip":null,"jurisdictionCode":null,"ownerName":"SOTO LEODEGARIO MENDOZA","ownerName2":null,"propertyName":null,"zoningCode":"R1","zoningDistrict":null,"jurisdictionPrefix":null,"dorCode":null,"acreage":37.1484,"centroid":[-89.407885,34.995736],"lastSale":{"date":"2022-02-18","price":180000.0,"qualified":null,"vintage":"2023"},"tax":{"marketValue":61300.0,"assessedValue":null,"taxableValue":null,"taxes":null,"vintage":"2023"},"mailingAddress":{"line1":null,"line2":null,"city":null,"state":null,"zip":null},"incomeTract":null,"incomeBlockGroup":null,"nearestRoad":null,"flu":null,"opportunityZone":null,"oz2Eligibility":null,"source":"tn-oir-public-use-47047","appraiserUrl":"https://assessment.cot.tn.gov/TPAD/Parcel/GIS?gislink=024198%20%20%20%2000308"},"geometry":{"type":"Polygon","coordinates":[[[-89.406399,34.996041],[-89.406405,34.996332],[-89.40642,34.99667],[-89.405737,34.996692],[-89.405738,34.996811],[-89.406919,34.996805],[-89.406928,34.997011],[-89.407982,34.997013],[-89.40798,34.996662],[-89.406918,34.996664],[-89.406888,34.99586],[-89.408406,34.995864],[-89.414464,34.995834],[-89.414449,34.994033],[-89.41259,34.994047],[-89.40756,34.994038],[-89.407463,34.994534],[-89.406775,34.994536],[-89.406782,34.994888],[-89.406391,34.994887],[-89.406384,34.995238],[-89.406399,34.996041]]]}},{"type":"Feature","id":"47047:024199    00600","properties":{"id":"47047:024199    00600","parcelId":"024199    00600","countyFips":"47047","countyName":"Fayette","state":"Tennessee","marketIds":["Memphis"],"situsAddress":"SUGAR HILL DR 1445","situsCity":null,"situsZip":null,"jurisdictionCode":null,"ownerName":"LESSLEY MARYANNE DUNAVANT","ownerName2":"ETVIR SAMUEL LESSLEY","propertyName":null,"zoningCode":"R1","zoningDistrict":null,"jurisdictionPrefix":null,"dorCode":null,"acreage":34.3875,"centroid":[-89.442936,34.99881],"lastSale":{"date":"2014-08-19","price":null,"qualified":null,"vintage":"2023"},"tax":{"marketValue":472900.0,"assessedValue":null,"taxableValue":null,"taxes":null,"vintage":"2023"},"mailingAddress":{"line1":null,"line2":null,"city":null,"state":null,"zip":null},"incomeTract":null,"incomeBlockGroup":null,"nearestRoad":null,"flu":null,"opportunityZone":null,"oz2Eligibility":null,"source":"tn-oir-public-use-47047","appraiserUrl":"https://assessment.cot.tn.gov/TPAD/Parcel/GIS?gislink=024199%20%20%20%2000600"},"geometry":{"type":"Polygon","coordinates":[[[-89.443492,34.99799],[-89.443417,34.997995],[-89.443336,34.998006],[-89.443259,34.998022],[-89.443182,34.998045],[-89.44311,34.998071],[-89.443041,34.998103],[-89.442975,34.998139],[-89.442913,34.998179],[-89.442844,34.998234],[-89.441313,34.99957],[-89.441254,34.999615],[-89.441195,34.999653],[-89.441136,34.999686],[-89.441065,34.999719],[-89.441059,35.001545],[-89.445487,35.001575],[-89.445401,34.998025],[-89.445029,34.998012],[-89.444213,34.998009],[-89.443492,34.99799]]]}},{"type":"Feature","id":"47047:024199    00205","properties":{"id":"47047:024199    00205","parcelId":"024199    00205","countyFips":"47047","countyName":"Fayette","state":"Tennessee","marketIds":["Memphis"],"situsAddress":"SLAYDEN RD","situsCity":null,"situsZip":null,"jurisdictionCode":null,"ownerName":"DELOZIER OLIVIA MALLORY","ownerName2":null,"propertyName":null,"zoningCode":"R1","zoningDistrict":null,"jurisdictionPrefix":null,"dorCode":null,"acreage":31.9096,"centroid":[-89.436598,34.997159],"lastSale":{"date":"2000-04-20","price":null,"qualified":null,"vintage":"2023"},"tax":{"marketValue":40900.0,"assessedValue":null,"taxableValue":null,"taxes":null,"vintage":"2023"},"mailingAddress":{"line1":null,"line2":null,"city":null,"state":null,"zip":null},"incomeTract":null,"incomeBlockGroup":null,"nearestRoad":null,"flu":null,"opportunityZone":null,"oz2Eligibility":null,"source":"tn-oir-public-use-47047","appraiserUrl":"https://assessment.cot.tn.gov/TPAD/Parcel/GIS?gislink=024199%20%20%20%2000205"},"geometry":{"type":"Polygon","coordinates":[[[-89.432224,34.996444],[-89.432219,34.99783],[-89.440971,34.997946],[-89.440977,34.996418],[-89.432224,34.996444]]]}},{"type":"Feature","id":"47047:024200    00113","properties":{"id":"47047:024200    00113","parcelId":"024200    00113","countyFips":"47047","countyName":"Fayette","state":"Tennessee","marketIds":["Memphis"],"situsAddress":"PLEASANT GROVE RD 4240","situsCity":null,"situsZip":null,"jurisdictionCode":null,"ownerName":"GALLO ROMAN B","ownerName2":"ETUX BETHANY A","propertyName":null,"zoningCode":"R1","zoningDistrict":null,"jurisdictionPrefix":null,"dorCode":null,"acreage":31.704,"centroid":[-89.469099,34.995337],"lastSale":{"date":"2013-07-30","price":135000.0,"qualified":null,"vintage":"2023"},"tax":{"marketValue":1037900.0,"assessedValue":null,"taxableValue":null,"taxes":null,"vintage":"2023"},"mailingAddress":{"line1":null,"line2":null,"city":null,"state":null,"zip":null},"incomeTract":null,"incomeBlockGroup":null,"nearestRoad":null,"flu":null,"opportunityZone":null,"oz2Eligibility":null,"source":"tn-oir-public-use-47047","appraiserUrl":"https://assessment.cot.tn.gov/TPAD/Parcel/GIS?gislink=024200%20%20%20%2000113"},"geometry":{"type":"Polygon","coordinates":[[[-89.466128,34.996022],[-89.477712,34.99619],[-89.477728,34.995099],[-89.473141,34.995026],[-89.469085,34.994991],[-89.466006,34.99493],[-89.466015,34.995049],[-89.466031,34.99517],[-89.466053,34.995282],[-89.46609,34.995431],[-89.466104,34.995518],[-89.466128,34.996022]]]}},{"type":"Feature","id":"47047:024198    00200","properties":{"id":"47047:024198    00200","parcelId":"024198    00200","countyFips":"47047","countyName":"Fayette","state":"Tennessee","marketIds":["Memphis"],"situsAddress":"CANDY OWENS RD 1610","situsCity":null,"situsZip":null,"jurisdictionCode":null,"ownerName":"HOFFMAN DANIEL C III","ownerName2":"ETUX KELSEY L","propertyName":null,"zoningCode":"R1","zoningDistrict":null,"jurisdictionPrefix":null,"dorCode":null,"acreage":31.0681,"centroid":[-89.407696,34.997157],"lastSale":{"date":"2022-12-21","price":145000.0,"qualified":null,"vintage":"2023"},"tax":{"marketValue":35200.0,"assessedValue":null,"taxableValue":null,"taxes":null,"vintage":"2023"},"mailingAddress":{"line1":null,"line2":null,"city":null,"state":null,"zip":null},"incomeTract":null,"incomeBlockGroup":null,"nearestRoad":null,"flu":null,"opportunityZone":null,"oz2Eligibility":null,"source":"tn-oir-public-use-47047","appraiserUrl":"https://assessment.cot.tn.gov/TPAD/Parcel/GIS?gislink=024198%20%20%20%2000200"},"geometry":{"type":"Polygon","coordinates":[[[-89.407447,34.997738],[-89.41448,34.997662],[-89.414464,34.995834],[-89.408406,34.995864],[-89.408413,34.997138],[-89.407033,34.997135],[-89.406137,34.997213],[-89.406024,34.997149],[-89.405739,34.997104],[-89.40574,34.997256],[-89.405808,34.997256],[-89.405957,34.99729],[-89.406257,34.997444],[-89.406768,34.997527],[-89.406769,34.997738],[-89.407447,34.997738]]]}},{"type":"Feature","id":"47047:024197    00300","properties":{"id":"47047:024197    00300","parcelId":"024197    00300","countyFips":"47047","countyName":"Fayette","state":"Tennessee","marketIds":["Memphis"],"situsAddress":"HONEYSUCKLE RD 600","situsCity":null,"situsZip":null,"jurisdictionCode":null,"ownerName":"MACK SEAN","ownerName2":null,"propertyName":null,"zoningCode":"R1","zoningDistrict":null,"jurisdictionPrefix":null,"dorCode":null,"acreage":31.0072,"centroid":[-89.341502,34.995773],"lastSale":{"date":"2019-05-01","price":null,"qualified":null,"vintage":"2023"},"tax":{"marketValue":700000.0,"assessedValue":null,"taxableValue":null,"taxes":null,"vintage":"2023"},"mailingAddress":{"line1":null,"line2":null,"city":null,"state":null,"zip":null},"incomeTract":null,"incomeBlockGroup":null,"nearestRoad":null,"flu":null,"opportunityZone":null,"oz2Eligibility":null,"source":"tn-oir-public-use-47047","appraiserUrl":"https://assessment.cot.tn.gov/TPAD/Parcel/GIS?gislink=024197%20%20%20%2000300"},"geometry":{"type":"Polygon","coordinates":[[[-89.335521,34.996516],[-89.343055,34.996459],[-89.343089,34.996375],[-89.343117,34.996289],[-89.343139,34.996202],[-89.343155,34.996114],[-89.343164,34.996026],[-89.343165,34.995766],[-89.343177,34.995489],[-89.343167,34.995197],[-89.343136,34.99491],[-89.343119,34.994836],[-89.335518,34.994893],[-89.335512,34.995745],[-89.335521,34.996516]]]}},{"type":"Feature","id":"47047:024199    00204","properties":{"id":"47047:024199    00204","parcelId":"024199    00204","countyFips":"47047","countyName":"Fayette","state":"Tennessee","marketIds":["Memphis"],"situsAddress":"SLAYDEN RD","situsCity":null,"situsZip":null,"jurisdictionCode":null,"ownerName":"DELOZIER BENJAMIN J","ownerName2":null,"propertyName":null,"zoningCode":"R1","zoningDistrict":null,"jurisdictionPrefix":null,"dorCode":null,"acreage":30.6958,"centroid":[-89.443574,34.994936],"lastSale":{"date":"2016-10-04","price":null,"qualified":null,"vintage":"2023"},"tax":{"marketValue":69400.0,"assessedValue":null,"taxableValue":null,"taxes":null,"vintage":"2023"},"mailingAddress":{"line1":null,"line2":null,"city":null,"state":null,"zip":null},"incomeTract":null,"incomeBlockGroup":null,"nearestRoad":null,"flu":null,"opportunityZone":null,"oz2Eligibility":null,"source":"tn-oir-public-use-47047","appraiserUrl":"https://assessment.cot.tn.gov/TPAD/Parcel/GIS?gislink=024199%20%20%20%2000204"},"geometry":{"type":"Polygon","coordinates":[[[-89.441081,34.995453],[-89.44108,34.995519],[-89.442901,34.995968],[-89.442895,34.995888],[-89.442968,34.995298],[-89.449171,34.995271],[-89.449122,34.993763],[-89.442715,34.993814],[-89.442719,34.994317],[-89.441086,34.994064],[-89.441081,34.995453]]]}},{"type":"Feature","id":"47047:024199    00200","properties":{"id":"47047:024199    00200","parcelId":"024199    00200","countyFips":"47047","countyName":"Fayette","state":"Tennessee","marketIds":["Memphis"],"situsAddress":"SUGAR HILL DR","situsCity":null,"situsZip":null,"jurisdictionCode":null,"ownerName":"UNDERWOOD ALLISON DELOZIER","ownerName2":null,"propertyName":null,"zoningCode":"R1","zoningDistrict":null,"jurisdictionPrefix":null,"dorCode":null,"acreage":30.441,"centroid":[-89.446853,34.997621],"lastSale":{"date":"2000-04-20","price":null,"qualified":null,"vintage":"2023"},"tax":{"marketValue":38100.0,"assessedValue":null,"taxableValue":null,"taxes":null,"vintage":"2023"},"mailingAddress":{"line1":null,"line2":null,"city":null,"state":null,"zip":null},"incomeTract":null,"incomeBlockGroup":null,"nearestRoad":null,"flu":null,"opportunityZone":null,"oz2Eligibility":null,"source":"tn-oir-public-use-47047","appraiserUrl":"https://assessment.cot.tn.gov/TPAD/Parcel/GIS?gislink=024199%20%20%20%2000200"},"geometry":{"type":"Polygon","coordinates":[[[-89.444811,34.997927],[-89.445107,34.997931],[-89.445422,34.997944],[-89.445699,34.997962],[-89.446189,34.998005],[-89.446511,34.998028],[-89.446863,34.998046],[-89.447304,34.998061],[-89.447795,34.998068],[-89.448293,34.998066],[-89.448777,34.998055],[-89.449262,34.998034],[-89.449171,34.995271],[-89.444744,34.995291],[-89.444811,34.997927]]]}},{"type":"Feature","id":"47047:024200    00400","properties":{"id":"47047:024200    00400","parcelId":"024200    00400","countyFips":"47047","countyName":"Fayette","state":"Tennessee","marketIds":["Memphis"],"situsAddress":"LINWOOD DR 1060","situsCity":null,"situsZip":null,"jurisdictionCode":null,"ownerName":"BERNARD MILTON STANLEY","ownerName2":"& POLLY DUNHAM BERNARD TRUSTEES","propertyName":null,"zoningCode":"R1","zoningDistrict":null,"jurisdictionPrefix":null,"dorCode":null,"acreage":27.9568,"centroid":[-89.492153,34.995545],"lastSale":{"date":"2022-02-15","price":null,"qualified":null,"vintage":"2023"},"tax":{"marketValue":380900.0,"assessedValue":null,"taxableValue":null,"taxes":null,"vintage":"2023"},"mailingAddress":{"line1":null,"line2":null,"city":null,"state":null,"zip":null},"incomeTract":null,"incomeBlockGroup":null,"nearestRoad":null,"flu":null,"opportunityZone":null,"oz2Eligibility":null,"source":"tn-oir-public-use-47047","appraiserUrl":"https://assessment.cot.tn.gov/TPAD/Parcel/GIS?gislink=024200%20%20%20%2000400"},"geometry":{"type":"Polygon","coordinates":[[[-89.489237,34.99685],[-89.493257,34.996944],[-89.493418,34.99694],[-89.493445,34.995363],[-89.493504,34.99427],[-89.492917,34.994256],[-89.489292,34.994195],[-89.489237,34.99685]]]}},{"type":"Feature","id":"47047:024200    00110","properties":{"id":"47047:024200    00110","parcelId":"024200    00110","countyFips":"47047","countyName":"Fayette","state":"Tennessee","marketIds":["Memphis"],"situsAddress":"PLEASANT GROVE RD 4322","situsCity":null,"situsZip":null,"jurisdictionCode":null,"ownerName":"WRIGHT KENNY HALE","ownerName2":"ETUX TABITHA ELISE","propertyName":null,"zoningCode":"R1","zoningDistrict":null,"jurisdictionPrefix":null,"dorCode":null,"acreage":25.1585,"centroid":[-89.470637,34.994366],"lastSale":{"date":"2014-08-28","price":377000.0,"qualified":null,"vintage":"2023"},"tax":{"marketValue":442900.0,"assessedValue":null,"taxableValue":null,"taxes":null,"vintage":"2023"},"mailingAddress":{"line1":null,"line2":null,"city":null,"state":null,"zip":null},"incomeTract":null,"incomeBlockGroup":null,"nearestRoad":null,"flu":null,"opportunityZone":null,"oz2Eligibility":null,"source":"tn-oir-public-use-47047","appraiserUrl":"https://assessment.cot.tn.gov/TPAD/Parcel/GIS?gislink=024200%20%20%20%2000110"},"geometry":{"type":"Polygon","coordinates":[[[-89.469085,34.994991],[-89.473141,34.995026],[-89.477728,34.995099],[-89.477745,34.993998],[-89.466401,34.993803],[-89.466317,34.993983],[-89.466831,34.993999],[-89.469202,34.994052],[-89.469282,34.994347],[-89.469085,34.994991]]]}},{"type":"Feature","id":"47047:024196    00801","properties":{"id":"47047:024196    00801","parcelId":"024196    00801","countyFips":"47047","countyName":"Fayette","state":"Tennessee","marketIds":["Memphis"],"situsAddress":"YAGER DR","situsCity":null,"situsZip":null,"jurisdictionCode":null,"ownerName":"PARHAM EDWARD G","ownerName2":"& MARION P PEAKS","propertyName":null,"zoningCode":null,"zoningDistrict":null,"jurisdictionPrefix":null,"dorCode":null,"acreage":24.2985,"centroid":[-89.274521,34.998844],"lastSale":{"date":"2018-10-03","price":55594.0,"qualified":null,"vintage":"2023"},"tax":{"marketValue":16700.0,"assessedValue":null,"taxableValue":null,"taxes":null,"vintage":"2023"},"mailingAddress":{"line1":null,"line2":null,"city":null,"state":null,"zip":null},"incomeTract":null,"incomeBlockGroup":null,"nearestRoad":null,"flu":null,"opportunityZone":null,"oz2Eligibility":null,"source":"tn-oir-public-use-47047","appraiserUrl":"https://assessment.cot.tn.gov/TPAD/Parcel/GIS?gislink=024196%20%20%20%2000801"},"geometry":{"type":"Polygon","coordinates":[[[-89.275934,34.997623],[-89.275745,34.997635],[-89.275565,34.99766],[-89.27538,34.997697],[-89.275207,34.997744],[-89.275025,34.997808],[-89.274863,34.997877],[-89.274709,34.997957],[-89.274562,34.998047],[-89.274429,34.998141],[-89.274296,34.998253],[-89.274179,34.998368],[-89.274068,34.998495],[-89.273974,34.998624],[-89.273893,34.998759],[-89.273822,34.998904],[-89.273768,34.999047],[-89.273735,34.999158],[-89.273709,34.999283],[-89.273693,34.999402],[-89.273686,34.999534],[-89.27371,35.004249],[-89.273703,35.004379],[-89.276854,34.997605],[-89.275934,34.997623]]]}},{"type":"Feature","id":"47047:024199    00203","properties":{"id":"47047:024199    00203","parcelId":"024199    00203","countyFips":"47047","countyName":"Fayette","state":"Tennessee","marketIds":["Memphis"],"situsAddress":"SLAYDEN RD","situsCity":null,"situsZip":null,"jurisdictionCode":null,"ownerName":"BURGESS DANIELLE D","ownerName2":null,"propertyName":null,"zoningCode":"R1","zoningDistrict":null,"jurisdictionPrefix":null,"dorCode":null,"acreage":22.4618,"centroid":[-89.44317,34.997033],"lastSale":{"date":"2000-04-20","price":null,"qualified":null,"vintage":"2023"},"tax":{"marketValue":126900.0,"assessedValue":null,"taxableValue":null,"taxes":null,"vintage":"2023"},"mailingAddress":{"line1":null,"line2":null,"city":null,"state":null,"zip":null},"incomeTract":null,"incomeBlockGroup":null,"nearestRoad":null,"flu":null,"opportunityZone":null,"oz2Eligibility":null,"source":"tn-oir-public-use-47047","appraiserUrl":"https://assessment.cot.tn.gov/TPAD/Parcel/GIS?gislink=024199%20%20%20%2000203"},"geometry":{"type":"Polygon","coordinates":[[[-89.443129,34.997973],[-89.443221,34.997946],[-89.443309,34.997927],[-89.443405,34.997913],[-89.443499,34.997907],[-89.444182,34.997926],[-89.444811,34.997927],[-89.444744,34.995291],[-89.442968,34.995298],[-89.442895,34.995888],[-89.442901,34.995968],[-89.44108,34.995519],[-89.441071,34.997951],[-89.443129,34.997973]]]}},{"type":"Feature","id":"47047:024188    01804","properties":{"id":"47047:024188    01804","parcelId":"024188    01804","countyFips":"47047","countyName":"Fayette","state":"Tennessee","marketIds":["Memphis"],"situsAddress":"SUGAR HILL DR","situsCity":null,"situsZip":null,"jurisdictionCode":null,"ownerName":"HUGHES TIM","ownerName2":"& GEORGE A BROGDON","propertyName":null,"zoningCode":null,"zoningDistrict":null,"jurisdictionPrefix":null,"dorCode":null,"acreage":21.8888,"centroid":[-89.446279,34.999435],"lastSale":{"date":"2018-07-02","price":135000.0,"qualified":null,"vintage":"2023"},"tax":{"marketValue":24400.0,"assessedValue":null,"taxableValue":null,"taxes":null,"vintage":"2023"},"mailingAddress":{"line1":null,"line2":null,"city":null,"state":null,"zip":null},"incomeTract":null,"incomeBlockGroup":null,"nearestRoad":null,"flu":null,"opportunityZone":null,"oz2Eligibility":null,"source":"tn-oir-public-use-47047","appraiserUrl":"https://assessment.cot.tn.gov/TPAD/Parcel/GIS?gislink=024188%20%20%20%2001804"},"geometry":{"type":"Polygon","coordinates":[[[-89.445487,35.001575],[-89.445506,35.002368],[-89.447742,35.002439],[-89.447235,34.998142],[-89.446829,34.998128],[-89.446475,34.998109],[-89.44615,34.998085],[-89.445689,34.998044],[-89.445401,34.998025],[-89.445487,35.001575]]]}},{"type":"Feature","id":"47047:024199    00201","properties":{"id":"47047:024199    00201","parcelId":"024199    00201","countyFips":"47047","countyName":"Fayette","state":"Tennessee","marketIds":["Memphis"],"situsAddress":"SUGAR HILL DR 940","situsCity":null,"situsZip":null,"jurisdictionCode":null,"ownerName":"COLLIE ROBERT L JR","ownerName2":"& ENID B CO-TRUSTEES","propertyName":null,"zoningCode":"R1","zoningDistrict":null,"jurisdictionPrefix":null,"dorCode":null,"acreage":21.2304,"centroid":[-89.450336,34.997011],"lastSale":{"date":"1998-08-10","price":452250.0,"qualified":null,"vintage":"2023"},"tax":{"marketValue":428900.0,"assessedValue":null,"taxableValue":null,"taxes":null,"vintage":"2023"},"mailingAddress":{"line1":null,"line2":null,"city":null,"state":null,"zip":null},"incomeTract":null,"incomeBlockGroup":null,"nearestRoad":null,"flu":null,"opportunityZone":null,"oz2Eligibility":null,"source":"tn-oir-public-use-47047","appraiserUrl":"https://assessment.cot.tn.gov/TPAD/Parcel/GIS?gislink=024199%20%20%20%2000201"},"geometry":{"type":"Polygon","coordinates":[[[-89.449173,34.995334],[-89.449262,34.998034],[-89.449633,34.998012],[-89.449997,34.997985],[-89.450419,34.997949],[-89.450856,34.997906],[-89.450957,34.99789],[-89.45105,34.997868],[-89.451141,34.99784],[-89.451229,34.997806],[-89.451189,34.993747],[-89.449122,34.993763],[-89.449173,34.995334]]]}},{"type":"Feature","id":"47047:024196    00500","properties":{"id":"47047:024196    00500","parcelId":"024196    00500","countyFips":"47047","countyName":"Fayette","state":"Tennessee","marketIds":["Memphis"],"situsAddress":"YAGER DR W OF","situsCity":null,"situsZip":null,"jurisdictionCode":null,"ownerName":"PARKS RALPH YAGER ETAL","ownerName2":"% MARY NELLE PARKS","propertyName":null,"zoningCode":"R1","zoningDistrict":null,"jurisdictionPrefix":null,"dorCode":null,"acreage":19.2637,"centroid":[-89.306743,34.994965],"lastSale":{"date":"2010-03-26","price":null,"qualified":null,"vintage":"2023"},"tax":{"marketValue":30100.0,"assessedValue":null,"taxableValue":null,"taxes":null,"vintage":"2023"},"mailingAddress":{"line1":null,"line2":null,"city":null,"state":null,"zip":null},"incomeTract":null,"incomeBlockGroup":null,"nearestRoad":null,"flu":null,"opportunityZone":null,"oz2Eligibility":null,"source":"tn-oir-public-use-47047","appraiserUrl":"https://assessment.cot.tn.gov/TPAD/Parcel/GIS?gislink=024196%20%20%20%2000500"},"geometry":{"type":"Polygon","coordinates":[[[-89.30452,34.995794],[-89.308974,34.995863],[-89.308972,34.994083],[-89.304508,34.994121],[-89.30452,34.995794]]]}},{"type":"Feature","id":"47047:024195    00600","properties":{"id":"47047:024195    00600","parcelId":"024195    00600","countyFips":"47047","countyName":"Fayette","state":"Tennessee","marketIds":["Memphis"],"situsAddress":"MISSISSIPPI RD 375","situsCity":null,"situsZip":null,"jurisdictionCode":null,"ownerName":"GRAY HUGH ETAL","ownerName2":"% EDWARD GRAY","propertyName":null,"zoningCode":"R1","zoningDistrict":null,"jurisdictionPrefix":null,"dorCode":null,"acreage":18.6542,"centroid":[-89.263344,34.996036],"lastSale":{"date":"2002-09-11","price":null,"qualified":null,"vintage":"2023"},"tax":{"marketValue":70700.0,"assessedValue":null,"taxableValue":null,"taxes":null,"vintage":"2023"},"mailingAddress":{"line1":null,"line2":null,"city":null,"state":null,"zip":null},"incomeTract":null,"incomeBlockGroup":null,"nearestRoad":null,"flu":null,"opportunityZone":null,"oz2Eligibility":null,"source":"tn-oir-public-use-47047","appraiserUrl":"https://assessment.cot.tn.gov/TPAD/Parcel/GIS?gislink=024195%20%20%20%2000600"},"geometry":{"type":"Polygon","coordinates":[[[-89.261573,34.997579],[-89.264773,34.997631],[-89.264757,34.996076],[-89.263495,34.996081],[-89.263506,34.994421],[-89.261958,34.994427],[-89.261573,34.997579]]]}},{"type":"Feature","id":"47047:024196    00501","properties":{"id":"47047:024196    00501","parcelId":"024196    00501","countyFips":"47047","countyName":"Fayette","state":"Tennessee","marketIds":["Memphis"],"situsAddress":"SWEET RD 202","situsCity":null,"situsZip":null,"jurisdictionCode":null,"ownerName":"YAGER BASCOM CARROLL III","ownerName2":"& AMY LYNELLE YAGER JONES","propertyName":null,"zoningCode":"R1","zoningDistrict":null,"jurisdictionPrefix":null,"dorCode":null,"acreage":18.5699,"centroid":[-89.301852,34.995004],"lastSale":{"date":"2014-12-08","price":null,"qualified":null,"vintage":"2023"},"tax":{"marketValue":215500.0,"assessedValue":null,"taxableValue":null,"taxes":null,"vintage":"2023"},"mailingAddress":{"line1":null,"line2":null,"city":null,"state":null,"zip":null},"incomeTract":null,"incomeBlockGroup":null,"nearestRoad":null,"flu":null,"opportunityZone":null,"oz2Eligibility":null,"source":"tn-oir-public-use-47047","appraiserUrl":"https://assessment.cot.tn.gov/TPAD/Parcel/GIS?gislink=024196%20%20%20%2000501"},"geometry":{"type":"Polygon","coordinates":[[[-89.300076,34.995829],[-89.30452,34.995794],[-89.304508,34.994121],[-89.300083,34.994158],[-89.300073,34.995116],[-89.300076,34.995829]]]}},{"type":"Feature","id":"47047:024199    00105","properties":{"id":"47047:024199    00105","parcelId":"024199    00105","countyFips":"47047","countyName":"Fayette","state":"Tennessee","marketIds":["Memphis"],"situsAddress":"SUGAR HILL DR 580","situsCity":null,"situsZip":null,"jurisdictionCode":null,"ownerName":"CORDELL AUGUSTA R TRUTEE","ownerName2":"LOGAN AUGUSTA R REVOCABLE LIVING TRUST","propertyName":null,"zoningCode":"R1","zoningDistrict":null,"jurisdictionPrefix":null,"dorCode":null,"acreage":13.3021,"centroid":[-89.455837,34.995182],"lastSale":{"date":"2022-03-24","price":null,"qualified":null,"vintage":"2023"},"tax":{"marketValue":488700.0,"assessedValue":null,"taxableValue":null,"taxes":null,"vintage":"2023"},"mailingAddress":{"line1":null,"line2":null,"city":null,"state":null,"zip":null},"incomeTract":null,"incomeBlockGroup":null,"nearestRoad":null,"flu":null,"opportunityZone":null,"oz2Eligibility":null,"source":"tn-oir-public-use-47047","appraiserUrl":"https://assessment.cot.tn.gov/TPAD/Parcel/GIS?gislink=024199%20%20%20%2000105"},"geometry":{"type":"Polygon","coordinates":[[[-89.454541,34.996537],[-89.45481,34.996513],[-89.454997,34.996499],[-89.455762,34.996465],[-89.455972,34.996448],[-89.456203,34.996422],[-89.456076,34.996301],[-89.456003,34.996185],[-89.455994,34.996117],[-89.456016,34.996051],[-89.456057,34.995992],[-89.456106,34.995944],[-89.456166,34.995917],[-89.456218,34.995856],[-89.456213,34.995784],[-89.456151,34.995751],[-89.456084,34.995736],[-89.456032,34.995684],[-89.456023,34.995623],[-89.456082,34.99557],[-89.456227,34.995557],[-89.456264,34.995509],[-89.456234,34.995455],[-89.456148,34.995465],[-89.456083,34.995437],[-89.456065,34.995367],[-89.456071,34.995311],[-89.456095,34.995242],[-89.456071,34.99519],[-89.456026,34.995144],[-89.455984,34.99509],[-89.455988,34.995031],[-89.456018,34.994976],[-89.456069,34.994927],[-89.456124,34.994868],[-89.456184,34.994819],[-89.456244,34.994782],[-89.456249,34.994726],[-89.456189,34.994691],[-89.456118,34.994693],[-89.456052,34.994682],[-89.455989,34.994655],[-89.455933,34.994625],[-89.455812,34.994536],[-89.455751,34.994483],[-89.455702,34.99442],[-89.45563,34.994295],[-89.455523,34.994131],[-89.455468,34.994031],[-89.455416,34.993947],[-89.455367,34.993905],[-89.455229,34.993848],[-89.455181,34.993793],[-89.455186,34.993733],[-89.455199,34.993715],[-89.453462,34.993728],[-89.454541,34.996537]]]}},{"type":"Feature","id":"47047:024198    00902","properties":{"id":"47047:024198    00902","parcelId":"024198    00902","countyFips":"47047","countyName":"Fayette","state":"Tennessee","marketIds":["Memphis"],"situsAddress":"FRANKLIN RD 275","situsCity":null,"situsZip":null,"jurisdictionCode":null,"ownerName":"SMITH BRANDON","ownerName2":null,"propertyName":null,"zoningCode":"R1","zoningDistrict":null,"jurisdictionPrefix":null,"dorCode":null,"acreage":13.0288,"centroid":[-89.371493,34.996988],"lastSale":{"date":"2014-06-16","price":null,"qualified":null,"vintage":"2023"},"tax":{"marketValue":249300.0,"assessedValue":null,"taxableValue":null,"taxes":null,"vintage":"2023"},"mailingAddress":{"line1":null,"line2":null,"city":null,"state":null,"zip":null},"incomeTract":null,"incomeBlockGroup":null,"nearestRoad":null,"flu":null,"opportunityZone":null,"oz2Eligibility":null,"source":"tn-oir-public-use-47047","appraiserUrl":"https://assessment.cot.tn.gov/TPAD/Parcel/GIS?gislink=024198%20%20%20%2000902"},"geometry":{"type":"Polygon","coordinates":[[[-89.371545,34.997521],[-89.374418,34.997529],[-89.374494,34.996514],[-89.373038,34.996301],[-89.370768,34.99593],[-89.370427,34.99687],[-89.370391,34.996984],[-89.37036,34.997113],[-89.370339,34.997233],[-89.370326,34.997368],[-89.370321,34.997508],[-89.371545,34.997521]]]}},{"type":"Feature","id":"47047:024197    00304","properties":{"id":"47047:024197    00304","parcelId":"024197    00304","countyFips":"47047","countyName":"Fayette","state":"Tennessee","marketIds":["Memphis"],"situsAddress":"HONEYSUCKLE RD 730","situsCity":null,"situsZip":null,"jurisdictionCode":null,"ownerName":"SMITH ALLISON EDGE","ownerName2":"ETVIR MATTHEW ADAM ALEXANDER SMITH","propertyName":null,"zoningCode":null,"zoningDistrict":null,"jurisdictionPrefix":null,"dorCode":null,"acreage":12.9151,"centroid":[-89.338364,34.994405],"lastSale":{"date":"2019-08-02","price":null,"qualified":null,"vintage":"2023"},"tax":{"marketValue":257100.0,"assessedValue":null,"taxableValue":null,"taxes":null,"vintage":"2023"},"mailingAddress":{"line1":null,"line2":null,"city":null,"state":null,"zip":null},"incomeTract":null,"incomeBlockGroup":null,"nearestRoad":null,"flu":null,"opportunityZone":null,"oz2Eligibility":null,"source":"tn-oir-public-use-47047","appraiserUrl":"https://assessment.cot.tn.gov/TPAD/Parcel/GIS?gislink=024197%20%20%20%2000304"},"geometry":{"type":"Polygon","coordinates":[[[-89.335506,34.994589],[-89.336775,34.994583],[-89.337017,34.994765],[-89.337512,34.994764],[-89.337702,34.994454],[-89.343461,34.994404],[-89.343458,34.993828],[-89.335485,34.99385],[-89.335506,34.994589]]]}},{"type":"Feature","id":"47047:024199    00100","properties":{"id":"47047:024199    00100","parcelId":"024199    00100","countyFips":"47047","countyName":"Fayette","state":"Tennessee","marketIds":["Memphis"],"situsAddress":"SUGAR HILL DR 760","situsCity":null,"situsZip":null,"jurisdictionCode":null,"ownerName":"BROWN JEFFREY ALAN","ownerName2":null,"propertyName":null,"zoningCode":"R1","zoningDistrict":null,"jurisdictionPrefix":null,"dorCode":null,"acreage":12.172,"centroid":[-89.452119,34.996445],"lastSale":{"date":"2014-06-04","price":52000.0,"qualified":null,"vintage":"2023"},"tax":{"marketValue":411900.0,"assessedValue":null,"taxableValue":null,"taxes":null,"vintage":"2023"},"mailingAddress":{"line1":null,"line2":null,"city":null,"state":null,"zip":null},"incomeTract":null,"incomeBlockGroup":null,"nearestRoad":null,"flu":null,"opportunityZone":null,"oz2Eligibility":null,"source":"tn-oir-public-use-47047","appraiserUrl":"https://assessment.cot.tn.gov/TPAD/Parcel/GIS?gislink=024199%20%20%20%2000100"},"geometry":{"type":"Polygon","coordinates":[[[-89.451202,34.995019],[-89.451229,34.997806],[-89.451343,34.997749],[-89.452089,34.997317],[-89.452257,34.997227],[-89.452426,34.997144],[-89.452669,34.997035],[-89.452913,34.996936],[-89.453161,34.996848],[-89.453407,34.996771],[-89.451545,34.993744],[-89.451189,34.993747],[-89.451202,34.995019]]]}},{"type":"Feature","id":"47047:024199    00102","properties":{"id":"47047:024199    00102","parcelId":"024199    00102","countyFips":"47047","countyName":"Fayette","state":"Tennessee","marketIds":["Memphis"],"situsAddress":"SUGAR HILL DR","situsCity":null,"situsZip":null,"jurisdictionCode":null,"ownerName":"BANKS JERRY A","ownerName2":"ETUX KATHY","propertyName":null,"zoningCode":"R1","zoningDistrict":null,"jurisdictionPrefix":null,"dorCode":null,"acreage":11.5513,"centroid":[-89.45355,34.995813],"lastSale":{"date":"2017-11-20","price":112500.0,"qualified":null,"vintage":"2023"},"tax":{"marketValue":73900.0,"assessedValue":null,"taxableValue":null,"taxes":null,"vintage":"2023"},"mailingAddress":{"line1":null,"line2":null,"city":null,"state":null,"zip":null},"incomeTract":null,"incomeBlockGroup":null,"nearestRoad":null,"flu":null,"opportunityZone":null,"oz2Eligibility":null,"source":"tn-oir-public-use-47047","appraiserUrl":"https://assessment.cot.tn.gov/TPAD/Parcel/GIS?gislink=024199%20%20%20%2000102"},"geometry":{"type":"Polygon","coordinates":[[[-89.453407,34.996771],[-89.453673,34.996699],[-89.453962,34.996633],[-89.454258,34.996578],[-89.454541,34.996537],[-89.453462,34.993728],[-89.451545,34.993744],[-89.453407,34.996771]]]}},{"type":"Feature","id":"47047:024200    00101","properties":{"id":"47047:024200    00101","parcelId":"024200    00101","countyFips":"47047","countyName":"Fayette","state":"Tennessee","marketIds":["Memphis"],"situsAddress":"SUGAR HILL DR 25","situsCity":null,"situsZip":null,"jurisdictionCode":null,"ownerName":"WIGGINTON BRENDA D","ownerName2":"& RONALD D WIGGINTON TRUSTEES","propertyName":null,"zoningCode":"R1","zoningDistrict":null,"jurisdictionPrefix":null,"dorCode":null,"acreage":11.4426,"centroid":[-89.465588,34.99624],"lastSale":{"date":"2013-11-12","price":247000.0,"qualified":null,"vintage":"2023"},"tax":{"marketValue":769000.0,"assessedValue":null,"taxableValue":null,"taxes":null,"vintage":"2023"},"mailingAddress":{"line1":null,"line2":null,"city":null,"state":null,"zip":null},"incomeTract":null,"incomeBlockGroup":null,"nearestRoad":null,"flu":null,"opportunityZone":null,"oz2Eligibility":null,"source":"tn-oir-public-use-47047","appraiserUrl":"https://assessment.cot.tn.gov/TPAD/Parcel/GIS?gislink=024200%20%20%20%2000101"},"geometry":{"type":"Polygon","coordinates":[[[-89.464422,34.998161],[-89.466658,34.998181],[-89.466327,34.997318],[-89.466247,34.997073],[-89.466186,34.996845],[-89.466056,34.996283],[-89.466039,34.996192],[-89.466031,34.996101],[-89.466008,34.995567],[-89.465997,34.995476],[-89.46577,34.995528],[-89.465425,34.995615],[-89.465296,34.99564],[-89.465162,34.995659],[-89.464991,34.995674],[-89.464826,34.995678],[-89.464657,34.995673],[-89.464486,34.995656],[-89.464422,34.998161]]]}},{"type":"Feature","id":"47047:024200    00114","properties":{"id":"47047:024200    00114","parcelId":"024200    00114","countyFips":"47047","countyName":"Fayette","state":"Tennessee","marketIds":["Memphis"],"situsAddress":"SUGAR HILL DR 125","situsCity":null,"situsZip":null,"jurisdictionCode":null,"ownerName":"TENNYSON INVESTMENTS LLC","ownerName2":null,"propertyName":null,"zoningCode":"R1","zoningDistrict":null,"jurisdictionPrefix":null,"dorCode":null,"acreage":10.4417,"centroid":[-89.463875,34.996386],"lastSale":{"date":"2020-08-27","price":122500.0,"qualified":null,"vintage":"2023"},"tax":{"marketValue":408000.0,"assessedValue":null,"taxableValue":null,"taxes":null,"vintage":"2023"},"mailingAddress":{"line1":null,"line2":null,"city":null,"state":null,"zip":null},"incomeTract":null,"incomeBlockGroup":null,"nearestRoad":null,"flu":null,"opportunityZone":null,"oz2Eligibility":null,"source":"tn-oir-public-use-47047","appraiserUrl":"https://assessment.cot.tn.gov/TPAD/Parcel/GIS?gislink=024200%20%20%20%2000114"},"geometry":{"type":"Polygon","coordinates":[[[-89.464361,34.998161],[-89.464422,34.998161],[-89.464486,34.995656],[-89.464306,34.995632],[-89.464151,34.995617],[-89.463999,34.995608],[-89.463841,34.995606],[-89.463579,34.995615],[-89.463072,34.995659],[-89.462529,34.998144],[-89.464361,34.998161]]]}},{"type":"Feature","id":"47047:024197    00301","properties":{"id":"47047:024197    00301","parcelId":"024197    00301","countyFips":"47047","countyName":"Fayette","state":"Tennessee","marketIds":["Memphis"],"situsAddress":"HONEYSUCKLE RD 532","situsCity":null,"situsZip":null,"jurisdictionCode":null,"ownerName":"MILLS CHRISTOPHER C","ownerName2":null,"propertyName":null,"zoningCode":"R1","zoningDistrict":null,"jurisdictionPrefix":null,"dorCode":null,"acreage":9.4773,"centroid":[-89.339585,34.997118],"lastSale":{"date":"2021-07-22","price":null,"qualified":null,"vintage":"2023"},"tax":{"marketValue":210100.0,"assessedValue":null,"taxableValue":null,"taxes":null,"vintage":"2023"},"mailingAddress":{"line1":null,"line2":null,"city":null,"state":null,"zip":null},"incomeTract":null,"incomeBlockGroup":null,"nearestRoad":null,"flu":null,"opportunityZone":null,"oz2Eligibility":null,"source":"tn-oir-public-use-47047","appraiserUrl":"https://assessment.cot.tn.gov/TPAD/Parcel/GIS?gislink=024197%20%20%20%2000301"},"geometry":{"type":"Polygon","coordinates":[[[-89.337289,34.997525],[-89.342463,34.997453],[-89.3425,34.997357],[-89.342796,34.99694],[-89.341935,34.996947],[-89.341731,34.996919],[-89.341178,34.996868],[-89.340682,34.99681],[-89.338462,34.99683],[-89.338099,34.997169],[-89.336452,34.997173],[-89.335511,34.996989],[-89.335513,34.997549],[-89.337289,34.997525]]]}},{"type":"Feature","id":"47047:024197    00305","properties":{"id":"47047:024197    00305","parcelId":"024197    00305","countyFips":"47047","countyName":"Fayette","state":"Tennessee","marketIds":["Memphis"],"situsAddress":"HONEYSUCKLE RD 530","situsCity":null,"situsZip":null,"jurisdictionCode":null,"ownerName":"MILLS WENDELL C","ownerName2":"& ELIZABETH A MILLS","propertyName":null,"zoningCode":null,"zoningDistrict":null,"jurisdictionPrefix":null,"dorCode":null,"acreage":8.8869,"centroid":[-89.339283,34.996816],"lastSale":{"date":"2021-07-22","price":null,"qualified":null,"vintage":"2023"},"tax":{"marketValue":248500.0,"assessedValue":null,"taxableValue":null,"taxes":null,"vintage":"2023"},"mailingAddress":{"line1":null,"line2":null,"city":null,"state":null,"zip":null},"incomeTract":null,"incomeBlockGroup":null,"nearestRoad":null,"flu":null,"opportunityZone":null,"oz2Eligibility":null,"source":"tn-oir-public-use-47047","appraiserUrl":"https://assessment.cot.tn.gov/TPAD/Parcel/GIS?gislink=024197%20%20%20%2000305"},"geometry":{"type":"Polygon","coordinates":[[[-89.335511,34.996989],[-89.336452,34.997173],[-89.338099,34.997169],[-89.338462,34.99683],[-89.340682,34.99681],[-89.341178,34.996868],[-89.341731,34.996919],[-89.341935,34.996947],[-89.342796,34.99694],[-89.342917,34.996771],[-89.343055,34.996459],[-89.335521,34.996516],[-89.335511,34.996989]]]}},{"type":"Feature","id":"47047:024199    00106","properties":{"id":"47047:024199    00106","parcelId":"024199    00106","countyFips":"47047","countyName":"Fayette","state":"Tennessee","marketIds":["Memphis"],"situsAddress":"SUGAR HILL DR 520","situsCity":null,"situsZip":null,"jurisdictionCode":null,"ownerName":"BLALOCK HENRY DAVID III TRUSTEE","ownerName2":null,"propertyName":null,"zoningCode":"R1","zoningDistrict":null,"jurisdictionPrefix":null,"dorCode":null,"acreage":7.5016,"centroid":[-89.455997,34.995102],"lastSale":{"date":"2006-10-24","price":25000.0,"qualified":null,"vintage":"2023"},"tax":{"marketValue":307600.0,"assessedValue":null,"taxableValue":null,"taxes":null,"vintage":"2023"},"mailingAddress":{"line1":null,"line2":null,"city":null,"state":null,"zip":null},"incomeTract":null,"incomeBlockGroup":null,"nearestRoad":null,"flu":null,"opportunityZone":null,"oz2Eligibility":null,"source":"tn-oir-public-use-47047","appraiserUrl":"https://assessment.cot.tn.gov/TPAD/Parcel/GIS?gislink=024199%20%20%20%2000106"},"geometry":{"type":"Polygon","coordinates":[[[-89.456264,34.995509],[-89.456227,34.995557],[-89.456082,34.99557],[-89.456023,34.995623],[-89.456032,34.995684],[-89.456084,34.995736],[-89.456151,34.995751],[-89.456213,34.995784],[-89.456218,34.995856],[-89.456166,34.995917],[-89.456106,34.995944],[-89.456057,34.995992],[-89.456016,34.996051],[-89.455994,34.996117],[-89.456003,34.996185],[-89.456076,34.996301],[-89.456203,34.996422],[-89.456473,34.996383],[-89.457012,34.99629],[-89.457045,34.9937],[-89.455199,34.993715],[-89.455186,34.993733],[-89.455181,34.993793],[-89.455229,34.993848],[-89.455367,34.993905],[-89.455416,34.993947],[-89.455468,34.994031],[-89.455523,34.994131],[-89.45563,34.994295],[-89.455702,34.99442],[-89.455751,34.994483],[-89.455812,34.994536],[-89.455933,34.994625],[-89.455989,34.994655],[-89.456052,34.994682],[-89.456118,34.994693],[-89.456189,34.994691],[-89.456249,34.994726],[-89.456244,34.994782],[-89.456184,34.994819],[-89.456124,34.994868],[-89.456069,34.994927],[-89.456018,34.994976],[-89.455988,34.995031],[-89.455984,34.99509],[-89.456026,34.995144],[-89.456071,34.99519],[-89.456095,34.995242],[-89.456071,34.995311],[-89.456065,34.995367],[-89.456083,34.995437],[-89.456148,34.995465],[-89.456234,34.995455],[-89.456264,34.995509]]]}},{"type":"Feature","id":"47047:024200    00109","properties":{"id":"47047:024200    00109","parcelId":"024200    00109","countyFips":"47047","countyName":"Fayette","state":"Tennessee","marketIds":["Memphis"],"situsAddress":"PLEASANT GROVE RD 4320","situsCity":null,"situsZip":null,"jurisdictionCode":null,"ownerName":"SALTER SCOTT ALAN","ownerName2":"ETUX SHERRY LEIGH","propertyName":null,"zoningCode":"R1","zoningDistrict":null,"jurisdictionPrefix":null,"dorCode":null,"acreage":7.2896,"centroid":[-89.466995,34.994501],"lastSale":{"date":"2019-03-29","price":380000.0,"qualified":null,"vintage":"2023"},"tax":{"marketValue":344400.0,"assessedValue":null,"taxableValue":null,"taxes":null,"vintage":"2023"},"mailingAddress":{"line1":null,"line2":null,"city":null,"state":null,"zip":null},"incomeTract":null,"incomeBlockGroup":null,"nearestRoad":null,"flu":null,"opportunityZone":null,"oz2Eligibility":null,"source":"tn-oir-public-use-47047","appraiserUrl":"https://assessment.cot.tn.gov/TPAD/Parcel/GIS?gislink=024200%20%20%20%2000109"},"geometry":{"type":"Polygon","coordinates":[[[-89.466006,34.99493],[-89.469085,34.994991],[-89.469282,34.994347],[-89.469202,34.994052],[-89.466831,34.993999],[-89.466317,34.993983],[-89.466103,34.994442],[-89.466059,34.994552],[-89.466033,34.994646],[-89.466016,34.994735],[-89.466006,34.994834],[-89.466006,34.99493]]]}},{"type":"Feature","id":"47047:024199    00113","properties":{"id":"47047:024199    00113","parcelId":"024199    00113","countyFips":"47047","countyName":"Fayette","state":"Tennessee","marketIds":["Memphis"],"situsAddress":"SUGAR HILL DR 585","situsCity":null,"situsZip":null,"jurisdictionCode":null,"ownerName":"MENDIUS FREDRICK LAYNE","ownerName2":"ETUX JAMIE MARIE","propertyName":null,"zoningCode":"R1","zoningDistrict":null,"jurisdictionPrefix":null,"dorCode":null,"acreage":6.4567,"centroid":[-89.456388,34.997301],"lastSale":{"date":"2005-05-27","price":46500.0,"qualified":null,"vintage":"2023"},"tax":{"marketValue":405900.0,"assessedValue":null,"taxableValue":null,"taxes":null,"vintage":"2023"},"mailingAddress":{"line1":null,"line2":null,"city":null,"state":null,"zip":null},"incomeTract":null,"incomeBlockGroup":null,"nearestRoad":null,"flu":null,"opportunityZone":null,"oz2Eligibility":null,"source":"tn-oir-public-use-47047","appraiserUrl":"https://assessment.cot.tn.gov/TPAD/Parcel/GIS?gislink=024199%20%20%20%2000113"},"geometry":{"type":"Polygon","coordinates":[[[-89.455341,34.998079],[-89.457633,34.9981],[-89.457619,34.998069],[-89.457624,34.99801],[-89.45765,34.997931],[-89.457634,34.997865],[-89.457577,34.997812],[-89.457506,34.997791],[-89.457442,34.997755],[-89.457446,34.997677],[-89.457468,34.997599],[-89.457454,34.997532],[-89.457417,34.997492],[-89.457349,34.99749],[-89.457278,34.997466],[-89.457226,34.997412],[-89.45717,34.99737],[-89.457079,34.997331],[-89.457001,34.997345],[-89.456949,34.997415],[-89.45692,34.997483],[-89.456883,34.997555],[-89.456828,34.997574],[-89.456764,34.997547],[-89.456639,34.997465],[-89.456558,34.997321],[-89.456538,34.997247],[-89.456545,34.997192],[-89.456584,34.997135],[-89.456648,34.997105],[-89.456719,34.997113],[-89.456787,34.997096],[-89.456793,34.997028],[-89.456771,34.996975],[-89.456731,34.996931],[-89.456669,34.996906],[-89.456603,34.996931],[-89.456537,34.996985],[-89.456495,34.997043],[-89.456436,34.997086],[-89.456349,34.997092],[-89.456268,34.997059],[-89.45621,34.997],[-89.456211,34.996927],[-89.456247,34.996876],[-89.456325,34.996838],[-89.456409,34.996827],[-89.456478,34.996794],[-89.456477,34.996735],[-89.456319,34.996672],[-89.456269,34.996621],[-89.456244,34.996563],[-89.456231,34.996502],[-89.455993,34.996529],[-89.455763,34.996547],[-89.45558,34.996558],[-89.455125,34.996575],[-89.455341,34.998079]]]}},{"type":"Feature","id":"47047:024200    00111","properties":{"id":"47047:024200    00111","parcelId":"024200    00111","countyFips":"47047","countyName":"Fayette","state":"Tennessee","marketIds":["Memphis"],"situsAddress":"PLEASANT GROVE RD 4315","situsCity":null,"situsZip":null,"jurisdictionCode":null,"ownerName":"EGBERT CHARLES G","ownerName2":"ETUX NORMA F","propertyName":null,"zoningCode":"R1","zoningDistrict":null,"jurisdictionPrefix":null,"dorCode":null,"acreage":6.4073,"centroid":[-89.4655,34.995046],"lastSale":{"date":"2006-02-17","price":50000.0,"qualified":null,"vintage":"2023"},"tax":{"marketValue":343000.0,"assessedValue":null,"taxableValue":null,"taxes":null,"vintage":"2023"},"mailingAddress":{"line1":null,"line2":null,"city":null,"state":null,"zip":null},"incomeTract":null,"incomeBlockGroup":null,"nearestRoad":null,"flu":null,"opportunityZone":null,"oz2Eligibility":null,"source":"tn-oir-public-use-47047","appraiserUrl":"https://assessment.cot.tn.gov/TPAD/Parcel/GIS?gislink=024200%20%20%20%2000111"},"geometry":{"type":"Polygon","coordinates":[[[-89.464503,34.995575],[-89.464662,34.99559],[-89.464828,34.995596],[-89.464994,34.995591],[-89.46516,34.995576],[-89.465282,34.995558],[-89.465408,34.995533],[-89.465742,34.995449],[-89.465977,34.995395],[-89.465932,34.99518],[-89.465909,34.994989],[-89.465907,34.994826],[-89.465914,34.994743],[-89.465927,34.994667],[-89.465956,34.994552],[-89.465997,34.99444],[-89.466295,34.993801],[-89.464602,34.993772],[-89.464503,34.995575]]]}},{"type":"Feature","id":"47047:024197    00806","properties":{"id":"47047:024197    00806","parcelId":"024197    00806","countyFips":"47047","countyName":"Fayette","state":"Tennessee","marketIds":["Memphis"],"situsAddress":"HONEYSUCKLE RD 425","situsCity":null,"situsZip":null,"jurisdictionCode":null,"ownerName":"SEGERSON JEFFERY MARK","ownerName2":"ETUX ELIZABETH ROAN","propertyName":null,"zoningCode":"R1","zoningDistrict":null,"jurisdictionPrefix":null,"dorCode":null,"acreage":6.0237,"centroid":[-89.333447,34.999272],"lastSale":{"date":"2020-06-17","price":null,"qualified":null,"vintage":"2023"},"tax":{"marketValue":463100.0,"assessedValue":null,"taxableValue":null,"taxes":null,"vintage":"2023"},"mailingAddress":{"line1":null,"line2":null,"city":null,"state":null,"zip":null},"incomeTract":null,"incomeBlockGroup":null,"nearestRoad":null,"flu":null,"opportunityZone":null,"oz2Eligibility":null,"source":"tn-oir-public-use-47047","appraiserUrl":"https://assessment.cot.tn.gov/TPAD/Parcel/GIS?gislink=024197%20%20%20%2000806"},"geometry":{"type":"Polygon","coordinates":[[[-89.335421,34.99859],[-89.332853,34.998623],[-89.332847,34.999336],[-89.332838,34.999472],[-89.331768,34.999489],[-89.331778,34.999681],[-89.334031,34.999601],[-89.334047,34.99933],[-89.335437,34.999327],[-89.335421,34.99859]]]}},{"type":"Feature","id":"47047:024199    00107","properties":{"id":"47047:024199    00107","parcelId":"024199    00107","countyFips":"47047","countyName":"Fayette","state":"Tennessee","marketIds":["Memphis"],"situsAddress":"SUGAR HILL RD 480","situsCity":null,"situsZip":null,"jurisdictionCode":null,"ownerName":"BABB MICHAEL EUGENE","ownerName2":"ETUX ANN MARIE","propertyName":null,"zoningCode":"R1","zoningDistrict":null,"jurisdictionPrefix":null,"dorCode":null,"acreage":5.8701,"centroid":[-89.457525,34.995198],"lastSale":{"date":"2016-02-22","price":325000.0,"qualified":null,"vintage":"2023"},"tax":{"marketValue":306900.0,"assessedValue":null,"taxableValue":null,"taxes":null,"vintage":"2023"},"mailingAddress":{"line1":null,"line2":null,"city":null,"state":null,"zip":null},"incomeTract":null,"incomeBlockGroup":null,"nearestRoad":null,"flu":null,"opportunityZone":null,"oz2Eligibility":null,"source":"tn-oir-public-use-47047","appraiserUrl":"https://assessment.cot.tn.gov/TPAD/Parcel/GIS?gislink=024199%20%20%20%2000107"},"geometry":{"type":"Polygon","coordinates":[[[-89.457012,34.99629],[-89.457643,34.996182],[-89.457929,34.996127],[-89.457996,34.993692],[-89.457045,34.9937],[-89.457012,34.99629]]]}},{"type":"Feature","id":"47047:024199    00112","properties":{"id":"47047:024199    00112","parcelId":"024199    00112","countyFips":"47047","countyName":"Fayette","state":"Tennessee","marketIds":["Memphis"],"situsAddress":"SUGAR HILL DR 475","situsCity":null,"situsZip":null,"jurisdictionCode":null,"ownerName":"ODUM STEPHEN G","ownerName2":"ETUX MARY H ODUM","propertyName":null,"zoningCode":"R1","zoningDistrict":null,"jurisdictionPrefix":null,"dorCode":null,"acreage":5.789,"centroid":[-89.456919,34.997209],"lastSale":{"date":"2021-09-27","price":450000.0,"qualified":null,"vintage":"2023"},"tax":{"marketValue":396800.0,"assessedValue":null,"taxableValue":null,"taxes":null,"vintage":"2023"},"mailingAddress":{"line1":null,"line2":null,"city":null,"state":null,"zip":null},"incomeTract":null,"incomeBlockGroup":null,"nearestRoad":null,"flu":null,"opportunityZone":null,"oz2Eligibility":null,"source":"tn-oir-public-use-47047","appraiserUrl":"https://assessment.cot.tn.gov/TPAD/Parcel/GIS?gislink=024199%20%20%20%2000112"},"geometry":{"type":"Polygon","coordinates":[[[-89.45717,34.99737],[-89.457226,34.997412],[-89.457278,34.997466],[-89.457349,34.99749],[-89.457417,34.997492],[-89.457454,34.997532],[-89.457468,34.997599],[-89.457446,34.997677],[-89.457442,34.997755],[-89.457506,34.997791],[-89.457577,34.997812],[-89.457634,34.997865],[-89.45765,34.997931],[-89.457624,34.99801],[-89.457619,34.998069],[-89.457633,34.9981],[-89.458123,34.998104],[-89.458168,34.996159],[-89.45792,34.996213],[-89.45766,34.996263],[-89.456513,34.99646],[-89.456231,34.996502],[-89.456244,34.996563],[-89.456269,34.996621],[-89.456319,34.996672],[-89.456477,34.996735],[-89.456478,34.996794],[-89.456409,34.996827],[-89.456325,34.996838],[-89.456247,34.996876],[-89.456211,34.996927],[-89.45621,34.997],[-89.456268,34.997059],[-89.456349,34.997092],[-89.456436,34.997086],[-89.456495,34.997043],[-89.456537,34.996985],[-89.456603,34.996931],[-89.456669,34.996906],[-89.456731,34.996931],[-89.456771,34.996975],[-89.456793,34.997028],[-89.456787,34.997096],[-89.456719,34.997113],[-89.456648,34.997105],[-89.456584,34.997135],[-89.456545,34.997192],[-89.456538,34.997247],[-89.456558,34.997321],[-89.456639,34.997465],[-89.456764,34.997547],[-89.456828,34.997574],[-89.456883,34.997555],[-89.45692,34.997483],[-89.456949,34.997415],[-89.457001,34.997345],[-89.457079,34.997331],[-89.45717,34.99737]]]}},{"type":"Feature","id":"47047:024200    00112","properties":{"id":"47047:024200    00112","parcelId":"024200    00112","countyFips":"47047","countyName":"Fayette","state":"Tennessee","marketIds":["Memphis"],"situsAddress":"SUGAR HILL DR 100","situsCity":null,"situsZip":null,"jurisdictionCode":null,"ownerName":"GRANT JAMES H JR","ownerName2":"ETUX BRANDY N","propertyName":null,"zoningCode":"R1","zoningDistrict":null,"jurisdictionPrefix":null,"dorCode":null,"acreage":5.72,"centroid":[-89.46382,34.995015],"lastSale":{"date":"2011-06-27","price":45500.0,"qualified":null,"vintage":"2023"},"tax":{"marketValue":326500.0,"assessedValue":null,"taxableValue":null,"taxes":null,"vintage":"2023"},"mailingAddress":{"line1":null,"line2":null,"city":null,"state":null,"zip":null},"incomeTract":null,"incomeBlockGroup":null,"nearestRoad":null,"flu":null,"opportunityZone":null,"oz2Eligibility":null,"source":"tn-oir-public-use-47047","appraiserUrl":"https://assessment.cot.tn.gov/TPAD/Parcel/GIS?gislink=024200%20%20%20%2000112"},"geometry":{"type":"Polygon","coordinates":[[[-89.463138,34.99557],[-89.463597,34.995531],[-89.463726,34.995525],[-89.463871,34.995523],[-89.464016,34.995527],[-89.464177,34.995536],[-89.464334,34.995552],[-89.464503,34.995575],[-89.464602,34.993772],[-89.463326,34.99375],[-89.463157,34.993927],[-89.463399,34.994392],[-89.463138,34.99557]]]}},{"type":"Feature","id":"47047:024197    00901","properties":{"id":"47047:024197    00901","parcelId":"024197    00901","countyFips":"47047","countyName":"Fayette","state":"Tennessee","marketIds":["Memphis"],"situsAddress":"HONEYSUCKLE RD 426","situsCity":null,"situsZip":null,"jurisdictionCode":null,"ownerName":"WRZALINSKI CONSTANCE C","ownerName2":"& WAYLON LAFRENZ","propertyName":null,"zoningCode":"R1","zoningDistrict":null,"jurisdictionPrefix":null,"dorCode":null,"acreage":5.69,"centroid":[-89.336347,34.998936],"lastSale":{"date":"2018-10-11","price":null,"qualified":null,"vintage":"2023"},"tax":{"marketValue":124000.0,"assessedValue":null,"taxableValue":null,"taxes":null,"vintage":"2023"},"mailingAddress":{"line1":null,"line2":null,"city":null,"state":null,"zip":null},"incomeTract":null,"incomeBlockGroup":null,"nearestRoad":null,"flu":null,"opportunityZone":null,"oz2Eligibility":null,"source":"tn-oir-public-use-47047","appraiserUrl":"https://assessment.cot.tn.gov/TPAD/Parcel/GIS?gislink=024197%20%20%20%2000901"},"geometry":{"type":"Polygon","coordinates":[[[-89.335542,34.999504],[-89.336894,34.999475],[-89.337313,34.999469],[-89.337292,34.998247],[-89.335517,34.998162],[-89.335523,34.998757],[-89.335542,34.999504]]]}},{"type":"Feature","id":"47047:024199    00108","properties":{"id":"47047:024199    00108","parcelId":"024199    00108","countyFips":"47047","countyName":"Fayette","state":"Tennessee","marketIds":["Memphis"],"situsAddress":"SUGAR HILL DR","situsCity":null,"situsZip":null,"jurisdictionCode":null,"ownerName":"UNDERWOOD JAMES A","ownerName2":"ETUX ELIZABETH Y","propertyName":null,"zoningCode":"R1","zoningDistrict":null,"jurisdictionPrefix":null,"dorCode":null,"acreage":5.6244,"centroid":[-89.458467,34.995228],"lastSale":{"date":"2014-09-26","price":495000.0,"qualified":null,"vintage":"2023"},"tax":{"marketValue":53300.0,"assessedValue":null,"taxableValue":null,"taxes":null,"vintage":"2023"},"mailingAddress":{"line1":null,"line2":null,"city":null,"state":null,"zip":null},"incomeTract":null,"incomeBlockGroup":null,"nearestRoad":null,"flu":null,"opportunityZone":null,"oz2Eligibility":null,"source":"tn-oir-public-use-47047","appraiserUrl":"https://assessment.cot.tn.gov/TPAD/Parcel/GIS?gislink=024199%20%20%20%2000108"},"geometry":{"type":"Polygon","coordinates":[[[-89.457929,34.996127],[-89.458283,34.996046],[-89.458728,34.995929],[-89.458913,34.995889],[-89.458956,34.993685],[-89.457996,34.993692],[-89.457929,34.996127]]]}},{"type":"Feature","id":"47047:024200    00103","properties":{"id":"47047:024200    00103","parcelId":"024200    00103","countyFips":"47047","countyName":"Fayette","state":"Tennessee","marketIds":["Memphis"],"situsAddress":"SUGAR HILL DR 230","situsCity":null,"situsZip":null,"jurisdictionCode":null,"ownerName":"MCBRIDE BOBBY L","ownerName2":"ETUX SARAH","propertyName":null,"zoningCode":"R1","zoningDistrict":null,"jurisdictionPrefix":null,"dorCode":null,"acreage":5.5484,"centroid":[-89.461515,34.994921],"lastSale":{"date":"2005-03-22","price":34000.0,"qualified":null,"vintage":"2023"},"tax":{"marketValue":253900.0,"assessedValue":null,"taxableValue":null,"taxes":null,"vintage":"2023"},"mailingAddress":{"line1":null,"line2":null,"city":null,"state":null,"zip":null},"incomeTract":null,"incomeBlockGroup":null,"nearestRoad":null,"flu":null,"opportunityZone":null,"oz2Eligibility":null,"source":"tn-oir-public-use-47047","appraiserUrl":"https://assessment.cot.tn.gov/TPAD/Parcel/GIS?gislink=024200%20%20%20%2000103"},"geometry":{"type":"Polygon","coordinates":[[[-89.460933,34.995765],[-89.461475,34.995725],[-89.462036,34.995678],[-89.462122,34.993729],[-89.461009,34.99371],[-89.460933,34.995765]]]}},{"type":"Feature","id":"47047:024200    00104","properties":{"id":"47047:024200    00104","parcelId":"024200    00104","countyFips":"47047","countyName":"Fayette","state":"Tennessee","marketIds":["Memphis"],"situsAddress":"SUGAR HILL DR","situsCity":null,"situsZip":null,"jurisdictionCode":null,"ownerName":"MCBRIDE BOBBY","ownerName2":"ETUX SARAH J","propertyName":null,"zoningCode":"R1","zoningDistrict":null,"jurisdictionPrefix":null,"dorCode":null,"acreage":5.527,"centroid":[-89.462751,34.994623],"lastSale":{"date":"2006-04-07","price":20000.0,"qualified":null,"vintage":"2023"},"tax":{"marketValue":35000.0,"assessedValue":null,"taxableValue":null,"taxes":null,"vintage":"2023"},"mailingAddress":{"line1":null,"line2":null,"city":null,"state":null,"zip":null},"incomeTract":null,"incomeBlockGroup":null,"nearestRoad":null,"flu":null,"opportunityZone":null,"oz2Eligibility":null,"source":"tn-oir-public-use-47047","appraiserUrl":"https://assessment.cot.tn.gov/TPAD/Parcel/GIS?gislink=024200%20%20%20%2000104"},"geometry":{"type":"Polygon","coordinates":[[[-89.462036,34.995678],[-89.463138,34.99557],[-89.463399,34.994392],[-89.463062,34.993746],[-89.462122,34.993729],[-89.462036,34.995678]]]}},{"type":"Feature","id":"47047:024199    00109","properties":{"id":"47047:024199    00109","parcelId":"024199    00109","countyFips":"47047","countyName":"Fayette","state":"Tennessee","marketIds":["Memphis"],"situsAddress":"SUGAR HILL DR 400","situsCity":null,"situsZip":null,"jurisdictionCode":null,"ownerName":"UNDERWOOD JAMES A","ownerName2":"ETUX ELIZABETH Y","propertyName":null,"zoningCode":"R1","zoningDistrict":null,"jurisdictionPrefix":null,"dorCode":null,"acreage":5.5,"centroid":[-89.459361,34.994924],"lastSale":{"date":"2014-09-26","price":495000.0,"qualified":null,"vintage":"2023"},"tax":{"marketValue":342500.0,"assessedValue":null,"taxableValue":null,"taxes":null,"vintage":"2023"},"mailingAddress":{"line1":null,"line2":null,"city":null,"state":null,"zip":null},"incomeTract":null,"incomeBlockGroup":null,"nearestRoad":null,"flu":null,"opportunityZone":null,"oz2Eligibility":null,"source":"tn-oir-public-use-47047","appraiserUrl":"https://assessment.cot.tn.gov/TPAD/Parcel/GIS?gislink=024199%20%20%20%2000109"},"geometry":{"type":"Polygon","coordinates":[[[-89.458913,34.995889],[-89.459103,34.99586],[-89.459308,34.99584],[-89.459913,34.995823],[-89.459994,34.993693],[-89.459343,34.993681],[-89.458956,34.993685],[-89.458913,34.995889]]]}},{"type":"Feature","id":"47047:024200    00106","properties":{"id":"47047:024200    00106","parcelId":"024200    00106","countyFips":"47047","countyName":"Fayette","state":"Tennessee","marketIds":["Memphis"],"situsAddress":"SUGAR HILL DR 235","situsCity":null,"situsZip":null,"jurisdictionCode":null,"ownerName":"BERNSKOETTER RICK ANDREW","ownerName2":"& KASSANDRA MARION BERNSKOETTER TRUSTEES","propertyName":null,"zoningCode":"R1","zoningDistrict":null,"jurisdictionPrefix":null,"dorCode":null,"acreage":5.366,"centroid":[-89.461481,34.996736],"lastSale":{"date":"2022-11-23","price":null,"qualified":null,"vintage":"2023"},"tax":{"marketValue":488800.0,"assessedValue":null,"taxableValue":null,"taxes":null,"vintage":"2023"},"mailingAddress":{"line1":null,"line2":null,"city":null,"state":null,"zip":null},"incomeTract":null,"incomeBlockGroup":null,"nearestRoad":null,"flu":null,"opportunityZone":null,"oz2Eligibility":null,"source":"tn-oir-public-use-47047","appraiserUrl":"https://assessment.cot.tn.gov/TPAD/Parcel/GIS?gislink=024200%20%20%20%2000106"},"geometry":{"type":"Polygon","coordinates":[[[-89.460998,34.99813],[-89.461909,34.998138],[-89.461971,34.995767],[-89.461489,34.995807],[-89.46104,34.99584],[-89.460998,34.99813]]]}},{"type":"Feature","id":"47047:024200    00102","properties":{"id":"47047:024200    00102","parcelId":"024200    00102","countyFips":"47047","countyName":"Fayette","state":"Tennessee","marketIds":["Memphis"],"situsAddress":"SUGAR HILL DR 330","situsCity":null,"situsZip":null,"jurisdictionCode":null,"ownerName":"NANCE MARSHALL I.","ownerName2":"ETUX LEIGH ANN","propertyName":null,"zoningCode":"R1","zoningDistrict":null,"jurisdictionPrefix":null,"dorCode":null,"acreage":5.3296,"centroid":[-89.460454,34.994957],"lastSale":{"date":"2013-10-28","price":250000.0,"qualified":null,"vintage":"2023"},"tax":{"marketValue":266700.0,"assessedValue":null,"taxableValue":null,"taxes":null,"vintage":"2023"},"mailingAddress":{"line1":null,"line2":null,"city":null,"state":null,"zip":null},"incomeTract":null,"incomeBlockGroup":null,"nearestRoad":null,"flu":null,"opportunityZone":null,"oz2Eligibility":null,"source":"tn-oir-public-use-47047","appraiserUrl":"https://assessment.cot.tn.gov/TPAD/Parcel/GIS?gislink=024200%20%20%20%2000102"},"geometry":{"type":"Polygon","coordinates":[[[-89.459913,34.995823],[-89.460422,34.995796],[-89.460933,34.995765],[-89.461009,34.99371],[-89.459994,34.993693],[-89.459913,34.995823]]]}},{"type":"Feature","id":"47047:024199    00111","properties":{"id":"47047:024199    00111","parcelId":"024199    00111","countyFips":"47047","countyName":"Fayette","state":"Tennessee","marketIds":["Memphis"],"situsAddress":"SUGAR HILL DR 405","situsCity":null,"situsZip":null,"jurisdictionCode":null,"ownerName":"KENNEDY JOHN C","ownerName2":null,"propertyName":null,"zoningCode":"R1","zoningDistrict":null,"jurisdictionPrefix":null,"dorCode":null,"acreage":5.3055,"centroid":[-89.458695,34.996548],"lastSale":{"date":"2022-08-03","price":525000.0,"qualified":null,"vintage":"2023"},"tax":{"marketValue":343500.0,"assessedValue":null,"taxableValue":null,"taxes":null,"vintage":"2023"},"mailingAddress":{"line1":null,"line2":null,"city":null,"state":null,"zip":null},"incomeTract":null,"incomeBlockGroup":null,"nearestRoad":null,"flu":null,"opportunityZone":null,"oz2Eligibility":null,"source":"tn-oir-public-use-47047","appraiserUrl":"https://assessment.cot.tn.gov/TPAD/Parcel/GIS?gislink=024199%20%20%20%2000111"},"geometry":{"type":"Polygon","coordinates":[[[-89.458123,34.998104],[-89.459146,34.998114],[-89.459193,34.995933],[-89.459014,34.995956],[-89.458826,34.995992],[-89.458704,34.996021],[-89.458383,34.996107],[-89.458168,34.996159],[-89.458123,34.998104]]]}},{"type":"Feature","id":"47047:024197    00805","properties":{"id":"47047:024197    00805","parcelId":"024197    00805","countyFips":"47047","countyName":"Fayette","state":"Tennessee","marketIds":["Memphis"],"situsAddress":"HONEYSUCKLE RD","situsCity":null,"situsZip":null,"jurisdictionCode":null,"ownerName":"SMITH MELVIN F TRUST","ownerName2":"MARSHA S SMITH TRUST","propertyName":null,"zoningCode":"R1","zoningDistrict":null,"jurisdictionPrefix":null,"dorCode":null,"acreage":5.2602,"centroid":[-89.334386,34.99661],"lastSale":{"date":"2009-06-20","price":null,"qualified":null,"vintage":"2023"},"tax":{"marketValue":38300.0,"assessedValue":null,"taxableValue":null,"taxes":null,"vintage":"2023"},"mailingAddress":{"line1":null,"line2":null,"city":null,"state":null,"zip":null},"incomeTract":null,"incomeBlockGroup":null,"nearestRoad":null,"flu":null,"opportunityZone":null,"oz2Eligibility":null,"source":"tn-oir-public-use-47047","appraiserUrl":"https://assessment.cot.tn.gov/TPAD/Parcel/GIS?gislink=024197%20%20%20%2000805"},"geometry":{"type":"Polygon","coordinates":[[[-89.332842,34.997043],[-89.33541,34.997049],[-89.335422,34.996499],[-89.335419,34.996225],[-89.332837,34.996235],[-89.332842,34.997043]]]}},{"type":"Feature","id":"47047:024199    00110","properties":{"id":"47047:024199    00110","parcelId":"024199    00110","countyFips":"47047","countyName":"Fayette","state":"Tennessee","marketIds":["Memphis"],"situsAddress":"SUGAR HILL DR 375","situsCity":null,"situsZip":null,"jurisdictionCode":null,"ownerName":"MCGREGOR JERRY W","ownerName2":"ETUX BETTYE J","propertyName":null,"zoningCode":"R1","zoningDistrict":null,"jurisdictionPrefix":null,"dorCode":null,"acreage":5.2347,"centroid":[-89.459596,34.996544],"lastSale":{"date":"2004-04-20","price":42500.0,"qualified":null,"vintage":"2023"},"tax":{"marketValue":318100.0,"assessedValue":null,"taxableValue":null,"taxes":null,"vintage":"2023"},"mailingAddress":{"line1":null,"line2":null,"city":null,"state":null,"zip":null},"incomeTract":null,"incomeBlockGroup":null,"nearestRoad":null,"flu":null,"opportunityZone":null,"oz2Eligibility":null,"source":"tn-oir-public-use-47047","appraiserUrl":"https://assessment.cot.tn.gov/TPAD/Parcel/GIS?gislink=024199%20%20%20%2000110"},"geometry":{"type":"Polygon","coordinates":[[[-89.459146,34.998114],[-89.460091,34.998122],[-89.460146,34.995894],[-89.459838,34.995908],[-89.459439,34.995917],[-89.459316,34.995923],[-89.459193,34.995933],[-89.459146,34.998114]]]}},{"type":"Feature","id":"47047:024199    00114","properties":{"id":"47047:024199    00114","parcelId":"024199    00114","countyFips":"47047","countyName":"Fayette","state":"Tennessee","marketIds":["Memphis"],"situsAddress":"SUGAR HILL DR 655","situsCity":null,"situsZip":null,"jurisdictionCode":null,"ownerName":"BLALOCK HENRY DAVID III TRUSTEE","ownerName2":null,"propertyName":null,"zoningCode":"R1","zoningDistrict":null,"jurisdictionPrefix":null,"dorCode":null,"acreage":5.2189,"centroid":[-89.454428,34.997182],"lastSale":{"date":"2003-02-19","price":38000.0,"qualified":null,"vintage":"2023"},"tax":{"marketValue":270800.0,"assessedValue":null,"taxableValue":null,"taxes":null,"vintage":"2023"},"mailingAddress":{"line1":null,"line2":null,"city":null,"state":null,"zip":null},"incomeTract":null,"incomeBlockGroup":null,"nearestRoad":null,"flu":null,"opportunityZone":null,"oz2Eligibility":null,"source":"tn-oir-public-use-47047","appraiserUrl":"https://assessment.cot.tn.gov/TPAD/Parcel/GIS?gislink=024199%20%20%20%2000114"},"geometry":{"type":"Polygon","coordinates":[[[-89.454028,34.998067],[-89.455341,34.998079],[-89.455125,34.996575],[-89.454787,34.996597],[-89.45446,34.996634],[-89.454135,34.996685],[-89.453812,34.996752],[-89.453737,34.998065],[-89.454028,34.998067]]]}},{"type":"Feature","id":"47047:024200    00105","properties":{"id":"47047:024200    00105","parcelId":"024200    00105","countyFips":"47047","countyName":"Fayette","state":"Tennessee","marketIds":["Memphis"],"situsAddress":"SUGAR HILL DR 215","situsCity":null,"situsZip":null,"jurisdictionCode":null,"ownerName":"DERRER WALLACE D","ownerName2":"ETUX AUDREY M","propertyName":null,"zoningCode":"R1","zoningDistrict":null,"jurisdictionPrefix":null,"dorCode":null,"acreage":5.1899,"centroid":[-89.46237,34.996927],"lastSale":{"date":"2022-11-17","price":618000.0,"qualified":null,"vintage":"2023"},"tax":{"marketValue":343100.0,"assessedValue":null,"taxableValue":null,"taxes":null,"vintage":"2023"},"mailingAddress":{"line1":null,"line2":null,"city":null,"state":null,"zip":null},"incomeTract":null,"incomeBlockGroup":null,"nearestRoad":null,"flu":null,"opportunityZone":null,"oz2Eligibility":null,"source":"tn-oir-public-use-47047","appraiserUrl":"https://assessment.cot.tn.gov/TPAD/Parcel/GIS?gislink=024200%20%20%20%2000105"},"geometry":{"type":"Polygon","coordinates":[[[-89.461909,34.998138],[-89.462529,34.998144],[-89.463072,34.995659],[-89.461971,34.995767],[-89.461909,34.998138]]]}},{"type":"Feature","id":"47047:024197    00801","properties":{"id":"47047:024197    00801","parcelId":"024197    00801","countyFips":"47047","countyName":"Fayette","state":"Tennessee","marketIds":["Memphis"],"situsAddress":"HONEYSUCKLE RD 705","situsCity":null,"situsZip":null,"jurisdictionCode":null,"ownerName":"WARE BOBBY L JR","ownerName2":null,"propertyName":null,"zoningCode":"R1","zoningDistrict":null,"jurisdictionPrefix":null,"dorCode":null,"acreage":5.1558,"centroid":[-89.33438,34.995028],"lastSale":{"date":"2017-04-07","price":25000.0,"qualified":null,"vintage":"2023"},"tax":{"marketValue":286000.0,"assessedValue":null,"taxableValue":null,"taxes":null,"vintage":"2023"},"mailingAddress":{"line1":null,"line2":null,"city":null,"state":null,"zip":null},"incomeTract":null,"incomeBlockGroup":null,"nearestRoad":null,"flu":null,"opportunityZone":null,"oz2Eligibility":null,"source":"tn-oir-public-use-47047","appraiserUrl":"https://assessment.cot.tn.gov/TPAD/Parcel/GIS?gislink=024197%20%20%20%2000801"},"geometry":{"type":"Polygon","coordinates":[[[-89.332832,34.995464],[-89.335414,34.995439],[-89.335418,34.994928],[-89.335408,34.994638],[-89.332827,34.994671],[-89.332832,34.995464]]]}},{"type":"Feature","id":"47047:024199    00115","properties":{"id":"47047:024199    00115","parcelId":"024199    00115","countyFips":"47047","countyName":"Fayette","state":"Tennessee","marketIds":["Memphis"],"situsAddress":"SUGAR HILL DR 775","situsCity":null,"situsZip":null,"jurisdictionCode":null,"ownerName":"RIMER MARY A","ownerName2":null,"propertyName":null,"zoningCode":"R1","zoningDistrict":null,"jurisdictionPrefix":null,"dorCode":null,"acreage":5.0956,"centroid":[-89.452534,34.997344],"lastSale":{"date":"2003-02-19","price":38000.0,"qualified":null,"vintage":"2023"},"tax":{"marketValue":302100.0,"assessedValue":null,"taxableValue":null,"taxes":null,"vintage":"2023"},"mailingAddress":{"line1":null,"line2":null,"city":null,"state":null,"zip":null},"incomeTract":null,"incomeBlockGroup":null,"nearestRoad":null,"flu":null,"opportunityZone":null,"oz2Eligibility":null,"source":"tn-oir-public-use-47047","appraiserUrl":"https://assessment.cot.tn.gov/TPAD/Parcel/GIS?gislink=024199%20%20%20%2000115"},"geometry":{"type":"Polygon","coordinates":[[[-89.451231,34.998042],[-89.453737,34.998065],[-89.453812,34.996752],[-89.453616,34.9968],[-89.453423,34.996854],[-89.453232,34.996914],[-89.453043,34.996979],[-89.452858,34.99705],[-89.452675,34.997125],[-89.452496,34.997206],[-89.45232,34.997292],[-89.452148,34.997383],[-89.452018,34.997457],[-89.451391,34.997822],[-89.451309,34.997864],[-89.451229,34.997898],[-89.451231,34.998042]]]}},{"type":"Feature","id":"47047:024200    00107","properties":{"id":"47047:024200    00107","parcelId":"024200    00107","countyFips":"47047","countyName":"Fayette","state":"Tennessee","marketIds":["Memphis"],"situsAddress":"SUGAR HILL DR 305","situsCity":null,"situsZip":null,"jurisdictionCode":null,"ownerName":"HOLOBAUGH ROBERT WAYNE","ownerName2":"& TIMBERLYN C HOLOBAUGH","propertyName":null,"zoningCode":"R1","zoningDistrict":null,"jurisdictionPrefix":null,"dorCode":null,"acreage":5.0901,"centroid":[-89.460569,34.996997],"lastSale":{"date":"2005-01-13","price":335306.0,"qualified":null,"vintage":"2023"},"tax":{"marketValue":408600.0,"assessedValue":null,"taxableValue":null,"taxes":null,"vintage":"2023"},"mailingAddress":{"line1":null,"line2":null,"city":null,"state":null,"zip":null},"incomeTract":null,"incomeBlockGroup":null,"nearestRoad":null,"flu":null,"opportunityZone":null,"oz2Eligibility":null,"source":"tn-oir-public-use-47047","appraiserUrl":"https://assessment.cot.tn.gov/TPAD/Parcel/GIS?gislink=024200%20%20%20%2000107"},"geometry":{"type":"Polygon","coordinates":[[[-89.460091,34.998122],[-89.460998,34.99813],[-89.46104,34.99584],[-89.460146,34.995894],[-89.460091,34.998122]]]}},{"type":"Feature","id":"47047:024197    00804","properties":{"id":"47047:024197    00804","parcelId":"024197    00804","countyFips":"47047","countyName":"Fayette","state":"Tennessee","marketIds":["Memphis"],"situsAddress":"HONEYSUCKLE RD","situsCity":null,"situsZip":null,"jurisdictionCode":null,"ownerName":"SMITH MELVIN F TRUST","ownerName2":"MARSHA S SMITH TRUST","propertyName":null,"zoningCode":"R1","zoningDistrict":null,"jurisdictionPrefix":null,"dorCode":null,"acreage":5.0736,"centroid":[-89.334129,34.997441],"lastSale":{"date":"2009-06-20","price":null,"qualified":null,"vintage":"2023"},"tax":{"marketValue":38300.0,"assessedValue":null,"taxableValue":null,"taxes":null,"vintage":"2023"},"mailingAddress":{"line1":null,"line2":null,"city":null,"state":null,"zip":null},"incomeTract":null,"incomeBlockGroup":null,"nearestRoad":null,"flu":null,"opportunityZone":null,"oz2Eligibility":null,"source":"tn-oir-public-use-47047","appraiserUrl":"https://assessment.cot.tn.gov/TPAD/Parcel/GIS?gislink=024197%20%20%20%2000804"},"geometry":{"type":"Polygon","coordinates":[[[-89.332848,34.99784],[-89.335415,34.997831],[-89.33541,34.997049],[-89.332842,34.997043],[-89.332848,34.99784]]]}},{"type":"Feature","id":"47047:024197    00802","properties":{"id":"47047:024197    00802","parcelId":"024197    00802","countyFips":"47047","countyName":"Fayette","state":"Tennessee","marketIds":["Memphis"],"situsAddress":"HONEYSUCKLE RD 615","situsCity":null,"situsZip":null,"jurisdictionCode":null,"ownerName":"MORROW SHERIKA","ownerName2":"ETVIR WILLIE BROWN","propertyName":null,"zoningCode":"R1","zoningDistrict":null,"jurisdictionPrefix":null,"dorCode":null,"acreage":5.0313,"centroid":[-89.334383,34.995834],"lastSale":{"date":"2020-02-13","price":40000.0,"qualified":null,"vintage":"2023"},"tax":{"marketValue":401600.0,"assessedValue":null,"taxableValue":null,"taxes":null,"vintage":"2023"},"mailingAddress":{"line1":null,"line2":null,"city":null,"state":null,"zip":null},"incomeTract":null,"incomeBlockGroup":null,"nearestRoad":null,"flu":null,"opportunityZone":null,"oz2Eligibility":null,"source":"tn-oir-public-use-47047","appraiserUrl":"https://assessment.cot.tn.gov/TPAD/Parcel/GIS?gislink=024197%20%20%20%2000802"},"geometry":{"type":"Polygon","coordinates":[[[-89.332837,34.996235],[-89.335419,34.996225],[-89.335412,34.995808],[-89.335414,34.995439],[-89.332832,34.995464],[-89.332837,34.996235]]]}}]}