{"type":"FeatureCollection","name":"37063-17_36","features":[{"type":"Feature","id":"37063:0882427377","properties":{"id":"37063:0882427377","parcelId":"0882427377","countyFips":"37063","countyName":"Durham","state":"North Carolina","marketIds":["Raleigh-Durham"],"situsAddress":"4513 REDWOOD RD","situsCity":"DURHAM","situsZip":null,"jurisdictionCode":null,"ownerName":"UNITED STATES OF AMERICA","ownerName2":null,"propertyName":null,"zoningCode":null,"zoningDistrict":null,"jurisdictionPrefix":null,"dorCode":null,"acreage":134.9,"centroid":[-78.712806,36.009479],"lastSale":{"date":null,"price":null,"qualified":null},"tax":{"marketValue":2366718.0,"assessedValue":2366718.0,"taxableValue":null,"taxes":null},"mailingAddress":{"line1":null,"line2":null,"city":null,"state":null,"zip":null},"incomeTract":null,"incomeBlockGroup":null,"nearestRoad":null,"flu":null,"opportunityZone":null,"oz2Eligibility":null,"source":"nc-onemap-37063"},"geometry":{"type":"Polygon","coordinates":[[[-78.71433,36.00406],[-78.71699,36.00658],[-78.71699,36.00757],[-78.71826,36.00825],[-78.71672,36.01114],[-78.71536,36.01159],[-78.7143,36.01285],[-78.71377,36.01302],[-78.71326,36.01362],[-78.71291,36.0145],[-78.71246,36.01488],[-78.71105,36.0149],[-78.71068,36.01447],[-78.71084,36.01416],[-78.71202,36.0134],[-78.71189,36.0124],[-78.71133,36.01176],[-78.71024,36.01118],[-78.70834,36.01109],[-78.70804,36.01058],[-78.70916,36.00942],[-78.71121,36.0065],[-78.71173,36.00664],[-78.71232,36.00627],[-78.71173,36.00568],[-78.71247,36.00499],[-78.71254,36.00463],[-78.71307,36.00431],[-78.7139,36.0043],[-78.71474,36.00503],[-78.71434,36.00407],[-78.71433,36.00406]]]}},{"type":"Feature","id":"37063:0882703937","properties":{"id":"37063:0882703937","parcelId":"0882703937","countyFips":"37063","countyName":"Durham","state":"North Carolina","marketIds":["Raleigh-Durham"],"situsAddress":"13560 BOYCE MILL RD","situsCity":"DURHAM","situsZip":null,"jurisdictionCode":null,"ownerName":"UNITED STATES OF AMERICA","ownerName2":null,"propertyName":null,"zoningCode":null,"zoningDistrict":null,"jurisdictionPrefix":null,"dorCode":null,"acreage":69.97,"centroid":[-78.704738,36.006534],"lastSale":{"date":null,"price":null,"qualified":null},"tax":{"marketValue":1535616.0,"assessedValue":1535616.0,"taxableValue":null,"taxes":null},"mailingAddress":{"line1":null,"line2":null,"city":null,"state":null,"zip":null},"incomeTract":null,"incomeBlockGroup":null,"nearestRoad":null,"flu":null,"opportunityZone":null,"oz2Eligibility":null,"source":"nc-onemap-37063"},"geometry":{"type":"Polygon","coordinates":[[[-78.70219,36.00279],[-78.70486,36.00282],[-78.70487,36.00194],[-78.70771,36.00474],[-78.70764,36.00487],[-78.70782,36.00485],[-78.70841,36.00543],[-78.7084,36.00583],[-78.70805,36.00637],[-78.70786,36.00635],[-78.708,36.00658],[-78.70791,36.00691],[-78.70723,36.00772],[-78.70665,36.00799],[-78.70623,36.00785],[-78.70619,36.00807],[-78.70562,36.00827],[-78.70469,36.00816],[-78.70451,36.00788],[-78.70407,36.00797],[-78.70395,36.00788],[-78.70403,36.0073],[-78.70395,36.00701],[-78.70346,36.00713],[-78.70315,36.00658],[-78.7029,36.00648],[-78.70276,36.00659],[-78.70226,36.00634],[-78.70136,36.00633],[-78.70121,36.00642],[-78.70093,36.00705],[-78.70104,36.00724],[-78.70083,36.00805],[-78.70034,36.00837],[-78.70219,36.00279]]]}},{"type":"Feature","id":"37063:0872522182","properties":{"id":"37063:0872522182","parcelId":"0872522182","countyFips":"37063","countyName":"Durham","state":"North Carolina","marketIds":["Raleigh-Durham"],"situsAddress":"2701 BAPTIST RD","situsCity":"DURHAM","situsZip":null,"jurisdictionCode":null,"ownerName":"MILAM, TREENA L;MILAM, ANDREW","ownerName2":null,"propertyName":null,"zoningCode":null,"zoningDistrict":null,"jurisdictionPrefix":null,"dorCode":null,"acreage":64.26,"centroid":[-78.745632,36.007887],"lastSale":{"date":null,"price":null,"qualified":null},"tax":{"marketValue":2680537.0,"assessedValue":1410200.0,"taxableValue":null,"taxes":null},"mailingAddress":{"line1":null,"line2":null,"city":null,"state":null,"zip":null},"incomeTract":null,"incomeBlockGroup":null,"nearestRoad":null,"flu":null,"opportunityZone":null,"oz2Eligibility":null,"source":"nc-onemap-37063"},"geometry":{"type":"Polygon","coordinates":[[[-78.74245,36.01016],[-78.74184,36.00533],[-78.74272,36.00484],[-78.74379,36.0055],[-78.74415,36.00833],[-78.75034,36.00695],[-78.75033,36.00904],[-78.74754,36.00905],[-78.74753,36.01178],[-78.74245,36.01016]]]}},{"type":"Feature","id":"37063:0872417081","properties":{"id":"37063:0872417081","parcelId":"0872417081","countyFips":"37063","countyName":"Durham","state":"North Carolina","marketIds":["Raleigh-Durham"],"situsAddress":"2503 BAPTIST RD","situsCity":"DURHAM","situsZip":null,"jurisdictionCode":null,"ownerName":"MILAM, TREENA L;MILAM, ANDREW C","ownerName2":null,"propertyName":null,"zoningCode":null,"zoningDistrict":null,"jurisdictionPrefix":null,"dorCode":null,"acreage":64.12,"centroid":[-78.745688,36.005237],"lastSale":{"date":null,"price":null,"qualified":null},"tax":{"marketValue":1066666.0,"assessedValue":1066666.0,"taxableValue":null,"taxes":null},"mailingAddress":{"line1":null,"line2":null,"city":null,"state":null,"zip":null},"incomeTract":null,"incomeBlockGroup":null,"nearestRoad":null,"flu":null,"opportunityZone":null,"oz2Eligibility":null,"source":"nc-onemap-37063"},"geometry":{"type":"Polygon","coordinates":[[[-78.74272,36.00484],[-78.74292,36.00465],[-78.7458,36.0053],[-78.74552,36.00319],[-78.75026,36.00314],[-78.75034,36.00695],[-78.74415,36.00833],[-78.74379,36.0055],[-78.74272,36.00484]]]}},{"type":"Feature","id":"37063:0871890079","properties":{"id":"37063:0871890079","parcelId":"0871890079","countyFips":"37063","countyName":"Durham","state":"North Carolina","marketIds":["Raleigh-Durham"],"situsAddress":"3100 BAPTIST RD","situsCity":"DURHAM","situsZip":null,"jurisdictionCode":null,"ownerName":"KJELLBERG, STEVEN;KJELLBERG, JULIE","ownerName2":null,"propertyName":null,"zoningCode":null,"zoningDistrict":null,"jurisdictionPrefix":null,"dorCode":null,"acreage":62.42,"centroid":[-78.735254,36.001534],"lastSale":{"date":null,"price":null,"qualified":null},"tax":{"marketValue":0.0,"assessedValue":0.0,"taxableValue":null,"taxes":null},"mailingAddress":{"line1":null,"line2":null,"city":null,"state":null,"zip":null},"incomeTract":null,"incomeBlockGroup":null,"nearestRoad":null,"flu":null,"opportunityZone":null,"oz2Eligibility":null,"source":"nc-onemap-37063"},"geometry":{"type":"Polygon","coordinates":[[[-78.73433,36.00375],[-78.73467,36.00286],[-78.73447,36.00277],[-78.73448,36.00206],[-78.73356,36.00188],[-78.73369,36.0027],[-78.73348,36.00352],[-78.73293,36.00337],[-78.73368,35.9978],[-78.73614,35.99859],[-78.73626,35.99704],[-78.73848,35.99841],[-78.74002,35.99971],[-78.7373,36.00204],[-78.73657,36.003],[-78.73483,36.00281],[-78.73443,36.00377],[-78.73433,36.00375]]]}},{"type":"Feature","id":"37063:0882038148","properties":{"id":"37063:0882038148","parcelId":"0882038148","countyFips":"37063","countyName":"Durham","state":"North Carolina","marketIds":["Raleigh-Durham"],"situsAddress":"3703 FALLS LAKE RD","situsCity":"DURHAM","situsZip":null,"jurisdictionCode":null,"ownerName":"UNITED STATES OF AMERICA","ownerName2":null,"propertyName":null,"zoningCode":null,"zoningDistrict":null,"jurisdictionPrefix":null,"dorCode":null,"acreage":53.11,"centroid":[-78.725631,36.01228],"lastSale":{"date":null,"price":null,"qualified":null},"tax":{"marketValue":1537761.0,"assessedValue":1484784.0,"taxableValue":null,"taxes":null},"mailingAddress":{"line1":null,"line2":null,"city":null,"state":null,"zip":null},"incomeTract":null,"incomeBlockGroup":null,"nearestRoad":null,"flu":null,"opportunityZone":null,"oz2Eligibility":null,"source":"nc-onemap-37063"},"geometry":{"type":"Polygon","coordinates":[[[-78.72426,36.01305],[-78.72547,36.01119],[-78.72579,36.00775],[-78.72812,36.00798],[-78.72839,36.00924],[-78.72868,36.01358],[-78.72425,36.01494],[-78.72402,36.01606],[-78.72416,36.01444],[-78.72449,36.01379],[-78.72431,36.01306],[-78.72426,36.01305]]]}},{"type":"Feature","id":"37063:0882228386","properties":{"id":"37063:0882228386","parcelId":"0882228386","countyFips":"37063","countyName":"Durham","state":"North Carolina","marketIds":["Raleigh-Durham"],"situsAddress":"3757 FALLS LAKE RD","situsCity":"DURHAM","situsZip":null,"jurisdictionCode":null,"ownerName":"UNITED STATES OF AMERICA","ownerName2":null,"propertyName":null,"zoningCode":null,"zoningDistrict":null,"jurisdictionPrefix":null,"dorCode":null,"acreage":50.11,"centroid":[-78.720422,36.010077],"lastSale":{"date":null,"price":null,"qualified":null},"tax":{"marketValue":1607792.0,"assessedValue":1603520.0,"taxableValue":null,"taxes":null},"mailingAddress":{"line1":null,"line2":null,"city":null,"state":null,"zip":null},"incomeTract":null,"incomeBlockGroup":null,"nearestRoad":null,"flu":null,"opportunityZone":null,"oz2Eligibility":null,"source":"nc-onemap-37063"},"geometry":{"type":"Polygon","coordinates":[[[-78.7212,36.01162],[-78.71672,36.01114],[-78.71914,36.00712],[-78.72218,36.00731],[-78.72202,36.01161],[-78.72127,36.01166],[-78.7212,36.01162]],[[-78.71699,36.00757],[-78.71699,36.00658],[-78.71928,36.00689],[-78.71851,36.00736],[-78.71813,36.00818],[-78.71699,36.00757]]]}},{"type":"Feature","id":"37063:0882126670","properties":{"id":"37063:0882126670","parcelId":"0882126670","countyFips":"37063","countyName":"Durham","state":"North Carolina","marketIds":["Raleigh-Durham"],"situsAddress":"3701 FALLS LAKE RD","situsCity":"DURHAM","situsZip":null,"jurisdictionCode":null,"ownerName":"UNITED STATES OF AMERICA","ownerName2":null,"propertyName":null,"zoningCode":null,"zoningDistrict":null,"jurisdictionPrefix":null,"dorCode":null,"acreage":40.86,"centroid":[-78.723505,36.011227],"lastSale":{"date":null,"price":null,"qualified":null},"tax":{"marketValue":1548662.0,"assessedValue":1307520.0,"taxableValue":null,"taxes":null},"mailingAddress":{"line1":null,"line2":null,"city":null,"state":null,"zip":null},"incomeTract":null,"incomeBlockGroup":null,"nearestRoad":null,"flu":null,"opportunityZone":null,"oz2Eligibility":null,"source":"nc-onemap-37063"},"geometry":{"type":"Polygon","coordinates":[[[-78.72202,36.01161],[-78.72218,36.00731],[-78.72579,36.00775],[-78.72547,36.01119],[-78.72426,36.01305],[-78.72398,36.01323],[-78.72361,36.01262],[-78.72313,36.01215],[-78.72252,36.01174],[-78.72209,36.01162],[-78.72202,36.01161]]]}},{"type":"Feature","id":"37063:0871983813","properties":{"id":"37063:0871983813","parcelId":"0871983813","countyFips":"37063","countyName":"Durham","state":"North Carolina","marketIds":["Raleigh-Durham"],"situsAddress":"3150 BAPTIST RD","situsCity":"DURHAM","situsZip":null,"jurisdictionCode":null,"ownerName":"MAJOR, RYAN J","ownerName2":null,"propertyName":null,"zoningCode":null,"zoningDistrict":null,"jurisdictionPrefix":null,"dorCode":null,"acreage":35.78,"centroid":[-78.731933,36.001036],"lastSale":{"date":null,"price":null,"qualified":null},"tax":{"marketValue":0.0,"assessedValue":0.0,"taxableValue":null,"taxes":null},"mailingAddress":{"line1":null,"line2":null,"city":null,"state":null,"zip":null},"incomeTract":null,"incomeBlockGroup":null,"nearestRoad":null,"flu":null,"opportunityZone":null,"oz2Eligibility":null,"source":"nc-onemap-37063"},"geometry":{"type":"Polygon","coordinates":[[[-78.73228,36.00324],[-78.73235,36.00232],[-78.73257,36.00211],[-78.73215,36.0013],[-78.73027,36.00129],[-78.73014,35.99888],[-78.73046,35.99677],[-78.73368,35.9978],[-78.73293,36.00337],[-78.7325,36.00328],[-78.73228,36.00324]]]}},{"type":"Feature","id":"37063:0882073313","properties":{"id":"37063:0882073313","parcelId":"0882073313","countyFips":"37063","countyName":"Durham","state":"North Carolina","marketIds":["Raleigh-Durham"],"situsAddress":"4398 BAPTIST RD","situsCity":"DURHAM","situsZip":null,"jurisdictionCode":null,"ownerName":"UNITED STATES OF AMERICA","ownerName2":null,"propertyName":null,"zoningCode":null,"zoningDistrict":null,"jurisdictionPrefix":null,"dorCode":null,"acreage":32.86,"centroid":[-78.728487,36.023619],"lastSale":{"date":null,"price":null,"qualified":null},"tax":{"marketValue":1364083.0,"assessedValue":1051520.0,"taxableValue":null,"taxes":null},"mailingAddress":{"line1":null,"line2":null,"city":null,"state":null,"zip":null},"incomeTract":null,"incomeBlockGroup":null,"nearestRoad":null,"flu":null,"opportunityZone":null,"oz2Eligibility":null,"source":"nc-onemap-37063"},"geometry":{"type":"Polygon","coordinates":[[[-78.72646,36.02275],[-78.72724,36.02265],[-78.72704,36.02001],[-78.72856,36.01982],[-78.72955,36.02238],[-78.72969,36.02236],[-78.72984,36.02274],[-78.72987,36.02376],[-78.73021,36.02571],[-78.72982,36.02571],[-78.72967,36.02583],[-78.72908,36.02564],[-78.72899,36.02543],[-78.72852,36.02519],[-78.72815,36.02472],[-78.72707,36.02422],[-78.72651,36.02334],[-78.7265,36.02289],[-78.72646,36.02275]]]}},{"type":"Feature","id":"37063:0882105675","properties":{"id":"37063:0882105675","parcelId":"0882105675","countyFips":"37063","countyName":"Durham","state":"North Carolina","marketIds":["Raleigh-Durham"],"situsAddress":"3600 BAPTIST RD","situsCity":"DURHAM","situsZip":null,"jurisdictionCode":null,"ownerName":"UNITED STATES OF AMERICA","ownerName2":null,"propertyName":null,"zoningCode":null,"zoningDistrict":null,"jurisdictionPrefix":null,"dorCode":null,"acreage":30.8,"centroid":[-78.725048,36.00469],"lastSale":{"date":null,"price":null,"qualified":null},"tax":{"marketValue":985600.0,"assessedValue":985600.0,"taxableValue":null,"taxes":null},"mailingAddress":{"line1":null,"line2":null,"city":null,"state":null,"zip":null},"incomeTract":null,"incomeBlockGroup":null,"nearestRoad":null,"flu":null,"opportunityZone":null,"oz2Eligibility":null,"source":"nc-onemap-37063"},"geometry":{"type":"Polygon","coordinates":[[[-78.72691,36.00589],[-78.72134,36.00518],[-78.721,36.00313],[-78.72653,36.00368],[-78.72698,36.00429],[-78.72753,36.00597],[-78.72691,36.00589]]]}},{"type":"Feature","id":"37063:0882208891","properties":{"id":"37063:0882208891","parcelId":"0882208891","countyFips":"37063","countyName":"Durham","state":"North Carolina","marketIds":["Raleigh-Durham"],"situsAddress":"3732 FALLS LAKE RD","situsCity":"DURHAM","situsZip":null,"jurisdictionCode":null,"ownerName":"UNITED STATES OF AMERICA","ownerName2":null,"propertyName":null,"zoningCode":null,"zoningDistrict":null,"jurisdictionPrefix":null,"dorCode":null,"acreage":29.79,"centroid":[-78.719353,36.004884],"lastSale":{"date":null,"price":null,"qualified":null},"tax":{"marketValue":953280.0,"assessedValue":953280.0,"taxableValue":null,"taxes":null},"mailingAddress":{"line1":null,"line2":null,"city":null,"state":null,"zip":null},"incomeTract":null,"incomeBlockGroup":null,"nearestRoad":null,"flu":null,"opportunityZone":null,"oz2Eligibility":null,"source":"nc-onemap-37063"},"geometry":{"type":"Polygon","coordinates":[[[-78.71928,36.00689],[-78.71845,36.00677],[-78.71825,36.00538],[-78.71853,36.00544],[-78.7184,36.00485],[-78.71816,36.0048],[-78.71785,36.0027],[-78.72012,36.00327],[-78.72041,36.00322],[-78.72021,36.00306],[-78.721,36.00313],[-78.72165,36.0071],[-78.71928,36.00688],[-78.71928,36.00689]]]}},{"type":"Feature","id":"37063:0881198890","properties":{"id":"37063:0881198890","parcelId":"0881198890","countyFips":"37063","countyName":"Durham","state":"North Carolina","marketIds":["Raleigh-Durham"],"situsAddress":"3533 BAPTIST RD","situsCity":"DURHAM","situsZip":null,"jurisdictionCode":null,"ownerName":"UNITED STATES OF AMERICA","ownerName2":null,"propertyName":null,"zoningCode":null,"zoningDistrict":null,"jurisdictionPrefix":null,"dorCode":null,"acreage":27.85,"centroid":[-78.722433,36.001735],"lastSale":{"date":null,"price":null,"qualified":null},"tax":{"marketValue":891200.0,"assessedValue":891200.0,"taxableValue":null,"taxes":null},"mailingAddress":{"line1":null,"line2":null,"city":null,"state":null,"zip":null},"incomeTract":null,"incomeBlockGroup":null,"nearestRoad":null,"flu":null,"opportunityZone":null,"oz2Eligibility":null,"source":"nc-onemap-37063"},"geometry":{"type":"Polygon","coordinates":[[[-78.721,36.00313],[-78.72069,36.00124],[-78.72092,36.00082],[-78.72126,36.00058],[-78.7242,36.00096],[-78.72653,36.00368],[-78.721,36.00313]]]}},{"type":"Feature","id":"37063:0882114366","properties":{"id":"37063:0882114366","parcelId":"0882114366","countyFips":"37063","countyName":"Durham","state":"North Carolina","marketIds":["Raleigh-Durham"],"situsAddress":"4300 BAPTIST RD","situsCity":"DURHAM","situsZip":null,"jurisdictionCode":null,"ownerName":"UNITED STATES OF AMERICA","ownerName2":null,"propertyName":null,"zoningCode":null,"zoningDistrict":null,"jurisdictionPrefix":null,"dorCode":null,"acreage":25.61,"centroid":[-78.724517,36.006843],"lastSale":{"date":null,"price":null,"qualified":null},"tax":{"marketValue":819520.0,"assessedValue":819520.0,"taxableValue":null,"taxes":null},"mailingAddress":{"line1":null,"line2":null,"city":null,"state":null,"zip":null},"incomeTract":null,"incomeBlockGroup":null,"nearestRoad":null,"flu":null,"opportunityZone":null,"oz2Eligibility":null,"source":"nc-onemap-37063"},"geometry":{"type":"Polygon","coordinates":[[[-78.72487,36.00748],[-78.72496,36.00693],[-78.72463,36.00689],[-78.72454,36.00744],[-78.72302,36.00724],[-78.72311,36.00671],[-78.72277,36.00667],[-78.72268,36.0072],[-78.72207,36.00714],[-78.72196,36.00646],[-78.72154,36.00641],[-78.72134,36.00518],[-78.72691,36.00589],[-78.727,36.00623],[-78.72764,36.00631],[-78.72793,36.0073],[-78.72692,36.00733],[-78.72703,36.00773],[-78.72491,36.00748],[-78.72487,36.00748]]]}},{"type":"Feature","id":"37063:0871491508","properties":{"id":"37063:0871491508","parcelId":"0871491508","countyFips":"37063","countyName":"Durham","state":"North Carolina","marketIds":["Raleigh-Durham"],"situsAddress":"2211 BAPTIST RD","situsCity":"DURHAM","situsZip":null,"jurisdictionCode":null,"ownerName":"RAUL AGUIRRE BERDUSCO TRUSTEE;RAUL AGUIRRE BERDUSCO REVOCABLE TRUST","ownerName2":null,"propertyName":null,"zoningCode":null,"zoningDistrict":null,"jurisdictionPrefix":null,"dorCode":null,"acreage":25.53,"centroid":[-78.749371,36.000539],"lastSale":{"date":null,"price":null,"qualified":null},"tax":{"marketValue":689475.0,"assessedValue":584540.0,"taxableValue":null,"taxes":null},"mailingAddress":{"line1":null,"line2":null,"city":null,"state":null,"zip":null},"incomeTract":null,"incomeBlockGroup":null,"nearestRoad":null,"flu":null,"opportunityZone":null,"oz2Eligibility":null,"source":"nc-onemap-37063"},"geometry":{"type":"MultiPolygon","coordinates":[[[[-78.75026,36.00314],[-78.74844,36.00312],[-78.74736,36.0018],[-78.74753,36.00056],[-78.74843,36.00053],[-78.74828,35.9999],[-78.74865,35.99982],[-78.74937,36.00106],[-78.7499,36.00086],[-78.74918,35.99961],[-78.74959,35.99934],[-78.75,36.00005],[-78.75036,35.99967],[-78.74996,35.99896],[-78.75014,35.99868],[-78.75014,35.99891],[-78.75172,36.00315],[-78.75026,36.00314]]],[[[-78.74852,35.99998],[-78.74874,36.00006],[-78.74869,35.99993],[-78.74852,35.99998]]]]}},{"type":"Feature","id":"37063:0882308606","properties":{"id":"37063:0882308606","parcelId":"0882308606","countyFips":"37063","countyName":"Durham","state":"North Carolina","marketIds":["Raleigh-Durham"],"situsAddress":"1788 FALLS LAKE RD","situsCity":"DURHAM","situsZip":null,"jurisdictionCode":null,"ownerName":"UNITED STATES OF AMERICA","ownerName2":null,"propertyName":null,"zoningCode":null,"zoningDistrict":null,"jurisdictionPrefix":null,"dorCode":null,"acreage":22.61,"centroid":[-78.71688,36.004304],"lastSale":{"date":null,"price":null,"qualified":null},"tax":{"marketValue":723520.0,"assessedValue":723520.0,"taxableValue":null,"taxes":null},"mailingAddress":{"line1":null,"line2":null,"city":null,"state":null,"zip":null},"incomeTract":null,"incomeBlockGroup":null,"nearestRoad":null,"flu":null,"opportunityZone":null,"oz2Eligibility":null,"source":"nc-onemap-37063"},"geometry":{"type":"Polygon","coordinates":[[[-78.71699,36.00658],[-78.71433,36.00406],[-78.71431,36.00391],[-78.71507,36.00345],[-78.71586,36.00333],[-78.71601,36.0034],[-78.71603,36.00322],[-78.71629,36.00308],[-78.71726,36.00292],[-78.71751,36.00306],[-78.71749,36.00279],[-78.71785,36.0027],[-78.71816,36.0048],[-78.7184,36.00485],[-78.71853,36.00544],[-78.71825,36.00538],[-78.71837,36.0062],[-78.71696,36.00601],[-78.71705,36.00659],[-78.71699,36.00658]]]}},{"type":"Feature","id":"37063:0871698923","properties":{"id":"37063:0871698923","parcelId":"0871698923","countyFips":"37063","countyName":"Durham","state":"North Carolina","marketIds":["Raleigh-Durham"],"situsAddress":"2778 BAPTIST RD","situsCity":"DURHAM","situsZip":null,"jurisdictionCode":null,"ownerName":"STANSELL, BLAKE H;STANSELL, JESSICA L","ownerName2":null,"propertyName":null,"zoningCode":null,"zoningDistrict":null,"jurisdictionPrefix":null,"dorCode":null,"acreage":20.54,"centroid":[-78.739732,36.002595],"lastSale":{"date":null,"price":null,"qualified":null},"tax":{"marketValue":430400.0,"assessedValue":430400.0,"taxableValue":null,"taxes":null},"mailingAddress":{"line1":null,"line2":null,"city":null,"state":null,"zip":null},"incomeTract":null,"incomeBlockGroup":null,"nearestRoad":null,"flu":null,"opportunityZone":null,"oz2Eligibility":null,"source":"nc-onemap-37063"},"geometry":{"type":"Polygon","coordinates":[[[-78.73957,36.00518],[-78.7399,36.00381],[-78.73988,36.002],[-78.73925,36.00179],[-78.73922,36.00159],[-78.73891,36.00138],[-78.73876,36.00102],[-78.73861,36.00095],[-78.74002,35.99971],[-78.74089,36.00047],[-78.74139,36.00527],[-78.74045,36.00534],[-78.73967,36.00522],[-78.73957,36.00518]]]}},{"type":"Feature","id":"37063:0872602172","properties":{"id":"37063:0872602172","parcelId":"0872602172","countyFips":"37063","countyName":"Durham","state":"North Carolina","marketIds":["Raleigh-Durham"],"situsAddress":"2600 BAPTIST RD","situsCity":"DURHAM","situsZip":null,"jurisdictionCode":null,"ownerName":"PORTERFIELD, NATE W","ownerName2":null,"propertyName":null,"zoningCode":null,"zoningDistrict":null,"jurisdictionPrefix":null,"dorCode":null,"acreage":18.29,"centroid":[-78.742182,36.00345],"lastSale":{"date":null,"price":null,"qualified":null},"tax":{"marketValue":1881063.0,"assessedValue":490800.0,"taxableValue":null,"taxes":null},"mailingAddress":{"line1":null,"line2":null,"city":null,"state":null,"zip":null},"incomeTract":null,"incomeBlockGroup":null,"nearestRoad":null,"flu":null,"opportunityZone":null,"oz2Eligibility":null,"source":"nc-onemap-37063"},"geometry":{"type":"Polygon","coordinates":[[[-78.74089,36.00047],[-78.744,36.00322],[-78.74245,36.00484],[-78.74139,36.00527],[-78.74089,36.00047]]]}},{"type":"Feature","id":"37063:0872807935","properties":{"id":"37063:0872807935","parcelId":"0872807935","countyFips":"37063","countyName":"Durham","state":"North Carolina","marketIds":["Raleigh-Durham"],"situsAddress":"3093 BAPTIST RD","situsCity":"DURHAM","situsZip":null,"jurisdictionCode":null,"ownerName":"ROGERS, KATHERINE MILDRED;ROGERS, JOHN CYRUS;ROGERS, KARINA M","ownerName2":null,"propertyName":null,"zoningCode":null,"zoningDistrict":null,"jurisdictionPrefix":null,"dorCode":null,"acreage":18.2,"centroid":[-78.734139,36.006076],"lastSale":{"date":null,"price":null,"qualified":null},"tax":{"marketValue":759927.0,"assessedValue":384000.0,"taxableValue":null,"taxes":null},"mailingAddress":{"line1":null,"line2":null,"city":null,"state":null,"zip":null},"incomeTract":null,"incomeBlockGroup":null,"nearestRoad":null,"flu":null,"opportunityZone":null,"oz2Eligibility":null,"source":"nc-onemap-37063"},"geometry":{"type":"Polygon","coordinates":[[[-78.73251,36.00663],[-78.7329,36.00354],[-78.73575,36.00416],[-78.73455,36.00589],[-78.73449,36.00656],[-78.73433,36.00651],[-78.73424,36.00761],[-78.73434,36.00771],[-78.73251,36.00663]]]}},{"type":"Feature","id":"37063:0872810134","properties":{"id":"37063:0872810134","parcelId":"0872810134","countyFips":"37063","countyName":"Durham","state":"North Carolina","marketIds":["Raleigh-Durham"],"situsAddress":"3001 BAPTIST RD","situsCity":"DURHAM","situsZip":null,"jurisdictionCode":null,"ownerName":"KEVIN JOHN MCVICKER AND RITA KARIN MCVICKER REVOCABLE TRUST","ownerName2":null,"propertyName":null,"zoningCode":null,"zoningDistrict":null,"jurisdictionPrefix":null,"dorCode":null,"acreage":17.92,"centroid":[-78.736056,36.006617],"lastSale":{"date":null,"price":null,"qualified":null},"tax":{"marketValue":799216.0,"assessedValue":483400.0,"taxableValue":null,"taxes":null},"mailingAddress":{"line1":null,"line2":null,"city":null,"state":null,"zip":null},"incomeTract":null,"incomeBlockGroup":null,"nearestRoad":null,"flu":null,"opportunityZone":null,"oz2Eligibility":null,"source":"nc-onemap-37063"},"geometry":{"type":"Polygon","coordinates":[[[-78.73725,36.00854],[-78.73647,36.00631],[-78.73565,36.00805],[-78.73567,36.00704],[-78.73448,36.00667],[-78.73455,36.00589],[-78.73575,36.00416],[-78.73728,36.0043],[-78.7374,36.00859],[-78.73725,36.00854]]]}},{"type":"Feature","id":"37063:0872903770","properties":{"id":"37063:0872903770","parcelId":"0872903770","countyFips":"37063","countyName":"Durham","state":"North Carolina","marketIds":["Raleigh-Durham"],"situsAddress":"3227 BAPTIST RD","situsCity":"DURHAM","situsZip":null,"jurisdictionCode":null,"ownerName":"VANDERGRIFF, HENRY W;VANDERGRIFF, LINDA D","ownerName2":null,"propertyName":null,"zoningCode":null,"zoningDistrict":null,"jurisdictionPrefix":null,"dorCode":null,"acreage":15.51,"centroid":[-78.731556,36.00446],"lastSale":{"date":null,"price":null,"qualified":null},"tax":{"marketValue":330200.0,"assessedValue":330200.0,"taxableValue":null,"taxes":null},"mailingAddress":{"line1":null,"line2":null,"city":null,"state":null,"zip":null},"incomeTract":null,"incomeBlockGroup":null,"nearestRoad":null,"flu":null,"opportunityZone":null,"oz2Eligibility":null,"source":"nc-onemap-37063"},"geometry":{"type":"Polygon","coordinates":[[[-78.73038,36.00537],[-78.73034,36.00343],[-78.73165,36.00333],[-78.7329,36.00354],[-78.73251,36.00663],[-78.73038,36.00537]]]}},{"type":"Feature","id":"37063:0872914755","properties":{"id":"37063:0872914755","parcelId":"0872914755","countyFips":"37063","countyName":"Durham","state":"North Carolina","marketIds":["Raleigh-Durham"],"situsAddress":"3269 BAPTIST RD","situsCity":"DURHAM","situsZip":null,"jurisdictionCode":null,"ownerName":"UNITED STATES OF AMERICA","ownerName2":null,"propertyName":null,"zoningCode":null,"zoningDistrict":null,"jurisdictionPrefix":null,"dorCode":null,"acreage":15.22,"centroid":[-78.731372,36.007667],"lastSale":{"date":null,"price":null,"qualified":null},"tax":{"marketValue":487040.0,"assessedValue":487040.0,"taxableValue":null,"taxes":null},"mailingAddress":{"line1":null,"line2":null,"city":null,"state":null,"zip":null},"incomeTract":null,"incomeBlockGroup":null,"nearestRoad":null,"flu":null,"opportunityZone":null,"oz2Eligibility":null,"source":"nc-onemap-37063"},"geometry":{"type":"Polygon","coordinates":[[[-78.73038,36.00537],[-78.73251,36.00663],[-78.73204,36.00964],[-78.73056,36.00903],[-78.73038,36.00537]]]}},{"type":"Feature","id":"37063:0871795908","properties":{"id":"37063:0871795908","parcelId":"0871795908","countyFips":"37063","countyName":"Durham","state":"North Carolina","marketIds":["Raleigh-Durham"],"situsAddress":"2956 BAPTIST RD","situsCity":"DURHAM","situsZip":null,"jurisdictionCode":null,"ownerName":"DUCHNOWSKI, JOHN M;DUCHNOWSKI, KATIE D","ownerName2":null,"propertyName":null,"zoningCode":null,"zoningDistrict":null,"jurisdictionPrefix":null,"dorCode":null,"acreage":14.01,"centroid":[-78.737818,36.002759],"lastSale":{"date":null,"price":null,"qualified":null},"tax":{"marketValue":1343283.0,"assessedValue":405000.0,"taxableValue":null,"taxes":null},"mailingAddress":{"line1":null,"line2":null,"city":null,"state":null,"zip":null},"incomeTract":null,"incomeBlockGroup":null,"nearestRoad":null,"flu":null,"opportunityZone":null,"oz2Eligibility":null,"source":"nc-onemap-37063"},"geometry":{"type":"Polygon","coordinates":[[[-78.73632,36.00403],[-78.73696,36.00304],[-78.73657,36.003],[-78.7373,36.00204],[-78.73861,36.00095],[-78.73873,36.00099],[-78.73889,36.00136],[-78.73949,36.00193],[-78.73858,36.00387],[-78.73793,36.00364],[-78.73767,36.0042],[-78.73677,36.00406],[-78.73632,36.00403]]]}},{"type":"Feature","id":"37063:0872422615","properties":{"id":"37063:0872422615","parcelId":"0872422615","countyFips":"37063","countyName":"Durham","state":"North Carolina","marketIds":["Raleigh-Durham"],"situsAddress":"2577 BAPTIST RD","situsCity":"DURHAM","situsZip":null,"jurisdictionCode":null,"ownerName":"WELLES FAMILY LLC","ownerName2":null,"propertyName":null,"zoningCode":null,"zoningDistrict":null,"jurisdictionPrefix":null,"dorCode":null,"acreage":11.98,"centroid":[-78.749816,36.00992],"lastSale":{"date":null,"price":null,"qualified":null},"tax":{"marketValue":243730.0,"assessedValue":242825.0,"taxableValue":null,"taxes":null},"mailingAddress":{"line1":null,"line2":null,"city":null,"state":null,"zip":null},"incomeTract":null,"incomeBlockGroup":null,"nearestRoad":null,"flu":null,"opportunityZone":null,"oz2Eligibility":null,"source":"nc-onemap-37063"},"geometry":{"type":"Polygon","coordinates":[[[-78.75033,36.00869],[-78.75085,36.00869],[-78.75085,36.0091],[-78.75049,36.0091],[-78.75056,36.00925],[-78.74996,36.00951],[-78.74976,36.00989],[-78.74955,36.00989],[-78.74958,36.01049],[-78.7503,36.0105],[-78.75097,36.00997],[-78.75129,36.01004],[-78.75143,36.01075],[-78.75022,36.01087],[-78.74942,36.01058],[-78.74864,36.00963],[-78.74785,36.01003],[-78.74869,36.01147],[-78.74753,36.01178],[-78.74754,36.00905],[-78.75033,36.00904],[-78.75033,36.00869]]]}},{"type":"Feature","id":"37063:0872829068","properties":{"id":"37063:0872829068","parcelId":"0872829068","countyFips":"37063","countyName":"Durham","state":"North Carolina","marketIds":["Raleigh-Durham"],"situsAddress":"3159 BAPTIST RD","situsCity":"DURHAM","situsZip":null,"jurisdictionCode":null,"ownerName":"UNITED STATES OF AMERICA","ownerName2":null,"propertyName":null,"zoningCode":null,"zoningDistrict":null,"jurisdictionPrefix":null,"dorCode":null,"acreage":11.43,"centroid":[-78.733222,36.008552],"lastSale":{"date":null,"price":null,"qualified":null},"tax":{"marketValue":365760.0,"assessedValue":365760.0,"taxableValue":null,"taxes":null},"mailingAddress":{"line1":null,"line2":null,"city":null,"state":null,"zip":null},"incomeTract":null,"incomeBlockGroup":null,"nearestRoad":null,"flu":null,"opportunityZone":null,"oz2Eligibility":null,"source":"nc-onemap-37063"},"geometry":{"type":"Polygon","coordinates":[[[-78.73204,36.00964],[-78.73251,36.00663],[-78.73434,36.00771],[-78.73364,36.00851],[-78.73358,36.01027],[-78.73204,36.00964]]]}},{"type":"Feature","id":"37063:0872614969","properties":{"id":"37063:0872614969","parcelId":"0872614969","countyFips":"37063","countyName":"Durham","state":"North Carolina","marketIds":["Raleigh-Durham"],"situsAddress":"2715 BAPTIST RD","situsCity":"DURHAM","situsZip":null,"jurisdictionCode":null,"ownerName":"MILAM, TREENA L;MILAM, ANDREW","ownerName2":null,"propertyName":null,"zoningCode":null,"zoningDistrict":null,"jurisdictionPrefix":null,"dorCode":null,"acreage":11.25,"centroid":[-78.741364,36.007646],"lastSale":{"date":null,"price":null,"qualified":null},"tax":{"marketValue":320558.0,"assessedValue":318750.0,"taxableValue":null,"taxes":null},"mailingAddress":{"line1":null,"line2":null,"city":null,"state":null,"zip":null},"incomeTract":null,"incomeBlockGroup":null,"nearestRoad":null,"flu":null,"opportunityZone":null,"oz2Eligibility":null,"source":"nc-onemap-37063"},"geometry":{"type":"Polygon","coordinates":[[[-78.74084,36.00966],[-78.74075,36.00551],[-78.74114,36.00548],[-78.74132,36.00612],[-78.74117,36.00724],[-78.74208,36.00724],[-78.74245,36.01016],[-78.74116,36.00976],[-78.74084,36.00966]]]}},{"type":"Feature","id":"37063:0872434629","properties":{"id":"37063:0872434629","parcelId":"0872434629","countyFips":"37063","countyName":"Durham","state":"North Carolina","marketIds":["Raleigh-Durham"],"situsAddress":"2517 BAPTIST RD","situsCity":"DURHAM","situsZip":null,"jurisdictionCode":null,"ownerName":"COLLINS, DOUGLAS NEAL;COLLINS, PHYLLIS MCKOIN","ownerName2":null,"propertyName":null,"zoningCode":null,"zoningDistrict":null,"jurisdictionPrefix":null,"dorCode":null,"acreage":9.82,"centroid":[-78.748346,36.013263],"lastSale":{"date":null,"price":null,"qualified":null},"tax":{"marketValue":229358.0,"assessedValue":229358.0,"taxableValue":null,"taxes":null},"mailingAddress":{"line1":null,"line2":null,"city":null,"state":null,"zip":null},"incomeTract":null,"incomeBlockGroup":null,"nearestRoad":null,"flu":null,"opportunityZone":null,"oz2Eligibility":null,"source":"nc-onemap-37063"},"geometry":{"type":"Polygon","coordinates":[[[-78.74816,36.01386],[-78.74732,36.01342],[-78.74753,36.01178],[-78.74869,36.01147],[-78.74951,36.01403],[-78.74895,36.01436],[-78.74826,36.01392],[-78.74816,36.01386]]]}},{"type":"Feature","id":"37063:0871994871","properties":{"id":"37063:0871994871","parcelId":"0871994871","countyFips":"37063","countyName":"Durham","state":"North Carolina","marketIds":["Raleigh-Durham"],"situsAddress":"3208 BAPTIST RD","situsCity":"DURHAM","situsZip":null,"jurisdictionCode":null,"ownerName":"SMITH, MICHAEL ARNETT;ODOM, RUTH ELLEN","ownerName2":null,"propertyName":null,"zoningCode":null,"zoningDistrict":null,"jurisdictionPrefix":null,"dorCode":null,"acreage":9.52,"centroid":[-78.731458,36.002247],"lastSale":{"date":null,"price":null,"qualified":null},"tax":{"marketValue":789028.0,"assessedValue":315400.0,"taxableValue":null,"taxes":null},"mailingAddress":{"line1":null,"line2":null,"city":null,"state":null,"zip":null},"incomeTract":null,"incomeBlockGroup":null,"nearestRoad":null,"flu":null,"opportunityZone":null,"oz2Eligibility":null,"source":"nc-onemap-37063"},"geometry":{"type":"Polygon","coordinates":[[[-78.73027,36.00129],[-78.73215,36.0013],[-78.73257,36.00211],[-78.73235,36.00232],[-78.73228,36.00324],[-78.7314,36.00317],[-78.73037,36.00325],[-78.73027,36.0013],[-78.73027,36.00129]]]}},{"type":"Feature","id":"37063:0872701353","properties":{"id":"37063:0872701353","parcelId":"0872701353","countyFips":"37063","countyName":"Durham","state":"North Carolina","marketIds":["Raleigh-Durham"],"situsAddress":"2914 BAPTIST RD","situsCity":"DURHAM","situsZip":null,"jurisdictionCode":null,"ownerName":"VOLLER, NORMAN REED;VOLLER, REBECCA ANN","ownerName2":null,"propertyName":null,"zoningCode":null,"zoningDistrict":null,"jurisdictionPrefix":null,"dorCode":null,"acreage":8.24,"centroid":[-78.738857,36.003609],"lastSale":{"date":null,"price":null,"qualified":null},"tax":{"marketValue":543315.0,"assessedValue":289800.0,"taxableValue":null,"taxes":null},"mailingAddress":{"line1":null,"line2":null,"city":null,"state":null,"zip":null},"incomeTract":null,"incomeBlockGroup":null,"nearestRoad":null,"flu":null,"opportunityZone":null,"oz2Eligibility":null,"source":"nc-onemap-37063"},"geometry":{"type":"Polygon","coordinates":[[[-78.73767,36.0042],[-78.73793,36.00364],[-78.73858,36.00387],[-78.73949,36.00193],[-78.73988,36.002],[-78.7399,36.00381],[-78.73957,36.00518],[-78.73784,36.00424],[-78.73767,36.0042]]]}},{"type":"Feature","id":"37063:0872712686","properties":{"id":"37063:0872712686","parcelId":"0872712686","countyFips":"37063","countyName":"Durham","state":"North Carolina","marketIds":["Raleigh-Durham"],"situsAddress":"2783 BAPTIST RD","situsCity":"DURHAM","situsZip":null,"jurisdictionCode":null,"ownerName":"MORRISON, JAY;MORRISON, AMANDA","ownerName2":null,"propertyName":null,"zoningCode":null,"zoningDistrict":null,"jurisdictionPrefix":null,"dorCode":null,"acreage":8.16,"centroid":[-78.738693,36.007157],"lastSale":{"date":null,"price":null,"qualified":null},"tax":{"marketValue":275700.0,"assessedValue":275700.0,"taxableValue":null,"taxes":null},"mailingAddress":{"line1":null,"line2":null,"city":null,"state":null,"zip":null},"incomeTract":null,"incomeBlockGroup":null,"nearestRoad":null,"flu":null,"opportunityZone":null,"oz2Eligibility":null,"source":"nc-onemap-37063"},"geometry":{"type":"Polygon","coordinates":[[[-78.73808,36.0088],[-78.73801,36.00656],[-78.7389,36.0063],[-78.73925,36.00521],[-78.73957,36.00536],[-78.73893,36.00906],[-78.73811,36.00881],[-78.73808,36.0088]]]}},{"type":"Feature","id":"37063:0881095468","properties":{"id":"37063:0881095468","parcelId":"0881095468","countyFips":"37063","countyName":"Durham","state":"North Carolina","marketIds":["Raleigh-Durham"],"situsAddress":"1822 WENTZ DR","situsCity":"DURHAM","situsZip":null,"jurisdictionCode":null,"ownerName":"KEMP, ELSIE R;DAVID, W","ownerName2":null,"propertyName":null,"zoningCode":null,"zoningDistrict":null,"jurisdictionPrefix":null,"dorCode":null,"acreage":8.13,"centroid":[-78.727596,36.00146],"lastSale":{"date":null,"price":null,"qualified":null},"tax":{"marketValue":376718.0,"assessedValue":287600.0,"taxableValue":null,"taxes":null},"mailingAddress":{"line1":null,"line2":null,"city":null,"state":null,"zip":null},"incomeTract":null,"incomeBlockGroup":null,"nearestRoad":null,"flu":null,"opportunityZone":null,"oz2Eligibility":null,"source":"nc-onemap-37063"},"geometry":{"type":"Polygon","coordinates":[[[-78.72736,36.00209],[-78.72663,35.99987],[-78.72771,35.99978],[-78.72866,36.00266],[-78.72762,36.0029],[-78.72736,36.00209]]]}},{"type":"Feature","id":"37063:0881298893","properties":{"id":"37063:0881298893","parcelId":"0881298893","countyFips":"37063","countyName":"Durham","state":"North Carolina","marketIds":["Raleigh-Durham"],"situsAddress":"0 BOYCE MILL RD","situsCity":"DURHAM","situsZip":null,"jurisdictionCode":null,"ownerName":"UNITED STATES OF AMERICA","ownerName2":null,"propertyName":null,"zoningCode":null,"zoningDistrict":null,"jurisdictionPrefix":null,"dorCode":null,"acreage":7.56,"centroid":[-78.719611,36.002137],"lastSale":{"date":null,"price":null,"qualified":null},"tax":{"marketValue":241920.0,"assessedValue":241920.0,"taxableValue":null,"taxes":null},"mailingAddress":{"line1":null,"line2":null,"city":null,"state":null,"zip":null},"incomeTract":null,"incomeBlockGroup":null,"nearestRoad":null,"flu":null,"opportunityZone":null,"oz2Eligibility":null,"source":"nc-onemap-37063"},"geometry":{"type":"Polygon","coordinates":[[[-78.72021,36.00306],[-78.71815,36.00228],[-78.71768,36.00189],[-78.71943,36.00178],[-78.72012,36.00158],[-78.72069,36.00124],[-78.721,36.00313],[-78.72021,36.00306]]]}},{"type":"Feature","id":"37063:0872715387","properties":{"id":"37063:0872715387","parcelId":"0872715387","countyFips":"37063","countyName":"Durham","state":"North Carolina","marketIds":["Raleigh-Durham"],"situsAddress":"2911 BAPTIST RD","situsCity":"DURHAM","situsZip":null,"jurisdictionCode":null,"ownerName":"RICHARD R WITSKA TRUSTEE;RONALD L WITSKA TRUSTEE;THE ARENAL ASSET MANAGEMENT TRUST","ownerName2":null,"propertyName":null,"zoningCode":null,"zoningDistrict":null,"jurisdictionPrefix":null,"dorCode":null,"acreage":7.12,"centroid":[-78.737677,36.006538],"lastSale":{"date":null,"price":null,"qualified":null},"tax":{"marketValue":947726.0,"assessedValue":267400.0,"taxableValue":null,"taxes":null},"mailingAddress":{"line1":null,"line2":null,"city":null,"state":null,"zip":null},"incomeTract":null,"incomeBlockGroup":null,"nearestRoad":null,"flu":null,"opportunityZone":null,"oz2Eligibility":null,"source":"nc-onemap-37063"},"geometry":{"type":"Polygon","coordinates":[[[-78.7374,36.00859],[-78.73728,36.0043],[-78.73795,36.00446],[-78.73808,36.0088],[-78.7374,36.00859]]]}},{"type":"Feature","id":"37063:0881192220","properties":{"id":"37063:0881192220","parcelId":"0881192220","countyFips":"37063","countyName":"Durham","state":"North Carolina","marketIds":["Raleigh-Durham"],"situsAddress":"3530 BAPTIST RD","situsCity":"DURHAM","situsZip":null,"jurisdictionCode":null,"ownerName":"UNITED STATES OF AMERICA","ownerName2":null,"propertyName":null,"zoningCode":null,"zoningDistrict":null,"jurisdictionPrefix":null,"dorCode":null,"acreage":6.72,"centroid":[-78.72529,36.000432],"lastSale":{"date":null,"price":null,"qualified":null},"tax":{"marketValue":215040.0,"assessedValue":215040.0,"taxableValue":null,"taxes":null},"mailingAddress":{"line1":null,"line2":null,"city":null,"state":null,"zip":null},"incomeTract":null,"incomeBlockGroup":null,"nearestRoad":null,"flu":null,"opportunityZone":null,"oz2Eligibility":null,"source":"nc-onemap-37063"},"geometry":{"type":"Polygon","coordinates":[[[-78.72407,36.00013],[-78.72663,35.99987],[-78.72686,36.00056],[-78.72482,36.00147],[-78.72407,36.00013],[-78.72407,36.00013]]]}},{"type":"Feature","id":"37063:0872502045","properties":{"id":"37063:0872502045","parcelId":"0872502045","countyFips":"37063","countyName":"Durham","state":"North Carolina","marketIds":["Raleigh-Durham"],"situsAddress":"2445 BAPTIST RD","situsCity":"DURHAM","situsZip":null,"jurisdictionCode":null,"ownerName":"DUKE ENERGY PROGRESS INC","ownerName2":null,"propertyName":null,"zoningCode":null,"zoningDistrict":null,"jurisdictionPrefix":null,"dorCode":null,"acreage":6.45,"centroid":[-78.74576,36.003043],"lastSale":{"date":null,"price":null,"qualified":null},"tax":{"marketValue":205380.0,"assessedValue":205380.0,"taxableValue":null,"taxes":null},"mailingAddress":{"line1":null,"line2":null,"city":null,"state":null,"zip":null},"incomeTract":null,"incomeBlockGroup":null,"nearestRoad":null,"flu":null,"opportunityZone":null,"oz2Eligibility":null,"source":"nc-onemap-37063"},"geometry":{"type":"Polygon","coordinates":[[[-78.74426,36.0032],[-78.74501,36.00214],[-78.74706,36.00256],[-78.74708,36.00315],[-78.74552,36.00319],[-78.74563,36.00402],[-78.74426,36.0032]]]}},{"type":"Feature","id":"37063:0871498881","properties":{"id":"37063:0871498881","parcelId":"0871498881","countyFips":"37063","countyName":"Durham","state":"North Carolina","marketIds":["Raleigh-Durham"],"situsAddress":"2419 BAPTIST RD","situsCity":"DURHAM","situsZip":null,"jurisdictionCode":null,"ownerName":"WRENN, JAMIE W","ownerName2":null,"propertyName":null,"zoningCode":null,"zoningDistrict":null,"jurisdictionPrefix":null,"dorCode":null,"acreage":6.34,"centroid":[-78.746554,36.002203],"lastSale":{"date":null,"price":null,"qualified":null},"tax":{"marketValue":277506.0,"assessedValue":251800.0,"taxableValue":null,"taxes":null},"mailingAddress":{"line1":null,"line2":null,"city":null,"state":null,"zip":null},"incomeTract":null,"incomeBlockGroup":null,"nearestRoad":null,"flu":null,"opportunityZone":null,"oz2Eligibility":null,"source":"nc-onemap-37063"},"geometry":{"type":"Polygon","coordinates":[[[-78.74501,36.00214],[-78.74536,36.00164],[-78.74589,36.00186],[-78.74623,36.00135],[-78.74736,36.0018],[-78.74844,36.00312],[-78.74708,36.00315],[-78.74706,36.00256],[-78.74501,36.00214]]]}},{"type":"Feature","id":"37063:0872909585","properties":{"id":"37063:0872909585","parcelId":"0872909585","countyFips":"37063","countyName":"Durham","state":"North Carolina","marketIds":["Raleigh-Durham"],"situsAddress":"3305 BAPTIST RD","situsCity":"DURHAM","situsZip":null,"jurisdictionCode":null,"ownerName":"STONE, JASON","ownerName2":null,"propertyName":null,"zoningCode":null,"zoningDistrict":null,"jurisdictionPrefix":null,"dorCode":null,"acreage":5.61,"centroid":[-78.729772,36.004047],"lastSale":{"date":null,"price":null,"qualified":null},"tax":{"marketValue":450206.0,"assessedValue":237200.0,"taxableValue":null,"taxes":null},"mailingAddress":{"line1":null,"line2":null,"city":null,"state":null,"zip":null},"incomeTract":null,"incomeBlockGroup":null,"nearestRoad":null,"flu":null,"opportunityZone":null,"oz2Eligibility":null,"source":"nc-onemap-37063"},"geometry":{"type":"Polygon","coordinates":[[[-78.73034,36.00343],[-78.73038,36.00537],[-78.72803,36.00396],[-78.73034,36.00343],[-78.73034,36.00343]]]}},{"type":"Feature","id":"37063:0872710744","properties":{"id":"37063:0872710744","parcelId":"0872710744","countyFips":"37063","countyName":"Durham","state":"North Carolina","marketIds":["Raleigh-Durham"],"situsAddress":"2767 BAPTIST RD","situsCity":"DURHAM","situsZip":null,"jurisdictionCode":null,"ownerName":"UNITED STATES OF AMERICA","ownerName2":null,"propertyName":null,"zoningCode":null,"zoningDistrict":null,"jurisdictionPrefix":null,"dorCode":null,"acreage":5.57,"centroid":[-78.739414,36.00765],"lastSale":{"date":null,"price":null,"qualified":null},"tax":{"marketValue":178240.0,"assessedValue":178240.0,"taxableValue":null,"taxes":null},"mailingAddress":{"line1":null,"line2":null,"city":null,"state":null,"zip":null},"incomeTract":null,"incomeBlockGroup":null,"nearestRoad":null,"flu":null,"opportunityZone":null,"oz2Eligibility":null,"source":"nc-onemap-37063"},"geometry":{"type":"Polygon","coordinates":[[[-78.73893,36.00906],[-78.73957,36.00536],[-78.73992,36.00546],[-78.73973,36.00931],[-78.73892,36.00906],[-78.73893,36.00906]]]}},{"type":"Feature","id":"37063:0872618769","properties":{"id":"37063:0872618769","parcelId":"0872618769","countyFips":"37063","countyName":"Durham","state":"North Carolina","marketIds":["Raleigh-Durham"],"situsAddress":"2749 BAPTIST RD","situsCity":"DURHAM","situsZip":null,"jurisdictionCode":null,"ownerName":"STATE OF NORTH CAROLINA","ownerName2":null,"propertyName":null,"zoningCode":null,"zoningDistrict":null,"jurisdictionPrefix":null,"dorCode":null,"acreage":5.53,"centroid":[-78.740107,36.007455],"lastSale":{"date":null,"price":null,"qualified":null},"tax":{"marketValue":223100.0,"assessedValue":223100.0,"taxableValue":null,"taxes":null},"mailingAddress":{"line1":null,"line2":null,"city":null,"state":null,"zip":null},"incomeTract":null,"incomeBlockGroup":null,"nearestRoad":null,"flu":null,"opportunityZone":null,"oz2Eligibility":null,"source":"nc-onemap-37063"},"geometry":{"type":"Polygon","coordinates":[[[-78.73973,36.00931],[-78.73992,36.00546],[-78.74028,36.0055],[-78.7405,36.00955],[-78.73973,36.00931]]]}},{"type":"Feature","id":"37063:0881190514","properties":{"id":"37063:0881190514","parcelId":"0881190514","countyFips":"37063","countyName":"Durham","state":"North Carolina","marketIds":["Raleigh-Durham"],"situsAddress":"3520 BAPTIST RD","situsCity":"DURHAM","situsZip":null,"jurisdictionCode":null,"ownerName":"UNITED STATES OF AMERICA","ownerName2":null,"propertyName":null,"zoningCode":null,"zoningDistrict":null,"jurisdictionPrefix":null,"dorCode":null,"acreage":5.45,"centroid":[-78.725858,36.001494],"lastSale":{"date":null,"price":null,"qualified":null},"tax":{"marketValue":242400.0,"assessedValue":242400.0,"taxableValue":null,"taxes":null},"mailingAddress":{"line1":null,"line2":null,"city":null,"state":null,"zip":null},"incomeTract":null,"incomeBlockGroup":null,"nearestRoad":null,"flu":null,"opportunityZone":null,"oz2Eligibility":null,"source":"nc-onemap-37063"},"geometry":{"type":"Polygon","coordinates":[[[-78.72482,36.00147],[-78.72686,36.00056],[-78.7272,36.00163],[-78.72558,36.00233],[-78.72483,36.00148],[-78.72482,36.00147]]]}},{"type":"Feature","id":"37063:0872506604","properties":{"id":"37063:0872506604","parcelId":"0872506604","countyFips":"37063","countyName":"Durham","state":"North Carolina","marketIds":["Raleigh-Durham"],"situsAddress":"2661 BAPTIST RD","situsCity":"DURHAM","situsZip":null,"jurisdictionCode":null,"ownerName":"KELLER, DOROTHY C EST","ownerName2":null,"propertyName":null,"zoningCode":null,"zoningDistrict":null,"jurisdictionPrefix":null,"dorCode":null,"acreage":5.43,"centroid":[-78.744577,36.00459],"lastSale":{"date":null,"price":null,"qualified":null},"tax":{"marketValue":233600.0,"assessedValue":233600.0,"taxableValue":null,"taxes":null},"mailingAddress":{"line1":null,"line2":null,"city":null,"state":null,"zip":null},"incomeTract":null,"incomeBlockGroup":null,"nearestRoad":null,"flu":null,"opportunityZone":null,"oz2Eligibility":null,"source":"nc-onemap-37063"},"geometry":{"type":"Polygon","coordinates":[[[-78.74292,36.00465],[-78.74386,36.00365],[-78.74573,36.00476],[-78.7458,36.0053],[-78.74292,36.00465]]]}},{"type":"Feature","id":"37063:0872422846","properties":{"id":"37063:0872422846","parcelId":"0872422846","countyFips":"37063","countyName":"Durham","state":"North Carolina","marketIds":["Raleigh-Durham"],"situsAddress":"2513 BAPTIST RD","situsCity":"DURHAM","situsZip":null,"jurisdictionCode":null,"ownerName":"UNITED STATES OF AMERICA","ownerName2":null,"propertyName":null,"zoningCode":null,"zoningDistrict":null,"jurisdictionPrefix":null,"dorCode":null,"acreage":5.25,"centroid":[-78.74932,36.01057],"lastSale":{"date":null,"price":null,"qualified":null},"tax":{"marketValue":168000.0,"assessedValue":168000.0,"taxableValue":null,"taxes":null},"mailingAddress":{"line1":null,"line2":null,"city":null,"state":null,"zip":null},"incomeTract":null,"incomeBlockGroup":null,"nearestRoad":null,"flu":null,"opportunityZone":null,"oz2Eligibility":null,"source":"nc-onemap-37063"},"geometry":{"type":"Polygon","coordinates":[[[-78.7511,36.01084],[-78.74869,36.01147],[-78.74785,36.01003],[-78.74864,36.00963],[-78.74942,36.01058],[-78.75022,36.01087],[-78.7511,36.01084]]]}},{"type":"Feature","id":"37063:0882007132","properties":{"id":"37063:0882007132","parcelId":"0882007132","countyFips":"37063","countyName":"Durham","state":"North Carolina","marketIds":["Raleigh-Durham"],"situsAddress":"3430 BAPTIST RD","situsCity":"DURHAM","situsZip":null,"jurisdictionCode":null,"ownerName":"UNITED STATES OF AMERICA","ownerName2":null,"propertyName":null,"zoningCode":null,"zoningDistrict":null,"jurisdictionPrefix":null,"dorCode":null,"acreage":5.11,"centroid":[-78.726838,36.003076],"lastSale":{"date":null,"price":null,"qualified":null},"tax":{"marketValue":163520.0,"assessedValue":163520.0,"taxableValue":null,"taxes":null},"mailingAddress":{"line1":null,"line2":null,"city":null,"state":null,"zip":null},"incomeTract":null,"incomeBlockGroup":null,"nearestRoad":null,"flu":null,"opportunityZone":null,"oz2Eligibility":null,"source":"nc-onemap-37063"},"geometry":{"type":"Polygon","coordinates":[[[-78.72593,36.00272],[-78.72736,36.00209],[-78.72792,36.00382],[-78.72705,36.00402],[-78.72593,36.00273],[-78.72593,36.00272]]]}}]}