{"type":"FeatureCollection","name":"37197-8_37","features":[{"type":"Feature","id":"37197:497200615788","properties":{"id":"37197:497200615788","parcelId":"497200615788","countyFips":"37197","countyName":"Yadkin","state":"North Carolina","marketIds":["Winston-Salem"],"situsAddress":"4940 LYNN DR","situsCity":null,"situsZip":null,"jurisdictionCode":null,"ownerName":"ROSE DALE E ET UX  ROSE LYNN H","ownerName2":null,"propertyName":null,"zoningCode":null,"zoningDistrict":null,"jurisdictionPrefix":null,"dorCode":null,"acreage":105.078,"centroid":[-80.774075,36.269706],"lastSale":{"date":null,"price":null,"qualified":null},"tax":{"marketValue":353312.0,"assessedValue":75673.0,"taxableValue":null,"taxes":null},"mailingAddress":{"line1":null,"line2":null,"city":null,"state":null,"zip":null},"incomeTract":null,"incomeBlockGroup":null,"nearestRoad":null,"flu":null,"opportunityZone":null,"oz2Eligibility":null,"source":"nc-onemap-37197"},"geometry":{"type":"Polygon","coordinates":[[[-80.7713,36.26663],[-80.76946,36.26585],[-80.76947,36.26512],[-80.77972,36.26786],[-80.7795,36.26971],[-80.77848,36.27155],[-80.77775,36.27225],[-80.77678,36.27263],[-80.77586,36.2735],[-80.77517,36.27387],[-80.77335,36.27146],[-80.77245,36.27155],[-80.77296,36.27058],[-80.77296,36.27017],[-80.77139,36.26806],[-80.77129,36.26754],[-80.77139,36.26667],[-80.7713,36.26663]]]}},{"type":"Feature","id":"37197:498100250601","properties":{"id":"37197:498100250601","parcelId":"498100250601","countyFips":"37197","countyName":"Yadkin","state":"North Carolina","marketIds":["Winston-Salem"],"situsAddress":"WOODRUFF RD","situsCity":null,"situsZip":null,"jurisdictionCode":null,"ownerName":"WILLIAMS JOHN A FARMS INC","ownerName2":null,"propertyName":null,"zoningCode":null,"zoningDistrict":null,"jurisdictionPrefix":null,"dorCode":null,"acreage":99.779,"centroid":[-80.756177,36.252855],"lastSale":{"date":null,"price":null,"qualified":null},"tax":{"marketValue":59797.0,"assessedValue":59097.0,"taxableValue":null,"taxes":null},"mailingAddress":{"line1":null,"line2":null,"city":null,"state":null,"zip":null},"incomeTract":null,"incomeBlockGroup":null,"nearestRoad":null,"flu":null,"opportunityZone":null,"oz2Eligibility":null,"source":"nc-onemap-37197"},"geometry":{"type":"Polygon","coordinates":[[[-80.75679,36.25589],[-80.75299,36.25625],[-80.7525,36.25349],[-80.75275,36.25229],[-80.75289,36.25043],[-80.75334,36.24947],[-80.75788,36.25061],[-80.75734,36.25186],[-80.75993,36.25211],[-80.76085,36.25339],[-80.76069,36.25561],[-80.75679,36.25589]]]}},{"type":"Feature","id":"37197:497100995301","properties":{"id":"37197:497100995301","parcelId":"497100995301","countyFips":"37197","countyName":"Yadkin","state":"North Carolina","marketIds":["Winston-Salem"],"situsAddress":"4528 HURT RD","situsCity":null,"situsZip":null,"jurisdictionCode":null,"ownerName":"SHORE EDDIE GLENN","ownerName2":null,"propertyName":null,"zoningCode":null,"zoningDistrict":null,"jurisdictionPrefix":null,"dorCode":null,"acreage":99.595,"centroid":[-80.764957,36.263207],"lastSale":{"date":null,"price":null,"qualified":null},"tax":{"marketValue":219515.0,"assessedValue":116704.0,"taxableValue":null,"taxes":null},"mailingAddress":{"line1":null,"line2":null,"city":null,"state":null,"zip":null},"incomeTract":null,"incomeBlockGroup":null,"nearestRoad":null,"flu":null,"opportunityZone":null,"oz2Eligibility":null,"source":"nc-onemap-37197"},"geometry":{"type":"Polygon","coordinates":[[[-80.75862,36.26683],[-80.76188,36.26267],[-80.76203,36.2615],[-80.76422,36.26232],[-80.76523,36.2611],[-80.76549,36.26119],[-80.76731,36.26077],[-80.76739,36.26033],[-80.76859,36.25984],[-80.76884,36.26015],[-80.7689,36.26056],[-80.76796,36.26259],[-80.76785,36.26335],[-80.76678,36.26535],[-80.76672,36.2666],[-80.76257,36.26642],[-80.76,36.26885],[-80.75885,36.26731],[-80.75862,36.26683]]]}},{"type":"Feature","id":"37197:497200821044","properties":{"id":"37197:497200821044","parcelId":"497200821044","countyFips":"37197","countyName":"Yadkin","state":"North Carolina","marketIds":["Winston-Salem"],"situsAddress":"HURT RD","situsCity":null,"situsZip":null,"jurisdictionCode":null,"ownerName":"REECE AMY  REECE ROGER","ownerName2":null,"propertyName":null,"zoningCode":null,"zoningDistrict":null,"jurisdictionPrefix":null,"dorCode":null,"acreage":97.527,"centroid":[-80.770237,36.270196],"lastSale":{"date":null,"price":null,"qualified":null},"tax":{"marketValue":46355.0,"assessedValue":46355.0,"taxableValue":null,"taxes":null},"mailingAddress":{"line1":null,"line2":null,"city":null,"state":null,"zip":null},"incomeTract":null,"incomeBlockGroup":null,"nearestRoad":null,"flu":null,"opportunityZone":null,"oz2Eligibility":null,"source":"nc-onemap-37197"},"geometry":{"type":"Polygon","coordinates":[[[-80.77153,36.2746],[-80.77054,36.2745],[-80.76806,36.27396],[-80.76721,36.27348],[-80.76616,36.27265],[-80.76707,36.27143],[-80.76811,36.27044],[-80.76836,36.26986],[-80.76826,36.26857],[-80.76846,36.26816],[-80.7691,36.26772],[-80.76925,36.26735],[-80.76914,36.26723],[-80.76942,36.26703],[-80.76935,36.26672],[-80.76996,36.26675],[-80.77007,36.26611],[-80.77139,36.26667],[-80.77129,36.26754],[-80.77139,36.26806],[-80.77293,36.27007],[-80.77298,36.27052],[-80.77245,36.27155],[-80.77335,36.27146],[-80.77517,36.27387],[-80.77379,36.27436],[-80.77162,36.27462],[-80.77153,36.2746]]]}},{"type":"Feature","id":"37197:4981287062","properties":{"id":"37197:4981287062","parcelId":"4981287062","countyFips":"37197","countyName":"Yadkin","state":"North Carolina","marketIds":["Winston-Salem"],"situsAddress":"1149 JH COCKERHAM DR","situsCity":null,"situsZip":null,"jurisdictionCode":null,"ownerName":"FULTZ DONALD GRAY","ownerName2":null,"propertyName":null,"zoningCode":null,"zoningDistrict":null,"jurisdictionPrefix":null,"dorCode":null,"acreage":91.965,"centroid":[-80.755514,36.259847],"lastSale":{"date":null,"price":null,"qualified":null},"tax":{"marketValue":107526.0,"assessedValue":91616.0,"taxableValue":null,"taxes":null},"mailingAddress":{"line1":null,"line2":null,"city":null,"state":null,"zip":null},"incomeTract":null,"incomeBlockGroup":null,"nearestRoad":null,"flu":null,"opportunityZone":null,"oz2Eligibility":null,"source":"nc-onemap-37197"},"geometry":{"type":"MultiPolygon","coordinates":[[[[-80.75709,36.26404],[-80.7564,36.26376],[-80.7557,36.26394],[-80.75466,36.26344],[-80.75308,36.26302],[-80.75184,36.26305],[-80.75149,36.25748],[-80.75162,36.25705],[-80.75149,36.25701],[-80.7518,36.25635],[-80.75679,36.25589],[-80.757,36.25658],[-80.75702,36.25717],[-80.75744,36.25722],[-80.75746,36.25732],[-80.7573,36.2579],[-80.75666,36.25805],[-80.75666,36.25874],[-80.75635,36.25885],[-80.75691,36.25991],[-80.7562,36.26073],[-80.75668,36.26209],[-80.75723,36.26301],[-80.75746,36.26373],[-80.75709,36.26404]]],[[[-80.7539,36.2582],[-80.7539,36.25751],[-80.75354,36.25753],[-80.75356,36.25842],[-80.75388,36.25854],[-80.7539,36.2582]]]]}},{"type":"Feature","id":"37197:497100766770","properties":{"id":"37197:497100766770","parcelId":"497100766770","countyFips":"37197","countyName":"Yadkin","state":"North Carolina","marketIds":["Winston-Salem"],"situsAddress":"HURT RD","situsCity":null,"situsZip":null,"jurisdictionCode":null,"ownerName":"HURT JAMIE R","ownerName2":null,"propertyName":null,"zoningCode":null,"zoningDistrict":null,"jurisdictionPrefix":null,"dorCode":null,"acreage":76.9338,"centroid":[-80.771174,36.254674],"lastSale":{"date":null,"price":null,"qualified":null},"tax":{"marketValue":36925.0,"assessedValue":33685.0,"taxableValue":null,"taxes":null},"mailingAddress":{"line1":null,"line2":null,"city":null,"state":null,"zip":null},"incomeTract":null,"incomeBlockGroup":null,"nearestRoad":null,"flu":null,"opportunityZone":null,"oz2Eligibility":null,"source":"nc-onemap-37197"},"geometry":{"type":"Polygon","coordinates":[[[-80.77059,36.2586],[-80.76934,36.2586],[-80.76955,36.25847],[-80.76947,36.25773],[-80.76931,36.25775],[-80.76929,36.25713],[-80.7665,36.25712],[-80.76777,36.25609],[-80.76844,36.25474],[-80.76845,36.25375],[-80.76859,36.25368],[-80.7688,36.25374],[-80.76901,36.25358],[-80.7691,36.25373],[-80.76979,36.25403],[-80.7702,36.25382],[-80.7705,36.25383],[-80.77065,36.25372],[-80.77065,36.25349],[-80.7708,36.25345],[-80.77097,36.25349],[-80.77093,36.25358],[-80.77116,36.25346],[-80.77131,36.25359],[-80.77126,36.25328],[-80.77146,36.25313],[-80.7718,36.25327],[-80.77186,36.25317],[-80.77168,36.25313],[-80.77178,36.25304],[-80.7727,36.25324],[-80.77259,36.25336],[-80.77266,36.25344],[-80.77248,36.25347],[-80.77263,36.25357],[-80.773,36.2536],[-80.77326,36.25349],[-80.77336,36.25323],[-80.77394,36.25339],[-80.77407,36.25362],[-80.77421,36.25345],[-80.77661,36.25623],[-80.77534,36.25684],[-80.77293,36.25766],[-80.77238,36.25768],[-80.77082,36.25855],[-80.77059,36.2586]]]}},{"type":"Feature","id":"37197:496100653443","properties":{"id":"37197:496100653443","parcelId":"496100653443","countyFips":"37197","countyName":"Yadkin","state":"North Carolina","marketIds":["Winston-Salem"],"situsAddress":"MUNCUS RD","situsCity":null,"situsZip":null,"jurisdictionCode":null,"ownerName":"WELBORN MARION G  FAMILY LIMITED PARTNERSHIP","ownerName2":null,"propertyName":null,"zoningCode":null,"zoningDistrict":null,"jurisdictionPrefix":null,"dorCode":null,"acreage":69.0843,"centroid":[-80.810072,36.251645],"lastSale":{"date":null,"price":null,"qualified":null},"tax":{"marketValue":41349.0,"assessedValue":40349.0,"taxableValue":null,"taxes":null},"mailingAddress":{"line1":null,"line2":null,"city":null,"state":null,"zip":null},"incomeTract":null,"incomeBlockGroup":null,"nearestRoad":null,"flu":null,"opportunityZone":null,"oz2Eligibility":null,"source":"nc-onemap-37197"},"geometry":{"type":"Polygon","coordinates":[[[-80.81047,36.24871],[-80.81513,36.25158],[-80.81347,36.25253],[-80.81218,36.25311],[-80.80941,36.25399],[-80.80862,36.25412],[-80.80779,36.25409],[-80.80587,36.25359],[-80.80758,36.24995],[-80.80981,36.24984],[-80.81018,36.2491],[-80.81035,36.24913],[-80.81047,36.24871]]]}},{"type":"Feature","id":"37197:498100356113","properties":{"id":"37197:498100356113","parcelId":"498100356113","countyFips":"37197","countyName":"Yadkin","state":"North Carolina","marketIds":["Winston-Salem"],"situsAddress":"3348 WOODRUFF RD","situsCity":null,"situsZip":null,"jurisdictionCode":null,"ownerName":"HOLLAR MARK K ET UX  HOLLAR KATHY C","ownerName2":null,"propertyName":null,"zoningCode":null,"zoningDistrict":null,"jurisdictionPrefix":null,"dorCode":null,"acreage":49.181,"centroid":[-80.75171,36.25268],"lastSale":{"date":null,"price":null,"qualified":null},"tax":{"marketValue":324356.0,"assessedValue":95563.0,"taxableValue":null,"taxes":null},"mailingAddress":{"line1":null,"line2":null,"city":null,"state":null,"zip":null},"incomeTract":null,"incomeBlockGroup":null,"nearestRoad":null,"flu":null,"opportunityZone":null,"oz2Eligibility":null,"source":"nc-onemap-37197"},"geometry":{"type":"Polygon","coordinates":[[[-80.75193,36.25545],[-80.75186,36.25635],[-80.74975,36.25652],[-80.75,36.24884],[-80.75104,36.24889],[-80.75334,36.24947],[-80.75289,36.25043],[-80.75263,36.25319],[-80.75195,36.25498],[-80.75193,36.25545]]]}},{"type":"Feature","id":"37197:497100698912","properties":{"id":"37197:497100698912","parcelId":"497100698912","countyFips":"37197","countyName":"Yadkin","state":"North Carolina","marketIds":["Winston-Salem"],"situsAddress":"4845 LYNN DR","situsCity":null,"situsZip":null,"jurisdictionCode":null,"ownerName":"FINNEY DENNIS JAMES","ownerName2":null,"propertyName":null,"zoningCode":null,"zoningDistrict":null,"jurisdictionPrefix":null,"dorCode":null,"acreage":46.5634,"centroid":[-80.772723,36.264266],"lastSale":{"date":null,"price":null,"qualified":null},"tax":{"marketValue":295764.0,"assessedValue":169530.0,"taxableValue":null,"taxes":null},"mailingAddress":{"line1":null,"line2":null,"city":null,"state":null,"zip":null},"incomeTract":null,"incomeBlockGroup":null,"nearestRoad":null,"flu":null,"opportunityZone":null,"oz2Eligibility":null,"source":"nc-onemap-37197"},"geometry":{"type":"Polygon","coordinates":[[[-80.77159,36.2657],[-80.77188,36.26424],[-80.7718,36.2637],[-80.77126,36.26283],[-80.77032,36.26187],[-80.77797,36.2634],[-80.77527,36.26667],[-80.77169,36.26572],[-80.77159,36.2657]]]}},{"type":"Feature","id":"37197:498200011682","properties":{"id":"37197:498200011682","parcelId":"498200011682","countyFips":"37197","countyName":"Yadkin","state":"North Carolina","marketIds":["Winston-Salem"],"situsAddress":"OLD FERRY TR","situsCity":null,"situsZip":null,"jurisdictionCode":null,"ownerName":"HURT JEFFREY C. JR.  HURT MELISSA L","ownerName2":null,"propertyName":null,"zoningCode":null,"zoningDistrict":null,"jurisdictionPrefix":null,"dorCode":null,"acreage":41.7641,"centroid":[-80.764026,36.269021],"lastSale":{"date":null,"price":null,"qualified":null},"tax":{"marketValue":27144.0,"assessedValue":27144.0,"taxableValue":null,"taxes":null},"mailingAddress":{"line1":null,"line2":null,"city":null,"state":null,"zip":null},"incomeTract":null,"incomeBlockGroup":null,"nearestRoad":null,"flu":null,"opportunityZone":null,"oz2Eligibility":null,"source":"nc-onemap-37197"},"geometry":{"type":"Polygon","coordinates":[[[-80.76511,36.27196],[-80.76145,36.27001],[-80.76074,36.26954],[-80.76,36.26885],[-80.76257,36.26642],[-80.76363,36.26644],[-80.7637,36.26687],[-80.76409,36.26772],[-80.76439,36.26809],[-80.76478,36.2693],[-80.76514,36.26962],[-80.76578,36.26987],[-80.76635,36.26977],[-80.76684,36.26984],[-80.76582,36.27102],[-80.76511,36.27196]]]}},{"type":"Feature","id":"37197:498100194314","properties":{"id":"37197:498100194314","parcelId":"498100194314","countyFips":"37197","countyName":"Yadkin","state":"North Carolina","marketIds":["Winston-Salem"],"situsAddress":"3500 VIRGIL HODGES LN","situsCity":null,"situsZip":null,"jurisdictionCode":null,"ownerName":"ROSE DALE E ET UX  ROSE LYNN H","ownerName2":null,"propertyName":null,"zoningCode":null,"zoningDistrict":null,"jurisdictionPrefix":null,"dorCode":null,"acreage":38.5126,"centroid":[-80.757824,36.262579],"lastSale":{"date":null,"price":null,"qualified":null},"tax":{"marketValue":40139.0,"assessedValue":37639.0,"taxableValue":null,"taxes":null},"mailingAddress":{"line1":null,"line2":null,"city":null,"state":null,"zip":null},"incomeTract":null,"incomeBlockGroup":null,"nearestRoad":null,"flu":null,"opportunityZone":null,"oz2Eligibility":null,"source":"nc-onemap-37197"},"geometry":{"type":"Polygon","coordinates":[[[-80.7557,36.26394],[-80.7564,36.26376],[-80.75709,36.26404],[-80.75746,36.26373],[-80.75723,36.26301],[-80.75668,36.26209],[-80.7562,36.26073],[-80.75677,36.26078],[-80.75726,36.26105],[-80.75747,36.26099],[-80.75764,36.26117],[-80.75796,36.26107],[-80.75842,36.26124],[-80.75877,36.26113],[-80.75906,36.26138],[-80.75928,36.26107],[-80.75971,36.26183],[-80.76004,36.26346],[-80.76097,36.26383],[-80.75862,36.26683],[-80.75765,36.26564],[-80.75575,36.26396],[-80.7557,36.26394]]]}},{"type":"Feature","id":"37197:498100064831","properties":{"id":"37197:498100064831","parcelId":"498100064831","countyFips":"37197","countyName":"Yadkin","state":"North Carolina","marketIds":["Winston-Salem"],"situsAddress":"4252 HURT RD","situsCity":null,"situsZip":null,"jurisdictionCode":null,"ownerName":"WILHELM HOMER &  WILHELM ROSA","ownerName2":null,"propertyName":null,"zoningCode":null,"zoningDistrict":null,"jurisdictionPrefix":null,"dorCode":null,"acreage":35.063,"centroid":[-80.762892,36.256298],"lastSale":{"date":null,"price":null,"qualified":null},"tax":{"marketValue":181969.0,"assessedValue":44139.0,"taxableValue":null,"taxes":null},"mailingAddress":{"line1":null,"line2":null,"city":null,"state":null,"zip":null},"incomeTract":null,"incomeBlockGroup":null,"nearestRoad":null,"flu":null,"opportunityZone":null,"oz2Eligibility":null,"source":"nc-onemap-37197"},"geometry":{"type":"Polygon","coordinates":[[[-80.76362,36.2547],[-80.76323,36.25559],[-80.7636,36.25656],[-80.76364,36.2572],[-80.76361,36.25761],[-80.7633,36.25781],[-80.76399,36.25839],[-80.76328,36.25904],[-80.76046,36.25885],[-80.76085,36.25339],[-80.76135,36.2538],[-80.76306,36.25426],[-80.76361,36.25467],[-80.76362,36.2547]]]}},{"type":"Feature","id":"37197:498100377939","properties":{"id":"37197:498100377939","parcelId":"498100377939","countyFips":"37197","countyName":"Yadkin","state":"North Carolina","marketIds":["Winston-Salem"],"situsAddress":"1148 JH COCKERHAM DR","situsCity":null,"situsZip":null,"jurisdictionCode":null,"ownerName":"COCKERHAM CHARLIE FRANK ET UX  COCKERHAM PEGGY B (LE)","ownerName2":null,"propertyName":null,"zoningCode":null,"zoningDistrict":null,"jurisdictionPrefix":null,"dorCode":null,"acreage":33.405,"centroid":[-80.750045,36.258267],"lastSale":{"date":null,"price":null,"qualified":null},"tax":{"marketValue":33184.0,"assessedValue":33084.0,"taxableValue":null,"taxes":null},"mailingAddress":{"line1":null,"line2":null,"city":null,"state":null,"zip":null},"incomeTract":null,"incomeBlockGroup":null,"nearestRoad":null,"flu":null,"opportunityZone":null,"oz2Eligibility":null,"source":"nc-onemap-37197"},"geometry":{"type":"Polygon","coordinates":[[[-80.74866,36.25725],[-80.74885,36.25705],[-80.749,36.25709],[-80.7492,36.25652],[-80.7518,36.25635],[-80.75149,36.25701],[-80.75162,36.25705],[-80.75149,36.25748],[-80.75184,36.26305],[-80.74998,36.26393],[-80.75011,36.25991],[-80.74932,36.25805],[-80.74915,36.25805],[-80.74898,36.25769],[-80.74918,36.25752],[-80.74866,36.25725]]]}},{"type":"Feature","id":"37197:497200508254","properties":{"id":"37197:497200508254","parcelId":"497200508254","countyFips":"37197","countyName":"Yadkin","state":"North Carolina","marketIds":["Winston-Salem"],"situsAddress":"HURT RD -OFF OF","situsCity":null,"situsZip":null,"jurisdictionCode":null,"ownerName":"SMITH JEFFREY J SMITH ETUX  SMITH JAMES TRUSTEES","ownerName2":null,"propertyName":null,"zoningCode":null,"zoningDistrict":null,"jurisdictionPrefix":null,"dorCode":null,"acreage":29.4276,"centroid":[-80.778087,36.265403],"lastSale":{"date":null,"price":null,"qualified":null},"tax":{"marketValue":19130.0,"assessedValue":19130.0,"taxableValue":null,"taxes":null},"mailingAddress":{"line1":null,"line2":null,"city":null,"state":null,"zip":null},"incomeTract":null,"incomeBlockGroup":null,"nearestRoad":null,"flu":null,"opportunityZone":null,"oz2Eligibility":null,"source":"nc-onemap-37197"},"geometry":{"type":"Polygon","coordinates":[[[-80.77527,36.26667],[-80.77797,36.2634],[-80.77939,36.26368],[-80.77972,36.26786],[-80.77527,36.26667]]]}},{"type":"Feature","id":"37197:498100174129","properties":{"id":"37197:498100174129","parcelId":"498100174129","countyFips":"37197","countyName":"Yadkin","state":"North Carolina","marketIds":["Winston-Salem"],"situsAddress":"1041 HALLIE MAE DR","situsCity":null,"situsZip":null,"jurisdictionCode":null,"ownerName":"SIMMONS VELDA BYERLY ROY LEE  BYERLY BEVERLY BYERLY CHRISTOP","ownerName2":null,"propertyName":null,"zoningCode":null,"zoningDistrict":null,"jurisdictionPrefix":null,"dorCode":null,"acreage":27.9801,"centroid":[-80.758151,36.257705],"lastSale":{"date":null,"price":null,"qualified":null},"tax":{"marketValue":76568.0,"assessedValue":29913.0,"taxableValue":null,"taxes":null},"mailingAddress":{"line1":null,"line2":null,"city":null,"state":null,"zip":null},"incomeTract":null,"incomeBlockGroup":null,"nearestRoad":null,"flu":null,"opportunityZone":null,"oz2Eligibility":null,"source":"nc-onemap-37197"},"geometry":{"type":"Polygon","coordinates":[[[-80.75655,36.25922],[-80.75635,36.25885],[-80.75666,36.25874],[-80.75666,36.25805],[-80.7573,36.2579],[-80.75746,36.25732],[-80.75744,36.25722],[-80.75702,36.25717],[-80.757,36.25658],[-80.75679,36.25589],[-80.76069,36.25561],[-80.76063,36.25695],[-80.75952,36.25717],[-80.75967,36.25766],[-80.76058,36.25749],[-80.76046,36.25885],[-80.75855,36.25904],[-80.75739,36.25898],[-80.75655,36.25922]]]}},{"type":"Feature","id":"37197:498100182087","properties":{"id":"37197:498100182087","parcelId":"498100182087","countyFips":"37197","countyName":"Yadkin","state":"North Carolina","marketIds":["Winston-Salem"],"situsAddress":"3521 VIRGIL HODGES LN","situsCity":null,"situsZip":null,"jurisdictionCode":null,"ownerName":"MULLIS SAMMY E","ownerName2":null,"propertyName":null,"zoningCode":null,"zoningDistrict":null,"jurisdictionPrefix":null,"dorCode":null,"acreage":24.5685,"centroid":[-80.759026,36.260472],"lastSale":{"date":null,"price":null,"qualified":null},"tax":{"marketValue":124164.0,"assessedValue":81908.0,"taxableValue":null,"taxes":null},"mailingAddress":{"line1":null,"line2":null,"city":null,"state":null,"zip":null},"incomeTract":null,"incomeBlockGroup":null,"nearestRoad":null,"flu":null,"opportunityZone":null,"oz2Eligibility":null,"source":"nc-onemap-37197"},"geometry":{"type":"Polygon","coordinates":[[[-80.75928,36.26107],[-80.75906,36.26138],[-80.75877,36.26113],[-80.75842,36.26124],[-80.75796,36.26107],[-80.75764,36.26117],[-80.75747,36.26099],[-80.75726,36.26105],[-80.75677,36.26078],[-80.7562,36.26073],[-80.75691,36.25991],[-80.75655,36.25922],[-80.75739,36.25898],[-80.75855,36.25904],[-80.76046,36.25885],[-80.76288,36.25955],[-80.76214,36.26058],[-80.76103,36.25996],[-80.76082,36.26031],[-80.76026,36.2603],[-80.76002,36.26051],[-80.76012,36.26055],[-80.7597,36.26064],[-80.75969,36.2608],[-80.75952,36.26086],[-80.75955,36.26102],[-80.75929,36.26105],[-80.75928,36.26107]]]}},{"type":"Feature","id":"37197:497100896801","properties":{"id":"37197:497100896801","parcelId":"497100896801","countyFips":"37197","countyName":"Yadkin","state":"North Carolina","marketIds":["Winston-Salem"],"situsAddress":"OLD FERRY TR","situsCity":null,"situsZip":null,"jurisdictionCode":null,"ownerName":"HURT JEFFREY C SR ET UX  HURT VICTORIA D","ownerName2":null,"propertyName":null,"zoningCode":null,"zoningDistrict":null,"jurisdictionPrefix":null,"dorCode":null,"acreage":22.877,"centroid":[-80.768636,36.264702],"lastSale":{"date":null,"price":null,"qualified":null},"tax":{"marketValue":9381.0,"assessedValue":9381.0,"taxableValue":null,"taxes":null},"mailingAddress":{"line1":null,"line2":null,"city":null,"state":null,"zip":null},"incomeTract":null,"incomeBlockGroup":null,"nearestRoad":null,"flu":null,"opportunityZone":null,"oz2Eligibility":null,"source":"nc-onemap-37197"},"geometry":{"type":"Polygon","coordinates":[[[-80.76951,36.26267],[-80.76946,36.26585],[-80.77007,36.26611],[-80.76996,36.26675],[-80.76672,36.2666],[-80.76678,36.26535],[-80.76785,36.26335],[-80.7679,36.26296],[-80.76947,36.26268],[-80.76951,36.26267]]]}},{"type":"Feature","id":"37197:497200914153","properties":{"id":"37197:497200914153","parcelId":"497200914153","countyFips":"37197","countyName":"Yadkin","state":"North Carolina","marketIds":["Winston-Salem"],"situsAddress":"4249 OLD FERRY TR","situsCity":null,"situsZip":null,"jurisdictionCode":null,"ownerName":"HURT CHRISTOPHER LEE","ownerName2":null,"propertyName":null,"zoningCode":null,"zoningDistrict":null,"jurisdictionPrefix":null,"dorCode":null,"acreage":21.133,"centroid":[-80.765563,36.268393],"lastSale":{"date":null,"price":null,"qualified":null},"tax":{"marketValue":356947.0,"assessedValue":107952.0,"taxableValue":null,"taxes":null},"mailingAddress":{"line1":null,"line2":null,"city":null,"state":null,"zip":null},"incomeTract":null,"incomeBlockGroup":null,"nearestRoad":null,"flu":null,"opportunityZone":null,"oz2Eligibility":null,"source":"nc-onemap-37197"},"geometry":{"type":"Polygon","coordinates":[[[-80.76672,36.2666],[-80.7666,36.26717],[-80.76721,36.26837],[-80.76709,36.26945],[-80.76684,36.26984],[-80.76635,36.26977],[-80.76578,36.26987],[-80.76514,36.26962],[-80.76478,36.2693],[-80.76439,36.26809],[-80.76409,36.26772],[-80.7637,36.26687],[-80.76363,36.26644],[-80.76672,36.2666]]]}},{"type":"Feature","id":"37197:497100973581","properties":{"id":"37197:497100973581","parcelId":"497100973581","countyFips":"37197","countyName":"Yadkin","state":"North Carolina","marketIds":["Winston-Salem"],"situsAddress":"HURT RD","situsCity":null,"situsZip":null,"jurisdictionCode":null,"ownerName":"KEY LINDA B","ownerName2":null,"propertyName":null,"zoningCode":null,"zoningDistrict":null,"jurisdictionPrefix":null,"dorCode":null,"acreage":17.983,"centroid":[-80.765224,36.257742],"lastSale":{"date":null,"price":null,"qualified":null},"tax":{"marketValue":113634.0,"assessedValue":112134.0,"taxableValue":null,"taxes":null},"mailingAddress":{"line1":null,"line2":null,"city":null,"state":null,"zip":null},"incomeTract":null,"incomeBlockGroup":null,"nearestRoad":null,"flu":null,"opportunityZone":null,"oz2Eligibility":null,"source":"nc-onemap-37197"},"geometry":{"type":"Polygon","coordinates":[[[-80.76361,36.25761],[-80.76364,36.2572],[-80.76454,36.25758],[-80.76488,36.25664],[-80.76507,36.25643],[-80.76559,36.25681],[-80.76522,36.25718],[-80.76571,36.25756],[-80.76609,36.25718],[-80.76674,36.25766],[-80.7675,36.25853],[-80.76697,36.25867],[-80.76745,36.25958],[-80.76328,36.25904],[-80.76399,36.25839],[-80.7633,36.25781],[-80.76361,36.25761]]]}},{"type":"Feature","id":"37197:497100890258","properties":{"id":"37197:497100890258","parcelId":"497100890258","countyFips":"37197","countyName":"Yadkin","state":"North Carolina","marketIds":["Winston-Salem"],"situsAddress":"LYNN DR","situsCity":null,"situsZip":null,"jurisdictionCode":null,"ownerName":"ROSE DALE E ET UX  ROSE LYNN H","ownerName2":null,"propertyName":null,"zoningCode":null,"zoningDistrict":null,"jurisdictionPrefix":null,"dorCode":null,"acreage":17.222,"centroid":[-80.770439,36.263343],"lastSale":{"date":null,"price":null,"qualified":null},"tax":{"marketValue":8060.0,"assessedValue":7060.0,"taxableValue":null,"taxes":null},"mailingAddress":{"line1":null,"line2":null,"city":null,"state":null,"zip":null},"incomeTract":null,"incomeBlockGroup":null,"nearestRoad":null,"flu":null,"opportunityZone":null,"oz2Eligibility":null,"source":"nc-onemap-37197"},"geometry":{"type":"Polygon","coordinates":[[[-80.76953,36.26236],[-80.76957,36.26171],[-80.77032,36.26187],[-80.77163,36.26336],[-80.77188,36.26412],[-80.77159,36.2657],[-80.76947,36.26512],[-80.76952,36.2625],[-80.76953,36.26236]]]}},{"type":"Feature","id":"37197:497100953262","properties":{"id":"37197:497100953262","parcelId":"497100953262","countyFips":"37197","countyName":"Yadkin","state":"North Carolina","marketIds":["Winston-Salem"],"situsAddress":"WOODRUFF RD","situsCity":null,"situsZip":null,"jurisdictionCode":null,"ownerName":"KIGER AMER RAY & CAROLYN","ownerName2":null,"propertyName":null,"zoningCode":null,"zoningDistrict":null,"jurisdictionPrefix":null,"dorCode":null,"acreage":16.1701,"centroid":[-80.76569,36.252012],"lastSale":{"date":null,"price":null,"qualified":null},"tax":{"marketValue":10511.0,"assessedValue":10511.0,"taxableValue":null,"taxes":null},"mailingAddress":{"line1":null,"line2":null,"city":null,"state":null,"zip":null},"incomeTract":null,"incomeBlockGroup":null,"nearestRoad":null,"flu":null,"opportunityZone":null,"oz2Eligibility":null,"source":"nc-onemap-37197"},"geometry":{"type":"Polygon","coordinates":[[[-80.76648,36.25354],[-80.76432,36.25238],[-80.76237,36.25076],[-80.76456,36.25076],[-80.76581,36.25138],[-80.76629,36.25143],[-80.76638,36.25207],[-80.76738,36.25205],[-80.76762,36.25374],[-80.76648,36.25354]]]}},{"type":"Feature","id":"37197:497100783781","properties":{"id":"37197:497100783781","parcelId":"497100783781","countyFips":"37197","countyName":"Yadkin","state":"North Carolina","marketIds":["Winston-Salem"],"situsAddress":"4601 LYNN DR","situsCity":null,"situsZip":null,"jurisdictionCode":null,"ownerName":"ANDERSON LINDA H","ownerName2":null,"propertyName":null,"zoningCode":null,"zoningDistrict":null,"jurisdictionPrefix":null,"dorCode":null,"acreage":16.1582,"centroid":[-80.772321,36.26141],"lastSale":{"date":null,"price":null,"qualified":null},"tax":{"marketValue":223067.0,"assessedValue":77974.0,"taxableValue":null,"taxes":null},"mailingAddress":{"line1":null,"line2":null,"city":null,"state":null,"zip":null},"incomeTract":null,"incomeBlockGroup":null,"nearestRoad":null,"flu":null,"opportunityZone":null,"oz2Eligibility":null,"source":"nc-onemap-37197"},"geometry":{"type":"Polygon","coordinates":[[[-80.77023,36.26173],[-80.76984,36.26102],[-80.77298,36.26052],[-80.77418,36.26073],[-80.77575,36.26182],[-80.77292,36.2623],[-80.77035,36.26175],[-80.77023,36.26173]]]}},{"type":"Feature","id":"37197:4961852072","properties":{"id":"37197:4961852072","parcelId":"4961852072","countyFips":"37197","countyName":"Yadkin","state":"North Carolina","marketIds":["Winston-Salem"],"situsAddress":"NC 67 HWY","situsCity":null,"situsZip":null,"jurisdictionCode":null,"ownerName":"NICHOLS CHARLES W &  NICHOLS GLORIA B","ownerName2":null,"propertyName":null,"zoningCode":null,"zoningDistrict":null,"jurisdictionPrefix":null,"dorCode":null,"acreage":15.621,"centroid":[-80.802979,36.251054],"lastSale":{"date":null,"price":null,"qualified":null},"tax":{"marketValue":10153.0,"assessedValue":10153.0,"taxableValue":null,"taxes":null},"mailingAddress":{"line1":null,"line2":null,"city":null,"state":null,"zip":null},"incomeTract":null,"incomeBlockGroup":null,"nearestRoad":null,"flu":null,"opportunityZone":null,"oz2Eligibility":null,"source":"nc-onemap-37197"},"geometry":{"type":"Polygon","coordinates":[[[-80.80172,36.25084],[-80.804,36.24882],[-80.80483,36.24983],[-80.80347,36.25261],[-80.80301,36.25253],[-80.8021,36.25191],[-80.80172,36.25084],[-80.80172,36.25084]]]}},{"type":"Feature","id":"37197:4971961447","properties":{"id":"37197:4971961447","parcelId":"4971961447","countyFips":"37197","countyName":"Yadkin","state":"North Carolina","marketIds":["Winston-Salem"],"situsAddress":"HURT RD","situsCity":null,"situsZip":null,"jurisdictionCode":null,"ownerName":"VICKERY LINDA G","ownerName2":null,"propertyName":null,"zoningCode":null,"zoningDistrict":null,"jurisdictionPrefix":null,"dorCode":null,"acreage":15.241,"centroid":[-80.767104,36.255157],"lastSale":{"date":null,"price":null,"qualified":null},"tax":{"marketValue":81277.0,"assessedValue":80467.0,"taxableValue":null,"taxes":null},"mailingAddress":{"line1":null,"line2":null,"city":null,"state":null,"zip":null},"incomeTract":null,"incomeBlockGroup":null,"nearestRoad":null,"flu":null,"opportunityZone":null,"oz2Eligibility":null,"source":"nc-onemap-37197"},"geometry":{"type":"MultiPolygon","coordinates":[[[[-80.76616,36.25699],[-80.76453,36.25577],[-80.76539,36.2548],[-80.76649,36.25491],[-80.76648,36.25354],[-80.76786,36.2538],[-80.76782,36.25414],[-80.76835,36.25418],[-80.76845,36.25375],[-80.76844,36.25474],[-80.76831,36.255],[-80.76772,36.25471],[-80.76734,36.25524],[-80.76721,36.25573],[-80.76755,36.25626],[-80.7665,36.25712],[-80.76617,36.25699],[-80.76616,36.25699]]],[[[-80.76609,36.25633],[-80.76654,36.25565],[-80.76581,36.25567],[-80.7655,36.25607],[-80.76609,36.25633]]]]}},{"type":"Feature","id":"37197:497100985198","properties":{"id":"37197:497100985198","parcelId":"497100985198","countyFips":"37197","countyName":"Yadkin","state":"North Carolina","marketIds":["Winston-Salem"],"situsAddress":"VIRGIL HODGES RD","situsCity":null,"situsZip":null,"jurisdictionCode":null,"ownerName":"SHORE EDDIE GLENN","ownerName2":null,"propertyName":null,"zoningCode":null,"zoningDistrict":null,"jurisdictionPrefix":null,"dorCode":null,"acreage":13.1455,"centroid":[-80.76504,36.260157],"lastSale":{"date":null,"price":null,"qualified":null},"tax":{"marketValue":5392.0,"assessedValue":5392.0,"taxableValue":null,"taxes":null},"mailingAddress":{"line1":null,"line2":null,"city":null,"state":null,"zip":null},"incomeTract":null,"incomeBlockGroup":null,"nearestRoad":null,"flu":null,"opportunityZone":null,"oz2Eligibility":null,"source":"nc-onemap-37197"},"geometry":{"type":"Polygon","coordinates":[[[-80.76523,36.2611],[-80.76251,36.26006],[-80.76288,36.25955],[-80.76354,36.2598],[-80.76398,36.25914],[-80.76615,36.25942],[-80.76592,36.26021],[-80.76739,36.26033],[-80.76731,36.26077],[-80.76549,36.26119],[-80.76523,36.2611]]]}},{"type":"Feature","id":"37197:497100682492","properties":{"id":"37197:497100682492","parcelId":"497100682492","countyFips":"37197","countyName":"Yadkin","state":"North Carolina","marketIds":["Winston-Salem"],"situsAddress":"3868 RUNNING DEER RD","situsCity":null,"situsZip":null,"jurisdictionCode":null,"ownerName":"WASHBURN BRANDON L","ownerName2":null,"propertyName":null,"zoningCode":null,"zoningDistrict":null,"jurisdictionPrefix":null,"dorCode":null,"acreage":12.135,"centroid":[-80.776505,36.26069],"lastSale":{"date":null,"price":null,"qualified":null},"tax":{"marketValue":114418.0,"assessedValue":79447.0,"taxableValue":null,"taxes":null},"mailingAddress":{"line1":null,"line2":null,"city":null,"state":null,"zip":null},"incomeTract":null,"incomeBlockGroup":null,"nearestRoad":null,"flu":null,"opportunityZone":null,"oz2Eligibility":null,"source":"nc-onemap-37197"},"geometry":{"type":"Polygon","coordinates":[[[-80.77849,36.26125],[-80.77575,36.26182],[-80.77418,36.26073],[-80.77481,36.26026],[-80.77606,36.25984],[-80.77709,36.25974],[-80.77737,36.26103],[-80.77829,36.26085],[-80.77849,36.26125]]]}},{"type":"Feature","id":"37197:4971956917","properties":{"id":"37197:4971956917","parcelId":"4971956917","countyFips":"37197","countyName":"Yadkin","state":"North Carolina","marketIds":["Winston-Salem"],"situsAddress":"HURT  & WOODRUFF RD","situsCity":null,"situsZip":null,"jurisdictionCode":null,"ownerName":"SPARKS CHASE","ownerName2":null,"propertyName":null,"zoningCode":null,"zoningDistrict":null,"jurisdictionPrefix":null,"dorCode":null,"acreage":12.074,"centroid":[-80.764733,36.25412],"lastSale":{"date":null,"price":null,"qualified":null},"tax":{"marketValue":78694.0,"assessedValue":72831.0,"taxableValue":null,"taxes":null},"mailingAddress":{"line1":null,"line2":null,"city":null,"state":null,"zip":null},"incomeTract":null,"incomeBlockGroup":null,"nearestRoad":null,"flu":null,"opportunityZone":null,"oz2Eligibility":null,"source":"nc-onemap-37197"},"geometry":{"type":"Polygon","coordinates":[[[-80.76539,36.2548],[-80.76386,36.25464],[-80.76336,36.25416],[-80.7622,36.25382],[-80.76535,36.25297],[-80.76648,36.25354],[-80.76649,36.25491],[-80.76539,36.2548]]]}},{"type":"Feature","id":"37197:4981053535","properties":{"id":"37197:4981053535","parcelId":"4981053535","countyFips":"37197","countyName":"Yadkin","state":"North Carolina","marketIds":["Winston-Salem"],"situsAddress":"HURT RD","situsCity":null,"situsZip":null,"jurisdictionCode":null,"ownerName":"SPARKS DUSTIN A","ownerName2":null,"propertyName":null,"zoningCode":null,"zoningDistrict":null,"jurisdictionPrefix":null,"dorCode":null,"acreage":12.057,"centroid":[-80.762024,36.252538],"lastSale":{"date":null,"price":null,"qualified":null},"tax":{"marketValue":79596.0,"assessedValue":79596.0,"taxableValue":null,"taxes":null},"mailingAddress":{"line1":null,"line2":null,"city":null,"state":null,"zip":null},"incomeTract":null,"incomeBlockGroup":null,"nearestRoad":null,"flu":null,"opportunityZone":null,"oz2Eligibility":null,"source":"nc-onemap-37197"},"geometry":{"type":"Polygon","coordinates":[[[-80.76054,36.25259],[-80.76159,36.25239],[-80.76154,36.25197],[-80.76068,36.25193],[-80.75987,36.25165],[-80.76096,36.25191],[-80.7625,36.25183],[-80.76423,36.25299],[-80.76501,36.25278],[-80.76535,36.25297],[-80.7622,36.25382],[-80.76125,36.25351],[-80.76059,36.25266],[-80.76054,36.25259]]]}},{"type":"Feature","id":"37197:497200921008","properties":{"id":"37197:497200921008","parcelId":"497200921008","countyFips":"37197","countyName":"Yadkin","state":"North Carolina","marketIds":["Winston-Salem"],"situsAddress":"OLD FERRY TR","situsCity":null,"situsZip":null,"jurisdictionCode":null,"ownerName":"HURT JEFFREY C SR ET UX  HURT VICTORIA D","ownerName2":null,"propertyName":null,"zoningCode":null,"zoningDistrict":null,"jurisdictionPrefix":null,"dorCode":null,"acreage":11.8545,"centroid":[-80.767017,36.270699],"lastSale":{"date":null,"price":null,"qualified":null},"tax":{"marketValue":8158.0,"assessedValue":8158.0,"taxableValue":null,"taxes":null},"mailingAddress":{"line1":null,"line2":null,"city":null,"state":null,"zip":null},"incomeTract":null,"incomeBlockGroup":null,"nearestRoad":null,"flu":null,"opportunityZone":null,"oz2Eligibility":null,"source":"nc-onemap-37197"},"geometry":{"type":"Polygon","coordinates":[[[-80.76616,36.27265],[-80.76511,36.27196],[-80.7666,36.27001],[-80.76695,36.26973],[-80.76708,36.26917],[-80.76835,36.26935],[-80.76834,36.26999],[-80.76811,36.27044],[-80.76722,36.27125],[-80.76625,36.27244],[-80.76616,36.27265]]]}},{"type":"Feature","id":"37197:4981044918","properties":{"id":"37197:4981044918","parcelId":"4981044918","countyFips":"37197","countyName":"Yadkin","state":"North Carolina","marketIds":["Winston-Salem"],"situsAddress":"HURT RD NC","situsCity":null,"situsZip":null,"jurisdictionCode":null,"ownerName":"SPARKS KARA PILLOCK","ownerName2":null,"propertyName":null,"zoningCode":null,"zoningDistrict":null,"jurisdictionPrefix":null,"dorCode":null,"acreage":11.833,"centroid":[-80.762319,36.251876],"lastSale":{"date":null,"price":null,"qualified":null},"tax":{"marketValue":78078.0,"assessedValue":78078.0,"taxableValue":null,"taxes":null},"mailingAddress":{"line1":null,"line2":null,"city":null,"state":null,"zip":null},"incomeTract":null,"incomeBlockGroup":null,"nearestRoad":null,"flu":null,"opportunityZone":null,"oz2Eligibility":null,"source":"nc-onemap-37197"},"geometry":{"type":"Polygon","coordinates":[[[-80.75987,36.25165],[-80.75929,36.25071],[-80.76237,36.25076],[-80.76432,36.25238],[-80.76501,36.25278],[-80.76423,36.25299],[-80.7625,36.25183],[-80.76096,36.25191],[-80.75987,36.25165]]]}},{"type":"Feature","id":"37197:4972808929","properties":{"id":"37197:4972808929","parcelId":"4972808929","countyFips":"37197","countyName":"Yadkin","state":"North Carolina","marketIds":["Winston-Salem"],"situsAddress":"4201 OLD FERRY TR","situsCity":null,"situsZip":null,"jurisdictionCode":null,"ownerName":"HURT JEFFREY C SR ET UX  HURT VICTORIA D","ownerName2":null,"propertyName":null,"zoningCode":null,"zoningDistrict":null,"jurisdictionPrefix":null,"dorCode":null,"acreage":11.639,"centroid":[-80.767985,36.267758],"lastSale":{"date":null,"price":null,"qualified":null},"tax":{"marketValue":141941.0,"assessedValue":26716.0,"taxableValue":null,"taxes":null},"mailingAddress":{"line1":null,"line2":null,"city":null,"state":null,"zip":null},"incomeTract":null,"incomeBlockGroup":null,"nearestRoad":null,"flu":null,"opportunityZone":null,"oz2Eligibility":null,"source":"nc-onemap-37197"},"geometry":{"type":"Polygon","coordinates":[[[-80.76708,36.26917],[-80.76721,36.26837],[-80.7669,36.2677],[-80.76707,36.26762],[-80.76687,36.26761],[-80.7666,36.26717],[-80.76672,36.2666],[-80.76935,36.26672],[-80.76942,36.26703],[-80.76914,36.26723],[-80.76925,36.26735],[-80.7691,36.26772],[-80.76846,36.26816],[-80.76826,36.26857],[-80.76835,36.26935],[-80.76708,36.26917]]]}},{"type":"Feature","id":"37197:498100080544","properties":{"id":"37197:498100080544","parcelId":"498100080544","countyFips":"37197","countyName":"Yadkin","state":"North Carolina","marketIds":["Winston-Salem"],"situsAddress":"VIRGIL HODGES LN","situsCity":null,"situsZip":null,"jurisdictionCode":null,"ownerName":"TAYLOR WILLIAM BART ET UX  TAYLOR BETH S","ownerName2":null,"propertyName":null,"zoningCode":null,"zoningDistrict":null,"jurisdictionPrefix":null,"dorCode":null,"acreage":10.1395,"centroid":[-80.763318,36.261287],"lastSale":{"date":null,"price":null,"qualified":null},"tax":{"marketValue":6591.0,"assessedValue":6591.0,"taxableValue":null,"taxes":null},"mailingAddress":{"line1":null,"line2":null,"city":null,"state":null,"zip":null},"incomeTract":null,"incomeBlockGroup":null,"nearestRoad":null,"flu":null,"opportunityZone":null,"oz2Eligibility":null,"source":"nc-onemap-37197"},"geometry":{"type":"Polygon","coordinates":[[[-80.76203,36.2615],[-80.76214,36.26058],[-80.76251,36.26006],[-80.76523,36.2611],[-80.76422,36.26232],[-80.76378,36.26216],[-80.76203,36.2615]]]}},{"type":"Feature","id":"37197:497100682936","properties":{"id":"37197:497100682936","parcelId":"497100682936","countyFips":"37197","countyName":"Yadkin","state":"North Carolina","marketIds":["Winston-Salem"],"situsAddress":"4901 LYNN DR","situsCity":null,"situsZip":null,"jurisdictionCode":null,"ownerName":"Smith Tony Walter et ux  Smith Myrna L","ownerName2":null,"propertyName":null,"zoningCode":null,"zoningDistrict":null,"jurisdictionPrefix":null,"dorCode":null,"acreage":10.0414,"centroid":[-80.773963,36.262],"lastSale":{"date":null,"price":null,"qualified":null},"tax":{"marketValue":30733.0,"assessedValue":30733.0,"taxableValue":null,"taxes":null},"mailingAddress":{"line1":null,"line2":null,"city":null,"state":null,"zip":null},"incomeTract":null,"incomeBlockGroup":null,"nearestRoad":null,"flu":null,"opportunityZone":null,"oz2Eligibility":null,"source":"nc-onemap-37197"},"geometry":{"type":"Polygon","coordinates":[[[-80.77283,36.26241],[-80.77032,36.26187],[-80.77023,36.26173],[-80.77292,36.2623],[-80.77849,36.26125],[-80.77899,36.26244],[-80.77283,36.26241]]]}},{"type":"Feature","id":"37197:497100691253","properties":{"id":"37197:497100691253","parcelId":"497100691253","countyFips":"37197","countyName":"Yadkin","state":"North Carolina","marketIds":["Winston-Salem"],"situsAddress":"LYNN DR","situsCity":null,"situsZip":null,"jurisdictionCode":null,"ownerName":"SMITH TONY W ET UX  SMITH MYRNA LEE","ownerName2":null,"propertyName":null,"zoningCode":null,"zoningDistrict":null,"jurisdictionPrefix":null,"dorCode":null,"acreage":9.4722,"centroid":[-80.777642,36.262995],"lastSale":{"date":null,"price":null,"qualified":null},"tax":{"marketValue":42301.0,"assessedValue":42301.0,"taxableValue":null,"taxes":null},"mailingAddress":{"line1":null,"line2":null,"city":null,"state":null,"zip":null},"incomeTract":null,"incomeBlockGroup":null,"nearestRoad":null,"flu":null,"opportunityZone":null,"oz2Eligibility":null,"source":"nc-onemap-37197"},"geometry":{"type":"Polygon","coordinates":[[[-80.77939,36.26368],[-80.77283,36.26241],[-80.77899,36.26244],[-80.77936,36.26345],[-80.77939,36.26368]]]}},{"type":"Feature","id":"37197:497100787277","properties":{"id":"37197:497100787277","parcelId":"497100787277","countyFips":"37197","countyName":"Yadkin","state":"North Carolina","marketIds":["Winston-Salem"],"situsAddress":"3804 RUNNING DEER RD","situsCity":null,"situsZip":null,"jurisdictionCode":null,"ownerName":"HOLCOMB CHARLES W  (LE)","ownerName2":null,"propertyName":null,"zoningCode":null,"zoningDistrict":null,"jurisdictionPrefix":null,"dorCode":null,"acreage":8.5144,"centroid":[-80.770471,36.260231],"lastSale":{"date":null,"price":null,"qualified":null},"tax":{"marketValue":248952.0,"assessedValue":69586.0,"taxableValue":null,"taxes":null},"mailingAddress":{"line1":null,"line2":null,"city":null,"state":null,"zip":null},"incomeTract":null,"incomeBlockGroup":null,"nearestRoad":null,"flu":null,"opportunityZone":null,"oz2Eligibility":null,"source":"nc-onemap-37197"},"geometry":{"type":"Polygon","coordinates":[[[-80.76917,36.26038],[-80.76924,36.26019],[-80.77029,36.25987],[-80.77032,36.26003],[-80.77272,36.25941],[-80.77298,36.26052],[-80.76984,36.26102],[-80.76921,36.26043],[-80.76917,36.26038]]]}},{"type":"Feature","id":"37197:497100674984","properties":{"id":"37197:497100674984","parcelId":"497100674984","countyFips":"37197","countyName":"Yadkin","state":"North Carolina","marketIds":["Winston-Salem"],"situsAddress":"3849 RUNNING DEER RD","situsCity":null,"situsZip":null,"jurisdictionCode":null,"ownerName":"SMITH BRUCE W","ownerName2":null,"propertyName":null,"zoningCode":null,"zoningDistrict":null,"jurisdictionPrefix":null,"dorCode":null,"acreage":8.1549,"centroid":[-80.775603,36.25946],"lastSale":{"date":null,"price":null,"qualified":null},"tax":{"marketValue":189888.0,"assessedValue":62330.0,"taxableValue":null,"taxes":null},"mailingAddress":{"line1":null,"line2":null,"city":null,"state":null,"zip":null},"incomeTract":null,"incomeBlockGroup":null,"nearestRoad":null,"flu":null,"opportunityZone":null,"oz2Eligibility":null,"source":"nc-onemap-37197"},"geometry":{"type":"Polygon","coordinates":[[[-80.77709,36.25974],[-80.77606,36.25984],[-80.77481,36.26026],[-80.77346,36.25928],[-80.77525,36.25879],[-80.77695,36.25885],[-80.77709,36.25974]]]}},{"type":"Feature","id":"37197:497100588056","properties":{"id":"37197:497100588056","parcelId":"497100588056","countyFips":"37197","countyName":"Yadkin","state":"North Carolina","marketIds":["Winston-Salem"],"situsAddress":"QUAIL LN - OFF OF","situsCity":null,"situsZip":null,"jurisdictionCode":null,"ownerName":"SMITH BRUCE W","ownerName2":null,"propertyName":null,"zoningCode":null,"zoningDistrict":null,"jurisdictionPrefix":null,"dorCode":null,"acreage":6.2741,"centroid":[-80.777704,36.25972],"lastSale":{"date":null,"price":null,"qualified":null},"tax":{"marketValue":31037.0,"assessedValue":31037.0,"taxableValue":null,"taxes":null},"mailingAddress":{"line1":null,"line2":null,"city":null,"state":null,"zip":null},"incomeTract":null,"incomeBlockGroup":null,"nearestRoad":null,"flu":null,"opportunityZone":null,"oz2Eligibility":null,"source":"nc-onemap-37197"},"geometry":{"type":"Polygon","coordinates":[[[-80.77829,36.26085],[-80.77737,36.26103],[-80.77685,36.25842],[-80.77788,36.25839],[-80.77813,36.25991],[-80.77829,36.26085]]]}},{"type":"Feature","id":"37197:497100671038","properties":{"id":"37197:497100671038","parcelId":"497100671038","countyFips":"37197","countyName":"Yadkin","state":"North Carolina","marketIds":["Winston-Salem"],"situsAddress":"1037 QUAIL LN","situsCity":null,"situsZip":null,"jurisdictionCode":null,"ownerName":"TUCKER TENA WILMOTH","ownerName2":null,"propertyName":null,"zoningCode":null,"zoningDistrict":null,"jurisdictionPrefix":null,"dorCode":null,"acreage":6.2143,"centroid":[-80.776832,36.257192],"lastSale":{"date":null,"price":null,"qualified":null},"tax":{"marketValue":115399.0,"assessedValue":47729.0,"taxableValue":null,"taxes":null},"mailingAddress":{"line1":null,"line2":null,"city":null,"state":null,"zip":null},"incomeTract":null,"incomeBlockGroup":null,"nearestRoad":null,"flu":null,"opportunityZone":null,"oz2Eligibility":null,"source":"nc-onemap-37197"},"geometry":{"type":"Polygon","coordinates":[[[-80.77788,36.25768],[-80.77546,36.25768],[-80.77534,36.25684],[-80.77661,36.25623],[-80.77786,36.25724],[-80.77784,36.25748],[-80.77788,36.25768]]]}},{"type":"Feature","id":"37197:498100143983","properties":{"id":"37197:498100143983","parcelId":"498100143983","countyFips":"37197","countyName":"Yadkin","state":"North Carolina","marketIds":["Winston-Salem"],"situsAddress":"3508 WOODRUFF RD","situsCity":null,"situsZip":null,"jurisdictionCode":null,"ownerName":"HURT MELISSA ANNE &  HURT JEFFREY C JR","ownerName2":null,"propertyName":null,"zoningCode":null,"zoningDistrict":null,"jurisdictionPrefix":null,"dorCode":null,"acreage":5.8381,"centroid":[-80.7587,36.25131],"lastSale":{"date":null,"price":null,"qualified":null},"tax":{"marketValue":184271.0,"assessedValue":25140.0,"taxableValue":null,"taxes":null},"mailingAddress":{"line1":null,"line2":null,"city":null,"state":null,"zip":null},"incomeTract":null,"incomeBlockGroup":null,"nearestRoad":null,"flu":null,"opportunityZone":null,"oz2Eligibility":null,"source":"nc-onemap-37197"},"geometry":{"type":"Polygon","coordinates":[[[-80.75993,36.25211],[-80.75734,36.25186],[-80.75788,36.25061],[-80.75902,36.25071],[-80.75933,36.25126],[-80.75993,36.25211]]]}},{"type":"Feature","id":"37197:497100579407","properties":{"id":"37197:497100579407","parcelId":"497100579407","countyFips":"37197","countyName":"Yadkin","state":"North Carolina","marketIds":["Winston-Salem"],"situsAddress":"3835 RUNNING DEER RD","situsCity":null,"situsZip":null,"jurisdictionCode":null,"ownerName":"ARROWOOD RODNEY L","ownerName2":null,"propertyName":null,"zoningCode":null,"zoningDistrict":null,"jurisdictionPrefix":null,"dorCode":null,"acreage":5.5142,"centroid":[-80.776107,36.258324],"lastSale":{"date":null,"price":null,"qualified":null},"tax":{"marketValue":31093.0,"assessedValue":31093.0,"taxableValue":null,"taxes":null},"mailingAddress":{"line1":null,"line2":null,"city":null,"state":null,"zip":null},"incomeTract":null,"incomeBlockGroup":null,"nearestRoad":null,"flu":null,"opportunityZone":null,"oz2Eligibility":null,"source":"nc-onemap-37197"},"geometry":{"type":"Polygon","coordinates":[[[-80.77525,36.25879],[-80.77466,36.2579],[-80.77482,36.25788],[-80.77498,36.25811],[-80.77788,36.25772],[-80.77788,36.25839],[-80.77685,36.25842],[-80.77695,36.25885],[-80.77569,36.25886],[-80.77525,36.25879]]]}},{"type":"Feature","id":"37197:497100967970","properties":{"id":"37197:497100967970","parcelId":"497100967970","countyFips":"37197","countyName":"Yadkin","state":"North Carolina","marketIds":["Winston-Salem"],"situsAddress":"4353 HURT RD","situsCity":null,"situsZip":null,"jurisdictionCode":null,"ownerName":"FOREMAN NANCY HEMRIC  FOREMAN PERRY EUGENE","ownerName2":null,"propertyName":null,"zoningCode":null,"zoningDistrict":null,"jurisdictionPrefix":null,"dorCode":null,"acreage":5.239,"centroid":[-80.764105,36.256262],"lastSale":{"date":null,"price":null,"qualified":null},"tax":{"marketValue":131372.0,"assessedValue":49984.0,"taxableValue":null,"taxes":null},"mailingAddress":{"line1":null,"line2":null,"city":null,"state":null,"zip":null},"incomeTract":null,"incomeBlockGroup":null,"nearestRoad":null,"flu":null,"opportunityZone":null,"oz2Eligibility":null,"source":"nc-onemap-37197"},"geometry":{"type":"Polygon","coordinates":[[[-80.7636,36.25656],[-80.76323,36.25559],[-80.76362,36.2547],[-80.76415,36.25566],[-80.76368,36.25608],[-80.76417,36.25645],[-80.7646,36.25608],[-80.76507,36.25643],[-80.76488,36.25664],[-80.76454,36.25758],[-80.76362,36.25711],[-80.7636,36.25656]]]}}]}