{"type":"FeatureCollection","name":"47051--13_31","features":[{"type":"Feature","id":"47051:026155    00100","properties":{"id":"47051:026155    00100","parcelId":"026155    00100","countyFips":"47051","countyName":"Franklin","state":"Tennessee","marketIds":["Huntsville"],"situsAddress":"DONNIE'S COVE LN","situsCity":null,"situsZip":null,"jurisdictionCode":null,"ownerName":"BROWN DONALD","ownerName2":null,"propertyName":null,"zoningCode":null,"zoningDistrict":null,"jurisdictionPrefix":null,"dorCode":null,"acreage":138.8381,"centroid":[-86.177363,34.997361],"lastSale":{"date":"2015-11-19","price":11400.0,"qualified":null,"vintage":"2023"},"tax":{"marketValue":417100.0,"assessedValue":null,"taxableValue":null,"taxes":null,"vintage":"2023"},"mailingAddress":{"line1":null,"line2":null,"city":null,"state":null,"zip":null},"incomeTract":null,"incomeBlockGroup":null,"nearestRoad":null,"flu":null,"opportunityZone":null,"oz2Eligibility":null,"source":"tn-oir-public-use-47051","appraiserUrl":"https://assessment.cot.tn.gov/TPAD/Parcel/GIS?gislink=026155%20%20%20%2000100"},"geometry":{"type":"Polygon","coordinates":[[[-86.17957,35.001874],[-86.179718,35.001943],[-86.179871,35.002005],[-86.180015,35.002055],[-86.180175,35.002102],[-86.180329,35.002139],[-86.181502,35.002388],[-86.181629,35.00213],[-86.181989,35.001804],[-86.182197,35.001421],[-86.181777,35.000684],[-86.181432,35.00043],[-86.180624,34.999949],[-86.180402,34.999748],[-86.180185,34.999531],[-86.179991,34.999312],[-86.17981,34.999085],[-86.179639,34.998841],[-86.179481,34.998584],[-86.179038,34.99774],[-86.178885,34.996993],[-86.178864,34.996785],[-86.178855,34.996587],[-86.178858,34.996378],[-86.178873,34.99618],[-86.178908,34.995933],[-86.178959,34.995695],[-86.179026,34.995464],[-86.179114,34.995222],[-86.179124,34.994695],[-86.179762,34.993976],[-86.179524,34.992865],[-86.17988,34.992296],[-86.180071,34.991774],[-86.179355,34.991719],[-86.179541,34.991411],[-86.179748,34.991116],[-86.179885,34.990866],[-86.17994,34.99073],[-86.179994,34.990469],[-86.180022,34.990106],[-86.174641,34.990055],[-86.174812,34.990278],[-86.174848,34.99071],[-86.174704,34.99109],[-86.174896,34.991376],[-86.175676,34.991436],[-86.175712,34.99201],[-86.17473,34.994625],[-86.174313,34.995334],[-86.174025,34.996656],[-86.173747,34.99724],[-86.173609,34.997681],[-86.173726,34.997824],[-86.173595,34.997911],[-86.173451,34.998067],[-86.173325,34.998231],[-86.173118,34.998484],[-86.173037,34.998603],[-86.173019,34.99867],[-86.173055,34.998803],[-86.173128,34.998929],[-86.173272,34.999107],[-86.173337,34.999798],[-86.173439,35.00047],[-86.173502,35.000662],[-86.173657,35.000896],[-86.174099,35.001232],[-86.17438,35.001451],[-86.174597,35.001568],[-86.174983,35.001717],[-86.175224,35.001794],[-86.175416,35.001843],[-86.175577,35.001908],[-86.177825,35.000747],[-86.178542,35.001242],[-86.17957,35.001874]],[[-86.174853,34.99665],[-86.174931,34.996458],[-86.180044,35.000649],[-86.179054,35.001467],[-86.174223,34.997506],[-86.174436,34.997373],[-86.174579,34.997206],[-86.174853,34.99665]]]}},{"type":"Feature","id":"47051:026155    00300","properties":{"id":"47051:026155    00300","parcelId":"026155    00300","countyFips":"47051","countyName":"Franklin","state":"Tennessee","marketIds":["Huntsville"],"situsAddress":"ROWE GAP RD","situsCity":null,"situsZip":null,"jurisdictionCode":null,"ownerName":"GARRETT RANDALL H 1/2 INT ETAL","ownerName2":"GREGORY CLAY GARRETT ETUX 1/2 INT","propertyName":null,"zoningCode":null,"zoningDistrict":null,"jurisdictionPrefix":null,"dorCode":null,"acreage":116.8311,"centroid":[-86.151106,34.994802],"lastSale":{"date":"2021-09-15","price":null,"qualified":null,"vintage":"2023"},"tax":{"marketValue":77000.0,"assessedValue":null,"taxableValue":null,"taxes":null,"vintage":"2023"},"mailingAddress":{"line1":null,"line2":null,"city":null,"state":null,"zip":null},"incomeTract":null,"incomeBlockGroup":null,"nearestRoad":null,"flu":null,"opportunityZone":null,"oz2Eligibility":null,"source":"tn-oir-public-use-47051","appraiserUrl":"https://assessment.cot.tn.gov/TPAD/Parcel/GIS?gislink=026155%20%20%20%2000300"},"geometry":{"type":"Polygon","coordinates":[[[-86.142381,34.994545],[-86.14157,34.995614],[-86.14329,34.996027],[-86.144528,34.996477],[-86.147028,34.996662],[-86.147635,34.996805],[-86.148779,34.997179],[-86.149433,34.997643],[-86.150442,34.997395],[-86.150924,34.997196],[-86.151323,34.996959],[-86.151392,34.996817],[-86.151462,34.99664],[-86.151608,34.996337],[-86.151755,34.996082],[-86.15196,34.995894],[-86.15228,34.995681],[-86.152965,34.995263],[-86.153012,34.995218],[-86.153079,34.995127],[-86.153094,34.995032],[-86.153082,34.994904],[-86.153033,34.994728],[-86.152976,34.994437],[-86.153033,34.994337],[-86.153136,34.994187],[-86.153201,34.994109],[-86.153358,34.993971],[-86.153576,34.993703],[-86.153862,34.993502],[-86.153992,34.993348],[-86.154117,34.993093],[-86.154084,34.992688],[-86.15388,34.992437],[-86.153478,34.992233],[-86.153306,34.991985],[-86.153183,34.991609],[-86.152588,34.991831],[-86.151462,34.992305],[-86.144942,34.992084],[-86.142381,34.994545]]]}},{"type":"Feature","id":"47051:026154    00200","properties":{"id":"47051:026154    00200","parcelId":"026154    00200","countyFips":"47051","countyName":"Franklin","state":"Tennessee","marketIds":["Huntsville"],"situsAddress":"FRANCISCO RD","situsCity":null,"situsZip":null,"jurisdictionCode":null,"ownerName":"GREENE JAMES H ETUX","ownerName2":"ALLISON E GREENE","propertyName":null,"zoningCode":null,"zoningDistrict":null,"jurisdictionPrefix":null,"dorCode":null,"acreage":100.6376,"centroid":[-86.230291,34.992806],"lastSale":{"date":"2019-11-06","price":null,"qualified":null,"vintage":"2023"},"tax":{"marketValue":45900.0,"assessedValue":null,"taxableValue":null,"taxes":null,"vintage":"2023"},"mailingAddress":{"line1":null,"line2":null,"city":null,"state":null,"zip":null},"incomeTract":null,"incomeBlockGroup":null,"nearestRoad":null,"flu":null,"opportunityZone":null,"oz2Eligibility":null,"source":"tn-oir-public-use-47051","appraiserUrl":"https://assessment.cot.tn.gov/TPAD/Parcel/GIS?gislink=026154%20%20%20%2000200"},"geometry":{"type":"Polygon","coordinates":[[[-86.233685,34.991965],[-86.233812,34.991719],[-86.233982,34.991667],[-86.234193,34.991037],[-86.235117,34.990548],[-86.233677,34.99053],[-86.2257,34.99047],[-86.225449,34.990848],[-86.225181,34.99143],[-86.224974,34.991673],[-86.224946,34.993224],[-86.224459,34.993606],[-86.224184,34.994793],[-86.223966,34.9951],[-86.227364,34.995368],[-86.2279,34.995168],[-86.229295,34.995156],[-86.231207,34.994978],[-86.232248,34.994766],[-86.233229,34.993325],[-86.233353,34.993256],[-86.233454,34.992874],[-86.233879,34.992664],[-86.234176,34.992506],[-86.234175,34.992313],[-86.233962,34.991981],[-86.233685,34.991965]]]}},{"type":"Feature","id":"47051:026155    00600","properties":{"id":"47051:026155    00600","parcelId":"026155    00600","countyFips":"47051","countyName":"Franklin","state":"Tennessee","marketIds":["Huntsville"],"situsAddress":"BRADFORD RIDGE RD 348","situsCity":null,"situsZip":null,"jurisdictionCode":null,"ownerName":"SMITH RICHARD K TRUST","ownerName2":null,"propertyName":null,"zoningCode":null,"zoningDistrict":null,"jurisdictionPrefix":null,"dorCode":null,"acreage":95.4325,"centroid":[-86.172451,34.995365],"lastSale":{"date":"2021-01-05","price":400000.0,"qualified":null,"vintage":"2023"},"tax":{"marketValue":205600.0,"assessedValue":null,"taxableValue":null,"taxes":null,"vintage":"2023"},"mailingAddress":{"line1":null,"line2":null,"city":null,"state":null,"zip":null},"incomeTract":null,"incomeBlockGroup":null,"nearestRoad":null,"flu":null,"opportunityZone":null,"oz2Eligibility":null,"source":"tn-oir-public-use-47051","appraiserUrl":"https://assessment.cot.tn.gov/TPAD/Parcel/GIS?gislink=026155%20%20%20%2000600"},"geometry":{"type":"Polygon","coordinates":[[[-86.174641,34.990055],[-86.171593,34.990026],[-86.171934,34.991324],[-86.172758,34.991357],[-86.173244,34.991926],[-86.173535,34.99225],[-86.173533,34.993035],[-86.17295,34.994193],[-86.171769,34.994903],[-86.170842,34.995403],[-86.170597,34.995706],[-86.169915,34.99483],[-86.169619,34.994427],[-86.16932,34.993133],[-86.16909,34.992752],[-86.168423,34.992884],[-86.168682,34.99331],[-86.168985,34.994627],[-86.169289,34.99504],[-86.167538,34.995742],[-86.167424,34.997396],[-86.172263,35.00032],[-86.173165,35.000137],[-86.173044,35.00001],[-86.173076,35.000006],[-86.173301,34.99988],[-86.173337,34.999798],[-86.173272,34.999107],[-86.173128,34.998929],[-86.173055,34.998803],[-86.173019,34.99867],[-86.173037,34.998603],[-86.173118,34.998484],[-86.173325,34.998231],[-86.173451,34.998067],[-86.173595,34.997911],[-86.173726,34.997824],[-86.173609,34.997681],[-86.173747,34.99724],[-86.174025,34.996656],[-86.174313,34.995334],[-86.17473,34.994625],[-86.175712,34.99201],[-86.175676,34.991436],[-86.174896,34.991376],[-86.174704,34.99109],[-86.174848,34.99071],[-86.174812,34.990278],[-86.174641,34.990055]]]}},{"type":"Feature","id":"47051:026153    01700","properties":{"id":"47051:026153    01700","parcelId":"026153    01700","countyFips":"47051","countyName":"Franklin","state":"Tennessee","marketIds":["Huntsville"],"situsAddress":"FRANCISCO RD 6706","situsCity":null,"situsZip":null,"jurisdictionCode":null,"ownerName":"MARTINEZ LORENZO","ownerName2":null,"propertyName":null,"zoningCode":null,"zoningDistrict":null,"jurisdictionPrefix":null,"dorCode":null,"acreage":74.8335,"centroid":[-86.249617,34.996475],"lastSale":{"date":"2005-02-04","price":null,"qualified":null,"vintage":"2023"},"tax":{"marketValue":336400.0,"assessedValue":null,"taxableValue":null,"taxes":null,"vintage":"2023"},"mailingAddress":{"line1":null,"line2":null,"city":null,"state":null,"zip":null},"incomeTract":null,"incomeBlockGroup":null,"nearestRoad":null,"flu":null,"opportunityZone":null,"oz2Eligibility":null,"source":"tn-oir-public-use-47051","appraiserUrl":"https://assessment.cot.tn.gov/TPAD/Parcel/GIS?gislink=026153%20%20%20%2001700"},"geometry":{"type":"Polygon","coordinates":[[[-86.247702,34.99756],[-86.24794,34.998616],[-86.248111,34.99933],[-86.248212,34.999799],[-86.248268,35.000093],[-86.248303,35.000304],[-86.24832,35.000475],[-86.248324,35.000646],[-86.248576,35.000651],[-86.248688,35.000646],[-86.248729,35.00064],[-86.24877,35.000627],[-86.248808,35.000608],[-86.248839,35.000585],[-86.248866,35.000556],[-86.249649,34.999429],[-86.249706,34.999331],[-86.249748,34.999226],[-86.249772,34.999121],[-86.249826,34.998494],[-86.249838,34.998413],[-86.249856,34.998333],[-86.249892,34.998221],[-86.249943,34.998106],[-86.250005,34.997999],[-86.250081,34.997894],[-86.25016,34.997806],[-86.250242,34.997732],[-86.250335,34.997666],[-86.250441,34.997606],[-86.250635,34.997512],[-86.250842,34.997423],[-86.251021,34.997354],[-86.251277,34.997267],[-86.251382,34.997226],[-86.251507,34.997168],[-86.251613,34.997108],[-86.251659,34.997075],[-86.251704,34.997037],[-86.251744,34.996995],[-86.251779,34.99695],[-86.25181,34.996901],[-86.251832,34.996854],[-86.251851,34.9968],[-86.251862,34.99675],[-86.251881,34.99653],[-86.251896,34.996176],[-86.251909,34.996064],[-86.25193,34.995942],[-86.251742,34.995872],[-86.251527,34.99574],[-86.251378,34.99553],[-86.251347,34.9953],[-86.251449,34.995009],[-86.251589,34.994746],[-86.251696,34.994407],[-86.251706,34.994215],[-86.2516,34.993943],[-86.251427,34.993692],[-86.251195,34.993523],[-86.250916,34.993459],[-86.250587,34.993447],[-86.25047,34.993469],[-86.250457,34.993002],[-86.250376,34.990741],[-86.247509,34.990705],[-86.247495,34.991119],[-86.247471,34.991524],[-86.247436,34.991933],[-86.247391,34.992345],[-86.247349,34.99266],[-86.247304,34.992953],[-86.247249,34.993258],[-86.247144,34.993765],[-86.247112,34.99396],[-86.247088,34.994154],[-86.24707,34.994361],[-86.247066,34.994488],[-86.247069,34.994628],[-86.247083,34.994774],[-86.247111,34.994939],[-86.247244,34.99553],[-86.247933,34.995445],[-86.248041,34.996023],[-86.247375,34.996109],[-86.247575,34.997001],[-86.248267,34.996914],[-86.248389,34.997468],[-86.247702,34.99756]]]}},{"type":"Feature","id":"47051:026153    00900","properties":{"id":"47051:026153    00900","parcelId":"026153    00900","countyFips":"47051","countyName":"Franklin","state":"Tennessee","marketIds":["Huntsville"],"situsAddress":"KOGER LN 164","situsCity":null,"situsZip":null,"jurisdictionCode":null,"ownerName":"GREENE TONI SELZS","ownerName2":null,"propertyName":null,"zoningCode":null,"zoningDistrict":null,"jurisdictionPrefix":null,"dorCode":null,"acreage":67.0333,"centroid":[-86.242026,34.99886],"lastSale":{"date":"1980-03-27","price":null,"qualified":null,"vintage":"2023"},"tax":{"marketValue":328200.0,"assessedValue":null,"taxableValue":null,"taxes":null,"vintage":"2023"},"mailingAddress":{"line1":null,"line2":null,"city":null,"state":null,"zip":null},"incomeTract":null,"incomeBlockGroup":null,"nearestRoad":null,"flu":null,"opportunityZone":null,"oz2Eligibility":null,"source":"tn-oir-public-use-47051","appraiserUrl":"https://assessment.cot.tn.gov/TPAD/Parcel/GIS?gislink=026153%20%20%20%2000900"},"geometry":{"type":"MultiPolygon","coordinates":[[[[-86.240301,34.999608],[-86.240332,34.999584],[-86.240367,34.999567],[-86.240406,34.999555],[-86.240446,34.999549],[-86.240848,34.999553],[-86.241125,34.999552],[-86.241437,34.999543],[-86.241743,34.999527],[-86.242062,34.999505],[-86.242411,34.999475],[-86.243601,34.999358],[-86.243699,34.999344],[-86.243832,34.99931],[-86.243958,34.99926],[-86.244342,34.999066],[-86.244465,34.998997],[-86.244619,34.998902],[-86.244676,34.998874],[-86.244732,34.998852],[-86.244875,34.998805],[-86.245033,34.998761],[-86.245513,34.998643],[-86.245972,34.998524],[-86.246112,34.998494],[-86.245084,34.995831],[-86.239982,34.997049],[-86.239907,34.997284],[-86.239761,34.997572],[-86.239582,34.997856],[-86.239404,34.998121],[-86.239216,34.998422],[-86.23901,34.998711],[-86.238934,34.998885],[-86.23894,34.999098],[-86.239052,34.999305],[-86.239195,34.999487],[-86.240301,34.999608]]],[[[-86.246041,34.998593],[-86.245517,34.998728],[-86.245043,34.998845],[-86.244901,34.998885],[-86.244768,34.998929],[-86.244675,34.998971],[-86.244517,34.999068],[-86.244378,34.999145],[-86.244059,34.999306],[-86.24393,34.999365],[-86.243897,34.999443],[-86.243912,35.000296],[-86.244139,35.000854],[-86.244174,35.001096],[-86.244141,35.001386],[-86.24389,35.001836],[-86.243266,35.002716],[-86.245008,35.004884],[-86.245387,35.004162],[-86.24523,35.003867],[-86.24527,35.003779],[-86.245757,34.998911],[-86.246096,34.998838],[-86.246055,34.99859],[-86.246041,34.998593]]]]}},{"type":"Feature","id":"47051:026155    00400","properties":{"id":"47051:026155    00400","parcelId":"026155    00400","countyFips":"47051","countyName":"Franklin","state":"Tennessee","marketIds":["Huntsville"],"situsAddress":"ROWE GAP RD","situsCity":null,"situsZip":null,"jurisdictionCode":null,"ownerName":"BEFORT WILLA DEAN ETAL","ownerName2":"C/O BRANDON MASTERS","propertyName":null,"zoningCode":null,"zoningDistrict":null,"jurisdictionPrefix":null,"dorCode":null,"acreage":57.5353,"centroid":[-86.140899,34.992812],"lastSale":{"date":"2009-01-09","price":6400.0,"qualified":null,"vintage":"2023"},"tax":{"marketValue":38600.0,"assessedValue":null,"taxableValue":null,"taxes":null,"vintage":"2023"},"mailingAddress":{"line1":null,"line2":null,"city":null,"state":null,"zip":null},"incomeTract":null,"incomeBlockGroup":null,"nearestRoad":null,"flu":null,"opportunityZone":null,"oz2Eligibility":null,"source":"tn-oir-public-use-47051","appraiserUrl":"https://assessment.cot.tn.gov/TPAD/Parcel/GIS?gislink=026155%20%20%20%2000400"},"geometry":{"type":"Polygon","coordinates":[[[-86.13666,34.99018],[-86.139877,34.99213],[-86.139889,34.992211],[-86.139914,34.992288],[-86.139954,34.992367],[-86.140005,34.992437],[-86.140072,34.992505],[-86.14015,34.992565],[-86.140236,34.992612],[-86.140363,34.992664],[-86.140394,34.992683],[-86.140419,34.992704],[-86.140448,34.992741],[-86.14052,34.992871],[-86.140596,34.992984],[-86.140677,34.993085],[-86.140771,34.993184],[-86.140909,34.993304],[-86.141056,34.993407],[-86.141161,34.99347],[-86.141272,34.993526],[-86.141386,34.993577],[-86.141505,34.99362],[-86.141641,34.993717],[-86.14177,34.993821],[-86.14186,34.993901],[-86.141949,34.993986],[-86.142034,34.994074],[-86.142112,34.994163],[-86.142188,34.994257],[-86.142257,34.994351],[-86.142381,34.994545],[-86.144942,34.992084],[-86.144908,34.989768],[-86.140203,34.989722],[-86.135897,34.989717],[-86.13666,34.99018]]]}},{"type":"Feature","id":"47051:026153    01300","properties":{"id":"47051:026153    01300","parcelId":"026153    01300","countyFips":"47051","countyName":"Franklin","state":"Tennessee","marketIds":["Huntsville"],"situsAddress":"GREEN HILLS LN","situsCity":null,"situsZip":null,"jurisdictionCode":null,"ownerName":"GREENE TONI SELZS","ownerName2":null,"propertyName":null,"zoningCode":null,"zoningDistrict":null,"jurisdictionPrefix":null,"dorCode":null,"acreage":54.1842,"centroid":[-86.240476,34.994405],"lastSale":{"date":"1900-01-01","price":null,"qualified":null,"vintage":"2023"},"tax":{"marketValue":107700.0,"assessedValue":null,"taxableValue":null,"taxes":null,"vintage":"2023"},"mailingAddress":{"line1":null,"line2":null,"city":null,"state":null,"zip":null},"incomeTract":null,"incomeBlockGroup":null,"nearestRoad":null,"flu":null,"opportunityZone":null,"oz2Eligibility":null,"source":"tn-oir-public-use-47051","appraiserUrl":"https://assessment.cot.tn.gov/TPAD/Parcel/GIS?gislink=026153%20%20%20%2001300"},"geometry":{"type":"Polygon","coordinates":[[[-86.23719,34.993249],[-86.237455,34.993466],[-86.237713,34.993619],[-86.23831,34.994083],[-86.238544,34.994475],[-86.238712,34.994834],[-86.23894,34.995205],[-86.239202,34.995522],[-86.239628,34.99598],[-86.239795,34.996152],[-86.239948,34.996388],[-86.240006,34.996711],[-86.24002,34.996929],[-86.239982,34.997049],[-86.245084,34.995831],[-86.244618,34.994626],[-86.244587,34.994574],[-86.244092,34.993263],[-86.244074,34.99323],[-86.244048,34.993202],[-86.244012,34.993177],[-86.243974,34.993161],[-86.24392,34.99315],[-86.237631,34.992597],[-86.237205,34.992718],[-86.237092,34.992787],[-86.237074,34.992946],[-86.23719,34.993249]]]}},{"type":"Feature","id":"47051:026155    00301","properties":{"id":"47051:026155    00301","parcelId":"026155    00301","countyFips":"47051","countyName":"Franklin","state":"Tennessee","marketIds":["Huntsville"],"situsAddress":"ROWE GAP RD","situsCity":null,"situsZip":null,"jurisdictionCode":null,"ownerName":"GARRETT GREGORY CLAY ETUX","ownerName2":"CINDY MESHANE GARRETT","propertyName":null,"zoningCode":null,"zoningDistrict":null,"jurisdictionPrefix":null,"dorCode":null,"acreage":48.0554,"centroid":[-86.149764,34.990936],"lastSale":{"date":"2021-09-15","price":null,"qualified":null,"vintage":"2023"},"tax":{"marketValue":39500.0,"assessedValue":null,"taxableValue":null,"taxes":null,"vintage":"2023"},"mailingAddress":{"line1":null,"line2":null,"city":null,"state":null,"zip":null},"incomeTract":null,"incomeBlockGroup":null,"nearestRoad":null,"flu":null,"opportunityZone":null,"oz2Eligibility":null,"source":"tn-oir-public-use-47051","appraiserUrl":"https://assessment.cot.tn.gov/TPAD/Parcel/GIS?gislink=026155%20%20%20%2000301"},"geometry":{"type":"Polygon","coordinates":[[[-86.144912,34.990031],[-86.144941,34.992084],[-86.151462,34.992305],[-86.152588,34.991831],[-86.153183,34.991609],[-86.153114,34.990015],[-86.153003,34.989847],[-86.144908,34.989768],[-86.144912,34.990031]]]}},{"type":"Feature","id":"47051:026155    00601","properties":{"id":"47051:026155    00601","parcelId":"026155    00601","countyFips":"47051","countyName":"Franklin","state":"Tennessee","marketIds":["Huntsville"],"situsAddress":"BRADFORD RIDGE RD 646","situsCity":null,"situsZip":null,"jurisdictionCode":null,"ownerName":"WILSON NATHAN J","ownerName2":"REVOCABLE TRUST","propertyName":null,"zoningCode":null,"zoningDistrict":null,"jurisdictionPrefix":null,"dorCode":null,"acreage":46.7506,"centroid":[-86.169997,34.992023],"lastSale":{"date":"2020-10-21","price":550000.0,"qualified":null,"vintage":"2023"},"tax":{"marketValue":684900.0,"assessedValue":null,"taxableValue":null,"taxes":null,"vintage":"2023"},"mailingAddress":{"line1":null,"line2":null,"city":null,"state":null,"zip":null},"incomeTract":null,"incomeBlockGroup":null,"nearestRoad":null,"flu":null,"opportunityZone":null,"oz2Eligibility":null,"source":"tn-oir-public-use-47051","appraiserUrl":"https://assessment.cot.tn.gov/TPAD/Parcel/GIS?gislink=026155%20%20%20%2000601"},"geometry":{"type":"Polygon","coordinates":[[[-86.16909,34.992752],[-86.16932,34.993133],[-86.169619,34.994427],[-86.169915,34.99483],[-86.170597,34.995706],[-86.170842,34.995403],[-86.171769,34.994903],[-86.17295,34.994193],[-86.173533,34.993035],[-86.173535,34.99225],[-86.173244,34.991926],[-86.172758,34.991357],[-86.171934,34.991324],[-86.171593,34.990026],[-86.168594,34.989997],[-86.168603,34.990062],[-86.168619,34.990126],[-86.168635,34.990168],[-86.168679,34.990232],[-86.168794,34.990373],[-86.168872,34.990507],[-86.168878,34.990539],[-86.16872,34.990778],[-86.168583,34.991001],[-86.168394,34.991217],[-86.168371,34.991367],[-86.168532,34.991786],[-86.168862,34.992108],[-86.169019,34.992453],[-86.169062,34.992705],[-86.16909,34.992752]]]}},{"type":"Feature","id":"47051:026153    01600","properties":{"id":"47051:026153    01600","parcelId":"026153    01600","countyFips":"47051","countyName":"Franklin","state":"Tennessee","marketIds":["Huntsville"],"situsAddress":"GREEN HILL LN 312","situsCity":null,"situsZip":null,"jurisdictionCode":null,"ownerName":"GREENE JAMES H ETUX","ownerName2":"ALLISON E GREENE","propertyName":null,"zoningCode":null,"zoningDistrict":null,"jurisdictionPrefix":null,"dorCode":null,"acreage":45.2719,"centroid":[-86.241624,34.992367],"lastSale":{"date":"2018-02-05","price":null,"qualified":null,"vintage":"2023"},"tax":{"marketValue":226200.0,"assessedValue":null,"taxableValue":null,"taxes":null,"vintage":"2023"},"mailingAddress":{"line1":null,"line2":null,"city":null,"state":null,"zip":null},"incomeTract":null,"incomeBlockGroup":null,"nearestRoad":null,"flu":null,"opportunityZone":null,"oz2Eligibility":null,"source":"tn-oir-public-use-47051","appraiserUrl":"https://assessment.cot.tn.gov/TPAD/Parcel/GIS?gislink=026153%20%20%20%2001600"},"geometry":{"type":"Polygon","coordinates":[[[-86.24393,34.993068],[-86.244008,34.993083],[-86.244079,34.993115],[-86.243879,34.990659],[-86.235729,34.990556],[-86.235558,34.992415],[-86.242899,34.99306],[-86.242909,34.992978],[-86.24393,34.993068]]]}},{"type":"Feature","id":"47051:026154    00401","properties":{"id":"47051:026154    00401","parcelId":"026154    00401","countyFips":"47051","countyName":"Franklin","state":"Tennessee","marketIds":["Huntsville"],"situsAddress":"HONEY HOLLOW","situsCity":null,"situsZip":null,"jurisdictionCode":null,"ownerName":"KITE MARK R ETUX","ownerName2":"SHARON T KITE","propertyName":null,"zoningCode":null,"zoningDistrict":null,"jurisdictionPrefix":null,"dorCode":null,"acreage":41.8703,"centroid":[-86.182208,34.99136],"lastSale":{"date":"2011-08-11","price":null,"qualified":null,"vintage":"2023"},"tax":{"marketValue":20000.0,"assessedValue":null,"taxableValue":null,"taxes":null,"vintage":"2023"},"mailingAddress":{"line1":null,"line2":null,"city":null,"state":null,"zip":null},"incomeTract":null,"incomeBlockGroup":null,"nearestRoad":null,"flu":null,"opportunityZone":null,"oz2Eligibility":null,"source":"tn-oir-public-use-47051","appraiserUrl":"https://assessment.cot.tn.gov/TPAD/Parcel/GIS?gislink=026154%20%20%20%2000401"},"geometry":{"type":"Polygon","coordinates":[[[-86.179994,34.990469],[-86.17994,34.99073],[-86.179885,34.990866],[-86.179748,34.991116],[-86.179541,34.991411],[-86.179355,34.991719],[-86.180071,34.991774],[-86.17988,34.992296],[-86.179524,34.992865],[-86.179663,34.993516],[-86.183993,34.993504],[-86.183984,34.990287],[-86.191393,34.99072],[-86.191392,34.990206],[-86.18694,34.990171],[-86.180022,34.990106],[-86.179994,34.990469]]]}},{"type":"Feature","id":"47051:026153    01200","properties":{"id":"47051:026153    01200","parcelId":"026153    01200","countyFips":"47051","countyName":"Franklin","state":"Tennessee","marketIds":["Huntsville"],"situsAddress":"FRANCISCO RD 6769","situsCity":null,"situsZip":null,"jurisdictionCode":null,"ownerName":"ROBERTSON PHILLIP ETUX","ownerName2":"SHIRLEY ROBERTSON","propertyName":null,"zoningCode":null,"zoningDistrict":null,"jurisdictionPrefix":null,"dorCode":null,"acreage":29.2994,"centroid":[-86.245753,34.993246],"lastSale":{"date":"2004-10-20","price":15000.0,"qualified":null,"vintage":"2023"},"tax":{"marketValue":465600.0,"assessedValue":null,"taxableValue":null,"taxes":null,"vintage":"2023"},"mailingAddress":{"line1":null,"line2":null,"city":null,"state":null,"zip":null},"incomeTract":null,"incomeBlockGroup":null,"nearestRoad":null,"flu":null,"opportunityZone":null,"oz2Eligibility":null,"source":"tn-oir-public-use-47051","appraiserUrl":"https://assessment.cot.tn.gov/TPAD/Parcel/GIS?gislink=026153%20%20%20%2001200"},"geometry":{"type":"Polygon","coordinates":[[[-86.244079,34.993115],[-86.244113,34.993139],[-86.244141,34.993166],[-86.244165,34.993195],[-86.244184,34.99323],[-86.244683,34.994549],[-86.244694,34.994571],[-86.24471,34.99459],[-86.244731,34.994607],[-86.244754,34.99462],[-86.244798,34.994632],[-86.244845,34.994633],[-86.246935,34.994378],[-86.246957,34.994126],[-86.24699,34.993879],[-86.247028,34.993663],[-86.247111,34.993269],[-86.247163,34.992991],[-86.247212,34.992675],[-86.247262,34.992302],[-86.247306,34.991896],[-86.247339,34.991489],[-86.247363,34.991082],[-86.247376,34.990703],[-86.243879,34.990659],[-86.244079,34.993115]]]}},{"type":"Feature","id":"47051:026155    00602","properties":{"id":"47051:026155    00602","parcelId":"026155    00602","countyFips":"47051","countyName":"Franklin","state":"Tennessee","marketIds":["Huntsville"],"situsAddress":"BRADFORD RIDGE","situsCity":null,"situsZip":null,"jurisdictionCode":null,"ownerName":"SMITH RICHARD K TRUST","ownerName2":null,"propertyName":null,"zoningCode":null,"zoningDistrict":null,"jurisdictionPrefix":null,"dorCode":null,"acreage":21.0219,"centroid":[-86.168367,34.991073],"lastSale":{"date":"2021-01-05","price":400000.0,"qualified":null,"vintage":"2023"},"tax":{"marketValue":9500.0,"assessedValue":null,"taxableValue":null,"taxes":null,"vintage":"2023"},"mailingAddress":{"line1":null,"line2":null,"city":null,"state":null,"zip":null},"incomeTract":null,"incomeBlockGroup":null,"nearestRoad":null,"flu":null,"opportunityZone":null,"oz2Eligibility":null,"source":"tn-oir-public-use-47051","appraiserUrl":"https://assessment.cot.tn.gov/TPAD/Parcel/GIS?gislink=026155%20%20%20%2000602"},"geometry":{"type":"Polygon","coordinates":[[[-86.165276,34.992245],[-86.16909,34.992752],[-86.169062,34.992705],[-86.169019,34.992453],[-86.168862,34.992108],[-86.168532,34.991786],[-86.168371,34.991367],[-86.168394,34.991217],[-86.168583,34.991001],[-86.16872,34.990778],[-86.168878,34.990539],[-86.168872,34.990507],[-86.168794,34.990373],[-86.168679,34.990232],[-86.168635,34.990168],[-86.168619,34.990126],[-86.168603,34.990062],[-86.168594,34.989997],[-86.165391,34.989966],[-86.165276,34.992245]]]}},{"type":"Feature","id":"47051:026153    01202","properties":{"id":"47051:026153    01202","parcelId":"026153    01202","countyFips":"47051","countyName":"Franklin","state":"Tennessee","marketIds":["Huntsville"],"situsAddress":"FRANCISCO RD","situsCity":null,"situsZip":null,"jurisdictionCode":null,"ownerName":"GREENE TONI S","ownerName2":null,"propertyName":null,"zoningCode":null,"zoningDistrict":null,"jurisdictionPrefix":null,"dorCode":null,"acreage":20.4931,"centroid":[-86.246549,34.99714],"lastSale":{"date":"2006-10-05","price":null,"qualified":null,"vintage":"2023"},"tax":{"marketValue":32700.0,"assessedValue":null,"taxableValue":null,"taxes":null,"vintage":"2023"},"mailingAddress":{"line1":null,"line2":null,"city":null,"state":null,"zip":null},"incomeTract":null,"incomeBlockGroup":null,"nearestRoad":null,"flu":null,"opportunityZone":null,"oz2Eligibility":null,"source":"tn-oir-public-use-47051","appraiserUrl":"https://assessment.cot.tn.gov/TPAD/Parcel/GIS?gislink=026153%20%20%20%2001202"},"geometry":{"type":"Polygon","coordinates":[[[-86.246986,34.994989],[-86.246961,34.994858],[-86.246943,34.994726],[-86.246934,34.994594],[-86.246932,34.994462],[-86.244846,34.994716],[-86.24478,34.994713],[-86.244717,34.994696],[-86.244662,34.994666],[-86.244618,34.994626],[-86.246112,34.998494],[-86.246197,34.99848],[-86.246259,34.998476],[-86.246324,34.998479],[-86.246394,34.99849],[-86.246638,34.99855],[-86.246896,34.998625],[-86.24704,34.998673],[-86.247158,34.998727],[-86.247259,34.99879],[-86.247353,34.998867],[-86.247961,34.999486],[-86.24802,34.99953],[-86.247943,34.999191],[-86.247797,34.998588],[-86.246986,34.994989]]]}},{"type":"Feature","id":"47051:026155    00104","properties":{"id":"47051:026155    00104","parcelId":"026155    00104","countyFips":"47051","countyName":"Franklin","state":"Tennessee","marketIds":["Huntsville"],"situsAddress":"DONNIE'S COVE LN 585","situsCity":null,"situsZip":null,"jurisdictionCode":null,"ownerName":"BROWN DONALD E ETUX","ownerName2":"MARTHA BROWN","propertyName":null,"zoningCode":null,"zoningDistrict":null,"jurisdictionPrefix":null,"dorCode":null,"acreage":20.0318,"centroid":[-86.176017,34.998187],"lastSale":{"date":null,"price":null,"qualified":null},"tax":{"marketValue":null,"assessedValue":null,"taxableValue":null,"taxes":null},"mailingAddress":{"line1":null,"line2":null,"city":null,"state":null,"zip":null},"incomeTract":null,"incomeBlockGroup":null,"nearestRoad":null,"flu":null,"opportunityZone":null,"oz2Eligibility":null,"source":"tn-oir-public-use-47051","appraiserUrl":"https://assessment.cot.tn.gov/TPAD/Parcel/GIS?gislink=026155%20%20%20%2000104"},"geometry":{"type":"Polygon","coordinates":[[[-86.174853,34.99665],[-86.174579,34.997206],[-86.174436,34.997373],[-86.174223,34.997506],[-86.179054,35.001467],[-86.180044,35.000649],[-86.174931,34.996458],[-86.174853,34.99665]]]}},{"type":"Feature","id":"47051:026153    00901","properties":{"id":"47051:026153    00901","parcelId":"026153    00901","countyFips":"47051","countyName":"Franklin","state":"Tennessee","marketIds":["Huntsville"],"situsAddress":"KOGER LN 103","situsCity":null,"situsZip":null,"jurisdictionCode":null,"ownerName":"GREENE CAROL SUE","ownerName2":null,"propertyName":null,"zoningCode":null,"zoningDistrict":null,"jurisdictionPrefix":null,"dorCode":null,"acreage":14.8353,"centroid":[-86.246867,34.999422],"lastSale":{"date":"2006-10-05","price":null,"qualified":null,"vintage":"2023"},"tax":{"marketValue":397600.0,"assessedValue":null,"taxableValue":null,"taxes":null,"vintage":"2023"},"mailingAddress":{"line1":null,"line2":null,"city":null,"state":null,"zip":null},"incomeTract":null,"incomeBlockGroup":null,"nearestRoad":null,"flu":null,"opportunityZone":null,"oz2Eligibility":null,"source":"tn-oir-public-use-47051","appraiserUrl":"https://assessment.cot.tn.gov/TPAD/Parcel/GIS?gislink=026153%20%20%20%2000901"},"geometry":{"type":"Polygon","coordinates":[[[-86.245757,34.998911],[-86.24527,35.003779],[-86.246502,35.001074],[-86.247661,35.00092],[-86.247467,35.000294],[-86.248157,35.000227],[-86.248063,34.999733],[-86.247633,34.999739],[-86.247405,34.999465],[-86.247825,34.999478],[-86.247278,34.998922],[-86.247196,34.998855],[-86.247108,34.998799],[-86.247035,34.998763],[-86.246961,34.998734],[-86.246807,34.998685],[-86.246643,34.998638],[-86.24635,34.998566],[-86.246289,34.998559],[-86.246227,34.99856],[-86.246154,34.998571],[-86.246055,34.99859],[-86.246096,34.998838],[-86.245757,34.998911]]]}}]}