{"type":"FeatureCollection","name":"47003--13_34","features":[{"type":"Feature","id":"47003:002036    00700","properties":{"id":"47003:002036    00700","parcelId":"002036    00700","countyFips":"47003","countyName":"Bedford","state":"Tennessee","marketIds":["Nashville"],"situsAddress":"WALKER RD","situsCity":null,"situsZip":null,"jurisdictionCode":null,"ownerName":"HARRIS JIMMY ET UX MARTHA","ownerName2":"W","propertyName":null,"zoningCode":null,"zoningDistrict":null,"jurisdictionPrefix":null,"dorCode":null,"acreage":143.745,"centroid":[-86.249314,35.587365],"lastSale":{"date":"2004-06-14","price":null,"qualified":null,"vintage":"2023"},"tax":{"marketValue":100600.0,"assessedValue":null,"taxableValue":null,"taxes":null,"vintage":"2023"},"mailingAddress":{"line1":null,"line2":null,"city":null,"state":null,"zip":null},"incomeTract":null,"incomeBlockGroup":null,"nearestRoad":null,"flu":null,"opportunityZone":null,"oz2Eligibility":null,"source":"tn-oir-public-use-47003","appraiserUrl":"https://assessment.cot.tn.gov/TPAD/Parcel/GIS?gislink=002036%20%20%20%2000700"},"geometry":{"type":"Polygon","coordinates":[[[-86.254151,35.586354],[-86.254323,35.586218],[-86.254446,35.586131],[-86.254569,35.586037],[-86.246516,35.583201],[-86.246116,35.584523],[-86.243328,35.583929],[-86.242354,35.581871],[-86.239412,35.582998],[-86.240296,35.583413],[-86.240979,35.584125],[-86.243312,35.58571],[-86.243667,35.587031],[-86.243827,35.587178],[-86.244173,35.587173],[-86.242752,35.588137],[-86.242786,35.588904],[-86.244146,35.590143],[-86.245829,35.588817],[-86.247858,35.589334],[-86.252157,35.590719],[-86.252152,35.590652],[-86.252052,35.590422],[-86.251892,35.590022],[-86.251764,35.589798],[-86.251594,35.58956],[-86.25154,35.589364],[-86.251525,35.589105],[-86.251521,35.588849],[-86.251555,35.588575],[-86.251554,35.588446],[-86.251638,35.588304],[-86.251705,35.588174],[-86.251799,35.588042],[-86.251961,35.587894],[-86.252249,35.587692],[-86.252485,35.587579],[-86.252661,35.58751],[-86.252988,35.587362],[-86.253312,35.587223],[-86.253501,35.587081],[-86.253628,35.586995],[-86.253758,35.586885],[-86.253972,35.58659],[-86.254151,35.586354]]]}},{"type":"Feature","id":"47003:002035    01600","properties":{"id":"47003:002035    01600","parcelId":"002035    01600","countyFips":"47003","countyName":"Bedford","state":"Tennessee","marketIds":["Nashville"],"situsAddress":"WALKER RD","situsCity":null,"situsZip":null,"jurisdictionCode":null,"ownerName":"ANDERSON TOMMY TRUSTEE","ownerName2":null,"propertyName":null,"zoningCode":null,"zoningDistrict":null,"jurisdictionPrefix":null,"dorCode":null,"acreage":142.3729,"centroid":[-86.246737,35.60469],"lastSale":{"date":"2000-03-27","price":null,"qualified":null,"vintage":"2023"},"tax":{"marketValue":186400.0,"assessedValue":null,"taxableValue":null,"taxes":null,"vintage":"2023"},"mailingAddress":{"line1":null,"line2":null,"city":null,"state":null,"zip":null},"incomeTract":null,"incomeBlockGroup":null,"nearestRoad":null,"flu":null,"opportunityZone":null,"oz2Eligibility":null,"source":"tn-oir-public-use-47003","appraiserUrl":"https://assessment.cot.tn.gov/TPAD/Parcel/GIS?gislink=002035%20%20%20%2001600"},"geometry":{"type":"MultiPolygon","coordinates":[[[[-86.243443,35.606986],[-86.24359,35.607046],[-86.243728,35.607111],[-86.243797,35.60715],[-86.243914,35.607227],[-86.243974,35.607248],[-86.244048,35.607258],[-86.244102,35.60725],[-86.244157,35.607223],[-86.244195,35.607188],[-86.244242,35.607123],[-86.244265,35.607066],[-86.244279,35.606952],[-86.244301,35.606908],[-86.244354,35.606872],[-86.244416,35.606855],[-86.244502,35.606849],[-86.244749,35.60685],[-86.244833,35.606856],[-86.244932,35.606875],[-86.245003,35.606907],[-86.245111,35.60698],[-86.245276,35.607085],[-86.245334,35.607118],[-86.245395,35.607144],[-86.245465,35.607165],[-86.245527,35.607179],[-86.245735,35.607208],[-86.246261,35.60718],[-86.246329,35.607081],[-86.246376,35.607026],[-86.246437,35.606975],[-86.246507,35.606933],[-86.246583,35.606903],[-86.247207,35.606718],[-86.247314,35.606673],[-86.247417,35.606613],[-86.24751,35.606539],[-86.247767,35.606283],[-86.248084,35.605993],[-86.248186,35.60588],[-86.248272,35.605761],[-86.24838,35.605572],[-86.248473,35.605374],[-86.248546,35.605185],[-86.248618,35.604948],[-86.248659,35.60483],[-86.248717,35.604692],[-86.248788,35.604549],[-86.248893,35.604374],[-86.249947,35.602788],[-86.249995,35.602697],[-86.250037,35.602601],[-86.25007,35.602502],[-86.250092,35.602407],[-86.250111,35.602263],[-86.250112,35.602115],[-86.249969,35.600324],[-86.249951,35.600141],[-86.249927,35.599958],[-86.249855,35.599539],[-86.249857,35.599497],[-86.24987,35.599459],[-86.249892,35.599425],[-86.249923,35.599394],[-86.249897,35.598864],[-86.245475,35.598827],[-86.245503,35.596584],[-86.245421,35.596684],[-86.243129,35.596551],[-86.24331,35.600596],[-86.243443,35.606986]]],[[[-86.248882,35.60458],[-86.248816,35.604711],[-86.248763,35.604834],[-86.248718,35.60496],[-86.248662,35.605149],[-86.248622,35.605266],[-86.248568,35.605402],[-86.248512,35.605526],[-86.248436,35.605672],[-86.248349,35.605818],[-86.248271,35.605925],[-86.248178,35.60603],[-86.248117,35.60609],[-86.247844,35.606337],[-86.247581,35.606597],[-86.247514,35.606652],[-86.247442,35.606702],[-86.247341,35.606756],[-86.247235,35.606798],[-86.24659,35.606991],[-86.246549,35.607009],[-86.246508,35.607034],[-86.246474,35.60706],[-86.246443,35.60709],[-86.246523,35.607038],[-86.246676,35.606978],[-86.246903,35.606919],[-86.24709,35.606861],[-86.247291,35.606816],[-86.24743,35.60677],[-86.247646,35.606669],[-86.247695,35.606636],[-86.247781,35.60655],[-86.247815,35.606503],[-86.247844,35.606463],[-86.247873,35.606414],[-86.247911,35.60633],[-86.247937,35.606294],[-86.247981,35.606251],[-86.248232,35.606045],[-86.248472,35.605879],[-86.248566,35.605803],[-86.248601,35.60577],[-86.248705,35.605695],[-86.24875,35.605653],[-86.248768,35.605608],[-86.248779,35.605561],[-86.248783,35.605498],[-86.248751,35.605156],[-86.248757,35.605103],[-86.248772,35.60504],[-86.248791,35.60499],[-86.248842,35.604882],[-86.248874,35.604828],[-86.248924,35.60477],[-86.248965,35.60473],[-86.249001,35.604699],[-86.249062,35.604656],[-86.249113,35.604628],[-86.24916,35.604608],[-86.249217,35.604591],[-86.249299,35.604578],[-86.249356,35.604575],[-86.249426,35.604577],[-86.249558,35.604587],[-86.249815,35.604595],[-86.249874,35.6046],[-86.250162,35.604654],[-86.250216,35.604653],[-86.25026,35.604633],[-86.250301,35.604591],[-86.250357,35.604542],[-86.250393,35.604492],[-86.250447,35.604363],[-86.250733,35.601429],[-86.250571,35.600792],[-86.250492,35.60053],[-86.250389,35.600211],[-86.25026,35.599753],[-86.250139,35.599376],[-86.250126,35.599358],[-86.249984,35.599461],[-86.249962,35.599494],[-86.249955,35.599531],[-86.250021,35.599908],[-86.25006,35.600215],[-86.250211,35.602088],[-86.250215,35.602184],[-86.250211,35.602278],[-86.2502,35.602373],[-86.250182,35.602466],[-86.250157,35.602557],[-86.250124,35.602649],[-86.250085,35.602737],[-86.250038,35.602825],[-86.248982,35.604414],[-86.248882,35.60458]]]]}},{"type":"Feature","id":"47003:002036    00400","properties":{"id":"47003:002036    00400","parcelId":"002036    00400","countyFips":"47003","countyName":"Bedford","state":"Tennessee","marketIds":["Nashville"],"situsAddress":"WALKER RD","situsCity":null,"situsZip":null,"jurisdictionCode":null,"ownerName":"RICHEY ERIC ETUX CHRISTI","ownerName2":null,"propertyName":null,"zoningCode":null,"zoningDistrict":null,"jurisdictionPrefix":null,"dorCode":null,"acreage":96.2139,"centroid":[-86.249582,35.595821],"lastSale":{"date":"2021-03-22","price":2250000.0,"qualified":null,"vintage":"2023"},"tax":{"marketValue":336800.0,"assessedValue":null,"taxableValue":null,"taxes":null,"vintage":"2023"},"mailingAddress":{"line1":null,"line2":null,"city":null,"state":null,"zip":null},"incomeTract":null,"incomeBlockGroup":null,"nearestRoad":null,"flu":null,"opportunityZone":null,"oz2Eligibility":null,"source":"tn-oir-public-use-47003","appraiserUrl":"https://assessment.cot.tn.gov/TPAD/Parcel/GIS?gislink=002036%20%20%20%2000400"},"geometry":{"type":"Polygon","coordinates":[[[-86.244146,35.590143],[-86.241952,35.591871],[-86.242388,35.592226],[-86.245834,35.592379],[-86.247318,35.593014],[-86.248135,35.593547],[-86.249755,35.593938],[-86.249462,35.595787],[-86.249463,35.596012],[-86.249625,35.596219],[-86.249637,35.59665],[-86.249467,35.597157],[-86.249344,35.598321],[-86.249346,35.59886],[-86.249897,35.598864],[-86.249923,35.599394],[-86.250255,35.599161],[-86.250276,35.599142],[-86.250292,35.599119],[-86.250301,35.599095],[-86.250306,35.599065],[-86.250304,35.598959],[-86.25029,35.598882],[-86.250247,35.598729],[-86.250239,35.59867],[-86.250236,35.598613],[-86.250239,35.598548],[-86.250249,35.598484],[-86.250268,35.598415],[-86.250292,35.598353],[-86.250336,35.598271],[-86.250476,35.598059],[-86.251221,35.597047],[-86.251247,35.597002],[-86.251263,35.596958],[-86.251636,35.594117],[-86.251807,35.592953],[-86.251832,35.591851],[-86.25213,35.591266],[-86.252168,35.591162],[-86.252174,35.590943],[-86.252157,35.590719],[-86.247858,35.589334],[-86.245829,35.588817],[-86.244146,35.590143]]]}},{"type":"Feature","id":"47003:002035    01200","properties":{"id":"47003:002035    01200","parcelId":"002035    01200","countyFips":"47003","countyName":"Bedford","state":"Tennessee","marketIds":["Nashville"],"situsAddress":"WALKER RD","situsCity":null,"situsZip":null,"jurisdictionCode":null,"ownerName":"MORTON BRANDON T","ownerName2":null,"propertyName":null,"zoningCode":null,"zoningDistrict":null,"jurisdictionPrefix":null,"dorCode":null,"acreage":95.6022,"centroid":[-86.245513,35.614614],"lastSale":{"date":"2020-10-02","price":328300.0,"qualified":null,"vintage":"2023"},"tax":{"marketValue":108300.0,"assessedValue":null,"taxableValue":null,"taxes":null,"vintage":"2023"},"mailingAddress":{"line1":null,"line2":null,"city":null,"state":null,"zip":null},"incomeTract":null,"incomeBlockGroup":null,"nearestRoad":null,"flu":null,"opportunityZone":null,"oz2Eligibility":null,"source":"tn-oir-public-use-47003","appraiserUrl":"https://assessment.cot.tn.gov/TPAD/Parcel/GIS?gislink=002035%20%20%20%2001200"},"geometry":{"type":"MultiPolygon","coordinates":[[[[-86.244852,35.610791],[-86.2445,35.611829],[-86.244545,35.611848],[-86.244621,35.611867],[-86.24479,35.611879],[-86.244889,35.611909],[-86.244957,35.61194],[-86.245028,35.611961],[-86.245093,35.611992],[-86.245149,35.612047],[-86.2452,35.612134],[-86.245379,35.612472],[-86.245412,35.612548],[-86.245441,35.612707],[-86.245438,35.612825],[-86.245416,35.612936],[-86.245427,35.61306],[-86.245427,35.613161],[-86.245417,35.613205],[-86.245372,35.61328],[-86.245329,35.613305],[-86.245208,35.613398],[-86.245183,35.613425],[-86.245155,35.613466],[-86.245138,35.613528],[-86.24513,35.613577],[-86.245088,35.613726],[-86.245076,35.613914],[-86.245089,35.613982],[-86.245127,35.614075],[-86.245147,35.614155],[-86.245206,35.614273],[-86.245219,35.614322],[-86.24527,35.614615],[-86.245273,35.614683],[-86.245293,35.614905],[-86.245291,35.614971],[-86.245304,35.615033],[-86.245309,35.615101],[-86.245309,35.615165],[-86.245302,35.615231],[-86.245302,35.615369],[-86.245295,35.615508],[-86.245298,35.615607],[-86.245281,35.615774],[-86.245266,35.615863],[-86.245269,35.61603],[-86.245257,35.616288],[-86.245265,35.616381],[-86.245278,35.616443],[-86.245281,35.616536],[-86.245304,35.616767],[-86.245302,35.61695],[-86.245262,35.616994],[-86.245166,35.617064],[-86.245126,35.617099],[-86.245013,35.617144],[-86.244884,35.617186],[-86.244718,35.617231],[-86.244629,35.617244],[-86.244369,35.617312],[-86.244266,35.617329],[-86.24418,35.617331],[-86.243986,35.61735],[-86.24394,35.617365],[-86.243872,35.617404],[-86.243765,35.617478],[-86.243725,35.617515],[-86.243653,35.6176],[-86.244998,35.617816],[-86.244384,35.619868],[-86.244389,35.620065],[-86.244397,35.620155],[-86.244392,35.620174],[-86.244411,35.62022],[-86.247037,35.620525],[-86.247141,35.620305],[-86.246918,35.620228],[-86.246974,35.618449],[-86.248521,35.618312],[-86.249473,35.611215],[-86.249167,35.61114],[-86.248957,35.610935],[-86.248765,35.61093],[-86.248408,35.610795],[-86.248192,35.610691],[-86.248061,35.610554],[-86.247934,35.610519],[-86.24776,35.610574],[-86.247758,35.610515],[-86.24666,35.610337],[-86.24647,35.610457],[-86.245985,35.610725],[-86.245804,35.610772],[-86.245558,35.610761],[-86.244947,35.610525],[-86.244852,35.610791]]],[[[-86.245363,35.608064],[-86.245285,35.608188],[-86.245263,35.608214],[-86.245202,35.608258],[-86.245137,35.608293],[-86.245091,35.608312],[-86.245021,35.608333],[-86.244925,35.608355],[-86.244834,35.60837],[-86.244756,35.608389],[-86.244675,35.608418],[-86.244544,35.60848],[-86.244477,35.608524],[-86.244457,35.608547],[-86.244359,35.608624],[-86.244328,35.608665],[-86.24426,35.608727],[-86.244228,35.608779],[-86.244185,35.608832],[-86.24414,35.608907],[-86.244102,35.609031],[-86.244068,35.609193],[-86.244048,35.609319],[-86.243988,35.6095],[-86.243973,35.609597],[-86.243973,35.609767],[-86.243958,35.609835],[-86.243928,35.609899],[-86.243893,35.609992],[-86.243876,35.610151],[-86.243869,35.610355],[-86.243895,35.610496],[-86.243933,35.610638],[-86.243977,35.610834],[-86.243992,35.610935],[-86.244015,35.611009],[-86.244036,35.611139],[-86.244061,35.611226],[-86.244089,35.611343],[-86.244158,35.611542],[-86.244186,35.611653],[-86.244204,35.611696],[-86.244223,35.61172],[-86.244609,35.610587],[-86.24473,35.610256],[-86.244799,35.610098],[-86.244848,35.610005],[-86.245016,35.609711],[-86.245323,35.609193],[-86.245603,35.608741],[-86.245969,35.608178],[-86.245975,35.608163],[-86.245977,35.608151],[-86.245386,35.608023],[-86.245363,35.608064]]]]}},{"type":"Feature","id":"47003:002054    00401","properties":{"id":"47003:002054    00401","parcelId":"002054    00401","countyFips":"47003","countyName":"Bedford","state":"Tennessee","marketIds":["Nashville"],"situsAddress":"DR JACKSON RD","situsCity":null,"situsZip":null,"jurisdictionCode":null,"ownerName":"JACOBS FARMS LLC","ownerName2":null,"propertyName":null,"zoningCode":null,"zoningDistrict":null,"jurisdictionPrefix":null,"dorCode":null,"acreage":79.0439,"centroid":[-86.244363,35.573078],"lastSale":{"date":"2007-09-13","price":null,"qualified":null,"vintage":"2023"},"tax":{"marketValue":131500.0,"assessedValue":null,"taxableValue":null,"taxes":null,"vintage":"2023"},"mailingAddress":{"line1":null,"line2":null,"city":null,"state":null,"zip":null},"incomeTract":null,"incomeBlockGroup":null,"nearestRoad":null,"flu":null,"opportunityZone":null,"oz2Eligibility":null,"source":"tn-oir-public-use-47003","appraiserUrl":"https://assessment.cot.tn.gov/TPAD/Parcel/GIS?gislink=002054%20%20%20%2000401"},"geometry":{"type":"Polygon","coordinates":[[[-86.245682,35.570868],[-86.245588,35.570772],[-86.245557,35.570694],[-86.245493,35.570631],[-86.245357,35.570581],[-86.245215,35.570546],[-86.244926,35.570551],[-86.24411,35.570645],[-86.243584,35.570687],[-86.24333,35.570636],[-86.243045,35.570569],[-86.24211,35.570581],[-86.241624,35.570621],[-86.241497,35.570701],[-86.241173,35.571014],[-86.240837,35.571286],[-86.240497,35.57155],[-86.240169,35.571751],[-86.23992,35.571875],[-86.239546,35.57228],[-86.23901,35.572956],[-86.238569,35.573905],[-86.238493,35.574018],[-86.238449,35.574126],[-86.238439,35.574317],[-86.238585,35.574697],[-86.238774,35.574695],[-86.24162,35.574967],[-86.242005,35.574994],[-86.242593,35.575026],[-86.242937,35.575053],[-86.24322,35.57508],[-86.244337,35.575203],[-86.244785,35.575244],[-86.245189,35.575274],[-86.245307,35.575277],[-86.245431,35.575271],[-86.245545,35.575259],[-86.24566,35.57524],[-86.245773,35.575213],[-86.245886,35.575178],[-86.245999,35.575134],[-86.246098,35.575087],[-86.246154,35.575054],[-86.246208,35.575015],[-86.246261,35.57497],[-86.246308,35.574922],[-86.246345,35.574875],[-86.24638,35.574822],[-86.246441,35.574693],[-86.246525,35.574483],[-86.246598,35.574275],[-86.246659,35.574072],[-86.246792,35.573573],[-86.246883,35.573264],[-86.246925,35.573148],[-86.246978,35.573034],[-86.247066,35.572887],[-86.247119,35.572815],[-86.247176,35.572746],[-86.247301,35.572618],[-86.247371,35.572557],[-86.247447,35.572497],[-86.247316,35.572209],[-86.247177,35.571942],[-86.247044,35.571761],[-86.246892,35.571646],[-86.246558,35.571381],[-86.246203,35.571197],[-86.245895,35.571052],[-86.245798,35.570962],[-86.245682,35.570868]]]}},{"type":"Feature","id":"47003:002036    00402","properties":{"id":"47003:002036    00402","parcelId":"002036    00402","countyFips":"47003","countyName":"Bedford","state":"Tennessee","marketIds":["Nashville"],"situsAddress":"WALKER RD 484","situsCity":null,"situsZip":null,"jurisdictionCode":null,"ownerName":"RICHEY ERIC ET UX","ownerName2":"CHRISTI","propertyName":null,"zoningCode":null,"zoningDistrict":null,"jurisdictionPrefix":null,"dorCode":null,"acreage":58.515,"centroid":[-86.247609,35.595378],"lastSale":{"date":"2021-03-22","price":2250000.0,"qualified":null,"vintage":"2023"},"tax":{"marketValue":791900.0,"assessedValue":null,"taxableValue":null,"taxes":null,"vintage":"2023"},"mailingAddress":{"line1":null,"line2":null,"city":null,"state":null,"zip":null},"incomeTract":null,"incomeBlockGroup":null,"nearestRoad":null,"flu":null,"opportunityZone":null,"oz2Eligibility":null,"source":"tn-oir-public-use-47003","appraiserUrl":"https://assessment.cot.tn.gov/TPAD/Parcel/GIS?gislink=002036%20%20%20%2000402"},"geometry":{"type":"Polygon","coordinates":[[[-86.248135,35.593547],[-86.247318,35.593014],[-86.245834,35.592379],[-86.245572,35.592905],[-86.245183,35.593337],[-86.245023,35.593844],[-86.245208,35.59405],[-86.245503,35.596584],[-86.245475,35.598827],[-86.249346,35.59886],[-86.249344,35.598321],[-86.249467,35.597157],[-86.249637,35.59665],[-86.249625,35.596219],[-86.249463,35.596012],[-86.249462,35.595787],[-86.249755,35.593938],[-86.248135,35.593547]]]}},{"type":"Feature","id":"47003:002035    00902","properties":{"id":"47003:002035    00902","parcelId":"002035    00902","countyFips":"47003","countyName":"Bedford","state":"Tennessee","marketIds":["Nashville"],"situsAddress":"HWY 64-E 7150","situsCity":null,"situsZip":null,"jurisdictionCode":null,"ownerName":"QUALLS WAYNE A ET UX KATHY","ownerName2":null,"propertyName":null,"zoningCode":null,"zoningDistrict":null,"jurisdictionPrefix":null,"dorCode":null,"acreage":53.5568,"centroid":[-86.249616,35.620677],"lastSale":{"date":"2004-11-04","price":null,"qualified":null,"vintage":"2023"},"tax":{"marketValue":1753800.0,"assessedValue":null,"taxableValue":null,"taxes":null,"vintage":"2023"},"mailingAddress":{"line1":null,"line2":null,"city":null,"state":null,"zip":null},"incomeTract":null,"incomeBlockGroup":null,"nearestRoad":null,"flu":null,"opportunityZone":null,"oz2Eligibility":null,"source":"tn-oir-public-use-47003","appraiserUrl":"https://assessment.cot.tn.gov/TPAD/Parcel/GIS?gislink=002035%20%20%20%2000902"},"geometry":{"type":"Polygon","coordinates":[[[-86.248159,35.620655],[-86.247831,35.623787],[-86.24874,35.622803],[-86.248967,35.622784],[-86.249193,35.622752],[-86.249415,35.622708],[-86.249629,35.622651],[-86.250041,35.622417],[-86.250614,35.62168],[-86.2509,35.621489],[-86.250978,35.62138],[-86.250243,35.621081],[-86.250607,35.620609],[-86.251244,35.620862],[-86.25165,35.619838],[-86.252124,35.618694],[-86.252357,35.618162],[-86.252775,35.617259],[-86.248722,35.616809],[-86.248521,35.618312],[-86.246974,35.618449],[-86.246918,35.620228],[-86.247141,35.620305],[-86.247037,35.620525],[-86.248159,35.620655]]]}},{"type":"Feature","id":"47003:002074    07201","properties":{"id":"47003:002074    07201","parcelId":"002074    07201","countyFips":"47003","countyName":"Bedford","state":"Tennessee","marketIds":["Nashville"],"situsAddress":"BEDFORD LAKE RD 920","situsCity":null,"situsZip":null,"jurisdictionCode":null,"ownerName":"TIDWELL SCOTT ETUX","ownerName2":"CAROL ANNE","propertyName":null,"zoningCode":null,"zoningDistrict":null,"jurisdictionPrefix":null,"dorCode":null,"acreage":53.365,"centroid":[-86.242856,35.509054],"lastSale":{"date":"1993-09-21","price":46500.0,"qualified":null,"vintage":"2023"},"tax":{"marketValue":195800.0,"assessedValue":null,"taxableValue":null,"taxes":null,"vintage":"2023"},"mailingAddress":{"line1":null,"line2":null,"city":null,"state":null,"zip":null},"incomeTract":null,"incomeBlockGroup":null,"nearestRoad":null,"flu":null,"opportunityZone":null,"oz2Eligibility":null,"source":"tn-oir-public-use-47003","appraiserUrl":"https://assessment.cot.tn.gov/TPAD/Parcel/GIS?gislink=002074%20%20%20%2007201"},"geometry":{"type":"MultiPolygon","coordinates":[[[[-86.241165,35.508106],[-86.242225,35.512455],[-86.243829,35.512623],[-86.243852,35.512503],[-86.243894,35.51238],[-86.243947,35.512274],[-86.244049,35.512101],[-86.244153,35.511944],[-86.244276,35.511778],[-86.244388,35.511641],[-86.244569,35.511436],[-86.244686,35.508865],[-86.242654,35.508781],[-86.243332,35.503888],[-86.242868,35.503856],[-86.242858,35.503945],[-86.239456,35.504633],[-86.239906,35.505879],[-86.240366,35.505994],[-86.24065,35.505993],[-86.241165,35.508106]]],[[[-86.243925,35.512682],[-86.243924,35.512698],[-86.244502,35.51292],[-86.244513,35.51268],[-86.243925,35.512682]]]]}},{"type":"Feature","id":"47003:002018    01200","properties":{"id":"47003:002018    01200","parcelId":"002018    01200","countyFips":"47003","countyName":"Bedford","state":"Tennessee","marketIds":["Nashville"],"situsAddress":"JAKE BRANCH RD","situsCity":null,"situsZip":null,"jurisdictionCode":null,"ownerName":"SWANSON DEVELOPMENTS LP","ownerName2":"TN LIMITED PARTNERSHIP","propertyName":null,"zoningCode":null,"zoningDistrict":null,"jurisdictionPrefix":null,"dorCode":null,"acreage":50.1731,"centroid":[-86.248445,35.630073],"lastSale":{"date":"2017-10-24","price":204000.0,"qualified":null,"vintage":"2023"},"tax":{"marketValue":31600.0,"assessedValue":null,"taxableValue":null,"taxes":null,"vintage":"2023"},"mailingAddress":{"line1":null,"line2":null,"city":null,"state":null,"zip":null},"incomeTract":null,"incomeBlockGroup":null,"nearestRoad":null,"flu":null,"opportunityZone":null,"oz2Eligibility":null,"source":"tn-oir-public-use-47003","appraiserUrl":"https://assessment.cot.tn.gov/TPAD/Parcel/GIS?gislink=002018%20%20%20%2001200"},"geometry":{"type":"Polygon","coordinates":[[[-86.246764,35.631935],[-86.248116,35.631964],[-86.248506,35.631956],[-86.248928,35.631961],[-86.250097,35.631985],[-86.250193,35.631977],[-86.251099,35.631996],[-86.251358,35.632004],[-86.251729,35.632035],[-86.25198,35.632027],[-86.253193,35.632048],[-86.25331,35.632043],[-86.253592,35.632071],[-86.25394,35.629762],[-86.252225,35.629657],[-86.252135,35.629238],[-86.251679,35.630194],[-86.251328,35.630541],[-86.250816,35.6296],[-86.24959,35.62875],[-86.249183,35.628581],[-86.247744,35.628353],[-86.24768,35.628085],[-86.24763,35.628036],[-86.247301,35.628202],[-86.247181,35.628272],[-86.247077,35.62834],[-86.246961,35.628423],[-86.246846,35.628516],[-86.246743,35.62861],[-86.246646,35.628709],[-86.246552,35.628817],[-86.24647,35.628924],[-86.246389,35.629045],[-86.246323,35.629159],[-86.246262,35.629282],[-86.246212,35.629401],[-86.246171,35.629523],[-86.246136,35.629658],[-86.246115,35.629765],[-86.2461,35.629879],[-86.246093,35.629987],[-86.246092,35.630101],[-86.246098,35.630221],[-86.246112,35.630335],[-86.246131,35.630442],[-86.246159,35.630554],[-86.246195,35.63067],[-86.246642,35.631932],[-86.246764,35.631935]],[[-86.248157,35.629214],[-86.248226,35.629117],[-86.249785,35.629123],[-86.249926,35.629225],[-86.249123,35.630287],[-86.248987,35.630286],[-86.248157,35.629214]]]}},{"type":"Feature","id":"47003:002073    01300","properties":{"id":"47003:002073    01300","parcelId":"002073    01300","countyFips":"47003","countyName":"Bedford","state":"Tennessee","marketIds":["Nashville"],"situsAddress":"BEDFORD LAKE RD 1190","situsCity":null,"situsZip":null,"jurisdictionCode":null,"ownerName":"GOLGATA KEITH D ETUX AMANDA D","ownerName2":null,"propertyName":null,"zoningCode":null,"zoningDistrict":null,"jurisdictionPrefix":null,"dorCode":null,"acreage":40.7341,"centroid":[-86.245124,35.525147],"lastSale":{"date":"2017-03-31","price":235000.0,"qualified":null,"vintage":"2023"},"tax":{"marketValue":178400.0,"assessedValue":null,"taxableValue":null,"taxes":null,"vintage":"2023"},"mailingAddress":{"line1":null,"line2":null,"city":null,"state":null,"zip":null},"incomeTract":null,"incomeBlockGroup":null,"nearestRoad":null,"flu":null,"opportunityZone":null,"oz2Eligibility":null,"source":"tn-oir-public-use-47003","appraiserUrl":"https://assessment.cot.tn.gov/TPAD/Parcel/GIS?gislink=002073%20%20%20%2001300"},"geometry":{"type":"Polygon","coordinates":[[[-86.244745,35.528025],[-86.245172,35.529303],[-86.246098,35.529416],[-86.246125,35.529359],[-86.246159,35.529304],[-86.246198,35.529251],[-86.24624,35.529203],[-86.246289,35.529156],[-86.246339,35.529114],[-86.246394,35.529076],[-86.246455,35.529039],[-86.246425,35.528948],[-86.246399,35.528848],[-86.24638,35.52875],[-86.246368,35.528657],[-86.246344,35.528067],[-86.246321,35.527668],[-86.246287,35.527247],[-86.246232,35.52673],[-86.24623,35.52668],[-86.246238,35.526598],[-86.246446,35.525508],[-86.246469,35.525339],[-86.246538,35.523985],[-86.24653,35.523894],[-86.246501,35.523808],[-86.246474,35.523758],[-86.246436,35.523707],[-86.246393,35.523661],[-86.246337,35.523615],[-86.246266,35.523566],[-86.246192,35.523523],[-86.246119,35.523489],[-86.246038,35.523457],[-86.245959,35.523434],[-86.245868,35.523413],[-86.245531,35.523368],[-86.245275,35.523327],[-86.245017,35.52328],[-86.244741,35.523221],[-86.244582,35.523183],[-86.244476,35.523151],[-86.244367,35.523108],[-86.244264,35.523057],[-86.244151,35.522986],[-86.244046,35.522904],[-86.243957,35.522817],[-86.243881,35.522723],[-86.243814,35.522617],[-86.243764,35.522509],[-86.243729,35.522396],[-86.24371,35.52228],[-86.242084,35.522276],[-86.242146,35.522414],[-86.242242,35.522664],[-86.242308,35.522825],[-86.242444,35.523331],[-86.242537,35.523594],[-86.242644,35.523919],[-86.242756,35.524074],[-86.24285,35.524164],[-86.243188,35.524722],[-86.244311,35.526726],[-86.244745,35.528025]]]}},{"type":"Feature","id":"47003:002074    07204","properties":{"id":"47003:002074    07204","parcelId":"002074    07204","countyFips":"47003","countyName":"Bedford","state":"Tennessee","marketIds":["Nashville"],"situsAddress":"OFF DAWDY CREEK RD","situsCity":null,"situsZip":null,"jurisdictionCode":null,"ownerName":"LAXTON CHARLES ALLEN","ownerName2":null,"propertyName":null,"zoningCode":null,"zoningDistrict":null,"jurisdictionPrefix":null,"dorCode":null,"acreage":37.3767,"centroid":[-86.240338,35.510617],"lastSale":{"date":"2008-05-21","price":80000.0,"qualified":null,"vintage":"2023"},"tax":{"marketValue":14500.0,"assessedValue":null,"taxableValue":null,"taxes":null,"vintage":"2023"},"mailingAddress":{"line1":null,"line2":null,"city":null,"state":null,"zip":null},"incomeTract":null,"incomeBlockGroup":null,"nearestRoad":null,"flu":null,"opportunityZone":null,"oz2Eligibility":null,"source":"tn-oir-public-use-47003","appraiserUrl":"https://assessment.cot.tn.gov/TPAD/Parcel/GIS?gislink=002074%20%20%20%2007204"},"geometry":{"type":"Polygon","coordinates":[[[-86.239846,35.51269],[-86.240292,35.51359],[-86.240924,35.513717],[-86.24224,35.513913],[-86.242331,35.513904],[-86.242197,35.512453],[-86.242225,35.512455],[-86.241165,35.508106],[-86.240679,35.508246],[-86.240163,35.508212],[-86.239785,35.508245],[-86.23953,35.508239],[-86.238869,35.508311],[-86.238134,35.508471],[-86.238598,35.509512],[-86.238433,35.509812],[-86.239846,35.51269]]]}},{"type":"Feature","id":"47003:002073    01400","properties":{"id":"47003:002073    01400","parcelId":"002073    01400","countyFips":"47003","countyName":"Bedford","state":"Tennessee","marketIds":["Nashville"],"situsAddress":"BEDFORD LAKE RD","situsCity":null,"situsZip":null,"jurisdictionCode":null,"ownerName":"HALE BRUCE HAROLD ETUX","ownerName2":"JANA UHERKOVA","propertyName":null,"zoningCode":null,"zoningDistrict":null,"jurisdictionPrefix":null,"dorCode":null,"acreage":33.6763,"centroid":[-86.247651,35.523521],"lastSale":{"date":"2021-01-13","price":500000.0,"qualified":null,"vintage":"2023"},"tax":{"marketValue":306600.0,"assessedValue":null,"taxableValue":null,"taxes":null,"vintage":"2023"},"mailingAddress":{"line1":null,"line2":null,"city":null,"state":null,"zip":null},"incomeTract":null,"incomeBlockGroup":null,"nearestRoad":null,"flu":null,"opportunityZone":null,"oz2Eligibility":null,"source":"tn-oir-public-use-47003","appraiserUrl":"https://assessment.cot.tn.gov/TPAD/Parcel/GIS?gislink=002073%20%20%20%2001400"},"geometry":{"type":"Polygon","coordinates":[[[-86.24637,35.527062],[-86.24758,35.52711],[-86.247841,35.525916],[-86.248357,35.525977],[-86.248302,35.525239],[-86.248434,35.524847],[-86.248831,35.524193],[-86.249291,35.523539],[-86.249012,35.522335],[-86.251009,35.519691],[-86.248425,35.519494],[-86.247199,35.519443],[-86.247825,35.51998],[-86.248071,35.52042],[-86.248261,35.521006],[-86.248384,35.52128],[-86.248728,35.521652],[-86.248322,35.522307],[-86.248242,35.522721],[-86.247402,35.522876],[-86.246932,35.523256],[-86.246672,35.523607],[-86.246525,35.523667],[-86.246578,35.523744],[-86.246614,35.523825],[-86.246635,35.523912],[-86.246639,35.523998],[-86.246576,35.525264],[-86.246565,35.525392],[-86.246543,35.525536],[-86.246332,35.526649],[-86.246332,35.52672],[-86.24637,35.527062]]]}},{"type":"Feature","id":"47003:002073    01402","properties":{"id":"47003:002073    01402","parcelId":"002073    01402","countyFips":"47003","countyName":"Bedford","state":"Tennessee","marketIds":["Nashville"],"situsAddress":"BEDFORD LAKE RD","situsCity":null,"situsZip":null,"jurisdictionCode":null,"ownerName":"HALE BRUCE H ET UX JANA U","ownerName2":null,"propertyName":null,"zoningCode":null,"zoningDistrict":null,"jurisdictionPrefix":null,"dorCode":null,"acreage":31.452,"centroid":[-86.245687,35.522438],"lastSale":{"date":"2006-10-14","price":70000.0,"qualified":null,"vintage":"2023"},"tax":{"marketValue":21300.0,"assessedValue":null,"taxableValue":null,"taxes":null,"vintage":"2023"},"mailingAddress":{"line1":null,"line2":null,"city":null,"state":null,"zip":null},"incomeTract":null,"incomeBlockGroup":null,"nearestRoad":null,"flu":null,"opportunityZone":null,"oz2Eligibility":null,"source":"tn-oir-public-use-47003","appraiserUrl":"https://assessment.cot.tn.gov/TPAD/Parcel/GIS?gislink=002073%20%20%20%2001402"},"geometry":{"type":"Polygon","coordinates":[[[-86.243929,35.521315],[-86.243812,35.522109],[-86.243807,35.522199],[-86.243812,35.522291],[-86.243826,35.522368],[-86.243845,35.52244],[-86.243871,35.52251],[-86.243905,35.52258],[-86.243947,35.522651],[-86.243994,35.522716],[-86.244049,35.522781],[-86.244107,35.522837],[-86.244213,35.522922],[-86.244333,35.522995],[-86.244462,35.523055],[-86.244597,35.523101],[-86.244845,35.523159],[-86.245111,35.523213],[-86.245458,35.523273],[-86.245883,35.523332],[-86.245983,35.523353],[-86.246084,35.523384],[-86.246209,35.523435],[-86.246331,35.523503],[-86.246393,35.523545],[-86.246448,35.523589],[-86.24649,35.523627],[-86.246525,35.523667],[-86.246672,35.523607],[-86.246932,35.523256],[-86.247402,35.522876],[-86.248242,35.522721],[-86.248322,35.522307],[-86.248728,35.521652],[-86.248384,35.52128],[-86.248261,35.521006],[-86.248071,35.52042],[-86.247825,35.51998],[-86.247199,35.519443],[-86.245993,35.519394],[-86.245304,35.521041],[-86.245267,35.521447],[-86.243929,35.521315]]]}},{"type":"Feature","id":"47003:002073    04100","properties":{"id":"47003:002073    04100","parcelId":"002073    04100","countyFips":"47003","countyName":"Bedford","state":"Tennessee","marketIds":["Nashville"],"situsAddress":"BEDFORD LAKE RD","situsCity":null,"situsZip":null,"jurisdictionCode":null,"ownerName":"HALE BRUCE H ETUX JANA","ownerName2":null,"propertyName":null,"zoningCode":null,"zoningDistrict":null,"jurisdictionPrefix":null,"dorCode":null,"acreage":23.4119,"centroid":[-86.243359,35.519535],"lastSale":{"date":"2019-03-12","price":null,"qualified":null,"vintage":"2023"},"tax":{"marketValue":13700.0,"assessedValue":null,"taxableValue":null,"taxes":null,"vintage":"2023"},"mailingAddress":{"line1":null,"line2":null,"city":null,"state":null,"zip":null},"incomeTract":null,"incomeBlockGroup":null,"nearestRoad":null,"flu":null,"opportunityZone":null,"oz2Eligibility":null,"source":"tn-oir-public-use-47003","appraiserUrl":"https://assessment.cot.tn.gov/TPAD/Parcel/GIS?gislink=002073%20%20%20%2004100"},"geometry":{"type":"MultiPolygon","coordinates":[[[[-86.242533,35.521253],[-86.243828,35.52131],[-86.243989,35.52036],[-86.244146,35.519548],[-86.244397,35.518411],[-86.244508,35.517938],[-86.243431,35.517807],[-86.242334,35.517709],[-86.242625,35.518297],[-86.242644,35.521128],[-86.242509,35.521123],[-86.242533,35.521253]]],[[[-86.24466,35.517714],[-86.244396,35.51886],[-86.244232,35.51963],[-86.244075,35.520449],[-86.243929,35.521315],[-86.245267,35.521447],[-86.245304,35.521041],[-86.24606,35.519234],[-86.24594,35.519191],[-86.244883,35.519095],[-86.245015,35.51773],[-86.244668,35.517677],[-86.24466,35.517714]]]]}},{"type":"Feature","id":"47003:002073    04900","properties":{"id":"47003:002073    04900","parcelId":"002073    04900","countyFips":"47003","countyName":"Bedford","state":"Tennessee","marketIds":["Nashville"],"situsAddress":"KNOB CREEK RD N OF 2011","situsCity":null,"situsZip":null,"jurisdictionCode":null,"ownerName":"STERLING MICHAEL S ET UX","ownerName2":"MELISSA R","propertyName":null,"zoningCode":null,"zoningDistrict":null,"jurisdictionPrefix":null,"dorCode":null,"acreage":21.6143,"centroid":[-86.247489,35.531106],"lastSale":{"date":"2014-10-20","price":44190.0,"qualified":null,"vintage":"2023"},"tax":{"marketValue":371100.0,"assessedValue":null,"taxableValue":null,"taxes":null,"vintage":"2023"},"mailingAddress":{"line1":null,"line2":null,"city":null,"state":null,"zip":null},"incomeTract":null,"incomeBlockGroup":null,"nearestRoad":null,"flu":null,"opportunityZone":null,"oz2Eligibility":null,"source":"tn-oir-public-use-47003","appraiserUrl":"https://assessment.cot.tn.gov/TPAD/Parcel/GIS?gislink=002073%20%20%20%2004900"},"geometry":{"type":"Polygon","coordinates":[[[-86.245893,35.53021],[-86.246454,35.532647],[-86.247019,35.533762],[-86.247538,35.533519],[-86.247537,35.533516],[-86.248231,35.533225],[-86.248558,35.533124],[-86.248688,35.533058],[-86.249369,35.532815],[-86.249447,35.532815],[-86.248697,35.530062],[-86.248655,35.529918],[-86.247944,35.529925],[-86.24794,35.529937],[-86.247891,35.529936],[-86.247995,35.530006],[-86.248028,35.530941],[-86.247638,35.53095],[-86.247583,35.530842],[-86.247386,35.530565],[-86.247297,35.530448],[-86.247192,35.530341],[-86.24706,35.530251],[-86.246907,35.530195],[-86.246749,35.530151],[-86.246586,35.530114],[-86.246143,35.530019],[-86.24615,35.530001],[-86.246073,35.529972],[-86.246009,35.529912],[-86.245893,35.53021]]]}},{"type":"Feature","id":"47003:002074    07200","properties":{"id":"47003:002074    07200","parcelId":"002074    07200","countyFips":"47003","countyName":"Bedford","state":"Tennessee","marketIds":["Nashville"],"situsAddress":"J D MCCULLOUGH LN 140","situsCity":null,"situsZip":null,"jurisdictionCode":null,"ownerName":"RHOTON FRED JR ETUX PAM","ownerName2":null,"propertyName":null,"zoningCode":null,"zoningDistrict":null,"jurisdictionPrefix":null,"dorCode":null,"acreage":17.5061,"centroid":[-86.24078,35.507851],"lastSale":{"date":"2021-12-20","price":30000.0,"qualified":null,"vintage":"2023"},"tax":{"marketValue":245800.0,"assessedValue":null,"taxableValue":null,"taxes":null,"vintage":"2023"},"mailingAddress":{"line1":null,"line2":null,"city":null,"state":null,"zip":null},"incomeTract":null,"incomeBlockGroup":null,"nearestRoad":null,"flu":null,"opportunityZone":null,"oz2Eligibility":null,"source":"tn-oir-public-use-47003","appraiserUrl":"https://assessment.cot.tn.gov/TPAD/Parcel/GIS?gislink=002074%20%20%20%2007200"},"geometry":{"type":"Polygon","coordinates":[[[-86.241165,35.508106],[-86.24065,35.505993],[-86.240366,35.505994],[-86.239906,35.505879],[-86.239456,35.504633],[-86.238536,35.504831],[-86.23694,35.505793],[-86.237494,35.507035],[-86.237682,35.506989],[-86.237862,35.507413],[-86.238106,35.507327],[-86.238372,35.507282],[-86.238815,35.508323],[-86.238869,35.508311],[-86.239468,35.508245],[-86.238804,35.506541],[-86.239455,35.506207],[-86.23962,35.506133],[-86.239798,35.506078],[-86.239897,35.506204],[-86.240179,35.507288],[-86.240346,35.508224],[-86.240679,35.508246],[-86.241165,35.508106]],[[-86.240962,35.507585],[-86.240602,35.507628],[-86.240574,35.507476],[-86.240375,35.506709],[-86.240734,35.506644],[-86.240962,35.507585]]]}},{"type":"Feature","id":"47003:002073    01201","properties":{"id":"47003:002073    01201","parcelId":"002073    01201","countyFips":"47003","countyName":"Bedford","state":"Tennessee","marketIds":["Nashville"],"situsAddress":"HOBBS LN 330","situsCity":null,"situsZip":null,"jurisdictionCode":null,"ownerName":"BUSH LARRY ETUX SHERRY","ownerName2":null,"propertyName":null,"zoningCode":null,"zoningDistrict":null,"jurisdictionPrefix":null,"dorCode":null,"acreage":17.1302,"centroid":[-86.2429,35.526949],"lastSale":{"date":"2022-05-24","price":null,"qualified":null,"vintage":"2023"},"tax":{"marketValue":178200.0,"assessedValue":null,"taxableValue":null,"taxes":null,"vintage":"2023"},"mailingAddress":{"line1":null,"line2":null,"city":null,"state":null,"zip":null},"incomeTract":null,"incomeBlockGroup":null,"nearestRoad":null,"flu":null,"opportunityZone":null,"oz2Eligibility":null,"source":"tn-oir-public-use-47003","appraiserUrl":"https://assessment.cot.tn.gov/TPAD/Parcel/GIS?gislink=002073%20%20%20%2001201"},"geometry":{"type":"Polygon","coordinates":[[[-86.24226,35.527892],[-86.242333,35.527937],[-86.242755,35.528223],[-86.243096,35.528468],[-86.243396,35.528054],[-86.244153,35.528411],[-86.244135,35.528338],[-86.244192,35.528024],[-86.244745,35.528025],[-86.244311,35.526726],[-86.243188,35.524722],[-86.242618,35.525142],[-86.242413,35.525094],[-86.242055,35.524656],[-86.241674,35.525198],[-86.241816,35.526134],[-86.241774,35.526619],[-86.242402,35.526779],[-86.242343,35.527155],[-86.242332,35.527375],[-86.24226,35.527892]]]}},{"type":"Feature","id":"47003:002073    00900","properties":{"id":"47003:002073    00900","parcelId":"002073    00900","countyFips":"47003","countyName":"Bedford","state":"Tennessee","marketIds":["Nashville"],"situsAddress":"KNOB CREEK RD","situsCity":null,"situsZip":null,"jurisdictionCode":null,"ownerName":"ELLIOTT QUINNIE N D ETUX","ownerName2":null,"propertyName":null,"zoningCode":null,"zoningDistrict":null,"jurisdictionPrefix":null,"dorCode":null,"acreage":16.7323,"centroid":[-86.244336,35.531898],"lastSale":{"date":"1992-05-06","price":null,"qualified":null,"vintage":"2023"},"tax":{"marketValue":14300.0,"assessedValue":null,"taxableValue":null,"taxes":null,"vintage":"2023"},"mailingAddress":{"line1":null,"line2":null,"city":null,"state":null,"zip":null},"incomeTract":null,"incomeBlockGroup":null,"nearestRoad":null,"flu":null,"opportunityZone":null,"oz2Eligibility":null,"source":"tn-oir-public-use-47003","appraiserUrl":"https://assessment.cot.tn.gov/TPAD/Parcel/GIS?gislink=002073%20%20%20%2000900"},"geometry":{"type":"Polygon","coordinates":[[[-86.242868,35.532465],[-86.242785,35.532515],[-86.242792,35.53286],[-86.243055,35.532664],[-86.243385,35.532921],[-86.243011,35.533198],[-86.242795,35.533031],[-86.242806,35.534629],[-86.244732,35.534625],[-86.245868,35.530275],[-86.24582,35.530384],[-86.245766,35.530484],[-86.245696,35.53059],[-86.245621,35.530684],[-86.245512,35.530802],[-86.245395,35.530915],[-86.245277,35.531017],[-86.24514,35.531122],[-86.245013,35.531211],[-86.244877,35.531296],[-86.24383,35.531894],[-86.243345,35.532179],[-86.242868,35.532465]]]}},{"type":"Feature","id":"47003:002018    01207","properties":{"id":"47003:002018    01207","parcelId":"002018    01207","countyFips":"47003","countyName":"Bedford","state":"Tennessee","marketIds":["Nashville"],"situsAddress":"HOOVERS GAP RD 155","situsCity":null,"situsZip":null,"jurisdictionCode":null,"ownerName":"FERNANDEZ ANDREW ETUX TRICIA","ownerName2":null,"propertyName":null,"zoningCode":null,"zoningDistrict":null,"jurisdictionPrefix":null,"dorCode":null,"acreage":15.2609,"centroid":[-86.249355,35.628225],"lastSale":{"date":"2019-05-30","price":584900.0,"qualified":null,"vintage":"2023"},"tax":{"marketValue":428800.0,"assessedValue":null,"taxableValue":null,"taxes":null,"vintage":"2023"},"mailingAddress":{"line1":null,"line2":null,"city":null,"state":null,"zip":null},"incomeTract":null,"incomeBlockGroup":null,"nearestRoad":null,"flu":null,"opportunityZone":null,"oz2Eligibility":null,"source":"tn-oir-public-use-47003","appraiserUrl":"https://assessment.cot.tn.gov/TPAD/Parcel/GIS?gislink=002018%20%20%20%2001207"},"geometry":{"type":"Polygon","coordinates":[[[-86.247713,35.62799],[-86.24763,35.628036],[-86.24768,35.628085],[-86.247744,35.628353],[-86.249183,35.628581],[-86.24959,35.62875],[-86.250816,35.6296],[-86.251328,35.630541],[-86.251679,35.630194],[-86.252336,35.628818],[-86.252062,35.627919],[-86.251019,35.627968],[-86.250999,35.627979],[-86.25035,35.627968],[-86.249463,35.627743],[-86.248502,35.627216],[-86.248428,35.627333],[-86.248349,35.627441],[-86.248263,35.627544],[-86.248171,35.62764],[-86.248067,35.627736],[-86.247958,35.627825],[-86.247835,35.627913],[-86.247713,35.62799]]]}},{"type":"Feature","id":"47003:002054    00601","properties":{"id":"47003:002054    00601","parcelId":"002054    00601","countyFips":"47003","countyName":"Bedford","state":"Tennessee","marketIds":["Nashville"],"situsAddress":"CLYDE GLEAVES RD","situsCity":null,"situsZip":null,"jurisdictionCode":null,"ownerName":"RIDDLE ROSE ANNE ETVIR","ownerName2":"NICKOLAS A SMITH","propertyName":null,"zoningCode":null,"zoningDistrict":null,"jurisdictionPrefix":null,"dorCode":null,"acreage":15.0386,"centroid":[-86.24763,35.574028],"lastSale":{"date":"2018-09-21","price":98877.0,"qualified":null,"vintage":"2023"},"tax":{"marketValue":104600.0,"assessedValue":null,"taxableValue":null,"taxes":null,"vintage":"2023"},"mailingAddress":{"line1":null,"line2":null,"city":null,"state":null,"zip":null},"incomeTract":null,"incomeBlockGroup":null,"nearestRoad":null,"flu":null,"opportunityZone":null,"oz2Eligibility":null,"source":"tn-oir-public-use-47003","appraiserUrl":"https://assessment.cot.tn.gov/TPAD/Parcel/GIS?gislink=002054%20%20%20%2000601"},"geometry":{"type":"Polygon","coordinates":[[[-86.246014,35.575279],[-86.246252,35.575301],[-86.246388,35.575318],[-86.247368,35.575254],[-86.247838,35.575214],[-86.248689,35.57536],[-86.248886,35.575425],[-86.248945,35.575448],[-86.249296,35.575633],[-86.249207,35.575023],[-86.249673,35.57432],[-86.249648,35.574054],[-86.249638,35.574044],[-86.249618,35.573903],[-86.249559,35.57374],[-86.249461,35.573622],[-86.24932,35.573487],[-86.249144,35.573244],[-86.249059,35.573192],[-86.248719,35.573224],[-86.248383,35.573267],[-86.248248,35.573291],[-86.248073,35.57328],[-86.247906,35.573242],[-86.247712,35.573151],[-86.24761,35.573088],[-86.247558,35.573021],[-86.24752,35.572915],[-86.247515,35.572816],[-86.247486,35.57258],[-86.247412,35.572641],[-86.247344,35.572703],[-86.247278,35.572771],[-86.24722,35.572839],[-86.247163,35.572915],[-86.247115,35.572989],[-86.247072,35.573065],[-86.247033,35.573145],[-86.246989,35.573258],[-86.246928,35.57346],[-86.246847,35.573748],[-86.246754,35.574103],[-86.246696,35.574294],[-86.246592,35.574585],[-86.246526,35.574743],[-86.246483,35.574836],[-86.246443,35.574902],[-86.246395,35.574964],[-86.246342,35.575019],[-86.246281,35.575072],[-86.246216,35.575119],[-86.246143,35.575161],[-86.246058,35.575201],[-86.24597,35.575238],[-86.246014,35.575279]]]}},{"type":"Feature","id":"47003:002018    01100","properties":{"id":"47003:002018    01100","parcelId":"002018    01100","countyFips":"47003","countyName":"Bedford","state":"Tennessee","marketIds":["Nashville"],"situsAddress":"HOOVERS GAP RD 160","situsCity":null,"situsZip":null,"jurisdictionCode":null,"ownerName":"JERNIGAN TIMOTHY T ETUX","ownerName2":"JENNY C","propertyName":null,"zoningCode":null,"zoningDistrict":null,"jurisdictionPrefix":null,"dorCode":null,"acreage":12.8956,"centroid":[-86.246938,35.627537],"lastSale":{"date":"1993-11-29","price":7185.0,"qualified":null,"vintage":"2023"},"tax":{"marketValue":230400.0,"assessedValue":null,"taxableValue":null,"taxes":null,"vintage":"2023"},"mailingAddress":{"line1":null,"line2":null,"city":null,"state":null,"zip":null},"incomeTract":null,"incomeBlockGroup":null,"nearestRoad":null,"flu":null,"opportunityZone":null,"oz2Eligibility":null,"source":"tn-oir-public-use-47003","appraiserUrl":"https://assessment.cot.tn.gov/TPAD/Parcel/GIS?gislink=002018%20%20%20%2001100"},"geometry":{"type":"Polygon","coordinates":[[[-86.247394,35.626151],[-86.24691,35.626327],[-86.244949,35.627075],[-86.245699,35.627883],[-86.245604,35.628298],[-86.245552,35.629537],[-86.245631,35.629734],[-86.245792,35.62952],[-86.245844,35.629399],[-86.2459,35.629287],[-86.245962,35.629175],[-86.246033,35.629062],[-86.246164,35.62888],[-86.246302,35.628718],[-86.246493,35.628276],[-86.246644,35.628138],[-86.246803,35.628005],[-86.246971,35.62788],[-86.24715,35.627761],[-86.247336,35.627649],[-86.247525,35.627547],[-86.247722,35.627453],[-86.247923,35.627368],[-86.248295,35.626926],[-86.248461,35.626089],[-86.248345,35.625842],[-86.248223,35.625899],[-86.248098,35.625952],[-86.247971,35.626001],[-86.247844,35.626045],[-86.247743,35.626073],[-86.247636,35.626095],[-86.247534,35.626108],[-86.247426,35.626113],[-86.247394,35.626151]]]}},{"type":"Feature","id":"47003:002055    00900","properties":{"id":"47003:002055    00900","parcelId":"002055    00900","countyFips":"47003","countyName":"Bedford","state":"Tennessee","marketIds":["Nashville"],"situsAddress":"KNOB CREEK RD","situsCity":null,"situsZip":null,"jurisdictionCode":null,"ownerName":"WOOLDRIDGE JESS WILLIAM","ownerName2":"ET UX CAROLYN P","propertyName":null,"zoningCode":null,"zoningDistrict":null,"jurisdictionPrefix":null,"dorCode":null,"acreage":12.7115,"centroid":[-86.243872,35.539203],"lastSale":{"date":"2006-02-07","price":null,"qualified":null,"vintage":"2023"},"tax":{"marketValue":101000.0,"assessedValue":null,"taxableValue":null,"taxes":null,"vintage":"2023"},"mailingAddress":{"line1":null,"line2":null,"city":null,"state":null,"zip":null},"incomeTract":null,"incomeBlockGroup":null,"nearestRoad":null,"flu":null,"opportunityZone":null,"oz2Eligibility":null,"source":"tn-oir-public-use-47003","appraiserUrl":"https://assessment.cot.tn.gov/TPAD/Parcel/GIS?gislink=002055%20%20%20%2000900"},"geometry":{"type":"Polygon","coordinates":[[[-86.244729,35.540427],[-86.245134,35.537616],[-86.242858,35.537533],[-86.242881,35.539583],[-86.243879,35.539746],[-86.243752,35.54031],[-86.244729,35.540427]]]}},{"type":"Feature","id":"47003:002035    01709","properties":{"id":"47003:002035    01709","parcelId":"002035    01709","countyFips":"47003","countyName":"Bedford","state":"Tennessee","marketIds":["Nashville"],"situsAddress":"WALKER ROAD","situsCity":null,"situsZip":null,"jurisdictionCode":null,"ownerName":"ROGERS JONATHON ETUX AMBER","ownerName2":null,"propertyName":null,"zoningCode":null,"zoningDistrict":null,"jurisdictionPrefix":null,"dorCode":null,"acreage":11.9033,"centroid":[-86.248297,35.606431],"lastSale":{"date":"2021-04-09","price":124000.0,"qualified":null,"vintage":"2023"},"tax":{"marketValue":121000.0,"assessedValue":null,"taxableValue":null,"taxes":null,"vintage":"2023"},"mailingAddress":{"line1":null,"line2":null,"city":null,"state":null,"zip":null},"incomeTract":null,"incomeBlockGroup":null,"nearestRoad":null,"flu":null,"opportunityZone":null,"oz2Eligibility":null,"source":"tn-oir-public-use-47003","appraiserUrl":"https://assessment.cot.tn.gov/TPAD/Parcel/GIS?gislink=002035%20%20%20%2001709"},"geometry":{"type":"MultiPolygon","coordinates":[[[[-86.246087,35.608079],[-86.246081,35.608131],[-86.246087,35.608154],[-86.246112,35.608177],[-86.246147,35.608185],[-86.246487,35.608112],[-86.24661,35.60809],[-86.246713,35.608077],[-86.246827,35.608071],[-86.246937,35.608071],[-86.247051,35.608079],[-86.24716,35.608093],[-86.248268,35.606968],[-86.250513,35.60531],[-86.250327,35.604738],[-86.250278,35.604794],[-86.250238,35.604826],[-86.250177,35.604852],[-86.250092,35.604832],[-86.250014,35.604799],[-86.249933,35.604774],[-86.249689,35.604708],[-86.24964,35.604696],[-86.249539,35.60468],[-86.24946,35.604677],[-86.249328,35.604681],[-86.2492,35.604692],[-86.249124,35.604719],[-86.24907,35.604758],[-86.249016,35.604822],[-86.248933,35.604961],[-86.248914,35.605],[-86.24888,35.605101],[-86.248877,35.605163],[-86.24889,35.605283],[-86.248891,35.605351],[-86.24888,35.605509],[-86.248867,35.605604],[-86.24885,35.605677],[-86.24883,35.605729],[-86.248797,35.605787],[-86.248759,35.605826],[-86.248536,35.605975],[-86.248373,35.606098],[-86.24818,35.606254],[-86.248045,35.606387],[-86.248004,35.606447],[-86.247971,35.606513],[-86.247928,35.606583],[-86.247879,35.606629],[-86.24781,35.606685],[-86.247707,35.606761],[-86.247665,35.606787],[-86.247488,35.606886],[-86.247411,35.606909],[-86.247258,35.606941],[-86.24719,35.606952],[-86.247042,35.606995],[-86.246876,35.607033],[-86.246621,35.607103],[-86.24657,35.607126],[-86.246421,35.607214],[-86.246341,35.607233],[-86.246295,35.607315],[-86.246259,35.607391],[-86.246228,35.607467],[-86.2462,35.607551],[-86.246164,35.607679],[-86.246131,35.607818],[-86.246106,35.607947],[-86.246087,35.608079]]],[[[-86.246128,35.607188],[-86.245735,35.607208],[-86.245669,35.607225],[-86.245585,35.607272],[-86.245555,35.607299],[-86.24551,35.607324],[-86.24548,35.607378],[-86.245465,35.607417],[-86.245432,35.607541],[-86.245438,35.607603],[-86.245473,35.607658],[-86.245488,35.607692],[-86.245476,35.607804],[-86.245466,35.607843],[-86.245386,35.608023],[-86.245977,35.608151],[-86.245996,35.608003],[-86.246022,35.60785],[-86.246055,35.607703],[-86.246093,35.607563],[-86.246125,35.60746],[-86.246163,35.607366],[-86.246209,35.607271],[-86.246261,35.60718],[-86.246128,35.607188]]]]}},{"type":"Feature","id":"47003:002073    05000","properties":{"id":"47003:002073    05000","parcelId":"002073    05000","countyFips":"47003","countyName":"Bedford","state":"Tennessee","marketIds":["Nashville"],"situsAddress":"KNOB CREEK RD 2016","situsCity":null,"situsZip":null,"jurisdictionCode":null,"ownerName":"PORTER GREGORY B ET UX","ownerName2":"DEBORAH K","propertyName":null,"zoningCode":null,"zoningDistrict":null,"jurisdictionPrefix":null,"dorCode":null,"acreage":11.4633,"centroid":[-86.245682,35.533379],"lastSale":{"date":"2015-03-20","price":462500.0,"qualified":null,"vintage":"2023"},"tax":{"marketValue":572600.0,"assessedValue":null,"taxableValue":null,"taxes":null,"vintage":"2023"},"mailingAddress":{"line1":null,"line2":null,"city":null,"state":null,"zip":null},"incomeTract":null,"incomeBlockGroup":null,"nearestRoad":null,"flu":null,"opportunityZone":null,"oz2Eligibility":null,"source":"tn-oir-public-use-47003","appraiserUrl":"https://assessment.cot.tn.gov/TPAD/Parcel/GIS?gislink=002073%20%20%20%2005000"},"geometry":{"type":"Polygon","coordinates":[[[-86.244777,35.534867],[-86.245602,35.534994],[-86.245329,35.534511],[-86.245473,35.534488],[-86.247019,35.533762],[-86.246454,35.532647],[-86.245893,35.53021],[-86.245868,35.530275],[-86.244723,35.534658],[-86.244777,35.534867]]]}},{"type":"Feature","id":"47003:002018    00801","properties":{"id":"47003:002018    00801","parcelId":"002018    00801","countyFips":"47003","countyName":"Bedford","state":"Tennessee","marketIds":["Nashville"],"situsAddress":"HWY 64-E","situsCity":null,"situsZip":null,"jurisdictionCode":null,"ownerName":"SWANSON DEVELOPMENTS LP","ownerName2":null,"propertyName":null,"zoningCode":null,"zoningDistrict":null,"jurisdictionPrefix":null,"dorCode":null,"acreage":10.3837,"centroid":[-86.242526,35.627445],"lastSale":{"date":"2017-05-16","price":220000.0,"qualified":null,"vintage":"2023"},"tax":{"marketValue":12300.0,"assessedValue":null,"taxableValue":null,"taxes":null,"vintage":"2023"},"mailingAddress":{"line1":null,"line2":null,"city":null,"state":null,"zip":null},"incomeTract":null,"incomeBlockGroup":null,"nearestRoad":null,"flu":null,"opportunityZone":null,"oz2Eligibility":null,"source":"tn-oir-public-use-47003","appraiserUrl":"https://assessment.cot.tn.gov/TPAD/Parcel/GIS?gislink=002018%20%20%20%2000801"},"geometry":{"type":"Polygon","coordinates":[[[-86.242153,35.62839],[-86.243728,35.628913],[-86.243882,35.628056],[-86.242811,35.625622],[-86.242583,35.625592],[-86.241764,35.626944],[-86.242241,35.627514],[-86.241672,35.627856],[-86.2419,35.628122],[-86.242153,35.62839]]]}},{"type":"Feature","id":"47003:002018    01206","properties":{"id":"47003:002018    01206","parcelId":"002018    01206","countyFips":"47003","countyName":"Bedford","state":"Tennessee","marketIds":["Nashville"],"situsAddress":"JAKE BRANCH RD 110","situsCity":null,"situsZip":null,"jurisdictionCode":null,"ownerName":"MUTTER DENISE TRUSTEE","ownerName2":null,"propertyName":null,"zoningCode":null,"zoningDistrict":null,"jurisdictionPrefix":null,"dorCode":null,"acreage":10.071,"centroid":[-86.249469,35.626822],"lastSale":{"date":"2020-11-19","price":null,"qualified":null,"vintage":"2023"},"tax":{"marketValue":417300.0,"assessedValue":null,"taxableValue":null,"taxes":null,"vintage":"2023"},"mailingAddress":{"line1":null,"line2":null,"city":null,"state":null,"zip":null},"incomeTract":null,"incomeBlockGroup":null,"nearestRoad":null,"flu":null,"opportunityZone":null,"oz2Eligibility":null,"source":"tn-oir-public-use-47003","appraiserUrl":"https://assessment.cot.tn.gov/TPAD/Parcel/GIS?gislink=002018%20%20%20%2001206"},"geometry":{"type":"Polygon","coordinates":[[[-86.248502,35.627216],[-86.249463,35.627743],[-86.25035,35.627968],[-86.250999,35.627979],[-86.251019,35.627968],[-86.250997,35.627969],[-86.250885,35.626031],[-86.249591,35.625934],[-86.249429,35.625914],[-86.249296,35.625879],[-86.24884,35.625947],[-86.248831,35.626119],[-86.248813,35.62628],[-86.248785,35.62644],[-86.248745,35.62661],[-86.248695,35.626775],[-86.248634,35.626943],[-86.24857,35.627089],[-86.248502,35.627216]]]}},{"type":"Feature","id":"47003:002035    01213","properties":{"id":"47003:002035    01213","parcelId":"002035    01213","countyFips":"47003","countyName":"Bedford","state":"Tennessee","marketIds":["Nashville"],"situsAddress":"WALKER RD 722","situsCity":null,"situsZip":null,"jurisdictionCode":null,"ownerName":"MOORE PAUL B ETUX","ownerName2":"VICKIE MOORE","propertyName":null,"zoningCode":null,"zoningDistrict":null,"jurisdictionPrefix":null,"dorCode":null,"acreage":7.5554,"centroid":[-86.247998,35.610047],"lastSale":{"date":null,"price":null,"qualified":null},"tax":{"marketValue":null,"assessedValue":null,"taxableValue":null,"taxes":null},"mailingAddress":{"line1":null,"line2":null,"city":null,"state":null,"zip":null},"incomeTract":null,"incomeBlockGroup":null,"nearestRoad":null,"flu":null,"opportunityZone":null,"oz2Eligibility":null,"source":"tn-oir-public-use-47003","appraiserUrl":"https://assessment.cot.tn.gov/TPAD/Parcel/GIS?gislink=002035%20%20%20%2001213"},"geometry":{"type":"Polygon","coordinates":[[[-86.24889,35.608705],[-86.247716,35.608458],[-86.247444,35.608407],[-86.247189,35.610423],[-86.247758,35.610515],[-86.24776,35.610574],[-86.247934,35.610519],[-86.248061,35.610554],[-86.248192,35.610691],[-86.248408,35.610795],[-86.248626,35.610878],[-86.24889,35.608705]]]}},{"type":"Feature","id":"47003:002035    01212","properties":{"id":"47003:002035    01212","parcelId":"002035    01212","countyFips":"47003","countyName":"Bedford","state":"Tennessee","marketIds":["Nashville"],"situsAddress":"WALKER RD","situsCity":null,"situsZip":null,"jurisdictionCode":null,"ownerName":"MADDUX JERRY K ETUX","ownerName2":"REBECCA MADDUX","propertyName":null,"zoningCode":null,"zoningDistrict":null,"jurisdictionPrefix":null,"dorCode":null,"acreage":5.706,"centroid":[-86.24648,35.608872],"lastSale":{"date":null,"price":null,"qualified":null},"tax":{"marketValue":null,"assessedValue":null,"taxableValue":null,"taxes":null},"mailingAddress":{"line1":null,"line2":null,"city":null,"state":null,"zip":null},"incomeTract":null,"incomeBlockGroup":null,"nearestRoad":null,"flu":null,"opportunityZone":null,"oz2Eligibility":null,"source":"tn-oir-public-use-47003","appraiserUrl":"https://assessment.cot.tn.gov/TPAD/Parcel/GIS?gislink=002035%20%20%20%2001212"},"geometry":{"type":"Polygon","coordinates":[[[-86.247444,35.608407],[-86.247081,35.608332],[-86.246965,35.60832],[-86.246849,35.608317],[-86.246706,35.608327],[-86.246551,35.608353],[-86.246377,35.608391],[-86.246323,35.608407],[-86.246268,35.608429],[-86.2462,35.608464],[-86.246138,35.608506],[-86.24608,35.608555],[-86.246031,35.60861],[-86.245891,35.608825],[-86.245649,35.609213],[-86.2463,35.609385],[-86.246164,35.609838],[-86.246739,35.610009],[-86.24666,35.610337],[-86.247189,35.610423],[-86.247444,35.608407]]]}},{"type":"Feature","id":"47003:002073    01404","properties":{"id":"47003:002073    01404","parcelId":"002073    01404","countyFips":"47003","countyName":"Bedford","state":"Tennessee","marketIds":["Nashville"],"situsAddress":"BEDFORD LAKE RD 1295","situsCity":null,"situsZip":null,"jurisdictionCode":null,"ownerName":"JONES MARK ALLEN","ownerName2":null,"propertyName":null,"zoningCode":null,"zoningDistrict":null,"jurisdictionPrefix":null,"dorCode":null,"acreage":5.6079,"centroid":[-86.248506,35.527351],"lastSale":{"date":"2016-10-11","price":89900.0,"qualified":null,"vintage":"2023"},"tax":{"marketValue":219300.0,"assessedValue":null,"taxableValue":null,"taxes":null,"vintage":"2023"},"mailingAddress":{"line1":null,"line2":null,"city":null,"state":null,"zip":null},"incomeTract":null,"incomeBlockGroup":null,"nearestRoad":null,"flu":null,"opportunityZone":null,"oz2Eligibility":null,"source":"tn-oir-public-use-47003","appraiserUrl":"https://assessment.cot.tn.gov/TPAD/Parcel/GIS?gislink=002073%20%20%20%2001404"},"geometry":{"type":"Polygon","coordinates":[[[-86.247445,35.527973],[-86.248708,35.528111],[-86.248801,35.527427],[-86.248824,35.527222],[-86.248915,35.527144],[-86.24912,35.527154],[-86.249463,35.52713],[-86.249994,35.527103],[-86.250482,35.527119],[-86.250542,35.52703],[-86.24758,35.52711],[-86.24637,35.527062],[-86.246407,35.527463],[-86.246434,35.527863],[-86.247445,35.527973]]]}},{"type":"Feature","id":"47003:002073    00700","properties":{"id":"47003:002073    00700","parcelId":"002073    00700","countyFips":"47003","countyName":"Bedford","state":"Tennessee","marketIds":["Nashville"],"situsAddress":"WHITE RD 715","situsCity":null,"situsZip":null,"jurisdictionCode":null,"ownerName":"BRANDON GREGORY W","ownerName2":null,"propertyName":null,"zoningCode":null,"zoningDistrict":null,"jurisdictionPrefix":null,"dorCode":null,"acreage":5.515,"centroid":[-86.249553,35.529622],"lastSale":{"date":"2006-09-14","price":null,"qualified":null,"vintage":"2023"},"tax":{"marketValue":54600.0,"assessedValue":null,"taxableValue":null,"taxes":null,"vintage":"2023"},"mailingAddress":{"line1":null,"line2":null,"city":null,"state":null,"zip":null},"incomeTract":null,"incomeBlockGroup":null,"nearestRoad":null,"flu":null,"opportunityZone":null,"oz2Eligibility":null,"source":"tn-oir-public-use-47003","appraiserUrl":"https://assessment.cot.tn.gov/TPAD/Parcel/GIS?gislink=002073%20%20%20%2000700"},"geometry":{"type":"MultiPolygon","coordinates":[[[[-86.248697,35.530062],[-86.24883,35.530004],[-86.249267,35.529923],[-86.249795,35.529771],[-86.250486,35.529766],[-86.250606,35.529846],[-86.250557,35.529754],[-86.250527,35.529656],[-86.250476,35.529223],[-86.250327,35.52923],[-86.250261,35.529231],[-86.250119,35.529227],[-86.249978,35.529218],[-86.247887,35.529019],[-86.247986,35.529793],[-86.247944,35.529925],[-86.248655,35.529918],[-86.248697,35.530062]]],[[[-86.250619,35.529602],[-86.250635,35.52968],[-86.250664,35.529753],[-86.250707,35.529824],[-86.250762,35.529889],[-86.250829,35.529947],[-86.2509,35.529993],[-86.250979,35.530031],[-86.251091,35.530075],[-86.251208,35.529807],[-86.25133,35.529559],[-86.250587,35.529305],[-86.250619,35.529602]]]]}},{"type":"Feature","id":"47003:002035    01706","properties":{"id":"47003:002035    01706","parcelId":"002035    01706","countyFips":"47003","countyName":"Bedford","state":"Tennessee","marketIds":["Nashville"],"situsAddress":"WALKER ROAD 749","situsCity":null,"situsZip":null,"jurisdictionCode":null,"ownerName":"DISNEY JESS THURMAN","ownerName2":null,"propertyName":null,"zoningCode":null,"zoningDistrict":null,"jurisdictionPrefix":null,"dorCode":null,"acreage":5.3629,"centroid":[-86.249951,35.607893],"lastSale":{"date":"2019-07-11","price":78900.0,"qualified":null,"vintage":"2023"},"tax":{"marketValue":308700.0,"assessedValue":null,"taxableValue":null,"taxes":null,"vintage":"2023"},"mailingAddress":{"line1":null,"line2":null,"city":null,"state":null,"zip":null},"incomeTract":null,"incomeBlockGroup":null,"nearestRoad":null,"flu":null,"opportunityZone":null,"oz2Eligibility":null,"source":"tn-oir-public-use-47003","appraiserUrl":"https://assessment.cot.tn.gov/TPAD/Parcel/GIS?gislink=002035%20%20%20%2001706"},"geometry":{"type":"Polygon","coordinates":[[[-86.249511,35.60858],[-86.249601,35.608599],[-86.249681,35.60861],[-86.249765,35.608615],[-86.249852,35.608614],[-86.249932,35.608607],[-86.25055,35.608524],[-86.250513,35.60531],[-86.250151,35.605577],[-86.249511,35.60858]]]}},{"type":"Feature","id":"47003:002073    01700","properties":{"id":"47003:002073    01700","parcelId":"002073    01700","countyFips":"47003","countyName":"Bedford","state":"Tennessee","marketIds":["Nashville"],"situsAddress":"KNOB CREEK RD 1850","situsCity":null,"situsZip":null,"jurisdictionCode":null,"ownerName":"EID ROBERT ETUX NANCY","ownerName2":null,"propertyName":null,"zoningCode":null,"zoningDistrict":null,"jurisdictionPrefix":null,"dorCode":null,"acreage":5.253,"centroid":[-86.249781,35.528508],"lastSale":{"date":"2021-07-22","price":198000.0,"qualified":null,"vintage":"2023"},"tax":{"marketValue":139100.0,"assessedValue":null,"taxableValue":null,"taxes":null,"vintage":"2023"},"mailingAddress":{"line1":null,"line2":null,"city":null,"state":null,"zip":null},"incomeTract":null,"incomeBlockGroup":null,"nearestRoad":null,"flu":null,"opportunityZone":null,"oz2Eligibility":null,"source":"tn-oir-public-use-47003","appraiserUrl":"https://assessment.cot.tn.gov/TPAD/Parcel/GIS?gislink=002073%20%20%20%2001700"},"geometry":{"type":"Polygon","coordinates":[[[-86.248586,35.529003],[-86.250002,35.529137],[-86.250133,35.529145],[-86.250262,35.529148],[-86.250452,35.529142],[-86.250437,35.529033],[-86.250415,35.528926],[-86.250386,35.52882],[-86.250351,35.528718],[-86.250315,35.52863],[-86.249944,35.527802],[-86.248909,35.527678],[-86.248927,35.527515],[-86.248794,35.527493],[-86.248801,35.527427],[-86.248586,35.529003]]]}},{"type":"Feature","id":"47003:002074    07205","properties":{"id":"47003:002074    07205","parcelId":"002074    07205","countyFips":"47003","countyName":"Bedford","state":"Tennessee","marketIds":["Nashville"],"situsAddress":"J D MCCULLOUGH LN 128","situsCity":null,"situsZip":null,"jurisdictionCode":null,"ownerName":"RHOTON FRED JR ETUX PAMMY RHOTON","ownerName2":null,"propertyName":null,"zoningCode":null,"zoningDistrict":null,"jurisdictionPrefix":null,"dorCode":null,"acreage":5.164,"centroid":[-86.239731,35.507238],"lastSale":{"date":"2022-01-26","price":null,"qualified":null,"vintage":"2023"},"tax":{"marketValue":79400.0,"assessedValue":null,"taxableValue":null,"taxes":null,"vintage":"2023"},"mailingAddress":{"line1":null,"line2":null,"city":null,"state":null,"zip":null},"incomeTract":null,"incomeBlockGroup":null,"nearestRoad":null,"flu":null,"opportunityZone":null,"oz2Eligibility":null,"source":"tn-oir-public-use-47003","appraiserUrl":"https://assessment.cot.tn.gov/TPAD/Parcel/GIS?gislink=002074%20%20%20%2007205"},"geometry":{"type":"Polygon","coordinates":[[[-86.239785,35.508245],[-86.240163,35.508212],[-86.240346,35.508224],[-86.240179,35.507288],[-86.239897,35.506204],[-86.239798,35.506078],[-86.23962,35.506133],[-86.239455,35.506207],[-86.238804,35.506541],[-86.239468,35.508245],[-86.23953,35.508239],[-86.239785,35.508245]]]}},{"type":"Feature","id":"47003:002035    01206","properties":{"id":"47003:002035    01206","parcelId":"002035    01206","countyFips":"47003","countyName":"Bedford","state":"Tennessee","marketIds":["Nashville"],"situsAddress":"WALKER RD 740","situsCity":null,"situsZip":null,"jurisdictionCode":null,"ownerName":"MCNEY STEVE ETUX KELLEY MCNEY","ownerName2":null,"propertyName":null,"zoningCode":null,"zoningDistrict":null,"jurisdictionPrefix":null,"dorCode":null,"acreage":5.0524,"centroid":[-86.249208,35.61004],"lastSale":{"date":"2018-03-25","price":null,"qualified":null,"vintage":"2023"},"tax":{"marketValue":281700.0,"assessedValue":null,"taxableValue":null,"taxes":null,"vintage":"2023"},"mailingAddress":{"line1":null,"line2":null,"city":null,"state":null,"zip":null},"incomeTract":null,"incomeBlockGroup":null,"nearestRoad":null,"flu":null,"opportunityZone":null,"oz2Eligibility":null,"source":"tn-oir-public-use-47003","appraiserUrl":"https://assessment.cot.tn.gov/TPAD/Parcel/GIS?gislink=002035%20%20%20%2001206"},"geometry":{"type":"Polygon","coordinates":[[[-86.248626,35.610878],[-86.248765,35.61093],[-86.248957,35.610935],[-86.249167,35.61114],[-86.249473,35.611215],[-86.249789,35.608863],[-86.249668,35.608857],[-86.249538,35.60884],[-86.24889,35.608705],[-86.248626,35.610878]]]}}]}