{"type":"FeatureCollection","name":"12127-9_7","features":[{"type":"Feature","id":"12127:962900000010","properties":{"id":"12127:962900000010","parcelId":"962900000010","countyFips":"12127","countyName":"Volusia","state":"Florida","marketIds":["Melbourne"],"situsAddress":"PROPERTY LOCATION IS NOT AVAIL","situsCity":"NEW SMYRNA BEACH","situsZip":"32169","jurisdictionCode":null,"ownerName":"UNITED STATES OF AMERICA","ownerName2":null,"propertyName":null,"zoningCode":null,"zoningDistrict":null,"jurisdictionPrefix":null,"dorCode":"8200","acreage":22.0386,"centroid":[-80.744634,28.808028],"lastSale":{"date":null,"price":null,"qualified":null},"tax":{"marketValue":9360000.0,"assessedValue":9120000.0,"taxableValue":null,"taxes":null},"mailingAddress":{"line1":"1849 C STREET NW","line2":"ROOM 5665","city":"WASHINGTON","state":"DC","zip":"20240"},"incomeTract":null,"incomeBlockGroup":null,"nearestRoad":null,"flu":null,"opportunityZone":null,"oz2Eligibility":null,"source":"fl-volusia-open-data-12127","gisViewerUrl":"https://vcpa.vcgov.org/search/map","appraiserUrl":"https://vcpa.vcgov.org/parcel/summary/?altkey=4078177"},"geometry":{"type":"Polygon","coordinates":[[[-80.742584,28.805278],[-80.742598,28.805303],[-80.743571,28.806683],[-80.743971,28.807338],[-80.744034,28.807489],[-80.744118,28.807583],[-80.744133,28.807649],[-80.744262,28.807855],[-80.744635,28.808326],[-80.744747,28.808519],[-80.745354,28.80937],[-80.745559,28.809692],[-80.74566,28.809904],[-80.746226,28.810725],[-80.746337,28.81092],[-80.746501,28.811298],[-80.746551,28.805305],[-80.742574,28.805262],[-80.742584,28.805278]]]}},{"type":"Feature","id":"12127:963200000010","properties":{"id":"12127:963200000010","parcelId":"963200000010","countyFips":"12127","countyName":"Volusia","state":"Florida","marketIds":["Melbourne"],"situsAddress":"PROPERTY LOCATION IS NOT AVAIL","situsCity":"NEW SMYRNA BEACH","situsZip":"32169","jurisdictionCode":null,"ownerName":"UNITED STATES OF AMERICA","ownerName2":null,"propertyName":null,"zoningCode":null,"zoningDistrict":null,"jurisdictionPrefix":null,"dorCode":"8200","acreage":22.0386,"centroid":[-80.739209,28.79864],"lastSale":{"date":null,"price":null,"qualified":null},"tax":{"marketValue":9360000.0,"assessedValue":9120000.0,"taxableValue":null,"taxes":null},"mailingAddress":{"line1":"1849 C STREET NW","line2":"ROOM 5665","city":"WASHINGTON","state":"DC","zip":"20240"},"incomeTract":null,"incomeBlockGroup":null,"nearestRoad":null,"flu":null,"opportunityZone":null,"oz2Eligibility":null,"source":"fl-volusia-open-data-12127","gisViewerUrl":"https://vcpa.vcgov.org/search/map","appraiserUrl":"https://vcpa.vcgov.org/parcel/summary/?altkey=4078215"},"geometry":{"type":"Polygon","coordinates":[[[-80.745431,28.79101],[-80.74384,28.791007],[-80.734742,28.791022],[-80.734775,28.793596],[-80.734988,28.793923],[-80.735225,28.79423],[-80.735488,28.794514],[-80.735668,28.794676],[-80.735816,28.79499],[-80.735934,28.795153],[-80.736051,28.795389],[-80.73618,28.795563],[-80.736482,28.795896],[-80.736712,28.796213],[-80.736793,28.79634],[-80.736967,28.796697],[-80.737238,28.797031],[-80.737476,28.797458],[-80.73777,28.797851],[-80.738086,28.798336],[-80.738154,28.79857],[-80.73851,28.79903],[-80.738777,28.799503],[-80.73915,28.800005],[-80.739229,28.800054],[-80.739305,28.80025],[-80.739437,28.800473],[-80.739775,28.800927],[-80.739939,28.801172],[-80.740026,28.801349],[-80.740477,28.80196],[-80.74098,28.802698],[-80.741085,28.802993],[-80.741482,28.803574],[-80.741658,28.803882],[-80.741823,28.804091],[-80.741915,28.804265],[-80.742089,28.80448],[-80.742258,28.80473],[-80.742454,28.805033],[-80.742574,28.805262],[-80.746551,28.805305],[-80.746671,28.791012],[-80.745431,28.79101]]]}}]}