{"type":"FeatureCollection","name":"12017-3_6","features":[{"type":"Feature","id":"12017:21E20S19      21000","properties":{"id":"12017:21E20S19      21000","parcelId":"21E20S19      21000","countyFips":"12017","countyName":"Citrus","state":"Florida","marketIds":["Tampa","North-Central Florida"],"situsAddress":"11301 E MARSH RD","situsCity":"FLORAL CITY","situsZip":null,"jurisdictionCode":"Unincorporated Citrus County","ownerName":"RIVER BEND CENTURY RANCH LLC","ownerName2":null,"propertyName":null,"zoningCode":"CL","zoningDistrict":"LOW INTENSITY COASTAL & LAKES","jurisdictionPrefix":null,"dorCode":"050","acreage":119.6301,"centroid":[-82.242119,28.731436],"lastSale":{"date":null,"price":null,"qualified":null},"tax":{"marketValue":671306.0,"assessedValue":null,"taxableValue":null,"taxes":null},"mailingAddress":{"line1":"PO BOX 274006","line2":null,"city":"TAMPA","state":"FL","zip":"33688"},"incomeTract":null,"incomeBlockGroup":null,"nearestRoad":null,"flu":{"code":"CL","label":"LOW INTENSITY COASTAL LAKES","jurisdiction":"Unincorporated Citrus County","source":"citrus-land-development-landuse"},"opportunityZone":null,"oz2Eligibility":null,"source":"fl-citrus-swfwmd-12017","appraiserUrl":"https://www.citruspa.org/"},"geometry":{"type":"Polygon","coordinates":[[[-82.23624,28.732182],[-82.236242,28.734143],[-82.244411,28.733369],[-82.244411,28.73383],[-82.246461,28.733868],[-82.246461,28.733946],[-82.249133,28.733684],[-82.249128,28.732972],[-82.248419,28.73304],[-82.248416,28.73071],[-82.247283,28.729537],[-82.244273,28.729861],[-82.244289,28.728948],[-82.244915,28.728858],[-82.244926,28.728229],[-82.244222,28.728331],[-82.244195,28.72987],[-82.237006,28.730643],[-82.237029,28.730678],[-82.236906,28.731058],[-82.236886,28.731193],[-82.236897,28.73132],[-82.23688,28.731506],[-82.236798,28.731743],[-82.236717,28.731846],[-82.236559,28.73197],[-82.23624,28.732182]]]}},{"type":"Feature","id":"12017:21E20S19      22000","properties":{"id":"12017:21E20S19      22000","parcelId":"21E20S19      22000","countyFips":"12017","countyName":"Citrus","state":"Florida","marketIds":["Tampa","North-Central Florida"],"situsAddress":"11459 E BUSHNELL RD","situsCity":"FLORAL CITY","situsZip":null,"jurisdictionCode":"Unincorporated Citrus County","ownerName":"SANSONI DANIEL","ownerName2":null,"propertyName":null,"zoningCode":"CL","zoningDistrict":"LOW INTENSITY COASTAL & LAKES","jurisdictionPrefix":null,"dorCode":"002","acreage":100.2841,"centroid":[-82.238446,28.72721],"lastSale":{"date":null,"price":null,"qualified":null},"tax":{"marketValue":283894.0,"assessedValue":null,"taxableValue":null,"taxes":null},"mailingAddress":{"line1":"13248 MOSS PARK RIDGE DR","line2":null,"city":"ORLANDO","state":"FL","zip":"32832"},"incomeTract":null,"incomeBlockGroup":null,"nearestRoad":null,"flu":{"code":"CL","label":"LOW INTENSITY COASTAL LAKES","jurisdiction":"Unincorporated Citrus County","source":"citrus-land-development-landuse"},"opportunityZone":null,"oz2Eligibility":null,"source":"fl-citrus-swfwmd-12017","appraiserUrl":"https://www.citruspa.org/"},"geometry":{"type":"Polygon","coordinates":[[[-82.23669,28.73066],[-82.236742,28.730714],[-82.236813,28.730696],[-82.236916,28.730606],[-82.236988,28.730614],[-82.237006,28.730643],[-82.244195,28.72987],[-82.244256,28.726401],[-82.242082,28.724149],[-82.241877,28.724185],[-82.241446,28.724123],[-82.240984,28.724196],[-82.240759,28.724259],[-82.240062,28.724595],[-82.239939,28.724713],[-82.239776,28.725021],[-82.239612,28.725121],[-82.239427,28.725184],[-82.238935,28.725131],[-82.23876,28.725131],[-82.238607,28.725195],[-82.238504,28.725285],[-82.238505,28.725873],[-82.238239,28.726154],[-82.237891,28.726344],[-82.237707,28.726471],[-82.237748,28.726743],[-82.237605,28.726915],[-82.237431,28.727042],[-82.237329,28.727168],[-82.237206,28.727368],[-82.237104,28.72763],[-82.237043,28.727983],[-82.236921,28.7282],[-82.236675,28.728436],[-82.23645,28.728743],[-82.236327,28.728997],[-82.236297,28.729223],[-82.236318,28.729395],[-82.236473,28.729901],[-82.236639,28.730534],[-82.23669,28.73066]]]}},{"type":"Feature","id":"12017:21E20S20      41000","properties":{"id":"12017:21E20S20      41000","parcelId":"21E20S20      41000","countyFips":"12017","countyName":"Citrus","state":"Florida","marketIds":["Tampa","North-Central Florida"],"situsAddress":"9060 THE S WITHLACOOCHEE","situsCity":"FLORAL CITY","situsZip":null,"jurisdictionCode":"Unincorporated Citrus County","ownerName":"STEVENSON W RAY","ownerName2":null,"propertyName":null,"zoningCode":null,"zoningDistrict":null,"jurisdictionPrefix":null,"dorCode":"056","acreage":98.2649,"centroid":[-82.232898,28.736789],"lastSale":{"date":null,"price":null,"qualified":null},"tax":{"marketValue":20930.0,"assessedValue":null,"taxableValue":null,"taxes":null},"mailingAddress":{"line1":"5555 E STEVENSON CT","line2":null,"city":"INVERNESS","state":"FL","zip":"34452"},"incomeTract":null,"incomeBlockGroup":null,"nearestRoad":null,"flu":null,"opportunityZone":null,"oz2Eligibility":null,"source":"fl-citrus-swfwmd-12017","appraiserUrl":"https://www.citruspa.org/"},"geometry":{"type":"Polygon","coordinates":[[[-82.236242,28.734143],[-82.235666,28.734197],[-82.235652,28.7344],[-82.235547,28.734544],[-82.235512,28.734663],[-82.235556,28.734851],[-82.235543,28.734957],[-82.235488,28.735092],[-82.235407,28.735168],[-82.23515,28.735635],[-82.234943,28.735945],[-82.234811,28.736067],[-82.234489,28.73623],[-82.234232,28.736395],[-82.233789,28.736456],[-82.233437,28.736479],[-82.233285,28.736526],[-82.23296,28.736704],[-82.23276,28.736962],[-82.232406,28.737214],[-82.232127,28.737354],[-82.232127,28.737729],[-82.231326,28.737703],[-82.231143,28.73777],[-82.230864,28.737832],[-82.230419,28.737871],[-82.230105,28.737864],[-82.229443,28.737973],[-82.228981,28.738127],[-82.228728,28.738251],[-82.228118,28.738375],[-82.228011,28.738453],[-82.228013,28.741315],[-82.236247,28.741587],[-82.236242,28.734143]]]}},{"type":"Feature","id":"12017:21E20S30      41000","properties":{"id":"12017:21E20S30      41000","parcelId":"21E20S30      41000","countyFips":"12017","countyName":"Citrus","state":"Florida","marketIds":["Tampa","North-Central Florida"],"situsAddress":"11410 E BUSHNELL RD","situsCity":"FLORAL CITY","situsZip":null,"jurisdictionCode":"Unincorporated Citrus County","ownerName":"COSMIC MORTGAGE CORP","ownerName2":null,"propertyName":null,"zoningCode":"CL","zoningDistrict":"LOW INTENSITY COASTAL & LAKES","jurisdictionPrefix":null,"dorCode":"062","acreage":85.1549,"centroid":[-82.247798,28.724269],"lastSale":{"date":null,"price":null,"qualified":null},"tax":{"marketValue":479640.0,"assessedValue":null,"taxableValue":null,"taxes":null},"mailingAddress":{"line1":"501 N MORGAN ST STE 202","line2":null,"city":"TAMPA","state":"FL","zip":"33602"},"incomeTract":null,"incomeBlockGroup":null,"nearestRoad":null,"flu":{"code":"CL","label":"LOW INTENSITY COASTAL LAKES","jurisdiction":"Unincorporated Citrus County","source":"citrus-land-development-landuse"},"opportunityZone":null,"oz2Eligibility":null,"source":"fl-citrus-swfwmd-12017","appraiserUrl":"https://www.citruspa.org/"},"geometry":{"type":"Polygon","coordinates":[[[-82.244263,28.725984],[-82.244302,28.726025],[-82.253084,28.725288],[-82.253014,28.721659],[-82.244326,28.722387],[-82.244263,28.725984]]]}},{"type":"Feature","id":"12017:21E20S19      11000","properties":{"id":"12017:21E20S19      11000","parcelId":"21E20S19      11000","countyFips":"12017","countyName":"Citrus","state":"Florida","marketIds":["Tampa","North-Central Florida"],"situsAddress":"0 WATER ACCESS","situsCity":"FLORAL CITY","situsZip":null,"jurisdictionCode":"Unincorporated Citrus County","ownerName":"STEVENSON W RAY","ownerName2":null,"propertyName":null,"zoningCode":"CL","zoningDistrict":"LOW INTENSITY COASTAL & LAKES","jurisdictionPrefix":null,"dorCode":"055","acreage":80.7552,"centroid":[-82.238277,28.737666],"lastSale":{"date":null,"price":null,"qualified":null},"tax":{"marketValue":70540.0,"assessedValue":null,"taxableValue":null,"taxes":null},"mailingAddress":{"line1":"5555 E STEVENSON CT","line2":null,"city":"INVERNESS","state":"FL","zip":"34452"},"incomeTract":null,"incomeBlockGroup":null,"nearestRoad":null,"flu":{"code":"CL","label":"LOW INTENSITY COASTAL LAKES","jurisdiction":"Unincorporated Citrus County","source":"citrus-land-development-landuse"},"opportunityZone":null,"oz2Eligibility":null,"source":"fl-citrus-swfwmd-12017","appraiserUrl":"https://www.citruspa.org/"},"geometry":{"type":"Polygon","coordinates":[[[-82.236242,28.734143],[-82.236247,28.741587],[-82.240315,28.74117],[-82.240304,28.733764],[-82.236242,28.734143]]]}},{"type":"Feature","id":"12017:21E20S19      32000","properties":{"id":"12017:21E20S19      32000","parcelId":"21E20S19      32000","countyFips":"12017","countyName":"Citrus","state":"Florida","marketIds":["Tampa","North-Central Florida"],"situsAddress":"11138 E BUSHNELL RD","situsCity":"FLORAL CITY","situsZip":null,"jurisdictionCode":"Unincorporated Citrus County","ownerName":"COSMIC MORTGAGE CORP","ownerName2":null,"propertyName":null,"zoningCode":"CL","zoningDistrict":"LOW INTENSITY COASTAL & LAKES","jurisdictionPrefix":null,"dorCode":"050","acreage":70.716,"centroid":[-82.249547,28.727429],"lastSale":{"date":null,"price":null,"qualified":null},"tax":{"marketValue":683550.0,"assessedValue":null,"taxableValue":null,"taxes":null},"mailingAddress":{"line1":"501 N MORGAN ST STE 202","line2":null,"city":"TAMPA","state":"FL","zip":"33602"},"incomeTract":null,"incomeBlockGroup":null,"nearestRoad":null,"flu":{"code":"CL","label":"LOW INTENSITY COASTAL LAKES","jurisdiction":"Unincorporated Citrus County","source":"citrus-land-development-landuse"},"opportunityZone":null,"oz2Eligibility":null,"source":"fl-citrus-swfwmd-12017","appraiserUrl":"https://www.citruspa.org/"},"geometry":{"type":"Polygon","coordinates":[[[-82.244302,28.726025],[-82.247654,28.729497],[-82.253147,28.728905],[-82.253084,28.725288],[-82.244302,28.726025]]]}},{"type":"Feature","id":"12017:21E20S17      12000","properties":{"id":"12017:21E20S17      12000","parcelId":"21E20S17      12000","countyFips":"12017","countyName":"Citrus","state":"Florida","marketIds":["Tampa","North-Central Florida"],"situsAddress":"12900 E TRAILS END RD","situsCity":"FLORAL CITY","situsZip":null,"jurisdictionCode":"Unincorporated Citrus County","ownerName":"TRAILS END RV PARK INC","ownerName2":null,"propertyName":null,"zoningCode":"CL MH","zoningDistrict":"LOW-INT.COASTL-LAKES-MH ALLWED","jurisdictionPrefix":null,"dorCode":"036","acreage":63.6303,"centroid":[-82.221861,28.743937],"lastSale":{"date":null,"price":null,"qualified":null},"tax":{"marketValue":1120840.0,"assessedValue":null,"taxableValue":null,"taxes":null},"mailingAddress":{"line1":"21145 COUNTY RD 455","line2":null,"city":"CLERMONT","state":"FL","zip":"34715"},"incomeTract":null,"incomeBlockGroup":null,"nearestRoad":null,"flu":{"code":"CL","label":"LOW INTENSITY COASTAL LAKES","jurisdiction":"Unincorporated Citrus County","source":"citrus-land-development-landuse"},"opportunityZone":null,"oz2Eligibility":null,"source":"fl-citrus-swfwmd-12017","appraiserUrl":"https://www.citruspa.org/"},"geometry":{"type":"Polygon","coordinates":[[[-82.219784,28.748526],[-82.223828,28.748572],[-82.223827,28.747651],[-82.223905,28.74764],[-82.223899,28.741917],[-82.22374,28.741917],[-82.223435,28.741994],[-82.22313,28.742133],[-82.222834,28.742241],[-82.222285,28.742534],[-82.221928,28.742658],[-82.221623,28.742843],[-82.221266,28.743028],[-82.220839,28.743197],[-82.220682,28.743305],[-82.220395,28.743398],[-82.220203,28.743537],[-82.219968,28.743829],[-82.219864,28.743906],[-82.219781,28.743912],[-82.219784,28.748526]]]}},{"type":"Feature","id":"12017:21E20S30      13000","properties":{"id":"12017:21E20S30      13000","parcelId":"21E20S30      13000","countyFips":"12017","countyName":"Citrus","state":"Florida","marketIds":["Tampa","North-Central Florida"],"situsAddress":"11400 E BUSHNELL RD","situsCity":"FLORAL CITY","situsZip":null,"jurisdictionCode":"Unincorporated Citrus County","ownerName":"JEM INVESTMENTS LTD","ownerName2":null,"propertyName":null,"zoningCode":"CL","zoningDistrict":"LOW INTENSITY COASTAL & LAKES","jurisdictionPrefix":null,"dorCode":"050","acreage":51.9646,"centroid":[-82.248034,28.721061],"lastSale":{"date":null,"price":null,"qualified":null},"tax":{"marketValue":167190.0,"assessedValue":null,"taxableValue":null,"taxes":null},"mailingAddress":{"line1":"501 N MORGAN ST 202","line2":null,"city":"TAMPA","state":"FL","zip":"33602"},"incomeTract":null,"incomeBlockGroup":null,"nearestRoad":null,"flu":{"code":"CL","label":"LOW INTENSITY COASTAL LAKES","jurisdiction":"Unincorporated Citrus County","source":"citrus-land-development-landuse"},"opportunityZone":null,"oz2Eligibility":null,"source":"fl-citrus-swfwmd-12017","appraiserUrl":"https://www.citruspa.org/"},"geometry":{"type":"MultiPolygon","coordinates":[[[[-82.244231,28.721775],[-82.244118,28.721884],[-82.243607,28.722545],[-82.243238,28.722917],[-82.24285,28.723451],[-82.242645,28.723659],[-82.24242,28.723967],[-82.242358,28.72401],[-82.244263,28.725984],[-82.244326,28.722387],[-82.253014,28.721659],[-82.252994,28.720612],[-82.252897,28.720801],[-82.252652,28.721091],[-82.252427,28.721399],[-82.252263,28.721525],[-82.252109,28.721598],[-82.251648,28.721726],[-82.251432,28.721708],[-82.251186,28.721555],[-82.250939,28.721275],[-82.250641,28.720995],[-82.250569,28.720859],[-82.250404,28.720706],[-82.25026,28.720516],[-82.250198,28.720317],[-82.250054,28.720146],[-82.249951,28.720074],[-82.24951,28.719984],[-82.249294,28.719858],[-82.249212,28.719668],[-82.249088,28.719533],[-82.24877,28.719298],[-82.248626,28.719308],[-82.248278,28.71939],[-82.24799,28.719381],[-82.247375,28.719292],[-82.247149,28.71922],[-82.246964,28.719193],[-82.246738,28.719212],[-82.246533,28.71932],[-82.245766,28.72009],[-82.245193,28.720607],[-82.244599,28.72125],[-82.244435,28.721449],[-82.244354,28.721612],[-82.244231,28.721775]]],[[[-82.252394,28.717892],[-82.252429,28.71798],[-82.252553,28.718396],[-82.252646,28.718549],[-82.252831,28.718974],[-82.252966,28.719196],[-82.25294,28.717846],[-82.252394,28.717892]]]]}},{"type":"Feature","id":"12017:21E20S19      13000 0010","properties":{"id":"12017:21E20S19      13000 0010","parcelId":"21E20S19      13000 0010","countyFips":"12017","countyName":"Citrus","state":"Florida","marketIds":["Tampa","North-Central Florida"],"situsAddress":"8963 S STEED TER","situsCity":"FLORAL CITY","situsZip":null,"jurisdictionCode":"Unincorporated Citrus County","ownerName":"RIVER BEND CENTURY RANCH II LL","ownerName2":null,"propertyName":null,"zoningCode":"CL","zoningDistrict":"LOW INTENSITY COASTAL & LAKES","jurisdictionPrefix":null,"dorCode":"061","acreage":46.8071,"centroid":[-82.245333,28.734826],"lastSale":{"date":null,"price":750000.0,"qualified":null},"tax":{"marketValue":615970.0,"assessedValue":null,"taxableValue":null,"taxes":null},"mailingAddress":{"line1":"1000 15TH AVE N","line2":null,"city":"SAINT PETERSBURG","state":"FL","zip":"33704"},"incomeTract":null,"incomeBlockGroup":null,"nearestRoad":null,"flu":{"code":"CL","label":"LOW INTENSITY COASTAL LAKES","jurisdiction":"Unincorporated Citrus County","source":"citrus-land-development-landuse"},"opportunityZone":null,"oz2Eligibility":null,"source":"fl-citrus-swfwmd-12017","appraiserUrl":"https://www.citruspa.org/"},"geometry":{"type":"Polygon","coordinates":[[[-82.240304,28.733764],[-82.24031,28.737415],[-82.244014,28.737054],[-82.244286,28.736634],[-82.2445,28.736596],[-82.245171,28.735944],[-82.245245,28.735673],[-82.245543,28.735232],[-82.245478,28.734825],[-82.245278,28.734541],[-82.245227,28.733914],[-82.246383,28.733935],[-82.246383,28.734023],[-82.25073,28.733596],[-82.250729,28.733527],[-82.246461,28.733946],[-82.246461,28.733868],[-82.244411,28.73383],[-82.244411,28.733369],[-82.240304,28.733764]]]}},{"type":"Feature","id":"12017:21E20S19      13000 0020","properties":{"id":"12017:21E20S19      13000 0020","parcelId":"21E20S19      13000 0020","countyFips":"12017","countyName":"Citrus","state":"Florida","marketIds":["Tampa","North-Central Florida"],"situsAddress":"8897 S STEED TER","situsCity":"FLORAL CITY","situsZip":null,"jurisdictionCode":"Unincorporated Citrus County","ownerName":"JOHNSTON ROBERT P","ownerName2":null,"propertyName":null,"zoningCode":"CL","zoningDistrict":"LOW INTENSITY COASTAL & LAKES","jurisdictionPrefix":null,"dorCode":"061","acreage":42.6756,"centroid":[-82.245235,28.735883],"lastSale":{"date":null,"price":500000.0,"qualified":null},"tax":{"marketValue":386930.0,"assessedValue":null,"taxableValue":null,"taxes":null},"mailingAddress":{"line1":"6140 S WITHLAPOPKA DR","line2":null,"city":"FLORAL CITY","state":"FL","zip":"34436"},"incomeTract":null,"incomeBlockGroup":null,"nearestRoad":null,"flu":{"code":"CL","label":"LOW INTENSITY COASTAL LAKES","jurisdiction":"Unincorporated Citrus County","source":"citrus-land-development-landuse"},"opportunityZone":null,"oz2Eligibility":null,"source":"fl-citrus-swfwmd-12017","appraiserUrl":"https://www.citruspa.org/"},"geometry":{"type":"Polygon","coordinates":[[[-82.245278,28.734541],[-82.245278,28.734541],[-82.245478,28.734825],[-82.245543,28.735232],[-82.245245,28.735673],[-82.245171,28.735944],[-82.2445,28.736596],[-82.244286,28.736634],[-82.244014,28.737054],[-82.24031,28.737415],[-82.240315,28.74117],[-82.244292,28.740762],[-82.244279,28.73971],[-82.244412,28.739697],[-82.244411,28.736682],[-82.24454,28.73666],[-82.245243,28.735978],[-82.245318,28.7357],[-82.245625,28.735246],[-82.245553,28.734801],[-82.245354,28.73452],[-82.245311,28.733984],[-82.246305,28.734003],[-82.246305,28.734099],[-82.25073,28.733665],[-82.25073,28.733596],[-82.246383,28.734023],[-82.246383,28.733935],[-82.245227,28.733914],[-82.245278,28.734541]]]}},{"type":"Feature","id":"12017:21E20S18      33000","properties":{"id":"12017:21E20S18      33000","parcelId":"21E20S18      33000","countyFips":"12017","countyName":"Citrus","state":"Florida","marketIds":["Tampa","North-Central Florida"],"situsAddress":"11011 E LARRY CT","situsCity":"FLORAL CITY","situsZip":null,"jurisdictionCode":"Unincorporated Citrus County","ownerName":"GOTTUS RONALD AARON","ownerName2":null,"propertyName":null,"zoningCode":"CL","zoningDistrict":"LOW INTENSITY COASTAL & LAKES","jurisdictionPrefix":null,"dorCode":"050","acreage":41.5035,"centroid":[-82.249831,28.743699],"lastSale":{"date":null,"price":null,"qualified":null},"tax":{"marketValue":397335.0,"assessedValue":null,"taxableValue":null,"taxes":null},"mailingAddress":{"line1":"11011 LARRY CT","line2":null,"city":"FLORAL CITY","state":"FL","zip":"34436"},"incomeTract":null,"incomeBlockGroup":null,"nearestRoad":null,"flu":{"code":"CL","label":"LOW INTENSITY COASTAL LAKES","jurisdiction":"Unincorporated Citrus County","source":"citrus-land-development-landuse"},"opportunityZone":null,"oz2Eligibility":null,"source":"fl-citrus-swfwmd-12017","appraiserUrl":"https://www.citruspa.org/"},"geometry":{"type":"Polygon","coordinates":[[[-82.248514,28.741991],[-82.248483,28.741994],[-82.248452,28.741996],[-82.248469,28.747644],[-82.252259,28.745746],[-82.252019,28.744708],[-82.250623,28.741813],[-82.248514,28.741991]]]}},{"type":"Feature","id":"12017:21E20S17      33000","properties":{"id":"12017:21E20S17      33000","parcelId":"21E20S17      33000","countyFips":"12017","countyName":"Citrus","state":"Florida","marketIds":["Tampa","North-Central Florida"],"situsAddress":"0 WATER ACCESS","situsCity":"FLORAL CITY","situsZip":null,"jurisdictionCode":"Unincorporated Citrus County","ownerName":"STEVENSON W RAY","ownerName2":null,"propertyName":null,"zoningCode":"CL","zoningDistrict":"LOW INTENSITY COASTAL & LAKES","jurisdictionPrefix":null,"dorCode":"055","acreage":39.9457,"centroid":[-82.234074,28.743692],"lastSale":{"date":null,"price":null,"qualified":null},"tax":{"marketValue":13450.0,"assessedValue":null,"taxableValue":null,"taxes":null},"mailingAddress":{"line1":"5555 E STEVENSON CT","line2":null,"city":"INVERNESS","state":"FL","zip":"34452"},"incomeTract":null,"incomeBlockGroup":null,"nearestRoad":null,"flu":{"code":"CL","label":"LOW INTENSITY COASTAL LAKES","jurisdiction":"Unincorporated Citrus County","source":"citrus-land-development-landuse"},"opportunityZone":null,"oz2Eligibility":null,"source":"fl-citrus-swfwmd-12017","appraiserUrl":"https://www.citruspa.org/"},"geometry":{"type":"Polygon","coordinates":[[[-82.233611,28.745128],[-82.23625,28.745215],[-82.236247,28.741587],[-82.23213,28.741451],[-82.232132,28.745079],[-82.233611,28.745128]]]}},{"type":"Feature","id":"12017:21E20S18      22000","properties":{"id":"12017:21E20S18      22000","parcelId":"21E20S18      22000","countyFips":"12017","countyName":"Citrus","state":"Florida","marketIds":["Tampa","North-Central Florida"],"situsAddress":"0 WATER ACCESS","situsCity":"FLORAL CITY","situsZip":null,"jurisdictionCode":"Unincorporated Citrus County","ownerName":"STEVENSON W RAY","ownerName2":null,"propertyName":null,"zoningCode":"CL","zoningDistrict":"LOW INTENSITY COASTAL & LAKES","jurisdictionPrefix":null,"dorCode":"055","acreage":39.7056,"centroid":[-82.238285,28.743201],"lastSale":{"date":null,"price":null,"qualified":null},"tax":{"marketValue":25740.0,"assessedValue":null,"taxableValue":null,"taxes":null},"mailingAddress":{"line1":"5555 E STEVENSON CT","line2":null,"city":"INVERNESS","state":"FL","zip":"34452"},"incomeTract":null,"incomeBlockGroup":null,"nearestRoad":null,"flu":{"code":"CL","label":"LOW INTENSITY COASTAL LAKES","jurisdiction":"Unincorporated Citrus County","source":"citrus-land-development-landuse"},"opportunityZone":null,"oz2Eligibility":null,"source":"fl-citrus-swfwmd-12017","appraiserUrl":"https://www.citruspa.org/"},"geometry":{"type":"Polygon","coordinates":[[[-82.236247,28.741587],[-82.23625,28.745215],[-82.240328,28.74483],[-82.240315,28.74117],[-82.236247,28.741587]]]}},{"type":"Feature","id":"12017:21E20S18      23000","properties":{"id":"12017:21E20S18      23000","parcelId":"21E20S18      23000","countyFips":"12017","countyName":"Citrus","state":"Florida","marketIds":["Tampa","North-Central Florida"],"situsAddress":"8407 S CLARK WISE TER","situsCity":"FLORAL CITY","situsZip":null,"jurisdictionCode":"Unincorporated Citrus County","ownerName":"SHAW LARRY JR","ownerName2":null,"propertyName":null,"zoningCode":"CL","zoningDistrict":"LOW INTENSITY COASTAL & LAKES","jurisdictionPrefix":null,"dorCode":"099","acreage":31.5899,"centroid":[-82.243476,28.741696],"lastSale":{"date":null,"price":300000.0,"qualified":null},"tax":{"marketValue":69290.0,"assessedValue":null,"taxableValue":null,"taxes":null},"mailingAddress":{"line1":"3601 HAPPY LIFE IN","line2":null,"city":"DOVER","state":"FL","zip":"33527"},"incomeTract":null,"incomeBlockGroup":null,"nearestRoad":null,"flu":{"code":"CL","label":"LOW INTENSITY COASTAL LAKES","jurisdiction":"Unincorporated Citrus County","source":"citrus-land-development-landuse"},"opportunityZone":null,"oz2Eligibility":null,"source":"fl-citrus-swfwmd-12017","appraiserUrl":"https://www.citruspa.org/"},"geometry":{"type":"Polygon","coordinates":[[[-82.240738,28.741127],[-82.240791,28.741228],[-82.241413,28.741612],[-82.242125,28.741904],[-82.242818,28.742481],[-82.24302,28.742707],[-82.248452,28.742166],[-82.248447,28.740347],[-82.240738,28.741127]]]}},{"type":"Feature","id":"12017:21E20S19      42000","properties":{"id":"12017:21E20S19      42000","parcelId":"21E20S19      42000","countyFips":"12017","countyName":"Citrus","state":"Florida","marketIds":["Tampa","North-Central Florida"],"situsAddress":"8831 S STEED TER","situsCity":"FLORAL CITY","situsZip":null,"jurisdictionCode":"Unincorporated Citrus County","ownerName":"HARTMAN DAVID ANDREW","ownerName2":null,"propertyName":null,"zoningCode":"CL","zoningDistrict":"LOW INTENSITY COASTAL & LAKES","jurisdictionPrefix":null,"dorCode":"050","acreage":29.5142,"centroid":[-82.246007,28.735601],"lastSale":{"date":null,"price":null,"qualified":null},"tax":{"marketValue":521056.0,"assessedValue":null,"taxableValue":null,"taxes":null},"mailingAddress":{"line1":"8831 S STEED TER","line2":null,"city":"FLORAL CITY","state":"FL","zip":"34436"},"incomeTract":null,"incomeBlockGroup":null,"nearestRoad":null,"flu":{"code":"CL","label":"LOW INTENSITY COASTAL LAKES","jurisdiction":"Unincorporated Citrus County","source":"citrus-land-development-landuse"},"opportunityZone":null,"oz2Eligibility":null,"source":"fl-citrus-swfwmd-12017","appraiserUrl":"https://www.citruspa.org/"},"geometry":{"type":"Polygon","coordinates":[[[-82.244411,28.737016],[-82.244411,28.73702],[-82.244411,28.737094],[-82.245641,28.736973],[-82.245637,28.73606],[-82.248172,28.735775],[-82.250749,28.735551],[-82.25073,28.733665],[-82.246305,28.734099],[-82.246305,28.734003],[-82.245311,28.733984],[-82.245354,28.73452],[-82.245553,28.734801],[-82.245625,28.735246],[-82.245318,28.7357],[-82.245243,28.735978],[-82.24454,28.73666],[-82.244411,28.736682],[-82.244411,28.737016]]]}},{"type":"Feature","id":"12017:21E20S17      23000","properties":{"id":"12017:21E20S17      23000","parcelId":"21E20S17      23000","countyFips":"12017","countyName":"Citrus","state":"Florida","marketIds":["Tampa","North-Central Florida"],"situsAddress":"E TREELINE DR","situsCity":"FLORAL CITY","situsZip":null,"jurisdictionCode":null,"ownerName":"MORTON JAMES W","ownerName2":null,"propertyName":null,"zoningCode":null,"zoningDistrict":null,"jurisdictionPrefix":null,"dorCode":"099","acreage":28.9965,"centroid":[-82.225712,28.743447],"lastSale":{"date":null,"price":null,"qualified":null},"tax":{"marketValue":6180.0,"assessedValue":null,"taxableValue":null,"taxes":null},"mailingAddress":{"line1":"1645 W MAIN ST","line2":null,"city":"INVERNESS","state":"FL","zip":"34450"},"incomeTract":null,"incomeBlockGroup":null,"nearestRoad":null,"flu":null,"opportunityZone":null,"oz2Eligibility":null,"source":"fl-citrus-swfwmd-12017"},"geometry":{"type":"MultiPolygon","coordinates":[[[[-82.225343,28.74619],[-82.225699,28.746405],[-82.225824,28.746481],[-82.226541,28.746338],[-82.226476,28.745951],[-82.226174,28.745628],[-82.225747,28.744894],[-82.225552,28.744432],[-82.225494,28.743895],[-82.225799,28.743282],[-82.225682,28.742949],[-82.225804,28.742544],[-82.226166,28.742179],[-82.226568,28.742035],[-82.227158,28.74159],[-82.227461,28.741617],[-82.228013,28.741955],[-82.228013,28.741315],[-82.225137,28.74122],[-82.224994,28.741292],[-82.224707,28.741385],[-82.224489,28.741524],[-82.224306,28.741747],[-82.22415,28.74187],[-82.223899,28.741917],[-82.223903,28.746377],[-82.22513,28.746061],[-82.225343,28.74619]]],[[[-82.225866,28.748552],[-82.2259,28.748668],[-82.225949,28.748835],[-82.226142,28.748931],[-82.226089,28.748546],[-82.225866,28.748552]]]]}},{"type":"Feature","id":"12017:21E20S18      31100","properties":{"id":"12017:21E20S18      31100","parcelId":"21E20S18      31100","countyFips":"12017","countyName":"Citrus","state":"Florida","marketIds":["Tampa","North-Central Florida"],"situsAddress":"8133 S CLARK WISE TER","situsCity":"FLORAL CITY","situsZip":null,"jurisdictionCode":"Unincorporated Citrus County","ownerName":"HEYMANN WERNER","ownerName2":null,"propertyName":null,"zoningCode":"CL","zoningDistrict":"LOW INTENSITY COASTAL & LAKES","jurisdictionPrefix":null,"dorCode":"001","acreage":20.4177,"centroid":[-82.246037,28.746779],"lastSale":{"date":null,"price":null,"qualified":null},"tax":{"marketValue":170844.0,"assessedValue":null,"taxableValue":null,"taxes":null},"mailingAddress":{"line1":"8133 S CLARK WISE TER","line2":null,"city":"FLORAL CITY","state":"FL","zip":"34436"},"incomeTract":null,"incomeBlockGroup":null,"nearestRoad":null,"flu":{"code":"CL","label":"LOW INTENSITY COASTAL LAKES","jurisdiction":"Unincorporated Citrus County","source":"citrus-land-development-landuse"},"opportunityZone":null,"oz2Eligibility":null,"source":"fl-citrus-swfwmd-12017","appraiserUrl":"https://www.citruspa.org/"},"geometry":{"type":"Polygon","coordinates":[[[-82.244413,28.746194],[-82.244413,28.746239],[-82.244425,28.748068],[-82.248469,28.747644],[-82.248463,28.745748],[-82.244413,28.746194]]]}},{"type":"Feature","id":"12017:21E20S17      12100","properties":{"id":"12017:21E20S17      12100","parcelId":"21E20S17      12100","countyFips":"12017","countyName":"Citrus","state":"Florida","marketIds":["Tampa","North-Central Florida"],"situsAddress":"12683 E TRAILS END RD","situsCity":"FLORAL CITY","situsZip":null,"jurisdictionCode":"Unincorporated Citrus County","ownerName":"PLANT ROBERT GLEN JR","ownerName2":null,"propertyName":null,"zoningCode":"CL MH","zoningDistrict":"LOW-INT.COASTL-LAKES-MH ALLWED","jurisdictionPrefix":null,"dorCode":"099","acreage":19.7383,"centroid":[-82.221412,28.749639],"lastSale":{"date":null,"price":null,"qualified":null},"tax":{"marketValue":275820.0,"assessedValue":null,"taxableValue":null,"taxes":null},"mailingAddress":{"line1":"8565 E GOBBLER DR","line2":null,"city":"FLORAL CITY","state":"FL","zip":"34436"},"incomeTract":null,"incomeBlockGroup":null,"nearestRoad":null,"flu":{"code":"CL","label":"LOW INTENSITY COASTAL LAKES","jurisdiction":"Unincorporated Citrus County","source":"citrus-land-development-landuse"},"opportunityZone":null,"oz2Eligibility":null,"source":"fl-citrus-swfwmd-12017","appraiserUrl":"https://www.citruspa.org/"},"geometry":{"type":"Polygon","coordinates":[[[-82.219785,28.750351],[-82.219836,28.750351],[-82.223829,28.750397],[-82.223828,28.748572],[-82.219784,28.748526],[-82.219785,28.750351]]]}},{"type":"Feature","id":"12017:21E20S18      23300","properties":{"id":"12017:21E20S18      23300","parcelId":"21E20S18      23300","countyFips":"12017","countyName":"Citrus","state":"Florida","marketIds":["Tampa","North-Central Florida"],"situsAddress":"8335 S CLARK WISE TER","situsCity":"FLORAL CITY","situsZip":null,"jurisdictionCode":"Unincorporated Citrus County","ownerName":"CORONESI ERIN P","ownerName2":null,"propertyName":null,"zoningCode":"CL","zoningDistrict":"LOW INTENSITY COASTAL & LAKES","jurisdictionPrefix":null,"dorCode":"001","acreage":12.3141,"centroid":[-82.245482,28.742998],"lastSale":{"date":null,"price":100.0,"qualified":null},"tax":{"marketValue":395148.0,"assessedValue":null,"taxableValue":null,"taxes":null},"mailingAddress":{"line1":"8335 S CLARK WISE TER","line2":null,"city":"FLORAL CITY","state":"FL","zip":"34436"},"incomeTract":null,"incomeBlockGroup":null,"nearestRoad":null,"flu":{"code":"CL","label":"LOW INTENSITY COASTAL LAKES","jurisdiction":"Unincorporated Citrus County","source":"citrus-land-development-landuse"},"opportunityZone":null,"oz2Eligibility":null,"source":"fl-citrus-swfwmd-12017","appraiserUrl":"https://www.citruspa.org/"},"geometry":{"type":"Polygon","coordinates":[[[-82.24302,28.742707],[-82.243727,28.743497],[-82.243755,28.743543],[-82.248455,28.743075],[-82.248452,28.742166],[-82.24302,28.742707]]]}},{"type":"Feature","id":"12017:21E20S18      31200","properties":{"id":"12017:21E20S18      31200","parcelId":"21E20S18      31200","countyFips":"12017","countyName":"Citrus","state":"Florida","marketIds":["Tampa","North-Central Florida"],"situsAddress":"8201 S CLARK WISE TER","situsCity":"FLORAL CITY","situsZip":null,"jurisdictionCode":"Unincorporated Citrus County","ownerName":"GOTTUS RONALD AARON","ownerName2":null,"propertyName":null,"zoningCode":"CL","zoningDistrict":"LOW INTENSITY COASTAL & LAKES","jurisdictionPrefix":null,"dorCode":"061","acreage":11.6613,"centroid":[-82.245606,28.744865],"lastSale":{"date":null,"price":null,"qualified":null},"tax":{"marketValue":34130.0,"assessedValue":null,"taxableValue":null,"taxes":null},"mailingAddress":{"line1":"11011 E LARRY CT","line2":null,"city":"FLORAL CITY","state":"FL","zip":"34436"},"incomeTract":null,"incomeBlockGroup":null,"nearestRoad":null,"flu":{"code":"CL","label":"LOW INTENSITY COASTAL LAKES","jurisdiction":"Unincorporated Citrus County","source":"citrus-land-development-landuse"},"opportunityZone":null,"oz2Eligibility":null,"source":"fl-citrus-swfwmd-12017","appraiserUrl":"https://www.citruspa.org/"},"geometry":{"type":"Polygon","coordinates":[[[-82.244242,28.744404],[-82.244256,28.744444],[-82.244404,28.744911],[-82.244412,28.746093],[-82.245011,28.746028],[-82.248458,28.744192],[-82.248458,28.743985],[-82.244242,28.744404]]]}},{"type":"Feature","id":"12017:21E20S18      32000","properties":{"id":"12017:21E20S18      32000","parcelId":"21E20S18      32000","countyFips":"12017","countyName":"Citrus","state":"Florida","marketIds":["Tampa","North-Central Florida"],"situsAddress":"8275 S CLARK WISE TER","situsCity":"FLORAL CITY","situsZip":null,"jurisdictionCode":"Unincorporated Citrus County","ownerName":"NORMAND CAROL A","ownerName2":null,"propertyName":null,"zoningCode":"CL","zoningDistrict":"LOW INTENSITY COASTAL & LAKES","jurisdictionPrefix":null,"dorCode":"099","acreage":10.804,"centroid":[-82.245819,28.74385],"lastSale":{"date":null,"price":null,"qualified":null},"tax":{"marketValue":59750.0,"assessedValue":null,"taxableValue":null,"taxes":null},"mailingAddress":{"line1":"8275 S CLARK WISE TER","line2":null,"city":"FLORAL CITY","state":"FL","zip":"34436"},"incomeTract":null,"incomeBlockGroup":null,"nearestRoad":null,"flu":{"code":"CL","label":"LOW INTENSITY COASTAL LAKES","jurisdiction":"Unincorporated Citrus County","source":"citrus-land-development-landuse"},"opportunityZone":null,"oz2Eligibility":null,"source":"fl-citrus-swfwmd-12017","appraiserUrl":"https://www.citruspa.org/"},"geometry":{"type":"Polygon","coordinates":[[[-82.243755,28.743543],[-82.244187,28.744242],[-82.244242,28.744404],[-82.248458,28.743985],[-82.248455,28.743075],[-82.243755,28.743543]]]}},{"type":"Feature","id":"12017:21E20S17      2A0A0","properties":{"id":"12017:21E20S17      2A0A0","parcelId":"21E20S17      2A0A0","countyFips":"12017","countyName":"Citrus","state":"Florida","marketIds":["Tampa","North-Central Florida"],"situsAddress":"E WALTON DR","situsCity":"FLORAL CITY","situsZip":null,"jurisdictionCode":"Unincorporated Citrus County","ownerName":"OLD OAKS CIVIC ASSOCIATION","ownerName2":null,"propertyName":null,"zoningCode":null,"zoningDistrict":null,"jurisdictionPrefix":null,"dorCode":"094","acreage":10.7507,"centroid":[-82.230732,28.745846],"lastSale":{"date":null,"price":null,"qualified":null},"tax":{"marketValue":50.0,"assessedValue":null,"taxableValue":null,"taxes":null},"mailingAddress":{"line1":"200 MONTEREY BLVD NE","line2":null,"city":"SAINT PETERSBURG","state":"FL","zip":"33704"},"incomeTract":null,"incomeBlockGroup":null,"nearestRoad":null,"flu":null,"opportunityZone":null,"oz2Eligibility":null,"source":"fl-citrus-swfwmd-12017","appraiserUrl":"https://www.citruspa.org/"},"geometry":{"type":"Polygon","coordinates":[[[-82.227756,28.749418],[-82.228007,28.749582],[-82.228284,28.749765],[-82.228662,28.749645],[-82.228775,28.749365],[-82.228627,28.749319],[-82.22854,28.749537],[-82.22831,28.74961],[-82.227651,28.749177],[-82.227404,28.74892],[-82.227311,28.748534],[-82.227537,28.747832],[-82.229004,28.746996],[-82.229292,28.747388],[-82.229345,28.747511],[-82.229264,28.748172],[-82.229188,28.748233],[-82.229171,28.748276],[-82.229177,28.748342],[-82.229216,28.748398],[-82.229281,28.748431],[-82.229407,28.748416],[-82.229446,28.748385],[-82.229478,28.748322],[-82.229473,28.748257],[-82.229419,28.748189],[-82.229501,28.747611],[-82.229501,28.747502],[-82.229451,28.747355],[-82.229135,28.746921],[-82.231285,28.745695],[-82.231396,28.745573],[-82.231426,28.745489],[-82.231428,28.745392],[-82.231405,28.745313],[-82.231356,28.745235],[-82.231233,28.745142],[-82.231146,28.745101],[-82.230982,28.74518],[-82.231188,28.74528],[-82.231252,28.745347],[-82.231272,28.745465],[-82.231229,28.745552],[-82.229906,28.746318],[-82.22959,28.745644],[-82.229499,28.745356],[-82.229457,28.745052],[-82.229445,28.743955],[-82.229385,28.74376],[-82.229315,28.743641],[-82.229168,28.743485],[-82.229007,28.743381],[-82.227421,28.742579],[-82.227287,28.742541],[-82.22718,28.742537],[-82.226975,28.742589],[-82.226816,28.742714],[-82.22676,28.742804],[-82.226416,28.743586],[-82.226381,28.743788],[-82.226391,28.744005],[-82.226502,28.744685],[-82.226532,28.744788],[-82.226584,28.744879],[-82.226652,28.744954],[-82.226782,28.745041],[-82.226992,28.745097],[-82.228393,28.744936],[-82.228598,28.74495],[-82.22881,28.745018],[-82.229008,28.745152],[-82.229171,28.745314],[-82.229314,28.745494],[-82.229437,28.74569],[-82.229773,28.746394],[-82.227441,28.747722],[-82.227088,28.747317],[-82.226663,28.747243],[-82.223827,28.747651],[-82.223828,28.748519],[-82.223984,28.748521],[-82.223983,28.747768],[-82.22666,28.747383],[-82.227,28.747442],[-82.227365,28.747861],[-82.22715,28.74853],[-82.22726,28.748982],[-82.227543,28.749278],[-82.227756,28.749418]],[[-82.229299,28.744966],[-82.229301,28.745065],[-82.229323,28.745262],[-82.229042,28.744991],[-82.228841,28.744878],[-82.229136,28.744837],[-82.229298,28.744761],[-82.229299,28.744966]],[[-82.227206,28.742673],[-82.227249,28.742676],[-82.227373,28.742712],[-82.228266,28.743164],[-82.228022,28.743545],[-82.227964,28.743688],[-82.227934,28.743836],[-82.227941,28.744033],[-82.22807,28.744836],[-82.227097,28.744958],[-82.226986,28.744958],[-82.226879,28.74493],[-82.226785,28.744876],[-82.226713,28.744801],[-82.226667,28.744712],[-82.22654,28.74394],[-82.226538,28.743779],[-82.226563,28.743633],[-82.226926,28.742817],[-82.227024,28.742724],[-82.22711,28.742687],[-82.227206,28.742673]],[[-82.228141,28.744299],[-82.228095,28.744013],[-82.22809,28.743848],[-82.228136,28.743662],[-82.228401,28.743233],[-82.228929,28.7435],[-82.229089,28.74361],[-82.229213,28.74376],[-82.229266,28.743875],[-82.229293,28.743997],[-82.229298,28.744466],[-82.229284,28.744544],[-82.229214,28.744643],[-82.2291,28.744703],[-82.228225,28.744816],[-82.228141,28.744299]]]}},{"type":"Feature","id":"12017:21E20S20      14000","properties":{"id":"12017:21E20S20      14000","parcelId":"21E20S20      14000","countyFips":"12017","countyName":"Citrus","state":"Florida","marketIds":["Tampa","North-Central Florida"],"situsAddress":"8720 THE S WITHLACOOCHEE","situsCity":"FLORAL CITY","situsZip":null,"jurisdictionCode":"Unincorporated Citrus County","ownerName":"NORTH FLORIDA LAND TRUST INC","ownerName2":null,"propertyName":null,"zoningCode":"CL","zoningDistrict":"LOW INTENSITY COASTAL & LAKES","jurisdictionPrefix":null,"dorCode":"070","acreage":10.5981,"centroid":[-82.226487,28.740244],"lastSale":{"date":null,"price":null,"qualified":null},"tax":{"marketValue":2260.0,"assessedValue":null,"taxableValue":null,"taxes":null},"mailingAddress":{"line1":"843 W MONROE ST","line2":null,"city":"JACKSONVILLE","state":"FL","zip":"32202"},"incomeTract":null,"incomeBlockGroup":null,"nearestRoad":null,"flu":{"code":"CL","label":"LOW INTENSITY COASTAL LAKES","jurisdiction":"Unincorporated Citrus County","source":"citrus-land-development-landuse"},"opportunityZone":null,"oz2Eligibility":null,"source":"fl-citrus-swfwmd-12017","appraiserUrl":"https://www.citruspa.org/"},"geometry":{"type":"Polygon","coordinates":[[[-82.225137,28.74122],[-82.228013,28.741315],[-82.228011,28.738453],[-82.227343,28.738883],[-82.226934,28.73926],[-82.226752,28.739499],[-82.226448,28.740068],[-82.226335,28.740122],[-82.22637,28.74023],[-82.22644,28.740314],[-82.226483,28.740452],[-82.226379,28.740591],[-82.226144,28.740729],[-82.225865,28.740822],[-82.225656,28.740915],[-82.225482,28.741038],[-82.225137,28.74122]]]}},{"type":"Feature","id":"12017:21E20S19      41000 001B","properties":{"id":"12017:21E20S19      41000 001B","parcelId":"21E20S19      41000 001B","countyFips":"12017","countyName":"Citrus","state":"Florida","marketIds":["Tampa","North-Central Florida"],"situsAddress":"8757 E STEED TER","situsCity":"FLORAL CITY","situsZip":null,"jurisdictionCode":"Unincorporated Citrus County","ownerName":"STEED JOSEPH E","ownerName2":null,"propertyName":null,"zoningCode":"CL","zoningDistrict":"LOW INTENSITY COASTAL & LAKES","jurisdictionPrefix":null,"dorCode":"061","acreage":10.207,"centroid":[-82.248568,28.737138],"lastSale":{"date":null,"price":null,"qualified":null},"tax":{"marketValue":173520.0,"assessedValue":null,"taxableValue":null,"taxes":null},"mailingAddress":{"line1":"11160 E WISE LN","line2":null,"city":"FLORAL CITY","state":"FL","zip":"34436"},"incomeTract":null,"incomeBlockGroup":null,"nearestRoad":null,"flu":{"code":"CL","label":"LOW INTENSITY COASTAL LAKES","jurisdiction":"Unincorporated Citrus County","source":"citrus-land-development-landuse"},"opportunityZone":null,"oz2Eligibility":null,"source":"fl-citrus-swfwmd-12017","appraiserUrl":"https://www.citruspa.org/"},"geometry":{"type":"Polygon","coordinates":[[[-82.247172,28.737679],[-82.247173,28.737983],[-82.248739,28.737827],[-82.248738,28.737739],[-82.250966,28.737516],[-82.250962,28.73707],[-82.248299,28.737117],[-82.248284,28.736784],[-82.248172,28.735775],[-82.24717,28.735888],[-82.247172,28.737679]]]}},{"type":"Feature","id":"12017:21E20S19      41000 001C","properties":{"id":"12017:21E20S19      41000 001C","parcelId":"21E20S19      41000 001C","countyFips":"12017","countyName":"Citrus","state":"Florida","marketIds":["Tampa","North-Central Florida"],"situsAddress":"8809 S STEED TER","situsCity":"FLORAL CITY","situsZip":null,"jurisdictionCode":"Unincorporated Citrus County","ownerName":"STEED JOHN A","ownerName2":null,"propertyName":null,"zoningCode":"CL","zoningDistrict":"LOW INTENSITY COASTAL & LAKES","jurisdictionPrefix":null,"dorCode":"001","acreage":10.1293,"centroid":[-82.245859,28.736705],"lastSale":{"date":null,"price":null,"qualified":null},"tax":{"marketValue":363451.0,"assessedValue":null,"taxableValue":null,"taxes":null},"mailingAddress":{"line1":"8809 S STEED TER","line2":null,"city":"FLORAL CITY","state":"FL","zip":"34436"},"incomeTract":null,"incomeBlockGroup":null,"nearestRoad":null,"flu":{"code":"CL","label":"LOW INTENSITY COASTAL LAKES","jurisdiction":"Unincorporated Citrus County","source":"citrus-land-development-landuse"},"opportunityZone":null,"oz2Eligibility":null,"source":"fl-citrus-swfwmd-12017","appraiserUrl":"https://www.citruspa.org/"},"geometry":{"type":"Polygon","coordinates":[[[-82.246543,28.735958],[-82.245888,28.736032],[-82.245637,28.73606],[-82.245641,28.736973],[-82.244411,28.737094],[-82.244411,28.737955],[-82.247172,28.737679],[-82.24717,28.735888],[-82.246543,28.735958]]]}},{"type":"Feature","id":"12017:21E20S19      41000 001D","properties":{"id":"12017:21E20S19      41000 001D","parcelId":"21E20S19      41000 001D","countyFips":"12017","countyName":"Citrus","state":"Florida","marketIds":["Tampa","North-Central Florida"],"situsAddress":"8793 S STEED TER","situsCity":"FLORAL CITY","situsZip":null,"jurisdictionCode":"Unincorporated Citrus County","ownerName":"BAUMAN DONALD H III","ownerName2":null,"propertyName":null,"zoningCode":"CL","zoningDistrict":"LOW INTENSITY COASTAL & LAKES","jurisdictionPrefix":null,"dorCode":"099","acreage":10.034,"centroid":[-82.246007,28.738478],"lastSale":{"date":null,"price":214900.0,"qualified":null},"tax":{"marketValue":170580.0,"assessedValue":null,"taxableValue":null,"taxes":null},"mailingAddress":{"line1":"15703 97TH ROAD N","line2":null,"city":"WEST PALM BEACH","state":"FL","zip":"33412"},"incomeTract":null,"incomeBlockGroup":null,"nearestRoad":null,"flu":{"code":"CL","label":"LOW INTENSITY COASTAL LAKES","jurisdiction":"Unincorporated Citrus County","source":"citrus-land-development-landuse"},"opportunityZone":null,"oz2Eligibility":null,"source":"fl-citrus-swfwmd-12017","appraiserUrl":"https://www.citruspa.org/"},"geometry":{"type":"Polygon","coordinates":[[[-82.244411,28.737955],[-82.244412,28.739697],[-82.246445,28.739495],[-82.246427,28.738057],[-82.247173,28.737983],[-82.247172,28.737679],[-82.244411,28.737955]]]}},{"type":"Feature","id":"12017:21E20S19      41000 00B0","properties":{"id":"12017:21E20S19      41000 00B0","parcelId":"21E20S19      41000 00B0","countyFips":"12017","countyName":"Citrus","state":"Florida","marketIds":["Tampa","North-Central Florida"],"situsAddress":"8757 S STEED TER","situsCity":"FLORAL CITY","situsZip":null,"jurisdictionCode":"Unincorporated Citrus County","ownerName":"STEED LARRY A JR","ownerName2":null,"propertyName":null,"zoningCode":"CL","zoningDistrict":"LOW INTENSITY COASTAL & LAKES","jurisdictionPrefix":null,"dorCode":"061","acreage":10.0093,"centroid":[-82.249696,28.736443],"lastSale":{"date":null,"price":null,"qualified":null},"tax":{"marketValue":174550.0,"assessedValue":null,"taxableValue":null,"taxes":null},"mailingAddress":{"line1":"6201 WEST GREEN ACRE STREET","line2":null,"city":"HOMOSASSA","state":"FL","zip":"34446"},"incomeTract":null,"incomeBlockGroup":null,"nearestRoad":null,"flu":{"code":"CL","label":"LOW INTENSITY COASTAL LAKES","jurisdiction":"Unincorporated Citrus County","source":"citrus-land-development-landuse"},"opportunityZone":null,"oz2Eligibility":null,"source":"fl-citrus-swfwmd-12017","appraiserUrl":"https://www.citruspa.org/"},"geometry":{"type":"Polygon","coordinates":[[[-82.248278,28.736727],[-82.248284,28.736783],[-82.248299,28.737117],[-82.250962,28.73707],[-82.250957,28.736447],[-82.250806,28.736462],[-82.250754,28.736058],[-82.250749,28.735551],[-82.248172,28.735775],[-82.248278,28.736727]]]}},{"type":"Feature","id":"12017:21E20S18      31300","properties":{"id":"12017:21E20S18      31300","parcelId":"21E20S18      31300","countyFips":"12017","countyName":"Citrus","state":"Florida","marketIds":["Tampa","North-Central Florida"],"situsAddress":"8133 S CLARK WISE TER","situsCity":"FLORAL CITY","situsZip":null,"jurisdictionCode":"Unincorporated Citrus County","ownerName":"HEYMANN WERNER","ownerName2":null,"propertyName":null,"zoningCode":"CL","zoningDistrict":"LOW INTENSITY COASTAL & LAKES","jurisdictionPrefix":null,"dorCode":"099","acreage":7.8036,"centroid":[-82.246151,28.745651],"lastSale":{"date":null,"price":null,"qualified":null},"tax":{"marketValue":38060.0,"assessedValue":null,"taxableValue":null,"taxes":null},"mailingAddress":{"line1":"8133 S CLARK WISE TER","line2":null,"city":"FLORAL CITY","state":"FL","zip":"34436"},"incomeTract":null,"incomeBlockGroup":null,"nearestRoad":null,"flu":{"code":"CL","label":"LOW INTENSITY COASTAL LAKES","jurisdiction":"Unincorporated Citrus County","source":"citrus-land-development-landuse"},"opportunityZone":null,"oz2Eligibility":null,"source":"fl-citrus-swfwmd-12017","appraiserUrl":"https://www.citruspa.org/"},"geometry":{"type":"Polygon","coordinates":[[[-82.244412,28.746093],[-82.244413,28.746194],[-82.248463,28.745748],[-82.248458,28.744192],[-82.245011,28.746028],[-82.244412,28.746093]]]}},{"type":"Feature","id":"12017:21E20S17      2A0D0 0010","properties":{"id":"12017:21E20S17      2A0D0 0010","parcelId":"21E20S17      2A0D0 0010","countyFips":"12017","countyName":"Citrus","state":"Florida","marketIds":["Tampa","North-Central Florida"],"situsAddress":"8223 S KIMBERLY CIR","situsCity":"FLORAL CITY","situsZip":null,"jurisdictionCode":"Unincorporated Citrus County","ownerName":"POTTER RICHARD D TRUSTEE","ownerName2":null,"propertyName":null,"zoningCode":"CLR MH","zoningDistrict":"COASTL/LAKES RESDNTL-MH ALLWED","jurisdictionPrefix":null,"dorCode":"099","acreage":7.7099,"centroid":[-82.227221,28.743857],"lastSale":{"date":null,"price":null,"qualified":null},"tax":{"marketValue":53200.0,"assessedValue":null,"taxableValue":null,"taxes":null},"mailingAddress":{"line1":"200 MONTEREY BLVD NE","line2":null,"city":"SAINT PETERSBURG","state":"FL","zip":"33704"},"incomeTract":null,"incomeBlockGroup":null,"nearestRoad":null,"flu":{"code":"CL","label":"LOW INTENSITY COASTAL LAKES","jurisdiction":"Unincorporated Citrus County","source":"citrus-land-development-landuse"},"opportunityZone":null,"oz2Eligibility":null,"source":"fl-citrus-swfwmd-12017","appraiserUrl":"https://www.citruspa.org/"},"geometry":{"type":"Polygon","coordinates":[[[-82.227206,28.742673],[-82.227157,28.742677],[-82.227024,28.742724],[-82.226926,28.742817],[-82.226563,28.743633],[-82.226538,28.743779],[-82.22654,28.74394],[-82.226656,28.744666],[-82.226686,28.744758],[-82.226746,28.744841],[-82.22683,28.744906],[-82.226931,28.744947],[-82.227041,28.744961],[-82.22807,28.744836],[-82.227941,28.744033],[-82.227934,28.743836],[-82.227964,28.743688],[-82.228022,28.743545],[-82.228266,28.743164],[-82.227373,28.742712],[-82.227206,28.742673]]]}},{"type":"Feature","id":"12017:21E20S19      34100 00A0","properties":{"id":"12017:21E20S19      34100 00A0","parcelId":"21E20S19      34100 00A0","countyFips":"12017","countyName":"Citrus","state":"Florida","marketIds":["Tampa","North-Central Florida"],"situsAddress":"11042 E MARSH RD","situsCity":"FLORAL CITY","situsZip":null,"jurisdictionCode":"Unincorporated Citrus County","ownerName":"RIVER BEND CENTURY RANCH LLC","ownerName2":null,"propertyName":null,"zoningCode":"CL","zoningDistrict":"LOW INTENSITY COASTAL & LAKES","jurisdictionPrefix":null,"dorCode":"060","acreage":6.6358,"centroid":[-82.249949,28.732391],"lastSale":{"date":null,"price":null,"qualified":null},"tax":{"marketValue":116110.0,"assessedValue":null,"taxableValue":null,"taxes":null},"mailingAddress":{"line1":"PO BOX 274006","line2":null,"city":"TAMPA","state":"FL","zip":"33688"},"incomeTract":null,"incomeBlockGroup":null,"nearestRoad":null,"flu":{"code":"CL","label":"LOW INTENSITY COASTAL LAKES","jurisdiction":"Unincorporated Citrus County","source":"citrus-land-development-landuse"},"opportunityZone":null,"oz2Eligibility":null,"source":"fl-citrus-swfwmd-12017","appraiserUrl":"https://www.citruspa.org/"},"geometry":{"type":"Polygon","coordinates":[[[-82.248417,28.731937],[-82.248418,28.732422],[-82.248419,28.73304],[-82.250722,28.732819],[-82.250713,28.732751],[-82.251224,28.732701],[-82.251278,28.732658],[-82.250837,28.732452],[-82.250202,28.732104],[-82.249797,28.731848],[-82.249408,28.731573],[-82.248417,28.731937]]]}},{"type":"Feature","id":"12017:21E20S19      32110","properties":{"id":"12017:21E20S19      32110","parcelId":"21E20S19      32110","countyFips":"12017","countyName":"Citrus","state":"Florida","marketIds":["Tampa","North-Central Florida"],"situsAddress":"11319 E BUSHNELL RD","situsCity":"FLORAL CITY","situsZip":null,"jurisdictionCode":"Unincorporated Citrus County","ownerName":"AUVILLE ARTHUR LEE III","ownerName2":null,"propertyName":null,"zoningCode":"CL","zoningDistrict":"LOW INTENSITY COASTAL & LAKES","jurisdictionPrefix":null,"dorCode":"001","acreage":6.5736,"centroid":[-82.245436,28.729169],"lastSale":{"date":null,"price":null,"qualified":null},"tax":{"marketValue":353513.0,"assessedValue":null,"taxableValue":null,"taxes":null},"mailingAddress":{"line1":"11319 E BUSHNELL RD","line2":null,"city":"FLORAL CITY","state":"FL","zip":"34436"},"incomeTract":null,"incomeBlockGroup":null,"nearestRoad":null,"flu":{"code":"CL","label":"LOW INTENSITY COASTAL LAKES","jurisdiction":"Unincorporated Citrus County","source":"citrus-land-development-landuse"},"opportunityZone":null,"oz2Eligibility":null,"source":"fl-citrus-swfwmd-12017","appraiserUrl":"https://www.citruspa.org/"},"geometry":{"type":"Polygon","coordinates":[[[-82.244915,28.728858],[-82.244289,28.728948],[-82.244273,28.729861],[-82.247283,28.729537],[-82.246418,28.728641],[-82.244915,28.728858]]]}},{"type":"Feature","id":"12017:21E20S19      41100","properties":{"id":"12017:21E20S19      41100","parcelId":"21E20S19      41100","countyFips":"12017","countyName":"Citrus","state":"Florida","marketIds":["Tampa","North-Central Florida"],"situsAddress":"11390 E WISE LN","situsCity":"FLORAL CITY","situsZip":null,"jurisdictionCode":"Unincorporated Citrus County","ownerName":"STEED TITUS JOHN","ownerName2":null,"propertyName":null,"zoningCode":"CL","zoningDistrict":"LOW INTENSITY COASTAL & LAKES","jurisdictionPrefix":null,"dorCode":"002","acreage":6.0952,"centroid":[-82.245177,28.740042],"lastSale":{"date":null,"price":124000.0,"qualified":null},"tax":{"marketValue":199194.0,"assessedValue":null,"taxableValue":null,"taxes":null},"mailingAddress":{"line1":"8809 S STEED TER","line2":null,"city":"FLORAL CITY","state":"FL","zip":"34436"},"incomeTract":null,"incomeBlockGroup":null,"nearestRoad":null,"flu":{"code":"CL","label":"LOW INTENSITY COASTAL LAKES","jurisdiction":"Unincorporated Citrus County","source":"citrus-land-development-landuse"},"opportunityZone":null,"oz2Eligibility":null,"source":"fl-citrus-swfwmd-12017","appraiserUrl":"https://www.citruspa.org/"},"geometry":{"type":"Polygon","coordinates":[[[-82.244412,28.739697],[-82.244279,28.73971],[-82.244292,28.740762],[-82.246458,28.740545],[-82.246445,28.739495],[-82.244412,28.739697]]]}},{"type":"Feature","id":"12017:21E20S19      41000 0020","properties":{"id":"12017:21E20S19      41000 0020","parcelId":"21E20S19      41000 0020","countyFips":"12017","countyName":"Citrus","state":"Florida","marketIds":["Tampa","North-Central Florida"],"situsAddress":"11160 E WISE LN","situsCity":"FLORAL CITY","situsZip":null,"jurisdictionCode":"Unincorporated Citrus County","ownerName":"STEED JOSEPH ELWYN","ownerName2":null,"propertyName":null,"zoningCode":"CL","zoningDistrict":"LOW INTENSITY COASTAL & LAKES","jurisdictionPrefix":null,"dorCode":"002","acreage":5.3521,"centroid":[-82.248353,28.739111],"lastSale":{"date":null,"price":null,"qualified":null},"tax":{"marketValue":163733.0,"assessedValue":null,"taxableValue":null,"taxes":null},"mailingAddress":{"line1":"11160 E WISE LN","line2":null,"city":"FLORAL CITY","state":"FL","zip":"34436"},"incomeTract":null,"incomeBlockGroup":null,"nearestRoad":null,"flu":{"code":"CL","label":"LOW INTENSITY COASTAL LAKES","jurisdiction":"Unincorporated Citrus County","source":"citrus-land-development-landuse"},"opportunityZone":null,"oz2Eligibility":null,"source":"fl-citrus-swfwmd-12017","appraiserUrl":"https://www.citruspa.org/"},"geometry":{"type":"Polygon","coordinates":[[[-82.247936,28.737907],[-82.247967,28.740395],[-82.24877,28.740315],[-82.248739,28.737827],[-82.247936,28.737907]]]}},{"type":"Feature","id":"12017:21E20S16      33420","properties":{"id":"12017:21E20S16      33420","parcelId":"21E20S16      33420","countyFips":"12017","countyName":"Citrus","state":"Florida","marketIds":["Tampa","North-Central Florida"],"situsAddress":"8200 WITHLACOOCHEE RIVER","situsCity":"FLORAL CITY","situsZip":null,"jurisdictionCode":"Unincorporated Citrus County","ownerName":"MAYNARD STACY RAY & TRACIE","ownerName2":null,"propertyName":null,"zoningCode":"CL","zoningDistrict":"LOW INTENSITY COASTAL & LAKES","jurisdictionPrefix":null,"dorCode":"096","acreage":5.1198,"centroid":[-82.21887,28.744838],"lastSale":{"date":null,"price":null,"qualified":null},"tax":{"marketValue":1090.0,"assessedValue":null,"taxableValue":null,"taxes":null},"mailingAddress":{"line1":"624 S FLORAL PT","line2":null,"city":"INVERNESS","state":"FL","zip":"34450"},"incomeTract":null,"incomeBlockGroup":null,"nearestRoad":null,"flu":{"code":"CL","label":"LOW INTENSITY COASTAL LAKES","jurisdiction":"Unincorporated Citrus County","source":"citrus-land-development-landuse"},"opportunityZone":null,"oz2Eligibility":null,"source":"fl-citrus-swfwmd-12017","appraiserUrl":"https://www.citruspa.org/"},"geometry":{"type":"Polygon","coordinates":[[[-82.218014,28.745635],[-82.219782,28.745635],[-82.219781,28.744191],[-82.21919,28.744191],[-82.218958,28.744361],[-82.21874,28.744546],[-82.218314,28.744977],[-82.218183,28.745169],[-82.218014,28.745635]]]}},{"type":"Feature","id":"12017:21E20S19      41000 0030","properties":{"id":"12017:21E20S19      41000 0030","parcelId":"21E20S19      41000 0030","countyFips":"12017","countyName":"Citrus","state":"Florida","marketIds":["Tampa","North-Central Florida"],"situsAddress":"11220 E WISE LN","situsCity":"FLORAL CITY","situsZip":null,"jurisdictionCode":"Unincorporated Citrus County","ownerName":"STEED DONALD WILLIAM","ownerName2":null,"propertyName":null,"zoningCode":"CL","zoningDistrict":"LOW INTENSITY COASTAL & LAKES","jurisdictionPrefix":null,"dorCode":"002","acreage":5.0259,"centroid":[-82.247574,28.739188],"lastSale":{"date":null,"price":null,"qualified":null},"tax":{"marketValue":170118.0,"assessedValue":null,"taxableValue":null,"taxes":null},"mailingAddress":{"line1":"11220 E WISE LN","line2":null,"city":"FLORAL CITY","state":"FL","zip":"34436"},"incomeTract":null,"incomeBlockGroup":null,"nearestRoad":null,"flu":{"code":"CL","label":"LOW INTENSITY COASTAL LAKES","jurisdiction":"Unincorporated Citrus County","source":"citrus-land-development-landuse"},"opportunityZone":null,"oz2Eligibility":null,"source":"fl-citrus-swfwmd-12017","appraiserUrl":"https://www.citruspa.org/"},"geometry":{"type":"Polygon","coordinates":[[[-82.247182,28.737982],[-82.247213,28.74047],[-82.247967,28.740395],[-82.247936,28.737907],[-82.247182,28.737982]]]}},{"type":"Feature","id":"12017:21E20S19      41000 0040","properties":{"id":"12017:21E20S19      41000 0040","parcelId":"21E20S19      41000 0040","countyFips":"12017","countyName":"Citrus","state":"Florida","marketIds":["Tampa","North-Central Florida"],"situsAddress":"11230 E WISE LN","situsCity":"FLORAL CITY","situsZip":null,"jurisdictionCode":"Unincorporated Citrus County","ownerName":"JEFFERSON RONDA JO","ownerName2":null,"propertyName":null,"zoningCode":"CL","zoningDistrict":"LOW INTENSITY COASTAL & LAKES","jurisdictionPrefix":null,"dorCode":"001","acreage":5.0259,"centroid":[-82.246745,28.73931],"lastSale":{"date":null,"price":null,"qualified":null},"tax":{"marketValue":384220.0,"assessedValue":null,"taxableValue":null,"taxes":null},"mailingAddress":{"line1":"11230 E WISE LN","line2":null,"city":"FLORAL CITY","state":"FL","zip":"34436"},"incomeTract":null,"incomeBlockGroup":null,"nearestRoad":null,"flu":{"code":"CL","label":"LOW INTENSITY COASTAL LAKES","jurisdiction":"Unincorporated Citrus County","source":"citrus-land-development-landuse"},"opportunityZone":null,"oz2Eligibility":null,"source":"fl-citrus-swfwmd-12017","appraiserUrl":"https://www.citruspa.org/"},"geometry":{"type":"Polygon","coordinates":[[[-82.246445,28.739495],[-82.246458,28.740545],[-82.247213,28.74047],[-82.247182,28.737982],[-82.246427,28.738057],[-82.246445,28.739495]]]}}]}