{"type":"FeatureCollection","name":"12109-6_13","features":[{"type":"Feature","id":"12109:062320 0010","properties":{"id":"12109:062320 0010","parcelId":"062320 0010","countyFips":"12109","countyName":"St. Johns","state":"Florida","marketIds":["Jacksonville"],"situsAddress":"PONTE VEDRA LAKES BLVD","situsCity":null,"situsZip":null,"jurisdictionCode":"St. Johns County","ownerName":"M L PARTNERSHIP","ownerName2":null,"propertyName":null,"zoningCode":"PUD","zoningDistrict":null,"jurisdictionPrefix":null,"dorCode":"9600","acreage":9.81,"centroid":[-81.412987,30.25194],"lastSale":{"date":"1970-01-01","price":null,"qualified":null},"tax":{"marketValue":null,"assessedValue":null,"taxableValue":null,"taxes":null},"mailingAddress":{"line1":"25655 MARSH LANDING PARKWAY","line2":null,"city":"PONTE VEDRA BEACH","state":"FL","zip":"32082"},"incomeTract":null,"incomeBlockGroup":null,"nearestRoad":null,"flu":{"code":"CABALLOS DEL MAR DRI","label":"CABALLOS DEL MAR DRI","jurisdiction":"St. Johns County","source":"sjc-future-land-use"},"opportunityZone":null,"oz2Eligibility":null,"source":"fl-sjc-hosted-parcel-12109","appraiserUrl":"https://www.sjcpa.gov/"},"geometry":{"type":"MultiPolygon","coordinates":[[[[-81.411415,30.252363],[-81.411107,30.252479],[-81.414142,30.252439],[-81.414344,30.25186],[-81.414028,30.251778],[-81.414028,30.251607],[-81.413559,30.251614],[-81.413315,30.251889],[-81.413109,30.251792],[-81.413082,30.251621],[-81.411856,30.251638],[-81.411855,30.252197],[-81.411415,30.252363]]],[[[-81.415493,30.252099],[-81.415394,30.252423],[-81.417104,30.2524],[-81.41767,30.251685],[-81.417478,30.251558],[-81.415489,30.251586],[-81.415421,30.251764],[-81.415532,30.25197],[-81.415493,30.252099]]],[[[-81.418397,30.252094],[-81.418022,30.252388],[-81.418402,30.252383],[-81.418397,30.252094]]]]}},{"type":"Feature","id":"12109:051080 0000","properties":{"id":"12109:051080 0000","parcelId":"051080 0000","countyFips":"12109","countyName":"St. Johns","state":"Florida","marketIds":["Jacksonville"],"situsAddress":"PONTE VEDRA LAKES BLVD","situsCity":null,"situsZip":null,"jurisdictionCode":"St. Johns County","ownerName":"MARSH LANDING BUSINESS PK ASSN","ownerName2":null,"propertyName":null,"zoningCode":"PUD","zoningDistrict":null,"jurisdictionPrefix":null,"dorCode":"9400","acreage":7.68,"centroid":[-81.396124,30.250156],"lastSale":{"date":"1970-01-01","price":null,"qualified":null},"tax":{"marketValue":null,"assessedValue":null,"taxableValue":null,"taxes":null},"mailingAddress":{"line1":"4200 MARSH LANDING BLVD # 200","line2":null,"city":"JACKSONVILLE BEACH","state":"FL","zip":"32250"},"incomeTract":null,"incomeBlockGroup":null,"nearestRoad":null,"flu":{"code":"CABALLOS DEL MAR DRI","label":"CABALLOS DEL MAR DRI","jurisdiction":"St. Johns County","source":"sjc-future-land-use"},"opportunityZone":null,"oz2Eligibility":null,"source":"fl-sjc-hosted-parcel-12109","appraiserUrl":"https://www.sjcpa.gov/"},"geometry":{"type":"MultiPolygon","coordinates":[[[[-81.394221,30.249358],[-81.394226,30.249359],[-81.394642,30.249473],[-81.395021,30.249661],[-81.395293,30.249866],[-81.395668,30.250252],[-81.395906,30.250453],[-81.39621,30.250651],[-81.396542,30.25081],[-81.396897,30.250927],[-81.397267,30.251],[-81.397598,30.251026],[-81.398198,30.251024],[-81.39851,30.251064],[-81.398506,30.250782],[-81.397823,30.250709],[-81.397433,30.250603],[-81.396692,30.250158],[-81.395997,30.2499],[-81.395744,30.249786],[-81.395143,30.2494],[-81.394804,30.249235],[-81.394425,30.249117],[-81.394215,30.249121],[-81.394221,30.249358]]],[[[-81.399901,30.251804],[-81.400301,30.251807],[-81.40014,30.251624],[-81.399934,30.251433],[-81.399705,30.251261],[-81.399499,30.251134],[-81.399007,30.250913],[-81.398506,30.250782],[-81.39851,30.251064],[-81.398911,30.251176],[-81.399271,30.251334],[-81.399598,30.251539],[-81.399901,30.251804]]],[[[-81.400288,30.252344],[-81.40029,30.252349],[-81.400402,30.252617],[-81.400729,30.252613],[-81.400559,30.252197],[-81.400301,30.251807],[-81.399901,30.251804],[-81.400121,30.252068],[-81.400288,30.252344]]]]}},{"type":"Feature","id":"12109:062005 0000","properties":{"id":"12109:062005 0000","parcelId":"062005 0000","countyFips":"12109","countyName":"St. Johns","state":"Florida","marketIds":["Jacksonville"],"situsAddress":"5321 DIXIE LANDING DR","situsCity":null,"situsZip":null,"jurisdictionCode":null,"ownerName":"TOMM CHARLES B","ownerName2":null,"propertyName":null,"zoningCode":null,"zoningDistrict":null,"jurisdictionPrefix":null,"dorCode":"0100","acreage":5.95,"centroid":[-81.432276,30.250037],"lastSale":{"date":"1970-01-01","price":null,"qualified":null},"tax":{"marketValue":null,"assessedValue":null,"taxableValue":null,"taxes":null},"mailingAddress":{"line1":"5321 DIXIE LANDING DR","line2":null,"city":"JACKSONVILLE","state":"FL","zip":"32224"},"incomeTract":null,"incomeBlockGroup":null,"nearestRoad":null,"flu":null,"opportunityZone":null,"oz2Eligibility":null,"source":"fl-sjc-hosted-parcel-12109"},"geometry":{"type":"MultiPolygon","coordinates":[[[[-81.434201,30.250153],[-81.434196,30.249871],[-81.430317,30.249922],[-81.430389,30.250203],[-81.434201,30.250153]]],[[[-81.430389,30.250203],[-81.430431,30.250364],[-81.430462,30.250484],[-81.434206,30.250434],[-81.434201,30.250153],[-81.430389,30.250203]]],[[[-81.430462,30.250484],[-81.430471,30.250519],[-81.433535,30.250479],[-81.433534,30.250443],[-81.430462,30.250484]]]]}},{"type":"Feature","id":"12109:051080 0010","properties":{"id":"12109:051080 0010","parcelId":"051080 0010","countyFips":"12109","countyName":"St. Johns","state":"Florida","marketIds":["Jacksonville"],"situsAddress":"611 PONTE VEDRA LAKES BLVD","situsCity":null,"situsZip":null,"jurisdictionCode":"St. Johns County","ownerName":"REMINGTON FL INVESTORS LLC","ownerName2":null,"propertyName":null,"zoningCode":"PUD","zoningDistrict":null,"jurisdictionPrefix":null,"dorCode":"0300","acreage":28.5407,"centroid":[-81.39655,30.250957],"lastSale":{"date":"1970-01-01","price":null,"qualified":null},"tax":{"marketValue":null,"assessedValue":null,"taxableValue":null,"taxes":null},"mailingAddress":{"line1":"710 PEACHTREE ST NE STE 100","line2":null,"city":"ATLANTA","state":"GA","zip":"30308"},"incomeTract":null,"incomeBlockGroup":null,"nearestRoad":null,"flu":{"code":"CABALLOS DEL MAR DRI","label":"CABALLOS DEL MAR DRI","jurisdiction":"St. Johns County","source":"sjc-future-land-use"},"opportunityZone":null,"oz2Eligibility":null,"source":"fl-sjc-hosted-parcel-12109","appraiserUrl":"https://www.sjcpa.gov/"},"geometry":{"type":"MultiPolygon","coordinates":[[[[-81.394221,30.249358],[-81.394299,30.252782],[-81.397631,30.252661],[-81.397741,30.252563],[-81.397748,30.251839],[-81.398521,30.251827],[-81.39851,30.251064],[-81.398198,30.251024],[-81.397598,30.251026],[-81.397267,30.251],[-81.396897,30.250927],[-81.396542,30.25081],[-81.39621,30.250651],[-81.395906,30.250453],[-81.395668,30.250252],[-81.395291,30.249864],[-81.395018,30.24966],[-81.394639,30.249472],[-81.394221,30.249358]]],[[[-81.398521,30.251827],[-81.397748,30.251839],[-81.397741,30.252563],[-81.397952,30.252375],[-81.400288,30.252344],[-81.400121,30.252068],[-81.399901,30.251804],[-81.398521,30.251827]]],[[[-81.39851,30.251064],[-81.398521,30.251827],[-81.399901,30.251804],[-81.399598,30.251539],[-81.399271,30.251334],[-81.398911,30.251176],[-81.39851,30.251064]],[[-81.399626,30.251691],[-81.399672,30.251646],[-81.399719,30.251683],[-81.399673,30.251728],[-81.399626,30.251691]]]]}},{"type":"Feature","id":"12109:062000 0010","properties":{"id":"12109:062000 0010","parcelId":"062000 0010","countyFips":"12109","countyName":"St. Johns","state":"Florida","marketIds":["Jacksonville"],"situsAddress":"0 DIXIE LANDING DR","situsCity":null,"situsZip":null,"jurisdictionCode":null,"ownerName":"OAK LANDING III LLC","ownerName2":null,"propertyName":null,"zoningCode":null,"zoningDistrict":null,"jurisdictionPrefix":null,"dorCode":"0000","acreage":5.31,"centroid":[-81.432442,30.250642],"lastSale":{"date":"1970-01-01","price":null,"qualified":null},"tax":{"marketValue":null,"assessedValue":null,"taxableValue":null,"taxes":null},"mailingAddress":{"line1":"5321 DIXIE LANDING DR","line2":null,"city":"JACKSONVILLE","state":"FL","zip":"32224"},"incomeTract":null,"incomeBlockGroup":null,"nearestRoad":null,"flu":null,"opportunityZone":null,"oz2Eligibility":null,"source":"fl-sjc-hosted-parcel-12109"},"geometry":{"type":"MultiPolygon","coordinates":[[[[-81.430569,30.250895],[-81.430611,30.251059],[-81.434216,30.251012],[-81.434213,30.250847],[-81.430569,30.250895]]],[[[-81.430471,30.250519],[-81.430563,30.250874],[-81.430569,30.250895],[-81.434213,30.250847],[-81.434206,30.250434],[-81.433534,30.250443],[-81.433535,30.250479],[-81.430471,30.250519]]]]}},{"type":"Feature","id":"12109:062010 0001","properties":{"id":"12109:062010 0001","parcelId":"062010 0001","countyFips":"12109","countyName":"St. Johns","state":"Florida","marketIds":["Jacksonville"],"situsAddress":"5159 SAN PABLO RD S","situsCity":null,"situsZip":null,"jurisdictionCode":"St. Johns County","ownerName":"MOG COLLECTION LLC","ownerName2":null,"propertyName":null,"zoningCode":"PUD","zoningDistrict":null,"jurisdictionPrefix":null,"dorCode":"3500","acreage":9.06,"centroid":[-81.435433,30.250777],"lastSale":{"date":"1970-01-01","price":null,"qualified":null},"tax":{"marketValue":null,"assessedValue":null,"taxableValue":null,"taxes":null},"mailingAddress":{"line1":"4310 PABLO OAKS CT","line2":null,"city":"JACKSONVILLE","state":"FL","zip":"32224"},"incomeTract":null,"incomeBlockGroup":null,"nearestRoad":null,"flu":{"code":"MIXED USE DISTRICT","label":"MIXED USE DISTRICT","jurisdiction":"St. Johns County","source":"sjc-future-land-use"},"opportunityZone":null,"oz2Eligibility":null,"source":"fl-sjc-hosted-parcel-12109","appraiserUrl":"https://www.sjcpa.gov/"},"geometry":{"type":"Polygon","coordinates":[[[-81.436439,30.252146],[-81.436291,30.251807],[-81.436112,30.251272],[-81.435797,30.250483],[-81.435804,30.250409],[-81.435917,30.250364],[-81.435855,30.249794],[-81.435305,30.24984],[-81.434751,30.25012],[-81.434955,30.250424],[-81.434569,30.250631],[-81.434403,30.250633],[-81.43443,30.252172],[-81.436439,30.252146]]]}},{"type":"Feature","id":"12109:061991 0000","properties":{"id":"12109:061991 0000","parcelId":"061991 0000","countyFips":"12109","countyName":"St. Johns","state":"Florida","marketIds":["Jacksonville"],"situsAddress":"5293 DIXIE LANDING DR","situsCity":null,"situsZip":null,"jurisdictionCode":null,"ownerName":"DICKINSON JOHN E REVOCABLE TRUST OF 2022 ET AL","ownerName2":null,"propertyName":null,"zoningCode":null,"zoningDistrict":null,"jurisdictionPrefix":null,"dorCode":"0000","acreage":6.26,"centroid":[-81.432076,30.251199],"lastSale":{"date":"1970-01-01","price":null,"qualified":null},"tax":{"marketValue":null,"assessedValue":null,"taxableValue":null,"taxes":null},"mailingAddress":{"line1":"2633 NORTHERN OAK DR","line2":null,"city":"BRASELTON","state":"GA","zip":"30517"},"incomeTract":null,"incomeBlockGroup":null,"nearestRoad":null,"flu":null,"opportunityZone":null,"oz2Eligibility":null,"source":"fl-sjc-hosted-parcel-12109"},"geometry":{"type":"MultiPolygon","coordinates":[[[[-81.430711,30.251443],[-81.430711,30.251443],[-81.430785,30.251731],[-81.434228,30.251685],[-81.434223,30.251397],[-81.430711,30.251443]]],[[[-81.430611,30.251059],[-81.430617,30.251082],[-81.430711,30.251443],[-81.434223,30.251397],[-81.434216,30.251012],[-81.430611,30.251059]]]]}},{"type":"Feature","id":"12109:052580 0001","properties":{"id":"12109:052580 0001","parcelId":"052580 0001","countyFips":"12109","countyName":"St. Johns","state":"Florida","marketIds":["Jacksonville"],"situsAddress":"0 AVENUE C","situsCity":null,"situsZip":null,"jurisdictionCode":"St. Johns County","ownerName":"ST JOHNS COUNTY","ownerName2":null,"propertyName":null,"zoningCode":null,"zoningDistrict":"PV","jurisdictionPrefix":null,"dorCode":"9400","acreage":9.15,"centroid":[-81.388053,30.251211],"lastSale":{"date":null,"price":null,"qualified":null},"tax":{"marketValue":null,"assessedValue":null,"taxableValue":null,"taxes":null},"mailingAddress":{"line1":"500 SAN SEBASTIAN VW","line2":null,"city":"SAINT AUGUSTINE","state":"FL","zip":"32084"},"incomeTract":null,"incomeBlockGroup":null,"nearestRoad":null,"flu":null,"opportunityZone":null,"oz2Eligibility":null,"source":"fl-sjc-hosted-parcel-12109","appraiserUrl":"https://www.sjcpa.gov/"},"geometry":{"type":"MultiPolygon","coordinates":[[[[-81.387958,30.252618],[-81.387987,30.25282],[-81.388591,30.252814],[-81.388258,30.250619],[-81.388072,30.249193],[-81.387453,30.249203],[-81.387958,30.252618]]],[[[-81.388377,30.251399],[-81.388398,30.251536],[-81.388565,30.251533],[-81.388544,30.251396],[-81.388377,30.251399]]],[[[-81.388535,30.252441],[-81.388703,30.252439],[-81.388682,30.252301],[-81.388514,30.252304],[-81.388535,30.252441]]],[[[-81.388122,30.249579],[-81.38814,30.249716],[-81.388294,30.249714],[-81.388275,30.249576],[-81.388122,30.249579]]],[[[-81.388258,30.250619],[-81.388424,30.250618],[-81.388404,30.25048],[-81.38824,30.250483],[-81.388258,30.250619]]],[[[-81.386458,30.252682],[-81.386536,30.252844],[-81.386694,30.252841],[-81.386511,30.252461],[-81.387821,30.252443],[-81.387819,30.252305],[-81.386509,30.252324],[-81.386494,30.251554],[-81.387798,30.251536],[-81.387777,30.251398],[-81.386492,30.251417],[-81.386477,30.250647],[-81.387664,30.25063],[-81.387643,30.250493],[-81.386475,30.250509],[-81.38646,30.249739],[-81.38753,30.249724],[-81.387509,30.249587],[-81.386458,30.249602],[-81.386456,30.249518],[-81.386298,30.249521],[-81.386353,30.252463],[-81.386458,30.252682]]]]}},{"type":"Feature","id":"12109:051070 0000","properties":{"id":"12109:051070 0000","parcelId":"051070 0000","countyFips":"12109","countyName":"St. Johns","state":"Florida","marketIds":["Jacksonville"],"situsAddress":"101 TORTUGA LN","situsCity":null,"situsZip":null,"jurisdictionCode":"St. Johns County","ownerName":"PRII PONTE VEDRA SEAGLASS OWNER LLC","ownerName2":null,"propertyName":null,"zoningCode":"PUD","zoningDistrict":null,"jurisdictionPrefix":null,"dorCode":"0300","acreage":19.47,"centroid":[-81.391077,30.25052],"lastSale":{"date":"1970-01-01","price":null,"qualified":null},"tax":{"marketValue":null,"assessedValue":null,"taxableValue":null,"taxes":null},"mailingAddress":{"line1":"C/O KE ANDREWS","line2":null,"city":"ROCKWELL","state":"TX","zip":"75087"},"incomeTract":null,"incomeBlockGroup":null,"nearestRoad":null,"flu":{"code":"RESIDENTIAL-D","label":"RESIDENTIAL-D","jurisdiction":"St. Johns County","source":"sjc-future-land-use"},"opportunityZone":null,"oz2Eligibility":null,"source":"fl-sjc-hosted-parcel-12109","appraiserUrl":"https://www.sjcpa.gov/"},"geometry":{"type":"Polygon","coordinates":[[[-81.390084,30.252153],[-81.390096,30.252822],[-81.392203,30.252802],[-81.392127,30.249318],[-81.39184,30.249339],[-81.391552,30.249333],[-81.390682,30.24922],[-81.390031,30.249171],[-81.390084,30.252153]]]}},{"type":"Feature","id":"12109:051070 0010","properties":{"id":"12109:051070 0010","parcelId":"051070 0010","countyFips":"12109","countyName":"St. Johns","state":"Florida","marketIds":["Jacksonville"],"situsAddress":"100 CLIFTON CT","situsCity":null,"situsZip":null,"jurisdictionCode":"St. Johns County","ownerName":"PRII PONTE VEDRA SOLEIL OWNER LLC","ownerName2":null,"propertyName":null,"zoningCode":"PUD","zoningDistrict":null,"jurisdictionPrefix":null,"dorCode":"0300","acreage":19.2,"centroid":[-81.393204,30.250288],"lastSale":{"date":"1970-01-01","price":null,"qualified":null},"tax":{"marketValue":null,"assessedValue":null,"taxableValue":null,"taxes":null},"mailingAddress":{"line1":"C/O KE ANDREWS","line2":null,"city":"ROCKWELL","state":"TX","zip":"75087"},"incomeTract":null,"incomeBlockGroup":null,"nearestRoad":null,"flu":{"code":"RESIDENTIAL-D","label":"RESIDENTIAL-D","jurisdiction":"St. Johns County","source":"sjc-future-land-use"},"opportunityZone":null,"oz2Eligibility":null,"source":"fl-sjc-hosted-parcel-12109","appraiserUrl":"https://www.sjcpa.gov/"},"geometry":{"type":"Polygon","coordinates":[[[-81.392127,30.249318],[-81.392203,30.252802],[-81.394299,30.252782],[-81.39422,30.249335],[-81.393709,30.249271],[-81.393193,30.249247],[-81.392677,30.249261],[-81.392127,30.249318]]]}}]}