{"type":"FeatureCollection","name":"47007--8_35","features":[{"type":"Feature","id":"47007:004009    00105","properties":{"id":"47007:004009    00105","parcelId":"004009    00105","countyFips":"47007","countyName":"Bledsoe","state":"Tennessee","marketIds":["Chattanooga"],"situsAddress":"GRANDVIEW TRACT","situsCity":null,"situsZip":null,"jurisdictionCode":null,"ownerName":"TURNER FLOYD","ownerName2":null,"propertyName":null,"zoningCode":null,"zoningDistrict":null,"jurisdictionPrefix":null,"dorCode":null,"acreage":147.9306,"centroid":[-84.944531,35.760772],"lastSale":{"date":"2020-12-16","price":null,"qualified":null,"vintage":"2023"},"tax":{"marketValue":253700.0,"assessedValue":null,"taxableValue":null,"taxes":null,"vintage":"2023"},"mailingAddress":{"line1":null,"line2":null,"city":null,"state":null,"zip":null},"incomeTract":null,"incomeBlockGroup":null,"nearestRoad":null,"flu":null,"opportunityZone":null,"oz2Eligibility":null,"source":"tn-oir-public-use-47007","appraiserUrl":"https://assessment.cot.tn.gov/TPAD/Parcel/GIS?gislink=004009%20%20%20%2000105"},"geometry":{"type":"MultiPolygon","coordinates":[[[[-84.942906,35.764934],[-84.957486,35.761833],[-84.952694,35.761623],[-84.95333,35.75879],[-84.952031,35.75805],[-84.95157,35.757955],[-84.950995,35.75789],[-84.950566,35.757892],[-84.950188,35.757931],[-84.94994,35.758015],[-84.949299,35.75841],[-84.948752,35.758546],[-84.948713,35.758673],[-84.948608,35.758756],[-84.948461,35.758826],[-84.948193,35.758907],[-84.947869,35.75895],[-84.947929,35.759084],[-84.94803,35.759593],[-84.947654,35.759681],[-84.947246,35.75977],[-84.946351,35.759977],[-84.94591,35.760073],[-84.945452,35.760183],[-84.942666,35.760816],[-84.942125,35.760954],[-84.941998,35.761014],[-84.941869,35.761058],[-84.94175,35.761083],[-84.941597,35.7611],[-84.941515,35.761114],[-84.94142,35.761141],[-84.941335,35.761174],[-84.94127,35.761207],[-84.941209,35.761245],[-84.940683,35.761606],[-84.940498,35.761746],[-84.940375,35.761852],[-84.940258,35.761964],[-84.940164,35.762062],[-84.940027,35.762217],[-84.939938,35.762307],[-84.939834,35.7624],[-84.93972,35.76249],[-84.939587,35.762581],[-84.938981,35.762957],[-84.938869,35.763022],[-84.938754,35.763081],[-84.938913,35.76329],[-84.938891,35.763295],[-84.939531,35.763895],[-84.941655,35.763132],[-84.942906,35.764934]]],[[[-84.940399,35.76139],[-84.9396,35.761587],[-84.93881,35.761797],[-84.93858,35.761846],[-84.938313,35.761917],[-84.93792,35.762015],[-84.938696,35.763013],[-84.938812,35.762954],[-84.93892,35.762891],[-84.939523,35.762517],[-84.939669,35.762417],[-84.939777,35.76233],[-84.939873,35.762242],[-84.939951,35.762162],[-84.940068,35.762029],[-84.940159,35.761932],[-84.940267,35.761827],[-84.940383,35.761724],[-84.940491,35.761637],[-84.940603,35.761553],[-84.941098,35.761213],[-84.940399,35.76139]]]]}},{"type":"Feature","id":"47007:004009    00104","properties":{"id":"47007:004009    00104","parcelId":"004009    00104","countyFips":"47007","countyName":"Bledsoe","state":"Tennessee","marketIds":["Chattanooga"],"situsAddress":"GRANDVIEW TRACT","situsCity":null,"situsZip":null,"jurisdictionCode":null,"ownerName":"REILE DAVID M","ownerName2":"ETUX BARBARA SUDDARTH","propertyName":null,"zoningCode":null,"zoningDistrict":null,"jurisdictionPrefix":null,"dorCode":null,"acreage":141.0585,"centroid":[-84.931368,35.76265],"lastSale":{"date":"2013-03-18","price":274493.0,"qualified":null,"vintage":"2023"},"tax":{"marketValue":96500.0,"assessedValue":null,"taxableValue":null,"taxes":null,"vintage":"2023"},"mailingAddress":{"line1":null,"line2":null,"city":null,"state":null,"zip":null},"incomeTract":null,"incomeBlockGroup":null,"nearestRoad":null,"flu":null,"opportunityZone":null,"oz2Eligibility":null,"source":"tn-oir-public-use-47007","appraiserUrl":"https://assessment.cot.tn.gov/TPAD/Parcel/GIS?gislink=004009%20%20%20%2000104"},"geometry":{"type":"Polygon","coordinates":[[[-84.923361,35.762435],[-84.92394,35.762641],[-84.924276,35.763087],[-84.925088,35.763554],[-84.925455,35.763733],[-84.925588,35.763804],[-84.925742,35.763849],[-84.926234,35.763954],[-84.926459,35.764022],[-84.926892,35.764087],[-84.927054,35.764096],[-84.927589,35.764081],[-84.928172,35.764006],[-84.928225,35.764006],[-84.928468,35.763981],[-84.928897,35.764003],[-84.929765,35.764406],[-84.930019,35.764495],[-84.930232,35.764578],[-84.93042,35.764603],[-84.931127,35.764675],[-84.931295,35.764689],[-84.931818,35.764825],[-84.932067,35.764702],[-84.932146,35.764698],[-84.932423,35.764784],[-84.933203,35.764629],[-84.933302,35.764647],[-84.93353,35.76475],[-84.933888,35.764956],[-84.934133,35.764882],[-84.934347,35.76481],[-84.934609,35.764766],[-84.93513,35.765052],[-84.935518,35.764992],[-84.935876,35.765071],[-84.936295,35.765203],[-84.937493,35.764389],[-84.937388,35.764375],[-84.93729,35.764372],[-84.936531,35.764406],[-84.936436,35.764404],[-84.936327,35.76439],[-84.936225,35.764362],[-84.936128,35.764323],[-84.935996,35.764251],[-84.935944,35.764233],[-84.935886,35.76422],[-84.935826,35.764214],[-84.935766,35.764216],[-84.935612,35.764246],[-84.935518,35.764254],[-84.935423,35.764252],[-84.93533,35.764239],[-84.93527,35.764224],[-84.935213,35.764206],[-84.935156,35.764181],[-84.935125,35.764162],[-84.9351,35.764136],[-84.935083,35.764105],[-84.935075,35.764072],[-84.935078,35.764038],[-84.934261,35.763746],[-84.934172,35.762352],[-84.935506,35.762082],[-84.93631,35.761939],[-84.936987,35.761805],[-84.935521,35.758168],[-84.935179,35.757336],[-84.934386,35.757334],[-84.933927,35.758126],[-84.933907,35.758191],[-84.933877,35.758362],[-84.933828,35.758603],[-84.933666,35.758816],[-84.933618,35.758889],[-84.933341,35.759221],[-84.931722,35.758879],[-84.931255,35.758889],[-84.930737,35.759015],[-84.929795,35.759012],[-84.929019,35.759216],[-84.928656,35.759386],[-84.928612,35.759413],[-84.928557,35.759521],[-84.928486,35.75968],[-84.928234,35.759917],[-84.927684,35.760148],[-84.927567,35.760211],[-84.927253,35.760356],[-84.926806,35.760578],[-84.926747,35.760605],[-84.926689,35.760739],[-84.926085,35.760895],[-84.925492,35.761176],[-84.925113,35.761266],[-84.924801,35.761501],[-84.92452,35.761617],[-84.92438,35.7617],[-84.924084,35.761891],[-84.924018,35.761961],[-84.923745,35.762265],[-84.923538,35.762332],[-84.923361,35.762435]]]}},{"type":"Feature","id":"47007:004008    00200","properties":{"id":"47007:004008    00200","parcelId":"004008    00200","countyFips":"47007","countyName":"Bledsoe","state":"Tennessee","marketIds":["Chattanooga"],"situsAddress":"R NEAL RD 2053","situsCity":null,"situsZip":null,"jurisdictionCode":null,"ownerName":"MOUNTAIN VALLEY RESOURCES, LLC","ownerName2":null,"propertyName":null,"zoningCode":null,"zoningDistrict":null,"jurisdictionPrefix":null,"dorCode":null,"acreage":117.8073,"centroid":[-84.965016,35.755591],"lastSale":{"date":"2018-01-12","price":null,"qualified":null,"vintage":"2023"},"tax":{"marketValue":201300.0,"assessedValue":null,"taxableValue":null,"taxes":null,"vintage":"2023"},"mailingAddress":{"line1":null,"line2":null,"city":null,"state":null,"zip":null},"incomeTract":null,"incomeBlockGroup":null,"nearestRoad":null,"flu":null,"opportunityZone":null,"oz2Eligibility":null,"source":"tn-oir-public-use-47007","appraiserUrl":"https://assessment.cot.tn.gov/TPAD/Parcel/GIS?gislink=004008%20%20%20%2000200"},"geometry":{"type":"Polygon","coordinates":[[[-84.961963,35.752609],[-84.961245,35.75262],[-84.963125,35.758112],[-84.962918,35.759647],[-84.96555,35.760117],[-84.967042,35.759799],[-84.972083,35.75371],[-84.972252,35.75352],[-84.961996,35.753169],[-84.961985,35.752609],[-84.961963,35.752609]]]}},{"type":"Feature","id":"47007:004008    00100","properties":{"id":"47007:004008    00100","parcelId":"004008    00100","countyFips":"47007","countyName":"Bledsoe","state":"Tennessee","marketIds":["Chattanooga"],"situsAddress":"HOLLOWAY RIDGE RD","situsCity":null,"situsZip":null,"jurisdictionCode":null,"ownerName":"STATE OF TENNESSEE","ownerName2":null,"propertyName":null,"zoningCode":null,"zoningDistrict":null,"jurisdictionPrefix":null,"dorCode":null,"acreage":104.1566,"centroid":[-84.97706,35.756271],"lastSale":{"date":"2015-09-04","price":550000.0,"qualified":null,"vintage":"2023"},"tax":{"marketValue":119800.0,"assessedValue":null,"taxableValue":null,"taxes":null,"vintage":"2023"},"mailingAddress":{"line1":null,"line2":null,"city":null,"state":null,"zip":null},"incomeTract":null,"incomeBlockGroup":null,"nearestRoad":null,"flu":null,"opportunityZone":null,"oz2Eligibility":null,"source":"tn-oir-public-use-47007","appraiserUrl":"https://assessment.cot.tn.gov/TPAD/Parcel/GIS?gislink=004008%20%20%20%2000100"},"geometry":{"type":"Polygon","coordinates":[[[-84.972083,35.75371],[-84.967042,35.759799],[-84.978955,35.757263],[-84.978891,35.756808],[-84.978831,35.756605],[-84.978668,35.755917],[-84.979108,35.756257],[-84.979621,35.756527],[-84.980284,35.75698],[-84.980787,35.756873],[-84.973385,35.752245],[-84.972083,35.75371]]]}},{"type":"Feature","id":"47007:004009    00106","properties":{"id":"47007:004009    00106","parcelId":"004009    00106","countyFips":"47007","countyName":"Bledsoe","state":"Tennessee","marketIds":["Chattanooga"],"situsAddress":"SABO RD 487","situsCity":null,"situsZip":null,"jurisdictionCode":null,"ownerName":"SPHOON CHRISTOPHER M., ETUX STACEY A.","ownerName2":null,"propertyName":null,"zoningCode":null,"zoningDistrict":null,"jurisdictionPrefix":null,"dorCode":null,"acreage":82.4455,"centroid":[-84.930459,35.765136],"lastSale":{"date":"2022-02-03","price":345000.0,"qualified":null,"vintage":"2023"},"tax":{"marketValue":133100.0,"assessedValue":null,"taxableValue":null,"taxes":null,"vintage":"2023"},"mailingAddress":{"line1":null,"line2":null,"city":null,"state":null,"zip":null},"incomeTract":null,"incomeBlockGroup":null,"nearestRoad":null,"flu":null,"opportunityZone":null,"oz2Eligibility":null,"source":"tn-oir-public-use-47007","appraiserUrl":"https://assessment.cot.tn.gov/TPAD/Parcel/GIS?gislink=004009%20%20%20%2000106"},"geometry":{"type":"MultiPolygon","coordinates":[[[[-84.926403,35.76676],[-84.927482,35.767465],[-84.928599,35.768164],[-84.928648,35.768151],[-84.929443,35.767688],[-84.929708,35.767409],[-84.930056,35.767011],[-84.930502,35.766522],[-84.931113,35.766705],[-84.931338,35.76703],[-84.931695,35.767331],[-84.931953,35.767262],[-84.932048,35.767242],[-84.932991,35.766916],[-84.933936,35.766441],[-84.934857,35.765973],[-84.934786,35.765959],[-84.934738,35.765938],[-84.934696,35.765902],[-84.934671,35.765857],[-84.934665,35.765807],[-84.93467,35.765781],[-84.934681,35.765757],[-84.934714,35.765715],[-84.934738,35.765698],[-84.934765,35.765684],[-84.934816,35.765669],[-84.934871,35.765668],[-84.93542,35.765742],[-84.935633,35.765649],[-84.936061,35.765448],[-84.936462,35.765281],[-84.936497,35.76527],[-84.935876,35.765071],[-84.935518,35.764992],[-84.93513,35.765052],[-84.934609,35.764766],[-84.934347,35.76481],[-84.934133,35.764882],[-84.933888,35.764956],[-84.93353,35.76475],[-84.933302,35.764647],[-84.933203,35.764629],[-84.932423,35.764784],[-84.932146,35.764698],[-84.932067,35.764702],[-84.931818,35.764825],[-84.931295,35.764689],[-84.931127,35.764675],[-84.93042,35.764603],[-84.930232,35.764578],[-84.930019,35.764495],[-84.929765,35.764406],[-84.928897,35.764003],[-84.928468,35.763981],[-84.928225,35.764006],[-84.928172,35.764006],[-84.927589,35.764081],[-84.927054,35.764096],[-84.926892,35.764087],[-84.926459,35.764022],[-84.926234,35.763954],[-84.925742,35.763849],[-84.925588,35.763804],[-84.925455,35.763733],[-84.925088,35.763554],[-84.924276,35.763087],[-84.92394,35.762641],[-84.923361,35.762435],[-84.923243,35.76248],[-84.922706,35.76272],[-84.922038,35.763003],[-84.92104,35.763444],[-84.922337,35.764175],[-84.922602,35.764338],[-84.922885,35.76455],[-84.924512,35.7655],[-84.926403,35.76676]]],[[[-84.934848,35.765749],[-84.934825,35.765752],[-84.934803,35.765761],[-84.934785,35.765774],[-84.934774,35.765789],[-84.934767,35.765807],[-84.934767,35.765826],[-84.934773,35.765845],[-84.934785,35.76586],[-84.934804,35.765875],[-84.934826,35.765883],[-84.935015,35.765917],[-84.935275,35.765806],[-84.934848,35.765749]]]]}},{"type":"Feature","id":"47007:004009    01603","properties":{"id":"47007:004009    01603","parcelId":"004009    01603","countyFips":"47007","countyName":"Bledsoe","state":"Tennessee","marketIds":["Chattanooga"],"situsAddress":"SABO RD WEST","situsCity":null,"situsZip":null,"jurisdictionCode":null,"ownerName":"WARNER JOHNNY FRANK II","ownerName2":"& ISAAC EVERETT WARNER","propertyName":null,"zoningCode":null,"zoningDistrict":null,"jurisdictionPrefix":null,"dorCode":null,"acreage":82.3604,"centroid":[-84.955994,35.758081],"lastSale":{"date":"2006-11-08","price":null,"qualified":null,"vintage":"2023"},"tax":{"marketValue":43100.0,"assessedValue":null,"taxableValue":null,"taxes":null,"vintage":"2023"},"mailingAddress":{"line1":null,"line2":null,"city":null,"state":null,"zip":null},"incomeTract":null,"incomeBlockGroup":null,"nearestRoad":null,"flu":null,"opportunityZone":null,"oz2Eligibility":null,"source":"tn-oir-public-use-47007","appraiserUrl":"https://assessment.cot.tn.gov/TPAD/Parcel/GIS?gislink=004009%20%20%20%2001603"},"geometry":{"type":"Polygon","coordinates":[[[-84.952111,35.758096],[-84.95333,35.75879],[-84.952694,35.761623],[-84.956036,35.761769],[-84.956124,35.761113],[-84.956384,35.760236],[-84.956489,35.759316],[-84.956059,35.759259],[-84.956117,35.75851],[-84.958742,35.758577],[-84.961516,35.758891],[-84.961254,35.758481],[-84.960987,35.756474],[-84.959374,35.75463],[-84.958017,35.755444],[-84.956065,35.755713],[-84.95511,35.755647],[-84.95425,35.756241],[-84.954416,35.756958],[-84.954177,35.756978],[-84.953447,35.757302],[-84.952887,35.757796],[-84.952284,35.758014],[-84.952111,35.758096]]]}},{"type":"Feature","id":"47007:004009    01601","properties":{"id":"47007:004009    01601","parcelId":"004009    01601","countyFips":"47007","countyName":"Bledsoe","state":"Tennessee","marketIds":["Chattanooga"],"situsAddress":"SABO RD WEST","situsCity":null,"situsZip":null,"jurisdictionCode":null,"ownerName":"RICH BRENDA","ownerName2":null,"propertyName":null,"zoningCode":null,"zoningDistrict":null,"jurisdictionPrefix":null,"dorCode":null,"acreage":30.8803,"centroid":[-84.957651,35.760129],"lastSale":{"date":"1998-12-23","price":100.0,"qualified":null,"vintage":"2023"},"tax":{"marketValue":16000.0,"assessedValue":null,"taxableValue":null,"taxes":null,"vintage":"2023"},"mailingAddress":{"line1":null,"line2":null,"city":null,"state":null,"zip":null},"incomeTract":null,"incomeBlockGroup":null,"nearestRoad":null,"flu":null,"opportunityZone":null,"oz2Eligibility":null,"source":"tn-oir-public-use-47007","appraiserUrl":"https://assessment.cot.tn.gov/TPAD/Parcel/GIS?gislink=004009%20%20%20%2001601"},"geometry":{"type":"Polygon","coordinates":[[[-84.956036,35.761769],[-84.957486,35.761833],[-84.959313,35.761444],[-84.959894,35.760466],[-84.961516,35.758891],[-84.958742,35.758577],[-84.956117,35.75851],[-84.956059,35.759259],[-84.956489,35.759316],[-84.956384,35.760236],[-84.956124,35.761113],[-84.956036,35.761769]]]}},{"type":"Feature","id":"47007:004009    01400","properties":{"id":"47007:004009    01400","parcelId":"004009    01400","countyFips":"47007","countyName":"Bledsoe","state":"Tennessee","marketIds":["Chattanooga"],"situsAddress":"SABO RD 1500","situsCity":null,"situsZip":null,"jurisdictionCode":null,"ownerName":"REED ADA","ownerName2":null,"propertyName":null,"zoningCode":null,"zoningDistrict":null,"jurisdictionPrefix":null,"dorCode":null,"acreage":18.795,"centroid":[-84.945047,35.759089],"lastSale":{"date":"2017-02-02","price":null,"qualified":null,"vintage":"2023"},"tax":{"marketValue":149200.0,"assessedValue":null,"taxableValue":null,"taxes":null,"vintage":"2023"},"mailingAddress":{"line1":null,"line2":null,"city":null,"state":null,"zip":null},"incomeTract":null,"incomeBlockGroup":null,"nearestRoad":null,"flu":null,"opportunityZone":null,"oz2Eligibility":null,"source":"tn-oir-public-use-47007","appraiserUrl":"https://assessment.cot.tn.gov/TPAD/Parcel/GIS?gislink=004009%20%20%20%2001400"},"geometry":{"type":"Polygon","coordinates":[[[-84.942611,35.760698],[-84.942666,35.760816],[-84.945452,35.760183],[-84.94591,35.760073],[-84.946351,35.759977],[-84.947246,35.75977],[-84.947654,35.759681],[-84.94803,35.759593],[-84.947929,35.759084],[-84.947869,35.75895],[-84.947305,35.758961],[-84.947233,35.758955],[-84.947166,35.758941],[-84.947076,35.758907],[-84.946662,35.758694],[-84.94647,35.758587],[-84.946227,35.758435],[-84.946175,35.758408],[-84.946117,35.758386],[-84.946059,35.758369],[-84.945998,35.758358],[-84.945529,35.758302],[-84.945473,35.758293],[-84.944348,35.757998],[-84.94436,35.758044],[-84.94436,35.758092],[-84.944348,35.75814],[-84.944327,35.758182],[-84.944291,35.758224],[-84.944171,35.75833],[-84.944068,35.758431],[-84.943973,35.758537],[-84.943891,35.75864],[-84.943828,35.758728],[-84.943772,35.758816],[-84.94372,35.758906],[-84.943629,35.75908],[-84.943472,35.759326],[-84.94342,35.759422],[-84.943374,35.759519],[-84.943071,35.760218],[-84.943006,35.760335],[-84.942928,35.76044],[-84.942835,35.760536],[-84.942729,35.760623],[-84.942611,35.760698]]]}},{"type":"Feature","id":"47007:004009    00100","properties":{"id":"47007:004009    00100","parcelId":"004009    00100","countyFips":"47007","countyName":"Bledsoe","state":"Tennessee","marketIds":["Chattanooga"],"situsAddress":"SABO RD","situsCity":null,"situsZip":null,"jurisdictionCode":null,"ownerName":"GEORGE ONECIA","ownerName2":null,"propertyName":null,"zoningCode":null,"zoningDistrict":null,"jurisdictionPrefix":null,"dorCode":null,"acreage":17.8321,"centroid":[-84.939571,35.764987],"lastSale":{"date":"1994-11-30","price":null,"qualified":null,"vintage":"2023"},"tax":{"marketValue":35900.0,"assessedValue":null,"taxableValue":null,"taxes":null,"vintage":"2023"},"mailingAddress":{"line1":null,"line2":null,"city":null,"state":null,"zip":null},"incomeTract":null,"incomeBlockGroup":null,"nearestRoad":null,"flu":null,"opportunityZone":null,"oz2Eligibility":null,"source":"tn-oir-public-use-47007","appraiserUrl":"https://assessment.cot.tn.gov/TPAD/Parcel/GIS?gislink=004009%20%20%20%2000100"},"geometry":{"type":"MultiPolygon","coordinates":[[[[-84.938058,35.765322],[-84.938028,35.765475],[-84.938201,35.765473],[-84.938373,35.765465],[-84.938545,35.76545],[-84.938716,35.765429],[-84.938885,35.765402],[-84.939581,35.765333],[-84.939683,35.76533],[-84.939785,35.765333],[-84.939886,35.765342],[-84.939987,35.765357],[-84.940085,35.765377],[-84.940182,35.765404],[-84.940276,35.765436],[-84.940367,35.765474],[-84.942906,35.764934],[-84.941655,35.763132],[-84.93997,35.763737],[-84.940377,35.764023],[-84.940347,35.764096],[-84.940317,35.764231],[-84.940276,35.764366],[-84.940158,35.764533],[-84.939898,35.764712],[-84.939498,35.764868],[-84.939053,35.765001],[-84.938785,35.765068],[-84.938492,35.765127],[-84.938245,35.76517],[-84.938092,35.765211],[-84.938058,35.765322]]],[[[-84.937842,35.765796],[-84.93786,35.765834],[-84.937893,35.765779],[-84.937911,35.765721],[-84.937923,35.765506],[-84.937935,35.765421],[-84.937953,35.76533],[-84.937997,35.765183],[-84.938032,35.765114],[-84.93808,35.765054],[-84.938136,35.765005],[-84.938204,35.764963],[-84.938283,35.76493],[-84.93862,35.76459],[-84.938567,35.764567],[-84.938513,35.764554],[-84.937493,35.764389],[-84.936295,35.765203],[-84.936497,35.76527],[-84.936462,35.765281],[-84.936675,35.765322],[-84.936844,35.765349],[-84.937194,35.765446],[-84.937581,35.76551],[-84.93763,35.765504],[-84.937723,35.765452],[-84.937842,35.765796]]],[[[-84.938472,35.766449],[-84.939033,35.76586],[-84.939049,35.765754],[-84.939067,35.765522],[-84.938914,35.765537],[-84.938737,35.765566],[-84.938558,35.765587],[-84.938378,35.765602],[-84.938198,35.765611],[-84.938017,35.765612],[-84.938016,35.765696],[-84.938009,35.765744],[-84.937991,35.765799],[-84.937963,35.765854],[-84.937924,35.765904],[-84.937878,35.765947],[-84.937818,35.765989],[-84.937746,35.766031],[-84.937974,35.765982],[-84.938472,35.766449]]]]}},{"type":"Feature","id":"47007:004008    00101","properties":{"id":"47007:004008    00101","parcelId":"004008    00101","countyFips":"47007","countyName":"Bledsoe","state":"Tennessee","marketIds":["Chattanooga"],"situsAddress":"POND COVE CREEK","situsCity":null,"situsZip":null,"jurisdictionCode":null,"ownerName":"TURNER FLOYD","ownerName2":null,"propertyName":null,"zoningCode":null,"zoningDistrict":null,"jurisdictionPrefix":null,"dorCode":null,"acreage":16.5589,"centroid":[-84.962033,35.759922],"lastSale":{"date":"2016-06-30","price":517378.0,"qualified":null,"vintage":"2023"},"tax":{"marketValue":36800.0,"assessedValue":null,"taxableValue":null,"taxes":null,"vintage":"2023"},"mailingAddress":{"line1":null,"line2":null,"city":null,"state":null,"zip":null},"incomeTract":null,"incomeBlockGroup":null,"nearestRoad":null,"flu":null,"opportunityZone":null,"oz2Eligibility":null,"source":"tn-oir-public-use-47007","appraiserUrl":"https://assessment.cot.tn.gov/TPAD/Parcel/GIS?gislink=004008%20%20%20%2000101"},"geometry":{"type":"Polygon","coordinates":[[[-84.961516,35.758891],[-84.959894,35.760466],[-84.959313,35.761444],[-84.96555,35.760117],[-84.962918,35.759647],[-84.963009,35.758968],[-84.961516,35.758891]]]}},{"type":"Feature","id":"47007:004009    01300","properties":{"id":"47007:004009    01300","parcelId":"004009    01300","countyFips":"47007","countyName":"Bledsoe","state":"Tennessee","marketIds":["Chattanooga"],"situsAddress":"SABO RD","situsCity":null,"situsZip":null,"jurisdictionCode":null,"ownerName":"WALLS DAVID","ownerName2":null,"propertyName":null,"zoningCode":null,"zoningDistrict":null,"jurisdictionPrefix":null,"dorCode":null,"acreage":13.874,"centroid":[-84.943383,35.758063],"lastSale":{"date":"1970-10-12","price":null,"qualified":null,"vintage":"2023"},"tax":{"marketValue":36200.0,"assessedValue":null,"taxableValue":null,"taxes":null,"vintage":"2023"},"mailingAddress":{"line1":null,"line2":null,"city":null,"state":null,"zip":null},"incomeTract":null,"incomeBlockGroup":null,"nearestRoad":null,"flu":null,"opportunityZone":null,"oz2Eligibility":null,"source":"tn-oir-public-use-47007","appraiserUrl":"https://assessment.cot.tn.gov/TPAD/Parcel/GIS?gislink=004009%20%20%20%2001300"},"geometry":{"type":"Polygon","coordinates":[[[-84.941249,35.757318],[-84.941356,35.757576],[-84.942578,35.760616],[-84.942681,35.760547],[-84.942769,35.760473],[-84.942852,35.760384],[-84.942919,35.760293],[-84.942981,35.760178],[-84.943291,35.759463],[-84.943389,35.759277],[-84.943538,35.759044],[-84.943628,35.758872],[-84.943686,35.758773],[-84.943804,35.758598],[-84.943894,35.758485],[-84.94399,35.758379],[-84.944093,35.758277],[-84.944215,35.75817],[-84.944236,35.758146],[-84.944252,35.758116],[-84.944259,35.758084],[-84.944259,35.758051],[-84.94425,35.758019],[-84.944221,35.757974],[-84.944174,35.757938],[-84.943849,35.757814],[-84.943801,35.757786],[-84.94376,35.75775],[-84.943733,35.757713],[-84.943714,35.757673],[-84.943687,35.757506],[-84.943665,35.757437],[-84.943637,35.757375],[-84.943502,35.757158],[-84.943473,35.757133],[-84.943436,35.757118],[-84.943406,35.757114],[-84.943378,35.757117],[-84.94335,35.757125],[-84.943327,35.757139],[-84.943177,35.757309],[-84.943143,35.757336],[-84.943115,35.757349],[-84.943084,35.757356],[-84.943049,35.757359],[-84.943018,35.757355],[-84.942983,35.757344],[-84.94295,35.757326],[-84.942888,35.757272],[-84.942831,35.757215],[-84.942733,35.7571],[-84.94264,35.756959],[-84.941249,35.757318]]]}},{"type":"Feature","id":"47007:004009    01500","properties":{"id":"47007:004009    01500","parcelId":"004009    01500","countyFips":"47007","countyName":"Bledsoe","state":"Tennessee","marketIds":["Chattanooga"],"situsAddress":"SABO RD WEST 35","situsCity":null,"situsZip":null,"jurisdictionCode":null,"ownerName":"CHEVALIER JOHN R. ETUX CATHERINE","ownerName2":null,"propertyName":null,"zoningCode":null,"zoningDistrict":null,"jurisdictionPrefix":null,"dorCode":null,"acreage":9.6282,"centroid":[-84.946514,35.758424],"lastSale":{"date":"2016-10-21","price":105000.0,"qualified":null,"vintage":"2023"},"tax":{"marketValue":91200.0,"assessedValue":null,"taxableValue":null,"taxes":null,"vintage":"2023"},"mailingAddress":{"line1":null,"line2":null,"city":null,"state":null,"zip":null},"incomeTract":null,"incomeBlockGroup":null,"nearestRoad":null,"flu":null,"opportunityZone":null,"oz2Eligibility":null,"source":"tn-oir-public-use-47007","appraiserUrl":"https://assessment.cot.tn.gov/TPAD/Parcel/GIS?gislink=004009%20%20%20%2001500"},"geometry":{"type":"Polygon","coordinates":[[[-84.945106,35.758197],[-84.945494,35.758297],[-84.945998,35.758358],[-84.946066,35.758371],[-84.946132,35.758391],[-84.946184,35.758412],[-84.946231,35.758437],[-84.94647,35.758587],[-84.946651,35.758689],[-84.947076,35.758907],[-84.947166,35.758941],[-84.947233,35.758955],[-84.947305,35.758961],[-84.947869,35.75895],[-84.946735,35.755902],[-84.945106,35.758197]]]}},{"type":"Feature","id":"47007:004009    01501","properties":{"id":"47007:004009    01501","parcelId":"004009    01501","countyFips":"47007","countyName":"Bledsoe","state":"Tennessee","marketIds":["Chattanooga"],"situsAddress":"SABO RD WEST 1","situsCity":null,"situsZip":null,"jurisdictionCode":null,"ownerName":"TEFFER BUFORD","ownerName2":"ETUX CARILL","propertyName":null,"zoningCode":null,"zoningDistrict":null,"jurisdictionPrefix":null,"dorCode":null,"acreage":9.0013,"centroid":[-84.944643,35.757164],"lastSale":{"date":"2005-09-15","price":null,"qualified":null,"vintage":"2023"},"tax":{"marketValue":228900.0,"assessedValue":null,"taxableValue":null,"taxes":null,"vintage":"2023"},"mailingAddress":{"line1":null,"line2":null,"city":null,"state":null,"zip":null},"incomeTract":null,"incomeBlockGroup":null,"nearestRoad":null,"flu":null,"opportunityZone":null,"oz2Eligibility":null,"source":"tn-oir-public-use-47007","appraiserUrl":"https://assessment.cot.tn.gov/TPAD/Parcel/GIS?gislink=004009%20%20%20%2001501"},"geometry":{"type":"MultiPolygon","coordinates":[[[[-84.944142,35.75708],[-84.94403,35.757144],[-84.943926,35.75722],[-84.943834,35.757307],[-84.943757,35.757402],[-84.943792,35.757516],[-84.94381,35.757644],[-84.943821,35.757673],[-84.943838,35.757697],[-84.943865,35.757722],[-84.943901,35.757743],[-84.944196,35.757854],[-84.944239,35.757874],[-84.944276,35.757901],[-84.944306,35.757929],[-84.94433,35.757962],[-84.944348,35.757998],[-84.945106,35.758197],[-84.946735,35.755902],[-84.945853,35.75613],[-84.945768,35.756245],[-84.945718,35.756301],[-84.945665,35.756353],[-84.945549,35.756446],[-84.945417,35.756529],[-84.945303,35.756587],[-84.94519,35.756635],[-84.945098,35.756669],[-84.944875,35.756741],[-84.944691,35.756813],[-84.944559,35.756873],[-84.944142,35.75708]]],[[[-84.94449,35.756811],[-84.944604,35.756757],[-84.944721,35.756708],[-84.944868,35.756654],[-84.945121,35.756571],[-84.945224,35.756529],[-84.945323,35.756481],[-84.94544,35.756413],[-84.945539,35.756342],[-84.945629,35.75626],[-84.94571,35.756167],[-84.942739,35.756934],[-84.942807,35.757039],[-84.942874,35.757124],[-84.94296,35.757214],[-84.943016,35.757263],[-84.943031,35.757272],[-84.943063,35.757276],[-84.943092,35.757264],[-84.943232,35.757101],[-84.943273,35.757068],[-84.943306,35.757051],[-84.943342,35.757039],[-84.94338,35.757033],[-84.943419,35.757032],[-84.943463,35.757039],[-84.943502,35.757051],[-84.943537,35.757069],[-84.943568,35.757093],[-84.943595,35.757125],[-84.94371,35.757308],[-84.943768,35.757242],[-84.94383,35.757183],[-84.943903,35.757124],[-84.943976,35.757073],[-84.944076,35.757017],[-84.94449,35.756811]]]]}}]}