{"type":"FeatureCollection","name":"13103-5_21","features":[{"type":"Feature","id":"13103:02120004A00","properties":{"id":"13103:02120004A00","parcelId":"02120004A00","countyFips":"13103","countyName":"Effingham","state":"Georgia","marketIds":["Savannah"],"situsAddress":"6226 OLD LOUISVILLE RD","situsCity":null,"situsZip":null,"jurisdictionCode":null,"ownerName":"COLLINS DENISE G","ownerName2":null,"propertyName":null,"zoningCode":"AR-1","zoningDistrict":null,"jurisdictionPrefix":"EFFINGHAM","dorCode":"V","acreage":140.49,"centroid":[-81.52262,32.44803],"lastSale":{"date":"2010-02-26","price":null,"qualified":null},"tax":{"marketValue":224257.0,"assessedValue":null,"taxableValue":null,"taxes":5636.86},"mailingAddress":{"line1":"6226 OLD LOUISVILLE RD","line2":null,"city":"GUYTON","state":"GA","zip":"31312"},"incomeTract":null,"incomeBlockGroup":null,"nearestRoad":null,"flu":{"code":"Agriculture","label":"Agriculture","jurisdiction":"EFFINGHAM","source":"flum-20240903"},"opportunityZone":null,"oz2Eligibility":null,"source":"ga-effingham-parcels-2024","appraiserUrl":"https://qpublic.schneidercorp.com/Application.aspx?AppID=666&LayerID=11348&PageTypeID=4&PageID=4716&KeyValue=02120004A00"},"geometry":{"type":"Polygon","coordinates":[[[-81.52314,32.450172],[-81.523945,32.450224],[-81.523267,32.448696],[-81.523874,32.448008],[-81.524255,32.447952],[-81.524689,32.448315],[-81.525258,32.448644],[-81.525519,32.448658],[-81.525739,32.448442],[-81.526097,32.447101],[-81.526829,32.445106],[-81.528107,32.444068],[-81.515178,32.445484],[-81.514848,32.44796],[-81.514503,32.449792],[-81.516667,32.449858],[-81.52314,32.450172]]]}},{"type":"Feature","id":"13103:02110001","properties":{"id":"13103:02110001","parcelId":"02110001","countyFips":"13103","countyName":"Effingham","state":"Georgia","marketIds":["Savannah"],"situsAddress":"7095 OLD LOUISVILLE RD","situsCity":null,"situsZip":null,"jurisdictionCode":null,"ownerName":"WATERS MELISSA HALL","ownerName2":null,"propertyName":null,"zoningCode":"AR-1","zoningDistrict":null,"jurisdictionPrefix":"EFFINGHAM","dorCode":"V","acreage":104.77,"centroid":[-81.507037,32.46543],"lastSale":{"date":"1997-06-16","price":null,"qualified":null},"tax":{"marketValue":225548.0,"assessedValue":null,"taxableValue":null,"taxes":1555.83},"mailingAddress":{"line1":null,"line2":"7077 OLD LOUISVILLE RD","city":"GUYTON","state":"GA","zip":"31312"},"incomeTract":null,"incomeBlockGroup":null,"nearestRoad":null,"flu":{"code":"Agriculture","label":"Agriculture","jurisdiction":"EFFINGHAM","source":"flum-20240903"},"opportunityZone":null,"oz2Eligibility":null,"source":"ga-effingham-parcels-2024","appraiserUrl":"https://qpublic.schneidercorp.com/Application.aspx?AppID=666&LayerID=11348&PageTypeID=4&PageID=4716&KeyValue=02110001"},"geometry":{"type":"Polygon","coordinates":[[[-81.509651,32.463967],[-81.499031,32.463153],[-81.499668,32.466407],[-81.509329,32.468149],[-81.509492,32.467392],[-81.509729,32.465857],[-81.509869,32.464281],[-81.509524,32.464233],[-81.509651,32.463967]],[[-81.503932,32.465297],[-81.504283,32.464331],[-81.506171,32.464664],[-81.505835,32.465588],[-81.503932,32.465297]]]}},{"type":"Feature","id":"13103:02110004","properties":{"id":"13103:02110004","parcelId":"02110004","countyFips":"13103","countyName":"Effingham","state":"Georgia","marketIds":["Savannah"],"situsAddress":"0 OLD LOUISVILLE RD","situsCity":null,"situsZip":null,"jurisdictionCode":null,"ownerName":"RAYONIER FOREST RESOURCES LP","ownerName2":null,"propertyName":null,"zoningCode":"AR-1","zoningDistrict":null,"jurisdictionPrefix":"EFFINGHAM","dorCode":"J","acreage":103.02,"centroid":[-81.507215,32.46195],"lastSale":{"date":"2019-05-31","price":16282900.0,"qualified":null},"tax":{"marketValue":175827.0,"assessedValue":null,"taxableValue":null,"taxes":588.99},"mailingAddress":{"line1":"RAYONIER TAX SERVICES","line2":"1 RAYONIER WAY","city":"WILDLIGHT","state":"FL","zip":"32097"},"incomeTract":null,"incomeBlockGroup":null,"nearestRoad":null,"flu":{"code":"Agriculture","label":"Agriculture","jurisdiction":"EFFINGHAM","source":"flum-20240903"},"opportunityZone":null,"oz2Eligibility":null,"source":"ga-effingham-parcels-2024","appraiserUrl":"https://qpublic.schneidercorp.com/Application.aspx?AppID=666&LayerID=11348&PageTypeID=4&PageID=4716&KeyValue=02110004"},"geometry":{"type":"Polygon","coordinates":[[[-81.499031,32.463153],[-81.509651,32.463967],[-81.509925,32.463991],[-81.510182,32.463351],[-81.509714,32.463212],[-81.510166,32.462259],[-81.510652,32.462418],[-81.512073,32.459657],[-81.51228,32.459063],[-81.501983,32.459047],[-81.501854,32.461661],[-81.499069,32.461616],[-81.499031,32.463153]]]}},{"type":"Feature","id":"13103:02110005","properties":{"id":"13103:02110005","parcelId":"02110005","countyFips":"13103","countyName":"Effingham","state":"Georgia","marketIds":["Savannah"],"situsAddress":"0 OLD LOUISVILLE RD","situsCity":null,"situsZip":null,"jurisdictionCode":null,"ownerName":"MCDONALD WADE E","ownerName2":null,"propertyName":null,"zoningCode":"AR-1","zoningDistrict":null,"jurisdictionPrefix":"EFFINGHAM","dorCode":"V","acreage":100.0,"centroid":[-81.510357,32.453218],"lastSale":{"date":"2014-06-25","price":257000.0,"qualified":null},"tax":{"marketValue":167623.0,"assessedValue":null,"taxableValue":null,"taxes":594.72},"mailingAddress":{"line1":"797 OLD LOUISVILLE RD","line2":null,"city":"GUYTON","state":"GA","zip":"31312"},"incomeTract":null,"incomeBlockGroup":null,"nearestRoad":null,"flu":{"code":"Agriculture","label":"Agriculture","jurisdiction":"EFFINGHAM","source":"flum-20240903"},"opportunityZone":null,"oz2Eligibility":null,"source":"ga-effingham-parcels-2024","appraiserUrl":"https://qpublic.schneidercorp.com/Application.aspx?AppID=666&LayerID=11348&PageTypeID=4&PageID=4716&KeyValue=02110005"},"geometry":{"type":"Polygon","coordinates":[[[-81.505373,32.449862],[-81.505953,32.453863],[-81.51011,32.454077],[-81.510072,32.454818],[-81.513119,32.455772],[-81.513436,32.454473],[-81.514433,32.449664],[-81.505373,32.449862]]]}},{"type":"Feature","id":"13103:02090001D00","properties":{"id":"13103:02090001D00","parcelId":"02090001D00","countyFips":"13103","countyName":"Effingham","state":"Georgia","marketIds":["Savannah"],"situsAddress":"0 HWY 17","situsCity":null,"situsZip":null,"jurisdictionCode":null,"ownerName":"SNOOKS JOSEPH STEVEN","ownerName2":null,"propertyName":null,"zoningCode":"AR-1","zoningDistrict":null,"jurisdictionPrefix":"EFFINGHAM","dorCode":"V","acreage":99.99,"centroid":[-81.511604,32.499579],"lastSale":{"date":"2025-01-15","price":null,"qualified":null},"tax":{"marketValue":null,"assessedValue":null,"taxableValue":null,"taxes":764.2},"mailingAddress":{"line1":"185 GARDEN LN","line2":null,"city":"SPRINGFIELD","state":"GA","zip":"31329"},"incomeTract":null,"incomeBlockGroup":null,"nearestRoad":null,"flu":null,"opportunityZone":null,"oz2Eligibility":null,"source":"ga-effingham-parcels-2024","appraiserUrl":"https://qpublic.schneidercorp.com/Application.aspx?AppID=666&LayerID=11348&PageTypeID=4&PageID=4716&KeyValue=02090001D00"},"geometry":{"type":"Polygon","coordinates":[[[-81.516821,32.500899],[-81.516095,32.499944],[-81.515794,32.500287],[-81.515477,32.50045],[-81.515113,32.500316],[-81.514935,32.500075],[-81.514716,32.49991],[-81.514628,32.499805],[-81.514316,32.49974],[-81.514002,32.499521],[-81.513844,32.499477],[-81.513825,32.499348],[-81.513617,32.499261],[-81.51342,32.499063],[-81.512662,32.499082],[-81.512371,32.498782],[-81.512234,32.498815],[-81.511949,32.498585],[-81.512002,32.498458],[-81.51153,32.498339],[-81.511199,32.498166],[-81.511104,32.49794],[-81.510868,32.497772],[-81.50859,32.49943],[-81.506,32.49684],[-81.504337,32.498349],[-81.505217,32.498887],[-81.50612,32.499097],[-81.506648,32.499526],[-81.506543,32.499865],[-81.50708,32.500397],[-81.506292,32.500993],[-81.509559,32.503841],[-81.513242,32.502994],[-81.513976,32.500998],[-81.516821,32.500899]]]}},{"type":"Feature","id":"13103:02150005","properties":{"id":"13103:02150005","parcelId":"02150005","countyFips":"13103","countyName":"Effingham","state":"Georgia","marketIds":["Savannah"],"situsAddress":"0 RIVERSIDE DR","situsCity":null,"situsZip":null,"jurisdictionCode":null,"ownerName":"SEILER CHARLES WILKINS","ownerName2":null,"propertyName":null,"zoningCode":"AR-1","zoningDistrict":null,"jurisdictionPrefix":"EFFINGHAM","dorCode":"V","acreage":91.0,"centroid":[-81.509469,32.378864],"lastSale":{"date":"2002-01-15","price":null,"qualified":null},"tax":{"marketValue":105568.0,"assessedValue":null,"taxableValue":null,"taxes":630.25},"mailingAddress":{"line1":null,"line2":"510 E VICTORY DR","city":"SAVANNAH","state":"GA","zip":"31405"},"incomeTract":null,"incomeBlockGroup":null,"nearestRoad":null,"flu":{"code":"Agriculture","label":"Agriculture","jurisdiction":"EFFINGHAM","source":"flum-20240903"},"opportunityZone":null,"oz2Eligibility":null,"source":"ga-effingham-parcels-2024","appraiserUrl":"https://qpublic.schneidercorp.com/Application.aspx?AppID=666&LayerID=11348&PageTypeID=4&PageID=4716&KeyValue=02150005"},"geometry":{"type":"Polygon","coordinates":[[[-81.513861,32.373171],[-81.496836,32.390121],[-81.497756,32.391287],[-81.501577,32.387644],[-81.503689,32.385454],[-81.505337,32.383826],[-81.509735,32.37935],[-81.511807,32.377278],[-81.51394,32.375437],[-81.51364,32.374826],[-81.513662,32.374804],[-81.513665,32.374399],[-81.513764,32.37399],[-81.514069,32.373828],[-81.514113,32.373453],[-81.514056,32.372959],[-81.513861,32.373171]]]}},{"type":"Feature","id":"13103:02110006","properties":{"id":"13103:02110006","parcelId":"02110006","countyFips":"13103","countyName":"Effingham","state":"Georgia","marketIds":["Savannah"],"situsAddress":"0 SHEARWOOD RD","situsCity":null,"situsZip":null,"jurisdictionCode":null,"ownerName":"MCDONALD WADE E","ownerName2":null,"propertyName":null,"zoningCode":"AR-1","zoningDistrict":null,"jurisdictionPrefix":"EFFINGHAM","dorCode":"V","acreage":85.42,"centroid":[-81.508965,32.447971],"lastSale":{"date":"2014-06-26","price":200000.0,"qualified":null},"tax":{"marketValue":167988.0,"assessedValue":null,"taxableValue":null,"taxes":659.2},"mailingAddress":{"line1":"797 OLD LOUISVILLE RD","line2":null,"city":"GUYTON","state":"GA","zip":"31312"},"incomeTract":null,"incomeBlockGroup":null,"nearestRoad":null,"flu":{"code":"Agriculture","label":"Agriculture","jurisdiction":"EFFINGHAM","source":"flum-20240903"},"opportunityZone":null,"oz2Eligibility":null,"source":"ga-effingham-parcels-2024","appraiserUrl":"https://qpublic.schneidercorp.com/Application.aspx?AppID=666&LayerID=11348&PageTypeID=4&PageID=4716&KeyValue=02110006"},"geometry":{"type":"Polygon","coordinates":[[[-81.504943,32.446684],[-81.505362,32.449791],[-81.505373,32.449862],[-81.514433,32.449664],[-81.515052,32.445563],[-81.508628,32.44626],[-81.504943,32.446684]]]}},{"type":"Feature","id":"13103:02220001","properties":{"id":"13103:02220001","parcelId":"02220001","countyFips":"13103","countyName":"Effingham","state":"Georgia","marketIds":["Savannah"],"situsAddress":"0 SHEARWOOD RD","situsCity":null,"situsZip":null,"jurisdictionCode":null,"ownerName":"PATRICK ROYDON AND LEONARD","ownerName2":null,"propertyName":null,"zoningCode":"AR-1","zoningDistrict":null,"jurisdictionPrefix":"EFFINGHAM","dorCode":"V","acreage":43.6,"centroid":[-81.501948,32.438999],"lastSale":{"date":"2026-07-31","price":null,"qualified":null},"tax":{"marketValue":84778.0,"assessedValue":null,"taxableValue":null,"taxes":228.84},"mailingAddress":{"line1":"212 CHERRY ST","line2":null,"city":"BLOOMINGDALE","state":"GA","zip":"31302"},"incomeTract":null,"incomeBlockGroup":null,"nearestRoad":null,"flu":{"code":"Agriculture","label":"Agriculture","jurisdiction":"EFFINGHAM","source":"flum-20240903"},"opportunityZone":null,"oz2Eligibility":null,"source":"ga-effingham-parcels-2024","appraiserUrl":"https://qpublic.schneidercorp.com/Application.aspx?AppID=666&LayerID=11348&PageTypeID=4&PageID=4716&KeyValue=02220001"},"geometry":{"type":"Polygon","coordinates":[[[-81.499438,32.440266],[-81.502223,32.439759],[-81.504432,32.441751],[-81.506275,32.441319],[-81.500003,32.436248],[-81.497621,32.440514],[-81.499438,32.440266]]]}},{"type":"Feature","id":"13103:02220002","properties":{"id":"13103:02220002","parcelId":"02220002","countyFips":"13103","countyName":"Effingham","state":"Georgia","marketIds":["Savannah"],"situsAddress":"0 SHEARWOOD RD","situsCity":null,"situsZip":null,"jurisdictionCode":null,"ownerName":"RAYONIER FOREST RESOURCES LP","ownerName2":null,"propertyName":null,"zoningCode":"AR-1","zoningDistrict":null,"jurisdictionPrefix":"EFFINGHAM","dorCode":"J","acreage":36.48,"centroid":[-81.500287,32.441433],"lastSale":{"date":"2019-05-31","price":16282900.0,"qualified":null},"tax":{"marketValue":90871.0,"assessedValue":null,"taxableValue":null,"taxes":295.86},"mailingAddress":{"line1":"RAYONIER TAX SERVICES","line2":"1 RAYONIER WAY","city":"WILDLIGHT","state":"FL","zip":"32097"},"incomeTract":null,"incomeBlockGroup":null,"nearestRoad":null,"flu":{"code":"Agriculture","label":"Agriculture","jurisdiction":"EFFINGHAM","source":"flum-20240903"},"opportunityZone":null,"oz2Eligibility":null,"source":"ga-effingham-parcels-2024","appraiserUrl":"https://qpublic.schneidercorp.com/Application.aspx?AppID=666&LayerID=11348&PageTypeID=4&PageID=4716&KeyValue=02220002"},"geometry":{"type":"Polygon","coordinates":[[[-81.499438,32.440266],[-81.498232,32.441923],[-81.497109,32.443467],[-81.504432,32.441751],[-81.502223,32.439759],[-81.499438,32.440266]]]}},{"type":"Feature","id":"13103:02150003","properties":{"id":"13103:02150003","parcelId":"02150003","countyFips":"13103","countyName":"Effingham","state":"Georgia","marketIds":["Savannah"],"situsAddress":"0 RIVERSIDE DR","situsCity":null,"situsZip":null,"jurisdictionCode":null,"ownerName":"WILKINS CHARLES JAMES III","ownerName2":null,"propertyName":null,"zoningCode":"AR-1","zoningDistrict":null,"jurisdictionPrefix":"EFFINGHAM","dorCode":"V","acreage":26.79,"centroid":[-81.506369,32.372507],"lastSale":{"date":"2020-06-30","price":null,"qualified":null},"tax":{"marketValue":44492.0,"assessedValue":null,"taxableValue":null,"taxes":155.84},"mailingAddress":{"line1":"733 ZIPPERER RD","line2":null,"city":"GUYTON","state":"GA","zip":"31312"},"incomeTract":null,"incomeBlockGroup":null,"nearestRoad":null,"flu":{"code":"Agriculture","label":"Agriculture","jurisdiction":"EFFINGHAM","source":"flum-20240903"},"opportunityZone":null,"oz2Eligibility":null,"source":"ga-effingham-parcels-2024","appraiserUrl":"https://qpublic.schneidercorp.com/Application.aspx?AppID=666&LayerID=11348&PageTypeID=4&PageID=4716&KeyValue=02150003"},"geometry":{"type":"Polygon","coordinates":[[[-81.500857,32.377816],[-81.501807,32.378323],[-81.508283,32.371159],[-81.508241,32.371088],[-81.508268,32.370303],[-81.508529,32.369502],[-81.508595,32.369357],[-81.500857,32.377816]]]}},{"type":"Feature","id":"13103:02150001","properties":{"id":"13103:02150001","parcelId":"02150001","countyFips":"13103","countyName":"Effingham","state":"Georgia","marketIds":["Savannah"],"situsAddress":"0 RIVERSIDE DR","situsCity":null,"situsZip":null,"jurisdictionCode":null,"ownerName":"FRIEDMAN KELLY A AND ARDEN C DEREK","ownerName2":null,"propertyName":null,"zoningCode":"AR-1","zoningDistrict":null,"jurisdictionPrefix":"EFFINGHAM","dorCode":"V","acreage":26.0,"centroid":[-81.50769,32.374225],"lastSale":{"date":"2022-09-12","price":null,"qualified":null},"tax":{"marketValue":66089.0,"assessedValue":null,"taxableValue":null,"taxes":154.45},"mailingAddress":{"line1":"2920 CARDINAL DR","line2":null,"city":"VERO BEACH","state":"FL","zip":"32963"},"incomeTract":null,"incomeBlockGroup":null,"nearestRoad":null,"flu":{"code":"Agriculture","label":"Agriculture","jurisdiction":"EFFINGHAM","source":"flum-20240903"},"opportunityZone":null,"oz2Eligibility":null,"source":"ga-effingham-parcels-2024","appraiserUrl":"https://qpublic.schneidercorp.com/Application.aspx?AppID=666&LayerID=11348&PageTypeID=4&PageID=4716&KeyValue=02150001"},"geometry":{"type":"Polygon","coordinates":[[[-81.502848,32.378773],[-81.503492,32.379244],[-81.512066,32.370359],[-81.51184,32.370045],[-81.511628,32.369651],[-81.504264,32.377276],[-81.502848,32.378773]]]}},{"type":"Feature","id":"13103:02120001","properties":{"id":"13103:02120001","parcelId":"02120001","countyFips":"13103","countyName":"Effingham","state":"Georgia","marketIds":["Savannah"],"situsAddress":"6221 OLD LOUISVILLE RD","situsCity":null,"situsZip":null,"jurisdictionCode":null,"ownerName":"MCKENZIE JOE H","ownerName2":null,"propertyName":null,"zoningCode":"AR-1","zoningDistrict":null,"jurisdictionPrefix":"EFFINGHAM","dorCode":"V","acreage":22.4,"centroid":[-81.511176,32.445202],"lastSale":{"date":"2014-04-09","price":240000.0,"qualified":null},"tax":{"marketValue":247650.0,"assessedValue":null,"taxableValue":null,"taxes":3852.56},"mailingAddress":{"line1":"425 BURKHALTER ROAD","line2":null,"city":"SAVANNAH","state":"GA","zip":"31406"},"incomeTract":null,"incomeBlockGroup":null,"nearestRoad":null,"flu":{"code":"Agriculture","label":"Agriculture","jurisdiction":"EFFINGHAM","source":"flum-20240903"},"opportunityZone":null,"oz2Eligibility":null,"source":"ga-effingham-parcels-2024","appraiserUrl":"https://qpublic.schneidercorp.com/Application.aspx?AppID=666&LayerID=11348&PageTypeID=4&PageID=4716&KeyValue=02120001"},"geometry":{"type":"Polygon","coordinates":[[[-81.504971,32.446603],[-81.504934,32.446617],[-81.515093,32.445466],[-81.51522,32.444647],[-81.515664,32.442675],[-81.504971,32.446603]]]}},{"type":"Feature","id":"13103:02150002","properties":{"id":"13103:02150002","parcelId":"02150002","countyFips":"13103","countyName":"Effingham","state":"Georgia","marketIds":["Savannah"],"situsAddress":"0 RIVERSIDE DR","situsCity":null,"situsZip":null,"jurisdictionCode":null,"ownerName":"LONG ROBERT CHARLES SR","ownerName2":null,"propertyName":null,"zoningCode":"AR-1","zoningDistrict":null,"jurisdictionPrefix":"EFFINGHAM","dorCode":"V","acreage":21.0,"centroid":[-81.508224,32.372323],"lastSale":{"date":"1999-10-22","price":null,"qualified":null},"tax":{"marketValue":67561.0,"assessedValue":null,"taxableValue":null,"taxes":913.67},"mailingAddress":{"line1":"735 BERANDS CIRCLE","line2":null,"city":"DOUGLASVILLE","state":"GA","zip":"30134"},"incomeTract":null,"incomeBlockGroup":null,"nearestRoad":null,"flu":{"code":"Agriculture","label":"Agriculture","jurisdiction":"EFFINGHAM","source":"flum-20240903"},"opportunityZone":null,"oz2Eligibility":null,"source":"ga-effingham-parcels-2024","appraiserUrl":"https://qpublic.schneidercorp.com/Application.aspx?AppID=666&LayerID=11348&PageTypeID=4&PageID=4716&KeyValue=02150002"},"geometry":{"type":"Polygon","coordinates":[[[-81.501807,32.378323],[-81.501953,32.378411],[-81.503422,32.376802],[-81.504264,32.377276],[-81.511628,32.369651],[-81.511444,32.369093],[-81.511146,32.369317],[-81.511135,32.369639],[-81.511006,32.370064],[-81.510777,32.370353],[-81.509848,32.370692],[-81.509442,32.371176],[-81.508801,32.371515],[-81.50841,32.371375],[-81.508283,32.371159],[-81.501807,32.378323]]]}},{"type":"Feature","id":"13103:02090005","properties":{"id":"13103:02090005","parcelId":"02090005","countyFips":"13103","countyName":"Effingham","state":"Georgia","marketIds":["Savannah"],"situsAddress":"0 OLD LOUISVILLE RD","situsCity":null,"situsZip":null,"jurisdictionCode":null,"ownerName":"ASH GERALD B JR","ownerName2":null,"propertyName":null,"zoningCode":"AR-1","zoningDistrict":null,"jurisdictionPrefix":"EFFINGHAM","dorCode":"V","acreage":20.5,"centroid":[-81.513441,32.499005],"lastSale":{"date":"2022-11-01","price":null,"qualified":null},"tax":{"marketValue":73999.0,"assessedValue":null,"taxableValue":null,"taxes":300.32},"mailingAddress":{"line1":"8285 OLD LOUISVILLE RD","line2":null,"city":"NEWINGTON","state":"GA","zip":"30446"},"incomeTract":null,"incomeBlockGroup":null,"nearestRoad":null,"flu":{"code":"Agriculture","label":"Agriculture","jurisdiction":"EFFINGHAM","source":"flum-20240903"},"opportunityZone":null,"oz2Eligibility":null,"source":"ga-effingham-parcels-2024","appraiserUrl":"https://qpublic.schneidercorp.com/Application.aspx?AppID=666&LayerID=11348&PageTypeID=4&PageID=4716&KeyValue=02090005"},"geometry":{"type":"Polygon","coordinates":[[[-81.513169,32.496099],[-81.510868,32.497772],[-81.511104,32.49794],[-81.511199,32.498166],[-81.51153,32.498339],[-81.512002,32.498458],[-81.511949,32.498585],[-81.512234,32.498815],[-81.512371,32.498782],[-81.512662,32.499082],[-81.51342,32.499063],[-81.513617,32.499261],[-81.513825,32.499348],[-81.513844,32.499477],[-81.514002,32.499521],[-81.514316,32.49974],[-81.514628,32.499805],[-81.514716,32.49991],[-81.514935,32.500075],[-81.515113,32.500316],[-81.515477,32.50045],[-81.515794,32.500287],[-81.516095,32.499944],[-81.513715,32.496879],[-81.513169,32.496099]]]}},{"type":"Feature","id":"13103:02100002","properties":{"id":"13103:02100002","parcelId":"02100002","countyFips":"13103","countyName":"Effingham","state":"Georgia","marketIds":["Savannah"],"situsAddress":"7499 OLD LOUISVILLE RD","situsCity":null,"situsZip":null,"jurisdictionCode":null,"ownerName":"NEWTON WILLIAM J AND DEBRA J","ownerName2":null,"propertyName":null,"zoningCode":"AR-1","zoningDistrict":null,"jurisdictionPrefix":"EFFINGHAM","dorCode":"V","acreage":20.0,"centroid":[-81.509389,32.478879],"lastSale":{"date":"1999-12-10","price":95000.0,"qualified":null},"tax":{"marketValue":123694.0,"assessedValue":null,"taxableValue":null,"taxes":560.0},"mailingAddress":{"line1":null,"line2":"7499 OLD LOUISVILLE RD","city":"GUYTON","state":"GA","zip":"31312"},"incomeTract":null,"incomeBlockGroup":null,"nearestRoad":null,"flu":{"code":"Agriculture","label":"Agriculture","jurisdiction":"EFFINGHAM","source":"flum-20240903"},"opportunityZone":null,"oz2Eligibility":null,"source":"ga-effingham-parcels-2024","appraiserUrl":"https://qpublic.schneidercorp.com/Application.aspx?AppID=666&LayerID=11348&PageTypeID=4&PageID=4716&KeyValue=02100002"},"geometry":{"type":"Polygon","coordinates":[[[-81.507461,32.478861],[-81.507382,32.479359],[-81.507325,32.480371],[-81.507325,32.480999],[-81.512112,32.479027],[-81.512606,32.478174],[-81.511209,32.478016],[-81.510815,32.478129],[-81.510007,32.478178],[-81.50956,32.478327],[-81.509358,32.478492],[-81.50913,32.478612],[-81.508753,32.478751],[-81.508404,32.47901],[-81.507461,32.478861]]]}},{"type":"Feature","id":"13103:02230001PUG","properties":{"id":"13103:02230001PUG","parcelId":"02230001PUG","countyFips":"13103","countyName":"Effingham","state":"Georgia","marketIds":["Savannah"],"situsAddress":"0 OLD LOUISVILLE RD","situsCity":null,"situsZip":null,"jurisdictionCode":null,"ownerName":"SAVANNAH ELECTRIC AND POWER COMPANY","ownerName2":null,"propertyName":null,"zoningCode":"AR-1","zoningDistrict":null,"jurisdictionPrefix":"EFFINGHAM","dorCode":"U","acreage":15.67,"centroid":[-81.503313,32.411201],"lastSale":{"date":"1972-04-27","price":null,"qualified":null},"tax":{"marketValue":null,"assessedValue":null,"taxableValue":null,"taxes":1.88},"mailingAddress":{"line1":"3102 KILOWATT DR","line2":null,"city":"SAVANNAH","state":"GA","zip":"31405"},"incomeTract":null,"incomeBlockGroup":null,"nearestRoad":null,"flu":{"code":"Utilities","label":"Utilities","jurisdiction":"EFFINGHAM","source":"flum-20240903"},"opportunityZone":null,"oz2Eligibility":null,"source":"ga-effingham-parcels-2024","appraiserUrl":"https://qpublic.schneidercorp.com/Application.aspx?AppID=666&LayerID=11348&PageTypeID=4&PageID=4716&KeyValue=02230001PUG"},"geometry":{"type":"Polygon","coordinates":[[[-81.497938,32.411411],[-81.509044,32.411494],[-81.508638,32.410992],[-81.497631,32.410909],[-81.497938,32.411411]]]}},{"type":"Feature","id":"13103:02090004A00","properties":{"id":"13103:02090004A00","parcelId":"02090004A00","countyFips":"13103","countyName":"Effingham","state":"Georgia","marketIds":["Savannah"],"situsAddress":"8285 OLD LOUISVILLE RD","situsCity":null,"situsZip":null,"jurisdictionCode":null,"ownerName":"ASH GERALD B JR","ownerName2":null,"propertyName":null,"zoningCode":"AR-1","zoningDistrict":null,"jurisdictionPrefix":"EFFINGHAM","dorCode":"V","acreage":15.0,"centroid":[-81.516204,32.491732],"lastSale":{"date":"1993-11-05","price":null,"qualified":null},"tax":{"marketValue":181916.0,"assessedValue":null,"taxableValue":null,"taxes":2692.52},"mailingAddress":{"line1":"8285 OLD LOUISVILLE RD","line2":null,"city":"NEWINGTON","state":"GA","zip":"30446"},"incomeTract":null,"incomeBlockGroup":null,"nearestRoad":null,"flu":{"code":"Agriculture","label":"Agriculture","jurisdiction":"EFFINGHAM","source":"flum-20240903"},"opportunityZone":null,"oz2Eligibility":null,"source":"ga-effingham-parcels-2024","appraiserUrl":"https://qpublic.schneidercorp.com/Application.aspx?AppID=666&LayerID=11348&PageTypeID=4&PageID=4716&KeyValue=02090004A00"},"geometry":{"type":"Polygon","coordinates":[[[-81.514741,32.491104],[-81.516687,32.493927],[-81.517723,32.492277],[-81.515664,32.489618],[-81.514741,32.491104]]]}},{"type":"Feature","id":"13103:02120004","properties":{"id":"13103:02120004","parcelId":"02120004","countyFips":"13103","countyName":"Effingham","state":"Georgia","marketIds":["Savannah"],"situsAddress":"6228 OLD LOUISVILLE RD","situsCity":null,"situsZip":null,"jurisdictionCode":null,"ownerName":"MCKENZIE JOE H","ownerName2":null,"propertyName":null,"zoningCode":"AR-1","zoningDistrict":null,"jurisdictionPrefix":"EFFINGHAM","dorCode":"R","acreage":10.64,"centroid":[-81.524772,32.449048],"lastSale":{"date":"2010-12-17","price":272000.0,"qualified":null},"tax":{"marketValue":107712.0,"assessedValue":null,"taxableValue":null,"taxes":1080.26},"mailingAddress":{"line1":"425 BUCKHALTER ROAD","line2":null,"city":"SAVANNAH","state":"GA","zip":"31405"},"incomeTract":null,"incomeBlockGroup":null,"nearestRoad":null,"flu":{"code":"Agriculture","label":"Agriculture","jurisdiction":"EFFINGHAM","source":"flum-20240903"},"opportunityZone":null,"oz2Eligibility":null,"source":"ga-effingham-parcels-2024","appraiserUrl":"https://qpublic.schneidercorp.com/Application.aspx?AppID=666&LayerID=11348&PageTypeID=4&PageID=4716&KeyValue=02120004"},"geometry":{"type":"Polygon","coordinates":[[[-81.523945,32.450224],[-81.525267,32.450308],[-81.525684,32.450333],[-81.525591,32.449324],[-81.525895,32.448677],[-81.525258,32.448644],[-81.524689,32.448315],[-81.524255,32.447952],[-81.523874,32.448008],[-81.523267,32.448696],[-81.523945,32.450224]]]}},{"type":"Feature","id":"13103:02250001CUV","properties":{"id":"13103:02250001CUV","parcelId":"02250001CUV","countyFips":"13103","countyName":"Effingham","state":"Georgia","marketIds":["Savannah"],"situsAddress":"0 RIVERSIDE DR","situsCity":null,"situsZip":null,"jurisdictionCode":null,"ownerName":"WILKINS HENRY JOSEPH FAMILY TRUST TRUSTE","ownerName2":null,"propertyName":null,"zoningCode":"AR-1","zoningDistrict":null,"jurisdictionPrefix":"EFFINGHAM","dorCode":"V","acreage":5.22,"centroid":[-81.501087,32.380049],"lastSale":{"date":"2025-09-11","price":null,"qualified":null},"tax":{"marketValue":null,"assessedValue":null,"taxableValue":null,"taxes":37.74},"mailingAddress":{"line1":"SYKES SUSAN W AND WILKINS MARTIN LEE AND","line2":"BARRIE G","city":"GUYTON","state":"GA","zip":"31312"},"incomeTract":null,"incomeBlockGroup":null,"nearestRoad":null,"flu":null,"opportunityZone":null,"oz2Eligibility":null,"source":"ga-effingham-parcels-2024","appraiserUrl":"https://qpublic.schneidercorp.com/Application.aspx?AppID=666&LayerID=11348&PageTypeID=4&PageID=4716&KeyValue=02250001CUV"},"geometry":{"type":"MultiPolygon","coordinates":[[[[-81.495894,32.383389],[-81.495708,32.383749],[-81.495039,32.385161],[-81.494869,32.385487],[-81.494647,32.385791],[-81.494376,32.385997],[-81.493783,32.386325],[-81.496836,32.390121],[-81.513861,32.373171],[-81.514056,32.372959],[-81.51372,32.372141],[-81.513477,32.370912],[-81.512516,32.370576],[-81.512066,32.370359],[-81.503492,32.379244],[-81.502848,32.378773],[-81.504264,32.377276],[-81.503422,32.376802],[-81.501953,32.378411],[-81.501458,32.37908],[-81.500595,32.379389],[-81.499706,32.378916],[-81.49919,32.379706],[-81.500286,32.380523],[-81.499075,32.38168],[-81.498592,32.380793],[-81.498058,32.380787],[-81.497471,32.381348],[-81.498276,32.38111],[-81.49943,32.38305],[-81.497643,32.382383],[-81.497213,32.381613],[-81.496721,32.382122],[-81.496403,32.382517],[-81.495894,32.383389]]],[[[-81.49325,32.385681],[-81.493706,32.38624],[-81.494298,32.385908],[-81.494552,32.385711],[-81.494748,32.38543],[-81.495566,32.383704],[-81.496094,32.382727],[-81.49325,32.385681]]]]}},{"type":"Feature","id":"13103:02090006A00","properties":{"id":"13103:02090006A00","parcelId":"02090006A00","countyFips":"13103","countyName":"Effingham","state":"Georgia","marketIds":["Savannah"],"situsAddress":"8000 OLD LOUISVILLE RD","situsCity":null,"situsZip":null,"jurisdictionCode":null,"ownerName":"STOKES CATHRYN H","ownerName2":null,"propertyName":null,"zoningCode":"AR-1","zoningDistrict":null,"jurisdictionPrefix":"EFFINGHAM","dorCode":"R","acreage":5.0,"centroid":[-81.507697,32.494096],"lastSale":{"date":"2004-11-09","price":null,"qualified":null},"tax":{"marketValue":264311.0,"assessedValue":null,"taxableValue":null,"taxes":4866.72},"mailingAddress":{"line1":"8020 OLD LOUISVILLE RD","line2":null,"city":"NEWINGTON","state":"GA","zip":"30446"},"incomeTract":null,"incomeBlockGroup":null,"nearestRoad":null,"flu":{"code":"Agriculture","label":"Agriculture","jurisdiction":"EFFINGHAM","source":"flum-20240903"},"opportunityZone":null,"oz2Eligibility":null,"source":"ga-effingham-parcels-2024","appraiserUrl":"https://qpublic.schneidercorp.com/Application.aspx?AppID=666&LayerID=11348&PageTypeID=4&PageID=4716&KeyValue=02090006A00"},"geometry":{"type":"Polygon","coordinates":[[[-81.506408,32.493949],[-81.506796,32.494746],[-81.509013,32.494236],[-81.508571,32.493451],[-81.506408,32.493949]]]}},{"type":"Feature","id":"13103:02110002","properties":{"id":"13103:02110002","parcelId":"02110002","countyFips":"13103","countyName":"Effingham","state":"Georgia","marketIds":["Savannah"],"situsAddress":"7077 OLD LOUISVILLE RD","situsCity":null,"situsZip":null,"jurisdictionCode":null,"ownerName":"WATERS MELISSA HALL","ownerName2":null,"propertyName":null,"zoningCode":"AR-1","zoningDistrict":null,"jurisdictionPrefix":"EFFINGHAM","dorCode":"R","acreage":5.0,"centroid":[-81.505055,32.46497],"lastSale":{"date":"2008-02-13","price":null,"qualified":null},"tax":{"marketValue":242783.0,"assessedValue":null,"taxableValue":null,"taxes":4154.31},"mailingAddress":{"line1":null,"line2":"7077 OLD LOUISVILLE RD","city":"GUYTON","state":"GA","zip":"31312"},"incomeTract":null,"incomeBlockGroup":null,"nearestRoad":null,"flu":{"code":"Agriculture","label":"Agriculture","jurisdiction":"EFFINGHAM","source":"flum-20240903"},"opportunityZone":null,"oz2Eligibility":null,"source":"ga-effingham-parcels-2024","appraiserUrl":"https://qpublic.schneidercorp.com/Application.aspx?AppID=666&LayerID=11348&PageTypeID=4&PageID=4716&KeyValue=02110002"},"geometry":{"type":"Polygon","coordinates":[[[-81.504283,32.464331],[-81.503932,32.465297],[-81.505835,32.465588],[-81.506171,32.464664],[-81.504283,32.464331]]]}},{"type":"Feature","id":"13103:02230001H00","properties":{"id":"13103:02230001H00","parcelId":"02230001H00","countyFips":"13103","countyName":"Effingham","state":"Georgia","marketIds":["Savannah"],"situsAddress":"0 OLD LOUISVILLE RD","situsCity":null,"situsZip":null,"jurisdictionCode":null,"ownerName":"PINE CREEK MANAGEMENT LLC","ownerName2":null,"propertyName":null,"zoningCode":"AR-1","zoningDistrict":null,"jurisdictionPrefix":"EFFINGHAM","dorCode":"R","acreage":5.0,"centroid":[-81.500687,32.409558],"lastSale":{"date":"2010-12-15","price":null,"qualified":null},"tax":{"marketValue":36062.0,"assessedValue":null,"taxableValue":null,"taxes":316.87},"mailingAddress":{"line1":"4919 AUGUSTA RD","line2":null,"city":"GARDEN CITY","state":"GA","zip":"31408"},"incomeTract":null,"incomeBlockGroup":null,"nearestRoad":null,"flu":{"code":"Agriculture","label":"Agriculture","jurisdiction":"EFFINGHAM","source":"flum-20240903"},"opportunityZone":null,"oz2Eligibility":null,"source":"ga-effingham-parcels-2024","appraiserUrl":"https://qpublic.schneidercorp.com/Application.aspx?AppID=666&LayerID=11348&PageTypeID=4&PageID=4716&KeyValue=02230001H00"},"geometry":{"type":"Polygon","coordinates":[[[-81.499579,32.409416],[-81.499741,32.409717],[-81.500087,32.410362],[-81.501701,32.409714],[-81.501587,32.409433],[-81.501426,32.408704],[-81.499579,32.409416]]]}},{"type":"Feature","id":"13103:02130002A00","properties":{"id":"13103:02130002A00","parcelId":"02130002A00","countyFips":"13103","countyName":"Effingham","state":"Georgia","marketIds":["Savannah"],"situsAddress":"0 OLD LOUISVILLE RD","situsCity":null,"situsZip":null,"jurisdictionCode":null,"ownerName":"PINE CREEK  MANAGEMENT LLC","ownerName2":null,"propertyName":null,"zoningCode":"AR-1","zoningDistrict":null,"jurisdictionPrefix":"EFFINGHAM","dorCode":"R","acreage":5.0,"centroid":[-81.504105,32.416663],"lastSale":{"date":"2010-11-29","price":null,"qualified":null},"tax":{"marketValue":27096.0,"assessedValue":null,"taxableValue":null,"taxes":316.87},"mailingAddress":{"line1":"4919 AUGUSTA ROAD","line2":null,"city":"GARDEN CITY","state":null,"zip":"31408"},"incomeTract":null,"incomeBlockGroup":null,"nearestRoad":null,"flu":{"code":"Agriculture","label":"Agriculture","jurisdiction":"EFFINGHAM","source":"flum-20240903"},"opportunityZone":null,"oz2Eligibility":null,"source":"ga-effingham-parcels-2024","appraiserUrl":"https://qpublic.schneidercorp.com/Application.aspx?AppID=666&LayerID=11348&PageTypeID=4&PageID=4716&KeyValue=02130002A00"},"geometry":{"type":"Polygon","coordinates":[[[-81.503159,32.416125],[-81.50399,32.417624],[-81.505051,32.417201],[-81.504221,32.415702],[-81.503159,32.416125]]]}},{"type":"Feature","id":"13103:02130002B00","properties":{"id":"13103:02130002B00","parcelId":"02130002B00","countyFips":"13103","countyName":"Effingham","state":"Georgia","marketIds":["Savannah"],"situsAddress":"0 OLD LOUISVILLE RD","situsCity":null,"situsZip":null,"jurisdictionCode":null,"ownerName":"PINE CREEK  MANAGEMENT LLC","ownerName2":null,"propertyName":null,"zoningCode":"AR-1","zoningDistrict":null,"jurisdictionPrefix":"EFFINGHAM","dorCode":"R","acreage":5.0,"centroid":[-81.502835,32.413128],"lastSale":{"date":"2010-11-29","price":null,"qualified":null},"tax":{"marketValue":27096.0,"assessedValue":null,"taxableValue":null,"taxes":316.87},"mailingAddress":{"line1":"4919 AUGUSTA ROAD","line2":null,"city":"GARDEN CITY","state":null,"zip":"31408"},"incomeTract":null,"incomeBlockGroup":null,"nearestRoad":null,"flu":{"code":"Agriculture","label":"Agriculture","jurisdiction":"EFFINGHAM","source":"flum-20240903"},"opportunityZone":null,"oz2Eligibility":null,"source":"ga-effingham-parcels-2024","appraiserUrl":"https://qpublic.schneidercorp.com/Application.aspx?AppID=666&LayerID=11348&PageTypeID=4&PageID=4716&KeyValue=02130002B00"},"geometry":{"type":"Polygon","coordinates":[[[-81.501872,32.412946],[-81.502158,32.41347],[-81.502373,32.413846],[-81.504136,32.413139],[-81.503635,32.412239],[-81.501872,32.412946]]]}},{"type":"Feature","id":"13103:02250007","properties":{"id":"13103:02250007","parcelId":"02250007","countyFips":"13103","countyName":"Effingham","state":"Georgia","marketIds":["Savannah"],"situsAddress":"3375 RIVERSIDE DR","situsCity":null,"situsZip":null,"jurisdictionCode":null,"ownerName":"LONG ROBERT CHARLES SR","ownerName2":null,"propertyName":null,"zoningCode":"AR-1","zoningDistrict":null,"jurisdictionPrefix":"EFFINGHAM","dorCode":"R","acreage":5.0,"centroid":[-81.501063,32.378656],"lastSale":{"date":"1999-10-22","price":null,"qualified":null},"tax":{"marketValue":37150.0,"assessedValue":null,"taxableValue":null,"taxes":1203.49},"mailingAddress":{"line1":"735 BERANDS CIRCLE","line2":null,"city":"DOUGLASVILLE","state":"GA","zip":"30134"},"incomeTract":null,"incomeBlockGroup":null,"nearestRoad":null,"flu":{"code":"Agriculture","label":"Agriculture","jurisdiction":"EFFINGHAM","source":"flum-20240903"},"opportunityZone":null,"oz2Eligibility":null,"source":"ga-effingham-parcels-2024","appraiserUrl":"https://qpublic.schneidercorp.com/Application.aspx?AppID=666&LayerID=11348&PageTypeID=4&PageID=4716&KeyValue=02250007"},"geometry":{"type":"Polygon","coordinates":[[[-81.501807,32.378323],[-81.500857,32.377816],[-81.499706,32.378916],[-81.500595,32.379389],[-81.501458,32.37908],[-81.501953,32.378411],[-81.501807,32.378323]]]}}]}