{"type":"FeatureCollection","name":"47131--25_38","features":[{"type":"Feature","id":"47131:066013    00100","properties":{"id":"47131:066013    00100","parcelId":"066013    00100","countyFips":"47131","countyName":"Obion","state":"Tennessee","marketIds":["Memphis"],"situsAddress":"WALTER WHIPPLE RD 5919","situsCity":null,"situsZip":null,"jurisdictionCode":null,"ownerName":"WHIPPLE BEVERLY ANN IRREVOCABLE TRUST","ownerName2":null,"propertyName":null,"zoningCode":null,"zoningDistrict":null,"jurisdictionPrefix":null,"dorCode":null,"acreage":144.4717,"centroid":[-89.185399,36.50172],"lastSale":{"date":"2021-10-13","price":null,"qualified":null,"vintage":"2023"},"tax":{"marketValue":285300.0,"assessedValue":null,"taxableValue":null,"taxes":null,"vintage":"2023"},"mailingAddress":{"line1":null,"line2":null,"city":null,"state":null,"zip":null},"incomeTract":null,"incomeBlockGroup":null,"nearestRoad":null,"flu":null,"opportunityZone":null,"oz2Eligibility":null,"source":"tn-oir-public-use-47131","appraiserUrl":"https://assessment.cot.tn.gov/TPAD/Parcel/GIS?gislink=066013%20%20%20%2000100"},"geometry":{"type":"Polygon","coordinates":[[[-89.185797,36.505104],[-89.1864,36.50511],[-89.18645,36.503944],[-89.186419,36.50371],[-89.18642,36.50355],[-89.186427,36.503362],[-89.186455,36.503164],[-89.186438,36.502805],[-89.186456,36.502625],[-89.186511,36.502413],[-89.186591,36.50217],[-89.186735,36.50188],[-89.186794,36.501752],[-89.186789,36.501664],[-89.186695,36.501404],[-89.186644,36.501231],[-89.186646,36.501055],[-89.18664,36.500815],[-89.186639,36.500578],[-89.186659,36.500424],[-89.186704,36.500243],[-89.186688,36.500121],[-89.186615,36.49997],[-89.186516,36.499833],[-89.186356,36.499628],[-89.186741,36.493882],[-89.181499,36.493495],[-89.181412,36.495077],[-89.18126,36.501396],[-89.181255,36.501832],[-89.181262,36.504108],[-89.181249,36.504414],[-89.181247,36.505054],[-89.184572,36.50509],[-89.184573,36.504501],[-89.185795,36.504507],[-89.185797,36.505104]]]}},{"type":"Feature","id":"47131:066012    00600","properties":{"id":"47131:066012    00600","parcelId":"066012    00600","countyFips":"47131","countyName":"Obion","state":"Tennessee","marketIds":["Memphis"],"situsAddress":"STATE LINE RD E 1535","situsCity":null,"situsZip":null,"jurisdictionCode":null,"ownerName":"HUTCHISON BILLY WALKER ETUX","ownerName2":"& DONALD W HUTCHISON ETUX","propertyName":null,"zoningCode":null,"zoningDistrict":null,"jurisdictionPrefix":null,"dorCode":null,"acreage":128.6623,"centroid":[-89.114273,36.502689],"lastSale":{"date":"2004-03-23","price":274000.0,"qualified":null,"vintage":"2023"},"tax":{"marketValue":267100.0,"assessedValue":null,"taxableValue":null,"taxes":null,"vintage":"2023"},"mailingAddress":{"line1":null,"line2":null,"city":null,"state":null,"zip":null},"incomeTract":null,"incomeBlockGroup":null,"nearestRoad":null,"flu":null,"opportunityZone":null,"oz2Eligibility":null,"source":"tn-oir-public-use-47131","appraiserUrl":"https://assessment.cot.tn.gov/TPAD/Parcel/GIS?gislink=066012%20%20%20%2000600"},"geometry":{"type":"Polygon","coordinates":[[[-89.118458,36.503716],[-89.119305,36.503723],[-89.119699,36.503731],[-89.119671,36.503395],[-89.119631,36.503059],[-89.119576,36.502719],[-89.119509,36.502386],[-89.119429,36.502049],[-89.119336,36.50172],[-89.119232,36.501394],[-89.119114,36.50107],[-89.112288,36.501065],[-89.112309,36.50035],[-89.101779,36.500282],[-89.101667,36.503571],[-89.102666,36.503572],[-89.103797,36.503591],[-89.109483,36.503639],[-89.109547,36.503007],[-89.11102,36.503031],[-89.111013,36.503652],[-89.117783,36.50371],[-89.117784,36.503049],[-89.118453,36.503054],[-89.118458,36.503716]]]}},{"type":"Feature","id":"47131:066004    00100","properties":{"id":"47131:066004    00100","parcelId":"066004    00100","countyFips":"47131","countyName":"Obion","state":"Tennessee","marketIds":["Memphis"],"situsAddress":"BONE RD 6147","situsCity":null,"situsZip":null,"jurisdictionCode":null,"ownerName":"MORRIS JAMES A","ownerName2":"ETUX WILMA","propertyName":null,"zoningCode":null,"zoningDistrict":null,"jurisdictionPrefix":null,"dorCode":null,"acreage":106.5436,"centroid":[-89.237422,36.502013],"lastSale":{"date":"1966-01-01","price":10.0,"qualified":null,"vintage":"2023"},"tax":{"marketValue":103800.0,"assessedValue":null,"taxableValue":null,"taxes":null,"vintage":"2023"},"mailingAddress":{"line1":null,"line2":null,"city":null,"state":null,"zip":null},"incomeTract":null,"incomeBlockGroup":null,"nearestRoad":null,"flu":null,"opportunityZone":null,"oz2Eligibility":null,"source":"tn-oir-public-use-47131","appraiserUrl":"https://assessment.cot.tn.gov/TPAD/Parcel/GIS?gislink=066004%20%20%20%2000100"},"geometry":{"type":"Polygon","coordinates":[[[-89.237675,36.500016],[-89.237575,36.500448],[-89.23747,36.500766],[-89.237453,36.501224],[-89.237389,36.501407],[-89.237265,36.501554],[-89.236866,36.501899],[-89.236405,36.502188],[-89.235793,36.502547],[-89.235529,36.502726],[-89.235203,36.502849],[-89.234867,36.50303],[-89.234474,36.503147],[-89.233394,36.503746],[-89.23357,36.503929],[-89.233746,36.504122],[-89.233914,36.504319],[-89.23408,36.504526],[-89.234313,36.504837],[-89.234581,36.505206],[-89.235146,36.506012],[-89.239592,36.506007],[-89.241449,36.506042],[-89.241439,36.49808],[-89.236954,36.497992],[-89.237034,36.498042],[-89.237107,36.498098],[-89.237172,36.49816],[-89.237235,36.498234],[-89.237282,36.498303],[-89.237325,36.498377],[-89.237356,36.498444],[-89.237398,36.498553],[-89.237441,36.498631],[-89.237495,36.498705],[-89.237947,36.499376],[-89.237987,36.499427],[-89.238231,36.499685],[-89.238234,36.499711],[-89.238221,36.499735],[-89.238193,36.49975],[-89.23816,36.499751],[-89.238131,36.499739],[-89.238022,36.499641],[-89.238008,36.499638],[-89.237995,36.499642],[-89.237988,36.499657],[-89.238005,36.499737],[-89.237995,36.499798],[-89.237978,36.499858],[-89.237964,36.499891],[-89.237948,36.499909],[-89.237922,36.499923],[-89.237891,36.499927],[-89.237866,36.499923],[-89.237844,36.499914],[-89.237828,36.4999],[-89.237817,36.499882],[-89.237803,36.499722],[-89.237779,36.499595],[-89.237737,36.499463],[-89.237678,36.499333],[-89.237073,36.498336],[-89.237028,36.498276],[-89.236978,36.498229],[-89.236922,36.498189],[-89.236673,36.498054],[-89.236456,36.497993],[-89.236409,36.497984],[-89.236346,36.497984],[-89.236282,36.497997],[-89.236136,36.498001],[-89.236111,36.498178],[-89.236675,36.498402],[-89.236823,36.498541],[-89.23706,36.498554],[-89.237272,36.499111],[-89.237526,36.499553],[-89.237675,36.500016]]]}},{"type":"Feature","id":"47131:066011    00700","properties":{"id":"47131:066011    00700","parcelId":"066011    00700","countyFips":"47131","countyName":"Obion","state":"Tennessee","marketIds":["Memphis"],"situsAddress":"MT ZION RD 5778","situsCity":null,"situsZip":null,"jurisdictionCode":null,"ownerName":"SOWELL WILLIAM M","ownerName2":"ETUX VICTORIA","propertyName":null,"zoningCode":null,"zoningDistrict":null,"jurisdictionPrefix":null,"dorCode":null,"acreage":100.3422,"centroid":[-89.066984,36.500659],"lastSale":{"date":"2022-03-23","price":581700.0,"qualified":null,"vintage":"2023"},"tax":{"marketValue":325500.0,"assessedValue":null,"taxableValue":null,"taxes":null,"vintage":"2023"},"mailingAddress":{"line1":null,"line2":null,"city":null,"state":null,"zip":null},"incomeTract":null,"incomeBlockGroup":null,"nearestRoad":null,"flu":null,"opportunityZone":null,"oz2Eligibility":null,"source":"tn-oir-public-use-47131","appraiserUrl":"https://assessment.cot.tn.gov/TPAD/Parcel/GIS?gislink=066011%20%20%20%2000700"},"geometry":{"type":"Polygon","coordinates":[[[-89.065986,36.503043],[-89.071261,36.50309],[-89.072351,36.503105],[-89.072428,36.501377],[-89.071782,36.501363],[-89.071801,36.500951],[-89.072447,36.500965],[-89.07257,36.498212],[-89.061639,36.498297],[-89.061531,36.49971],[-89.061399,36.50097],[-89.061575,36.500979],[-89.061959,36.500809],[-89.062168,36.500786],[-89.062201,36.500757],[-89.062427,36.500681],[-89.062641,36.500546],[-89.06285,36.50051],[-89.063399,36.500312],[-89.063967,36.500294],[-89.064566,36.500528],[-89.064816,36.500456],[-89.065103,36.500445],[-89.065605,36.500314],[-89.065887,36.500209],[-89.065916,36.500297],[-89.066008,36.50032],[-89.065986,36.503043]]]}},{"type":"Feature","id":"47131:066012    00300","properties":{"id":"47131:066012    00300","parcelId":"066012    00300","countyFips":"47131","countyName":"Obion","state":"Tennessee","marketIds":["Memphis"],"situsAddress":"STATE LINE RD E 1059","situsCity":null,"situsZip":null,"jurisdictionCode":null,"ownerName":"GRAY LARRY O ETUX","ownerName2":"BRENDA","propertyName":null,"zoningCode":null,"zoningDistrict":null,"jurisdictionPrefix":null,"dorCode":null,"acreage":95.5013,"centroid":[-89.133291,36.502074],"lastSale":{"date":"1972-12-21","price":null,"qualified":null,"vintage":"2023"},"tax":{"marketValue":396700.0,"assessedValue":null,"taxableValue":null,"taxes":null,"vintage":"2023"},"mailingAddress":{"line1":null,"line2":null,"city":null,"state":null,"zip":null},"incomeTract":null,"incomeBlockGroup":null,"nearestRoad":null,"flu":null,"opportunityZone":null,"oz2Eligibility":null,"source":"tn-oir-public-use-47131","appraiserUrl":"https://assessment.cot.tn.gov/TPAD/Parcel/GIS?gislink=066012%20%20%20%2000300"},"geometry":{"type":"Polygon","coordinates":[[[-89.130402,36.503801],[-89.131491,36.503808],[-89.131952,36.503814],[-89.137636,36.503949],[-89.137804,36.498592],[-89.130458,36.498479],[-89.130402,36.503801]]]}},{"type":"Feature","id":"47131:066011    00200","properties":{"id":"47131:066011    00200","parcelId":"066011    00200","countyFips":"47131","countyName":"Obion","state":"Tennessee","marketIds":["Memphis"],"situsAddress":"STATE LINE RD","situsCity":null,"situsZip":null,"jurisdictionCode":null,"ownerName":"MCCOLLUM SAMUEL B JR","ownerName2":"ETUX PATRICIA L","propertyName":null,"zoningCode":null,"zoningDistrict":null,"jurisdictionPrefix":null,"dorCode":null,"acreage":95.2876,"centroid":[-89.087572,36.500647],"lastSale":{"date":"1996-09-12","price":78430.0,"qualified":null,"vintage":"2023"},"tax":{"marketValue":196000.0,"assessedValue":null,"taxableValue":null,"taxes":null,"vintage":"2023"},"mailingAddress":{"line1":null,"line2":null,"city":null,"state":null,"zip":null},"incomeTract":null,"incomeBlockGroup":null,"nearestRoad":null,"flu":null,"opportunityZone":null,"oz2Eligibility":null,"source":"tn-oir-public-use-47131","appraiserUrl":"https://assessment.cot.tn.gov/TPAD/Parcel/GIS?gislink=066011%20%20%20%2000200"},"geometry":{"type":"Polygon","coordinates":[[[-89.085127,36.5033],[-89.087391,36.50334],[-89.087766,36.503341],[-89.088478,36.503332],[-89.089266,36.503344],[-89.089545,36.493983],[-89.085428,36.493888],[-89.085127,36.5033]]]}},{"type":"Feature","id":"47131:066011    00500","properties":{"id":"47131:066011    00500","parcelId":"066011    00500","countyFips":"47131","countyName":"Obion","state":"Tennessee","marketIds":["Memphis"],"situsAddress":"STATE LINE RD E 2567&2605","situsCity":null,"situsZip":null,"jurisdictionCode":null,"ownerName":"BASICKER PAMELA G, SANDRA G WILLIAMS","ownerName2":"& RICHARD W MILLER","propertyName":null,"zoningCode":null,"zoningDistrict":null,"jurisdictionPrefix":null,"dorCode":null,"acreage":88.0856,"centroid":[-89.0829,36.501605],"lastSale":{"date":"1984-01-01","price":83686.0,"qualified":null,"vintage":"2023"},"tax":{"marketValue":158600.0,"assessedValue":null,"taxableValue":null,"taxes":null,"vintage":"2023"},"mailingAddress":{"line1":null,"line2":null,"city":null,"state":null,"zip":null},"incomeTract":null,"incomeBlockGroup":null,"nearestRoad":null,"flu":null,"opportunityZone":null,"oz2Eligibility":null,"source":"tn-oir-public-use-47131","appraiserUrl":"https://assessment.cot.tn.gov/TPAD/Parcel/GIS?gislink=066011%20%20%20%2000500"},"geometry":{"type":"Polygon","coordinates":[[[-89.082433,36.503251],[-89.082917,36.50326],[-89.082984,36.50257],[-89.083638,36.502606],[-89.08367,36.501838],[-89.084342,36.501846],[-89.08433,36.502042],[-89.085167,36.50207],[-89.085428,36.493888],[-89.081342,36.493792],[-89.081013,36.503245],[-89.081437,36.503264],[-89.081561,36.503264],[-89.081699,36.503257],[-89.081866,36.502742],[-89.08257,36.502738],[-89.082433,36.503251]]]}},{"type":"Feature","id":"47131:066014    00500","properties":{"id":"47131:066014    00500","parcelId":"066014    00500","countyFips":"47131","countyName":"Obion","state":"Tennessee","marketIds":["Memphis"],"situsAddress":"BONE RD","situsCity":null,"situsZip":null,"jurisdictionCode":null,"ownerName":"PARKER TONY ETUX MISTY","ownerName2":null,"propertyName":null,"zoningCode":null,"zoningDistrict":null,"jurisdictionPrefix":null,"dorCode":null,"acreage":79.4888,"centroid":[-89.223767,36.50273],"lastSale":{"date":"2000-08-24","price":null,"qualified":null,"vintage":"2023"},"tax":{"marketValue":87100.0,"assessedValue":null,"taxableValue":null,"taxes":null,"vintage":"2023"},"mailingAddress":{"line1":null,"line2":null,"city":null,"state":null,"zip":null},"incomeTract":null,"incomeBlockGroup":null,"nearestRoad":null,"flu":null,"opportunityZone":null,"oz2Eligibility":null,"source":"tn-oir-public-use-47131","appraiserUrl":"https://assessment.cot.tn.gov/TPAD/Parcel/GIS?gislink=066014%20%20%20%2000500"},"geometry":{"type":"Polygon","coordinates":[[[-89.217487,36.505837],[-89.22525,36.50593],[-89.225281,36.50306],[-89.225209,36.503041],[-89.225142,36.503016],[-89.225078,36.502987],[-89.225019,36.502954],[-89.224963,36.502916],[-89.224912,36.502875],[-89.224866,36.50283],[-89.224825,36.502782],[-89.224769,36.502694],[-89.22442,36.502017],[-89.224384,36.50194],[-89.224353,36.501861],[-89.223414,36.501772],[-89.22341,36.502053],[-89.223076,36.502058],[-89.222749,36.501861],[-89.222784,36.501647],[-89.217709,36.501206],[-89.217487,36.505837]]]}},{"type":"Feature","id":"47131:066012    00100","properties":{"id":"47131:066012    00100","parcelId":"066012    00100","countyFips":"47131","countyName":"Obion","state":"Tennessee","marketIds":["Memphis"],"situsAddress":"STATE LINE RD 839","situsCity":null,"situsZip":null,"jurisdictionCode":null,"ownerName":"MCCOLLUM SAMUEL B","ownerName2":"ETUX PATRICIA L","propertyName":null,"zoningCode":null,"zoningDistrict":null,"jurisdictionPrefix":null,"dorCode":null,"acreage":65.9289,"centroid":[-89.144103,36.500198],"lastSale":{"date":"2009-08-20","price":null,"qualified":null,"vintage":"2023"},"tax":{"marketValue":111900.0,"assessedValue":null,"taxableValue":null,"taxes":null,"vintage":"2023"},"mailingAddress":{"line1":null,"line2":null,"city":null,"state":null,"zip":null},"incomeTract":null,"incomeBlockGroup":null,"nearestRoad":null,"flu":null,"opportunityZone":null,"oz2Eligibility":null,"source":"tn-oir-public-use-47131","appraiserUrl":"https://assessment.cot.tn.gov/TPAD/Parcel/GIS?gislink=066012%20%20%20%2000100"},"geometry":{"type":"Polygon","coordinates":[[[-89.144219,36.504124],[-89.145682,36.504163],[-89.145803,36.499941],[-89.146503,36.499939],[-89.14658,36.49817],[-89.146516,36.498173],[-89.146453,36.498167],[-89.146407,36.498158],[-89.14631,36.498128],[-89.146226,36.498109],[-89.14613,36.498093],[-89.146043,36.498084],[-89.145945,36.498082],[-89.145858,36.498085],[-89.145771,36.498094],[-89.145576,36.498125],[-89.145485,36.498131],[-89.1454,36.498132],[-89.145299,36.498126],[-89.145202,36.498113],[-89.145117,36.498096],[-89.144993,36.498063],[-89.144911,36.49805],[-89.144805,36.498044],[-89.144699,36.498052],[-89.144602,36.498072],[-89.144515,36.4981],[-89.144432,36.498139],[-89.144358,36.498185],[-89.144309,36.498225],[-89.14426,36.498273],[-89.144209,36.498339],[-89.144147,36.498445],[-89.144114,36.498478],[-89.144072,36.498507],[-89.144023,36.49853],[-89.143972,36.498543],[-89.143813,36.498556],[-89.143783,36.498554],[-89.143755,36.498547],[-89.143729,36.498535],[-89.143708,36.49852],[-89.143684,36.498489],[-89.143667,36.498437],[-89.143649,36.498405],[-89.143622,36.498374],[-89.143585,36.498348],[-89.143547,36.498331],[-89.143505,36.49832],[-89.143395,36.498313],[-89.143371,36.498305],[-89.143349,36.498292],[-89.143326,36.498266],[-89.143315,36.498237],[-89.143317,36.498207],[-89.143331,36.498178],[-89.143465,36.498052],[-89.143642,36.497911],[-89.14367,36.497878],[-89.143689,36.497843],[-89.143701,36.497791],[-89.143695,36.497738],[-89.143673,36.497691],[-89.143624,36.497631],[-89.143616,36.497609],[-89.143615,36.497586],[-89.143628,36.49755],[-89.143679,36.497491],[-89.143713,36.497434],[-89.143732,36.497379],[-89.14374,36.497322],[-89.143934,36.497317],[-89.144397,36.497602],[-89.144428,36.497616],[-89.144461,36.497623],[-89.144491,36.497624],[-89.144541,36.497619],[-89.144577,36.497619],[-89.144616,36.497624],[-89.144685,36.497642],[-89.144733,36.497649],[-89.144792,36.497652],[-89.14485,36.497646],[-89.144916,36.497631],[-89.145032,36.497584],[-89.14513,36.497557],[-89.145159,36.497538],[-89.145178,36.497509],[-89.145181,36.497487],[-89.145177,36.497465],[-89.145167,36.497448],[-89.14513,36.497404],[-89.14512,36.497381],[-89.145117,36.497355],[-89.145231,36.496655],[-89.145231,36.496623],[-89.145224,36.496595],[-89.145211,36.496567],[-89.145193,36.496542],[-89.145155,36.496509],[-89.145108,36.496485],[-89.145055,36.496471],[-89.144999,36.496469],[-89.144954,36.496476],[-89.144912,36.496491],[-89.144882,36.496507],[-89.14481,36.496558],[-89.144772,36.496575],[-89.144732,36.496588],[-89.144684,36.496597],[-89.144634,36.4966],[-89.144588,36.496597],[-89.144539,36.496587],[-89.144474,36.496561],[-89.144415,36.496522],[-89.144176,36.496268],[-89.144153,36.496253],[-89.144126,36.496243],[-89.144098,36.496236],[-89.144068,36.496234],[-89.144028,36.496238],[-89.143993,36.49625],[-89.143792,36.496377],[-89.143724,36.496406],[-89.143655,36.496425],[-89.143589,36.496435],[-89.143528,36.496438],[-89.143028,36.49642],[-89.142982,36.496428],[-89.142938,36.496442],[-89.142898,36.496463],[-89.142866,36.496487],[-89.142835,36.496523],[-89.142813,36.496565],[-89.142635,36.497135],[-89.142565,36.497325],[-89.142159,36.498213],[-89.142123,36.498261],[-89.142075,36.498308],[-89.14202,36.498346],[-89.141962,36.498375],[-89.141895,36.498399],[-89.141828,36.498412],[-89.14176,36.498418],[-89.141687,36.498415],[-89.141626,36.501953],[-89.142682,36.501984],[-89.142681,36.504069],[-89.143275,36.504084],[-89.144219,36.504124]]]}},{"type":"Feature","id":"47131:066014    00104","properties":{"id":"47131:066014    00104","parcelId":"066014    00104","countyFips":"47131","countyName":"Obion","state":"Tennessee","marketIds":["Memphis"],"situsAddress":"BONE RD 6101","situsCity":null,"situsZip":null,"jurisdictionCode":null,"ownerName":"FLOOD DAVID","ownerName2":"ETUX CAROL","propertyName":null,"zoningCode":null,"zoningDistrict":null,"jurisdictionPrefix":null,"dorCode":null,"acreage":65.2332,"centroid":[-89.235226,36.500177],"lastSale":{"date":"2022-04-04","price":190000.0,"qualified":null,"vintage":"2023"},"tax":{"marketValue":66700.0,"assessedValue":null,"taxableValue":null,"taxes":null,"vintage":"2023"},"mailingAddress":{"line1":null,"line2":null,"city":null,"state":null,"zip":null},"incomeTract":null,"incomeBlockGroup":null,"nearestRoad":null,"flu":null,"opportunityZone":null,"oz2Eligibility":null,"source":"tn-oir-public-use-47131","appraiserUrl":"https://assessment.cot.tn.gov/TPAD/Parcel/GIS?gislink=066014%20%20%20%2000104"},"geometry":{"type":"MultiPolygon","coordinates":[[[[-89.232634,36.503065],[-89.232842,36.503236],[-89.233041,36.503411],[-89.233624,36.503295],[-89.234348,36.502964],[-89.234474,36.503147],[-89.234867,36.50303],[-89.235203,36.502849],[-89.235529,36.502726],[-89.235793,36.502547],[-89.236405,36.502188],[-89.236866,36.501899],[-89.237265,36.501554],[-89.237389,36.501407],[-89.237453,36.501224],[-89.23747,36.500766],[-89.237575,36.500448],[-89.237675,36.500016],[-89.237526,36.499553],[-89.237272,36.499111],[-89.23706,36.498554],[-89.236823,36.498541],[-89.236675,36.498402],[-89.236111,36.498178],[-89.236136,36.498001],[-89.235861,36.497919],[-89.235532,36.497746],[-89.23498,36.497376],[-89.234668,36.497113],[-89.233964,36.496971],[-89.233575,36.497015],[-89.23325,36.497012],[-89.232849,36.496969],[-89.23259,36.49688],[-89.232418,36.496876],[-89.232332,36.502084],[-89.23328,36.502474],[-89.232634,36.503065]]],[[[-89.232419,36.504068],[-89.232436,36.504508],[-89.232682,36.504366],[-89.233387,36.503872],[-89.233131,36.503618],[-89.232861,36.503373],[-89.232553,36.503116],[-89.232473,36.503056],[-89.232378,36.502992],[-89.232419,36.504068]]]]}},{"type":"Feature","id":"47131:066010    01700","properties":{"id":"47131:066010    01700","parcelId":"066010    01700","countyFips":"47131","countyName":"Obion","state":"Tennessee","marketIds":["Memphis"],"situsAddress":"STATE LINE RD E","situsCity":null,"situsZip":null,"jurisdictionCode":null,"ownerName":"RUSSOM GRACE","ownerName2":null,"propertyName":null,"zoningCode":null,"zoningDistrict":null,"jurisdictionPrefix":null,"dorCode":null,"acreage":54.8208,"centroid":[-89.008489,36.501842],"lastSale":{"date":"2012-10-12","price":null,"qualified":null,"vintage":"2023"},"tax":{"marketValue":121500.0,"assessedValue":null,"taxableValue":null,"taxes":null,"vintage":"2023"},"mailingAddress":{"line1":null,"line2":null,"city":null,"state":null,"zip":null},"incomeTract":null,"incomeBlockGroup":null,"nearestRoad":null,"flu":null,"opportunityZone":null,"oz2Eligibility":null,"source":"tn-oir-public-use-47131","appraiserUrl":"https://assessment.cot.tn.gov/TPAD/Parcel/GIS?gislink=066010%20%20%20%2001700"},"geometry":{"type":"Polygon","coordinates":[[[-89.009081,36.501661],[-89.009012,36.502479],[-89.009929,36.50252],[-89.009916,36.502822],[-89.011001,36.502834],[-89.011467,36.502828],[-89.012025,36.498366],[-89.007101,36.497875],[-89.006663,36.501929],[-89.006662,36.502005],[-89.006672,36.502078],[-89.006694,36.502152],[-89.006725,36.502222],[-89.006777,36.502303],[-89.00716,36.502794],[-89.008656,36.502809],[-89.008768,36.501629],[-89.009081,36.501661]]]}},{"type":"Feature","id":"47131:066011    00903","properties":{"id":"47131:066011    00903","parcelId":"066011    00903","countyFips":"47131","countyName":"Obion","state":"Tennessee","marketIds":["Memphis"],"situsAddress":"STATE LINE RD","situsCity":null,"situsZip":null,"jurisdictionCode":null,"ownerName":"GARRIGAN ROBERT D ETUX MELISSA","ownerName2":"TRUSTEES OF GARRIGAN LIVING TRUST","propertyName":null,"zoningCode":null,"zoningDistrict":null,"jurisdictionPrefix":null,"dorCode":null,"acreage":53.3406,"centroid":[-89.059284,36.501129],"lastSale":{"date":"1998-01-09","price":88200.0,"qualified":null,"vintage":"2023"},"tax":{"marketValue":101400.0,"assessedValue":null,"taxableValue":null,"taxes":null,"vintage":"2023"},"mailingAddress":{"line1":null,"line2":null,"city":null,"state":null,"zip":null},"incomeTract":null,"incomeBlockGroup":null,"nearestRoad":null,"flu":null,"opportunityZone":null,"oz2Eligibility":null,"source":"tn-oir-public-use-47131","appraiserUrl":"https://assessment.cot.tn.gov/TPAD/Parcel/GIS?gislink=066011%20%20%20%2000903"},"geometry":{"type":"Polygon","coordinates":[[[-89.058032,36.503094],[-89.0607,36.503065],[-89.060723,36.50243],[-89.061143,36.50242],[-89.061427,36.499731],[-89.061536,36.498298],[-89.056024,36.49834],[-89.055901,36.501366],[-89.058068,36.501413],[-89.058032,36.503094]]]}},{"type":"Feature","id":"47131:066012    00200","properties":{"id":"47131:066012    00200","parcelId":"066012    00200","countyFips":"47131","countyName":"Obion","state":"Tennessee","marketIds":["Memphis"],"situsAddress":"STATE LINE RD","situsCity":null,"situsZip":null,"jurisdictionCode":null,"ownerName":"GRAY LARRY O","ownerName2":"ETUX BRENDA R","propertyName":null,"zoningCode":null,"zoningDistrict":null,"jurisdictionPrefix":null,"dorCode":null,"acreage":51.7186,"centroid":[-89.139978,36.500058],"lastSale":{"date":"1988-04-08","price":26320.0,"qualified":null,"vintage":"2023"},"tax":{"marketValue":89500.0,"assessedValue":null,"taxableValue":null,"taxes":null,"vintage":"2023"},"mailingAddress":{"line1":null,"line2":null,"city":null,"state":null,"zip":null},"incomeTract":null,"incomeBlockGroup":null,"nearestRoad":null,"flu":null,"opportunityZone":null,"oz2Eligibility":null,"source":"tn-oir-public-use-47131","appraiserUrl":"https://assessment.cot.tn.gov/TPAD/Parcel/GIS?gislink=066012%20%20%20%2000200"},"geometry":{"type":"Polygon","coordinates":[[[-89.137636,36.503949],[-89.14159,36.504043],[-89.141687,36.498415],[-89.141601,36.498399],[-89.141516,36.498367],[-89.141098,36.498136],[-89.141063,36.49812],[-89.141014,36.498106],[-89.140959,36.4981],[-89.140903,36.498103],[-89.14085,36.498116],[-89.139972,36.498461],[-89.139926,36.498483],[-89.139878,36.498513],[-89.139835,36.498551],[-89.139797,36.498595],[-89.139768,36.498644],[-89.139751,36.498691],[-89.139743,36.498731],[-89.139714,36.498994],[-89.139706,36.499114],[-89.139708,36.499227],[-89.139718,36.499334],[-89.139781,36.499705],[-89.139818,36.499835],[-89.139873,36.499958],[-89.139947,36.500073],[-89.139995,36.500132],[-89.140045,36.500187],[-89.140144,36.500276],[-89.140306,36.500392],[-89.14039,36.500461],[-89.140485,36.500554],[-89.140563,36.500651],[-89.140635,36.500763],[-89.140905,36.50126],[-89.140956,36.501335],[-89.141021,36.501415],[-89.141026,36.501433],[-89.14102,36.501451],[-89.141005,36.501465],[-89.140983,36.501473],[-89.140963,36.501473],[-89.140945,36.501466],[-89.140862,36.501408],[-89.140787,36.501341],[-89.140725,36.501268],[-89.140682,36.501203],[-89.140387,36.500678],[-89.140328,36.500598],[-89.140269,36.500541],[-89.1402,36.500492],[-89.140129,36.500454],[-89.140014,36.500405],[-89.139976,36.500382],[-89.139941,36.500356],[-89.139908,36.500325],[-89.139879,36.500288],[-89.139853,36.500241],[-89.13983,36.500178],[-89.139818,36.500164],[-89.139801,36.500154],[-89.13978,36.500148],[-89.139759,36.500149],[-89.13974,36.500154],[-89.139724,36.500163],[-89.139625,36.500291],[-89.139526,36.500391],[-89.139408,36.500485],[-89.139279,36.500565],[-89.139145,36.50063],[-89.139006,36.500679],[-89.138979,36.500681],[-89.138952,36.500675],[-89.138928,36.50066],[-89.138914,36.50064],[-89.138909,36.500622],[-89.138911,36.500603],[-89.13892,36.500585],[-89.138936,36.50057],[-89.139073,36.500513],[-89.139175,36.500461],[-89.13928,36.500394],[-89.139371,36.500322],[-89.139514,36.500189],[-89.139553,36.500147],[-89.139597,36.500084],[-89.139632,36.500012],[-89.139654,36.499926],[-89.139657,36.499833],[-89.139552,36.499078],[-89.139546,36.498979],[-89.139556,36.498883],[-89.139577,36.498796],[-89.139613,36.498704],[-89.139659,36.498621],[-89.137804,36.498592],[-89.137636,36.503949]]]}},{"type":"Feature","id":"47131:066004    00300","properties":{"id":"47131:066004    00300","parcelId":"066004    00300","countyFips":"47131","countyName":"Obion","state":"Tennessee","marketIds":["Memphis"],"situsAddress":"BONE RD 6072","situsCity":null,"situsZip":null,"jurisdictionCode":null,"ownerName":"HUNTER FREDDIE","ownerName2":null,"propertyName":null,"zoningCode":null,"zoningDistrict":null,"jurisdictionPrefix":null,"dorCode":null,"acreage":43.7388,"centroid":[-89.228422,36.503464],"lastSale":{"date":"1999-05-27","price":null,"qualified":null,"vintage":"2023"},"tax":{"marketValue":97300.0,"assessedValue":null,"taxableValue":null,"taxes":null,"vintage":"2023"},"mailingAddress":{"line1":null,"line2":null,"city":null,"state":null,"zip":null},"incomeTract":null,"incomeBlockGroup":null,"nearestRoad":null,"flu":null,"opportunityZone":null,"oz2Eligibility":null,"source":"tn-oir-public-use-47131","appraiserUrl":"https://assessment.cot.tn.gov/TPAD/Parcel/GIS?gislink=066004%20%20%20%2000300"},"geometry":{"type":"Polygon","coordinates":[[[-89.225281,36.50306],[-89.22525,36.50593],[-89.232494,36.506015],[-89.232419,36.504068],[-89.230155,36.504959],[-89.230092,36.504237],[-89.230759,36.503305],[-89.230589,36.503301],[-89.230429,36.503292],[-89.230262,36.503276],[-89.230097,36.503254],[-89.229885,36.503216],[-89.229328,36.503092],[-89.228841,36.502993],[-89.228625,36.502961],[-89.228396,36.502943],[-89.228159,36.50294],[-89.22792,36.502955],[-89.227742,36.502977],[-89.227387,36.503038],[-89.227105,36.503077],[-89.226804,36.503106],[-89.226499,36.503124],[-89.226165,36.503129],[-89.225827,36.503119],[-89.225523,36.503096],[-89.225357,36.503075],[-89.225281,36.50306]]]}},{"type":"Feature","id":"47131:066014    00202","properties":{"id":"47131:066014    00202","parcelId":"066014    00202","countyFips":"47131","countyName":"Obion","state":"Tennessee","marketIds":["Memphis"],"situsAddress":"BONE RD","situsCity":null,"situsZip":null,"jurisdictionCode":null,"ownerName":"MOORE RAMONA L","ownerName2":null,"propertyName":null,"zoningCode":null,"zoningDistrict":null,"jurisdictionPrefix":null,"dorCode":null,"acreage":43.5071,"centroid":[-89.227476,36.502367],"lastSale":{"date":"2013-02-06","price":null,"qualified":null,"vintage":"2023"},"tax":{"marketValue":41500.0,"assessedValue":null,"taxableValue":null,"taxes":null,"vintage":"2023"},"mailingAddress":{"line1":null,"line2":null,"city":null,"state":null,"zip":null},"incomeTract":null,"incomeBlockGroup":null,"nearestRoad":null,"flu":null,"opportunityZone":null,"oz2Eligibility":null,"source":"tn-oir-public-use-47131","appraiserUrl":"https://assessment.cot.tn.gov/TPAD/Parcel/GIS?gislink=066014%20%20%20%2000202"},"geometry":{"type":"Polygon","coordinates":[[[-89.228165,36.502858],[-89.228314,36.502857],[-89.228455,36.502863],[-89.228599,36.502875],[-89.228743,36.502893],[-89.228872,36.502914],[-89.229073,36.502954],[-89.229579,36.503061],[-89.229588,36.502957],[-89.229885,36.496823],[-89.227641,36.496777],[-89.22669,36.50202],[-89.225688,36.501981],[-89.225196,36.501909],[-89.225357,36.502991],[-89.225494,36.503009],[-89.225625,36.503023],[-89.225926,36.503041],[-89.226255,36.503047],[-89.226571,36.503038],[-89.22681,36.503023],[-89.227051,36.503],[-89.227345,36.502961],[-89.227673,36.502903],[-89.227799,36.502885],[-89.22798,36.502867],[-89.228165,36.502858]]]}},{"type":"Feature","id":"47131:066013    00700","properties":{"id":"47131:066013    00700","parcelId":"066013    00700","countyFips":"47131","countyName":"Obion","state":"Tennessee","marketIds":["Memphis"],"situsAddress":"STATE LINE RD E 255","situsCity":null,"situsZip":null,"jurisdictionCode":null,"ownerName":"HAMPTON MICHAEL P ETUX JUDITH","ownerName2":"MICHAEL T HAMPTON ETUX JENNIFER C","propertyName":null,"zoningCode":null,"zoningDistrict":null,"jurisdictionPrefix":null,"dorCode":null,"acreage":39.836,"centroid":[-89.163017,36.501544],"lastSale":{"date":"2018-01-02","price":null,"qualified":null,"vintage":"2023"},"tax":{"marketValue":65400.0,"assessedValue":null,"taxableValue":null,"taxes":null,"vintage":"2023"},"mailingAddress":{"line1":null,"line2":null,"city":null,"state":null,"zip":null},"incomeTract":null,"incomeBlockGroup":null,"nearestRoad":null,"flu":null,"opportunityZone":null,"oz2Eligibility":null,"source":"tn-oir-public-use-47131","appraiserUrl":"https://assessment.cot.tn.gov/TPAD/Parcel/GIS?gislink=066013%20%20%20%2000700"},"geometry":{"type":"Polygon","coordinates":[[[-89.162807,36.504511],[-89.163227,36.504496],[-89.16362,36.504492],[-89.164014,36.504498],[-89.164433,36.504514],[-89.164968,36.498918],[-89.16469,36.498802],[-89.164602,36.498779],[-89.164515,36.498773],[-89.164436,36.498806],[-89.164375,36.498908],[-89.164283,36.499122],[-89.164174,36.499239],[-89.164034,36.499366],[-89.163998,36.499411],[-89.163986,36.499499],[-89.164096,36.499745],[-89.164309,36.4999],[-89.164472,36.500114],[-89.164549,36.500252],[-89.164583,36.500391],[-89.164584,36.500531],[-89.16451,36.500687],[-89.1643,36.500842],[-89.164147,36.500926],[-89.164046,36.500964],[-89.163953,36.500958],[-89.163788,36.500898],[-89.163436,36.500799],[-89.162159,36.500537],[-89.161808,36.500566],[-89.160908,36.500686],[-89.160799,36.500672],[-89.160726,36.500635],[-89.160632,36.500598],[-89.160605,36.500591],[-89.160495,36.503663],[-89.160493,36.503865],[-89.160498,36.504064],[-89.160508,36.504266],[-89.160523,36.504464],[-89.161083,36.504477],[-89.161342,36.50449],[-89.161824,36.504525],[-89.162026,36.504532],[-89.162215,36.504534],[-89.16235,36.503847],[-89.162886,36.503957],[-89.162807,36.504511]]]}},{"type":"Feature","id":"47131:066014    00300","properties":{"id":"47131:066014    00300","parcelId":"066014    00300","countyFips":"47131","countyName":"Obion","state":"Tennessee","marketIds":["Memphis"],"situsAddress":"BONE RD 6075","situsCity":null,"situsZip":null,"jurisdictionCode":null,"ownerName":"ISBELL RHONDA J","ownerName2":null,"propertyName":null,"zoningCode":null,"zoningDistrict":null,"jurisdictionPrefix":null,"dorCode":null,"acreage":38.4,"centroid":[-89.23076,36.502327],"lastSale":{"date":"2013-02-06","price":null,"qualified":null,"vintage":"2023"},"tax":{"marketValue":52500.0,"assessedValue":null,"taxableValue":null,"taxes":null,"vintage":"2023"},"mailingAddress":{"line1":null,"line2":null,"city":null,"state":null,"zip":null},"incomeTract":null,"incomeBlockGroup":null,"nearestRoad":null,"flu":null,"opportunityZone":null,"oz2Eligibility":null,"source":"tn-oir-public-use-47131","appraiserUrl":"https://assessment.cot.tn.gov/TPAD/Parcel/GIS?gislink=066014%20%20%20%2000300"},"geometry":{"type":"Polygon","coordinates":[[[-89.229579,36.503061],[-89.229865,36.503127],[-89.230015,36.503156],[-89.23021,36.503187],[-89.230393,36.503207],[-89.230591,36.503219],[-89.230795,36.503222],[-89.230901,36.503212],[-89.23101,36.503187],[-89.231115,36.503147],[-89.231211,36.503093],[-89.231288,36.503033],[-89.231366,36.50295],[-89.231118,36.502188],[-89.232329,36.502234],[-89.232418,36.496876],[-89.229885,36.496823],[-89.229588,36.502957],[-89.229579,36.503061]]]}},{"type":"Feature","id":"47131:066013    00401","properties":{"id":"47131:066013    00401","parcelId":"066013    00401","countyFips":"47131","countyName":"Obion","state":"Tennessee","marketIds":["Memphis"],"situsAddress":"STATE LINE RD E","situsCity":null,"situsZip":null,"jurisdictionCode":null,"ownerName":"PARTIN LANE SULLIVAN","ownerName2":"ETUX CAROLINE ELISABETH","propertyName":null,"zoningCode":null,"zoningDistrict":null,"jurisdictionPrefix":null,"dorCode":null,"acreage":33.2639,"centroid":[-89.169381,36.50348],"lastSale":{"date":null,"price":null,"qualified":null},"tax":{"marketValue":null,"assessedValue":null,"taxableValue":null,"taxes":null},"mailingAddress":{"line1":null,"line2":null,"city":null,"state":null,"zip":null},"incomeTract":null,"incomeBlockGroup":null,"nearestRoad":null,"flu":null,"opportunityZone":null,"oz2Eligibility":null,"source":"tn-oir-public-use-47131","appraiserUrl":"https://assessment.cot.tn.gov/TPAD/Parcel/GIS?gislink=066013%20%20%20%2000401"},"geometry":{"type":"Polygon","coordinates":[[[-89.169606,36.504765],[-89.171306,36.504827],[-89.171466,36.50045],[-89.168094,36.500433],[-89.168033,36.504708],[-89.168501,36.504725],[-89.16892,36.503527],[-89.169218,36.503554],[-89.169315,36.503705],[-89.169353,36.504107],[-89.169606,36.504765]]]}},{"type":"Feature","id":"47131:066013    00600","properties":{"id":"47131:066013    00600","parcelId":"066013    00600","countyFips":"47131","countyName":"Obion","state":"Tennessee","marketIds":["Memphis"],"situsAddress":"STATE LINE RD","situsCity":null,"situsZip":null,"jurisdictionCode":null,"ownerName":"HAMPTON MICHAEL P ETUX JUDITH","ownerName2":"& MICHAEL T HAMPTON ETUX JENNIFER C","propertyName":null,"zoningCode":null,"zoningDistrict":null,"jurisdictionPrefix":null,"dorCode":null,"acreage":32.3034,"centroid":[-89.166205,36.501061],"lastSale":{"date":"2018-01-02","price":null,"qualified":null,"vintage":"2023"},"tax":{"marketValue":48900.0,"assessedValue":null,"taxableValue":null,"taxes":null,"vintage":"2023"},"mailingAddress":{"line1":null,"line2":null,"city":null,"state":null,"zip":null},"incomeTract":null,"incomeBlockGroup":null,"nearestRoad":null,"flu":null,"opportunityZone":null,"oz2Eligibility":null,"source":"tn-oir-public-use-47131","appraiserUrl":"https://assessment.cot.tn.gov/TPAD/Parcel/GIS?gislink=066013%20%20%20%2000600"},"geometry":{"type":"Polygon","coordinates":[[[-89.166954,36.504663],[-89.168033,36.504708],[-89.1681,36.500054],[-89.167978,36.500149],[-89.167926,36.500207],[-89.167861,36.500327],[-89.167825,36.500688],[-89.167741,36.50087],[-89.167599,36.501076],[-89.167512,36.501179],[-89.167433,36.501239],[-89.167337,36.501272],[-89.167111,36.501297],[-89.166925,36.501272],[-89.166661,36.501197],[-89.166026,36.500963],[-89.16558,36.50082],[-89.165391,36.500725],[-89.165136,36.500514],[-89.165039,36.500403],[-89.164967,36.500265],[-89.164943,36.500108],[-89.164989,36.499822],[-89.16514,36.499467],[-89.165235,36.499302],[-89.165252,36.499192],[-89.165249,36.499126],[-89.165229,36.499066],[-89.1651,36.498973],[-89.164968,36.498918],[-89.164433,36.504514],[-89.164707,36.504531],[-89.165157,36.504567],[-89.165448,36.504587],[-89.166954,36.504663]]]}},{"type":"Feature","id":"47131:066011    00702","properties":{"id":"47131:066011    00702","parcelId":"066011    00702","countyFips":"47131","countyName":"Obion","state":"Tennessee","marketIds":["Memphis"],"situsAddress":"STATE LINE RD","situsCity":null,"situsZip":null,"jurisdictionCode":null,"ownerName":"SOWELL JAMES W","ownerName2":null,"propertyName":null,"zoningCode":null,"zoningDistrict":null,"jurisdictionPrefix":null,"dorCode":null,"acreage":29.2447,"centroid":[-89.063725,36.501018],"lastSale":{"date":"2013-05-21","price":null,"qualified":null,"vintage":"2023"},"tax":{"marketValue":132000.0,"assessedValue":null,"taxableValue":null,"taxes":null,"vintage":"2023"},"mailingAddress":{"line1":null,"line2":null,"city":null,"state":null,"zip":null},"incomeTract":null,"incomeBlockGroup":null,"nearestRoad":null,"flu":null,"opportunityZone":null,"oz2Eligibility":null,"source":"tn-oir-public-use-47131","appraiserUrl":"https://assessment.cot.tn.gov/TPAD/Parcel/GIS?gislink=066011%20%20%20%2000702"},"geometry":{"type":"Polygon","coordinates":[[[-89.061399,36.50097],[-89.061178,36.50306],[-89.06405,36.50303],[-89.064527,36.50303],[-89.065985,36.503043],[-89.066008,36.50032],[-89.065916,36.500297],[-89.065887,36.500209],[-89.065605,36.500314],[-89.065103,36.500445],[-89.064816,36.500456],[-89.064566,36.500528],[-89.063967,36.500294],[-89.063399,36.500312],[-89.06285,36.50051],[-89.062641,36.500546],[-89.062427,36.500681],[-89.062201,36.500757],[-89.062168,36.500786],[-89.061959,36.500809],[-89.061575,36.500979],[-89.061399,36.50097]]]}},{"type":"Feature","id":"47131:066009    00101","properties":{"id":"47131:066009    00101","parcelId":"066009    00101","countyFips":"47131","countyName":"Obion","state":"Tennessee","marketIds":["Memphis"],"situsAddress":"STATE LINE RD 5003","situsCity":null,"situsZip":null,"jurisdictionCode":null,"ownerName":"GUYNN DONALD","ownerName2":"ETUX DIANA","propertyName":null,"zoningCode":null,"zoningDistrict":null,"jurisdictionPrefix":null,"dorCode":null,"acreage":19.6427,"centroid":[-89.001736,36.500917],"lastSale":{"date":"1989-10-18","price":8280.0,"qualified":null,"vintage":"2023"},"tax":{"marketValue":197600.0,"assessedValue":null,"taxableValue":null,"taxes":null,"vintage":"2023"},"mailingAddress":{"line1":null,"line2":null,"city":null,"state":null,"zip":null},"incomeTract":null,"incomeBlockGroup":null,"nearestRoad":null,"flu":null,"opportunityZone":null,"oz2Eligibility":null,"source":"tn-oir-public-use-47131","appraiserUrl":"https://assessment.cot.tn.gov/TPAD/Parcel/GIS?gislink=066009%20%20%20%2000101"},"geometry":{"type":"Polygon","coordinates":[[[-89.001201,36.502731],[-89.001311,36.502732],[-89.001349,36.500944],[-89.003339,36.501212],[-89.003401,36.499353],[-89.001236,36.499109],[-89.000249,36.499101],[-89.000071,36.502719],[-89.001201,36.502731]]]}},{"type":"Feature","id":"47131:066010    03301","properties":{"id":"47131:066010    03301","parcelId":"066010    03301","countyFips":"47131","countyName":"Obion","state":"Tennessee","marketIds":["Memphis"],"situsAddress":"SECTION LINE RD 5800","situsCity":null,"situsZip":null,"jurisdictionCode":null,"ownerName":"POLLOCK SUSAN M","ownerName2":null,"propertyName":null,"zoningCode":null,"zoningDistrict":null,"jurisdictionPrefix":null,"dorCode":null,"acreage":11.2112,"centroid":[-89.005348,36.502635],"lastSale":{"date":"2020-06-22","price":27000.0,"qualified":null,"vintage":"2023"},"tax":{"marketValue":233900.0,"assessedValue":null,"taxableValue":null,"taxes":null,"vintage":"2023"},"mailingAddress":{"line1":null,"line2":null,"city":null,"state":null,"zip":null},"incomeTract":null,"incomeBlockGroup":null,"nearestRoad":null,"flu":null,"opportunityZone":null,"oz2Eligibility":null,"source":"tn-oir-public-use-47131","appraiserUrl":"https://assessment.cot.tn.gov/TPAD/Parcel/GIS?gislink=066010%20%20%20%2003301"},"geometry":{"type":"Polygon","coordinates":[[[-89.005008,36.502771],[-89.005579,36.502777],[-89.005573,36.502092],[-89.006574,36.5021],[-89.006561,36.502024],[-89.006559,36.501951],[-89.00659,36.501651],[-89.001349,36.500944],[-89.001311,36.502732],[-89.002511,36.502744],[-89.00252,36.501928],[-89.00317,36.50194],[-89.00323,36.501584],[-89.004555,36.501672],[-89.00459,36.502083],[-89.005078,36.502087],[-89.005008,36.502771]]]}},{"type":"Feature","id":"47131:066004    00200","properties":{"id":"47131:066004    00200","parcelId":"066004    00200","countyFips":"47131","countyName":"Obion","state":"Tennessee","marketIds":["Memphis"],"situsAddress":"STATE LINE","situsCity":null,"situsZip":null,"jurisdictionCode":null,"ownerName":"BARNETT GEORGE C","ownerName2":null,"propertyName":null,"zoningCode":null,"zoningDistrict":null,"jurisdictionPrefix":null,"dorCode":null,"acreage":8.6835,"centroid":[-89.23363,36.504748],"lastSale":{"date":"2002-04-30","price":null,"qualified":null,"vintage":"2023"},"tax":{"marketValue":17500.0,"assessedValue":null,"taxableValue":null,"taxes":null,"vintage":"2023"},"mailingAddress":{"line1":null,"line2":null,"city":null,"state":null,"zip":null},"incomeTract":null,"incomeBlockGroup":null,"nearestRoad":null,"flu":null,"opportunityZone":null,"oz2Eligibility":null,"source":"tn-oir-public-use-47131","appraiserUrl":"https://assessment.cot.tn.gov/TPAD/Parcel/GIS?gislink=066004%20%20%20%2000200"},"geometry":{"type":"Polygon","coordinates":[[[-89.232494,36.506015],[-89.235029,36.506012],[-89.234493,36.505247],[-89.234248,36.504909],[-89.23402,36.504604],[-89.233867,36.504411],[-89.233719,36.504234],[-89.233556,36.504051],[-89.233387,36.503872],[-89.232682,36.504366],[-89.232436,36.504508],[-89.232494,36.506015]]]}},{"type":"Feature","id":"47131:066011    00900","properties":{"id":"47131:066011    00900","parcelId":"066011    00900","countyFips":"47131","countyName":"Obion","state":"Tennessee","marketIds":["Memphis"],"situsAddress":"STATE LINE RD E 3319","situsCity":null,"situsZip":null,"jurisdictionCode":null,"ownerName":"HAMRICK JOSHUA","ownerName2":null,"propertyName":null,"zoningCode":null,"zoningDistrict":null,"jurisdictionPrefix":null,"dorCode":null,"acreage":7.3369,"centroid":[-89.057134,36.502376],"lastSale":{"date":"2021-09-30","price":171000.0,"qualified":null,"vintage":"2023"},"tax":{"marketValue":171300.0,"assessedValue":null,"taxableValue":null,"taxes":null,"vintage":"2023"},"mailingAddress":{"line1":null,"line2":null,"city":null,"state":null,"zip":null},"incomeTract":null,"incomeBlockGroup":null,"nearestRoad":null,"flu":null,"opportunityZone":null,"oz2Eligibility":null,"source":"tn-oir-public-use-47131","appraiserUrl":"https://assessment.cot.tn.gov/TPAD/Parcel/GIS?gislink=066011%20%20%20%2000900"},"geometry":{"type":"Polygon","coordinates":[[[-89.057482,36.503101],[-89.058032,36.503094],[-89.058068,36.501413],[-89.055901,36.501366],[-89.055848,36.502659],[-89.057475,36.502626],[-89.057482,36.503101]]]}},{"type":"Feature","id":"47131:066004    00301","properties":{"id":"47131:066004    00301","parcelId":"066004    00301","countyFips":"47131","countyName":"Obion","state":"Tennessee","marketIds":["Memphis"],"situsAddress":"BONE RD 6078","situsCity":null,"situsZip":null,"jurisdictionCode":null,"ownerName":"RIFFE CHARLES ANTHONY AND","ownerName2":"LACEY RENEA SMITH","propertyName":null,"zoningCode":null,"zoningDistrict":null,"jurisdictionPrefix":null,"dorCode":null,"acreage":7.2611,"centroid":[-89.23153,36.503172],"lastSale":{"date":"2018-11-30","price":35000.0,"qualified":null,"vintage":"2023"},"tax":{"marketValue":42300.0,"assessedValue":null,"taxableValue":null,"taxes":null,"vintage":"2023"},"mailingAddress":{"line1":null,"line2":null,"city":null,"state":null,"zip":null},"incomeTract":null,"incomeBlockGroup":null,"nearestRoad":null,"flu":null,"opportunityZone":null,"oz2Eligibility":null,"source":"tn-oir-public-use-47131","appraiserUrl":"https://assessment.cot.tn.gov/TPAD/Parcel/GIS?gislink=066004%20%20%20%2000301"},"geometry":{"type":"Polygon","coordinates":[[[-89.230759,36.503305],[-89.230092,36.504237],[-89.230155,36.504959],[-89.232419,36.504068],[-89.232378,36.502992],[-89.23228,36.502932],[-89.232187,36.502883],[-89.23213,36.50286],[-89.23207,36.502843],[-89.232008,36.502831],[-89.231949,36.502824],[-89.231885,36.502823],[-89.231825,36.502827],[-89.231766,36.502836],[-89.231702,36.502852],[-89.231611,36.502886],[-89.231524,36.502936],[-89.231462,36.502986],[-89.231383,36.50307],[-89.231326,36.50312],[-89.231254,36.503171],[-89.231173,36.503215],[-89.231076,36.503254],[-89.230971,36.503283],[-89.230868,36.5033],[-89.230759,36.503305]]]}},{"type":"Feature","id":"47131:066010    02600","properties":{"id":"47131:066010    02600","parcelId":"066010    02600","countyFips":"47131","countyName":"Obion","state":"Tennessee","marketIds":["Memphis"],"situsAddress":"SECTION LINE RD 5778","situsCity":null,"situsZip":null,"jurisdictionCode":null,"ownerName":"HARDY MICHAEL D","ownerName2":null,"propertyName":null,"zoningCode":null,"zoningDistrict":null,"jurisdictionPrefix":null,"dorCode":null,"acreage":7.1936,"centroid":[-89.004998,36.50099],"lastSale":{"date":"2003-08-27","price":10.0,"qualified":null,"vintage":"2023"},"tax":{"marketValue":209500.0,"assessedValue":null,"taxableValue":null,"taxes":null,"vintage":"2023"},"mailingAddress":{"line1":null,"line2":null,"city":null,"state":null,"zip":null},"incomeTract":null,"incomeBlockGroup":null,"nearestRoad":null,"flu":null,"opportunityZone":null,"oz2Eligibility":null,"source":"tn-oir-public-use-47131","appraiserUrl":"https://assessment.cot.tn.gov/TPAD/Parcel/GIS?gislink=066010%20%20%20%2002600"},"geometry":{"type":"Polygon","coordinates":[[[-89.003339,36.501212],[-89.00659,36.501651],[-89.006701,36.50063],[-89.003364,36.500467],[-89.003339,36.501212]]]}},{"type":"Feature","id":"47131:066010    03302","properties":{"id":"47131:066010    03302","parcelId":"066010    03302","countyFips":"47131","countyName":"Obion","state":"Tennessee","marketIds":["Memphis"],"situsAddress":"STATE LINE RD 4895","situsCity":null,"situsZip":null,"jurisdictionCode":null,"ownerName":"HARDY JAMES E","ownerName2":"ETUX CHRISTI S","propertyName":null,"zoningCode":null,"zoningDistrict":null,"jurisdictionPrefix":null,"dorCode":null,"acreage":5.9733,"centroid":[-89.003833,36.502101],"lastSale":{"date":"2020-05-08","price":60000.0,"qualified":null,"vintage":"2023"},"tax":{"marketValue":149900.0,"assessedValue":null,"taxableValue":null,"taxes":null,"vintage":"2023"},"mailingAddress":{"line1":null,"line2":null,"city":null,"state":null,"zip":null},"incomeTract":null,"incomeBlockGroup":null,"nearestRoad":null,"flu":null,"opportunityZone":null,"oz2Eligibility":null,"source":"tn-oir-public-use-47131","appraiserUrl":"https://assessment.cot.tn.gov/TPAD/Parcel/GIS?gislink=066010%20%20%20%2003302"},"geometry":{"type":"Polygon","coordinates":[[[-89.002511,36.502744],[-89.005008,36.502771],[-89.005078,36.502087],[-89.00459,36.502083],[-89.004555,36.501672],[-89.00323,36.501584],[-89.00317,36.50194],[-89.00252,36.501928],[-89.002511,36.502744]]]}},{"type":"Feature","id":"47131:066012    00101","properties":{"id":"47131:066012    00101","parcelId":"066012    00101","countyFips":"47131","countyName":"Obion","state":"Tennessee","marketIds":["Memphis"],"situsAddress":"STATE LINE RD E","situsCity":null,"situsZip":null,"jurisdictionCode":null,"ownerName":"MCCOLLUM SAMUEL B JR","ownerName2":"ETUX PATRICIA","propertyName":null,"zoningCode":null,"zoningDistrict":null,"jurisdictionPrefix":null,"dorCode":null,"acreage":5.507,"centroid":[-89.142145,36.503012],"lastSale":{"date":"2002-05-24","price":null,"qualified":null,"vintage":"2023"},"tax":{"marketValue":226800.0,"assessedValue":null,"taxableValue":null,"taxes":null,"vintage":"2023"},"mailingAddress":{"line1":null,"line2":null,"city":null,"state":null,"zip":null},"incomeTract":null,"incomeBlockGroup":null,"nearestRoad":null,"flu":null,"opportunityZone":null,"oz2Eligibility":null,"source":"tn-oir-public-use-47131","appraiserUrl":"https://assessment.cot.tn.gov/TPAD/Parcel/GIS?gislink=066012%20%20%20%2000101"},"geometry":{"type":"Polygon","coordinates":[[[-89.14159,36.504043],[-89.142681,36.504069],[-89.142682,36.501984],[-89.141626,36.501953],[-89.14159,36.504043]]]}}]}