{"type":"FeatureCollection","name":"13287--4_19","features":[{"type":"Feature","id":"13287:001    001","properties":{"id":"13287:001    001","parcelId":"001    001","countyFips":"13287","countyName":"Turner","state":"Georgia","marketIds":["Valdosta"],"situsAddress":"LEE RD","situsCity":null,"situsZip":"31712","jurisdictionCode":null,"ownerName":"SWIFT CREEK ACRES LLC","ownerName2":null,"propertyName":null,"zoningCode":null,"zoningDistrict":null,"jurisdictionPrefix":null,"dorCode":"A","acreage":14.7348,"centroid":[-83.800203,31.802773],"lastSale":{"date":null,"price":null,"qualified":"0"},"tax":{"marketValue":14881.0,"assessedValue":14881.0,"taxableValue":null,"taxes":null},"mailingAddress":{"line1":"2835 LUCERNE AVE","line2":null,"city":null,"state":null,"zip":null},"incomeTract":null,"incomeBlockGroup":null,"nearestRoad":null,"flu":null,"opportunityZone":null,"oz2Eligibility":null,"source":"ga-turner-parcels-13287","appraiserUrl":"https://qpublic.schneidercorp.com/Application.aspx?App=turnerCountyGA&Layer=Parcels&PageType=Report&KeyValue=001%20%20%20%20001","gisViewerUrl":"https://experience.arcgis.com/experience/19b7fdc1ffca4a9fb31ad8001bbfec71"},"geometry":{"type":"Polygon","coordinates":[[[-83.798366,31.804025],[-83.802436,31.804038],[-83.802456,31.803932],[-83.801729,31.80323],[-83.800444,31.80278],[-83.799938,31.802508],[-83.799753,31.80233],[-83.799556,31.802232],[-83.798874,31.801562],[-83.798479,31.801097],[-83.798366,31.804025]]]}},{"type":"Feature","id":"13287:001    003","properties":{"id":"13287:001    003","parcelId":"001    003","countyFips":"13287","countyName":"Turner","state":"Georgia","marketIds":["Valdosta"],"situsAddress":null,"situsCity":null,"situsZip":null,"jurisdictionCode":null,"ownerName":"SUPER TILES INC","ownerName2":null,"propertyName":null,"zoningCode":null,"zoningDistrict":null,"jurisdictionPrefix":null,"dorCode":"V","acreage":111.543,"centroid":[-83.787199,31.799888],"lastSale":{"date":null,"price":null,"qualified":"0"},"tax":{"marketValue":149625.0,"assessedValue":null,"taxableValue":null,"taxes":null},"mailingAddress":{"line1":"627 BUFORD RD","line2":null,"city":null,"state":null,"zip":null},"incomeTract":null,"incomeBlockGroup":null,"nearestRoad":null,"flu":null,"opportunityZone":null,"oz2Eligibility":null,"source":"ga-turner-parcels-13287","appraiserUrl":"https://qpublic.schneidercorp.com/Application.aspx?App=turnerCountyGA&Layer=Parcels&PageType=Report&KeyValue=001%20%20%20%20003","gisViewerUrl":"https://experience.arcgis.com/experience/19b7fdc1ffca4a9fb31ad8001bbfec71"},"geometry":{"type":"Polygon","coordinates":[[[-83.784525,31.803941],[-83.789805,31.804016],[-83.789848,31.795829],[-83.784619,31.795765],[-83.784525,31.803941]]]}},{"type":"Feature","id":"13287:001    007","properties":{"id":"13287:001    007","parcelId":"001    007","countyFips":"13287","countyName":"Turner","state":"Georgia","marketIds":["Valdosta"],"situsAddress":"LEE RD","situsCity":null,"situsZip":"31712","jurisdictionCode":null,"ownerName":"LEE MICHAEL E AND CYNTHIA H","ownerName2":null,"propertyName":null,"zoningCode":null,"zoningDistrict":null,"jurisdictionPrefix":null,"dorCode":"V","acreage":16.9525,"centroid":[-83.768162,31.803394],"lastSale":{"date":null,"price":null,"qualified":"0"},"tax":{"marketValue":27826.0,"assessedValue":null,"taxableValue":null,"taxes":null},"mailingAddress":{"line1":"3730 LEE ROAD","line2":null,"city":null,"state":null,"zip":null},"incomeTract":null,"incomeBlockGroup":null,"nearestRoad":null,"flu":null,"opportunityZone":null,"oz2Eligibility":null,"source":"ga-turner-parcels-13287","appraiserUrl":"https://qpublic.schneidercorp.com/Application.aspx?App=turnerCountyGA&Layer=Parcels&PageType=Report&KeyValue=001%20%20%20%20007","gisViewerUrl":"https://experience.arcgis.com/experience/19b7fdc1ffca4a9fb31ad8001bbfec71"},"geometry":{"type":"Polygon","coordinates":[[[-83.769425,31.804257],[-83.769425,31.804257],[-83.769441,31.802144],[-83.766256,31.802152],[-83.766264,31.80416],[-83.769425,31.804257]]]}},{"type":"Feature","id":"13287:001    009","properties":{"id":"13287:001    009","parcelId":"001    009","countyFips":"13287","countyName":"Turner","state":"Georgia","marketIds":["Valdosta"],"situsAddress":"LEE RD","situsCity":null,"situsZip":"31712","jurisdictionCode":null,"ownerName":"BEYEL MARK","ownerName2":null,"propertyName":null,"zoningCode":null,"zoningDistrict":null,"jurisdictionPrefix":null,"dorCode":"J","acreage":114.065,"centroid":[-83.766146,31.794086],"lastSale":{"date":null,"price":null,"qualified":"0"},"tax":{"marketValue":136335.0,"assessedValue":null,"taxableValue":null,"taxes":null},"mailingAddress":{"line1":"550 CIDCO ROAD","line2":null,"city":null,"state":null,"zip":null},"incomeTract":null,"incomeBlockGroup":null,"nearestRoad":null,"flu":null,"opportunityZone":null,"oz2Eligibility":null,"source":"ga-turner-parcels-13287","appraiserUrl":"https://qpublic.schneidercorp.com/Application.aspx?App=turnerCountyGA&Layer=Parcels&PageType=Report&KeyValue=001%20%20%20%20009","gisViewerUrl":"https://experience.arcgis.com/experience/19b7fdc1ffca4a9fb31ad8001bbfec71"},"geometry":{"type":"Polygon","coordinates":[[[-83.759851,31.796444],[-83.766165,31.796593],[-83.76624,31.794989],[-83.768835,31.795013],[-83.768902,31.793588],[-83.769545,31.793427],[-83.769601,31.791315],[-83.76003,31.791315],[-83.759851,31.796444]]]}},{"type":"Feature","id":"13287:001    009A","properties":{"id":"13287:001    009A","parcelId":"001    009A","countyFips":"13287","countyName":"Turner","state":"Georgia","marketIds":["Valdosta"],"situsAddress":"LEE RD","situsCity":null,"situsZip":"31712","jurisdictionCode":null,"ownerName":"LEE MICHAEL E & CYNTHIA","ownerName2":null,"propertyName":null,"zoningCode":null,"zoningDistrict":null,"jurisdictionPrefix":null,"dorCode":"V","acreage":19.9915,"centroid":[-83.772803,31.795223],"lastSale":{"date":null,"price":null,"qualified":"0"},"tax":{"marketValue":36400.0,"assessedValue":null,"taxableValue":null,"taxes":null},"mailingAddress":{"line1":"3730 LEE ROAD","line2":null,"city":null,"state":null,"zip":null},"incomeTract":null,"incomeBlockGroup":null,"nearestRoad":null,"flu":null,"opportunityZone":null,"oz2Eligibility":null,"source":"ga-turner-parcels-13287","appraiserUrl":"https://qpublic.schneidercorp.com/Application.aspx?App=turnerCountyGA&Layer=Parcels&PageType=Report&KeyValue=001%20%20%20%20009A","gisViewerUrl":"https://experience.arcgis.com/experience/19b7fdc1ffca4a9fb31ad8001bbfec71"},"geometry":{"type":"Polygon","coordinates":[[[-83.769358,31.796712],[-83.769422,31.796714],[-83.769452,31.795565],[-83.77376,31.795603],[-83.773576,31.795055],[-83.76624,31.794989],[-83.766163,31.796627],[-83.769358,31.796712]]]}},{"type":"Feature","id":"13287:001    009C","properties":{"id":"13287:001    009C","parcelId":"001    009C","countyFips":"13287","countyName":"Turner","state":"Georgia","marketIds":["Valdosta"],"situsAddress":"LEE RD","situsCity":null,"situsZip":"31712","jurisdictionCode":null,"ownerName":"RINGLEY MICHAEL JAMES & HILDA MARIA","ownerName2":null,"propertyName":null,"zoningCode":null,"zoningDistrict":null,"jurisdictionPrefix":null,"dorCode":"V","acreage":23.0722,"centroid":[-83.764004,31.788783],"lastSale":{"date":null,"price":null,"qualified":"0"},"tax":{"marketValue":48730.0,"assessedValue":null,"taxableValue":null,"taxes":null},"mailingAddress":{"line1":"5620 OAKDALE RD","line2":null,"city":null,"state":null,"zip":null},"incomeTract":null,"incomeBlockGroup":null,"nearestRoad":null,"flu":null,"opportunityZone":null,"oz2Eligibility":null,"source":"ga-turner-parcels-13287","appraiserUrl":"https://qpublic.schneidercorp.com/Application.aspx?App=turnerCountyGA&Layer=Parcels&PageType=Report&KeyValue=001%20%20%20%20009C","gisViewerUrl":"https://experience.arcgis.com/experience/19b7fdc1ffca4a9fb31ad8001bbfec71"},"geometry":{"type":"Polygon","coordinates":[[[-83.760101,31.789302],[-83.760099,31.789361],[-83.769695,31.789358],[-83.769714,31.788798],[-83.764118,31.788748],[-83.764156,31.787952],[-83.760148,31.787964],[-83.760101,31.789302]]]}},{"type":"Feature","id":"13287:001    009F","properties":{"id":"13287:001    009F","parcelId":"001    009F","countyFips":"13287","countyName":"Turner","state":"Georgia","marketIds":["Valdosta"],"situsAddress":"LEE RD","situsCity":null,"situsZip":"31712","jurisdictionCode":null,"ownerName":"HELEN P BROWN & SANFORD CARLTON F & PERK","ownerName2":null,"propertyName":null,"zoningCode":null,"zoningDistrict":null,"jurisdictionPrefix":null,"dorCode":"V","acreage":13.6894,"centroid":[-83.76632,31.790389],"lastSale":{"date":null,"price":null,"qualified":"0"},"tax":{"marketValue":29986.0,"assessedValue":null,"taxableValue":null,"taxes":null},"mailingAddress":{"line1":"207 TEMPLE CIRCLE E","line2":null,"city":null,"state":null,"zip":null},"incomeTract":null,"incomeBlockGroup":null,"nearestRoad":null,"flu":null,"opportunityZone":null,"oz2Eligibility":null,"source":"ga-turner-parcels-13287","appraiserUrl":"https://qpublic.schneidercorp.com/Application.aspx?App=turnerCountyGA&Layer=Parcels&PageType=Report&KeyValue=001%20%20%20%20009F","gisViewerUrl":"https://experience.arcgis.com/experience/19b7fdc1ffca4a9fb31ad8001bbfec71"},"geometry":{"type":"Polygon","coordinates":[[[-83.762488,31.790046],[-83.762464,31.790732],[-83.77044,31.790732],[-83.769887,31.790045],[-83.762488,31.790046]]]}},{"type":"Feature","id":"13287:001    010","properties":{"id":"13287:001    010","parcelId":"001    010","countyFips":"13287","countyName":"Turner","state":"Georgia","marketIds":["Valdosta"],"situsAddress":"LEE RD","situsCity":null,"situsZip":"31712","jurisdictionCode":null,"ownerName":"BEYEL MARK","ownerName2":null,"propertyName":null,"zoningCode":null,"zoningDistrict":null,"jurisdictionPrefix":null,"dorCode":"J","acreage":123.926,"centroid":[-83.773653,31.790383],"lastSale":{"date":null,"price":null,"qualified":"0"},"tax":{"marketValue":173313.0,"assessedValue":null,"taxableValue":null,"taxes":null},"mailingAddress":{"line1":"550 CIDCO ROAD","line2":null,"city":null,"state":null,"zip":null},"incomeTract":null,"incomeBlockGroup":null,"nearestRoad":null,"flu":null,"opportunityZone":null,"oz2Eligibility":null,"source":"ga-turner-parcels-13287","appraiserUrl":"https://qpublic.schneidercorp.com/Application.aspx?App=turnerCountyGA&Layer=Parcels&PageType=Report&KeyValue=001%20%20%20%20010","gisViewerUrl":"https://experience.arcgis.com/experience/19b7fdc1ffca4a9fb31ad8001bbfec71"},"geometry":{"type":"MultiPolygon","coordinates":[[[[-83.773292,31.793624],[-83.773464,31.794028],[-83.778383,31.794043],[-83.778404,31.793179],[-83.778176,31.793286],[-83.778216,31.791611],[-83.777237,31.7916],[-83.777351,31.787317],[-83.774328,31.787271],[-83.772422,31.787317],[-83.771508,31.78727],[-83.771272,31.787312],[-83.770889,31.787484],[-83.769948,31.787778],[-83.769865,31.78924],[-83.769937,31.789781],[-83.770232,31.790207],[-83.771471,31.791692],[-83.773019,31.793229],[-83.773292,31.793624]]],[[[-83.769601,31.791315],[-83.769545,31.793427],[-83.772276,31.792744],[-83.771311,31.791785],[-83.770922,31.791315],[-83.769601,31.791315]]]]}},{"type":"Feature","id":"13287:001    010A","properties":{"id":"13287:001    010A","parcelId":"001    010A","countyFips":"13287","countyName":"Turner","state":"Georgia","marketIds":["Valdosta"],"situsAddress":"LEE RD","situsCity":null,"situsZip":"31712","jurisdictionCode":null,"ownerName":"STANLEY ANNETTE E","ownerName2":null,"propertyName":null,"zoningCode":null,"zoningDistrict":null,"jurisdictionPrefix":null,"dorCode":"V","acreage":24.6064,"centroid":[-83.776601,31.794863],"lastSale":{"date":null,"price":null,"qualified":"0"},"tax":{"marketValue":179409.0,"assessedValue":2348.0,"taxableValue":null,"taxes":null},"mailingAddress":{"line1":"3473 LEE RD","line2":null,"city":null,"state":null,"zip":null},"incomeTract":null,"incomeBlockGroup":null,"nearestRoad":null,"flu":null,"opportunityZone":null,"oz2Eligibility":null,"source":"ga-turner-parcels-13287","appraiserUrl":"https://qpublic.schneidercorp.com/Application.aspx?App=turnerCountyGA&Layer=Parcels&PageType=Report&KeyValue=001%20%20%20%20010A","gisViewerUrl":"https://experience.arcgis.com/experience/19b7fdc1ffca4a9fb31ad8001bbfec71"},"geometry":{"type":"Polygon","coordinates":[[[-83.773986,31.795676],[-83.779462,31.795701],[-83.779491,31.794046],[-83.773464,31.794028],[-83.773986,31.795676]]]}},{"type":"Feature","id":"13287:001    010C","properties":{"id":"13287:001    010C","parcelId":"001    010C","countyFips":"13287","countyName":"Turner","state":"Georgia","marketIds":["Valdosta"],"situsAddress":"CLARY RD","situsCity":null,"situsZip":"31712","jurisdictionCode":null,"ownerName":"WILLIS CAROL E AS TRUSTEE U/D/T","ownerName2":null,"propertyName":null,"zoningCode":null,"zoningDistrict":null,"jurisdictionPrefix":null,"dorCode":"V","acreage":33.2035,"centroid":[-83.778428,31.791367],"lastSale":{"date":null,"price":null,"qualified":"0"},"tax":{"marketValue":53728.0,"assessedValue":null,"taxableValue":null,"taxes":null},"mailingAddress":{"line1":"DATED MARCH 30 2017 F/B/O CAROL E WILLIS","line2":null,"city":null,"state":null,"zip":null},"incomeTract":null,"incomeBlockGroup":null,"nearestRoad":null,"flu":null,"opportunityZone":null,"oz2Eligibility":null,"source":"ga-turner-parcels-13287","appraiserUrl":"https://qpublic.schneidercorp.com/Application.aspx?App=turnerCountyGA&Layer=Parcels&PageType=Report&KeyValue=001%20%20%20%20010C","gisViewerUrl":"https://experience.arcgis.com/experience/19b7fdc1ffca4a9fb31ad8001bbfec71"},"geometry":{"type":"Polygon","coordinates":[[[-83.778384,31.794003],[-83.778383,31.794043],[-83.779491,31.794046],[-83.779606,31.787241],[-83.779036,31.787342],[-83.777351,31.787317],[-83.777237,31.7916],[-83.778216,31.791611],[-83.778176,31.793286],[-83.778404,31.793179],[-83.778384,31.794003]]]}},{"type":"Feature","id":"13287:001    010E","properties":{"id":"13287:001    010E","parcelId":"001    010E","countyFips":"13287","countyName":"Turner","state":"Georgia","marketIds":["Valdosta"],"situsAddress":"LEE RD","situsCity":null,"situsZip":"31712","jurisdictionCode":null,"ownerName":"LEWIS JOHN STERLING & TINA R","ownerName2":null,"propertyName":null,"zoningCode":null,"zoningDistrict":null,"jurisdictionPrefix":null,"dorCode":"V","acreage":11.0178,"centroid":[-83.770811,31.794658],"lastSale":{"date":null,"price":null,"qualified":"0"},"tax":{"marketValue":24200.0,"assessedValue":null,"taxableValue":null,"taxes":null},"mailingAddress":{"line1":"6830 TAYLOR RD","line2":null,"city":null,"state":null,"zip":null},"incomeTract":null,"incomeBlockGroup":null,"nearestRoad":null,"flu":null,"opportunityZone":null,"oz2Eligibility":null,"source":"ga-turner-parcels-13287","appraiserUrl":"https://qpublic.schneidercorp.com/Application.aspx?App=turnerCountyGA&Layer=Parcels&PageType=Report&KeyValue=001%20%20%20%20010E","gisViewerUrl":"https://experience.arcgis.com/experience/19b7fdc1ffca4a9fb31ad8001bbfec71"},"geometry":{"type":"Polygon","coordinates":[[[-83.769502,31.795019],[-83.773576,31.795055],[-83.773262,31.794122],[-83.768878,31.794082],[-83.768835,31.795013],[-83.769502,31.795019]]]}},{"type":"Feature","id":"13287:001    010F","properties":{"id":"13287:001    010F","parcelId":"001    010F","countyFips":"13287","countyName":"Turner","state":"Georgia","marketIds":["Valdosta"],"situsAddress":"LEE RD","situsCity":null,"situsZip":"31712","jurisdictionCode":null,"ownerName":"HARDEN CLAYTON T AND DEBRA A","ownerName2":null,"propertyName":null,"zoningCode":null,"zoningDistrict":null,"jurisdictionPrefix":null,"dorCode":"R","acreage":10.3008,"centroid":[-83.771261,31.793665],"lastSale":{"date":null,"price":null,"qualified":"0"},"tax":{"marketValue":186211.0,"assessedValue":17911.0,"taxableValue":null,"taxes":null},"mailingAddress":{"line1":"3312 LEE RD","line2":null,"city":null,"state":null,"zip":null},"incomeTract":null,"incomeBlockGroup":null,"nearestRoad":null,"flu":null,"opportunityZone":null,"oz2Eligibility":null,"source":"ga-turner-parcels-13287","appraiserUrl":"https://qpublic.schneidercorp.com/Application.aspx?App=turnerCountyGA&Layer=Parcels&PageType=Report&KeyValue=001%20%20%20%20010F","gisViewerUrl":"https://experience.arcgis.com/experience/19b7fdc1ffca4a9fb31ad8001bbfec71"},"geometry":{"type":"Polygon","coordinates":[[[-83.769527,31.794088],[-83.773262,31.794122],[-83.773118,31.793697],[-83.772867,31.793332],[-83.772276,31.792744],[-83.768902,31.793588],[-83.768878,31.794082],[-83.769527,31.794088]]]}},{"type":"Feature","id":"13287:001    012","properties":{"id":"13287:001    012","parcelId":"001    012","countyFips":"13287","countyName":"Turner","state":"Georgia","marketIds":["Valdosta"],"situsAddress":"LEE RD","situsCity":null,"situsZip":"31712","jurisdictionCode":null,"ownerName":"LEE CAROLYN C TRUSTEE","ownerName2":null,"propertyName":null,"zoningCode":null,"zoningDistrict":null,"jurisdictionPrefix":null,"dorCode":"V","acreage":136.355,"centroid":[-83.78485,31.789869],"lastSale":{"date":null,"price":null,"qualified":"0"},"tax":{"marketValue":160331.0,"assessedValue":null,"taxableValue":null,"taxes":null},"mailingAddress":{"line1":"EDWIN & CAROLYN LEE REVOKABLE LIVING TRU","line2":null,"city":null,"state":null,"zip":null},"incomeTract":null,"incomeBlockGroup":null,"nearestRoad":null,"flu":null,"opportunityZone":null,"oz2Eligibility":null,"source":"ga-turner-parcels-13287","appraiserUrl":"https://qpublic.schneidercorp.com/Application.aspx?App=turnerCountyGA&Layer=Parcels&PageType=Report&KeyValue=001%20%20%20%20012","gisViewerUrl":"https://experience.arcgis.com/experience/19b7fdc1ffca4a9fb31ad8001bbfec71"},"geometry":{"type":"Polygon","coordinates":[[[-83.77952,31.792323],[-83.790016,31.792383],[-83.790257,31.787417],[-83.779605,31.787351],[-83.77952,31.792323]]]}},{"type":"Feature","id":"13287:001    013","properties":{"id":"13287:001    013","parcelId":"001    013","countyFips":"13287","countyName":"Turner","state":"Georgia","marketIds":["Valdosta"],"situsAddress":"LEE RD","situsCity":null,"situsZip":"31712","jurisdictionCode":null,"ownerName":"BEYEL MARK","ownerName2":null,"propertyName":null,"zoningCode":null,"zoningDistrict":null,"jurisdictionPrefix":null,"dorCode":"V","acreage":43.9277,"centroid":[-83.784741,31.793162],"lastSale":{"date":null,"price":null,"qualified":"0"},"tax":{"marketValue":58473.0,"assessedValue":null,"taxableValue":null,"taxes":null},"mailingAddress":{"line1":"2325 ROCKLEDGE DRIVE","line2":null,"city":null,"state":null,"zip":null},"incomeTract":null,"incomeBlockGroup":null,"nearestRoad":null,"flu":null,"opportunityZone":null,"oz2Eligibility":null,"source":"ga-turner-parcels-13287","appraiserUrl":"https://qpublic.schneidercorp.com/Application.aspx?App=turnerCountyGA&Layer=Parcels&PageType=Report&KeyValue=001%20%20%20%20013","gisViewerUrl":"https://experience.arcgis.com/experience/19b7fdc1ffca4a9fb31ad8001bbfec71"},"geometry":{"type":"Polygon","coordinates":[[[-83.779493,31.793901],[-83.789936,31.794039],[-83.790016,31.792383],[-83.77952,31.792323],[-83.779493,31.793901]]]}},{"type":"Feature","id":"13287:001    014","properties":{"id":"13287:001    014","parcelId":"001    014","countyFips":"13287","countyName":"Turner","state":"Georgia","marketIds":["Valdosta"],"situsAddress":null,"situsCity":null,"situsZip":null,"jurisdictionCode":null,"ownerName":"LEE BRYAN H","ownerName2":null,"propertyName":null,"zoningCode":null,"zoningDistrict":null,"jurisdictionPrefix":null,"dorCode":"A","acreage":48.5216,"centroid":[-83.784672,31.795047],"lastSale":{"date":null,"price":null,"qualified":"0"},"tax":{"marketValue":52361.0,"assessedValue":52361.0,"taxableValue":null,"taxes":null},"mailingAddress":{"line1":"605 RIVERLAND TERRACE","line2":null,"city":null,"state":null,"zip":null},"incomeTract":null,"incomeBlockGroup":null,"nearestRoad":null,"flu":null,"opportunityZone":null,"oz2Eligibility":null,"source":"ga-turner-parcels-13287","appraiserUrl":"https://qpublic.schneidercorp.com/Application.aspx?App=turnerCountyGA&Layer=Parcels&PageType=Report&KeyValue=001%20%20%20%20014","gisViewerUrl":"https://experience.arcgis.com/experience/19b7fdc1ffca4a9fb31ad8001bbfec71"},"geometry":{"type":"Polygon","coordinates":[[[-83.784619,31.795765],[-83.789848,31.795829],[-83.789936,31.794039],[-83.779493,31.793901],[-83.779462,31.795701],[-83.784619,31.795765]]]}},{"type":"Feature","id":"13287:001    016","properties":{"id":"13287:001    016","parcelId":"001    016","countyFips":"13287","countyName":"Turner","state":"Georgia","marketIds":["Valdosta"],"situsAddress":null,"situsCity":null,"situsZip":null,"jurisdictionCode":null,"ownerName":"SUPER TILES INC","ownerName2":null,"propertyName":null,"zoningCode":null,"zoningDistrict":null,"jurisdictionPrefix":null,"dorCode":"V","acreage":93.2623,"centroid":[-83.794639,31.785351],"lastSale":{"date":null,"price":null,"qualified":"0"},"tax":{"marketValue":136955.0,"assessedValue":null,"taxableValue":null,"taxes":null},"mailingAddress":{"line1":"627 BUFORD RD","line2":null,"city":null,"state":null,"zip":null},"incomeTract":null,"incomeBlockGroup":null,"nearestRoad":null,"flu":null,"opportunityZone":null,"oz2Eligibility":null,"source":"ga-turner-parcels-13287","appraiserUrl":"https://qpublic.schneidercorp.com/Application.aspx?App=turnerCountyGA&Layer=Parcels&PageType=Report&KeyValue=001%20%20%20%20016","gisViewerUrl":"https://experience.arcgis.com/experience/19b7fdc1ffca4a9fb31ad8001bbfec71"},"geometry":{"type":"Polygon","coordinates":[[[-83.790257,31.787417],[-83.798874,31.787485],[-83.798959,31.783324],[-83.790467,31.783178],[-83.790257,31.787417]]]}},{"type":"Feature","id":"13287:001    018","properties":{"id":"13287:001    018","parcelId":"001    018","countyFips":"13287","countyName":"Turner","state":"Georgia","marketIds":["Valdosta"],"situsAddress":"SHIVER RD","situsCity":null,"situsZip":"31712","jurisdictionCode":null,"ownerName":"SHIVER CARL DENNARD","ownerName2":null,"propertyName":null,"zoningCode":null,"zoningDistrict":null,"jurisdictionPrefix":null,"dorCode":"V","acreage":94.7843,"centroid":[-83.796128,31.780432],"lastSale":{"date":null,"price":null,"qualified":"0"},"tax":{"marketValue":142450.0,"assessedValue":3480.0,"taxableValue":null,"taxes":null},"mailingAddress":{"line1":"471 SHIVER ROAD","line2":null,"city":null,"state":null,"zip":null},"incomeTract":null,"incomeBlockGroup":null,"nearestRoad":null,"flu":null,"opportunityZone":null,"oz2Eligibility":null,"source":"ga-turner-parcels-13287","appraiserUrl":"https://qpublic.schneidercorp.com/Application.aspx?App=turnerCountyGA&Layer=Parcels&PageType=Report&KeyValue=001%20%20%20%20018","gisViewerUrl":"https://experience.arcgis.com/experience/19b7fdc1ffca4a9fb31ad8001bbfec71"},"geometry":{"type":"Polygon","coordinates":[[[-83.798954,31.783324],[-83.798959,31.783324],[-83.799066,31.780059],[-83.798435,31.780038],[-83.798377,31.778979],[-83.795711,31.779003],[-83.795425,31.778948],[-83.795197,31.778798],[-83.790691,31.778669],[-83.790467,31.783178],[-83.798954,31.783324]]]}},{"type":"Feature","id":"13287:001    020","properties":{"id":"13287:001    020","parcelId":"001    020","countyFips":"13287","countyName":"Turner","state":"Georgia","marketIds":["Valdosta"],"situsAddress":"LEE RD","situsCity":null,"situsZip":"31712","jurisdictionCode":null,"ownerName":"GA CABIN LLC A FLORIDA LLC","ownerName2":null,"propertyName":null,"zoningCode":null,"zoningDistrict":null,"jurisdictionPrefix":null,"dorCode":"V","acreage":14.0036,"centroid":[-83.770104,31.783776],"lastSale":{"date":null,"price":null,"qualified":"0"},"tax":{"marketValue":55298.0,"assessedValue":null,"taxableValue":null,"taxes":null},"mailingAddress":{"line1":"394 ALDERMAN ROAD","line2":null,"city":null,"state":null,"zip":null},"incomeTract":null,"incomeBlockGroup":null,"nearestRoad":null,"flu":null,"opportunityZone":null,"oz2Eligibility":null,"source":"ga-turner-parcels-13287","appraiserUrl":"https://qpublic.schneidercorp.com/Application.aspx?App=turnerCountyGA&Layer=Parcels&PageType=Report&KeyValue=001%20%20%20%20020","gisViewerUrl":"https://experience.arcgis.com/experience/19b7fdc1ffca4a9fb31ad8001bbfec71"},"geometry":{"type":"Polygon","coordinates":[[[-83.768679,31.783395],[-83.768644,31.784909],[-83.770557,31.784914],[-83.770934,31.784325],[-83.771045,31.784045],[-83.771149,31.78341],[-83.771125,31.782597],[-83.768697,31.782609],[-83.768679,31.783395]]]}},{"type":"Feature","id":"13287:001    020A","properties":{"id":"13287:001    020A","parcelId":"001    020A","countyFips":"13287","countyName":"Turner","state":"Georgia","marketIds":["Valdosta"],"situsAddress":"LEE RD","situsCity":null,"situsZip":"31712","jurisdictionCode":null,"ownerName":"HARDEN CHARLES T & KAMLA D","ownerName2":null,"propertyName":null,"zoningCode":null,"zoningDistrict":null,"jurisdictionPrefix":null,"dorCode":"R","acreage":6.2423,"centroid":[-83.771282,31.786293],"lastSale":{"date":null,"price":null,"qualified":"0"},"tax":{"marketValue":121332.0,"assessedValue":9500.0,"taxableValue":null,"taxes":null},"mailingAddress":{"line1":"2640 LEE RD","line2":null,"city":null,"state":null,"zip":null},"incomeTract":null,"incomeBlockGroup":null,"nearestRoad":null,"flu":null,"opportunityZone":null,"oz2Eligibility":null,"source":"ga-turner-parcels-13287","appraiserUrl":"https://qpublic.schneidercorp.com/Application.aspx?App=turnerCountyGA&Layer=Parcels&PageType=Report&KeyValue=001%20%20%20%20020A","gisViewerUrl":"https://experience.arcgis.com/experience/19b7fdc1ffca4a9fb31ad8001bbfec71"},"geometry":{"type":"Polygon","coordinates":[[[-83.771019,31.787016],[-83.771209,31.787156],[-83.772346,31.786535],[-83.772575,31.785696],[-83.771009,31.785045],[-83.770889,31.785845],[-83.770815,31.786215],[-83.770814,31.786422],[-83.770858,31.786707],[-83.771019,31.787016]]]}},{"type":"Feature","id":"13287:001    020B","properties":{"id":"13287:001    020B","parcelId":"001    020B","countyFips":"13287","countyName":"Turner","state":"Georgia","marketIds":["Valdosta"],"situsAddress":"LEE RD","situsCity":null,"situsZip":"31712","jurisdictionCode":null,"ownerName":"HARDEN CHARLES T & KAMLA D","ownerName2":null,"propertyName":null,"zoningCode":null,"zoningDistrict":null,"jurisdictionPrefix":null,"dorCode":"V","acreage":58.2218,"centroid":[-83.772955,31.786115],"lastSale":{"date":null,"price":null,"qualified":"0"},"tax":{"marketValue":82451.0,"assessedValue":null,"taxableValue":null,"taxes":null},"mailingAddress":{"line1":"2640 LEE RD","line2":null,"city":null,"state":null,"zip":null},"incomeTract":null,"incomeBlockGroup":null,"nearestRoad":null,"flu":null,"opportunityZone":null,"oz2Eligibility":null,"source":"ga-turner-parcels-13287","appraiserUrl":"https://qpublic.schneidercorp.com/Application.aspx?App=turnerCountyGA&Layer=Parcels&PageType=Report&KeyValue=001%20%20%20%20020B","gisViewerUrl":"https://experience.arcgis.com/experience/19b7fdc1ffca4a9fb31ad8001bbfec71"},"geometry":{"type":"Polygon","coordinates":[[[-83.771209,31.787156],[-83.771019,31.787016],[-83.770858,31.786707],[-83.770814,31.786422],[-83.770815,31.786215],[-83.770889,31.785845],[-83.771009,31.785045],[-83.772575,31.785696],[-83.772346,31.786535],[-83.771209,31.787156],[-83.771503,31.787105],[-83.772423,31.787152],[-83.774331,31.787106],[-83.779027,31.787177],[-83.779608,31.787072],[-83.779629,31.785088],[-83.778083,31.785063],[-83.777588,31.784734],[-83.772345,31.78403],[-83.771292,31.783706],[-83.771213,31.784159],[-83.77035,31.785635],[-83.769976,31.787595],[-83.77081,31.787334],[-83.771209,31.787156]]]}},{"type":"Feature","id":"13287:001    020C","properties":{"id":"13287:001    020C","parcelId":"001    020C","countyFips":"13287","countyName":"Turner","state":"Georgia","marketIds":["Valdosta"],"situsAddress":"LEE RD","situsCity":null,"situsZip":"31712","jurisdictionCode":null,"ownerName":"TIFTAREA INVESTMENTS LLC","ownerName2":null,"propertyName":null,"zoningCode":null,"zoningDistrict":null,"jurisdictionPrefix":null,"dorCode":"A","acreage":134.224,"centroid":[-83.773941,31.782494],"lastSale":{"date":null,"price":null,"qualified":"0"},"tax":{"marketValue":144385.0,"assessedValue":144385.0,"taxableValue":null,"taxes":null},"mailingAddress":{"line1":"P O BOX 7613","line2":null,"city":null,"state":null,"zip":null},"incomeTract":null,"incomeBlockGroup":null,"nearestRoad":null,"flu":null,"opportunityZone":null,"oz2Eligibility":null,"source":"ga-turner-parcels-13287","appraiserUrl":"https://qpublic.schneidercorp.com/Application.aspx?App=turnerCountyGA&Layer=Parcels&PageType=Report&KeyValue=001%20%20%20%20020C","gisViewerUrl":"https://experience.arcgis.com/experience/19b7fdc1ffca4a9fb31ad8001bbfec71"},"geometry":{"type":"Polygon","coordinates":[[[-83.778083,31.785063],[-83.779624,31.785089],[-83.779699,31.778554],[-83.77021,31.77848],[-83.770705,31.779881],[-83.771108,31.781539],[-83.771361,31.78293],[-83.77134,31.783428],[-83.771292,31.783706],[-83.772345,31.78403],[-83.777588,31.784734],[-83.778083,31.785063]]]}},{"type":"Feature","id":"13287:001    020E","properties":{"id":"13287:001    020E","parcelId":"001    020E","countyFips":"13287","countyName":"Turner","state":"Georgia","marketIds":["Valdosta"],"situsAddress":"LEE RD","situsCity":null,"situsZip":"31712","jurisdictionCode":null,"ownerName":"MONTANEZ PABLO & DIANE","ownerName2":null,"propertyName":null,"zoningCode":null,"zoningDistrict":null,"jurisdictionPrefix":null,"dorCode":"A","acreage":11.8415,"centroid":[-83.770072,31.78166],"lastSale":{"date":null,"price":null,"qualified":"0"},"tax":{"marketValue":40710.0,"assessedValue":40710.0,"taxableValue":null,"taxes":null},"mailingAddress":{"line1":"3190 CROSS FOX DR","line2":null,"city":null,"state":null,"zip":null},"incomeTract":null,"incomeBlockGroup":null,"nearestRoad":null,"flu":null,"opportunityZone":null,"oz2Eligibility":null,"source":"ga-turner-parcels-13287","appraiserUrl":"https://qpublic.schneidercorp.com/Application.aspx?App=turnerCountyGA&Layer=Parcels&PageType=Report&KeyValue=001%20%20%20%20020E","gisViewerUrl":"https://experience.arcgis.com/experience/19b7fdc1ffca4a9fb31ad8001bbfec71"},"geometry":{"type":"MultiPolygon","coordinates":[[[[-83.769075,31.78258],[-83.769071,31.782608],[-83.771125,31.782597],[-83.771123,31.782529],[-83.770491,31.779826],[-83.769548,31.779822],[-83.769075,31.78258]]],[[[-83.769898,31.779659],[-83.770442,31.779661],[-83.770007,31.778478],[-83.769906,31.778477],[-83.769898,31.779659]]]]}},{"type":"Feature","id":"13287:001    020F","properties":{"id":"13287:001    020F","parcelId":"001    020F","countyFips":"13287","countyName":"Turner","state":"Georgia","marketIds":["Valdosta"],"situsAddress":"MCKENZIE RD","situsCity":null,"situsZip":"31712","jurisdictionCode":null,"ownerName":"LEE MILLARD WAYNE & SUZANNE W","ownerName2":null,"propertyName":null,"zoningCode":null,"zoningDistrict":null,"jurisdictionPrefix":null,"dorCode":"R","acreage":9.934,"centroid":[-83.767127,31.781478],"lastSale":{"date":null,"price":null,"qualified":"0"},"tax":{"marketValue":30300.0,"assessedValue":30300.0,"taxableValue":null,"taxes":null},"mailingAddress":{"line1":"2901 SANCTUARY BLVD","line2":null,"city":null,"state":null,"zip":null},"incomeTract":null,"incomeBlockGroup":null,"nearestRoad":null,"flu":null,"opportunityZone":null,"oz2Eligibility":null,"source":"ga-turner-parcels-13287","appraiserUrl":"https://qpublic.schneidercorp.com/Application.aspx?App=turnerCountyGA&Layer=Parcels&PageType=Report&KeyValue=001%20%20%20%20020F","gisViewerUrl":"https://experience.arcgis.com/experience/19b7fdc1ffca4a9fb31ad8001bbfec71"},"geometry":{"type":"Polygon","coordinates":[[[-83.766394,31.782558],[-83.766386,31.782604],[-83.768186,31.782608],[-83.767804,31.779813],[-83.766865,31.779809],[-83.766394,31.782558]]]}},{"type":"Feature","id":"13287:001    020G","properties":{"id":"13287:001    020G","parcelId":"001    020G","countyFips":"13287","countyName":"Turner","state":"Georgia","marketIds":["Valdosta"],"situsAddress":"MCKENZIE RD","situsCity":null,"situsZip":"31712","jurisdictionCode":null,"ownerName":"BURNS ANDREW L","ownerName2":null,"propertyName":null,"zoningCode":null,"zoningDistrict":null,"jurisdictionPrefix":null,"dorCode":"R","acreage":6.9463,"centroid":[-83.766147,31.781205],"lastSale":{"date":null,"price":null,"qualified":"0"},"tax":{"marketValue":20490.0,"assessedValue":20490.0,"taxableValue":null,"taxes":null},"mailingAddress":{"line1":"46477 SAULS RD","line2":null,"city":null,"state":null,"zip":null},"incomeTract":null,"incomeBlockGroup":null,"nearestRoad":null,"flu":null,"opportunityZone":null,"oz2Eligibility":null,"source":"ga-turner-parcels-13287","appraiserUrl":"https://qpublic.schneidercorp.com/Application.aspx?App=turnerCountyGA&Layer=Parcels&PageType=Report&KeyValue=001%20%20%20%20020G","gisViewerUrl":"https://experience.arcgis.com/experience/19b7fdc1ffca4a9fb31ad8001bbfec71"},"geometry":{"type":"Polygon","coordinates":[[[-83.765941,31.779805],[-83.765396,31.782601],[-83.766386,31.782604],[-83.766865,31.779809],[-83.765941,31.779805]]]}},{"type":"Feature","id":"13287:001    020J","properties":{"id":"13287:001    020J","parcelId":"001    020J","countyFips":"13287","countyName":"Turner","state":"Georgia","marketIds":["Valdosta"],"situsAddress":"MCKENZIE RD","situsCity":null,"situsZip":"31712","jurisdictionCode":null,"ownerName":"DOLLAR DAVID L & PAMELA L","ownerName2":null,"propertyName":null,"zoningCode":null,"zoningDistrict":null,"jurisdictionPrefix":null,"dorCode":"R","acreage":9.5139,"centroid":[-83.768558,31.781485],"lastSale":{"date":null,"price":null,"qualified":"0"},"tax":{"marketValue":30300.0,"assessedValue":30300.0,"taxableValue":null,"taxes":null},"mailingAddress":{"line1":"3818 LEE RD","line2":null,"city":null,"state":null,"zip":null},"incomeTract":null,"incomeBlockGroup":null,"nearestRoad":null,"flu":null,"opportunityZone":null,"oz2Eligibility":null,"source":"ga-turner-parcels-13287","appraiserUrl":"https://qpublic.schneidercorp.com/Application.aspx?App=turnerCountyGA&Layer=Parcels&PageType=Report&KeyValue=001%20%20%20%20020J","gisViewerUrl":"https://experience.arcgis.com/experience/19b7fdc1ffca4a9fb31ad8001bbfec71"},"geometry":{"type":"Polygon","coordinates":[[[-83.768182,31.782573],[-83.768186,31.782608],[-83.769071,31.782608],[-83.769548,31.779822],[-83.767804,31.779813],[-83.768182,31.782573]]]}},{"type":"Feature","id":"13287:001    020K","properties":{"id":"13287:001    020K","parcelId":"001    020K","countyFips":"13287","countyName":"Turner","state":"Georgia","marketIds":["Valdosta"],"situsAddress":"LEE RD","situsCity":null,"situsZip":"31712","jurisdictionCode":null,"ownerName":"CARPENTER JOHN M JR & SUSAN ROWE","ownerName2":null,"propertyName":null,"zoningCode":null,"zoningDistrict":null,"jurisdictionPrefix":null,"dorCode":"V","acreage":41.0765,"centroid":[-83.767381,31.785334],"lastSale":{"date":null,"price":null,"qualified":"0"},"tax":{"marketValue":97828.0,"assessedValue":null,"taxableValue":null,"taxes":null},"mailingAddress":{"line1":"108 LIVE OAK LANE","line2":null,"city":null,"state":null,"zip":null},"incomeTract":null,"incomeBlockGroup":null,"nearestRoad":null,"flu":null,"opportunityZone":null,"oz2Eligibility":null,"source":"ga-turner-parcels-13287","appraiserUrl":"https://qpublic.schneidercorp.com/Application.aspx?App=turnerCountyGA&Layer=Parcels&PageType=Report&KeyValue=001%20%20%20%20020K","gisViewerUrl":"https://experience.arcgis.com/experience/19b7fdc1ffca4a9fb31ad8001bbfec71"},"geometry":{"type":"Polygon","coordinates":[[[-83.764803,31.786285],[-83.764534,31.78795],[-83.766747,31.787891],[-83.766803,31.785419],[-83.770249,31.785427],[-83.770557,31.784914],[-83.768644,31.784909],[-83.768697,31.782609],[-83.765396,31.782601],[-83.764803,31.786285]]]}},{"type":"Feature","id":"13287:002    001","properties":{"id":"13287:002    001","parcelId":"002    001","countyFips":"13287","countyName":"Turner","state":"Georgia","marketIds":["Valdosta"],"situsAddress":"SHIVER RD","situsCity":null,"situsZip":"31712","jurisdictionCode":null,"ownerName":"GUESS JAMES L","ownerName2":null,"propertyName":null,"zoningCode":null,"zoningDistrict":null,"jurisdictionPrefix":null,"dorCode":"V","acreage":28.6865,"centroid":[-83.797564,31.777165],"lastSale":{"date":null,"price":null,"qualified":"0"},"tax":{"marketValue":45061.0,"assessedValue":null,"taxableValue":null,"taxes":null},"mailingAddress":{"line1":"492 SHIVER RD","line2":null,"city":null,"state":null,"zip":null},"incomeTract":null,"incomeBlockGroup":null,"nearestRoad":null,"flu":null,"opportunityZone":null,"oz2Eligibility":null,"source":"ga-turner-parcels-13287","appraiserUrl":"https://qpublic.schneidercorp.com/Application.aspx?App=turnerCountyGA&Layer=Parcels&PageType=Report&KeyValue=002%20%20%20%20001","gisViewerUrl":"https://experience.arcgis.com/experience/19b7fdc1ffca4a9fb31ad8001bbfec71"},"geometry":{"type":"Polygon","coordinates":[[[-83.795548,31.778809],[-83.798122,31.778821],[-83.798193,31.777369],[-83.798992,31.777385],[-83.799042,31.775368],[-83.795486,31.775238],[-83.795548,31.778809]]]}},{"type":"Feature","id":"13287:002    002","properties":{"id":"13287:002    002","parcelId":"002    002","countyFips":"13287","countyName":"Turner","state":"Georgia","marketIds":["Valdosta"],"situsAddress":"SHIVER RD","situsCity":null,"situsZip":"31712","jurisdictionCode":null,"ownerName":"SMITH LARRY J","ownerName2":null,"propertyName":null,"zoningCode":null,"zoningDistrict":null,"jurisdictionPrefix":null,"dorCode":"V","acreage":23.9329,"centroid":[-83.782091,31.77782],"lastSale":{"date":null,"price":null,"qualified":"0"},"tax":{"marketValue":40919.0,"assessedValue":null,"taxableValue":null,"taxes":null},"mailingAddress":{"line1":"711 ENGRAM ST","line2":null,"city":null,"state":null,"zip":null},"incomeTract":null,"incomeBlockGroup":null,"nearestRoad":null,"flu":null,"opportunityZone":null,"oz2Eligibility":null,"source":"ga-turner-parcels-13287","appraiserUrl":"https://qpublic.schneidercorp.com/Application.aspx?App=turnerCountyGA&Layer=Parcels&PageType=Report&KeyValue=002%20%20%20%20002","gisViewerUrl":"https://experience.arcgis.com/experience/19b7fdc1ffca4a9fb31ad8001bbfec71"},"geometry":{"type":"MultiPolygon","coordinates":[[[[-83.781145,31.777608],[-83.780712,31.777835],[-83.779807,31.778555],[-83.784568,31.778605],[-83.784585,31.777514],[-83.781732,31.776804],[-83.781145,31.777608]]],[[[-83.779696,31.778414],[-83.780606,31.77769],[-83.781011,31.777481],[-83.781558,31.776727],[-83.780514,31.776287],[-83.779783,31.773777],[-83.779624,31.773774],[-83.779696,31.778414]]]]}},{"type":"Feature","id":"13287:002    002A","properties":{"id":"13287:002    002A","parcelId":"002    002A","countyFips":"13287","countyName":"Turner","state":"Georgia","marketIds":["Valdosta"],"situsAddress":"SHIVER RD","situsCity":null,"situsZip":"31712","jurisdictionCode":null,"ownerName":"EATON FRANKLIN H &","ownerName2":null,"propertyName":null,"zoningCode":null,"zoningDistrict":null,"jurisdictionPrefix":null,"dorCode":"R","acreage":6.2091,"centroid":[-83.780865,31.775369],"lastSale":{"date":null,"price":null,"qualified":"0"},"tax":{"marketValue":93109.0,"assessedValue":11514.0,"taxableValue":null,"taxes":null},"mailingAddress":{"line1":"EATON TERRI CHAPMAN","line2":null,"city":null,"state":null,"zip":null},"incomeTract":null,"incomeBlockGroup":null,"nearestRoad":null,"flu":null,"opportunityZone":null,"oz2Eligibility":null,"source":"ga-turner-parcels-13287","appraiserUrl":"https://qpublic.schneidercorp.com/Application.aspx?App=turnerCountyGA&Layer=Parcels&PageType=Report&KeyValue=002%20%20%20%20002A","gisViewerUrl":"https://experience.arcgis.com/experience/19b7fdc1ffca4a9fb31ad8001bbfec71"},"geometry":{"type":"Polygon","coordinates":[[[-83.780514,31.776287],[-83.781558,31.776727],[-83.781898,31.776241],[-83.780999,31.775393],[-83.780436,31.773788],[-83.779783,31.773777],[-83.780514,31.776287]]]}},{"type":"Feature","id":"13287:002    002B","properties":{"id":"13287:002    002B","parcelId":"002    002B","countyFips":"13287","countyName":"Turner","state":"Georgia","marketIds":["Valdosta"],"situsAddress":"SHIVER RD","situsCity":null,"situsZip":"31712","jurisdictionCode":null,"ownerName":"LANE STANLEY & CATHY","ownerName2":null,"propertyName":null,"zoningCode":null,"zoningDistrict":null,"jurisdictionPrefix":null,"dorCode":"R","acreage":9.2962,"centroid":[-83.787052,31.778019],"lastSale":{"date":null,"price":null,"qualified":"0"},"tax":{"marketValue":107582.0,"assessedValue":17100.0,"taxableValue":null,"taxes":null},"mailingAddress":{"line1":"P O BOX 301","line2":null,"city":null,"state":null,"zip":null},"incomeTract":null,"incomeBlockGroup":null,"nearestRoad":null,"flu":null,"opportunityZone":null,"oz2Eligibility":null,"source":"ga-turner-parcels-13287","appraiserUrl":"https://qpublic.schneidercorp.com/Application.aspx?App=turnerCountyGA&Layer=Parcels&PageType=Report&KeyValue=002%20%20%20%20002B","gisViewerUrl":"https://experience.arcgis.com/experience/19b7fdc1ffca4a9fb31ad8001bbfec71"},"geometry":{"type":"Polygon","coordinates":[[[-83.784568,31.778605],[-83.788774,31.778649],[-83.788735,31.777436],[-83.787689,31.777979],[-83.787649,31.777923],[-83.787361,31.778029],[-83.784585,31.777514],[-83.784568,31.778605]]]}},{"type":"Feature","id":"13287:002    002C","properties":{"id":"13287:002    002C","parcelId":"002    002C","countyFips":"13287","countyName":"Turner","state":"Georgia","marketIds":["Valdosta"],"situsAddress":"SHIVER RD","situsCity":null,"situsZip":"31712","jurisdictionCode":null,"ownerName":"LEWIS CLAIRE J-JULIE S & REEDY BONNIE","ownerName2":null,"propertyName":null,"zoningCode":"2004","zoningDistrict":null,"jurisdictionPrefix":null,"dorCode":"R","acreage":9.1262,"centroid":[-83.789898,31.777946],"lastSale":{"date":null,"price":null,"qualified":"0"},"tax":{"marketValue":19430.0,"assessedValue":13680.0,"taxableValue":null,"taxes":null},"mailingAddress":{"line1":"86 SNOW RD","line2":null,"city":null,"state":null,"zip":null},"incomeTract":null,"incomeBlockGroup":null,"nearestRoad":null,"flu":null,"opportunityZone":null,"oz2Eligibility":null,"source":"ga-turner-parcels-13287","appraiserUrl":"https://qpublic.schneidercorp.com/Application.aspx?App=turnerCountyGA&Layer=Parcels&PageType=Report&KeyValue=002%20%20%20%20002C","gisViewerUrl":"https://experience.arcgis.com/experience/19b7fdc1ffca4a9fb31ad8001bbfec71"},"geometry":{"type":"Polygon","coordinates":[[[-83.790691,31.778669],[-83.791075,31.77868],[-83.791044,31.777186],[-83.789066,31.777053],[-83.788735,31.777436],[-83.788774,31.778649],[-83.790691,31.778669]]]}},{"type":"Feature","id":"13287:002    002E","properties":{"id":"13287:002    002E","parcelId":"002    002E","countyFips":"13287","countyName":"Turner","state":"Georgia","marketIds":["Valdosta"],"situsAddress":"SHIVER RD","situsCity":null,"situsZip":"31712","jurisdictionCode":null,"ownerName":"JONES DOUGLAS & KRISTAL","ownerName2":null,"propertyName":null,"zoningCode":null,"zoningDistrict":null,"jurisdictionPrefix":null,"dorCode":"R","acreage":9.5422,"centroid":[-83.785127,31.774485],"lastSale":{"date":null,"price":null,"qualified":"0"},"tax":{"marketValue":89025.0,"assessedValue":17866.0,"taxableValue":null,"taxes":null},"mailingAddress":{"line1":"1346 SHIVER RD","line2":null,"city":null,"state":null,"zip":null},"incomeTract":null,"incomeBlockGroup":null,"nearestRoad":null,"flu":null,"opportunityZone":null,"oz2Eligibility":null,"source":"ga-turner-parcels-13287","appraiserUrl":"https://qpublic.schneidercorp.com/Application.aspx?App=turnerCountyGA&Layer=Parcels&PageType=Report&KeyValue=002%20%20%20%20002E","gisViewerUrl":"https://experience.arcgis.com/experience/19b7fdc1ffca4a9fb31ad8001bbfec71"},"geometry":{"type":"Polygon","coordinates":[[[-83.783087,31.774908],[-83.784398,31.774997],[-83.786503,31.774625],[-83.786832,31.77466],[-83.786831,31.77389],[-83.783112,31.773831],[-83.783087,31.774908]]]}},{"type":"Feature","id":"13287:002    002F","properties":{"id":"13287:002    002F","parcelId":"002    002F","countyFips":"13287","countyName":"Turner","state":"Georgia","marketIds":["Valdosta"],"situsAddress":"SHIVER RD","situsCity":null,"situsZip":"31712","jurisdictionCode":null,"ownerName":"JONES BARBARA SUE","ownerName2":null,"propertyName":null,"zoningCode":null,"zoningDistrict":null,"jurisdictionPrefix":null,"dorCode":"R","acreage":15.698,"centroid":[-83.7893,31.774825],"lastSale":{"date":null,"price":null,"qualified":"0"},"tax":{"marketValue":59916.0,"assessedValue":23224.0,"taxableValue":null,"taxes":null},"mailingAddress":{"line1":"3121 GALEMONT DR","line2":null,"city":null,"state":null,"zip":null},"incomeTract":null,"incomeBlockGroup":null,"nearestRoad":null,"flu":null,"opportunityZone":null,"oz2Eligibility":null,"source":"ga-turner-parcels-13287","appraiserUrl":"https://qpublic.schneidercorp.com/Application.aspx?App=turnerCountyGA&Layer=Parcels&PageType=Report&KeyValue=002%20%20%20%20002F","gisViewerUrl":"https://experience.arcgis.com/experience/19b7fdc1ffca4a9fb31ad8001bbfec71"},"geometry":{"type":"Polygon","coordinates":[[[-83.789252,31.775582],[-83.790941,31.77601],[-83.791706,31.774835],[-83.790604,31.77486],[-83.790638,31.773951],[-83.786831,31.77389],[-83.786832,31.77466],[-83.7876,31.774815],[-83.789252,31.775582]]]}},{"type":"Feature","id":"13287:002    002G","properties":{"id":"13287:002    002G","parcelId":"002    002G","countyFips":"13287","countyName":"Turner","state":"Georgia","marketIds":["Valdosta"],"situsAddress":"SHIVER RD","situsCity":null,"situsZip":"31712","jurisdictionCode":null,"ownerName":"BAILEY JAMES AND MELISSA DAWN","ownerName2":null,"propertyName":null,"zoningCode":null,"zoningDistrict":null,"jurisdictionPrefix":null,"dorCode":"R","acreage":7.6854,"centroid":[-83.789753,31.77656],"lastSale":{"date":null,"price":null,"qualified":"0"},"tax":{"marketValue":11552.0,"assessedValue":11552.0,"taxableValue":null,"taxes":null},"mailingAddress":{"line1":"1153 SHIVER ROAD","line2":null,"city":null,"state":null,"zip":null},"incomeTract":null,"incomeBlockGroup":null,"nearestRoad":null,"flu":null,"opportunityZone":null,"oz2Eligibility":null,"source":"ga-turner-parcels-13287","appraiserUrl":"https://qpublic.schneidercorp.com/Application.aspx?App=turnerCountyGA&Layer=Parcels&PageType=Report&KeyValue=002%20%20%20%20002G","gisViewerUrl":"https://experience.arcgis.com/experience/19b7fdc1ffca4a9fb31ad8001bbfec71"},"geometry":{"type":"Polygon","coordinates":[[[-83.788666,31.775536],[-83.788735,31.777436],[-83.789066,31.777053],[-83.791044,31.777186],[-83.791191,31.776215],[-83.789814,31.775936],[-83.788666,31.775536]]]}},{"type":"Feature","id":"13287:002    002I","properties":{"id":"13287:002    002I","parcelId":"002    002I","countyFips":"13287","countyName":"Turner","state":"Georgia","marketIds":["Valdosta"],"situsAddress":"SHIVER RD","situsCity":null,"situsZip":"31712","jurisdictionCode":null,"ownerName":"AULTMAN KATLYN SKYE","ownerName2":null,"propertyName":null,"zoningCode":null,"zoningDistrict":null,"jurisdictionPrefix":null,"dorCode":"R","acreage":9.3701,"centroid":[-83.791757,31.77735],"lastSale":{"date":null,"price":null,"qualified":"0"},"tax":{"marketValue":17100.0,"assessedValue":17100.0,"taxableValue":null,"taxes":null},"mailingAddress":{"line1":"759 LAKESHORE DRIVE","line2":null,"city":null,"state":null,"zip":null},"incomeTract":null,"incomeBlockGroup":null,"nearestRoad":null,"flu":null,"opportunityZone":null,"oz2Eligibility":null,"source":"ga-turner-parcels-13287","appraiserUrl":"https://qpublic.schneidercorp.com/Application.aspx?App=turnerCountyGA&Layer=Parcels&PageType=Report&KeyValue=002%20%20%20%20002I","gisViewerUrl":"https://experience.arcgis.com/experience/19b7fdc1ffca4a9fb31ad8001bbfec71"},"geometry":{"type":"Polygon","coordinates":[[[-83.791075,31.77868],[-83.792691,31.778726],[-83.792719,31.776925],[-83.791822,31.776369],[-83.791191,31.776215],[-83.791044,31.777186],[-83.791075,31.77868]]]}},{"type":"Feature","id":"13287:002    002J","properties":{"id":"13287:002    002J","parcelId":"002    002J","countyFips":"13287","countyName":"Turner","state":"Georgia","marketIds":["Valdosta"],"situsAddress":"SHIVER RD","situsCity":null,"situsZip":"31712","jurisdictionCode":null,"ownerName":"SHAW KATHLEEN S AND CHAFFIN JENNIFER AND","ownerName2":null,"propertyName":null,"zoningCode":null,"zoningDistrict":null,"jurisdictionPrefix":null,"dorCode":"R","acreage":6.6089,"centroid":[-83.793847,31.778175],"lastSale":{"date":null,"price":null,"qualified":"0"},"tax":{"marketValue":22761.0,"assessedValue":12779.0,"taxableValue":null,"taxes":null},"mailingAddress":{"line1":"JOSLIN BLYTHE","line2":null,"city":null,"state":null,"zip":null},"incomeTract":null,"incomeBlockGroup":null,"nearestRoad":null,"flu":null,"opportunityZone":null,"oz2Eligibility":null,"source":"ga-turner-parcels-13287","appraiserUrl":"https://qpublic.schneidercorp.com/Application.aspx?App=turnerCountyGA&Layer=Parcels&PageType=Report&KeyValue=002%20%20%20%20002J","gisViewerUrl":"https://experience.arcgis.com/experience/19b7fdc1ffca4a9fb31ad8001bbfec71"},"geometry":{"type":"Polygon","coordinates":[[[-83.792691,31.778726],[-83.795197,31.778798],[-83.794783,31.778251],[-83.792719,31.776925],[-83.792691,31.778726]]]}},{"type":"Feature","id":"13287:002    002L","properties":{"id":"13287:002    002L","parcelId":"002    002L","countyFips":"13287","countyName":"Turner","state":"Georgia","marketIds":["Valdosta"],"situsAddress":"SHIVER RD","situsCity":null,"situsZip":"31712","jurisdictionCode":null,"ownerName":"LANE STANLEY & CATHY","ownerName2":null,"propertyName":null,"zoningCode":null,"zoningDistrict":null,"jurisdictionPrefix":null,"dorCode":"R","acreage":19.3201,"centroid":[-83.786172,31.776079],"lastSale":{"date":null,"price":null,"qualified":"0"},"tax":{"marketValue":35050.0,"assessedValue":32300.0,"taxableValue":null,"taxes":null},"mailingAddress":{"line1":"P O BOX 301","line2":null,"city":null,"state":null,"zip":null},"incomeTract":null,"incomeBlockGroup":null,"nearestRoad":null,"flu":null,"opportunityZone":null,"oz2Eligibility":null,"source":"ga-turner-parcels-13287","appraiserUrl":"https://qpublic.schneidercorp.com/Application.aspx?App=turnerCountyGA&Layer=Parcels&PageType=Report&KeyValue=002%20%20%20%20002L","gisViewerUrl":"https://experience.arcgis.com/experience/19b7fdc1ffca4a9fb31ad8001bbfec71"},"geometry":{"type":"Polygon","coordinates":[[[-83.784721,31.777539],[-83.787361,31.778029],[-83.787378,31.77494],[-83.786572,31.77479],[-83.784826,31.775096],[-83.784721,31.777539]]]}},{"type":"Feature","id":"13287:002    002N","properties":{"id":"13287:002    002N","parcelId":"002    002N","countyFips":"13287","countyName":"Turner","state":"Georgia","marketIds":["Valdosta"],"situsAddress":"SHIVER RD","situsCity":null,"situsZip":"31733","jurisdictionCode":null,"ownerName":"BRINKLEY NICKY L & KIMBERLY E","ownerName2":null,"propertyName":null,"zoningCode":null,"zoningDistrict":null,"jurisdictionPrefix":null,"dorCode":"R","acreage":8.3232,"centroid":[-83.792214,31.775736],"lastSale":{"date":null,"price":null,"qualified":"0"},"tax":{"marketValue":143271.0,"assessedValue":11372.0,"taxableValue":null,"taxes":null},"mailingAddress":{"line1":"998 SHIVER RD","line2":null,"city":null,"state":null,"zip":null},"incomeTract":null,"incomeBlockGroup":null,"nearestRoad":null,"flu":null,"opportunityZone":null,"oz2Eligibility":null,"source":"ga-turner-parcels-13287","appraiserUrl":"https://qpublic.schneidercorp.com/Application.aspx?App=turnerCountyGA&Layer=Parcels&PageType=Report&KeyValue=002%20%20%20%20002N","gisViewerUrl":"https://experience.arcgis.com/experience/19b7fdc1ffca4a9fb31ad8001bbfec71"},"geometry":{"type":"Polygon","coordinates":[[[-83.791906,31.776219],[-83.79289,31.776827],[-83.793629,31.774791],[-83.791706,31.774835],[-83.790941,31.77601],[-83.791906,31.776219]]]}},{"type":"Feature","id":"13287:002    002P","properties":{"id":"13287:002    002P","parcelId":"002    002P","countyFips":"13287","countyName":"Turner","state":"Georgia","marketIds":["Valdosta"],"situsAddress":"SHIVER RD","situsCity":null,"situsZip":"31712","jurisdictionCode":null,"ownerName":"BAILEY JAMES","ownerName2":null,"propertyName":null,"zoningCode":null,"zoningDistrict":null,"jurisdictionPrefix":null,"dorCode":"R","acreage":8.7516,"centroid":[-83.787913,31.776974],"lastSale":{"date":null,"price":null,"qualified":"0"},"tax":{"marketValue":29116.0,"assessedValue":12445.0,"taxableValue":null,"taxes":null},"mailingAddress":{"line1":"1153 SHIVER RD","line2":null,"city":null,"state":null,"zip":null},"incomeTract":null,"incomeBlockGroup":null,"nearestRoad":null,"flu":null,"opportunityZone":null,"oz2Eligibility":null,"source":"ga-turner-parcels-13287","appraiserUrl":"https://qpublic.schneidercorp.com/Application.aspx?App=turnerCountyGA&Layer=Parcels&PageType=Report&KeyValue=002%20%20%20%20002P","gisViewerUrl":"https://experience.arcgis.com/experience/19b7fdc1ffca4a9fb31ad8001bbfec71"},"geometry":{"type":"Polygon","coordinates":[[[-83.787378,31.77494],[-83.787361,31.778029],[-83.787649,31.777923],[-83.787689,31.777979],[-83.788735,31.777436],[-83.788666,31.775536],[-83.787378,31.77494]]]}},{"type":"Feature","id":"13287:002    002R","properties":{"id":"13287:002    002R","parcelId":"002    002R","countyFips":"13287","countyName":"Turner","state":"Georgia","marketIds":["Valdosta"],"situsAddress":"SHIVER RD","situsCity":null,"situsZip":"31712","jurisdictionCode":null,"ownerName":"NIPPER CHONG O","ownerName2":null,"propertyName":null,"zoningCode":null,"zoningDistrict":null,"jurisdictionPrefix":null,"dorCode":"R","acreage":12.5632,"centroid":[-83.794989,31.776826],"lastSale":{"date":null,"price":null,"qualified":"0"},"tax":{"marketValue":26676.0,"assessedValue":22012.0,"taxableValue":null,"taxes":null},"mailingAddress":{"line1":"848 SHIVER RD","line2":null,"city":null,"state":null,"zip":null},"incomeTract":null,"incomeBlockGroup":null,"nearestRoad":null,"flu":null,"opportunityZone":null,"oz2Eligibility":null,"source":"ga-turner-parcels-13287","appraiserUrl":"https://qpublic.schneidercorp.com/Application.aspx?App=turnerCountyGA&Layer=Parcels&PageType=Report&KeyValue=002%20%20%20%20002R","gisViewerUrl":"https://experience.arcgis.com/experience/19b7fdc1ffca4a9fb31ad8001bbfec71"},"geometry":{"type":"Polygon","coordinates":[[[-83.795388,31.778724],[-83.795548,31.778809],[-83.795486,31.775238],[-83.79542,31.774751],[-83.79446,31.774773],[-83.793707,31.777357],[-83.794913,31.778129],[-83.795388,31.778724]]]}},{"type":"Feature","id":"13287:002    002T","properties":{"id":"13287:002    002T","parcelId":"002    002T","countyFips":"13287","countyName":"Turner","state":"Georgia","marketIds":["Valdosta"],"situsAddress":"SHIVER RD","situsCity":null,"situsZip":"31712","jurisdictionCode":null,"ownerName":"SMITH LARRY","ownerName2":null,"propertyName":null,"zoningCode":null,"zoningDistrict":null,"jurisdictionPrefix":null,"dorCode":"V","acreage":13.3667,"centroid":[-83.783888,31.776202],"lastSale":{"date":null,"price":null,"qualified":"0"},"tax":{"marketValue":24516.0,"assessedValue":null,"taxableValue":null,"taxes":null},"mailingAddress":{"line1":"711 ENGRAM ST","line2":null,"city":null,"state":null,"zip":null},"incomeTract":null,"incomeBlockGroup":null,"nearestRoad":null,"flu":null,"opportunityZone":null,"oz2Eligibility":null,"source":"ga-turner-parcels-13287","appraiserUrl":"https://qpublic.schneidercorp.com/Application.aspx?App=turnerCountyGA&Layer=Parcels&PageType=Report&KeyValue=002%20%20%20%20002T","gisViewerUrl":"https://experience.arcgis.com/experience/19b7fdc1ffca4a9fb31ad8001bbfec71"},"geometry":{"type":"Polygon","coordinates":[[[-83.784585,31.777514],[-83.784721,31.777539],[-83.784826,31.775096],[-83.7844,31.775169],[-83.783063,31.775091],[-83.781732,31.776804],[-83.784585,31.777514]]]}},{"type":"Feature","id":"13287:002    002W","properties":{"id":"13287:002    002W","parcelId":"002    002W","countyFips":"13287","countyName":"Turner","state":"Georgia","marketIds":["Valdosta"],"situsAddress":"SHIVER RD","situsCity":null,"situsZip":"31712","jurisdictionCode":null,"ownerName":"EATON FRANKLIN H","ownerName2":null,"propertyName":null,"zoningCode":null,"zoningDistrict":null,"jurisdictionPrefix":null,"dorCode":"R","acreage":6.0192,"centroid":[-83.78142,31.774996],"lastSale":{"date":null,"price":null,"qualified":"0"},"tax":{"marketValue":12666.0,"assessedValue":11514.0,"taxableValue":null,"taxes":null},"mailingAddress":{"line1":"P O BOX 87","line2":null,"city":null,"state":null,"zip":null},"incomeTract":null,"incomeBlockGroup":null,"nearestRoad":null,"flu":null,"opportunityZone":null,"oz2Eligibility":null,"source":"ga-turner-parcels-13287","appraiserUrl":"https://qpublic.schneidercorp.com/Application.aspx?App=turnerCountyGA&Layer=Parcels&PageType=Report&KeyValue=002%20%20%20%20002W","gisViewerUrl":"https://experience.arcgis.com/experience/19b7fdc1ffca4a9fb31ad8001bbfec71"},"geometry":{"type":"Polygon","coordinates":[[[-83.780999,31.775393],[-83.781898,31.776241],[-83.782247,31.775751],[-83.781522,31.773805],[-83.780436,31.773788],[-83.780999,31.775393]]]}},{"type":"Feature","id":"13287:002    003","properties":{"id":"13287:002    003","parcelId":"002    003","countyFips":"13287","countyName":"Turner","state":"Georgia","marketIds":["Valdosta"],"situsAddress":"WARWICK HWY","situsCity":null,"situsZip":"31712","jurisdictionCode":null,"ownerName":"HESS NICHOLAS J & PFEIFER DANIEL L","ownerName2":null,"propertyName":null,"zoningCode":null,"zoningDistrict":null,"jurisdictionPrefix":null,"dorCode":"A","acreage":57.4596,"centroid":[-83.793135,31.772691],"lastSale":{"date":null,"price":null,"qualified":"0"},"tax":{"marketValue":162726.0,"assessedValue":82686.0,"taxableValue":null,"taxes":null},"mailingAddress":{"line1":"8746 WARWICK HWY","line2":null,"city":null,"state":null,"zip":null},"incomeTract":null,"incomeBlockGroup":null,"nearestRoad":null,"flu":null,"opportunityZone":null,"oz2Eligibility":null,"source":"ga-turner-parcels-13287","appraiserUrl":"https://qpublic.schneidercorp.com/Application.aspx?App=turnerCountyGA&Layer=Parcels&PageType=Report&KeyValue=002%20%20%20%20003","gisViewerUrl":"https://experience.arcgis.com/experience/19b7fdc1ffca4a9fb31ad8001bbfec71"},"geometry":{"type":"Polygon","coordinates":[[[-83.790638,31.773951],[-83.790604,31.77486],[-83.79542,31.774751],[-83.796156,31.771893],[-83.795214,31.771356],[-83.79078,31.769336],[-83.790638,31.773951]]]}},{"type":"Feature","id":"13287:002    004A","properties":{"id":"13287:002    004A","parcelId":"002    004A","countyFips":"13287","countyName":"Turner","state":"Georgia","marketIds":["Valdosta"],"situsAddress":"WARWICK HWY","situsCity":null,"situsZip":"31712","jurisdictionCode":null,"ownerName":"MOORE MICHAEL CHAD & JENNIFER","ownerName2":null,"propertyName":null,"zoningCode":null,"zoningDistrict":null,"jurisdictionPrefix":null,"dorCode":"V","acreage":21.5192,"centroid":[-83.797041,31.774257],"lastSale":{"date":null,"price":null,"qualified":"0"},"tax":{"marketValue":493421.0,"assessedValue":8640.0,"taxableValue":null,"taxes":null},"mailingAddress":{"line1":"9270 WARWICK HWY","line2":null,"city":null,"state":null,"zip":null},"incomeTract":null,"incomeBlockGroup":null,"nearestRoad":null,"flu":null,"opportunityZone":null,"oz2Eligibility":null,"source":"ga-turner-parcels-13287","appraiserUrl":"https://qpublic.schneidercorp.com/Application.aspx?App=turnerCountyGA&Layer=Parcels&PageType=Report&KeyValue=002%20%20%20%20004A","gisViewerUrl":"https://experience.arcgis.com/experience/19b7fdc1ffca4a9fb31ad8001bbfec71"},"geometry":{"type":"Polygon","coordinates":[[[-83.795486,31.775238],[-83.799042,31.775368],[-83.799101,31.774035],[-83.796156,31.771893],[-83.79542,31.774751],[-83.795486,31.775238]]]}},{"type":"Feature","id":"13287:002    004E","properties":{"id":"13287:002    004E","parcelId":"002    004E","countyFips":"13287","countyName":"Turner","state":"Georgia","marketIds":["Valdosta"],"situsAddress":"WARWICK HWY","situsCity":null,"situsZip":null,"jurisdictionCode":null,"ownerName":"HUFF ROBERT J & KATHY","ownerName2":null,"propertyName":null,"zoningCode":null,"zoningDistrict":null,"jurisdictionPrefix":null,"dorCode":"R","acreage":15.9967,"centroid":[-83.795265,31.767832],"lastSale":{"date":null,"price":null,"qualified":"0"},"tax":{"marketValue":40554.0,"assessedValue":29944.0,"taxableValue":null,"taxes":null},"mailingAddress":{"line1":"8851 WARWICK HWY","line2":null,"city":null,"state":null,"zip":null},"incomeTract":null,"incomeBlockGroup":null,"nearestRoad":null,"flu":null,"opportunityZone":null,"oz2Eligibility":null,"source":"ga-turner-parcels-13287","appraiserUrl":"https://qpublic.schneidercorp.com/Application.aspx?App=turnerCountyGA&Layer=Parcels&PageType=Report&KeyValue=002%20%20%20%20004E","gisViewerUrl":"https://experience.arcgis.com/experience/19b7fdc1ffca4a9fb31ad8001bbfec71"},"geometry":{"type":"Polygon","coordinates":[[[-83.793033,31.770141],[-83.793128,31.770185],[-83.794307,31.768228],[-83.796038,31.768985],[-83.797507,31.765961],[-83.797051,31.765707],[-83.795791,31.765619],[-83.793033,31.770141]]]}},{"type":"Feature","id":"13287:002    004J","properties":{"id":"13287:002    004J","parcelId":"002    004J","countyFips":"13287","countyName":"Turner","state":"Georgia","marketIds":["Valdosta"],"situsAddress":"WARWICK HWY","situsCity":null,"situsZip":"31714","jurisdictionCode":null,"ownerName":"DOUGLAS FRANKLIN E & TERESA L","ownerName2":null,"propertyName":null,"zoningCode":null,"zoningDistrict":null,"jurisdictionPrefix":null,"dorCode":"R","acreage":11.261,"centroid":[-83.7922,31.768712],"lastSale":{"date":null,"price":null,"qualified":"0"},"tax":{"marketValue":52655.0,"assessedValue":29275.0,"taxableValue":null,"taxes":null},"mailingAddress":{"line1":"8815 WARWICK HWY","line2":null,"city":null,"state":null,"zip":null},"incomeTract":null,"incomeBlockGroup":null,"nearestRoad":null,"flu":null,"opportunityZone":null,"oz2Eligibility":null,"source":"ga-turner-parcels-13287","appraiserUrl":"https://qpublic.schneidercorp.com/Application.aspx?App=turnerCountyGA&Layer=Parcels&PageType=Report&KeyValue=002%20%20%20%20004J","gisViewerUrl":"https://experience.arcgis.com/experience/19b7fdc1ffca4a9fb31ad8001bbfec71"},"geometry":{"type":"Polygon","coordinates":[[[-83.792391,31.769843],[-83.792957,31.770106],[-83.794139,31.768159],[-83.792914,31.767616],[-83.792397,31.767706],[-83.792003,31.768424],[-83.791461,31.768593],[-83.790773,31.768877],[-83.790763,31.769088],[-83.792391,31.769843]]]}},{"type":"Feature","id":"13287:002    004K","properties":{"id":"13287:002    004K","parcelId":"002    004K","countyFips":"13287","countyName":"Turner","state":"Georgia","marketIds":["Valdosta"],"situsAddress":"WARWICK HWY","situsCity":null,"situsZip":"31712","jurisdictionCode":null,"ownerName":"FULTS FRANK MATTHEW","ownerName2":null,"propertyName":null,"zoningCode":null,"zoningDistrict":null,"jurisdictionPrefix":null,"dorCode":"R","acreage":5.5852,"centroid":[-83.793812,31.767957],"lastSale":{"date":null,"price":null,"qualified":"0"},"tax":{"marketValue":113164.0,"assessedValue":25470.0,"taxableValue":null,"taxes":null},"mailingAddress":{"line1":"4651 AMERICAN LEGION RD","line2":null,"city":null,"state":null,"zip":null},"incomeTract":null,"incomeBlockGroup":null,"nearestRoad":null,"flu":null,"opportunityZone":null,"oz2Eligibility":null,"source":"ga-turner-parcels-13287","appraiserUrl":"https://qpublic.schneidercorp.com/Application.aspx?App=turnerCountyGA&Layer=Parcels&PageType=Report&KeyValue=002%20%20%20%20004K","gisViewerUrl":"https://experience.arcgis.com/experience/19b7fdc1ffca4a9fb31ad8001bbfec71"},"geometry":{"type":"Polygon","coordinates":[[[-83.792957,31.770106],[-83.793033,31.770141],[-83.795791,31.765619],[-83.794364,31.766635],[-83.793488,31.767426],[-83.792914,31.767616],[-83.794139,31.768159],[-83.792957,31.770106]]]}},{"type":"Feature","id":"13287:002    004S","properties":{"id":"13287:002    004S","parcelId":"002    004S","countyFips":"13287","countyName":"Turner","state":"Georgia","marketIds":["Valdosta"],"situsAddress":"WARWICK HWY","situsCity":null,"situsZip":"31714","jurisdictionCode":null,"ownerName":"NRPL TRUST 2019-3","ownerName2":null,"propertyName":null,"zoningCode":null,"zoningDistrict":null,"jurisdictionPrefix":null,"dorCode":"A","acreage":13.044,"centroid":[-83.79718,31.768269],"lastSale":{"date":null,"price":null,"qualified":"0"},"tax":{"marketValue":59851.0,"assessedValue":24750.0,"taxableValue":null,"taxes":null},"mailingAddress":{"line1":"425 S FINANCIAL PLACE","line2":null,"city":null,"state":null,"zip":null},"incomeTract":null,"incomeBlockGroup":null,"nearestRoad":null,"flu":null,"opportunityZone":null,"oz2Eligibility":null,"source":"ga-turner-parcels-13287","appraiserUrl":"https://qpublic.schneidercorp.com/Application.aspx?App=turnerCountyGA&Layer=Parcels&PageType=Report&KeyValue=002%20%20%20%20004S","gisViewerUrl":"https://experience.arcgis.com/experience/19b7fdc1ffca4a9fb31ad8001bbfec71"},"geometry":{"type":"Polygon","coordinates":[[[-83.795943,31.771489],[-83.796009,31.771532],[-83.798908,31.766518],[-83.798145,31.766101],[-83.797844,31.766013],[-83.797507,31.765961],[-83.796038,31.768985],[-83.797048,31.769549],[-83.795943,31.771489]]]}},{"type":"Feature","id":"13287:002    004T","properties":{"id":"13287:002    004T","parcelId":"002    004T","countyFips":"13287","countyName":"Turner","state":"Georgia","marketIds":["Valdosta"],"situsAddress":"WARWICK HWY","situsCity":null,"situsZip":"31714","jurisdictionCode":null,"ownerName":"BURNHAM JIMMY F & CAROLYN","ownerName2":null,"propertyName":null,"zoningCode":null,"zoningDistrict":null,"jurisdictionPrefix":null,"dorCode":"R","acreage":14.9307,"centroid":[-83.797819,31.769501],"lastSale":{"date":null,"price":null,"qualified":"0"},"tax":{"marketValue":128386.0,"assessedValue":27544.0,"taxableValue":null,"taxes":null},"mailingAddress":{"line1":"9125 WARWICK HWY","line2":null,"city":null,"state":null,"zip":null},"incomeTract":null,"incomeBlockGroup":null,"nearestRoad":null,"flu":null,"opportunityZone":null,"oz2Eligibility":null,"source":"ga-turner-parcels-13287","appraiserUrl":"https://qpublic.schneidercorp.com/Application.aspx?App=turnerCountyGA&Layer=Parcels&PageType=Report&KeyValue=002%20%20%20%20004T","gisViewerUrl":"https://experience.arcgis.com/experience/19b7fdc1ffca4a9fb31ad8001bbfec71"},"geometry":{"type":"Polygon","coordinates":[[[-83.796009,31.771532],[-83.796083,31.771585],[-83.797184,31.769674],[-83.799337,31.770856],[-83.799394,31.76684],[-83.798908,31.766518],[-83.796009,31.771532]]]}},{"type":"Feature","id":"13287:002    006","properties":{"id":"13287:002    006","parcelId":"002    006","countyFips":"13287","countyName":"Turner","state":"Georgia","marketIds":["Valdosta"],"situsAddress":"WARWICK HWY","situsCity":null,"situsZip":"31714","jurisdictionCode":null,"ownerName":"JOHNSTON KATIE LYNN ETAL","ownerName2":null,"propertyName":null,"zoningCode":null,"zoningDistrict":null,"jurisdictionPrefix":null,"dorCode":"V","acreage":101.532,"centroid":[-83.795592,31.762573],"lastSale":{"date":null,"price":null,"qualified":"0"},"tax":{"marketValue":154090.0,"assessedValue":null,"taxableValue":null,"taxes":null},"mailingAddress":{"line1":"1117 COFER RD","line2":null,"city":null,"state":null,"zip":null},"incomeTract":null,"incomeBlockGroup":null,"nearestRoad":null,"flu":null,"opportunityZone":null,"oz2Eligibility":null,"source":"ga-turner-parcels-13287","appraiserUrl":"https://qpublic.schneidercorp.com/Application.aspx?App=turnerCountyGA&Layer=Parcels&PageType=Report&KeyValue=002%20%20%20%20006","gisViewerUrl":"https://experience.arcgis.com/experience/19b7fdc1ffca4a9fb31ad8001bbfec71"},"geometry":{"type":"Polygon","coordinates":[[[-83.790837,31.760732],[-83.790815,31.765291],[-83.799414,31.765285],[-83.799479,31.760809],[-83.797416,31.760749],[-83.790837,31.760732]]]}},{"type":"Feature","id":"13287:002    010","properties":{"id":"13287:002    010","parcelId":"002    010","countyFips":"13287","countyName":"Turner","state":"Georgia","marketIds":["Valdosta"],"situsAddress":"WARWICK HWY","situsCity":null,"situsZip":"31714","jurisdictionCode":null,"ownerName":"WARD HOLDINGS III LLC","ownerName2":null,"propertyName":null,"zoningCode":null,"zoningDistrict":null,"jurisdictionPrefix":null,"dorCode":"V","acreage":115.938,"centroid":[-83.782825,31.76279],"lastSale":{"date":null,"price":null,"qualified":"0"},"tax":{"marketValue":106909.0,"assessedValue":null,"taxableValue":null,"taxes":null},"mailingAddress":{"line1":"1330 WARWICK HWY","line2":null,"city":null,"state":null,"zip":null},"incomeTract":null,"incomeBlockGroup":null,"nearestRoad":null,"flu":null,"opportunityZone":null,"oz2Eligibility":null,"source":"ga-turner-parcels-13287","appraiserUrl":"https://qpublic.schneidercorp.com/Application.aspx?App=turnerCountyGA&Layer=Parcels&PageType=Report&KeyValue=002%20%20%20%20010","gisViewerUrl":"https://experience.arcgis.com/experience/19b7fdc1ffca4a9fb31ad8001bbfec71"},"geometry":{"type":"MultiPolygon","coordinates":[[[[-83.779669,31.761912],[-83.782561,31.76431],[-83.786094,31.766482],[-83.786127,31.760667],[-83.779675,31.760579],[-83.779669,31.761912]]],[[[-83.77964,31.767841],[-83.786086,31.767835],[-83.786092,31.766754],[-83.782402,31.764484],[-83.779667,31.762251],[-83.77964,31.767841]]]]}},{"type":"Feature","id":"13287:002    010A","properties":{"id":"13287:002    010A","parcelId":"002    010A","countyFips":"13287","countyName":"Turner","state":"Georgia","marketIds":["Valdosta"],"situsAddress":"WARWICK HWY","situsCity":null,"situsZip":"31714","jurisdictionCode":null,"ownerName":"WARD HOLDINGS III LLC","ownerName2":null,"propertyName":null,"zoningCode":null,"zoningDistrict":null,"jurisdictionPrefix":null,"dorCode":"V","acreage":53.5357,"centroid":[-83.781938,31.758355],"lastSale":{"date":null,"price":null,"qualified":"0"},"tax":{"marketValue":38508.0,"assessedValue":null,"taxableValue":null,"taxes":null},"mailingAddress":{"line1":"1330 WARWICK HWY","line2":null,"city":null,"state":null,"zip":null},"incomeTract":null,"incomeBlockGroup":null,"nearestRoad":null,"flu":null,"opportunityZone":null,"oz2Eligibility":null,"source":"ga-turner-parcels-13287","appraiserUrl":"https://qpublic.schneidercorp.com/Application.aspx?App=turnerCountyGA&Layer=Parcels&PageType=Report&KeyValue=002%20%20%20%20010A","gisViewerUrl":"https://experience.arcgis.com/experience/19b7fdc1ffca4a9fb31ad8001bbfec71"},"geometry":{"type":"Polygon","coordinates":[[[-83.779675,31.760579],[-83.784241,31.760631],[-83.78422,31.756137],[-83.779617,31.756074],[-83.779675,31.760579]]]}},{"type":"Feature","id":"13287:002    011","properties":{"id":"13287:002    011","parcelId":"002    011","countyFips":"13287","countyName":"Turner","state":"Georgia","marketIds":["Valdosta"],"situsAddress":"WARWICK HWY","situsCity":null,"situsZip":"31714","jurisdictionCode":null,"ownerName":"BEYEL MARK J","ownerName2":null,"propertyName":null,"zoningCode":null,"zoningDistrict":null,"jurisdictionPrefix":null,"dorCode":"J","acreage":31.063,"centroid":[-83.774042,31.768099],"lastSale":{"date":null,"price":null,"qualified":"0"},"tax":{"marketValue":50061.0,"assessedValue":null,"taxableValue":null,"taxes":null},"mailingAddress":{"line1":"2325 ROCKLEDGE DR","line2":null,"city":null,"state":null,"zip":null},"incomeTract":null,"incomeBlockGroup":null,"nearestRoad":null,"flu":null,"opportunityZone":null,"oz2Eligibility":null,"source":"ga-turner-parcels-13287","appraiserUrl":"https://qpublic.schneidercorp.com/Application.aspx?App=turnerCountyGA&Layer=Parcels&PageType=Report&KeyValue=002%20%20%20%20011","gisViewerUrl":"https://experience.arcgis.com/experience/19b7fdc1ffca4a9fb31ad8001bbfec71"},"geometry":{"type":"Polygon","coordinates":[[[-83.774511,31.768623],[-83.774914,31.768824],[-83.774723,31.768499],[-83.774432,31.768121],[-83.773845,31.76761],[-83.773062,31.767074],[-83.772112,31.767018],[-83.771676,31.766272],[-83.771168,31.765773],[-83.77109,31.765336],[-83.771808,31.764999],[-83.77207,31.764594],[-83.772001,31.764083],[-83.772215,31.763491],[-83.771933,31.76304],[-83.771768,31.762356],[-83.771054,31.762165],[-83.770582,31.761786],[-83.770491,31.761571],[-83.770397,31.76141],[-83.770257,31.76766],[-83.770554,31.767698],[-83.770891,31.767992],[-83.771499,31.768406],[-83.772007,31.768138],[-83.772601,31.768333],[-83.773157,31.768607],[-83.77385,31.768559],[-83.774511,31.768623]]]}},{"type":"Feature","id":"13287:002    013","properties":{"id":"13287:002    013","parcelId":"002    013","countyFips":"13287","countyName":"Turner","state":"Georgia","marketIds":["Valdosta"],"situsAddress":"LEE RD","situsCity":null,"situsZip":"31712","jurisdictionCode":null,"ownerName":"WARD HOLDINGS III LLC","ownerName2":null,"propertyName":null,"zoningCode":null,"zoningDistrict":null,"jurisdictionPrefix":null,"dorCode":"V","acreage":108.087,"centroid":[-83.769779,31.760058],"lastSale":{"date":null,"price":null,"qualified":"0"},"tax":{"marketValue":90875.0,"assessedValue":null,"taxableValue":null,"taxes":null},"mailingAddress":{"line1":"1330 WARWICK HWY","line2":null,"city":null,"state":null,"zip":null},"incomeTract":null,"incomeBlockGroup":null,"nearestRoad":null,"flu":null,"opportunityZone":null,"oz2Eligibility":null,"source":"ga-turner-parcels-13287","appraiserUrl":"https://qpublic.schneidercorp.com/Application.aspx?App=turnerCountyGA&Layer=Parcels&PageType=Report&KeyValue=002%20%20%20%20013","gisViewerUrl":"https://experience.arcgis.com/experience/19b7fdc1ffca4a9fb31ad8001bbfec71"},"geometry":{"type":"Polygon","coordinates":[[[-83.770283,31.760715],[-83.770236,31.760873],[-83.770416,31.76087],[-83.77042,31.760765],[-83.770432,31.75182],[-83.770047,31.751637],[-83.762928,31.75172],[-83.762819,31.754427],[-83.762699,31.755189],[-83.763139,31.755157],[-83.765056,31.756099],[-83.76569,31.756308],[-83.766646,31.756045],[-83.767304,31.756176],[-83.767763,31.756425],[-83.768335,31.757205],[-83.768147,31.75759],[-83.767974,31.758173],[-83.768204,31.758807],[-83.76825,31.759197],[-83.768675,31.759433],[-83.769093,31.760072],[-83.769575,31.760146],[-83.769969,31.760365],[-83.770008,31.760551],[-83.770283,31.760715]]]}},{"type":"Feature","id":"13287:002    013A","properties":{"id":"13287:002    013A","parcelId":"002    013A","countyFips":"13287","countyName":"Turner","state":"Georgia","marketIds":["Valdosta"],"situsAddress":"LEE RD","situsCity":null,"situsZip":"31712","jurisdictionCode":null,"ownerName":"BEYEL MARK J","ownerName2":null,"propertyName":null,"zoningCode":null,"zoningDistrict":null,"jurisdictionPrefix":null,"dorCode":"J","acreage":94.4301,"centroid":[-83.767447,31.758532],"lastSale":{"date":null,"price":null,"qualified":"0"},"tax":{"marketValue":111695.0,"assessedValue":null,"taxableValue":null,"taxes":null},"mailingAddress":{"line1":"2325 ROCKLEDGE DR","line2":null,"city":null,"state":null,"zip":null},"incomeTract":null,"incomeBlockGroup":null,"nearestRoad":null,"flu":null,"opportunityZone":null,"oz2Eligibility":null,"source":"ga-turner-parcels-13287","appraiserUrl":"https://qpublic.schneidercorp.com/Application.aspx?App=turnerCountyGA&Layer=Parcels&PageType=Report&KeyValue=002%20%20%20%20013A","gisViewerUrl":"https://experience.arcgis.com/experience/19b7fdc1ffca4a9fb31ad8001bbfec71"},"geometry":{"type":"Polygon","coordinates":[[[-83.762235,31.758131],[-83.761178,31.761405],[-83.770399,31.761297],[-83.770416,31.76087],[-83.770236,31.760873],[-83.770283,31.760715],[-83.770008,31.760551],[-83.769969,31.760365],[-83.769575,31.760146],[-83.769093,31.760072],[-83.768675,31.759433],[-83.76825,31.759197],[-83.768204,31.758807],[-83.767974,31.758173],[-83.768147,31.75759],[-83.768335,31.757205],[-83.767763,31.756425],[-83.767304,31.756176],[-83.766646,31.756045],[-83.76569,31.756308],[-83.765056,31.756099],[-83.763139,31.755157],[-83.762699,31.755189],[-83.762235,31.758131]]]}},{"type":"Feature","id":"13287:002    014","properties":{"id":"13287:002    014","parcelId":"002    014","countyFips":"13287","countyName":"Turner","state":"Georgia","marketIds":["Valdosta"],"situsAddress":"LEE RD","situsCity":null,"situsZip":"31712","jurisdictionCode":null,"ownerName":"WARD HOLDINGS III LLC","ownerName2":null,"propertyName":null,"zoningCode":null,"zoningDistrict":null,"jurisdictionPrefix":null,"dorCode":"V","acreage":43.7626,"centroid":[-83.760885,31.769513],"lastSale":{"date":null,"price":null,"qualified":"0"},"tax":{"marketValue":38672.0,"assessedValue":null,"taxableValue":null,"taxes":null},"mailingAddress":{"line1":"1330 WARWICK HWY","line2":null,"city":null,"state":null,"zip":null},"incomeTract":null,"incomeBlockGroup":null,"nearestRoad":null,"flu":null,"opportunityZone":null,"oz2Eligibility":null,"source":"ga-turner-parcels-13287","appraiserUrl":"https://qpublic.schneidercorp.com/Application.aspx?App=turnerCountyGA&Layer=Parcels&PageType=Report&KeyValue=002%20%20%20%20014","gisViewerUrl":"https://experience.arcgis.com/experience/19b7fdc1ffca4a9fb31ad8001bbfec71"},"geometry":{"type":"Polygon","coordinates":[[[-83.760674,31.770601],[-83.76554,31.770664],[-83.764683,31.769692],[-83.761521,31.765073],[-83.760997,31.7642],[-83.76086,31.763772],[-83.760724,31.762633],[-83.760775,31.762174],[-83.760977,31.761407],[-83.760556,31.761412],[-83.760674,31.770601]]]}},{"type":"Feature","id":"13287:002    015","properties":{"id":"13287:002    015","parcelId":"002    015","countyFips":"13287","countyName":"Turner","state":"Georgia","marketIds":["Valdosta"],"situsAddress":"LEE RD","situsCity":null,"situsZip":"31712","jurisdictionCode":null,"ownerName":"TAYLOR LINDA JOY LEE","ownerName2":null,"propertyName":null,"zoningCode":null,"zoningDistrict":null,"jurisdictionPrefix":null,"dorCode":"V","acreage":104.225,"centroid":[-83.765556,31.773009],"lastSale":{"date":null,"price":null,"qualified":"0"},"tax":{"marketValue":243166.0,"assessedValue":7051.0,"taxableValue":null,"taxes":null},"mailingAddress":{"line1":"1721 LEE ROAD","line2":null,"city":null,"state":null,"zip":null},"incomeTract":null,"incomeBlockGroup":null,"nearestRoad":null,"flu":null,"opportunityZone":null,"oz2Eligibility":null,"source":"ga-turner-parcels-13287","appraiserUrl":"https://qpublic.schneidercorp.com/Application.aspx?App=turnerCountyGA&Layer=Parcels&PageType=Report&KeyValue=002%20%20%20%20015","gisViewerUrl":"https://experience.arcgis.com/experience/19b7fdc1ffca4a9fb31ad8001bbfec71"},"geometry":{"type":"MultiPolygon","coordinates":[[[[-83.760685,31.775173],[-83.768871,31.775256],[-83.768492,31.774446],[-83.767565,31.77278],[-83.767063,31.77214],[-83.76554,31.770664],[-83.760674,31.770601],[-83.760685,31.775173]]],[[[-83.767213,31.772035],[-83.767734,31.7727],[-83.768281,31.77371],[-83.769018,31.773794],[-83.770069,31.774214],[-83.770189,31.770724],[-83.765847,31.770668],[-83.767213,31.772035]]]]}},{"type":"Feature","id":"13287:002    016","properties":{"id":"13287:002    016","parcelId":"002    016","countyFips":"13287","countyName":"Turner","state":"Georgia","marketIds":["Valdosta"],"situsAddress":"LEE RD","situsCity":null,"situsZip":"31714","jurisdictionCode":null,"ownerName":"WARD HOLDINGS III LLC","ownerName2":null,"propertyName":null,"zoningCode":null,"zoningDistrict":null,"jurisdictionPrefix":null,"dorCode":"V","acreage":104.509,"centroid":[-83.767131,31.778042],"lastSale":{"date":null,"price":null,"qualified":"0"},"tax":{"marketValue":142074.0,"assessedValue":null,"taxableValue":null,"taxes":null},"mailingAddress":{"line1":"1330 WARWICK HWY","line2":null,"city":null,"state":null,"zip":null},"incomeTract":null,"incomeBlockGroup":null,"nearestRoad":null,"flu":null,"opportunityZone":null,"oz2Eligibility":null,"source":"ga-turner-parcels-13287","appraiserUrl":"https://qpublic.schneidercorp.com/Application.aspx?App=turnerCountyGA&Layer=Parcels&PageType=Report&KeyValue=002%20%20%20%20016","gisViewerUrl":"https://experience.arcgis.com/experience/19b7fdc1ffca4a9fb31ad8001bbfec71"},"geometry":{"type":"MultiPolygon","coordinates":[[[[-83.760696,31.779593],[-83.769853,31.779658],[-83.769898,31.779659],[-83.769906,31.778477],[-83.770007,31.778478],[-83.768871,31.775256],[-83.760685,31.775173],[-83.760696,31.779593]]],[[[-83.769854,31.777476],[-83.769937,31.77771],[-83.770032,31.775268],[-83.769068,31.775258],[-83.769854,31.777476]]]]}},{"type":"Feature","id":"13287:003    005","properties":{"id":"13287:003    005","parcelId":"003    005","countyFips":"13287","countyName":"Turner","state":"Georgia","marketIds":["Valdosta"],"situsAddress":"WARWICK HWY","situsCity":null,"situsZip":"31714","jurisdictionCode":null,"ownerName":"WARD HOLDINGS III LLC","ownerName2":null,"propertyName":null,"zoningCode":null,"zoningDistrict":null,"jurisdictionPrefix":null,"dorCode":"J","acreage":47.6725,"centroid":[-83.766053,31.750493],"lastSale":{"date":null,"price":null,"qualified":"0"},"tax":{"marketValue":56309.0,"assessedValue":null,"taxableValue":null,"taxes":null},"mailingAddress":{"line1":"1330 WARWICK HWY","line2":null,"city":null,"state":null,"zip":null},"incomeTract":null,"incomeBlockGroup":null,"nearestRoad":null,"flu":null,"opportunityZone":null,"oz2Eligibility":null,"source":"ga-turner-parcels-13287","appraiserUrl":"https://qpublic.schneidercorp.com/Application.aspx?App=turnerCountyGA&Layer=Parcels&PageType=Report&KeyValue=003%20%20%20%20005","gisViewerUrl":"https://experience.arcgis.com/experience/19b7fdc1ffca4a9fb31ad8001bbfec71"},"geometry":{"type":"MultiPolygon","coordinates":[[[[-83.762928,31.75172],[-83.770047,31.751637],[-83.768757,31.751024],[-83.766142,31.749578],[-83.762393,31.748505],[-83.762928,31.75172]]],[[[-83.760617,31.751412],[-83.761544,31.751263],[-83.762672,31.751284],[-83.762307,31.749363],[-83.762193,31.748454],[-83.760728,31.748056],[-83.760617,31.751412]]]]}},{"type":"Feature","id":"13287:008    001","properties":{"id":"13287:008    001","parcelId":"008    001","countyFips":"13287","countyName":"Turner","state":"Georgia","marketIds":["Valdosta"],"situsAddress":"MEAD RD","situsCity":null,"situsZip":"31714","jurisdictionCode":null,"ownerName":"A&E  PROPERTIES LLC","ownerName2":null,"propertyName":null,"zoningCode":null,"zoningDistrict":null,"jurisdictionPrefix":null,"dorCode":"V","acreage":118.873,"centroid":[-83.752897,31.792567],"lastSale":{"date":null,"price":null,"qualified":"0"},"tax":{"marketValue":146498.0,"assessedValue":null,"taxableValue":null,"taxes":null},"mailingAddress":{"line1":"150 D LANGSTON ROAD","line2":null,"city":null,"state":null,"zip":null},"incomeTract":null,"incomeBlockGroup":null,"nearestRoad":null,"flu":null,"opportunityZone":null,"oz2Eligibility":null,"source":"ga-turner-parcels-13287","appraiserUrl":"https://qpublic.schneidercorp.com/Application.aspx?App=turnerCountyGA&Layer=Parcels&PageType=Report&KeyValue=008%20%20%20%20001","gisViewerUrl":"https://experience.arcgis.com/experience/19b7fdc1ffca4a9fb31ad8001bbfec71"},"geometry":{"type":"Polygon","coordinates":[[[-83.752076,31.794247],[-83.75985,31.796444],[-83.760079,31.789915],[-83.756041,31.790651],[-83.750485,31.791156],[-83.749485,31.791168],[-83.749446,31.792592],[-83.749318,31.793001],[-83.749292,31.793927],[-83.752076,31.794247]]]}},{"type":"Feature","id":"13287:008    018","properties":{"id":"13287:008    018","parcelId":"008    018","countyFips":"13287","countyName":"Turner","state":"Georgia","marketIds":["Valdosta"],"situsAddress":"MCKENZIE RD","situsCity":null,"situsZip":"31714","jurisdictionCode":null,"ownerName":"A&E  PROPERTIES LLC","ownerName2":null,"propertyName":null,"zoningCode":null,"zoningDistrict":null,"jurisdictionPrefix":null,"dorCode":"V","acreage":10.6364,"centroid":[-83.759593,31.781724],"lastSale":{"date":null,"price":null,"qualified":"0"},"tax":{"marketValue":20409.0,"assessedValue":null,"taxableValue":null,"taxes":null},"mailingAddress":{"line1":"150 D LANGSTON ROAD","line2":null,"city":null,"state":null,"zip":null},"incomeTract":null,"incomeBlockGroup":null,"nearestRoad":null,"flu":null,"opportunityZone":null,"oz2Eligibility":null,"source":"ga-turner-parcels-13287","appraiserUrl":"https://qpublic.schneidercorp.com/Application.aspx?App=turnerCountyGA&Layer=Parcels&PageType=Report&KeyValue=008%20%20%20%20018","gisViewerUrl":"https://experience.arcgis.com/experience/19b7fdc1ffca4a9fb31ad8001bbfec71"},"geometry":{"type":"Polygon","coordinates":[[[-83.759026,31.783424],[-83.760019,31.783981],[-83.760193,31.779743],[-83.759133,31.779749],[-83.759026,31.783424]]]}},{"type":"Feature","id":"13287:008    019","properties":{"id":"13287:008    019","parcelId":"008    019","countyFips":"13287","countyName":"Turner","state":"Georgia","marketIds":["Valdosta"],"situsAddress":"MCKENZIE RD","situsCity":null,"situsZip":"31714","jurisdictionCode":null,"ownerName":"A&E  PROPERTIES LLC","ownerName2":null,"propertyName":null,"zoningCode":null,"zoningDistrict":null,"jurisdictionPrefix":null,"dorCode":"V","acreage":20.6793,"centroid":[-83.757802,31.78173],"lastSale":{"date":null,"price":null,"qualified":"0"},"tax":{"marketValue":38573.0,"assessedValue":null,"taxableValue":null,"taxes":null},"mailingAddress":{"line1":"150 D LANGSTON ROAD","line2":null,"city":null,"state":null,"zip":null},"incomeTract":null,"incomeBlockGroup":null,"nearestRoad":null,"flu":null,"opportunityZone":null,"oz2Eligibility":null,"source":"ga-turner-parcels-13287","appraiserUrl":"https://qpublic.schneidercorp.com/Application.aspx?App=turnerCountyGA&Layer=Parcels&PageType=Report&KeyValue=008%20%20%20%20019","gisViewerUrl":"https://experience.arcgis.com/experience/19b7fdc1ffca4a9fb31ad8001bbfec71"},"geometry":{"type":"Polygon","coordinates":[[[-83.757101,31.783383],[-83.759026,31.783424],[-83.759133,31.779749],[-83.756974,31.779766],[-83.756774,31.782327],[-83.757101,31.783383]]]}},{"type":"Feature","id":"13287:008    020","properties":{"id":"13287:008    020","parcelId":"008    020","countyFips":"13287","countyName":"Turner","state":"Georgia","marketIds":["Valdosta"],"situsAddress":"MCKENZIE RD","situsCity":null,"situsZip":"31714","jurisdictionCode":null,"ownerName":"A&E  PROPERTIES LLC","ownerName2":null,"propertyName":null,"zoningCode":null,"zoningDistrict":null,"jurisdictionPrefix":null,"dorCode":"V","acreage":111.249,"centroid":[-83.751758,31.784677],"lastSale":{"date":null,"price":null,"qualified":"0"},"tax":{"marketValue":77300.0,"assessedValue":null,"taxableValue":null,"taxes":null},"mailingAddress":{"line1":"150 D LANGSTON ROAD","line2":null,"city":null,"state":null,"zip":null},"incomeTract":null,"incomeBlockGroup":null,"nearestRoad":null,"flu":null,"opportunityZone":null,"oz2Eligibility":null,"source":"ga-turner-parcels-13287","appraiserUrl":"https://qpublic.schneidercorp.com/Application.aspx?App=turnerCountyGA&Layer=Parcels&PageType=Report&KeyValue=008%20%20%20%20020","gisViewerUrl":"https://experience.arcgis.com/experience/19b7fdc1ffca4a9fb31ad8001bbfec71"},"geometry":{"type":"Polygon","coordinates":[[[-83.749587,31.787384],[-83.749565,31.7882],[-83.754688,31.7882],[-83.755011,31.779782],[-83.749937,31.779821],[-83.749587,31.787384]]]}},{"type":"Feature","id":"13287:009    001A","properties":{"id":"13287:009    001A","parcelId":"009    001A","countyFips":"13287","countyName":"Turner","state":"Georgia","marketIds":["Valdosta"],"situsAddress":"MCKENZIE RD","situsCity":null,"situsZip":"31714","jurisdictionCode":null,"ownerName":"WARD HOLDINGS III LLC","ownerName2":null,"propertyName":null,"zoningCode":null,"zoningDistrict":null,"jurisdictionPrefix":null,"dorCode":"V","acreage":75.3913,"centroid":[-83.753565,31.773605],"lastSale":{"date":null,"price":null,"qualified":"0"},"tax":{"marketValue":98353.0,"assessedValue":null,"taxableValue":null,"taxes":null},"mailingAddress":{"line1":"1330 WARWICK HWY","line2":null,"city":null,"state":null,"zip":null},"incomeTract":null,"incomeBlockGroup":null,"nearestRoad":null,"flu":null,"opportunityZone":null,"oz2Eligibility":null,"source":"ga-turner-parcels-13287","appraiserUrl":"https://qpublic.schneidercorp.com/Application.aspx?App=turnerCountyGA&Layer=Parcels&PageType=Report&KeyValue=009%20%20%20%20001A","gisViewerUrl":"https://experience.arcgis.com/experience/19b7fdc1ffca4a9fb31ad8001bbfec71"},"geometry":{"type":"Polygon","coordinates":[[[-83.749897,31.775862],[-83.749986,31.775904],[-83.750258,31.77603],[-83.75055,31.77701],[-83.751097,31.777012],[-83.751318,31.776729],[-83.751718,31.776613],[-83.75271,31.776614],[-83.75334,31.775733],[-83.754326,31.77564],[-83.754557,31.775399],[-83.755303,31.775412],[-83.756025,31.775305],[-83.756373,31.7742],[-83.75605,31.77367],[-83.755621,31.77352],[-83.756003,31.773296],[-83.756315,31.773038],[-83.756753,31.772936],[-83.756909,31.772758],[-83.756687,31.772069],[-83.756649,31.771398],[-83.756327,31.771408],[-83.756191,31.771867],[-83.755846,31.771824],[-83.755438,31.770544],[-83.752768,31.770515],[-83.751911,31.770738],[-83.751423,31.771529],[-83.751726,31.771959],[-83.753095,31.772521],[-83.754228,31.772926],[-83.754958,31.77346],[-83.754738,31.773529],[-83.753506,31.773158],[-83.753021,31.773138],[-83.752596,31.772819],[-83.751626,31.772874],[-83.751192,31.773381],[-83.750637,31.77263],[-83.750138,31.772189],[-83.749921,31.772238],[-83.749897,31.775862]]]}},{"type":"Feature","id":"13287:009    006","properties":{"id":"13287:009    006","parcelId":"009    006","countyFips":"13287","countyName":"Turner","state":"Georgia","marketIds":["Valdosta"],"situsAddress":"MCNAIR RD","situsCity":null,"situsZip":"31714","jurisdictionCode":null,"ownerName":"WARD DUSTIN C AND JIM DILLON","ownerName2":null,"propertyName":null,"zoningCode":null,"zoningDistrict":null,"jurisdictionPrefix":null,"dorCode":"V","acreage":75.2973,"centroid":[-83.752192,31.758057],"lastSale":{"date":null,"price":null,"qualified":"0"},"tax":{"marketValue":323889.0,"assessedValue":5045.0,"taxableValue":null,"taxes":null},"mailingAddress":{"line1":"723 WARD RD","line2":null,"city":null,"state":null,"zip":null},"incomeTract":null,"incomeBlockGroup":null,"nearestRoad":null,"flu":null,"opportunityZone":null,"oz2Eligibility":null,"source":"ga-turner-parcels-13287","appraiserUrl":"https://qpublic.schneidercorp.com/Application.aspx?App=turnerCountyGA&Layer=Parcels&PageType=Report&KeyValue=009%20%20%20%20006","gisViewerUrl":"https://experience.arcgis.com/experience/19b7fdc1ffca4a9fb31ad8001bbfec71"},"geometry":{"type":"Polygon","coordinates":[[[-83.749917,31.761368],[-83.757383,31.761399],[-83.752979,31.755067],[-83.752085,31.755923],[-83.750871,31.757008],[-83.749916,31.757579],[-83.749917,31.761368]]]}},{"type":"Feature","id":"13287:001    020H","properties":{"id":"13287:001    020H","parcelId":"001    020H","countyFips":"13287","countyName":"Turner","state":"Georgia","marketIds":["Valdosta"],"situsAddress":null,"situsCity":null,"situsZip":null,"jurisdictionCode":null,"ownerName":null,"ownerName2":null,"propertyName":null,"zoningCode":null,"zoningDistrict":null,"jurisdictionPrefix":null,"dorCode":null,"acreage":19.9999,"centroid":[-83.769078,31.786528],"lastSale":{"date":null,"price":null,"qualified":"0"},"tax":{"marketValue":null,"assessedValue":null,"taxableValue":null,"taxes":null},"mailingAddress":{"line1":null,"line2":null,"city":null,"state":null,"zip":null},"incomeTract":null,"incomeBlockGroup":null,"nearestRoad":null,"flu":null,"opportunityZone":null,"oz2Eligibility":null,"source":"ga-turner-parcels-13287","appraiserUrl":"https://qpublic.schneidercorp.com/Application.aspx?App=turnerCountyGA&Layer=Parcels&PageType=Report&KeyValue=001%20%20%20%20020H","gisViewerUrl":"https://experience.arcgis.com/experience/19b7fdc1ffca4a9fb31ad8001bbfec71"},"geometry":{"type":"Polygon","coordinates":[[[-83.766803,31.785419],[-83.766747,31.787891],[-83.769748,31.78781],[-83.769773,31.787586],[-83.770078,31.7859],[-83.77015,31.78566],[-83.770249,31.785427],[-83.766803,31.785419]]]}},{"type":"Feature","id":"13287:ND - 5830","properties":{"id":"13287:ND - 5830","parcelId":"ND - 5830","countyFips":"13287","countyName":"Turner","state":"Georgia","marketIds":["Valdosta"],"situsAddress":null,"situsCity":null,"situsZip":"31712","jurisdictionCode":null,"ownerName":"COOK DARLA J & COOK CHARLES E SR","ownerName2":null,"propertyName":null,"zoningCode":null,"zoningDistrict":null,"jurisdictionPrefix":null,"dorCode":"V","acreage":12.8824,"centroid":[-83.766933,31.788327],"lastSale":{"date":null,"price":null,"qualified":"0"},"tax":{"marketValue":28600.0,"assessedValue":null,"taxableValue":null,"taxes":null},"mailingAddress":{"line1":null,"line2":null,"city":null,"state":null,"zip":null},"incomeTract":null,"incomeBlockGroup":null,"nearestRoad":null,"flu":null,"opportunityZone":null,"oz2Eligibility":null,"source":"ga-turner-parcels-13287","appraiserUrl":"https://qpublic.schneidercorp.com/Application.aspx?App=turnerCountyGA&Layer=Parcels&PageType=Report&KeyValue=ND%20-%205830","gisViewerUrl":"https://experience.arcgis.com/experience/19b7fdc1ffca4a9fb31ad8001bbfec71"},"geometry":{"type":"Polygon","coordinates":[[[-83.764118,31.788748],[-83.76971,31.788798],[-83.769748,31.78781],[-83.764156,31.787952],[-83.764118,31.788748]]]}},{"type":"Feature","id":"13287:ND - 5947","properties":{"id":"13287:ND - 5947","parcelId":"ND - 5947","countyFips":"13287","countyName":"Turner","state":"Georgia","marketIds":["Valdosta"],"situsAddress":null,"situsCity":null,"situsZip":"31712","jurisdictionCode":null,"ownerName":"COOK CHARLES E AND DARLA J","ownerName2":null,"propertyName":null,"zoningCode":null,"zoningDistrict":null,"jurisdictionPrefix":null,"dorCode":"V","acreage":21.48,"centroid":[-83.764912,31.78996],"lastSale":{"date":null,"price":null,"qualified":"0"},"tax":{"marketValue":49614.0,"assessedValue":null,"taxableValue":null,"taxes":null},"mailingAddress":{"line1":null,"line2":null,"city":null,"state":null,"zip":null},"incomeTract":null,"incomeBlockGroup":null,"nearestRoad":null,"flu":null,"opportunityZone":null,"oz2Eligibility":null,"source":"ga-turner-parcels-13287","appraiserUrl":"https://qpublic.schneidercorp.com/Application.aspx?App=turnerCountyGA&Layer=Parcels&PageType=Report&KeyValue=ND%20-%205947","gisViewerUrl":"https://experience.arcgis.com/experience/19b7fdc1ffca4a9fb31ad8001bbfec71"},"geometry":{"type":"Polygon","coordinates":[[[-83.760079,31.789915],[-83.76005,31.790732],[-83.762464,31.790732],[-83.762488,31.790046],[-83.769887,31.790045],[-83.76976,31.789847],[-83.769686,31.789601],[-83.769695,31.789358],[-83.760099,31.789361],[-83.760079,31.789915]]]}},{"type":"Feature","id":"13287:ND - 5990","properties":{"id":"13287:ND - 5990","parcelId":"ND - 5990","countyFips":"13287","countyName":"Turner","state":"Georgia","marketIds":["Valdosta"],"situsAddress":null,"situsCity":null,"situsZip":"31712","jurisdictionCode":null,"ownerName":"OSBORNE BILLY JOHN & SARA D","ownerName2":null,"propertyName":null,"zoningCode":null,"zoningDistrict":null,"jurisdictionPrefix":null,"dorCode":"V","acreage":16.0921,"centroid":[-83.76536,31.791024],"lastSale":{"date":null,"price":null,"qualified":"0"},"tax":{"marketValue":35332.0,"assessedValue":null,"taxableValue":null,"taxes":null},"mailingAddress":{"line1":null,"line2":null,"city":null,"state":null,"zip":null},"incomeTract":null,"incomeBlockGroup":null,"nearestRoad":null,"flu":null,"opportunityZone":null,"oz2Eligibility":null,"source":"ga-turner-parcels-13287","appraiserUrl":"https://qpublic.schneidercorp.com/Application.aspx?App=turnerCountyGA&Layer=Parcels&PageType=Report&KeyValue=ND%20-%205990","gisViewerUrl":"https://experience.arcgis.com/experience/19b7fdc1ffca4a9fb31ad8001bbfec71"},"geometry":{"type":"Polygon","coordinates":[[[-83.76005,31.790732],[-83.76003,31.791315],[-83.770922,31.791315],[-83.77044,31.790732],[-83.76005,31.790732]]]}}]}