{"type":"FeatureCollection","name":"13175--1_20","features":[{"type":"Feature","id":"13175:064    001","properties":{"id":"13175:064    001","parcelId":"064    001","countyFips":"13175","countyName":"Laurens","state":"Georgia","marketIds":["Macon"],"situsAddress":null,"situsCity":null,"situsZip":null,"jurisdictionCode":null,"ownerName":null,"ownerName2":null,"propertyName":null,"zoningCode":null,"zoningDistrict":null,"jurisdictionPrefix":null,"dorCode":null,"acreage":41.3347,"centroid":[-83.040125,32.247582],"lastSale":{"date":null,"price":null,"qualified":null},"tax":{"marketValue":null,"assessedValue":null,"taxableValue":null,"taxes":null},"mailingAddress":{"line1":null,"line2":null,"city":null,"state":null,"zip":null},"incomeTract":null,"incomeBlockGroup":null,"nearestRoad":null,"flu":null,"opportunityZone":null,"oz2Eligibility":null,"source":"ga-laurens-parcels-13175","appraiserUrl":"https://qpublic.schneidercorp.com/Application.aspx?App=LaurensCountyGA&Layer=Parcels&PageType=Report&KeyValue=064%20%20%20%20001","gisViewerUrl":"https://hogarc-hogarc.opendata.arcgis.com/datasets/HHvUPZ2XuLOAJxjR::laurens-county-wide-view/explore"},"geometry":{"type":"Polygon","coordinates":[[[-83.039473,32.249203],[-83.040139,32.249878],[-83.042179,32.248293],[-83.043564,32.247109],[-83.042079,32.244449],[-83.041911,32.244105],[-83.037797,32.247625],[-83.038056,32.247829],[-83.038367,32.248041],[-83.03872,32.248242],[-83.039088,32.248633],[-83.039473,32.249203]]]}},{"type":"Feature","id":"13175:065    002","properties":{"id":"13175:065    002","parcelId":"065    002","countyFips":"13175","countyName":"Laurens","state":"Georgia","marketIds":["Macon"],"situsAddress":null,"situsCity":null,"situsZip":null,"jurisdictionCode":null,"ownerName":null,"ownerName2":null,"propertyName":null,"zoningCode":null,"zoningDistrict":null,"jurisdictionPrefix":null,"dorCode":null,"acreage":120.2949,"centroid":[-83.034754,32.245938],"lastSale":{"date":null,"price":null,"qualified":null},"tax":{"marketValue":null,"assessedValue":null,"taxableValue":null,"taxes":null},"mailingAddress":{"line1":null,"line2":null,"city":null,"state":null,"zip":null},"incomeTract":null,"incomeBlockGroup":null,"nearestRoad":null,"flu":null,"opportunityZone":null,"oz2Eligibility":null,"source":"ga-laurens-parcels-13175","appraiserUrl":"https://qpublic.schneidercorp.com/Application.aspx?App=LaurensCountyGA&Layer=Parcels&PageType=Report&KeyValue=065%20%20%20%20002","gisViewerUrl":"https://hogarc-hogarc.opendata.arcgis.com/datasets/HHvUPZ2XuLOAJxjR::laurens-county-wide-view/explore"},"geometry":{"type":"Polygon","coordinates":[[[-83.037293,32.247393],[-83.037797,32.247625],[-83.041911,32.244105],[-83.039308,32.238784],[-83.03623,32.241551],[-83.030521,32.246358],[-83.031276,32.246468],[-83.03198,32.246618],[-83.032388,32.24677],[-83.032796,32.246803],[-83.032921,32.246731],[-83.033102,32.246527],[-83.033354,32.24643],[-83.033454,32.246632],[-83.033947,32.246819],[-83.034436,32.246613],[-83.034759,32.246575],[-83.036165,32.246864],[-83.036688,32.247158],[-83.037293,32.247393]]]}},{"type":"Feature","id":"13175:086    001","properties":{"id":"13175:086    001","parcelId":"086    001","countyFips":"13175","countyName":"Laurens","state":"Georgia","marketIds":["Macon"],"situsAddress":null,"situsCity":null,"situsZip":null,"jurisdictionCode":null,"ownerName":null,"ownerName2":null,"propertyName":null,"zoningCode":null,"zoningDistrict":null,"jurisdictionPrefix":null,"dorCode":null,"acreage":31.3513,"centroid":[-83.020636,32.249193],"lastSale":{"date":null,"price":null,"qualified":null},"tax":{"marketValue":null,"assessedValue":null,"taxableValue":null,"taxes":null},"mailingAddress":{"line1":null,"line2":null,"city":null,"state":null,"zip":null},"incomeTract":null,"incomeBlockGroup":null,"nearestRoad":null,"flu":null,"opportunityZone":null,"oz2Eligibility":null,"source":"ga-laurens-parcels-13175","appraiserUrl":"https://qpublic.schneidercorp.com/Application.aspx?App=LaurensCountyGA&Layer=Parcels&PageType=Report&KeyValue=086%20%20%20%20001","gisViewerUrl":"https://hogarc-hogarc.opendata.arcgis.com/datasets/HHvUPZ2XuLOAJxjR::laurens-county-wide-view/explore"},"geometry":{"type":"Polygon","coordinates":[[[-83.019969,32.25085],[-83.02026,32.251099],[-83.023515,32.248345],[-83.021356,32.24646],[-83.01808,32.249212],[-83.019969,32.25085]]]}},{"type":"Feature","id":"13175:086    001 B","properties":{"id":"13175:086    001 B","parcelId":"086    001 B","countyFips":"13175","countyName":"Laurens","state":"Georgia","marketIds":["Macon"],"situsAddress":null,"situsCity":null,"situsZip":null,"jurisdictionCode":null,"ownerName":null,"ownerName2":null,"propertyName":null,"zoningCode":null,"zoningDistrict":null,"jurisdictionPrefix":null,"dorCode":null,"acreage":16.1703,"centroid":[-83.019424,32.246193],"lastSale":{"date":null,"price":null,"qualified":null},"tax":{"marketValue":null,"assessedValue":null,"taxableValue":null,"taxes":null},"mailingAddress":{"line1":null,"line2":null,"city":null,"state":null,"zip":null},"incomeTract":null,"incomeBlockGroup":null,"nearestRoad":null,"flu":null,"opportunityZone":null,"oz2Eligibility":null,"source":"ga-laurens-parcels-13175","appraiserUrl":"https://qpublic.schneidercorp.com/Application.aspx?App=LaurensCountyGA&Layer=Parcels&PageType=Report&KeyValue=086%20%20%20%20001%20B","gisViewerUrl":"https://hogarc-hogarc.opendata.arcgis.com/datasets/HHvUPZ2XuLOAJxjR::laurens-county-wide-view/explore"},"geometry":{"type":"Polygon","coordinates":[[[-83.017474,32.245949],[-83.019723,32.247832],[-83.021356,32.24646],[-83.019145,32.24453],[-83.017474,32.245949]]]}},{"type":"Feature","id":"13175:086    001 C","properties":{"id":"13175:086    001 C","parcelId":"086    001 C","countyFips":"13175","countyName":"Laurens","state":"Georgia","marketIds":["Macon"],"situsAddress":null,"situsCity":null,"situsZip":null,"jurisdictionCode":null,"ownerName":null,"ownerName2":null,"propertyName":null,"zoningCode":null,"zoningDistrict":null,"jurisdictionPrefix":null,"dorCode":null,"acreage":16.025,"centroid":[-83.017554,32.247987],"lastSale":{"date":null,"price":null,"qualified":null},"tax":{"marketValue":null,"assessedValue":null,"taxableValue":null,"taxes":null},"mailingAddress":{"line1":null,"line2":null,"city":null,"state":null,"zip":null},"incomeTract":null,"incomeBlockGroup":null,"nearestRoad":null,"flu":null,"opportunityZone":null,"oz2Eligibility":null,"source":"ga-laurens-parcels-13175","appraiserUrl":"https://qpublic.schneidercorp.com/Application.aspx?App=LaurensCountyGA&Layer=Parcels&PageType=Report&KeyValue=086%20%20%20%20001%20C","gisViewerUrl":"https://hogarc-hogarc.opendata.arcgis.com/datasets/HHvUPZ2XuLOAJxjR::laurens-county-wide-view/explore"},"geometry":{"type":"Polygon","coordinates":[[[-83.018059,32.249194],[-83.01808,32.249212],[-83.019723,32.247832],[-83.017474,32.245949],[-83.015833,32.24733],[-83.016499,32.247914],[-83.017212,32.248479],[-83.018059,32.249194]]]}},{"type":"Feature","id":"13175:086    021","properties":{"id":"13175:086    021","parcelId":"086    021","countyFips":"13175","countyName":"Laurens","state":"Georgia","marketIds":["Macon"],"situsAddress":null,"situsCity":null,"situsZip":null,"jurisdictionCode":null,"ownerName":null,"ownerName2":null,"propertyName":null,"zoningCode":null,"zoningDistrict":null,"jurisdictionPrefix":null,"dorCode":null,"acreage":102.7641,"centroid":[-83.007076,32.247751],"lastSale":{"date":null,"price":null,"qualified":null},"tax":{"marketValue":null,"assessedValue":null,"taxableValue":null,"taxes":null},"mailingAddress":{"line1":null,"line2":null,"city":null,"state":null,"zip":null},"incomeTract":null,"incomeBlockGroup":null,"nearestRoad":null,"flu":null,"opportunityZone":null,"oz2Eligibility":null,"source":"ga-laurens-parcels-13175","appraiserUrl":"https://qpublic.schneidercorp.com/Application.aspx?App=LaurensCountyGA&Layer=Parcels&PageType=Report&KeyValue=086%20%20%20%20021","gisViewerUrl":"https://hogarc-hogarc.opendata.arcgis.com/datasets/HHvUPZ2XuLOAJxjR::laurens-county-wide-view/explore"},"geometry":{"type":"MultiPolygon","coordinates":[[[[-83.007183,32.245595],[-83.007521,32.245873],[-83.010618,32.24856],[-83.013842,32.24584],[-83.010267,32.242853],[-83.007183,32.245595]]],[[[-83.007035,32.245727],[-83.003541,32.248775],[-83.0069,32.251683],[-83.010504,32.248657],[-83.007407,32.24597],[-83.007072,32.245695],[-83.007035,32.245727]]]]}},{"type":"Feature","id":"13175:086    022","properties":{"id":"13175:086    022","parcelId":"086    022","countyFips":"13175","countyName":"Laurens","state":"Georgia","marketIds":["Macon"],"situsAddress":null,"situsCity":null,"situsZip":null,"jurisdictionCode":null,"ownerName":null,"ownerName2":null,"propertyName":null,"zoningCode":null,"zoningDistrict":null,"jurisdictionPrefix":null,"dorCode":null,"acreage":54.6421,"centroid":[-83.001527,32.248928],"lastSale":{"date":null,"price":null,"qualified":null},"tax":{"marketValue":null,"assessedValue":null,"taxableValue":null,"taxes":null},"mailingAddress":{"line1":null,"line2":null,"city":null,"state":null,"zip":null},"incomeTract":null,"incomeBlockGroup":null,"nearestRoad":null,"flu":null,"opportunityZone":null,"oz2Eligibility":null,"source":"ga-laurens-parcels-13175","appraiserUrl":"https://qpublic.schneidercorp.com/Application.aspx?App=LaurensCountyGA&Layer=Parcels&PageType=Report&KeyValue=086%20%20%20%20022","gisViewerUrl":"https://hogarc-hogarc.opendata.arcgis.com/datasets/HHvUPZ2XuLOAJxjR::laurens-county-wide-view/explore"},"geometry":{"type":"Polygon","coordinates":[[[-82.998391,32.250228],[-83.001671,32.253131],[-83.005094,32.250121],[-83.003439,32.248687],[-83.004091,32.248124],[-83.002387,32.246678],[-83.002075,32.246933],[-83.00202,32.247116],[-83.001862,32.247303],[-82.999676,32.24912],[-83.000082,32.249468],[-82.999727,32.249747],[-82.99934,32.249413],[-82.998391,32.250228]]]}},{"type":"Feature","id":"13175:087    001","properties":{"id":"13175:087    001","parcelId":"087    001","countyFips":"13175","countyName":"Laurens","state":"Georgia","marketIds":["Macon"],"situsAddress":null,"situsCity":null,"situsZip":null,"jurisdictionCode":null,"ownerName":null,"ownerName2":null,"propertyName":null,"zoningCode":null,"zoningDistrict":null,"jurisdictionPrefix":null,"dorCode":null,"acreage":22.2961,"centroid":[-83.031762,32.225632],"lastSale":{"date":null,"price":null,"qualified":null},"tax":{"marketValue":null,"assessedValue":null,"taxableValue":null,"taxes":null},"mailingAddress":{"line1":null,"line2":null,"city":null,"state":null,"zip":null},"incomeTract":null,"incomeBlockGroup":null,"nearestRoad":null,"flu":null,"opportunityZone":null,"oz2Eligibility":null,"source":"ga-laurens-parcels-13175","appraiserUrl":"https://qpublic.schneidercorp.com/Application.aspx?App=LaurensCountyGA&Layer=Parcels&PageType=Report&KeyValue=087%20%20%20%20001","gisViewerUrl":"https://hogarc-hogarc.opendata.arcgis.com/datasets/HHvUPZ2XuLOAJxjR::laurens-county-wide-view/explore"},"geometry":{"type":"Polygon","coordinates":[[[-83.032947,32.227375],[-83.034191,32.228434],[-83.031337,32.222448],[-83.029121,32.224201],[-83.031213,32.225701],[-83.032947,32.227375]]]}},{"type":"Feature","id":"13175:087    003","properties":{"id":"13175:087    003","parcelId":"087    003","countyFips":"13175","countyName":"Laurens","state":"Georgia","marketIds":["Macon"],"situsAddress":null,"situsCity":null,"situsZip":null,"jurisdictionCode":null,"ownerName":null,"ownerName2":null,"propertyName":null,"zoningCode":null,"zoningDistrict":null,"jurisdictionPrefix":null,"dorCode":null,"acreage":51.767,"centroid":[-83.023395,32.247043],"lastSale":{"date":null,"price":null,"qualified":null},"tax":{"marketValue":null,"assessedValue":null,"taxableValue":null,"taxes":null},"mailingAddress":{"line1":null,"line2":null,"city":null,"state":null,"zip":null},"incomeTract":null,"incomeBlockGroup":null,"nearestRoad":null,"flu":null,"opportunityZone":null,"oz2Eligibility":null,"source":"ga-laurens-parcels-13175","appraiserUrl":"https://qpublic.schneidercorp.com/Application.aspx?App=LaurensCountyGA&Layer=Parcels&PageType=Report&KeyValue=087%20%20%20%20003","gisViewerUrl":"https://hogarc-hogarc.opendata.arcgis.com/datasets/HHvUPZ2XuLOAJxjR::laurens-county-wide-view/explore"},"geometry":{"type":"Polygon","coordinates":[[[-83.023515,32.248345],[-83.025824,32.250361],[-83.027661,32.248878],[-83.020828,32.243103],[-83.019145,32.24453],[-83.023515,32.248345]]]}},{"type":"Feature","id":"13175:087    003 A","properties":{"id":"13175:087    003 A","parcelId":"087    003 A","countyFips":"13175","countyName":"Laurens","state":"Georgia","marketIds":["Macon"],"situsAddress":null,"situsCity":null,"situsZip":null,"jurisdictionCode":null,"ownerName":null,"ownerName2":null,"propertyName":null,"zoningCode":null,"zoningDistrict":null,"jurisdictionPrefix":null,"dorCode":null,"acreage":49.288,"centroid":[-83.024226,32.244854],"lastSale":{"date":null,"price":null,"qualified":null},"tax":{"marketValue":null,"assessedValue":null,"taxableValue":null,"taxes":null},"mailingAddress":{"line1":null,"line2":null,"city":null,"state":null,"zip":null},"incomeTract":null,"incomeBlockGroup":null,"nearestRoad":null,"flu":null,"opportunityZone":null,"oz2Eligibility":null,"source":"ga-laurens-parcels-13175","appraiserUrl":"https://qpublic.schneidercorp.com/Application.aspx?App=LaurensCountyGA&Layer=Parcels&PageType=Report&KeyValue=087%20%20%20%20003%20A","gisViewerUrl":"https://hogarc-hogarc.opendata.arcgis.com/datasets/HHvUPZ2XuLOAJxjR::laurens-county-wide-view/explore"},"geometry":{"type":"Polygon","coordinates":[[[-83.020913,32.243174],[-83.027661,32.248878],[-83.029247,32.24743],[-83.022482,32.241683],[-83.020828,32.243103],[-83.020913,32.243174]]]}},{"type":"Feature","id":"13175:087    004","properties":{"id":"13175:087    004","parcelId":"087    004","countyFips":"13175","countyName":"Laurens","state":"Georgia","marketIds":["Macon"],"situsAddress":null,"situsCity":null,"situsZip":null,"jurisdictionCode":null,"ownerName":null,"ownerName2":null,"propertyName":null,"zoningCode":null,"zoningDistrict":null,"jurisdictionPrefix":null,"dorCode":null,"acreage":100.4075,"centroid":[-83.017028,32.242686],"lastSale":{"date":null,"price":null,"qualified":null},"tax":{"marketValue":null,"assessedValue":null,"taxableValue":null,"taxes":null},"mailingAddress":{"line1":null,"line2":null,"city":null,"state":null,"zip":null},"incomeTract":null,"incomeBlockGroup":null,"nearestRoad":null,"flu":null,"opportunityZone":null,"oz2Eligibility":null,"source":"ga-laurens-parcels-13175","appraiserUrl":"https://qpublic.schneidercorp.com/Application.aspx?App=LaurensCountyGA&Layer=Parcels&PageType=Report&KeyValue=087%20%20%20%20004","gisViewerUrl":"https://hogarc-hogarc.opendata.arcgis.com/datasets/HHvUPZ2XuLOAJxjR::laurens-county-wide-view/explore"},"geometry":{"type":"MultiPolygon","coordinates":[[[[-83.014186,32.242539],[-83.014213,32.242543],[-83.015742,32.242697],[-83.016031,32.242739],[-83.016134,32.242774],[-83.016277,32.242861],[-83.016982,32.243429],[-83.017307,32.243726],[-83.017931,32.244215],[-83.018497,32.244689],[-83.022256,32.241486],[-83.018785,32.238534],[-83.014186,32.242539]]],[[[-83.01204,32.244335],[-83.013842,32.24584],[-83.015496,32.247227],[-83.018382,32.244785],[-83.017821,32.244315],[-83.017193,32.243824],[-83.016867,32.243526],[-83.016172,32.242965],[-83.016051,32.242892],[-83.015628,32.242823],[-83.014042,32.24266],[-83.01204,32.244335]]]]}},{"type":"Feature","id":"13175:087    005","properties":{"id":"13175:087    005","parcelId":"087    005","countyFips":"13175","countyName":"Laurens","state":"Georgia","marketIds":["Macon"],"situsAddress":null,"situsCity":null,"situsZip":null,"jurisdictionCode":null,"ownerName":null,"ownerName2":null,"propertyName":null,"zoningCode":null,"zoningDistrict":null,"jurisdictionPrefix":null,"dorCode":null,"acreage":49.8453,"centroid":[-83.012388,32.241619],"lastSale":{"date":null,"price":null,"qualified":null},"tax":{"marketValue":null,"assessedValue":null,"taxableValue":null,"taxes":null},"mailingAddress":{"line1":null,"line2":null,"city":null,"state":null,"zip":null},"incomeTract":null,"incomeBlockGroup":null,"nearestRoad":null,"flu":null,"opportunityZone":null,"oz2Eligibility":null,"source":"ga-laurens-parcels-13175","appraiserUrl":"https://qpublic.schneidercorp.com/Application.aspx?App=LaurensCountyGA&Layer=Parcels&PageType=Report&KeyValue=087%20%20%20%20005","gisViewerUrl":"https://hogarc-hogarc.opendata.arcgis.com/datasets/HHvUPZ2XuLOAJxjR::laurens-county-wide-view/explore"},"geometry":{"type":"MultiPolygon","coordinates":[[[[-83.012265,32.24178],[-83.012422,32.241887],[-83.012732,32.242054],[-83.013014,32.242129],[-83.013135,32.24218],[-83.013617,32.242451],[-83.014186,32.242539],[-83.018785,32.238534],[-83.017766,32.237667],[-83.012956,32.241772],[-83.010602,32.239775],[-83.010057,32.240239],[-83.010156,32.24027],[-83.010327,32.240363],[-83.01121,32.240991],[-83.012265,32.24178]]],[[[-83.009961,32.240369],[-83.009945,32.240372],[-83.009878,32.240394],[-83.00977,32.240468],[-83.008643,32.241507],[-83.01204,32.244335],[-83.014042,32.24266],[-83.01356,32.24258],[-83.012989,32.242269],[-83.012667,32.242181],[-83.012485,32.242094],[-83.012162,32.241885],[-83.011106,32.241096],[-83.010225,32.240469],[-83.010085,32.240394],[-83.009961,32.240369]]]]}},{"type":"Feature","id":"13175:087    005 A","properties":{"id":"13175:087    005 A","parcelId":"087    005 A","countyFips":"13175","countyName":"Laurens","state":"Georgia","marketIds":["Macon"],"situsAddress":null,"situsCity":null,"situsZip":null,"jurisdictionCode":null,"ownerName":null,"ownerName2":null,"propertyName":null,"zoningCode":null,"zoningDistrict":null,"jurisdictionPrefix":null,"dorCode":null,"acreage":45.619,"centroid":[-83.007163,32.243539],"lastSale":{"date":null,"price":null,"qualified":null},"tax":{"marketValue":null,"assessedValue":null,"taxableValue":null,"taxes":null},"mailingAddress":{"line1":null,"line2":null,"city":null,"state":null,"zip":null},"incomeTract":null,"incomeBlockGroup":null,"nearestRoad":null,"flu":null,"opportunityZone":null,"oz2Eligibility":null,"source":"ga-laurens-parcels-13175","appraiserUrl":"https://qpublic.schneidercorp.com/Application.aspx?App=LaurensCountyGA&Layer=Parcels&PageType=Report&KeyValue=087%20%20%20%20005%20A","gisViewerUrl":"https://hogarc-hogarc.opendata.arcgis.com/datasets/HHvUPZ2XuLOAJxjR::laurens-county-wide-view/explore"},"geometry":{"type":"MultiPolygon","coordinates":[[[[-83.008397,32.24172],[-83.007945,32.242109],[-83.00617,32.243592],[-83.005496,32.244177],[-83.005305,32.244304],[-83.00598,32.244676],[-83.006246,32.244853],[-83.007183,32.245595],[-83.010267,32.242853],[-83.008643,32.241507],[-83.008397,32.24172]]],[[[-83.003687,32.245608],[-83.002387,32.246678],[-83.004091,32.248124],[-83.003439,32.248687],[-83.003541,32.248775],[-83.007072,32.245695],[-83.006143,32.244959],[-83.005888,32.244789],[-83.005109,32.244359],[-83.003687,32.245608]]]]}},{"type":"Feature","id":"13175:087    006","properties":{"id":"13175:087    006","parcelId":"087    006","countyFips":"13175","countyName":"Laurens","state":"Georgia","marketIds":["Macon"],"situsAddress":null,"situsCity":null,"situsZip":null,"jurisdictionCode":null,"ownerName":null,"ownerName2":null,"propertyName":null,"zoningCode":null,"zoningDistrict":null,"jurisdictionPrefix":null,"dorCode":null,"acreage":19.7545,"centroid":[-83.002725,32.24484],"lastSale":{"date":null,"price":null,"qualified":null},"tax":{"marketValue":null,"assessedValue":null,"taxableValue":null,"taxes":null},"mailingAddress":{"line1":null,"line2":null,"city":null,"state":null,"zip":null},"incomeTract":null,"incomeBlockGroup":null,"nearestRoad":null,"flu":null,"opportunityZone":null,"oz2Eligibility":null,"source":"ga-laurens-parcels-13175","appraiserUrl":"https://qpublic.schneidercorp.com/Application.aspx?App=LaurensCountyGA&Layer=Parcels&PageType=Report&KeyValue=087%20%20%20%20006","gisViewerUrl":"https://hogarc-hogarc.opendata.arcgis.com/datasets/HHvUPZ2XuLOAJxjR::laurens-county-wide-view/explore"},"geometry":{"type":"MultiPolygon","coordinates":[[[[-83.001073,32.244082],[-83.001216,32.244041],[-83.002118,32.243764],[-83.002846,32.243568],[-83.002552,32.243251],[-83.002374,32.242935],[-83.001073,32.244082]]],[[[-83.002843,32.24371],[-83.002704,32.243744],[-83.001419,32.244125],[-83.001832,32.245643],[-83.002058,32.24665],[-83.002075,32.246933],[-83.003687,32.245608],[-83.003533,32.245285],[-83.003385,32.244905],[-83.003148,32.243963],[-83.003066,32.243825],[-83.002955,32.243688],[-83.002843,32.24371]]],[[[-83.00079,32.244308],[-83.00079,32.244308],[-82.999756,32.245141],[-83.001891,32.247019],[-83.001916,32.246876],[-83.001883,32.246595],[-83.001673,32.245671],[-83.001266,32.244172],[-83.00079,32.244308]]]]}},{"type":"Feature","id":"13175:087    007","properties":{"id":"13175:087    007","parcelId":"087    007","countyFips":"13175","countyName":"Laurens","state":"Georgia","marketIds":["Macon"],"situsAddress":null,"situsCity":null,"situsZip":null,"jurisdictionCode":null,"ownerName":null,"ownerName2":null,"propertyName":null,"zoningCode":null,"zoningDistrict":null,"jurisdictionPrefix":null,"dorCode":null,"acreage":56.1364,"centroid":[-83.0029,32.241385],"lastSale":{"date":null,"price":null,"qualified":null},"tax":{"marketValue":null,"assessedValue":null,"taxableValue":null,"taxes":null},"mailingAddress":{"line1":null,"line2":null,"city":null,"state":null,"zip":null},"incomeTract":null,"incomeBlockGroup":null,"nearestRoad":null,"flu":null,"opportunityZone":null,"oz2Eligibility":null,"source":"ga-laurens-parcels-13175","appraiserUrl":"https://qpublic.schneidercorp.com/Application.aspx?App=LaurensCountyGA&Layer=Parcels&PageType=Report&KeyValue=087%20%20%20%20007","gisViewerUrl":"https://hogarc-hogarc.opendata.arcgis.com/datasets/HHvUPZ2XuLOAJxjR::laurens-county-wide-view/explore"},"geometry":{"type":"MultiPolygon","coordinates":[[[[-83.003533,32.243504],[-83.003654,32.243513],[-83.003937,32.243573],[-83.004158,32.243666],[-83.00515,32.244218],[-83.005383,32.244079],[-83.006056,32.243495],[-83.007457,32.242326],[-83.001397,32.237045],[-83.001665,32.237647],[-83.001756,32.237921],[-83.001799,32.238133],[-83.001812,32.238401],[-83.001775,32.238863],[-83.001776,32.239138],[-83.001803,32.239345],[-83.00192,32.23988],[-83.001943,32.240134],[-83.001906,32.240834],[-83.001917,32.241168],[-83.002007,32.241802],[-83.002165,32.242389],[-83.002313,32.242793],[-83.002463,32.24311],[-83.002613,32.243327],[-83.002846,32.243568],[-83.003103,32.243526],[-83.003533,32.243504]]],[[[-83.003304,32.243646],[-83.003296,32.243647],[-83.002955,32.243688],[-83.00309,32.243859],[-83.003164,32.244002],[-83.003385,32.244905],[-83.003533,32.245285],[-83.003687,32.245608],[-83.005109,32.244359],[-83.004226,32.24386],[-83.003962,32.243732],[-83.00364,32.24365],[-83.003304,32.243646]]]]}},{"type":"Feature","id":"13175:087    008","properties":{"id":"13175:087    008","parcelId":"087    008","countyFips":"13175","countyName":"Laurens","state":"Georgia","marketIds":["Macon"],"situsAddress":null,"situsCity":null,"situsZip":null,"jurisdictionCode":null,"ownerName":null,"ownerName2":null,"propertyName":null,"zoningCode":null,"zoningDistrict":null,"jurisdictionPrefix":null,"dorCode":null,"acreage":80.3092,"centroid":[-83.000386,32.24092],"lastSale":{"date":null,"price":null,"qualified":null},"tax":{"marketValue":null,"assessedValue":null,"taxableValue":null,"taxes":null},"mailingAddress":{"line1":null,"line2":null,"city":null,"state":null,"zip":null},"incomeTract":null,"incomeBlockGroup":null,"nearestRoad":null,"flu":null,"opportunityZone":null,"oz2Eligibility":null,"source":"ga-laurens-parcels-13175","appraiserUrl":"https://qpublic.schneidercorp.com/Application.aspx?App=LaurensCountyGA&Layer=Parcels&PageType=Report&KeyValue=087%20%20%20%20008","gisViewerUrl":"https://hogarc-hogarc.opendata.arcgis.com/datasets/HHvUPZ2XuLOAJxjR::laurens-county-wide-view/explore"},"geometry":{"type":"MultiPolygon","coordinates":[[[[-82.997402,32.244964],[-82.998477,32.244039],[-82.999158,32.244626],[-82.999908,32.244421],[-83.001073,32.244082],[-83.002374,32.242935],[-83.002223,32.242558],[-83.002087,32.242131],[-83.001991,32.241723],[-83.001932,32.241329],[-83.001906,32.240834],[-83.00194,32.240048],[-83.001905,32.239799],[-83.001803,32.239345],[-83.001772,32.23907],[-83.001812,32.238401],[-83.001799,32.238133],[-83.001756,32.237921],[-83.001665,32.237647],[-83.001397,32.237045],[-82.998041,32.239922],[-82.997458,32.239442],[-82.996893,32.239931],[-82.997477,32.240413],[-82.995407,32.242236],[-82.997402,32.244964]]],[[[-83.000744,32.244321],[-83.000509,32.244388],[-82.999285,32.244735],[-82.999756,32.245141],[-83.00079,32.244308],[-83.000744,32.244321]]]]}},{"type":"Feature","id":"13175:087    009","properties":{"id":"13175:087    009","parcelId":"087    009","countyFips":"13175","countyName":"Laurens","state":"Georgia","marketIds":["Macon"],"situsAddress":null,"situsCity":null,"situsZip":null,"jurisdictionCode":null,"ownerName":null,"ownerName2":null,"propertyName":null,"zoningCode":null,"zoningDistrict":null,"jurisdictionPrefix":null,"dorCode":null,"acreage":41.1037,"centroid":[-83.006294,32.239887],"lastSale":{"date":null,"price":null,"qualified":null},"tax":{"marketValue":null,"assessedValue":null,"taxableValue":null,"taxes":null},"mailingAddress":{"line1":null,"line2":null,"city":null,"state":null,"zip":null},"incomeTract":null,"incomeBlockGroup":null,"nearestRoad":null,"flu":null,"opportunityZone":null,"oz2Eligibility":null,"source":"ga-laurens-parcels-13175","appraiserUrl":"https://qpublic.schneidercorp.com/Application.aspx?App=LaurensCountyGA&Layer=Parcels&PageType=Report&KeyValue=087%20%20%20%20009","gisViewerUrl":"https://hogarc-hogarc.opendata.arcgis.com/datasets/HHvUPZ2XuLOAJxjR::laurens-county-wide-view/explore"},"geometry":{"type":"Polygon","coordinates":[[[-83.007443,32.242313],[-83.007457,32.242326],[-83.008663,32.241293],[-83.008975,32.241003],[-83.007195,32.239484],[-83.002926,32.235744],[-83.001397,32.237045],[-83.007443,32.242313]]]}},{"type":"Feature","id":"13175:088    002","properties":{"id":"13175:088    002","parcelId":"088    002","countyFips":"13175","countyName":"Laurens","state":"Georgia","marketIds":["Macon"],"situsAddress":null,"situsCity":null,"situsZip":null,"jurisdictionCode":null,"ownerName":null,"ownerName2":null,"propertyName":null,"zoningCode":null,"zoningDistrict":null,"jurisdictionPrefix":null,"dorCode":null,"acreage":76.2064,"centroid":[-83.01789,32.206246],"lastSale":{"date":null,"price":null,"qualified":null},"tax":{"marketValue":null,"assessedValue":null,"taxableValue":null,"taxes":null},"mailingAddress":{"line1":null,"line2":null,"city":null,"state":null,"zip":null},"incomeTract":null,"incomeBlockGroup":null,"nearestRoad":null,"flu":null,"opportunityZone":null,"oz2Eligibility":null,"source":"ga-laurens-parcels-13175","appraiserUrl":"https://qpublic.schneidercorp.com/Application.aspx?App=LaurensCountyGA&Layer=Parcels&PageType=Report&KeyValue=088%20%20%20%20002","gisViewerUrl":"https://hogarc-hogarc.opendata.arcgis.com/datasets/HHvUPZ2XuLOAJxjR::laurens-county-wide-view/explore"},"geometry":{"type":"Polygon","coordinates":[[[-83.018407,32.205355],[-83.017266,32.204675],[-83.016819,32.204434],[-83.016752,32.204647],[-83.016728,32.204807],[-83.016891,32.205121],[-83.016861,32.205245],[-83.017138,32.205959],[-83.017166,32.205981],[-83.013717,32.208853],[-83.01739,32.212023],[-83.022367,32.20781],[-83.019506,32.20601],[-83.019569,32.206499],[-83.019459,32.206626],[-83.019085,32.206605],[-83.018754,32.206106],[-83.018142,32.205678],[-83.018407,32.205355]]]}},{"type":"Feature","id":"13175:088    003","properties":{"id":"13175:088    003","parcelId":"088    003","countyFips":"13175","countyName":"Laurens","state":"Georgia","marketIds":["Macon"],"situsAddress":null,"situsCity":null,"situsZip":null,"jurisdictionCode":null,"ownerName":null,"ownerName2":null,"propertyName":null,"zoningCode":null,"zoningDistrict":null,"jurisdictionPrefix":null,"dorCode":null,"acreage":65.3225,"centroid":[-83.016077,32.204293],"lastSale":{"date":null,"price":null,"qualified":null},"tax":{"marketValue":null,"assessedValue":null,"taxableValue":null,"taxes":null},"mailingAddress":{"line1":null,"line2":null,"city":null,"state":null,"zip":null},"incomeTract":null,"incomeBlockGroup":null,"nearestRoad":null,"flu":null,"opportunityZone":null,"oz2Eligibility":null,"source":"ga-laurens-parcels-13175","appraiserUrl":"https://qpublic.schneidercorp.com/Application.aspx?App=LaurensCountyGA&Layer=Parcels&PageType=Report&KeyValue=088%20%20%20%20003","gisViewerUrl":"https://hogarc-hogarc.opendata.arcgis.com/datasets/HHvUPZ2XuLOAJxjR::laurens-county-wide-view/explore"},"geometry":{"type":"Polygon","coordinates":[[[-83.01649,32.202583],[-83.015875,32.202977],[-83.0149,32.203776],[-83.013726,32.20274],[-83.01151,32.204621],[-83.01219,32.205209],[-83.010811,32.206331],[-83.013717,32.208853],[-83.017166,32.205981],[-83.017138,32.205959],[-83.016861,32.205245],[-83.016891,32.205121],[-83.016728,32.204807],[-83.016752,32.204647],[-83.016819,32.204434],[-83.017266,32.204675],[-83.017716,32.203895],[-83.01841,32.202847],[-83.019083,32.201876],[-83.018566,32.201427],[-83.017902,32.203128],[-83.01718,32.203306],[-83.01649,32.202583]]]}},{"type":"Feature","id":"13175:088    005","properties":{"id":"13175:088    005","parcelId":"088    005","countyFips":"13175","countyName":"Laurens","state":"Georgia","marketIds":["Macon"],"situsAddress":null,"situsCity":null,"situsZip":null,"jurisdictionCode":null,"ownerName":null,"ownerName2":null,"propertyName":null,"zoningCode":null,"zoningDistrict":null,"jurisdictionPrefix":null,"dorCode":null,"acreage":85.5476,"centroid":[-83.018165,32.220182],"lastSale":{"date":null,"price":null,"qualified":null},"tax":{"marketValue":null,"assessedValue":null,"taxableValue":null,"taxes":null},"mailingAddress":{"line1":null,"line2":null,"city":null,"state":null,"zip":null},"incomeTract":null,"incomeBlockGroup":null,"nearestRoad":null,"flu":null,"opportunityZone":null,"oz2Eligibility":null,"source":"ga-laurens-parcels-13175","appraiserUrl":"https://qpublic.schneidercorp.com/Application.aspx?App=LaurensCountyGA&Layer=Parcels&PageType=Report&KeyValue=088%20%20%20%20005","gisViewerUrl":"https://hogarc-hogarc.opendata.arcgis.com/datasets/HHvUPZ2XuLOAJxjR::laurens-county-wide-view/explore"},"geometry":{"type":"Polygon","coordinates":[[[-83.017249,32.223969],[-83.017277,32.223993],[-83.024283,32.217872],[-83.023803,32.217466],[-83.021856,32.217726],[-83.020118,32.218025],[-83.018992,32.218264],[-83.017026,32.218751],[-83.012636,32.220085],[-83.013517,32.220888],[-83.015149,32.222188],[-83.016078,32.222957],[-83.017249,32.223969]]]}},{"type":"Feature","id":"13175:088    005 A","properties":{"id":"13175:088    005 A","parcelId":"088    005 A","countyFips":"13175","countyName":"Laurens","state":"Georgia","marketIds":["Macon"],"situsAddress":null,"situsCity":null,"situsZip":null,"jurisdictionCode":null,"ownerName":null,"ownerName2":null,"propertyName":null,"zoningCode":null,"zoningDistrict":null,"jurisdictionPrefix":null,"dorCode":null,"acreage":122.0534,"centroid":[-83.015705,32.217444],"lastSale":{"date":null,"price":null,"qualified":null},"tax":{"marketValue":null,"assessedValue":null,"taxableValue":null,"taxes":null},"mailingAddress":{"line1":null,"line2":null,"city":null,"state":null,"zip":null},"incomeTract":null,"incomeBlockGroup":null,"nearestRoad":null,"flu":null,"opportunityZone":null,"oz2Eligibility":null,"source":"ga-laurens-parcels-13175","appraiserUrl":"https://qpublic.schneidercorp.com/Application.aspx?App=LaurensCountyGA&Layer=Parcels&PageType=Report&KeyValue=088%20%20%20%20005%20A","gisViewerUrl":"https://hogarc-hogarc.opendata.arcgis.com/datasets/HHvUPZ2XuLOAJxjR::laurens-county-wide-view/explore"},"geometry":{"type":"Polygon","coordinates":[[[-83.012309,32.2198],[-83.012363,32.219847],[-83.016355,32.218623],[-83.016918,32.218463],[-83.018271,32.218121],[-83.019434,32.217853],[-83.020713,32.217605],[-83.021795,32.217428],[-83.023497,32.217199],[-83.01739,32.212023],[-83.015484,32.213634],[-83.013017,32.215782],[-83.011305,32.217192],[-83.010231,32.218016],[-83.010757,32.218486],[-83.011438,32.219034],[-83.012309,32.2198]]]}},{"type":"Feature","id":"13175:088    006","properties":{"id":"13175:088    006","parcelId":"088    006","countyFips":"13175","countyName":"Laurens","state":"Georgia","marketIds":["Macon"],"situsAddress":null,"situsCity":null,"situsZip":null,"jurisdictionCode":null,"ownerName":null,"ownerName2":null,"propertyName":null,"zoningCode":null,"zoningDistrict":null,"jurisdictionPrefix":null,"dorCode":null,"acreage":85.7496,"centroid":[-83.012755,32.222654],"lastSale":{"date":null,"price":null,"qualified":null},"tax":{"marketValue":null,"assessedValue":null,"taxableValue":null,"taxes":null},"mailingAddress":{"line1":null,"line2":null,"city":null,"state":null,"zip":null},"incomeTract":null,"incomeBlockGroup":null,"nearestRoad":null,"flu":null,"opportunityZone":null,"oz2Eligibility":null,"source":"ga-laurens-parcels-13175","appraiserUrl":"https://qpublic.schneidercorp.com/Application.aspx?App=LaurensCountyGA&Layer=Parcels&PageType=Report&KeyValue=088%20%20%20%20006","gisViewerUrl":"https://hogarc-hogarc.opendata.arcgis.com/datasets/HHvUPZ2XuLOAJxjR::laurens-county-wide-view/explore"},"geometry":{"type":"Polygon","coordinates":[[[-83.007218,32.221849],[-83.013635,32.227037],[-83.017163,32.22409],[-83.015964,32.223054],[-83.015037,32.222287],[-83.013404,32.220986],[-83.012468,32.220136],[-83.007148,32.221793],[-83.007218,32.221849]]]}},{"type":"Feature","id":"13175:088    006 C","properties":{"id":"13175:088    006 C","parcelId":"088    006 C","countyFips":"13175","countyName":"Laurens","state":"Georgia","marketIds":["Macon"],"situsAddress":null,"situsCity":null,"situsZip":null,"jurisdictionCode":null,"ownerName":null,"ownerName2":null,"propertyName":null,"zoningCode":null,"zoningDistrict":null,"jurisdictionPrefix":null,"dorCode":null,"acreage":15.8096,"centroid":[-83.009843,32.219511],"lastSale":{"date":null,"price":null,"qualified":null},"tax":{"marketValue":null,"assessedValue":null,"taxableValue":null,"taxes":null},"mailingAddress":{"line1":null,"line2":null,"city":null,"state":null,"zip":null},"incomeTract":null,"incomeBlockGroup":null,"nearestRoad":null,"flu":null,"opportunityZone":null,"oz2Eligibility":null,"source":"ga-laurens-parcels-13175","appraiserUrl":"https://qpublic.schneidercorp.com/Application.aspx?App=LaurensCountyGA&Layer=Parcels&PageType=Report&KeyValue=088%20%20%20%20006%20C","gisViewerUrl":"https://hogarc-hogarc.opendata.arcgis.com/datasets/HHvUPZ2XuLOAJxjR::laurens-county-wide-view/explore"},"geometry":{"type":"Polygon","coordinates":[[[-83.007876,32.219999],[-83.00894,32.220913],[-83.012195,32.219897],[-83.011324,32.219131],[-83.010644,32.218584],[-83.010084,32.218084],[-83.007838,32.219966],[-83.007876,32.219999]]]}},{"type":"Feature","id":"13175:088    010","properties":{"id":"13175:088    010","parcelId":"088    010","countyFips":"13175","countyName":"Laurens","state":"Georgia","marketIds":["Macon"],"situsAddress":null,"situsCity":null,"situsZip":null,"jurisdictionCode":null,"ownerName":null,"ownerName2":null,"propertyName":null,"zoningCode":null,"zoningDistrict":null,"jurisdictionPrefix":null,"dorCode":null,"acreage":18.9974,"centroid":[-83.001447,32.224018],"lastSale":{"date":null,"price":null,"qualified":null},"tax":{"marketValue":null,"assessedValue":null,"taxableValue":null,"taxes":null},"mailingAddress":{"line1":null,"line2":null,"city":null,"state":null,"zip":null},"incomeTract":null,"incomeBlockGroup":null,"nearestRoad":null,"flu":null,"opportunityZone":null,"oz2Eligibility":null,"source":"ga-laurens-parcels-13175","appraiserUrl":"https://qpublic.schneidercorp.com/Application.aspx?App=LaurensCountyGA&Layer=Parcels&PageType=Report&KeyValue=088%20%20%20%20010","gisViewerUrl":"https://hogarc-hogarc.opendata.arcgis.com/datasets/HHvUPZ2XuLOAJxjR::laurens-county-wide-view/explore"},"geometry":{"type":"MultiPolygon","coordinates":[[[[-82.998896,32.223463],[-82.998977,32.223537],[-82.999366,32.223896],[-83.00229,32.222987],[-83.000716,32.221705],[-82.998896,32.223463]]],[[[-83.001525,32.223543],[-83.000355,32.223909],[-82.999627,32.224136],[-83.001319,32.2255],[-83.003283,32.223798],[-83.002576,32.223221],[-83.001525,32.223543]]]]}},{"type":"Feature","id":"13175:088    011 A","properties":{"id":"13175:088    011 A","parcelId":"088    011 A","countyFips":"13175","countyName":"Laurens","state":"Georgia","marketIds":["Macon"],"situsAddress":null,"situsCity":null,"situsZip":null,"jurisdictionCode":null,"ownerName":null,"ownerName2":null,"propertyName":null,"zoningCode":null,"zoningDistrict":null,"jurisdictionPrefix":null,"dorCode":null,"acreage":64.2478,"centroid":[-83.006923,32.218055],"lastSale":{"date":null,"price":null,"qualified":null},"tax":{"marketValue":null,"assessedValue":null,"taxableValue":null,"taxes":null},"mailingAddress":{"line1":null,"line2":null,"city":null,"state":null,"zip":null},"incomeTract":null,"incomeBlockGroup":null,"nearestRoad":null,"flu":null,"opportunityZone":null,"oz2Eligibility":null,"source":"ga-laurens-parcels-13175","appraiserUrl":"https://qpublic.schneidercorp.com/Application.aspx?App=LaurensCountyGA&Layer=Parcels&PageType=Report&KeyValue=088%20%20%20%20011%20A","gisViewerUrl":"https://hogarc-hogarc.opendata.arcgis.com/datasets/HHvUPZ2XuLOAJxjR::laurens-county-wide-view/explore"},"geometry":{"type":"Polygon","coordinates":[[[-83.002095,32.218505],[-83.006459,32.22112],[-83.010084,32.218084],[-83.009618,32.217666],[-83.006361,32.214902],[-83.002095,32.218505]]]}},{"type":"Feature","id":"13175:088    012","properties":{"id":"13175:088    012","parcelId":"088    012","countyFips":"13175","countyName":"Laurens","state":"Georgia","marketIds":["Macon"],"situsAddress":null,"situsCity":null,"situsZip":null,"jurisdictionCode":null,"ownerName":null,"ownerName2":null,"propertyName":null,"zoningCode":null,"zoningDistrict":null,"jurisdictionPrefix":null,"dorCode":null,"acreage":52.7789,"centroid":[-83.003179,32.214132],"lastSale":{"date":null,"price":null,"qualified":null},"tax":{"marketValue":null,"assessedValue":null,"taxableValue":null,"taxes":null},"mailingAddress":{"line1":null,"line2":null,"city":null,"state":null,"zip":null},"incomeTract":null,"incomeBlockGroup":null,"nearestRoad":null,"flu":null,"opportunityZone":null,"oz2Eligibility":null,"source":"ga-laurens-parcels-13175","appraiserUrl":"https://qpublic.schneidercorp.com/Application.aspx?App=LaurensCountyGA&Layer=Parcels&PageType=Report&KeyValue=088%20%20%20%20012","gisViewerUrl":"https://hogarc-hogarc.opendata.arcgis.com/datasets/HHvUPZ2XuLOAJxjR::laurens-county-wide-view/explore"},"geometry":{"type":"Polygon","coordinates":[[[-82.999408,32.214803],[-83.002925,32.217804],[-83.006361,32.214902],[-83.004368,32.213213],[-83.003129,32.212149],[-83.002884,32.211918],[-82.999408,32.214803]]]}},{"type":"Feature","id":"13175:088    021","properties":{"id":"13175:088    021","parcelId":"088    021","countyFips":"13175","countyName":"Laurens","state":"Georgia","marketIds":["Macon"],"situsAddress":null,"situsCity":null,"situsZip":null,"jurisdictionCode":null,"ownerName":null,"ownerName2":null,"propertyName":null,"zoningCode":null,"zoningDistrict":null,"jurisdictionPrefix":null,"dorCode":null,"acreage":106.8686,"centroid":[-83.001351,32.203782],"lastSale":{"date":null,"price":null,"qualified":null},"tax":{"marketValue":null,"assessedValue":null,"taxableValue":null,"taxes":null},"mailingAddress":{"line1":null,"line2":null,"city":null,"state":null,"zip":null},"incomeTract":null,"incomeBlockGroup":null,"nearestRoad":null,"flu":null,"opportunityZone":null,"oz2Eligibility":null,"source":"ga-laurens-parcels-13175","appraiserUrl":"https://qpublic.schneidercorp.com/Application.aspx?App=LaurensCountyGA&Layer=Parcels&PageType=Report&KeyValue=088%20%20%20%20021","gisViewerUrl":"https://hogarc-hogarc.opendata.arcgis.com/datasets/HHvUPZ2XuLOAJxjR::laurens-county-wide-view/explore"},"geometry":{"type":"MultiPolygon","coordinates":[[[[-82.999687,32.203056],[-82.999692,32.203082],[-82.999706,32.203197],[-82.999747,32.203299],[-82.999865,32.204033],[-83.000017,32.204701],[-83.000984,32.207768],[-83.003556,32.205657],[-83.00685,32.203029],[-83.003403,32.200002],[-82.999687,32.203056]]],[[[-82.996121,32.205986],[-82.998993,32.208475],[-82.999543,32.208953],[-83.00085,32.207879],[-82.99986,32.204733],[-82.999705,32.204055],[-82.999587,32.203322],[-82.99954,32.203176],[-82.996121,32.205986]]]]}},{"type":"Feature","id":"13175:088    022","properties":{"id":"13175:088    022","parcelId":"088    022","countyFips":"13175","countyName":"Laurens","state":"Georgia","marketIds":["Macon"],"situsAddress":null,"situsCity":null,"situsZip":null,"jurisdictionCode":null,"ownerName":null,"ownerName2":null,"propertyName":null,"zoningCode":null,"zoningDistrict":null,"jurisdictionPrefix":null,"dorCode":null,"acreage":54.6147,"centroid":[-83.002516,32.209355],"lastSale":{"date":null,"price":null,"qualified":null},"tax":{"marketValue":null,"assessedValue":null,"taxableValue":null,"taxes":null},"mailingAddress":{"line1":null,"line2":null,"city":null,"state":null,"zip":null},"incomeTract":null,"incomeBlockGroup":null,"nearestRoad":null,"flu":null,"opportunityZone":null,"oz2Eligibility":null,"source":"ga-laurens-parcels-13175","appraiserUrl":"https://qpublic.schneidercorp.com/Application.aspx?App=LaurensCountyGA&Layer=Parcels&PageType=Report&KeyValue=088%20%20%20%20022","gisViewerUrl":"https://hogarc-hogarc.opendata.arcgis.com/datasets/HHvUPZ2XuLOAJxjR::laurens-county-wide-view/explore"},"geometry":{"type":"MultiPolygon","coordinates":[[[[-82.999543,32.208953],[-83.001516,32.210667],[-83.001479,32.210589],[-83.001383,32.210224],[-83.001107,32.208722],[-83.00085,32.207879],[-82.999543,32.208953]]],[[[-83.000984,32.207768],[-83.001032,32.207925],[-83.001266,32.208696],[-83.001542,32.210198],[-83.001653,32.210594],[-83.001709,32.210674],[-83.001859,32.210821],[-83.00289,32.211719],[-83.004487,32.210381],[-83.006696,32.208467],[-83.003556,32.205657],[-83.000984,32.207768]]]]}},{"type":"Feature","id":"13175:088    023","properties":{"id":"13175:088    023","parcelId":"088    023","countyFips":"13175","countyName":"Laurens","state":"Georgia","marketIds":["Macon"],"situsAddress":null,"situsCity":null,"situsZip":null,"jurisdictionCode":null,"ownerName":null,"ownerName2":null,"propertyName":null,"zoningCode":null,"zoningDistrict":null,"jurisdictionPrefix":null,"dorCode":null,"acreage":44.5177,"centroid":[-83.007145,32.20627],"lastSale":{"date":null,"price":null,"qualified":null},"tax":{"marketValue":null,"assessedValue":null,"taxableValue":null,"taxes":null},"mailingAddress":{"line1":null,"line2":null,"city":null,"state":null,"zip":null},"incomeTract":null,"incomeBlockGroup":null,"nearestRoad":null,"flu":null,"opportunityZone":null,"oz2Eligibility":null,"source":"ga-laurens-parcels-13175","appraiserUrl":"https://qpublic.schneidercorp.com/Application.aspx?App=LaurensCountyGA&Layer=Parcels&PageType=Report&KeyValue=088%20%20%20%20023","gisViewerUrl":"https://hogarc-hogarc.opendata.arcgis.com/datasets/HHvUPZ2XuLOAJxjR::laurens-county-wide-view/explore"},"geometry":{"type":"Polygon","coordinates":[[[-83.003556,32.205657],[-83.006696,32.208467],[-83.007735,32.207519],[-83.008089,32.207218],[-83.009943,32.205732],[-83.00685,32.203029],[-83.003556,32.205657]]]}},{"type":"Feature","id":"13175:088    024","properties":{"id":"13175:088    024","parcelId":"088    024","countyFips":"13175","countyName":"Laurens","state":"Georgia","marketIds":["Macon"],"situsAddress":null,"situsCity":null,"situsZip":null,"jurisdictionCode":null,"ownerName":null,"ownerName2":null,"propertyName":null,"zoningCode":null,"zoningDistrict":null,"jurisdictionPrefix":null,"dorCode":null,"acreage":9.182,"centroid":[-83.024232,32.216599],"lastSale":{"date":null,"price":null,"qualified":null},"tax":{"marketValue":null,"assessedValue":null,"taxableValue":null,"taxes":null},"mailingAddress":{"line1":null,"line2":null,"city":null,"state":null,"zip":null},"incomeTract":null,"incomeBlockGroup":null,"nearestRoad":null,"flu":null,"opportunityZone":null,"oz2Eligibility":null,"source":"ga-laurens-parcels-13175","appraiserUrl":"https://qpublic.schneidercorp.com/Application.aspx?App=LaurensCountyGA&Layer=Parcels&PageType=Report&KeyValue=088%20%20%20%20024","gisViewerUrl":"https://hogarc-hogarc.opendata.arcgis.com/datasets/HHvUPZ2XuLOAJxjR::laurens-county-wide-view/explore"},"geometry":{"type":"Polygon","coordinates":[[[-83.02349,32.217194],[-83.023497,32.217199],[-83.025428,32.216945],[-83.025916,32.216528],[-83.024324,32.215172],[-83.022736,32.216555],[-83.02349,32.217194]]]}},{"type":"Feature","id":"13175:088    025","properties":{"id":"13175:088    025","parcelId":"088    025","countyFips":"13175","countyName":"Laurens","state":"Georgia","marketIds":["Macon"],"situsAddress":null,"situsCity":null,"situsZip":null,"jurisdictionCode":null,"ownerName":null,"ownerName2":null,"propertyName":null,"zoningCode":null,"zoningDistrict":null,"jurisdictionPrefix":null,"dorCode":null,"acreage":87.1548,"centroid":[-83.023901,32.214147],"lastSale":{"date":null,"price":null,"qualified":null},"tax":{"marketValue":null,"assessedValue":null,"taxableValue":null,"taxes":null},"mailingAddress":{"line1":null,"line2":null,"city":null,"state":null,"zip":null},"incomeTract":null,"incomeBlockGroup":null,"nearestRoad":null,"flu":null,"opportunityZone":null,"oz2Eligibility":null,"source":"ga-laurens-parcels-13175","appraiserUrl":"https://qpublic.schneidercorp.com/Application.aspx?App=LaurensCountyGA&Layer=Parcels&PageType=Report&KeyValue=088%20%20%20%20025","gisViewerUrl":"https://hogarc-hogarc.opendata.arcgis.com/datasets/HHvUPZ2XuLOAJxjR::laurens-county-wide-view/explore"},"geometry":{"type":"Polygon","coordinates":[[[-83.01739,32.212023],[-83.022736,32.216555],[-83.024324,32.215172],[-83.025916,32.216528],[-83.0274,32.215259],[-83.026693,32.214371],[-83.026829,32.213384],[-83.019918,32.209886],[-83.01739,32.212023]]]}},{"type":"Feature","id":"13175:089    004","properties":{"id":"13175:089    004","parcelId":"089    004","countyFips":"13175","countyName":"Laurens","state":"Georgia","marketIds":["Macon"],"situsAddress":null,"situsCity":null,"situsZip":null,"jurisdictionCode":null,"ownerName":null,"ownerName2":null,"propertyName":null,"zoningCode":null,"zoningDistrict":null,"jurisdictionPrefix":null,"dorCode":null,"acreage":95.857,"centroid":[-83.013735,32.20024],"lastSale":{"date":null,"price":null,"qualified":null},"tax":{"marketValue":null,"assessedValue":null,"taxableValue":null,"taxes":null},"mailingAddress":{"line1":null,"line2":null,"city":null,"state":null,"zip":null},"incomeTract":null,"incomeBlockGroup":null,"nearestRoad":null,"flu":null,"opportunityZone":null,"oz2Eligibility":null,"source":"ga-laurens-parcels-13175","appraiserUrl":"https://qpublic.schneidercorp.com/Application.aspx?App=LaurensCountyGA&Layer=Parcels&PageType=Report&KeyValue=089%20%20%20%20004","gisViewerUrl":"https://hogarc-hogarc.opendata.arcgis.com/datasets/HHvUPZ2XuLOAJxjR::laurens-county-wide-view/explore"},"geometry":{"type":"Polygon","coordinates":[[[-83.00685,32.203029],[-83.009943,32.205732],[-83.010939,32.204911],[-83.013382,32.202828],[-83.014048,32.202317],[-83.016881,32.199965],[-83.015638,32.198869],[-83.015243,32.198464],[-83.014619,32.198858],[-83.014931,32.199198],[-83.014228,32.199675],[-83.013827,32.199183],[-83.014498,32.198726],[-83.014571,32.198806],[-83.015196,32.198411],[-83.014928,32.198082],[-83.013769,32.197018],[-83.00685,32.203029]]]}},{"type":"Feature","id":"13175:089    006","properties":{"id":"13175:089    006","parcelId":"089    006","countyFips":"13175","countyName":"Laurens","state":"Georgia","marketIds":["Macon"],"situsAddress":null,"situsCity":null,"situsZip":null,"jurisdictionCode":null,"ownerName":null,"ownerName2":null,"propertyName":null,"zoningCode":null,"zoningDistrict":null,"jurisdictionPrefix":null,"dorCode":null,"acreage":126.5565,"centroid":[-83.010395,32.196244],"lastSale":{"date":null,"price":null,"qualified":null},"tax":{"marketValue":null,"assessedValue":null,"taxableValue":null,"taxes":null},"mailingAddress":{"line1":null,"line2":null,"city":null,"state":null,"zip":null},"incomeTract":null,"incomeBlockGroup":null,"nearestRoad":null,"flu":null,"opportunityZone":null,"oz2Eligibility":null,"source":"ga-laurens-parcels-13175","appraiserUrl":"https://qpublic.schneidercorp.com/Application.aspx?App=LaurensCountyGA&Layer=Parcels&PageType=Report&KeyValue=089%20%20%20%20006","gisViewerUrl":"https://hogarc-hogarc.opendata.arcgis.com/datasets/HHvUPZ2XuLOAJxjR::laurens-county-wide-view/explore"},"geometry":{"type":"Polygon","coordinates":[[[-83.003403,32.200002],[-83.00685,32.203029],[-83.013458,32.197297],[-83.012925,32.195348],[-83.013716,32.194604],[-83.013286,32.192946],[-83.013017,32.191719],[-83.010187,32.194085],[-83.006713,32.19717],[-83.003403,32.200002]]]}},{"type":"Feature","id":"13175:089    007","properties":{"id":"13175:089    007","parcelId":"089    007","countyFips":"13175","countyName":"Laurens","state":"Georgia","marketIds":["Macon"],"situsAddress":null,"situsCity":null,"situsZip":null,"jurisdictionCode":null,"ownerName":null,"ownerName2":null,"propertyName":null,"zoningCode":null,"zoningDistrict":null,"jurisdictionPrefix":null,"dorCode":null,"acreage":107.9525,"centroid":[-83.006946,32.193451],"lastSale":{"date":null,"price":null,"qualified":null},"tax":{"marketValue":null,"assessedValue":null,"taxableValue":null,"taxes":null},"mailingAddress":{"line1":null,"line2":null,"city":null,"state":null,"zip":null},"incomeTract":null,"incomeBlockGroup":null,"nearestRoad":null,"flu":null,"opportunityZone":null,"oz2Eligibility":null,"source":"ga-laurens-parcels-13175","appraiserUrl":"https://qpublic.schneidercorp.com/Application.aspx?App=LaurensCountyGA&Layer=Parcels&PageType=Report&KeyValue=089%20%20%20%20007","gisViewerUrl":"https://hogarc-hogarc.opendata.arcgis.com/datasets/HHvUPZ2XuLOAJxjR::laurens-county-wide-view/explore"},"geometry":{"type":"MultiPolygon","coordinates":[[[[-83.013884,32.190698],[-83.013952,32.190979],[-83.015047,32.190114],[-83.016773,32.188683],[-83.014531,32.186594],[-83.012507,32.188056],[-83.012851,32.189619],[-83.0136,32.189506],[-83.013884,32.190698]]],[[[-83.009347,32.19039],[-83.012502,32.192152],[-83.013017,32.191719],[-83.012579,32.189878],[-83.011547,32.188781],[-83.009347,32.19039]]],[[[-83.004508,32.193163],[-83.003872,32.193708],[-83.004971,32.19467],[-83.00439,32.195173],[-83.006713,32.19717],[-83.010187,32.194085],[-83.011887,32.192666],[-83.008683,32.190889],[-83.007479,32.191792],[-83.006774,32.191192],[-83.004508,32.193163]]]]}},{"type":"Feature","id":"13175:089    008","properties":{"id":"13175:089    008","parcelId":"089    008","countyFips":"13175","countyName":"Laurens","state":"Georgia","marketIds":["Macon"],"situsAddress":null,"situsCity":null,"situsZip":null,"jurisdictionCode":null,"ownerName":null,"ownerName2":null,"propertyName":null,"zoningCode":null,"zoningDistrict":null,"jurisdictionPrefix":null,"dorCode":null,"acreage":7.0862,"centroid":[-83.010605,32.191524],"lastSale":{"date":null,"price":null,"qualified":null},"tax":{"marketValue":null,"assessedValue":null,"taxableValue":null,"taxes":null},"mailingAddress":{"line1":null,"line2":null,"city":null,"state":null,"zip":null},"incomeTract":null,"incomeBlockGroup":null,"nearestRoad":null,"flu":null,"opportunityZone":null,"oz2Eligibility":null,"source":"ga-laurens-parcels-13175","appraiserUrl":"https://qpublic.schneidercorp.com/Application.aspx?App=LaurensCountyGA&Layer=Parcels&PageType=Report&KeyValue=089%20%20%20%20008","gisViewerUrl":"https://hogarc-hogarc.opendata.arcgis.com/datasets/HHvUPZ2XuLOAJxjR::laurens-county-wide-view/explore"},"geometry":{"type":"Polygon","coordinates":[[[-83.008683,32.190889],[-83.011887,32.192666],[-83.012502,32.192152],[-83.009347,32.19039],[-83.008683,32.190889]]]}},{"type":"Feature","id":"13175:089    009","properties":{"id":"13175:089    009","parcelId":"089    009","countyFips":"13175","countyName":"Laurens","state":"Georgia","marketIds":["Macon"],"situsAddress":null,"situsCity":null,"situsZip":null,"jurisdictionCode":null,"ownerName":null,"ownerName2":null,"propertyName":null,"zoningCode":null,"zoningDistrict":null,"jurisdictionPrefix":null,"dorCode":null,"acreage":53.9642,"centroid":[-83.003872,32.196301],"lastSale":{"date":null,"price":null,"qualified":null},"tax":{"marketValue":null,"assessedValue":null,"taxableValue":null,"taxes":null},"mailingAddress":{"line1":null,"line2":null,"city":null,"state":null,"zip":null},"incomeTract":null,"incomeBlockGroup":null,"nearestRoad":null,"flu":null,"opportunityZone":null,"oz2Eligibility":null,"source":"ga-laurens-parcels-13175","appraiserUrl":"https://qpublic.schneidercorp.com/Application.aspx?App=LaurensCountyGA&Layer=Parcels&PageType=Report&KeyValue=089%20%20%20%20009","gisViewerUrl":"https://hogarc-hogarc.opendata.arcgis.com/datasets/HHvUPZ2XuLOAJxjR::laurens-county-wide-view/explore"},"geometry":{"type":"Polygon","coordinates":[[[-82.99988,32.197085],[-83.003403,32.200002],[-83.006713,32.19717],[-83.00439,32.195173],[-83.004971,32.19467],[-83.003872,32.193708],[-82.99988,32.197085]]]}},{"type":"Feature","id":"13175:089    010","properties":{"id":"13175:089    010","parcelId":"089    010","countyFips":"13175","countyName":"Laurens","state":"Georgia","marketIds":["Macon"],"situsAddress":null,"situsCity":null,"situsZip":null,"jurisdictionCode":null,"ownerName":null,"ownerName2":null,"propertyName":null,"zoningCode":null,"zoningDistrict":null,"jurisdictionPrefix":null,"dorCode":null,"acreage":16.4624,"centroid":[-83.002099,32.191837],"lastSale":{"date":null,"price":null,"qualified":null},"tax":{"marketValue":null,"assessedValue":null,"taxableValue":null,"taxes":null},"mailingAddress":{"line1":null,"line2":null,"city":null,"state":null,"zip":null},"incomeTract":null,"incomeBlockGroup":null,"nearestRoad":null,"flu":null,"opportunityZone":null,"oz2Eligibility":null,"source":"ga-laurens-parcels-13175","appraiserUrl":"https://qpublic.schneidercorp.com/Application.aspx?App=LaurensCountyGA&Layer=Parcels&PageType=Report&KeyValue=089%20%20%20%20010","gisViewerUrl":"https://hogarc-hogarc.opendata.arcgis.com/datasets/HHvUPZ2XuLOAJxjR::laurens-county-wide-view/explore"},"geometry":{"type":"Polygon","coordinates":[[[-83.001777,32.190532],[-83.001762,32.19054],[-83.000987,32.191],[-83.000267,32.191582],[-83.003347,32.194155],[-83.004453,32.19321],[-83.001777,32.190532]]]}},{"type":"Feature","id":"13175:089    015","properties":{"id":"13175:089    015","parcelId":"089    015","countyFips":"13175","countyName":"Laurens","state":"Georgia","marketIds":["Macon"],"situsAddress":null,"situsCity":null,"situsZip":null,"jurisdictionCode":null,"ownerName":null,"ownerName2":null,"propertyName":null,"zoningCode":null,"zoningDistrict":null,"jurisdictionPrefix":null,"dorCode":null,"acreage":67.4331,"centroid":[-83.005077,32.178639],"lastSale":{"date":null,"price":null,"qualified":null},"tax":{"marketValue":null,"assessedValue":null,"taxableValue":null,"taxes":null},"mailingAddress":{"line1":null,"line2":null,"city":null,"state":null,"zip":null},"incomeTract":null,"incomeBlockGroup":null,"nearestRoad":null,"flu":null,"opportunityZone":null,"oz2Eligibility":null,"source":"ga-laurens-parcels-13175","appraiserUrl":"https://qpublic.schneidercorp.com/Application.aspx?App=LaurensCountyGA&Layer=Parcels&PageType=Report&KeyValue=089%20%20%20%20015","gisViewerUrl":"https://hogarc-hogarc.opendata.arcgis.com/datasets/HHvUPZ2XuLOAJxjR::laurens-county-wide-view/explore"},"geometry":{"type":"Polygon","coordinates":[[[-83.00579,32.174744],[-83.00442,32.175904],[-82.996829,32.182327],[-83.003304,32.188245],[-83.01099,32.181803],[-83.007154,32.173769],[-83.00705,32.173678],[-83.00579,32.174744]]]}},{"type":"Feature","id":"13175:090    001","properties":{"id":"13175:090    001","parcelId":"090    001","countyFips":"13175","countyName":"Laurens","state":"Georgia","marketIds":["Macon"],"situsAddress":null,"situsCity":null,"situsZip":null,"jurisdictionCode":null,"ownerName":null,"ownerName2":null,"propertyName":null,"zoningCode":null,"zoningDistrict":null,"jurisdictionPrefix":null,"dorCode":null,"acreage":110.1799,"centroid":[-83.002746,32.170027],"lastSale":{"date":null,"price":null,"qualified":null},"tax":{"marketValue":null,"assessedValue":null,"taxableValue":null,"taxes":null},"mailingAddress":{"line1":null,"line2":null,"city":null,"state":null,"zip":null},"incomeTract":null,"incomeBlockGroup":null,"nearestRoad":null,"flu":null,"opportunityZone":null,"oz2Eligibility":null,"source":"ga-laurens-parcels-13175","appraiserUrl":"https://qpublic.schneidercorp.com/Application.aspx?App=LaurensCountyGA&Layer=Parcels&PageType=Report&KeyValue=090%20%20%20%20001","gisViewerUrl":"https://hogarc-hogarc.opendata.arcgis.com/datasets/HHvUPZ2XuLOAJxjR::laurens-county-wide-view/explore"},"geometry":{"type":"Polygon","coordinates":[[[-82.996532,32.170875],[-82.999802,32.173805],[-83.003505,32.170547],[-83.00705,32.173678],[-83.00896,32.172061],[-83.002357,32.166248],[-82.996532,32.170875]]]}},{"type":"Feature","id":"13175:088    003 E","properties":{"id":"13175:088    003 E","parcelId":"088    003 E","countyFips":"13175","countyName":"Laurens","state":"Georgia","marketIds":["Macon"],"situsAddress":null,"situsCity":null,"situsZip":null,"jurisdictionCode":null,"ownerName":null,"ownerName2":null,"propertyName":null,"zoningCode":null,"zoningDistrict":null,"jurisdictionPrefix":null,"dorCode":null,"acreage":13.1466,"centroid":[-83.016752,32.201409],"lastSale":{"date":null,"price":null,"qualified":null},"tax":{"marketValue":null,"assessedValue":null,"taxableValue":null,"taxes":null},"mailingAddress":{"line1":null,"line2":null,"city":null,"state":null,"zip":null},"incomeTract":null,"incomeBlockGroup":null,"nearestRoad":null,"flu":null,"opportunityZone":null,"oz2Eligibility":null,"source":"ga-laurens-parcels-13175","appraiserUrl":"https://qpublic.schneidercorp.com/Application.aspx?App=LaurensCountyGA&Layer=Parcels&PageType=Report&KeyValue=088%20%20%20%20003%20E","gisViewerUrl":"https://hogarc-hogarc.opendata.arcgis.com/datasets/HHvUPZ2XuLOAJxjR::laurens-county-wide-view/explore"},"geometry":{"type":"Polygon","coordinates":[[[-83.018448,32.201325],[-83.017738,32.200722],[-83.016983,32.200064],[-83.014718,32.201956],[-83.015875,32.202977],[-83.018448,32.201325]]]}},{"type":"Feature","id":"13175:089    016","properties":{"id":"13175:089    016","parcelId":"089    016","countyFips":"13175","countyName":"Laurens","state":"Georgia","marketIds":["Macon"],"situsAddress":null,"situsCity":null,"situsZip":null,"jurisdictionCode":null,"ownerName":null,"ownerName2":null,"propertyName":null,"zoningCode":null,"zoningDistrict":null,"jurisdictionPrefix":null,"dorCode":null,"acreage":36.7634,"centroid":[-83.010724,32.186048],"lastSale":{"date":null,"price":null,"qualified":null},"tax":{"marketValue":null,"assessedValue":null,"taxableValue":null,"taxes":null},"mailingAddress":{"line1":null,"line2":null,"city":null,"state":null,"zip":null},"incomeTract":null,"incomeBlockGroup":null,"nearestRoad":null,"flu":null,"opportunityZone":null,"oz2Eligibility":null,"source":"ga-laurens-parcels-13175","appraiserUrl":"https://qpublic.schneidercorp.com/Application.aspx?App=LaurensCountyGA&Layer=Parcels&PageType=Report&KeyValue=089%20%20%20%20016","gisViewerUrl":"https://hogarc-hogarc.opendata.arcgis.com/datasets/HHvUPZ2XuLOAJxjR::laurens-county-wide-view/explore"},"geometry":{"type":"MultiPolygon","coordinates":[[[[-83.012788,32.185555],[-83.012732,32.185694],[-83.01256,32.186237],[-83.0125,32.186557],[-83.012453,32.186969],[-83.012438,32.187517],[-83.012507,32.188056],[-83.014531,32.186594],[-83.012985,32.185153],[-83.012788,32.185555]]],[[[-83.011219,32.188466],[-83.011262,32.18847],[-83.011455,32.188524],[-83.011562,32.188595],[-83.011682,32.188702],[-83.012515,32.189584],[-83.012183,32.188073],[-83.012116,32.187545],[-83.012112,32.187208],[-83.012179,32.186523],[-83.012289,32.186007],[-83.012424,32.185609],[-83.01273,32.184916],[-83.010143,32.182513],[-83.008717,32.183708],[-83.01152,32.187391],[-83.01133,32.187845],[-83.01105,32.18789],[-83.010582,32.188265],[-83.010555,32.188351],[-83.010637,32.188644],[-83.010928,32.188506],[-83.011068,32.188472],[-83.011219,32.188466]]]]}},{"type":"Feature","id":"13175:089    018","properties":{"id":"13175:089    018","parcelId":"089    018","countyFips":"13175","countyName":"Laurens","state":"Georgia","marketIds":["Macon"],"situsAddress":null,"situsCity":null,"situsZip":null,"jurisdictionCode":null,"ownerName":null,"ownerName2":null,"propertyName":null,"zoningCode":null,"zoningDistrict":null,"jurisdictionPrefix":null,"dorCode":null,"acreage":85.492,"centroid":[-83.008201,32.188634],"lastSale":{"date":null,"price":null,"qualified":null},"tax":{"marketValue":null,"assessedValue":null,"taxableValue":null,"taxes":null},"mailingAddress":{"line1":null,"line2":null,"city":null,"state":null,"zip":null},"incomeTract":null,"incomeBlockGroup":null,"nearestRoad":null,"flu":null,"opportunityZone":null,"oz2Eligibility":null,"source":"ga-laurens-parcels-13175","appraiserUrl":"https://qpublic.schneidercorp.com/Application.aspx?App=LaurensCountyGA&Layer=Parcels&PageType=Report&KeyValue=089%20%20%20%20018","gisViewerUrl":"https://hogarc-hogarc.opendata.arcgis.com/datasets/HHvUPZ2XuLOAJxjR::laurens-county-wide-view/explore"},"geometry":{"type":"MultiPolygon","coordinates":[[[[-83.004461,32.189105],[-83.004554,32.189116],[-83.005179,32.189225],[-83.006197,32.189352],[-83.008162,32.189642],[-83.00868,32.189703],[-83.00889,32.189709],[-83.009011,32.189692],[-83.009187,32.189621],[-83.009492,32.189443],[-83.010637,32.188644],[-83.010555,32.188351],[-83.010582,32.188265],[-83.01105,32.18789],[-83.01133,32.187845],[-83.01152,32.187391],[-83.008717,32.183708],[-83.003304,32.188245],[-83.00431,32.189104],[-83.004461,32.189105]]],[[[-83.006774,32.191192],[-83.007479,32.191792],[-83.01019,32.189773],[-83.009866,32.18936],[-83.009428,32.189652],[-83.009163,32.189789],[-83.008978,32.18984],[-83.008793,32.189846],[-83.008136,32.189777],[-83.006172,32.189488],[-83.00515,32.189361],[-83.004476,32.189245],[-83.006774,32.191192]]]]}},{"type":"Feature","id":"13175:089    013","properties":{"id":"13175:089    013","parcelId":"089    013","countyFips":"13175","countyName":"Laurens","state":"Georgia","marketIds":["Macon"],"situsAddress":null,"situsCity":null,"situsZip":null,"jurisdictionCode":null,"ownerName":null,"ownerName2":null,"propertyName":null,"zoningCode":null,"zoningDistrict":null,"jurisdictionPrefix":null,"dorCode":null,"acreage":26.3428,"centroid":[-83.004202,32.190181],"lastSale":{"date":null,"price":null,"qualified":null},"tax":{"marketValue":null,"assessedValue":null,"taxableValue":null,"taxes":null},"mailingAddress":{"line1":null,"line2":null,"city":null,"state":null,"zip":null},"incomeTract":null,"incomeBlockGroup":null,"nearestRoad":null,"flu":null,"opportunityZone":null,"oz2Eligibility":null,"source":"ga-laurens-parcels-13175","appraiserUrl":"https://qpublic.schneidercorp.com/Application.aspx?App=LaurensCountyGA&Layer=Parcels&PageType=Report&KeyValue=089%20%20%20%20013","gisViewerUrl":"https://hogarc-hogarc.opendata.arcgis.com/datasets/HHvUPZ2XuLOAJxjR::laurens-county-wide-view/explore"},"geometry":{"type":"Polygon","coordinates":[[[-83.004287,32.189243],[-83.004207,32.189253],[-83.00401,32.189308],[-83.003632,32.189467],[-83.001777,32.190532],[-83.004453,32.19321],[-83.006774,32.191192],[-83.004476,32.189245],[-83.004287,32.189243]]]}},{"type":"Feature","id":"13175:089    013 A","properties":{"id":"13175:089    013 A","parcelId":"089    013 A","countyFips":"13175","countyName":"Laurens","state":"Georgia","marketIds":["Macon"],"situsAddress":null,"situsCity":null,"situsZip":null,"jurisdictionCode":null,"ownerName":null,"ownerName2":null,"propertyName":null,"zoningCode":null,"zoningDistrict":null,"jurisdictionPrefix":null,"dorCode":null,"acreage":100.9524,"centroid":[-83.00044,32.188173],"lastSale":{"date":null,"price":null,"qualified":null},"tax":{"marketValue":null,"assessedValue":null,"taxableValue":null,"taxes":null},"mailingAddress":{"line1":null,"line2":null,"city":null,"state":null,"zip":null},"incomeTract":null,"incomeBlockGroup":null,"nearestRoad":null,"flu":null,"opportunityZone":null,"oz2Eligibility":null,"source":"ga-laurens-parcels-13175","appraiserUrl":"https://qpublic.schneidercorp.com/Application.aspx?App=LaurensCountyGA&Layer=Parcels&PageType=Report&KeyValue=089%20%20%20%20013%20A","gisViewerUrl":"https://hogarc-hogarc.opendata.arcgis.com/datasets/HHvUPZ2XuLOAJxjR::laurens-county-wide-view/explore"},"geometry":{"type":"MultiPolygon","coordinates":[[[[-82.995742,32.183246],[-82.995772,32.183262],[-83.000646,32.185819],[-82.996829,32.182327],[-82.995742,32.183246]]],[[[-82.993375,32.185249],[-82.993087,32.185493],[-83.000151,32.191485],[-83.000888,32.190891],[-83.003451,32.189401],[-83.003976,32.189171],[-83.004166,32.18912],[-83.00431,32.189104],[-83.003396,32.188329],[-83.002912,32.187887],[-82.995126,32.183768],[-82.993375,32.185249]]]]}},{"type":"Feature","id":"13175:087    021","properties":{"id":"13175:087    021","parcelId":"087    021","countyFips":"13175","countyName":"Laurens","state":"Georgia","marketIds":["Macon"],"situsAddress":null,"situsCity":null,"situsZip":null,"jurisdictionCode":null,"ownerName":null,"ownerName2":null,"propertyName":null,"zoningCode":null,"zoningDistrict":null,"jurisdictionPrefix":null,"dorCode":null,"acreage":60.5843,"centroid":[-83.025926,32.219561],"lastSale":{"date":null,"price":null,"qualified":null},"tax":{"marketValue":null,"assessedValue":null,"taxableValue":null,"taxes":null},"mailingAddress":{"line1":null,"line2":null,"city":null,"state":null,"zip":null},"incomeTract":null,"incomeBlockGroup":null,"nearestRoad":null,"flu":null,"opportunityZone":null,"oz2Eligibility":null,"source":"ga-laurens-parcels-13175","appraiserUrl":"https://qpublic.schneidercorp.com/Application.aspx?App=LaurensCountyGA&Layer=Parcels&PageType=Report&KeyValue=087%20%20%20%20021","gisViewerUrl":"https://hogarc-hogarc.opendata.arcgis.com/datasets/HHvUPZ2XuLOAJxjR::laurens-county-wide-view/explore"},"geometry":{"type":"Polygon","coordinates":[[[-83.025377,32.217258],[-83.025045,32.217302],[-83.023803,32.217466],[-83.024283,32.217872],[-83.023046,32.218953],[-83.024708,32.220434],[-83.027019,32.222433],[-83.029121,32.224201],[-83.031337,32.222448],[-83.025524,32.217238],[-83.025377,32.217258]]]}},{"type":"Feature","id":"13175:088    011","properties":{"id":"13175:088    011","parcelId":"088    011","countyFips":"13175","countyName":"Laurens","state":"Georgia","marketIds":["Macon"],"situsAddress":null,"situsCity":null,"situsZip":null,"jurisdictionCode":null,"ownerName":null,"ownerName2":null,"propertyName":null,"zoningCode":null,"zoningDistrict":null,"jurisdictionPrefix":null,"dorCode":null,"acreage":45.3488,"centroid":[-83.004017,32.221055],"lastSale":{"date":null,"price":null,"qualified":null},"tax":{"marketValue":null,"assessedValue":null,"taxableValue":null,"taxes":null},"mailingAddress":{"line1":null,"line2":null,"city":null,"state":null,"zip":null},"incomeTract":null,"incomeBlockGroup":null,"nearestRoad":null,"flu":null,"opportunityZone":null,"oz2Eligibility":null,"source":"ga-laurens-parcels-13175","appraiserUrl":"https://qpublic.schneidercorp.com/Application.aspx?App=LaurensCountyGA&Layer=Parcels&PageType=Report&KeyValue=088%20%20%20%20011","gisViewerUrl":"https://hogarc-hogarc.opendata.arcgis.com/datasets/HHvUPZ2XuLOAJxjR::laurens-county-wide-view/explore"},"geometry":{"type":"Polygon","coordinates":[[[-83.006859,32.221561],[-83.006995,32.221519],[-83.006459,32.22112],[-83.002095,32.218505],[-82.999402,32.220637],[-83.00229,32.222987],[-83.006859,32.221561]]]}},{"type":"Feature","id":"13175:088    006 B","properties":{"id":"13175:088    006 B","parcelId":"088    006 B","countyFips":"13175","countyName":"Laurens","state":"Georgia","marketIds":["Macon"],"situsAddress":null,"situsCity":null,"situsZip":null,"jurisdictionCode":null,"ownerName":null,"ownerName2":null,"propertyName":null,"zoningCode":null,"zoningDistrict":null,"jurisdictionPrefix":null,"dorCode":null,"acreage":124.7562,"centroid":[-83.006419,32.224376],"lastSale":{"date":null,"price":null,"qualified":null},"tax":{"marketValue":null,"assessedValue":null,"taxableValue":null,"taxes":null},"mailingAddress":{"line1":null,"line2":null,"city":null,"state":null,"zip":null},"incomeTract":null,"incomeBlockGroup":null,"nearestRoad":null,"flu":null,"opportunityZone":null,"oz2Eligibility":null,"source":"ga-laurens-parcels-13175","appraiserUrl":"https://qpublic.schneidercorp.com/Application.aspx?App=LaurensCountyGA&Layer=Parcels&PageType=Report&KeyValue=088%20%20%20%20006%20B","gisViewerUrl":"https://hogarc-hogarc.opendata.arcgis.com/datasets/HHvUPZ2XuLOAJxjR::laurens-county-wide-view/explore"},"geometry":{"type":"Polygon","coordinates":[[[-83.007117,32.221803],[-83.005746,32.222233],[-83.002576,32.223221],[-83.003283,32.223798],[-83.002417,32.224548],[-83.00943,32.230576],[-83.013635,32.227037],[-83.007148,32.221793],[-83.007117,32.221803]]]}}]}