{"type":"FeatureCollection","name":"01055--11_27","features":[{"type":"Feature","id":"01055:1306130000006008","properties":{"id":"01055:1306130000006008","parcelId":"1306130000006008","countyFips":"01055","countyName":"Etowah","state":"Alabama","marketIds":["Birmingham"],"situsAddress":"0","situsCity":null,"situsZip":null,"jurisdictionCode":null,"ownerName":"STAFFORD, S R & WF LINDA T","ownerName2":null,"propertyName":null,"zoningCode":null,"zoningDistrict":null,"jurisdictionPrefix":null,"dorCode":null,"acreage":10.1266,"centroid":[-85.744949,33.987884],"lastSale":{"date":null,"price":null,"qualified":null},"tax":{"marketValue":4430.0,"assessedValue":440.0,"taxableValue":null,"taxes":12.98},"mailingAddress":{"line1":"11 BROCK LN","line2":null,"city":"PIEDMONT","state":"AL","zip":"36272"},"incomeTract":null,"incomeBlockGroup":null,"nearestRoad":null,"flu":null,"opportunityZone":null,"oz2Eligibility":null,"source":"al-etowah-parcels-01055","appraiserUrl":"https://etowahproperty.assurancegov.com/Property/Details?taxyear=2026&ppin=23834","gisViewerUrl":"https://isv.kcsgis.com/al.etowah_revenue/"},"geometry":{"type":"Polygon","coordinates":[[[-85.744347,33.986716],[-85.743648,33.986718],[-85.744992,33.988742],[-85.744304,33.989971],[-85.745823,33.989298],[-85.745859,33.987028],[-85.745672,33.986713],[-85.744347,33.986716]]]}},{"type":"Feature","id":"01055:1306130000006011","properties":{"id":"01055:1306130000006011","parcelId":"1306130000006011","countyFips":"01055","countyName":"Etowah","state":"Alabama","marketIds":["Birmingham"],"situsAddress":"265 BROCK LANE","situsCity":null,"situsZip":null,"jurisdictionCode":null,"ownerName":"WILLIAMS, JASPER W","ownerName2":null,"propertyName":null,"zoningCode":null,"zoningDistrict":null,"jurisdictionPrefix":null,"dorCode":null,"acreage":10.8031,"centroid":[-85.747205,33.987696],"lastSale":{"date":null,"price":null,"qualified":null},"tax":{"marketValue":159400.0,"assessedValue":15940.0,"taxableValue":null,"taxes":524.84},"mailingAddress":{"line1":"265 BROCK LANE","line2":null,"city":"PIEDMONT","state":"AL","zip":"36272"},"incomeTract":null,"incomeBlockGroup":null,"nearestRoad":null,"flu":null,"opportunityZone":null,"oz2Eligibility":null,"source":"al-etowah-parcels-01055","appraiserUrl":"https://etowahproperty.assurancegov.com/Property/Details?taxyear=2026&ppin=88142","gisViewerUrl":"https://isv.kcsgis.com/al.etowah_revenue/"},"geometry":{"type":"Polygon","coordinates":[[[-85.745672,33.986713],[-85.745847,33.987009],[-85.74695,33.988863],[-85.747754,33.98852],[-85.748447,33.988366],[-85.748562,33.986707],[-85.745672,33.986713]]]}},{"type":"Feature","id":"01055:1306130000008001","properties":{"id":"01055:1306130000008001","parcelId":"1306130000008001","countyFips":"01055","countyName":"Etowah","state":"Alabama","marketIds":["Birmingham"],"situsAddress":"0","situsCity":null,"situsZip":null,"jurisdictionCode":null,"ownerName":"STAFFORD, HAROLD R & SAMUEL R","ownerName2":null,"propertyName":null,"zoningCode":null,"zoningDistrict":null,"jurisdictionPrefix":null,"dorCode":null,"acreage":23.8477,"centroid":[-85.746014,33.985922],"lastSale":{"date":null,"price":null,"qualified":null},"tax":{"marketValue":10603.0,"assessedValue":1060.0,"taxableValue":null,"taxes":40.62},"mailingAddress":{"line1":"4892 PARK DR","line2":null,"city":"HOKES BLUFF","state":"AL","zip":"35903"},"incomeTract":null,"incomeBlockGroup":null,"nearestRoad":null,"flu":null,"opportunityZone":null,"oz2Eligibility":null,"source":"al-etowah-parcels-01055","appraiserUrl":"https://etowahproperty.assurancegov.com/Property/Details?taxyear=2026&ppin=82934","gisViewerUrl":"https://isv.kcsgis.com/al.etowah_revenue/"},"geometry":{"type":"Polygon","coordinates":[[[-85.741642,33.986303],[-85.74164,33.986722],[-85.75036,33.986703],[-85.750387,33.986178],[-85.75018,33.98622],[-85.749976,33.986218],[-85.749283,33.986044],[-85.748993,33.986026],[-85.748731,33.986056],[-85.747961,33.986232],[-85.747783,33.986246],[-85.746649,33.986078],[-85.746404,33.985994],[-85.746194,33.98586],[-85.746016,33.98566],[-85.745899,33.985388],[-85.745822,33.985282],[-85.745673,33.985176],[-85.745489,33.985121],[-85.742046,33.985153],[-85.741646,33.985128],[-85.741642,33.986303]]]}},{"type":"Feature","id":"01055:1306130000008002","properties":{"id":"01055:1306130000008002","parcelId":"1306130000008002","countyFips":"01055","countyName":"Etowah","state":"Alabama","marketIds":["Birmingham"],"situsAddress":"0","situsCity":null,"situsZip":null,"jurisdictionCode":null,"ownerName":"JOHNS SAMUEL DADE","ownerName2":null,"propertyName":null,"zoningCode":null,"zoningDistrict":null,"jurisdictionPrefix":null,"dorCode":null,"acreage":60.8833,"centroid":[-85.746356,33.98529],"lastSale":{"date":null,"price":null,"qualified":null},"tax":{"marketValue":159300.0,"assessedValue":15940.0,"taxableValue":null,"taxes":579.94},"mailingAddress":{"line1":"13 PRIORY CLUB DR NW","line2":null,"city":"CARTERSVILLE","state":"GA","zip":"30120"},"incomeTract":null,"incomeBlockGroup":null,"nearestRoad":null,"flu":null,"opportunityZone":null,"oz2Eligibility":null,"source":"al-etowah-parcels-01055","appraiserUrl":"https://etowahproperty.assurancegov.com/Property/Details?taxyear=2026&ppin=90022","gisViewerUrl":"https://isv.kcsgis.com/al.etowah_revenue/"},"geometry":{"type":"Polygon","coordinates":[[[-85.750654,33.983074],[-85.749188,33.983086],[-85.740646,33.983154],[-85.739941,33.984579],[-85.741381,33.984992],[-85.741782,33.985061],[-85.742045,33.985071],[-85.7454,33.985033],[-85.745554,33.985048],[-85.745747,33.985117],[-85.745896,33.985227],[-85.745984,33.985344],[-85.74606,33.985545],[-85.74614,33.985675],[-85.74626,33.985799],[-85.746421,33.985907],[-85.7467,33.986004],[-85.747686,33.986156],[-85.747926,33.986154],[-85.748699,33.985977],[-85.749005,33.985943],[-85.749284,33.98596],[-85.749917,33.986125],[-85.750198,33.986135],[-85.750394,33.986087],[-85.750654,33.983074]]]}},{"type":"Feature","id":"01055:1306130000008003","properties":{"id":"01055:1306130000008003","parcelId":"1306130000008003","countyFips":"01055","countyName":"Etowah","state":"Alabama","marketIds":["Birmingham"],"situsAddress":"0","situsCity":null,"situsZip":null,"jurisdictionCode":null,"ownerName":"SLATON, GLENN L & WF DIANE R","ownerName2":null,"propertyName":null,"zoningCode":null,"zoningDistrict":null,"jurisdictionPrefix":null,"dorCode":null,"acreage":19.6874,"centroid":[-85.738708,33.985433],"lastSale":{"date":null,"price":null,"qualified":null},"tax":{"marketValue":51900.0,"assessedValue":5200.0,"taxableValue":null,"taxes":189.2},"mailingAddress":{"line1":"2579 PARK DRIVE","line2":null,"city":"KENNESAW","state":"GA","zip":"30144"},"incomeTract":null,"incomeBlockGroup":null,"nearestRoad":null,"flu":null,"opportunityZone":null,"oz2Eligibility":null,"source":"al-etowah-parcels-01055","appraiserUrl":"https://etowahproperty.assurancegov.com/Property/Details?taxyear=2026&ppin=90035","gisViewerUrl":"https://isv.kcsgis.com/al.etowah_revenue/"},"geometry":{"type":"Polygon","coordinates":[[[-85.740539,33.983155],[-85.737613,33.983178],[-85.737337,33.986732],[-85.738864,33.986728],[-85.738913,33.986508],[-85.738984,33.986297],[-85.740539,33.983155]]]}},{"type":"Feature","id":"01055:1306240000001000","properties":{"id":"01055:1306240000001000","parcelId":"1306240000001000","countyFips":"01055","countyName":"Etowah","state":"Alabama","marketIds":["Birmingham"],"situsAddress":"0","situsCity":null,"situsZip":null,"jurisdictionCode":null,"ownerName":"SLATON, GLENN L & WF DIANE R","ownerName2":null,"propertyName":null,"zoningCode":null,"zoningDistrict":null,"jurisdictionPrefix":null,"dorCode":null,"acreage":15.9342,"centroid":[-85.739,33.982392],"lastSale":{"date":null,"price":null,"qualified":null},"tax":{"marketValue":41300.0,"assessedValue":4140.0,"taxableValue":null,"taxes":150.64},"mailingAddress":{"line1":"2579 PARK DRIVE","line2":null,"city":"KENNESAW","state":"GA","zip":"30144"},"incomeTract":null,"incomeBlockGroup":null,"nearestRoad":null,"flu":null,"opportunityZone":null,"oz2Eligibility":null,"source":"al-etowah-parcels-01055","appraiserUrl":"https://etowahproperty.assurancegov.com/Property/Details?taxyear=2026&ppin=23916","gisViewerUrl":"https://isv.kcsgis.com/al.etowah_revenue/"},"geometry":{"type":"Polygon","coordinates":[[[-85.737756,33.981259],[-85.73762,33.983081],[-85.737613,33.983178],[-85.740539,33.983155],[-85.741473,33.981285],[-85.737756,33.981259]]]}},{"type":"Feature","id":"01055:1306240000002000","properties":{"id":"01055:1306240000002000","parcelId":"1306240000002000","countyFips":"01055","countyName":"Etowah","state":"Alabama","marketIds":["Birmingham"],"situsAddress":"1140 ESTES ROAD","situsCity":null,"situsZip":null,"jurisdictionCode":null,"ownerName":"PIERCE, BETTY J","ownerName2":null,"propertyName":null,"zoningCode":null,"zoningDistrict":null,"jurisdictionPrefix":null,"dorCode":null,"acreage":8.6659,"centroid":[-85.740775,33.976165],"lastSale":{"date":null,"price":null,"qualified":null},"tax":{"marketValue":69600.0,"assessedValue":13920.0,"taxableValue":null,"taxes":501.12},"mailingAddress":{"line1":"1140 ESTES RD","line2":null,"city":"PIEDMONT","state":"AL","zip":"36272"},"incomeTract":null,"incomeBlockGroup":null,"nearestRoad":null,"flu":null,"opportunityZone":null,"oz2Eligibility":null,"source":"al-etowah-parcels-01055","appraiserUrl":"https://etowahproperty.assurancegov.com/Property/Details?taxyear=2026&ppin=23917","gisViewerUrl":"https://isv.kcsgis.com/al.etowah_revenue/"},"geometry":{"type":"Polygon","coordinates":[[[-85.742494,33.976604],[-85.742552,33.975989],[-85.742561,33.975825],[-85.738163,33.975816],[-85.738105,33.976593],[-85.742494,33.976604]]]}},{"type":"Feature","id":"01055:1306240000002002","properties":{"id":"01055:1306240000002002","parcelId":"1306240000002002","countyFips":"01055","countyName":"Etowah","state":"Alabama","marketIds":["Birmingham"],"situsAddress":"1450 ESTES ROAD","situsCity":null,"situsZip":null,"jurisdictionCode":null,"ownerName":"MILLER, JEFFREY JOHN","ownerName2":null,"propertyName":null,"zoningCode":null,"zoningDistrict":null,"jurisdictionPrefix":null,"dorCode":null,"acreage":13.4571,"centroid":[-85.739833,33.980541],"lastSale":{"date":null,"price":null,"qualified":null},"tax":{"marketValue":92100.0,"assessedValue":9220.0,"taxableValue":null,"taxes":282.92},"mailingAddress":{"line1":"1450 ESTES ROAD","line2":null,"city":"PIEDMONT","state":"AL","zip":"36272"},"incomeTract":null,"incomeBlockGroup":null,"nearestRoad":null,"flu":null,"opportunityZone":null,"oz2Eligibility":null,"source":"al-etowah-parcels-01055","appraiserUrl":"https://etowahproperty.assurancegov.com/Property/Details?taxyear=2026&ppin=23919","gisViewerUrl":"https://isv.kcsgis.com/al.etowah_revenue/"},"geometry":{"type":"Polygon","coordinates":[[[-85.737857,33.979914],[-85.737809,33.980552],[-85.737756,33.981259],[-85.741473,33.981285],[-85.741992,33.980258],[-85.742111,33.979976],[-85.737857,33.979914]]]}},{"type":"Feature","id":"01055:1306240000002004","properties":{"id":"01055:1306240000002004","parcelId":"1306240000002004","countyFips":"01055","countyName":"Etowah","state":"Alabama","marketIds":["Birmingham"],"situsAddress":"1250 ESTES ROAD","situsCity":null,"situsZip":null,"jurisdictionCode":null,"ownerName":"FINCH, WENDY WATSON 4/15 INT ETAL AND ADAM LOWMAN 1/15 INT AND ANGELA RENEE BROCK 1/5 INT AND DANIEL LYNN WATSON 1/5 INT AND JESSICA LEIGH AUTWELL 1/10 INT AND BRITTANY CHAMBLISS 1/5 INT","ownerName2":null,"propertyName":null,"zoningCode":null,"zoningDistrict":null,"jurisdictionPrefix":null,"dorCode":null,"acreage":21.6163,"centroid":[-85.740649,33.977649],"lastSale":{"date":null,"price":null,"qualified":null},"tax":{"marketValue":77200.0,"assessedValue":9820.0,"taxableValue":null,"taxes":355.65},"mailingAddress":{"line1":"1252 ESTES RD","line2":null,"city":"PIEDMONT","state":"AL","zip":"36272"},"incomeTract":null,"incomeBlockGroup":null,"nearestRoad":null,"flu":null,"opportunityZone":null,"oz2Eligibility":null,"source":"al-etowah-parcels-01055","appraiserUrl":"https://etowahproperty.assurancegov.com/Property/Details?taxyear=2026&ppin=23922","gisViewerUrl":"https://isv.kcsgis.com/al.etowah_revenue/"},"geometry":{"type":"Polygon","coordinates":[[[-85.742316,33.978554],[-85.742371,33.977949],[-85.742494,33.976604],[-85.738105,33.976593],[-85.737959,33.978547],[-85.742316,33.978554]]]}},{"type":"Feature","id":"01055:1306240000002005","properties":{"id":"01055:1306240000002005","parcelId":"1306240000002005","countyFips":"01055","countyName":"Etowah","state":"Alabama","marketIds":["Birmingham"],"situsAddress":"1336 ESTES ROAD","situsCity":null,"situsZip":null,"jurisdictionCode":null,"ownerName":"TOLBERT JONAH MCCADE AND TOLBERT CHRISTINA","ownerName2":null,"propertyName":null,"zoningCode":null,"zoningDistrict":null,"jurisdictionPrefix":null,"dorCode":null,"acreage":12.1062,"centroid":[-85.740498,33.979046],"lastSale":{"date":null,"price":null,"qualified":null},"tax":{"marketValue":74600.0,"assessedValue":10940.0,"taxableValue":null,"taxes":393.84},"mailingAddress":{"line1":"1336 ESTES RD","line2":null,"city":"PIEDMONT","state":"AL","zip":"36272"},"incomeTract":null,"incomeBlockGroup":null,"nearestRoad":null,"flu":null,"opportunityZone":null,"oz2Eligibility":null,"source":"al-etowah-parcels-01055","appraiserUrl":"https://etowahproperty.assurancegov.com/Property/Details?taxyear=2026&ppin=95543","gisViewerUrl":"https://isv.kcsgis.com/al.etowah_revenue/"},"geometry":{"type":"Polygon","coordinates":[[[-85.737857,33.979914],[-85.741295,33.979964],[-85.741255,33.978643],[-85.742307,33.978656],[-85.742316,33.978554],[-85.737959,33.978547],[-85.737857,33.979914]]]}},{"type":"Feature","id":"01055:1306240000005000","properties":{"id":"01055:1306240000005000","parcelId":"1306240000005000","countyFips":"01055","countyName":"Etowah","state":"Alabama","marketIds":["Birmingham"],"situsAddress":"150 FOWLER ROAD","situsCity":null,"situsZip":null,"jurisdictionCode":null,"ownerName":"MIKLE, MILDRED FAYE","ownerName2":null,"propertyName":null,"zoningCode":null,"zoningDistrict":null,"jurisdictionPrefix":null,"dorCode":null,"acreage":7.8382,"centroid":[-85.745552,33.97499],"lastSale":{"date":null,"price":null,"qualified":null},"tax":{"marketValue":146400.0,"assessedValue":14660.0,"taxableValue":null,"taxes":null},"mailingAddress":{"line1":"150 FOWLER RD","line2":null,"city":"PIEDMONT","state":"AL","zip":"36272"},"incomeTract":null,"incomeBlockGroup":null,"nearestRoad":null,"flu":null,"opportunityZone":null,"oz2Eligibility":null,"source":"al-etowah-parcels-01055","appraiserUrl":"https://etowahproperty.assurancegov.com/Property/Details?taxyear=2026&ppin=23925","gisViewerUrl":"https://isv.kcsgis.com/al.etowah_revenue/"},"geometry":{"type":"Polygon","coordinates":[[[-85.744418,33.975823],[-85.746842,33.97585],[-85.747102,33.975853],[-85.747166,33.974681],[-85.74539,33.974557],[-85.745428,33.974617],[-85.745427,33.974683],[-85.745391,33.97474],[-85.745325,33.974778],[-85.745252,33.974786],[-85.745176,33.974766],[-85.744822,33.974867],[-85.744441,33.974863],[-85.744418,33.975823]]]}},{"type":"Feature","id":"01055:1306240000005001","properties":{"id":"01055:1306240000005001","parcelId":"1306240000005001","countyFips":"01055","countyName":"Etowah","state":"Alabama","marketIds":["Birmingham"],"situsAddress":"244 FOWLER ROAD","situsCity":null,"situsZip":null,"jurisdictionCode":null,"ownerName":"FOWLER, ROGER D & WF FRANCES","ownerName2":null,"propertyName":null,"zoningCode":null,"zoningDistrict":null,"jurisdictionPrefix":null,"dorCode":null,"acreage":11.252,"centroid":[-85.74643,33.973208],"lastSale":{"date":null,"price":null,"qualified":null},"tax":{"marketValue":256900.0,"assessedValue":25700.0,"taxableValue":null,"taxes":null},"mailingAddress":{"line1":"244 FOWLER RD","line2":null,"city":"PIEDMONT","state":"AL","zip":"36272"},"incomeTract":null,"incomeBlockGroup":null,"nearestRoad":null,"flu":null,"opportunityZone":null,"oz2Eligibility":null,"source":"al-etowah-parcels-01055","appraiserUrl":"https://etowahproperty.assurancegov.com/Property/Details?taxyear=2026&ppin=23926","gisViewerUrl":"https://isv.kcsgis.com/al.etowah_revenue/"},"geometry":{"type":"Polygon","coordinates":[[[-85.747174,33.972175],[-85.747139,33.972175],[-85.745545,33.972177],[-85.745295,33.974514],[-85.74539,33.974557],[-85.747166,33.974681],[-85.747304,33.972175],[-85.747174,33.972175]]]}},{"type":"Feature","id":"01055:1306240000006000","properties":{"id":"01055:1306240000006000","parcelId":"1306240000006000","countyFips":"01055","countyName":"Etowah","state":"Alabama","marketIds":["Birmingham"],"situsAddress":"0","situsCity":null,"situsZip":null,"jurisdictionCode":null,"ownerName":"FOWLER, DALE EUGENE & DONNY JAY","ownerName2":null,"propertyName":null,"zoningCode":null,"zoningDistrict":null,"jurisdictionPrefix":null,"dorCode":null,"acreage":18.3549,"centroid":[-85.744039,33.97421],"lastSale":{"date":null,"price":null,"qualified":null},"tax":{"marketValue":55700.0,"assessedValue":5580.0,"taxableValue":null,"taxes":200.88},"mailingAddress":{"line1":"2342 OLD COVINGTON ROAD NE","line2":null,"city":"CONYERS","state":"GA","zip":"30013"},"incomeTract":null,"incomeBlockGroup":null,"nearestRoad":null,"flu":null,"opportunityZone":null,"oz2Eligibility":null,"source":"al-etowah-parcels-01055","appraiserUrl":"https://etowahproperty.assurancegov.com/Property/Details?taxyear=2026&ppin=23927","gisViewerUrl":"https://isv.kcsgis.com/al.etowah_revenue/"},"geometry":{"type":"Polygon","coordinates":[[[-85.745295,33.974514],[-85.745339,33.974107],[-85.745545,33.972177],[-85.742754,33.972178],[-85.74258,33.974106],[-85.742651,33.974374],[-85.742694,33.974649],[-85.742698,33.975165],[-85.743496,33.974922],[-85.744374,33.974697],[-85.744791,33.974702],[-85.745106,33.974612],[-85.745179,33.974533],[-85.745295,33.974514]]]}},{"type":"Feature","id":"01055:1306240000008002","properties":{"id":"01055:1306240000008002","parcelId":"1306240000008002","countyFips":"01055","countyName":"Etowah","state":"Alabama","marketIds":["Birmingham"],"situsAddress":"0","situsCity":null,"situsZip":null,"jurisdictionCode":null,"ownerName":"ROWLAND, REBECCA L & DARLA G NOICE","ownerName2":null,"propertyName":null,"zoningCode":null,"zoningDistrict":null,"jurisdictionPrefix":null,"dorCode":null,"acreage":35.4151,"centroid":[-85.741251,33.973851],"lastSale":{"date":null,"price":null,"qualified":null},"tax":{"marketValue":20158.0,"assessedValue":2020.0,"taxableValue":null,"taxes":76.12},"mailingAddress":{"line1":"120 DANIELS ROAD","line2":null,"city":"GADSDEN","state":"AL","zip":"35901"},"incomeTract":null,"incomeBlockGroup":null,"nearestRoad":null,"flu":null,"opportunityZone":null,"oz2Eligibility":null,"source":"al-etowah-parcels-01055","appraiserUrl":"https://etowahproperty.assurancegov.com/Property/Details?taxyear=2026&ppin=23932","gisViewerUrl":"https://isv.kcsgis.com/al.etowah_revenue/"},"geometry":{"type":"Polygon","coordinates":[[[-85.738163,33.975816],[-85.741852,33.975823],[-85.741913,33.975236],[-85.742593,33.97526],[-85.742608,33.97498],[-85.742581,33.974548],[-85.742499,33.974176],[-85.742014,33.972767],[-85.741302,33.97278],[-85.741095,33.972194],[-85.740589,33.972203],[-85.740613,33.972146],[-85.738438,33.972139],[-85.738163,33.975816]]]}},{"type":"Feature","id":"01055:1306240000012000","properties":{"id":"01055:1306240000012000","parcelId":"1306240000012000","countyFips":"01055","countyName":"Etowah","state":"Alabama","marketIds":["Birmingham"],"situsAddress":"0","situsCity":null,"situsZip":null,"jurisdictionCode":null,"ownerName":"YANG, YUANHANG & YONGLI XI","ownerName2":null,"propertyName":null,"zoningCode":null,"zoningDistrict":null,"jurisdictionPrefix":null,"dorCode":null,"acreage":44.0403,"centroid":[-85.743889,33.970099],"lastSale":{"date":null,"price":null,"qualified":null},"tax":{"marketValue":26960.0,"assessedValue":2700.0,"taxableValue":null,"taxes":101.5},"mailingAddress":{"line1":"115 FOALGARTH WAY","line2":null,"city":"JOHNS CREEK","state":"GA","zip":"30022"},"incomeTract":null,"incomeBlockGroup":null,"nearestRoad":null,"flu":null,"opportunityZone":null,"oz2Eligibility":null,"source":"al-etowah-parcels-01055","appraiserUrl":"https://etowahproperty.assurancegov.com/Property/Details?taxyear=2026&ppin=23942","gisViewerUrl":"https://isv.kcsgis.com/al.etowah_revenue/"},"geometry":{"type":"MultiPolygon","coordinates":[[[[-85.743428,33.97218],[-85.744362,33.972179],[-85.747304,33.972175],[-85.747505,33.9685],[-85.743005,33.968528],[-85.742891,33.968624],[-85.74277,33.968738],[-85.742298,33.969328],[-85.741686,33.970373],[-85.743645,33.970366],[-85.743428,33.97218]]],[[[-85.740436,33.968544],[-85.741452,33.969204],[-85.742115,33.969448],[-85.742235,33.969255],[-85.742413,33.969028],[-85.741588,33.968537],[-85.740436,33.968544]]]]}},{"type":"Feature","id":"01055:1306240000012003","properties":{"id":"01055:1306240000012003","parcelId":"1306240000012003","countyFips":"01055","countyName":"Etowah","state":"Alabama","marketIds":["Birmingham"],"situsAddress":"0","situsCity":null,"situsZip":null,"jurisdictionCode":null,"ownerName":"MARK, GARY R & WF JESSICA R MARK","ownerName2":null,"propertyName":null,"zoningCode":null,"zoningDistrict":null,"jurisdictionPrefix":null,"dorCode":null,"acreage":15.6768,"centroid":[-85.740217,33.969092],"lastSale":{"date":null,"price":null,"qualified":null},"tax":{"marketValue":66500.0,"assessedValue":7860.0,"taxableValue":null,"taxes":282.96},"mailingAddress":{"line1":"658 ESTES ROAD","line2":null,"city":"PIEDMONT","state":"AL","zip":"36272"},"incomeTract":null,"incomeBlockGroup":null,"nearestRoad":null,"flu":null,"opportunityZone":null,"oz2Eligibility":null,"source":"al-etowah-parcels-01055","appraiserUrl":"https://etowahproperty.assurancegov.com/Property/Details?taxyear=2026&ppin=86242","gisViewerUrl":"https://isv.kcsgis.com/al.etowah_revenue/"},"geometry":{"type":"Polygon","coordinates":[[[-85.738806,33.967486],[-85.738791,33.967651],[-85.73857,33.970375],[-85.741569,33.970386],[-85.742115,33.969448],[-85.741452,33.969204],[-85.738806,33.967486]]]}},{"type":"Feature","id":"01055:1307250000001000","properties":{"id":"01055:1307250000001000","parcelId":"1307250000001000","countyFips":"01055","countyName":"Etowah","state":"Alabama","marketIds":["Birmingham"],"situsAddress":"0","situsCity":null,"situsZip":null,"jurisdictionCode":null,"ownerName":"YANG, YUANHANG & YONGLI XI","ownerName2":null,"propertyName":null,"zoningCode":null,"zoningDistrict":null,"jurisdictionPrefix":null,"dorCode":null,"acreage":26.3283,"centroid":[-85.740591,33.967081],"lastSale":{"date":null,"price":null,"qualified":null},"tax":{"marketValue":13493.0,"assessedValue":1340.0,"taxableValue":null,"taxes":50.87},"mailingAddress":{"line1":"115 FOALGARTH WAY","line2":null,"city":"JOHNS CREEK","state":"GA","zip":"30022"},"incomeTract":null,"incomeBlockGroup":null,"nearestRoad":null,"flu":null,"opportunityZone":null,"oz2Eligibility":null,"source":"al-etowah-parcels-01055","appraiserUrl":"https://etowahproperty.assurancegov.com/Property/Details?taxyear=2026&ppin=23946","gisViewerUrl":"https://isv.kcsgis.com/al.etowah_revenue/"},"geometry":{"type":"Polygon","coordinates":[[[-85.740436,33.968544],[-85.741588,33.968537],[-85.741677,33.968537],[-85.74197,33.964705],[-85.73907,33.964677],[-85.738806,33.967486],[-85.740436,33.968544]]]}},{"type":"Feature","id":"01055:1307250000003000","properties":{"id":"01055:1307250000003000","parcelId":"1307250000003000","countyFips":"01055","countyName":"Etowah","state":"Alabama","marketIds":["Birmingham"],"situsAddress":"0","situsCity":null,"situsZip":null,"jurisdictionCode":null,"ownerName":"WAGNER, COLLEEN","ownerName2":null,"propertyName":null,"zoningCode":null,"zoningDistrict":null,"jurisdictionPrefix":null,"dorCode":null,"acreage":12.7841,"centroid":[-85.742747,33.966091],"lastSale":{"date":null,"price":null,"qualified":null},"tax":{"marketValue":49600.0,"assessedValue":4100.0,"taxableValue":null,"taxes":147.6},"mailingAddress":{"line1":"1165 SUNSET DR","line2":null,"city":"LEESBURG","state":"AL","zip":"35983"},"incomeTract":null,"incomeBlockGroup":null,"nearestRoad":null,"flu":null,"opportunityZone":null,"oz2Eligibility":null,"source":"al-etowah-parcels-01055","appraiserUrl":"https://etowahproperty.assurancegov.com/Property/Details?taxyear=2026&ppin=23948","gisViewerUrl":"https://isv.kcsgis.com/al.etowah_revenue/"},"geometry":{"type":"Polygon","coordinates":[[[-85.743452,33.964719],[-85.743452,33.964719],[-85.74197,33.964705],[-85.741706,33.968154],[-85.743154,33.968158],[-85.743452,33.964719]]]}},{"type":"Feature","id":"01055:1307250000004001","properties":{"id":"01055:1307250000004001","parcelId":"1307250000004001","countyFips":"01055","countyName":"Etowah","state":"Alabama","marketIds":["Birmingham"],"situsAddress":"412 ESTES ROAD","situsCity":null,"situsZip":null,"jurisdictionCode":null,"ownerName":"ATKINS, RICKY & MIRANDA","ownerName2":null,"propertyName":null,"zoningCode":null,"zoningDistrict":null,"jurisdictionPrefix":null,"dorCode":null,"acreage":26.5004,"centroid":[-85.745307,33.966897],"lastSale":{"date":null,"price":null,"qualified":null},"tax":{"marketValue":131000.0,"assessedValue":8060.0,"taxableValue":null,"taxes":null},"mailingAddress":{"line1":"412 ESTES RD","line2":null,"city":"PIEDMONT","state":"AL","zip":"36272"},"incomeTract":null,"incomeBlockGroup":null,"nearestRoad":null,"flu":null,"opportunityZone":null,"oz2Eligibility":null,"source":"al-etowah-parcels-01055","appraiserUrl":"https://etowahproperty.assurancegov.com/Property/Details?taxyear=2026&ppin=82722","gisViewerUrl":"https://isv.kcsgis.com/al.etowah_revenue/"},"geometry":{"type":"Polygon","coordinates":[[[-85.743154,33.968158],[-85.743139,33.968322],[-85.743403,33.968173],[-85.743681,33.968077],[-85.744802,33.967914],[-85.745117,33.967828],[-85.745724,33.967536],[-85.747257,33.966731],[-85.746683,33.966521],[-85.746851,33.965313],[-85.747852,33.965314],[-85.74789,33.96487],[-85.743437,33.964898],[-85.743154,33.968158]]]}},{"type":"Feature","id":"01055:1307250000005000","properties":{"id":"01055:1307250000005000","parcelId":"1307250000005000","countyFips":"01055","countyName":"Etowah","state":"Alabama","marketIds":["Birmingham"],"situsAddress":"405 ESTES ROAD","situsCity":null,"situsZip":null,"jurisdictionCode":null,"ownerName":"BROWN, CAROLYN J","ownerName2":null,"propertyName":null,"zoningCode":null,"zoningDistrict":null,"jurisdictionPrefix":null,"dorCode":null,"acreage":7.1967,"centroid":[-85.746563,33.967618],"lastSale":{"date":null,"price":null,"qualified":null},"tax":{"marketValue":392700.0,"assessedValue":76780.0,"taxableValue":null,"taxes":2764.08},"mailingAddress":{"line1":"2041 COUNTY ROAD 32","line2":null,"city":"GADSDEN","state":"AL","zip":"35903"},"incomeTract":null,"incomeBlockGroup":null,"nearestRoad":null,"flu":null,"opportunityZone":null,"oz2Eligibility":null,"source":"al-etowah-parcels-01055","appraiserUrl":"https://etowahproperty.assurancegov.com/Property/Details?taxyear=2026&ppin=23950","gisViewerUrl":"https://isv.kcsgis.com/al.etowah_revenue/"},"geometry":{"type":"Polygon","coordinates":[[[-85.74514,33.967909],[-85.745576,33.968512],[-85.747505,33.9685],[-85.747678,33.966587],[-85.747318,33.966797],[-85.746162,33.967406],[-85.74514,33.967909]]]}},{"type":"Feature","id":"01055:1307250000007002","properties":{"id":"01055:1307250000007002","parcelId":"1307250000007002","countyFips":"01055","countyName":"Etowah","state":"Alabama","marketIds":["Birmingham"],"situsAddress":"189 ESTES ROAD","situsCity":null,"situsZip":null,"jurisdictionCode":null,"ownerName":"SCHNEBEL, RANDY & SHERRY A","ownerName2":null,"propertyName":null,"zoningCode":null,"zoningDistrict":null,"jurisdictionPrefix":null,"dorCode":null,"acreage":19.6558,"centroid":[-85.749823,33.966887],"lastSale":{"date":null,"price":null,"qualified":null},"tax":{"marketValue":84500.0,"assessedValue":8460.0,"taxableValue":null,"taxes":257.49},"mailingAddress":{"line1":"189 ESTES ROAD","line2":null,"city":"PIEDMONT","state":"AL","zip":"36272"},"incomeTract":null,"incomeBlockGroup":null,"nearestRoad":null,"flu":null,"opportunityZone":null,"oz2Eligibility":null,"source":"al-etowah-parcels-01055","appraiserUrl":"https://etowahproperty.assurancegov.com/Property/Details?taxyear=2026&ppin=84478","gisViewerUrl":"https://isv.kcsgis.com/al.etowah_revenue/"},"geometry":{"type":"Polygon","coordinates":[[[-85.748701,33.965996],[-85.749028,33.966411],[-85.748343,33.966802],[-85.749534,33.968487],[-85.751918,33.968472],[-85.752093,33.966301],[-85.749147,33.965742],[-85.748701,33.965996]]]}},{"type":"Feature","id":"01055:1307250000007003","properties":{"id":"01055:1307250000007003","parcelId":"1307250000007003","countyFips":"01055","countyName":"Etowah","state":"Alabama","marketIds":["Birmingham"],"situsAddress":"259 ESTES ROAD","situsCity":null,"situsZip":null,"jurisdictionCode":null,"ownerName":"NIX, CAROLYN B","ownerName2":null,"propertyName":null,"zoningCode":null,"zoningDistrict":null,"jurisdictionPrefix":null,"dorCode":null,"acreage":6.2852,"centroid":[-85.748189,33.967487],"lastSale":{"date":null,"price":null,"qualified":null},"tax":{"marketValue":32900.0,"assessedValue":4040.0,"taxableValue":null,"taxes":145.44},"mailingAddress":{"line1":"2041 COUNTY ROAD 32","line2":null,"city":"GADSDEN","state":"AL","zip":"35903"},"incomeTract":null,"incomeBlockGroup":null,"nearestRoad":null,"flu":null,"opportunityZone":null,"oz2Eligibility":null,"source":"al-etowah-parcels-01055","appraiserUrl":"https://etowahproperty.assurancegov.com/Property/Details?taxyear=2026&ppin=84479","gisViewerUrl":"https://isv.kcsgis.com/al.etowah_revenue/"},"geometry":{"type":"Polygon","coordinates":[[[-85.747678,33.966587],[-85.747505,33.9685],[-85.749534,33.968487],[-85.748041,33.966376],[-85.747678,33.966587]]]}},{"type":"Feature","id":"01055:1307250000013000","properties":{"id":"01055:1307250000013000","parcelId":"1307250000013000","countyFips":"01055","countyName":"Etowah","state":"Alabama","marketIds":["Birmingham"],"situsAddress":"12626 US HWY 278 E","situsCity":null,"situsZip":null,"jurisdictionCode":null,"ownerName":"PRITCHETT, FELISHA D","ownerName2":null,"propertyName":null,"zoningCode":null,"zoningDistrict":null,"jurisdictionPrefix":null,"dorCode":null,"acreage":11.869,"centroid":[-85.749075,33.964783],"lastSale":{"date":null,"price":null,"qualified":null},"tax":{"marketValue":112800.0,"assessedValue":18320.0,"taxableValue":null,"taxes":659.52},"mailingAddress":{"line1":"12596 US HWY 278 EAST","line2":null,"city":"PIEDMONT","state":"AL","zip":"36272"},"incomeTract":null,"incomeBlockGroup":null,"nearestRoad":null,"flu":null,"opportunityZone":null,"oz2Eligibility":null,"source":"al-etowah-parcels-01055","appraiserUrl":"https://etowahproperty.assurancegov.com/Property/Details?taxyear=2026&ppin=23964","gisViewerUrl":"https://isv.kcsgis.com/al.etowah_revenue/"},"geometry":{"type":"Polygon","coordinates":[[[-85.747852,33.965314],[-85.747851,33.965325],[-85.747966,33.965269],[-85.748043,33.966274],[-85.749225,33.965597],[-85.749389,33.965473],[-85.749859,33.964943],[-85.749956,33.964807],[-85.750149,33.964476],[-85.750306,33.964099],[-85.749596,33.963927],[-85.749741,33.963543],[-85.748038,33.963132],[-85.747852,33.965314]]]}},{"type":"Feature","id":"01055:1307250000014003","properties":{"id":"01055:1307250000014003","parcelId":"1307250000014003","countyFips":"01055","countyName":"Etowah","state":"Alabama","marketIds":["Birmingham"],"situsAddress":"12880 US HIGHWAY TWO SEVENTY EIGHT E","situsCity":null,"situsZip":null,"jurisdictionCode":null,"ownerName":"GUTHORMSEN, DONALD R & WF TRICIA COGGINS","ownerName2":null,"propertyName":null,"zoningCode":null,"zoningDistrict":null,"jurisdictionPrefix":null,"dorCode":null,"acreage":16.6484,"centroid":[-85.745737,33.963773],"lastSale":{"date":null,"price":null,"qualified":null},"tax":{"marketValue":73100.0,"assessedValue":9320.0,"taxableValue":null,"taxes":335.52},"mailingAddress":{"line1":"12776 US HIGHWAY 278 E","line2":null,"city":"PIEDMONT","state":"AL","zip":"36272"},"incomeTract":null,"incomeBlockGroup":null,"nearestRoad":null,"flu":null,"opportunityZone":null,"oz2Eligibility":null,"source":"al-etowah-parcels-01055","appraiserUrl":"https://etowahproperty.assurancegov.com/Property/Details?taxyear=2026&ppin=101956","gisViewerUrl":"https://isv.kcsgis.com/al.etowah_revenue/"},"geometry":{"type":"Polygon","coordinates":[[[-85.743505,33.964484],[-85.743452,33.964719],[-85.743437,33.964898],[-85.74789,33.96487],[-85.748038,33.963132],[-85.746027,33.962648],[-85.745365,33.964161],[-85.744555,33.963962],[-85.743561,33.963813],[-85.743505,33.964484]]]}},{"type":"Feature","id":"01055:1307250000015000","properties":{"id":"01055:1307250000015000","parcelId":"1307250000015000","countyFips":"01055","countyName":"Etowah","state":"Alabama","marketIds":["Birmingham"],"situsAddress":"13004 US HIGHWAY TWO SEVENTY EIGHT E","situsCity":null,"situsZip":null,"jurisdictionCode":null,"ownerName":"SIMS, ELLIS JEROME & WF DIANE SIMS","ownerName2":null,"propertyName":null,"zoningCode":null,"zoningDistrict":null,"jurisdictionPrefix":null,"dorCode":null,"acreage":14.8831,"centroid":[-85.742433,33.963577],"lastSale":{"date":null,"price":null,"qualified":null},"tax":{"marketValue":221200.0,"assessedValue":23180.0,"taxableValue":null,"taxes":75.6},"mailingAddress":{"line1":"13000 US HIGHWAY 278 E","line2":null,"city":"PIEDMONT","state":"AL","zip":"36272"},"incomeTract":null,"incomeBlockGroup":null,"nearestRoad":null,"flu":null,"opportunityZone":null,"oz2Eligibility":null,"source":"al-etowah-parcels-01055","appraiserUrl":"https://etowahproperty.assurancegov.com/Property/Details?taxyear=2026&ppin=23969","gisViewerUrl":"https://isv.kcsgis.com/al.etowah_revenue/"},"geometry":{"type":"Polygon","coordinates":[[[-85.74197,33.964705],[-85.742043,33.964706],[-85.743452,33.964719],[-85.743505,33.964484],[-85.743707,33.96209],[-85.742379,33.96177],[-85.742306,33.962593],[-85.741361,33.962425],[-85.741172,33.964697],[-85.74197,33.964705]]]}},{"type":"Feature","id":"01055:1307250000017000","properties":{"id":"01055:1307250000017000","parcelId":"1307250000017000","countyFips":"01055","countyName":"Etowah","state":"Alabama","marketIds":["Birmingham"],"situsAddress":"0 US HIGHWAY TWO SEVENTY EIGHT E","situsCity":null,"situsZip":null,"jurisdictionCode":null,"ownerName":"LAWLER BRANDON AND BENEFIELD THERESA","ownerName2":null,"propertyName":null,"zoningCode":null,"zoningDistrict":null,"jurisdictionPrefix":null,"dorCode":null,"acreage":8.1264,"centroid":[-85.740926,33.962933],"lastSale":{"date":null,"price":null,"qualified":null},"tax":{"marketValue":112300.0,"assessedValue":22460.0,"taxableValue":null,"taxes":808.56},"mailingAddress":{"line1":"3688 LOVVORN ST","line2":null,"city":"HOKES BLUFF","state":"AL","zip":"35903"},"incomeTract":null,"incomeBlockGroup":null,"nearestRoad":null,"flu":null,"opportunityZone":null,"oz2Eligibility":null,"source":"al-etowah-parcels-01055","appraiserUrl":"https://etowahproperty.assurancegov.com/Property/Details?taxyear=2026&ppin=23971","gisViewerUrl":"https://isv.kcsgis.com/al.etowah_revenue/"},"geometry":{"type":"Polygon","coordinates":[[[-85.741172,33.964697],[-85.741361,33.962425],[-85.741434,33.961543],[-85.740484,33.961314],[-85.740177,33.964688],[-85.741172,33.964697]]]}},{"type":"Feature","id":"01055:1307250000018001","properties":{"id":"01055:1307250000018001","parcelId":"1307250000018001","countyFips":"01055","countyName":"Etowah","state":"Alabama","marketIds":["Birmingham"],"situsAddress":"13150 US HIGHWAY TWO SEVENTY EIGHT E","situsCity":null,"situsZip":null,"jurisdictionCode":null,"ownerName":"CONNELL, CRYSTAL L","ownerName2":null,"propertyName":null,"zoningCode":null,"zoningDistrict":null,"jurisdictionPrefix":null,"dorCode":null,"acreage":7.4823,"centroid":[-85.739747,33.963345],"lastSale":{"date":null,"price":null,"qualified":null},"tax":{"marketValue":183300.0,"assessedValue":18360.0,"taxableValue":null,"taxes":611.96},"mailingAddress":{"line1":"13150 US HWY 278 E","line2":null,"city":"PIEDMONT","state":"AL","zip":"36272"},"incomeTract":null,"incomeBlockGroup":null,"nearestRoad":null,"flu":null,"opportunityZone":null,"oz2Eligibility":null,"source":"al-etowah-parcels-01055","appraiserUrl":"https://etowahproperty.assurancegov.com/Property/Details?taxyear=2026&ppin=23973","gisViewerUrl":"https://isv.kcsgis.com/al.etowah_revenue/"},"geometry":{"type":"Polygon","coordinates":[[[-85.740177,33.964688],[-85.740411,33.962123],[-85.739331,33.961892],[-85.73907,33.964677],[-85.740177,33.964688]]]}},{"type":"Feature","id":"01055:1307250000019000","properties":{"id":"01055:1307250000019000","parcelId":"1307250000019000","countyFips":"01055","countyName":"Etowah","state":"Alabama","marketIds":["Birmingham"],"situsAddress":"171 MOUNTAIN WAY","situsCity":null,"situsZip":null,"jurisdictionCode":null,"ownerName":"BOYKIN, FREEMAN G","ownerName2":null,"propertyName":null,"zoningCode":null,"zoningDistrict":null,"jurisdictionPrefix":null,"dorCode":null,"acreage":5.7653,"centroid":[-85.740262,33.95844],"lastSale":{"date":null,"price":null,"qualified":null},"tax":{"marketValue":162500.0,"assessedValue":16260.0,"taxableValue":null,"taxes":null},"mailingAddress":{"line1":"171 MOUNTAIN WAY","line2":null,"city":"PIEDMONT","state":"AL","zip":"36272"},"incomeTract":null,"incomeBlockGroup":null,"nearestRoad":null,"flu":null,"opportunityZone":null,"oz2Eligibility":null,"source":"al-etowah-parcels-01055","appraiserUrl":"https://etowahproperty.assurancegov.com/Property/Details?taxyear=2026&ppin=23974","gisViewerUrl":"https://isv.kcsgis.com/al.etowah_revenue/"},"geometry":{"type":"Polygon","coordinates":[[[-85.7395,33.960092],[-85.741552,33.957636],[-85.739734,33.957593],[-85.7395,33.960092]]]}},{"type":"Feature","id":"01055:1307250000020000","properties":{"id":"01055:1307250000020000","parcelId":"1307250000020000","countyFips":"01055","countyName":"Etowah","state":"Alabama","marketIds":["Birmingham"],"situsAddress":"13205 US HIGHWAY TWO SEVENTY EIGHT E","situsCity":null,"situsZip":null,"jurisdictionCode":null,"ownerName":"KEENUM, THOMAS R","ownerName2":null,"propertyName":null,"zoningCode":null,"zoningDistrict":null,"jurisdictionPrefix":null,"dorCode":null,"acreage":14.9711,"centroid":[-85.740906,33.959443],"lastSale":{"date":null,"price":null,"qualified":null},"tax":{"marketValue":134300.0,"assessedValue":13440.0,"taxableValue":null,"taxes":434.84},"mailingAddress":{"line1":"13205 HWY 278 EAST","line2":null,"city":"PIEDMONT","state":"AL","zip":"36272"},"incomeTract":null,"incomeBlockGroup":null,"nearestRoad":null,"flu":null,"opportunityZone":null,"oz2Eligibility":null,"source":"al-etowah-parcels-01055","appraiserUrl":"https://etowahproperty.assurancegov.com/Property/Details?taxyear=2026&ppin=23975","gisViewerUrl":"https://isv.kcsgis.com/al.etowah_revenue/"},"geometry":{"type":"Polygon","coordinates":[[[-85.739431,33.960831],[-85.739953,33.960957],[-85.744092,33.957697],[-85.741552,33.957636],[-85.7395,33.960092],[-85.739431,33.960831]]]}},{"type":"Feature","id":"01055:1307250000021000","properties":{"id":"01055:1307250000021000","parcelId":"1307250000021000","countyFips":"01055","countyName":"Etowah","state":"Alabama","marketIds":["Birmingham"],"situsAddress":"13069 US HIGHWAY TWO SEVENTY EIGHT E","situsCity":null,"situsZip":null,"jurisdictionCode":null,"ownerName":"HULSEY, DEBORAH P & SHERRI MCINTYRE","ownerName2":null,"propertyName":null,"zoningCode":null,"zoningDistrict":null,"jurisdictionPrefix":null,"dorCode":null,"acreage":29.105,"centroid":[-85.743373,33.959938],"lastSale":{"date":null,"price":null,"qualified":null},"tax":{"marketValue":85800.0,"assessedValue":9020.0,"taxableValue":null,"taxes":327.6},"mailingAddress":{"line1":"13069 US HIGHWAY 278 E","line2":null,"city":"PIEDMONT","state":"AL","zip":"36272"},"incomeTract":null,"incomeBlockGroup":null,"nearestRoad":null,"flu":null,"opportunityZone":null,"oz2Eligibility":null,"source":"al-etowah-parcels-01055","appraiserUrl":"https://etowahproperty.assurancegov.com/Property/Details?taxyear=2026&ppin=23976","gisViewerUrl":"https://isv.kcsgis.com/al.etowah_revenue/"},"geometry":{"type":"Polygon","coordinates":[[[-85.741805,33.961403],[-85.741805,33.961403],[-85.743764,33.961875],[-85.743913,33.959975],[-85.746718,33.959986],[-85.746919,33.957764],[-85.744092,33.957697],[-85.742886,33.958663],[-85.743941,33.959223],[-85.743879,33.959958],[-85.743393,33.959872],[-85.742445,33.959208],[-85.741613,33.960237],[-85.741487,33.96078],[-85.741934,33.961021],[-85.741805,33.961403]]]}},{"type":"Feature","id":"01055:1307250000022000","properties":{"id":"01055:1307250000022000","parcelId":"1307250000022000","countyFips":"01055","countyName":"Etowah","state":"Alabama","marketIds":["Birmingham"],"situsAddress":"12871 US HIGHWAY TWO SEVENTY EIGHT E","situsCity":null,"situsZip":null,"jurisdictionCode":null,"ownerName":"HULSEY, DEBORAH P","ownerName2":null,"propertyName":null,"zoningCode":null,"zoningDistrict":null,"jurisdictionPrefix":null,"dorCode":null,"acreage":5.4651,"centroid":[-85.744312,33.961182],"lastSale":{"date":null,"price":null,"qualified":null},"tax":{"marketValue":15100.0,"assessedValue":1520.0,"taxableValue":null,"taxes":55.26},"mailingAddress":{"line1":"13069 US HIGHWAY 278 E","line2":null,"city":"PIEDMONT","state":"AL","zip":"36272"},"incomeTract":null,"incomeBlockGroup":null,"nearestRoad":null,"flu":null,"opportunityZone":null,"oz2Eligibility":null,"source":"al-etowah-parcels-01055","appraiserUrl":"https://etowahproperty.assurancegov.com/Property/Details?taxyear=2026&ppin=23977","gisViewerUrl":"https://isv.kcsgis.com/al.etowah_revenue/"},"geometry":{"type":"Polygon","coordinates":[[[-85.743764,33.961875],[-85.744092,33.961954],[-85.744804,33.962125],[-85.744986,33.959979],[-85.743913,33.959975],[-85.743764,33.961875]]]}},{"type":"Feature","id":"01055:1307250000022003","properties":{"id":"01055:1307250000022003","parcelId":"1307250000022003","countyFips":"01055","countyName":"Etowah","state":"Alabama","marketIds":["Birmingham"],"situsAddress":"12871 US HIGHWAY TWO SEVENTY EIGHT E","situsCity":null,"situsZip":null,"jurisdictionCode":null,"ownerName":"ALVAREZ, JOSE LUIS & WF MAYRA A GAMEZ","ownerName2":null,"propertyName":null,"zoningCode":null,"zoningDistrict":null,"jurisdictionPrefix":null,"dorCode":null,"acreage":25.7833,"centroid":[-85.746551,33.960079],"lastSale":{"date":null,"price":null,"qualified":null},"tax":{"marketValue":196100.0,"assessedValue":32580.0,"taxableValue":null,"taxes":1175.25},"mailingAddress":{"line1":"8516 SHERIDAN DRIVE","line2":null,"city":"JONESBORO","state":"GA","zip":"30236"},"incomeTract":null,"incomeBlockGroup":null,"nearestRoad":null,"flu":null,"opportunityZone":null,"oz2Eligibility":null,"source":"al-etowah-parcels-01055","appraiserUrl":"https://etowahproperty.assurancegov.com/Property/Details?taxyear=2026&ppin=108664","gisViewerUrl":"https://isv.kcsgis.com/al.etowah_revenue/"},"geometry":{"type":"Polygon","coordinates":[[[-85.744804,33.962125],[-85.747733,33.96283],[-85.748147,33.957793],[-85.746919,33.957764],[-85.746718,33.959986],[-85.744986,33.959979],[-85.744804,33.962125]]]}},{"type":"Feature","id":"01055:1306130000002002","properties":{"id":"01055:1306130000002002","parcelId":"1306130000002002","countyFips":"01055","countyName":"Etowah","state":"Alabama","marketIds":["Birmingham"],"situsAddress":"0","situsCity":null,"situsZip":null,"jurisdictionCode":null,"ownerName":"GRIFFITH, LARRY P & SANDRA 'LF EST'","ownerName2":null,"propertyName":null,"zoningCode":null,"zoningDistrict":null,"jurisdictionPrefix":null,"dorCode":null,"acreage":17.7922,"centroid":[-85.74029,33.991613],"lastSale":{"date":null,"price":null,"qualified":null},"tax":{"marketValue":54000.0,"assessedValue":5400.0,"taxableValue":null,"taxes":196.16},"mailingAddress":{"line1":"7726 SMITH DR","line2":null,"city":"HOKES BLUFF","state":"AL","zip":"35903"},"incomeTract":null,"incomeBlockGroup":null,"nearestRoad":null,"flu":null,"opportunityZone":null,"oz2Eligibility":null,"source":"al-etowah-parcels-01055","appraiserUrl":"https://etowahproperty.assurancegov.com/Property/Details?taxyear=2026&ppin=64342","gisViewerUrl":"https://isv.kcsgis.com/al.etowah_revenue/"},"geometry":{"type":"Polygon","coordinates":[[[-85.739051,33.991312],[-85.738366,33.991314],[-85.739579,33.993591],[-85.74136,33.99361],[-85.741443,33.992321],[-85.741445,33.990933],[-85.741014,33.99096],[-85.740792,33.990934],[-85.740637,33.990892],[-85.739209,33.990262],[-85.739051,33.991312]]]}},{"type":"Feature","id":"01055:1306130000002004","properties":{"id":"01055:1306130000002004","parcelId":"1306130000002004","countyFips":"01055","countyName":"Etowah","state":"Alabama","marketIds":["Birmingham"],"situsAddress":"2106 ESTES ROAD","situsCity":null,"situsZip":null,"jurisdictionCode":null,"ownerName":"GRIFFITH, JAMES & WF LOU ANNE \"LIFE EST\"","ownerName2":null,"propertyName":null,"zoningCode":null,"zoningDistrict":null,"jurisdictionPrefix":null,"dorCode":null,"acreage":28.503,"centroid":[-85.742959,33.99151],"lastSale":{"date":null,"price":null,"qualified":null},"tax":{"marketValue":13066.0,"assessedValue":1300.0,"taxableValue":null,"taxes":null},"mailingAddress":{"line1":"2106 ESTES RD","line2":null,"city":"PIEDMONT","state":"AL","zip":"36272"},"incomeTract":null,"incomeBlockGroup":null,"nearestRoad":null,"flu":null,"opportunityZone":null,"oz2Eligibility":null,"source":"al-etowah-parcels-01055","appraiserUrl":"https://etowahproperty.assurancegov.com/Property/Details?taxyear=2026&ppin=77551","gisViewerUrl":"https://isv.kcsgis.com/al.etowah_revenue/"},"geometry":{"type":"Polygon","coordinates":[[[-85.743622,33.990411],[-85.743512,33.990422],[-85.743255,33.990481],[-85.742236,33.990826],[-85.741936,33.990886],[-85.741722,33.990906],[-85.741865,33.992304],[-85.741695,33.994247],[-85.744773,33.994182],[-85.744972,33.990434],[-85.743622,33.990411]]]}},{"type":"Feature","id":"01055:1306130000003000","properties":{"id":"01055:1306130000003000","parcelId":"1306130000003000","countyFips":"01055","countyName":"Etowah","state":"Alabama","marketIds":["Birmingham"],"situsAddress":"2106 ESTES ROAD","situsCity":null,"situsZip":null,"jurisdictionCode":null,"ownerName":"GRIFFITH, JAMES & WF LOU ANNE \"LIFE EST\"","ownerName2":null,"propertyName":null,"zoningCode":null,"zoningDistrict":null,"jurisdictionPrefix":null,"dorCode":null,"acreage":50.1849,"centroid":[-85.741074,33.989282],"lastSale":{"date":null,"price":null,"qualified":null},"tax":{"marketValue":243665.0,"assessedValue":25420.0,"taxableValue":null,"taxes":75.6},"mailingAddress":{"line1":"2106 ESTES RD","line2":null,"city":"PIEDMONT","state":"AL","zip":"36272"},"incomeTract":null,"incomeBlockGroup":null,"nearestRoad":null,"flu":null,"opportunityZone":null,"oz2Eligibility":null,"source":"al-etowah-parcels-01055","appraiserUrl":"https://etowahproperty.assurancegov.com/Property/Details?taxyear=2026&ppin=23822","gisViewerUrl":"https://isv.kcsgis.com/al.etowah_revenue/"},"geometry":{"type":"MultiPolygon","coordinates":[[[[-85.742542,33.98672],[-85.741673,33.986722],[-85.740767,33.986724],[-85.740705,33.987615],[-85.739009,33.987644],[-85.739181,33.988767],[-85.739206,33.989946],[-85.73924,33.990027],[-85.739317,33.990151],[-85.739492,33.990295],[-85.740605,33.990791],[-85.740798,33.99085],[-85.741095,33.990879],[-85.741994,33.990793],[-85.742348,33.990707],[-85.74327,33.990389],[-85.743598,33.99033],[-85.742973,33.990297],[-85.742601,33.98672],[-85.742542,33.98672]]],[[[-85.737872,33.989651],[-85.737946,33.989659],[-85.738212,33.989727],[-85.739034,33.990087],[-85.739074,33.990079],[-85.739107,33.990011],[-85.73909,33.988866],[-85.739041,33.988439],[-85.73885,33.987273],[-85.738838,33.987004],[-85.738864,33.986728],[-85.737337,33.986732],[-85.737157,33.989045],[-85.737494,33.989676],[-85.737649,33.989652],[-85.737872,33.989651]]],[[[-85.737677,33.989733],[-85.73761,33.98974],[-85.737534,33.989753],[-85.738366,33.991314],[-85.739051,33.991312],[-85.739209,33.990262],[-85.738651,33.990003],[-85.738093,33.989776],[-85.737879,33.989734],[-85.737677,33.989733]]]]}},{"type":"Feature","id":"01055:1306130000006000","properties":{"id":"01055:1306130000006000","parcelId":"1306130000006000","countyFips":"01055","countyName":"Etowah","state":"Alabama","marketIds":["Birmingham"],"situsAddress":"230 BROCK LANE","situsCity":null,"situsZip":null,"jurisdictionCode":null,"ownerName":"DARITY, JONATHAN & RONDA DARITY","ownerName2":null,"propertyName":null,"zoningCode":null,"zoningDistrict":null,"jurisdictionPrefix":null,"dorCode":null,"acreage":8.4992,"centroid":[-85.747723,33.9897],"lastSale":{"date":null,"price":null,"qualified":null},"tax":{"marketValue":46400.0,"assessedValue":5400.0,"taxableValue":null,"taxes":194.4},"mailingAddress":{"line1":"5006 STEWART MILL RD","line2":null,"city":"DOUGLASVILLE","state":"GA","zip":"30135"},"incomeTract":null,"incomeBlockGroup":null,"nearestRoad":null,"flu":null,"opportunityZone":null,"oz2Eligibility":null,"source":"al-etowah-parcels-01055","appraiserUrl":"https://etowahproperty.assurancegov.com/Property/Details?taxyear=2026&ppin=23826","gisViewerUrl":"https://isv.kcsgis.com/al.etowah_revenue/"},"geometry":{"type":"Polygon","coordinates":[[[-85.746656,33.990475],[-85.746732,33.990488],[-85.747273,33.990606],[-85.748341,33.990957],[-85.748388,33.990291],[-85.74887,33.989497],[-85.748401,33.989021],[-85.748441,33.988452],[-85.74779,33.988597],[-85.747025,33.988922],[-85.747038,33.989399],[-85.746656,33.990475]]]}},{"type":"Feature","id":"01055:1306130000006001","properties":{"id":"01055:1306130000006001","parcelId":"1306130000006001","countyFips":"01055","countyName":"Etowah","state":"Alabama","marketIds":["Birmingham"],"situsAddress":"0","situsCity":null,"situsZip":null,"jurisdictionCode":null,"ownerName":"STAFFORD, SAMUEL R & WF LINDA T 'LF EST'","ownerName2":null,"propertyName":null,"zoningCode":null,"zoningDistrict":null,"jurisdictionPrefix":null,"dorCode":null,"acreage":16.0414,"centroid":[-85.749381,33.989056],"lastSale":{"date":null,"price":null,"qualified":null},"tax":{"marketValue":9680.0,"assessedValue":960.0,"taxableValue":null,"taxes":36.16},"mailingAddress":{"line1":"11 BROCK LN","line2":null,"city":"PIEDMONT","state":"AL","zip":"36272"},"incomeTract":null,"incomeBlockGroup":null,"nearestRoad":null,"flu":null,"opportunityZone":null,"oz2Eligibility":null,"source":"al-etowah-parcels-01055","appraiserUrl":"https://etowahproperty.assurancegov.com/Property/Details?taxyear=2026&ppin=23827","gisViewerUrl":"https://isv.kcsgis.com/al.etowah_revenue/"},"geometry":{"type":"Polygon","coordinates":[[[-85.749184,33.986705],[-85.748562,33.986707],[-85.748401,33.989021],[-85.74887,33.989497],[-85.749973,33.989518],[-85.748974,33.991238],[-85.749341,33.991375],[-85.749552,33.991409],[-85.749693,33.991407],[-85.749903,33.991364],[-85.75013,33.991279],[-85.75036,33.986703],[-85.749184,33.986705]]]}},{"type":"Feature","id":"01055:1306130000006002","properties":{"id":"01055:1306130000006002","parcelId":"1306130000006002","countyFips":"01055","countyName":"Etowah","state":"Alabama","marketIds":["Birmingham"],"situsAddress":"11 BROCK LANE","situsCity":null,"situsZip":null,"jurisdictionCode":null,"ownerName":"STAFFORD, S R & LINDA","ownerName2":null,"propertyName":null,"zoningCode":null,"zoningDistrict":null,"jurisdictionPrefix":null,"dorCode":null,"acreage":14.7779,"centroid":[-85.743734,33.989387],"lastSale":{"date":null,"price":null,"qualified":null},"tax":{"marketValue":186402.0,"assessedValue":18660.0,"taxableValue":null,"taxes":527.47},"mailingAddress":{"line1":"11 BROCK LN","line2":null,"city":"PIEDMONT","state":"AL","zip":"36272"},"incomeTract":null,"incomeBlockGroup":null,"nearestRoad":null,"flu":null,"opportunityZone":null,"oz2Eligibility":null,"source":"al-etowah-parcels-01055","appraiserUrl":"https://etowahproperty.assurancegov.com/Property/Details?taxyear=2026&ppin=23828","gisViewerUrl":"https://isv.kcsgis.com/al.etowah_revenue/"},"geometry":{"type":"MultiPolygon","coordinates":[[[[-85.743598,33.99033],[-85.743731,33.990326],[-85.743785,33.990327],[-85.743815,33.990248],[-85.743889,33.990195],[-85.744304,33.989971],[-85.744992,33.988742],[-85.743648,33.986718],[-85.742601,33.98672],[-85.742973,33.990297],[-85.743598,33.99033]]],[[[-85.744214,33.99011],[-85.744067,33.990191],[-85.743873,33.990329],[-85.744101,33.990335],[-85.744231,33.990101],[-85.744214,33.99011]]]]}},{"type":"Feature","id":"01055:1307360000001000","properties":{"id":"01055:1307360000001000","parcelId":"1307360000001000","countyFips":"01055","countyName":"Etowah","state":"Alabama","marketIds":["Birmingham"],"situsAddress":"0","situsCity":null,"situsZip":null,"jurisdictionCode":null,"ownerName":"WALKER, JOHN ROBERT","ownerName2":null,"propertyName":null,"zoningCode":null,"zoningDistrict":null,"jurisdictionPrefix":null,"dorCode":null,"acreage":38.8489,"centroid":[-85.741899,33.952494],"lastSale":{"date":null,"price":null,"qualified":null},"tax":{"marketValue":17240.0,"assessedValue":1720.0,"taxableValue":null,"taxes":65.92},"mailingAddress":{"line1":"371 AZALEA DR","line2":null,"city":"GADSDEN","state":"AL","zip":"35901"},"incomeTract":null,"incomeBlockGroup":null,"nearestRoad":null,"flu":null,"opportunityZone":null,"oz2Eligibility":null,"source":"al-etowah-parcels-01055","appraiserUrl":"https://etowahproperty.assurancegov.com/Property/Details?taxyear=2026&ppin=24231","gisViewerUrl":"https://isv.kcsgis.com/al.etowah_revenue/"},"geometry":{"type":"Polygon","coordinates":[[[-85.74008,33.953909],[-85.74009,33.953909],[-85.744468,33.953892],[-85.744592,33.950368],[-85.740265,33.950394],[-85.74008,33.953909]]]}},{"type":"Feature","id":"01055:1307360000002000","properties":{"id":"01055:1307360000002000","parcelId":"1307360000002000","countyFips":"01055","countyName":"Etowah","state":"Alabama","marketIds":["Birmingham"],"situsAddress":"0","situsCity":null,"situsZip":null,"jurisdictionCode":null,"ownerName":"PRITCHETT, FELISHA","ownerName2":null,"propertyName":null,"zoningCode":null,"zoningDistrict":null,"jurisdictionPrefix":null,"dorCode":null,"acreage":19.2755,"centroid":[-85.745607,33.952125],"lastSale":{"date":null,"price":null,"qualified":null},"tax":{"marketValue":74500.0,"assessedValue":6520.0,"taxableValue":null,"taxes":236.72},"mailingAddress":{"line1":"12596 US HWY 278 EAST","line2":null,"city":"PIEDMONT","state":"AL","zip":"36272"},"incomeTract":null,"incomeBlockGroup":null,"nearestRoad":null,"flu":null,"opportunityZone":null,"oz2Eligibility":null,"source":"al-etowah-parcels-01055","appraiserUrl":"https://etowahproperty.assurancegov.com/Property/Details?taxyear=2026&ppin=24232","gisViewerUrl":"https://isv.kcsgis.com/al.etowah_revenue/"},"geometry":{"type":"Polygon","coordinates":[[[-85.744468,33.953892],[-85.74665,33.953884],[-85.746717,33.950355],[-85.744592,33.950368],[-85.744468,33.953892]]]}},{"type":"Feature","id":"01055:1307360000003000","properties":{"id":"01055:1307360000003000","parcelId":"1307360000003000","countyFips":"01055","countyName":"Etowah","state":"Alabama","marketIds":["Birmingham"],"situsAddress":"0","situsCity":null,"situsZip":null,"jurisdictionCode":null,"ownerName":"SMITH, LILLIAN & \"ETALS\"","ownerName2":null,"propertyName":null,"zoningCode":null,"zoningDistrict":null,"jurisdictionPrefix":null,"dorCode":null,"acreage":19.4291,"centroid":[-85.747774,33.952114],"lastSale":{"date":null,"price":null,"qualified":null},"tax":{"marketValue":25000.0,"assessedValue":2500.0,"taxableValue":null,"taxes":92.0},"mailingAddress":{"line1":"P.O. BOX 276","line2":null,"city":"BYRDSTOWN","state":"TN","zip":"38549"},"incomeTract":null,"incomeBlockGroup":null,"nearestRoad":null,"flu":null,"opportunityZone":null,"oz2Eligibility":null,"source":"al-etowah-parcels-01055","appraiserUrl":"https://etowahproperty.assurancegov.com/Property/Details?taxyear=2026&ppin=24233","gisViewerUrl":"https://isv.kcsgis.com/al.etowah_revenue/"},"geometry":{"type":"Polygon","coordinates":[[[-85.746659,33.953884],[-85.748788,33.953876],[-85.748932,33.950342],[-85.746717,33.950355],[-85.746659,33.953884]]]}},{"type":"Feature","id":"01055:1307360000007000","properties":{"id":"01055:1307360000007000","parcelId":"1307360000007000","countyFips":"01055","countyName":"Etowah","state":"Alabama","marketIds":["Birmingham"],"situsAddress":"0","situsCity":null,"situsZip":null,"jurisdictionCode":null,"ownerName":"HTFF REIT INC","ownerName2":null,"propertyName":null,"zoningCode":null,"zoningDistrict":null,"jurisdictionPrefix":null,"dorCode":null,"acreage":114.8101,"centroid":[-85.744958,33.940171],"lastSale":{"date":null,"price":null,"qualified":null},"tax":{"marketValue":270000.0,"assessedValue":27000.0,"taxableValue":null,"taxes":982.8},"mailingAddress":{"line1":"11016 RUSHMORE DR","line2":"STE 200","city":"CHARLOTTE","state":"NC","zip":"28277"},"incomeTract":null,"incomeBlockGroup":null,"nearestRoad":null,"flu":null,"opportunityZone":null,"oz2Eligibility":null,"source":"al-etowah-parcels-01055","appraiserUrl":"https://etowahproperty.assurancegov.com/Property/Details?taxyear=2026&ppin=24238","gisViewerUrl":"https://isv.kcsgis.com/al.etowah_revenue/"},"geometry":{"type":"Polygon","coordinates":[[[-85.740643,33.943223],[-85.744393,33.943202],[-85.749205,33.943174],[-85.749426,33.937165],[-85.745138,33.936259],[-85.745041,33.939088],[-85.740861,33.939085],[-85.740643,33.943223]]]}},{"type":"Feature","id":"01055:1307360000008000","properties":{"id":"01055:1307360000008000","parcelId":"1307360000008000","countyFips":"01055","countyName":"Etowah","state":"Alabama","marketIds":["Birmingham"],"situsAddress":"0","situsCity":null,"situsZip":null,"jurisdictionCode":null,"ownerName":"HTFF REIT INC","ownerName2":null,"propertyName":null,"zoningCode":null,"zoningDistrict":null,"jurisdictionPrefix":null,"dorCode":null,"acreage":34.2672,"centroid":[-85.743024,33.937457],"lastSale":{"date":null,"price":null,"qualified":null},"tax":{"marketValue":100000.0,"assessedValue":10000.0,"taxableValue":null,"taxes":364.0},"mailingAddress":{"line1":"11016 RUSHMORE DR","line2":"STE 200","city":"CHARLOTTE","state":"NC","zip":"28277"},"incomeTract":null,"incomeBlockGroup":null,"nearestRoad":null,"flu":null,"opportunityZone":null,"oz2Eligibility":null,"source":"al-etowah-parcels-01055","appraiserUrl":"https://etowahproperty.assurancegov.com/Property/Details?taxyear=2026&ppin=24239","gisViewerUrl":"https://isv.kcsgis.com/al.etowah_revenue/"},"geometry":{"type":"Polygon","coordinates":[[[-85.745041,33.939088],[-85.745138,33.936259],[-85.741055,33.935397],[-85.740861,33.939085],[-85.745041,33.939088]]]}},{"type":"Feature","id":"01055:1307250000027000","properties":{"id":"01055:1307250000027000","parcelId":"1307250000027000","countyFips":"01055","countyName":"Etowah","state":"Alabama","marketIds":["Birmingham"],"situsAddress":"0 MOUNTAIN WAY","situsCity":null,"situsZip":null,"jurisdictionCode":null,"ownerName":"EDMONDSON, DEWEY E 'HRS'","ownerName2":null,"propertyName":null,"zoningCode":null,"zoningDistrict":null,"jurisdictionPrefix":null,"dorCode":null,"acreage":24.6163,"centroid":[-85.747655,33.957773],"lastSale":{"date":null,"price":null,"qualified":null},"tax":{"marketValue":29100.0,"assessedValue":2920.0,"taxableValue":null,"taxes":107.45},"mailingAddress":{"line1":"P.O. BOX 276","line2":null,"city":"BYRDSTOWN","state":"TN","zip":"38549"},"incomeTract":null,"incomeBlockGroup":null,"nearestRoad":null,"flu":null,"opportunityZone":null,"oz2Eligibility":null,"source":"al-etowah-parcels-01055","appraiserUrl":"https://etowahproperty.assurancegov.com/Property/Details?taxyear=2026&ppin=23987","gisViewerUrl":"https://isv.kcsgis.com/al.etowah_revenue/"},"geometry":{"type":"Polygon","coordinates":[[[-85.747831,33.961633],[-85.748156,33.9617],[-85.748824,33.953876],[-85.74665,33.953884],[-85.746322,33.95775],[-85.748147,33.957793],[-85.747831,33.961633]]]}},{"type":"Feature","id":"01055:1307250000028000","properties":{"id":"01055:1307250000028000","parcelId":"1307250000028000","countyFips":"01055","countyName":"Etowah","state":"Alabama","marketIds":["Birmingham"],"situsAddress":"268 MOUNTAIN WAY","situsCity":null,"situsZip":null,"jurisdictionCode":null,"ownerName":"PRITCHETT, FELISHA","ownerName2":null,"propertyName":null,"zoningCode":null,"zoningDistrict":null,"jurisdictionPrefix":null,"dorCode":null,"acreage":21.4572,"centroid":[-85.745669,33.956453],"lastSale":{"date":null,"price":null,"qualified":null},"tax":{"marketValue":67400.0,"assessedValue":6600.0,"taxableValue":null,"taxes":239.6},"mailingAddress":{"line1":"12596 US HWY 278","line2":null,"city":"PIEDMONT","state":"AL","zip":"36272"},"incomeTract":null,"incomeBlockGroup":null,"nearestRoad":null,"flu":null,"opportunityZone":null,"oz2Eligibility":null,"source":"al-etowah-parcels-01055","appraiserUrl":"https://etowahproperty.assurancegov.com/Property/Details?taxyear=2026&ppin=23988","gisViewerUrl":"https://isv.kcsgis.com/al.etowah_revenue/"},"geometry":{"type":"Polygon","coordinates":[[[-85.746235,33.957748],[-85.746244,33.957748],[-85.746322,33.95775],[-85.74665,33.953884],[-85.744468,33.953892],[-85.744092,33.957697],[-85.746235,33.957748]]]}},{"type":"Feature","id":"01055:1307250000029001","properties":{"id":"01055:1307250000029001","parcelId":"1307250000029001","countyFips":"01055","countyName":"Etowah","state":"Alabama","marketIds":["Birmingham"],"situsAddress":"0 MOUNTAIN WAY","situsCity":null,"situsZip":null,"jurisdictionCode":null,"ownerName":"PRITCHETT, FELISHA D","ownerName2":null,"propertyName":null,"zoningCode":null,"zoningDistrict":null,"jurisdictionPrefix":null,"dorCode":null,"acreage":18.0192,"centroid":[-85.74316,33.955995],"lastSale":{"date":null,"price":null,"qualified":null},"tax":{"marketValue":31900.0,"assessedValue":1740.0,"taxableValue":null,"taxes":64.34},"mailingAddress":{"line1":"12596 U S HWY 278 E","line2":null,"city":"PIEDMONT","state":"AL","zip":"36272"},"incomeTract":null,"incomeBlockGroup":null,"nearestRoad":null,"flu":null,"opportunityZone":null,"oz2Eligibility":null,"source":"al-etowah-parcels-01055","appraiserUrl":"https://etowahproperty.assurancegov.com/Property/Details?taxyear=2026&ppin=79915","gisViewerUrl":"https://isv.kcsgis.com/al.etowah_revenue/"},"geometry":{"type":"Polygon","coordinates":[[[-85.742764,33.957665],[-85.742862,33.956573],[-85.743544,33.956577],[-85.743609,33.955852],[-85.744274,33.955856],[-85.744468,33.953892],[-85.742035,33.953902],[-85.74172,33.95764],[-85.742764,33.957665]]]}},{"type":"Feature","id":"01055:1307250000030000","properties":{"id":"01055:1307250000030000","parcelId":"1307250000030000","countyFips":"01055","countyName":"Etowah","state":"Alabama","marketIds":["Birmingham"],"situsAddress":"345 MOUNTAIN WAY","situsCity":null,"situsZip":null,"jurisdictionCode":null,"ownerName":"ANDERSON, JERRY D 'PERSONAL REPRESENTATI","ownerName2":null,"propertyName":null,"zoningCode":null,"zoningDistrict":null,"jurisdictionPrefix":null,"dorCode":null,"acreage":15.6429,"centroid":[-85.741127,33.955329],"lastSale":{"date":null,"price":null,"qualified":null},"tax":{"marketValue":199100.0,"assessedValue":19940.0,"taxableValue":null,"taxes":131.04},"mailingAddress":{"line1":"393 MOUNTAIN WAY","line2":null,"city":"PIEDMONT","state":"AL","zip":"36272"},"incomeTract":null,"incomeBlockGroup":null,"nearestRoad":null,"flu":null,"opportunityZone":null,"oz2Eligibility":null,"source":"al-etowah-parcels-01055","appraiserUrl":"https://etowahproperty.assurancegov.com/Property/Details?taxyear=2026&ppin=23990","gisViewerUrl":"https://isv.kcsgis.com/al.etowah_revenue/"},"geometry":{"type":"Polygon","coordinates":[[[-85.741769,33.957064],[-85.741964,33.954751],[-85.742035,33.953902],[-85.74008,33.953909],[-85.739788,33.957017],[-85.741769,33.957064]]]}}]}