{"type":"FeatureCollection","name":"47185--9_35","features":[{"type":"Feature","id":"47185:093073    00300","properties":{"id":"47185:093073    00300","parcelId":"093073    00300","countyFips":"47185","countyName":"White","state":"Tennessee","marketIds":["Nashville"],"situsAddress":"EASTLAND RD 10401","situsCity":null,"situsZip":null,"jurisdictionCode":null,"ownerName":"GIUFFRIDA MICHAEL & TINA","ownerName2":null,"propertyName":null,"zoningCode":null,"zoningDistrict":null,"jurisdictionPrefix":null,"dorCode":null,"acreage":111.4995,"centroid":[-85.223291,35.903471],"lastSale":{"date":"2020-10-23","price":300000.0,"qualified":null,"vintage":"2023"},"tax":{"marketValue":85700.0,"assessedValue":null,"taxableValue":null,"taxes":null,"vintage":"2023"},"mailingAddress":{"line1":null,"line2":null,"city":null,"state":null,"zip":null},"incomeTract":null,"incomeBlockGroup":null,"nearestRoad":null,"flu":null,"opportunityZone":null,"oz2Eligibility":null,"source":"tn-oir-public-use-47185","appraiserUrl":"https://assessment.cot.tn.gov/TPAD/Parcel/GIS?gislink=093073%20%20%20%2000300"},"geometry":{"type":"Polygon","coordinates":[[[-85.2178,35.902577],[-85.217197,35.90444],[-85.218328,35.905211],[-85.223813,35.908175],[-85.223475,35.909503],[-85.225715,35.909938],[-85.226218,35.908097],[-85.22416,35.9077],[-85.224825,35.905382],[-85.22901,35.90574],[-85.228884,35.903644],[-85.227104,35.903361],[-85.226573,35.901876],[-85.226423,35.901926],[-85.226273,35.90197],[-85.226134,35.902007],[-85.22598,35.902042],[-85.226145,35.902514],[-85.22567,35.90459],[-85.224713,35.904355],[-85.224714,35.902158],[-85.224475,35.902146],[-85.224254,35.902126],[-85.22285,35.901949],[-85.22259,35.901923],[-85.22235,35.901907],[-85.222123,35.901901],[-85.221896,35.901903],[-85.221656,35.901913],[-85.221479,35.901926],[-85.221294,35.901945],[-85.221122,35.901968],[-85.220952,35.901995],[-85.220766,35.90203],[-85.220208,35.902145],[-85.219828,35.902218],[-85.219441,35.902287],[-85.218627,35.902423],[-85.2178,35.902577]]]}},{"type":"Feature","id":"47185:093073    01400","properties":{"id":"47185:093073    01400","parcelId":"093073    01400","countyFips":"47185","countyName":"White","state":"Tennessee","marketIds":["Nashville"],"situsAddress":"EASTLAND RD","situsCity":null,"situsZip":null,"jurisdictionCode":null,"ownerName":"RACKLEY DONALD E","ownerName2":"C/O EDDIE RACKLEY","propertyName":null,"zoningCode":null,"zoningDistrict":null,"jurisdictionPrefix":null,"dorCode":null,"acreage":94.4315,"centroid":[-85.235271,35.894503],"lastSale":{"date":"1900-01-02","price":null,"qualified":null,"vintage":"2023"},"tax":{"marketValue":57000.0,"assessedValue":null,"taxableValue":null,"taxes":null,"vintage":"2023"},"mailingAddress":{"line1":null,"line2":null,"city":null,"state":null,"zip":null},"incomeTract":null,"incomeBlockGroup":null,"nearestRoad":null,"flu":null,"opportunityZone":null,"oz2Eligibility":null,"source":"tn-oir-public-use-47185","appraiserUrl":"https://assessment.cot.tn.gov/TPAD/Parcel/GIS?gislink=093073%20%20%20%2001400"},"geometry":{"type":"Polygon","coordinates":[[[-85.235742,35.895159],[-85.235778,35.895212],[-85.235801,35.895266],[-85.235816,35.895324],[-85.23582,35.895383],[-85.235816,35.895429],[-85.235703,35.896071],[-85.235689,35.896171],[-85.235683,35.896303],[-85.235694,35.896334],[-85.235719,35.896359],[-85.235776,35.896395],[-85.237812,35.896597],[-85.237877,35.896432],[-85.237936,35.896255],[-85.23835,35.894835],[-85.237315,35.894337],[-85.236739,35.894201],[-85.236423,35.894],[-85.237099,35.892161],[-85.238801,35.892937],[-85.238874,35.893025],[-85.238989,35.892999],[-85.239066,35.8929],[-85.239149,35.892805],[-85.238834,35.89211],[-85.238734,35.891857],[-85.238679,35.891693],[-85.23863,35.89152],[-85.238594,35.891366],[-85.238547,35.891126],[-85.235293,35.890937],[-85.234846,35.891194],[-85.234807,35.89158],[-85.233769,35.891718],[-85.229599,35.89156],[-85.229481,35.892811],[-85.229771,35.892808],[-85.229463,35.894899],[-85.230522,35.895623],[-85.230612,35.89568],[-85.23072,35.895738],[-85.230829,35.895786],[-85.230945,35.895827],[-85.231071,35.895863],[-85.231217,35.895891],[-85.231883,35.895988],[-85.232281,35.896042],[-85.232636,35.896083],[-85.235609,35.896378],[-85.23559,35.896344],[-85.235581,35.896305],[-85.235589,35.896156],[-85.235602,35.89606],[-85.235716,35.895415],[-85.235719,35.895379],[-85.23551,35.895172],[-85.235117,35.895138],[-85.235192,35.894592],[-85.235797,35.894643],[-85.235742,35.895159]]]}},{"type":"Feature","id":"47185:093073    01200","properties":{"id":"47185:093073    01200","parcelId":"093073    01200","countyFips":"47185","countyName":"White","state":"Tennessee","marketIds":["Nashville"],"situsAddress":"EASTLAND RD 9241","situsCity":null,"situsZip":null,"jurisdictionCode":null,"ownerName":"PHIPPS CHRISTOPHER W & FELICIA M","ownerName2":null,"propertyName":null,"zoningCode":null,"zoningDistrict":null,"jurisdictionPrefix":null,"dorCode":null,"acreage":62.7994,"centroid":[-85.239786,35.895991],"lastSale":{"date":"2020-10-08","price":379000.0,"qualified":null,"vintage":"2023"},"tax":{"marketValue":207400.0,"assessedValue":null,"taxableValue":null,"taxes":null,"vintage":"2023"},"mailingAddress":{"line1":null,"line2":null,"city":null,"state":null,"zip":null},"incomeTract":null,"incomeBlockGroup":null,"nearestRoad":null,"flu":null,"opportunityZone":null,"oz2Eligibility":null,"source":"tn-oir-public-use-47185","appraiserUrl":"https://assessment.cot.tn.gov/TPAD/Parcel/GIS?gislink=093073%20%20%20%2001200"},"geometry":{"type":"MultiPolygon","coordinates":[[[[-85.240215,35.898169],[-85.240258,35.898245],[-85.240398,35.898174],[-85.240548,35.898087],[-85.240583,35.898071],[-85.240624,35.898058],[-85.240693,35.898048],[-85.24076,35.898049],[-85.240828,35.898063],[-85.24089,35.898088],[-85.240793,35.897951],[-85.242709,35.896569],[-85.243731,35.892947],[-85.242926,35.892746],[-85.242757,35.892789],[-85.242532,35.89282],[-85.242142,35.89285],[-85.241924,35.892789],[-85.24156,35.89292],[-85.241379,35.893176],[-85.241241,35.893208],[-85.241116,35.893315],[-85.240093,35.893734],[-85.239943,35.893784],[-85.239793,35.893776],[-85.239703,35.893833],[-85.239626,35.893994],[-85.239577,35.894121],[-85.239443,35.89416],[-85.239266,35.894403],[-85.239115,35.894458],[-85.239097,35.894541],[-85.238956,35.89463],[-85.238902,35.894744],[-85.238502,35.894669],[-85.23804,35.896257],[-85.237998,35.896389],[-85.237949,35.896522],[-85.237878,35.896691],[-85.237796,35.896862],[-85.237277,35.897825],[-85.23743,35.897865],[-85.237576,35.897894],[-85.237716,35.897913],[-85.237926,35.89793],[-85.238057,35.897945],[-85.238202,35.897969],[-85.238348,35.898002],[-85.238435,35.898029],[-85.238511,35.898065],[-85.238581,35.898111],[-85.238639,35.898163],[-85.239541,35.897473],[-85.23992,35.897635],[-85.240215,35.898169]]],[[[-85.236325,35.899184],[-85.23646,35.899188],[-85.236569,35.899177],[-85.236732,35.899138],[-85.23695,35.899068],[-85.237084,35.899029],[-85.23733,35.898971],[-85.237491,35.89894],[-85.237645,35.898917],[-85.237799,35.898899],[-85.237961,35.898886],[-85.237796,35.898835],[-85.237629,35.89877],[-85.237495,35.898705],[-85.23738,35.898631],[-85.237276,35.898547],[-85.237183,35.898448],[-85.237107,35.898343],[-85.237048,35.898231],[-85.236953,35.898381],[-85.236851,35.898532],[-85.236743,35.898682],[-85.236635,35.898821],[-85.236549,35.898919],[-85.236457,35.899012],[-85.236362,35.8991],[-85.236256,35.899186],[-85.236325,35.899184]]],[[[-85.237554,35.898638],[-85.237681,35.898699],[-85.237827,35.898756],[-85.237974,35.898802],[-85.238133,35.89884],[-85.238245,35.89886],[-85.238351,35.898873],[-85.238856,35.89891],[-85.239061,35.898932],[-85.239262,35.89896],[-85.23942,35.898988],[-85.239583,35.899023],[-85.239744,35.899066],[-85.239891,35.899111],[-85.240059,35.899171],[-85.240213,35.899235],[-85.240376,35.899311],[-85.240521,35.899387],[-85.24066,35.89947],[-85.2408,35.899562],[-85.240979,35.899694],[-85.241144,35.899824],[-85.241185,35.899836],[-85.241285,35.899857],[-85.24138,35.899869],[-85.241476,35.899872],[-85.241572,35.899867],[-85.241693,35.899848],[-85.241808,35.899816],[-85.241842,35.899796],[-85.241863,35.899767],[-85.241868,35.899745],[-85.241864,35.899718],[-85.24185,35.89967],[-85.241832,35.899624],[-85.241725,35.899432],[-85.241629,35.899214],[-85.241574,35.899103],[-85.241507,35.898982],[-85.241437,35.898871],[-85.241339,35.898728],[-85.24123,35.898579],[-85.241124,35.898443],[-85.241012,35.898307],[-85.240953,35.898246],[-85.240886,35.898191],[-85.240834,35.898157],[-85.240783,35.898138],[-85.240744,35.898131],[-85.240704,35.89813],[-85.240665,35.898134],[-85.240627,35.898145],[-85.240595,35.89816],[-85.2404,35.898271],[-85.240226,35.898353],[-85.239901,35.898482],[-85.239569,35.898596],[-85.239478,35.898622],[-85.239387,35.898639],[-85.239294,35.898646],[-85.239198,35.898644],[-85.2391,35.898633],[-85.239014,35.898613],[-85.238938,35.898585],[-85.238866,35.898545],[-85.238822,35.898512],[-85.238782,35.898474],[-85.238659,35.898322],[-85.238543,35.898198],[-85.238471,35.898144],[-85.238385,35.898101],[-85.238334,35.898084],[-85.238257,35.898066],[-85.23807,35.898031],[-85.237927,35.898013],[-85.237692,35.897993],[-85.237533,35.89797],[-85.23738,35.897939],[-85.237236,35.8979],[-85.237113,35.898123],[-85.237145,35.898206],[-85.237177,35.898271],[-85.237214,35.898332],[-85.237258,35.898392],[-85.237306,35.898447],[-85.237359,35.898499],[-85.237422,35.898552],[-85.23749,35.898599],[-85.237554,35.898638]]],[[[-85.241307,35.899961],[-85.241441,35.900081],[-85.24153,35.900166],[-85.241614,35.900258],[-85.241689,35.900349],[-85.241756,35.900441],[-85.241814,35.900534],[-85.241981,35.900842],[-85.242305,35.900756],[-85.242622,35.900727],[-85.241937,35.899619],[-85.241966,35.899716],[-85.241969,35.899744],[-85.241966,35.899771],[-85.241954,35.899803],[-85.241936,35.899831],[-85.241911,35.899857],[-85.24188,35.899878],[-85.241847,35.899892],[-85.241777,35.899914],[-85.241639,35.899942],[-85.241551,35.899951],[-85.241462,35.899954],[-85.241369,35.899951],[-85.241284,35.899941],[-85.241307,35.899961]]]]}},{"type":"Feature","id":"47185:093072    00500","properties":{"id":"47185:093072    00500","parcelId":"093072    00500","countyFips":"47185","countyName":"White","state":"Tennessee","marketIds":["Nashville"],"situsAddress":"OLD RAILROAD GRADE RD 6288","situsCity":null,"situsZip":null,"jurisdictionCode":null,"ownerName":"GRIFFIN CHRISTOPHER HALEY ETUX","ownerName2":"LESLIE ERIN GOMEZ","propertyName":null,"zoningCode":null,"zoningDistrict":null,"jurisdictionPrefix":null,"dorCode":null,"acreage":58.3894,"centroid":[-85.244468,35.90279],"lastSale":{"date":"2023-02-28","price":null,"qualified":null,"vintage":"2023"},"tax":{"marketValue":56600.0,"assessedValue":null,"taxableValue":null,"taxes":null,"vintage":"2023"},"mailingAddress":{"line1":null,"line2":null,"city":null,"state":null,"zip":null},"incomeTract":null,"incomeBlockGroup":null,"nearestRoad":null,"flu":null,"opportunityZone":null,"oz2Eligibility":null,"source":"tn-oir-public-use-47185","appraiserUrl":"https://assessment.cot.tn.gov/TPAD/Parcel/GIS?gislink=093072%20%20%20%2000500"},"geometry":{"type":"Polygon","coordinates":[[[-85.242622,35.900727],[-85.242305,35.900756],[-85.241981,35.900842],[-85.24202,35.900914],[-85.242182,35.900909],[-85.242347,35.900947],[-85.242432,35.901001],[-85.242491,35.901083],[-85.242589,35.901352],[-85.242813,35.901454],[-85.243038,35.902001],[-85.24305,35.902269],[-85.243168,35.902665],[-85.243105,35.902944],[-85.243187,35.903066],[-85.24328,35.903182],[-85.243353,35.903262],[-85.243564,35.903473],[-85.243616,35.903519],[-85.243675,35.903564],[-85.243739,35.903604],[-85.243807,35.903639],[-85.243981,35.90371],[-85.244158,35.903771],[-85.244346,35.903824],[-85.244538,35.903867],[-85.244717,35.903898],[-85.244894,35.903919],[-85.245416,35.903953],[-85.246012,35.903976],[-85.246578,35.903985],[-85.247009,35.903982],[-85.248174,35.903961],[-85.248509,35.903987],[-85.248736,35.903993],[-85.248973,35.903985],[-85.249566,35.90394],[-85.249831,35.900084],[-85.242622,35.900727]]]}},{"type":"Feature","id":"47185:093095    00200","properties":{"id":"47185:093095    00200","parcelId":"093095    00200","countyFips":"47185","countyName":"White","state":"Tennessee","marketIds":["Nashville"],"situsAddress":"SCOTTS GULF RD","situsCity":null,"situsZip":null,"jurisdictionCode":null,"ownerName":"LOSHBOUGH REGINA","ownerName2":null,"propertyName":null,"zoningCode":null,"zoningDistrict":null,"jurisdictionPrefix":null,"dorCode":null,"acreage":56.4953,"centroid":[-85.24012,35.819022],"lastSale":{"date":"2019-05-07","price":null,"qualified":null,"vintage":"2023"},"tax":{"marketValue":41900.0,"assessedValue":null,"taxableValue":null,"taxes":null,"vintage":"2023"},"mailingAddress":{"line1":null,"line2":null,"city":null,"state":null,"zip":null},"incomeTract":null,"incomeBlockGroup":null,"nearestRoad":null,"flu":null,"opportunityZone":null,"oz2Eligibility":null,"source":"tn-oir-public-use-47185","appraiserUrl":"https://assessment.cot.tn.gov/TPAD/Parcel/GIS?gislink=093095%20%20%20%2000200"},"geometry":{"type":"MultiPolygon","coordinates":[[[[-85.237406,35.823745],[-85.23749,35.823934],[-85.238872,35.822312],[-85.239248,35.820536],[-85.244352,35.820797],[-85.243992,35.816829],[-85.240738,35.816723],[-85.240687,35.816853],[-85.24059,35.817079],[-85.240523,35.817277],[-85.240495,35.817387],[-85.240472,35.817498],[-85.240363,35.81816],[-85.240311,35.818314],[-85.240282,35.81837],[-85.240247,35.818423],[-85.240193,35.818485],[-85.240135,35.818538],[-85.239299,35.819172],[-85.239194,35.819242],[-85.239083,35.819304],[-85.238664,35.819503],[-85.237406,35.823745]]],[[[-85.239047,35.818212],[-85.238697,35.819392],[-85.239028,35.819235],[-85.239128,35.819179],[-85.239223,35.819117],[-85.240063,35.818479],[-85.240119,35.818429],[-85.240166,35.818373],[-85.240193,35.81833],[-85.240218,35.818279],[-85.240265,35.818139],[-85.240371,35.817488],[-85.240395,35.817373],[-85.240422,35.817267],[-85.240491,35.817061],[-85.240633,35.81672],[-85.239501,35.816683],[-85.239047,35.818212]]],[[[-85.237275,35.824186],[-85.237419,35.824016],[-85.237363,35.82389],[-85.237275,35.824186]]]]}},{"type":"Feature","id":"47185:093094    00202","properties":{"id":"47185:093094    00202","parcelId":"093094    00202","countyFips":"47185","countyName":"White","state":"Tennessee","marketIds":["Nashville"],"situsAddress":"SCOTTS GULF RD","situsCity":null,"situsZip":null,"jurisdictionCode":null,"ownerName":"HALL SCOTTIE L & MARISOL","ownerName2":null,"propertyName":null,"zoningCode":null,"zoningDistrict":null,"jurisdictionPrefix":null,"dorCode":null,"acreage":54.7665,"centroid":[-85.232285,35.849197],"lastSale":{"date":"2017-05-19","price":120400.0,"qualified":null,"vintage":"2023"},"tax":{"marketValue":34400.0,"assessedValue":null,"taxableValue":null,"taxes":null,"vintage":"2023"},"mailingAddress":{"line1":null,"line2":null,"city":null,"state":null,"zip":null},"incomeTract":null,"incomeBlockGroup":null,"nearestRoad":null,"flu":null,"opportunityZone":null,"oz2Eligibility":null,"source":"tn-oir-public-use-47185","appraiserUrl":"https://assessment.cot.tn.gov/TPAD/Parcel/GIS?gislink=093094%20%20%20%2000202"},"geometry":{"type":"Polygon","coordinates":[[[-85.230443,35.84781],[-85.22911,35.852681],[-85.233504,35.852901],[-85.233595,35.852909],[-85.233925,35.850222],[-85.232764,35.850068],[-85.232797,35.849809],[-85.233214,35.848439],[-85.231858,35.84839],[-85.232425,35.843999],[-85.231502,35.843936],[-85.230443,35.84781]]]}},{"type":"Feature","id":"47185:093073    02900","properties":{"id":"47185:093073    02900","parcelId":"093073    02900","countyFips":"47185","countyName":"White","state":"Tennessee","marketIds":["Nashville"],"situsAddress":"EASTLAND CEMETERY RD 580","situsCity":null,"situsZip":null,"jurisdictionCode":null,"ownerName":"MICHAEL DONALD","ownerName2":null,"propertyName":null,"zoningCode":null,"zoningDistrict":null,"jurisdictionPrefix":null,"dorCode":null,"acreage":54.7026,"centroid":[-85.234741,35.887642],"lastSale":{"date":"2020-10-15","price":258500.0,"qualified":null,"vintage":"2023"},"tax":{"marketValue":145000.0,"assessedValue":null,"taxableValue":null,"taxes":null,"vintage":"2023"},"mailingAddress":{"line1":null,"line2":null,"city":null,"state":null,"zip":null},"incomeTract":null,"incomeBlockGroup":null,"nearestRoad":null,"flu":null,"opportunityZone":null,"oz2Eligibility":null,"source":"tn-oir-public-use-47185","appraiserUrl":"https://assessment.cot.tn.gov/TPAD/Parcel/GIS?gislink=093073%20%20%20%2002900"},"geometry":{"type":"Polygon","coordinates":[[[-85.23324,35.888768],[-85.234084,35.888867],[-85.234261,35.888876],[-85.234441,35.888873],[-85.234646,35.888854],[-85.235381,35.888744],[-85.235694,35.888702],[-85.236391,35.888623],[-85.236748,35.888589],[-85.237021,35.885257],[-85.237253,35.884032],[-85.2325,35.883674],[-85.232098,35.887654],[-85.232621,35.88748],[-85.23324,35.888768]]]}},{"type":"Feature","id":"47185:093094    00201","properties":{"id":"47185:093094    00201","parcelId":"093094    00201","countyFips":"47185","countyName":"White","state":"Tennessee","marketIds":["Nashville"],"situsAddress":"SCOTTS GULF RD","situsCity":null,"situsZip":null,"jurisdictionCode":null,"ownerName":"SEQUATCHIE LLC","ownerName2":"C/O TIMBERLAND INV RES LLC","propertyName":null,"zoningCode":null,"zoningDistrict":null,"jurisdictionPrefix":null,"dorCode":null,"acreage":47.1176,"centroid":[-85.234853,35.851446],"lastSale":{"date":"2006-06-23","price":66056786.0,"qualified":null,"vintage":"2023"},"tax":{"marketValue":65000.0,"assessedValue":null,"taxableValue":null,"taxes":null,"vintage":"2023"},"mailingAddress":{"line1":null,"line2":null,"city":null,"state":null,"zip":null},"incomeTract":null,"incomeBlockGroup":null,"nearestRoad":null,"flu":null,"opportunityZone":null,"oz2Eligibility":null,"source":"tn-oir-public-use-47185","appraiserUrl":"https://assessment.cot.tn.gov/TPAD/Parcel/GIS?gislink=093094%20%20%20%2000201"},"geometry":{"type":"Polygon","coordinates":[[[-85.236238,35.853791],[-85.237431,35.854179],[-85.238582,35.853364],[-85.235683,35.848516],[-85.233214,35.848439],[-85.232797,35.849809],[-85.232764,35.850068],[-85.233925,35.850222],[-85.233595,35.852909],[-85.234304,35.853161],[-85.236238,35.853791]]]}},{"type":"Feature","id":"47185:093073    01500","properties":{"id":"47185:093073    01500","parcelId":"093073    01500","countyFips":"47185","countyName":"White","state":"Tennessee","marketIds":["Nashville"],"situsAddress":"WEST LOOP RD 616","situsCity":null,"situsZip":null,"jurisdictionCode":null,"ownerName":"BLAYLOCK RANDAL BRUCE & LISA CHARMAINE","ownerName2":null,"propertyName":null,"zoningCode":null,"zoningDistrict":null,"jurisdictionPrefix":null,"dorCode":null,"acreage":33.0698,"centroid":[-85.229466,35.897383],"lastSale":{"date":"2019-11-07","price":null,"qualified":null,"vintage":"2023"},"tax":{"marketValue":128400.0,"assessedValue":null,"taxableValue":null,"taxes":null,"vintage":"2023"},"mailingAddress":{"line1":null,"line2":null,"city":null,"state":null,"zip":null},"incomeTract":null,"incomeBlockGroup":null,"nearestRoad":null,"flu":null,"opportunityZone":null,"oz2Eligibility":null,"source":"tn-oir-public-use-47185","appraiserUrl":"https://assessment.cot.tn.gov/TPAD/Parcel/GIS?gislink=093073%20%20%20%2001500"},"geometry":{"type":"MultiPolygon","coordinates":[[[[-85.229038,35.898131],[-85.229332,35.898415],[-85.229292,35.898682],[-85.229189,35.89879],[-85.229237,35.899079],[-85.229568,35.899376],[-85.229682,35.899313],[-85.229805,35.899252],[-85.229928,35.899198],[-85.230048,35.899153],[-85.230178,35.899111],[-85.230309,35.899076],[-85.230441,35.899047],[-85.230576,35.899023],[-85.230549,35.89884],[-85.230559,35.898808],[-85.230556,35.898735],[-85.23053,35.898593],[-85.230499,35.898504],[-85.230438,35.898448],[-85.23041,35.898427],[-85.23039,35.898362],[-85.230412,35.898296],[-85.23044,35.898246],[-85.230534,35.898166],[-85.230562,35.898135],[-85.230595,35.898078],[-85.230587,35.898019],[-85.23058,35.897905],[-85.230561,35.897873],[-85.230514,35.89787],[-85.230458,35.897895],[-85.230412,35.897924],[-85.230329,35.897924],[-85.230241,35.897909],[-85.230015,35.897818],[-85.229917,35.897753],[-85.229811,35.897735],[-85.229649,35.897699],[-85.229593,35.897683],[-85.22979,35.897342],[-85.229847,35.897344],[-85.229903,35.895307],[-85.229171,35.894807],[-85.229089,35.894756],[-85.229008,35.894713],[-85.228871,35.894651],[-85.228767,35.89462],[-85.228703,35.894608],[-85.228638,35.894602],[-85.228579,35.8946],[-85.228514,35.894604],[-85.228437,35.894615],[-85.228362,35.894633],[-85.228163,35.894698],[-85.227974,35.894766],[-85.226543,35.895326],[-85.226194,35.895472],[-85.226964,35.896606],[-85.227245,35.896995],[-85.22744,35.897332],[-85.227568,35.897335],[-85.227638,35.897938],[-85.22863,35.897577],[-85.229038,35.898131]]],[[[-85.228603,35.894518],[-85.228704,35.894525],[-85.228796,35.894541],[-85.228888,35.894567],[-85.228975,35.894602],[-85.229078,35.894651],[-85.22918,35.894708],[-85.229463,35.894899],[-85.229771,35.892808],[-85.227981,35.892824],[-85.227911,35.89414],[-85.22816,35.89461],[-85.228326,35.894556],[-85.228404,35.894537],[-85.228503,35.894522],[-85.228603,35.894518]]]]}},{"type":"Feature","id":"47185:093073    02800","properties":{"id":"47185:093073    02800","parcelId":"093073    02800","countyFips":"47185","countyName":"White","state":"Tennessee","marketIds":["Nashville"],"situsAddress":"LOCKWOOD MYERS RD","situsCity":null,"situsZip":null,"jurisdictionCode":null,"ownerName":"HIWASSEE LAND CO","ownerName2":"%HARVEY M TEMPLETON","propertyName":null,"zoningCode":null,"zoningDistrict":null,"jurisdictionPrefix":null,"dorCode":null,"acreage":27.4511,"centroid":[-85.241288,35.886362],"lastSale":{"date":null,"price":null,"qualified":null},"tax":{"marketValue":45000.0,"assessedValue":null,"taxableValue":null,"taxes":null,"vintage":"2023"},"mailingAddress":{"line1":null,"line2":null,"city":null,"state":null,"zip":null},"incomeTract":null,"incomeBlockGroup":null,"nearestRoad":null,"flu":null,"opportunityZone":null,"oz2Eligibility":null,"source":"tn-oir-public-use-47185","appraiserUrl":"https://assessment.cot.tn.gov/TPAD/Parcel/GIS?gislink=093073%20%20%20%2002800"},"geometry":{"type":"Polygon","coordinates":[[[-85.243918,35.885112],[-85.243713,35.885133],[-85.243519,35.885148],[-85.242861,35.885183],[-85.242702,35.885201],[-85.242549,35.885227],[-85.242389,35.885264],[-85.242229,35.885311],[-85.241588,35.885526],[-85.241437,35.885581],[-85.241292,35.88564],[-85.241052,35.885747],[-85.240754,35.885898],[-85.240509,35.886032],[-85.240325,35.886149],[-85.240226,35.88622],[-85.240135,35.886292],[-85.239282,35.887005],[-85.239163,35.887109],[-85.239143,35.887127],[-85.238651,35.889404],[-85.238665,35.889485],[-85.238668,35.889572],[-85.238635,35.889863],[-85.243662,35.886531],[-85.243798,35.885898],[-85.243922,35.885112],[-85.243918,35.885112]]]}},{"type":"Feature","id":"47185:093073    00506","properties":{"id":"47185:093073    00506","parcelId":"093073    00506","countyFips":"47185","countyName":"White","state":"Tennessee","marketIds":["Nashville"],"situsAddress":"EASTLAND RD","situsCity":null,"situsZip":null,"jurisdictionCode":null,"ownerName":"KIRKLAND ALANNAH D AND","ownerName2":"SAMUEL A KIRKLAND","propertyName":null,"zoningCode":null,"zoningDistrict":null,"jurisdictionPrefix":null,"dorCode":null,"acreage":24.2005,"centroid":[-85.216062,35.901364],"lastSale":{"date":"2022-11-10","price":192040.0,"qualified":null,"vintage":"2023"},"tax":{"marketValue":56200.0,"assessedValue":null,"taxableValue":null,"taxes":null,"vintage":"2023"},"mailingAddress":{"line1":null,"line2":null,"city":null,"state":null,"zip":null},"incomeTract":null,"incomeBlockGroup":null,"nearestRoad":null,"flu":null,"opportunityZone":null,"oz2Eligibility":null,"source":"tn-oir-public-use-47185","appraiserUrl":"https://assessment.cot.tn.gov/TPAD/Parcel/GIS?gislink=093073%20%20%20%2000506"},"geometry":{"type":"Polygon","coordinates":[[[-85.21539,35.899142],[-85.215287,35.899029],[-85.215223,35.899065],[-85.215131,35.899101],[-85.215014,35.899126],[-85.214905,35.899129],[-85.214664,35.899098],[-85.214011,35.903333],[-85.215522,35.903646],[-85.215587,35.903525],[-85.215665,35.903406],[-85.215752,35.903298],[-85.215849,35.903195],[-85.215961,35.903095],[-85.216078,35.903007],[-85.216201,35.902928],[-85.21633,35.902857],[-85.216446,35.902804],[-85.216559,35.902759],[-85.21667,35.902722],[-85.21679,35.902689],[-85.216908,35.902662],[-85.217829,35.902487],[-85.218147,35.901505],[-85.217972,35.901427],[-85.217543,35.901355],[-85.217318,35.901234],[-85.216965,35.901161],[-85.21666,35.90097],[-85.216403,35.900748],[-85.216141,35.900601],[-85.216117,35.900423],[-85.215958,35.900296],[-85.215617,35.900383],[-85.215506,35.900354],[-85.215324,35.900031],[-85.215276,35.899795],[-85.215654,35.899432],[-85.21539,35.899142]]]}},{"type":"Feature","id":"47185:093073    00505","properties":{"id":"47185:093073    00505","parcelId":"093073    00505","countyFips":"47185","countyName":"White","state":"Tennessee","marketIds":["Nashville"],"situsAddress":"EASTLAND RD","situsCity":null,"situsZip":null,"jurisdictionCode":null,"ownerName":"WILLIER DAVID AND STACIA WILLIER","ownerName2":null,"propertyName":null,"zoningCode":null,"zoningDistrict":null,"jurisdictionPrefix":null,"dorCode":null,"acreage":23.323,"centroid":[-85.21543,35.905531],"lastSale":{"date":"2006-06-23","price":66056786.0,"qualified":null,"vintage":"2023"},"tax":{"marketValue":29300.0,"assessedValue":null,"taxableValue":null,"taxes":null,"vintage":"2023"},"mailingAddress":{"line1":null,"line2":null,"city":null,"state":null,"zip":null},"incomeTract":null,"incomeBlockGroup":null,"nearestRoad":null,"flu":null,"opportunityZone":null,"oz2Eligibility":null,"source":"tn-oir-public-use-47185","appraiserUrl":"https://assessment.cot.tn.gov/TPAD/Parcel/GIS?gislink=093073%20%20%20%2000505"},"geometry":{"type":"Polygon","coordinates":[[[-85.214091,35.908017],[-85.215947,35.908266],[-85.216003,35.907599],[-85.216011,35.907414],[-85.216012,35.907226],[-85.216003,35.906997],[-85.215981,35.906761],[-85.21595,35.906537],[-85.215905,35.9063],[-85.21584,35.906038],[-85.215445,35.904634],[-85.215422,35.904536],[-85.215405,35.904435],[-85.215393,35.904323],[-85.21539,35.904221],[-85.215394,35.904125],[-85.215405,35.904028],[-85.215423,35.90393],[-85.215449,35.903833],[-85.215482,35.903739],[-85.215522,35.903646],[-85.214011,35.903333],[-85.213405,35.907268],[-85.214091,35.908017]]]}},{"type":"Feature","id":"47185:093073    03100","properties":{"id":"47185:093073    03100","parcelId":"093073    03100","countyFips":"47185","countyName":"White","state":"Tennessee","marketIds":["Nashville"],"situsAddress":"EASTLAND RD","situsCity":null,"situsZip":null,"jurisdictionCode":null,"ownerName":"RACKLEY DONALD E","ownerName2":"C/O EDDIE RACKLEY","propertyName":null,"zoningCode":null,"zoningDistrict":null,"jurisdictionPrefix":null,"dorCode":null,"acreage":21.9218,"centroid":[-85.230784,35.887682],"lastSale":{"date":null,"price":null,"qualified":null},"tax":{"marketValue":14100.0,"assessedValue":null,"taxableValue":null,"taxes":null,"vintage":"2023"},"mailingAddress":{"line1":null,"line2":null,"city":null,"state":null,"zip":null},"incomeTract":null,"incomeBlockGroup":null,"nearestRoad":null,"flu":null,"opportunityZone":null,"oz2Eligibility":null,"source":"tn-oir-public-use-47185","appraiserUrl":"https://assessment.cot.tn.gov/TPAD/Parcel/GIS?gislink=093073%20%20%20%2003100"},"geometry":{"type":"Polygon","coordinates":[[[-85.231377,35.8887],[-85.231833,35.888744],[-85.231534,35.888233],[-85.231418,35.88788],[-85.232098,35.887654],[-85.232267,35.885979],[-85.228822,35.885719],[-85.228655,35.887749],[-85.229054,35.888477],[-85.231377,35.8887]]]}},{"type":"Feature","id":"47185:093073    00301","properties":{"id":"47185:093073    00301","parcelId":"093073    00301","countyFips":"47185","countyName":"White","state":"Tennessee","marketIds":["Nashville"],"situsAddress":"EASTLAND RD","situsCity":null,"situsZip":null,"jurisdictionCode":null,"ownerName":"REITH JANET","ownerName2":null,"propertyName":null,"zoningCode":null,"zoningDistrict":null,"jurisdictionPrefix":null,"dorCode":null,"acreage":20.9403,"centroid":[-85.224338,35.901528],"lastSale":{"date":"2018-09-10","price":null,"qualified":null,"vintage":"2023"},"tax":{"marketValue":28900.0,"assessedValue":null,"taxableValue":null,"taxes":null,"vintage":"2023"},"mailingAddress":{"line1":null,"line2":null,"city":null,"state":null,"zip":null},"incomeTract":null,"incomeBlockGroup":null,"nearestRoad":null,"flu":null,"opportunityZone":null,"oz2Eligibility":null,"source":"tn-oir-public-use-47185","appraiserUrl":"https://assessment.cot.tn.gov/TPAD/Parcel/GIS?gislink=093073%20%20%20%2000301"},"geometry":{"type":"Polygon","coordinates":[[[-85.222219,35.900327],[-85.222098,35.90112],[-85.221982,35.901819],[-85.222312,35.901823],[-85.22265,35.901845],[-85.222867,35.901868],[-85.224306,35.902049],[-85.224598,35.902071],[-85.224877,35.902077],[-85.225093,35.902072],[-85.225312,35.902058],[-85.22552,35.902036],[-85.225732,35.902005],[-85.225943,35.901965],[-85.226147,35.901917],[-85.226348,35.901861],[-85.226545,35.901796],[-85.225848,35.899848],[-85.223246,35.899629],[-85.223123,35.900383],[-85.222219,35.900327]]]}},{"type":"Feature","id":"47185:093073    01001","properties":{"id":"47185:093073    01001","parcelId":"093073    01001","countyFips":"47185","countyName":"White","state":"Tennessee","marketIds":["Nashville"],"situsAddress":"WELCH LN S 184","situsCity":null,"situsZip":null,"jurisdictionCode":null,"ownerName":"SMITH JERRY M & VERNA","ownerName2":null,"propertyName":null,"zoningCode":null,"zoningDistrict":null,"jurisdictionPrefix":null,"dorCode":null,"acreage":20.6291,"centroid":[-85.235406,35.898557],"lastSale":{"date":"2019-03-26","price":15000.0,"qualified":null,"vintage":"2023"},"tax":{"marketValue":64100.0,"assessedValue":null,"taxableValue":null,"taxes":null,"vintage":"2023"},"mailingAddress":{"line1":null,"line2":null,"city":null,"state":null,"zip":null},"incomeTract":null,"incomeBlockGroup":null,"nearestRoad":null,"flu":null,"opportunityZone":null,"oz2Eligibility":null,"source":"tn-oir-public-use-47185","appraiserUrl":"https://assessment.cot.tn.gov/TPAD/Parcel/GIS?gislink=093073%20%20%20%2001001"},"geometry":{"type":"MultiPolygon","coordinates":[[[[-85.233706,35.896892],[-85.233312,35.899574],[-85.233476,35.899621],[-85.233643,35.89966],[-85.233816,35.899691],[-85.233988,35.899712],[-85.234161,35.899725],[-85.234338,35.899729],[-85.234515,35.899724],[-85.234688,35.89971],[-85.234856,35.899688],[-85.235027,35.899656],[-85.235187,35.899617],[-85.235343,35.89957],[-85.235496,35.899516],[-85.235652,35.89945],[-85.235802,35.899376],[-85.235942,35.899296],[-85.23611,35.899184],[-85.236259,35.899068],[-85.2364,35.898939],[-85.236526,35.898805],[-85.236674,35.898616],[-85.236831,35.898393],[-85.23697,35.898174],[-85.237096,35.897954],[-85.237005,35.897936],[-85.236908,35.897923],[-85.236412,35.897879],[-85.236291,35.897871],[-85.235971,35.897859],[-85.235679,35.897833],[-85.235619,35.89782],[-85.235563,35.8978],[-85.235513,35.897772],[-85.235469,35.897737],[-85.235424,35.897682],[-85.235395,35.897619],[-85.23537,35.897499],[-85.235364,35.897382],[-85.235376,35.897259],[-85.235505,35.896451],[-85.233795,35.896281],[-85.233706,35.896892]]],[[[-85.235481,35.897241],[-85.235466,35.897374],[-85.235466,35.897437],[-85.235472,35.8975],[-85.235483,35.897559],[-85.235499,35.897615],[-85.235518,35.89765],[-85.235544,35.897681],[-85.235571,35.897704],[-85.235601,35.897722],[-85.235636,35.897737],[-85.235673,35.897748],[-85.235829,35.897765],[-85.236026,35.897779],[-85.236077,35.897279],[-85.235485,35.897217],[-85.235481,35.897241]]]]}},{"type":"Feature","id":"47185:093073    02100","properties":{"id":"47185:093073    02100","parcelId":"093073    02100","countyFips":"47185","countyName":"White","state":"Tennessee","marketIds":["Nashville"],"situsAddress":"EASTLAND CEMETERY RD 619","situsCity":null,"situsZip":null,"jurisdictionCode":null,"ownerName":"LEWIS JAMES TIMOTHY &","ownerName2":"TERESA","propertyName":null,"zoningCode":null,"zoningDistrict":null,"jurisdictionPrefix":null,"dorCode":null,"acreage":19.8554,"centroid":[-85.232986,35.889304],"lastSale":{"date":"1990-09-21","price":25800.0,"qualified":null,"vintage":"2023"},"tax":{"marketValue":109800.0,"assessedValue":null,"taxableValue":null,"taxes":null,"vintage":"2023"},"mailingAddress":{"line1":null,"line2":null,"city":null,"state":null,"zip":null},"incomeTract":null,"incomeBlockGroup":null,"nearestRoad":null,"flu":null,"opportunityZone":null,"oz2Eligibility":null,"source":"tn-oir-public-use-47185","appraiserUrl":"https://assessment.cot.tn.gov/TPAD/Parcel/GIS?gislink=093073%20%20%20%2002100"},"geometry":{"type":"Polygon","coordinates":[[[-85.232457,35.889152],[-85.232466,35.889212],[-85.232462,35.889272],[-85.232445,35.88933],[-85.232415,35.889385],[-85.232385,35.889423],[-85.232122,35.889697],[-85.232079,35.889737],[-85.232034,35.88977],[-85.231845,35.891645],[-85.233769,35.891718],[-85.234807,35.89158],[-85.23508,35.888872],[-85.234668,35.888934],[-85.234536,35.888949],[-85.234343,35.888959],[-85.234149,35.888954],[-85.23401,35.888942],[-85.233165,35.888841],[-85.233041,35.888821],[-85.232909,35.888794],[-85.232646,35.888725],[-85.232606,35.88872],[-85.23257,35.888722],[-85.232509,35.888736],[-85.232457,35.888764],[-85.232418,35.888804],[-85.232395,35.888852],[-85.23239,35.888884],[-85.232393,35.888916],[-85.232457,35.889152]]]}},{"type":"Feature","id":"47185:093072    00800","properties":{"id":"47185:093072    00800","parcelId":"093072    00800","countyFips":"47185","countyName":"White","state":"Tennessee","marketIds":["Nashville"],"situsAddress":"LOCKWOOD MYERS RD","situsCity":null,"situsZip":null,"jurisdictionCode":null,"ownerName":"LELLI MAYRA L","ownerName2":null,"propertyName":null,"zoningCode":null,"zoningDistrict":null,"jurisdictionPrefix":null,"dorCode":null,"acreage":18.8175,"centroid":[-85.244305,35.884091],"lastSale":{"date":"2015-08-28","price":140000.0,"qualified":null,"vintage":"2023"},"tax":{"marketValue":87800.0,"assessedValue":null,"taxableValue":null,"taxes":null,"vintage":"2023"},"mailingAddress":{"line1":null,"line2":null,"city":null,"state":null,"zip":null},"incomeTract":null,"incomeBlockGroup":null,"nearestRoad":null,"flu":null,"opportunityZone":null,"oz2Eligibility":null,"source":"tn-oir-public-use-47185","appraiserUrl":"https://assessment.cot.tn.gov/TPAD/Parcel/GIS?gislink=093072%20%20%20%2000800"},"geometry":{"type":"Polygon","coordinates":[[[-85.242938,35.885095],[-85.243507,35.885066],[-85.243699,35.885051],[-85.243903,35.885031],[-85.244044,35.88501],[-85.244442,35.884938],[-85.244503,35.884921],[-85.244559,35.884897],[-85.244613,35.884967],[-85.245494,35.88504],[-85.245401,35.884101],[-85.245407,35.883967],[-85.244439,35.883939],[-85.24446,35.882714],[-85.245441,35.882727],[-85.245482,35.881221],[-85.243355,35.881183],[-85.243137,35.88299],[-85.242963,35.884862],[-85.242938,35.885095]]]}},{"type":"Feature","id":"47185:093072    00700","properties":{"id":"47185:093072    00700","parcelId":"093072    00700","countyFips":"47185","countyName":"White","state":"Tennessee","marketIds":["Nashville"],"situsAddress":"LOCKWOOD MYERS RD 482","situsCity":null,"situsZip":null,"jurisdictionCode":null,"ownerName":"LAMOREAUX LANE","ownerName2":null,"propertyName":null,"zoningCode":null,"zoningDistrict":null,"jurisdictionPrefix":null,"dorCode":null,"acreage":18.2961,"centroid":[-85.244585,35.885955],"lastSale":{"date":"1981-12-09","price":null,"qualified":null,"vintage":"2023"},"tax":{"marketValue":20600.0,"assessedValue":null,"taxableValue":null,"taxes":null,"vintage":"2023"},"mailingAddress":{"line1":null,"line2":null,"city":null,"state":null,"zip":null},"incomeTract":null,"incomeBlockGroup":null,"nearestRoad":null,"flu":null,"opportunityZone":null,"oz2Eligibility":null,"source":"tn-oir-public-use-47185","appraiserUrl":"https://assessment.cot.tn.gov/TPAD/Parcel/GIS?gislink=093072%20%20%20%2000700"},"geometry":{"type":"Polygon","coordinates":[[[-85.244082,35.885088],[-85.243922,35.885112],[-85.243798,35.885898],[-85.243662,35.886531],[-85.242244,35.887471],[-85.243304,35.888464],[-85.244388,35.887652],[-85.246471,35.886139],[-85.246714,35.885957],[-85.246446,35.885035],[-85.245514,35.885041],[-85.244613,35.884967],[-85.244547,35.884996],[-85.244482,35.885014],[-85.244082,35.885088]]]}},{"type":"Feature","id":"47185:093073    02600","properties":{"id":"47185:093073    02600","parcelId":"093073    02600","countyFips":"47185","countyName":"White","state":"Tennessee","marketIds":["Nashville"],"situsAddress":"EASTLAND RD 8646","situsCity":null,"situsZip":null,"jurisdictionCode":null,"ownerName":"GARRETT HANNAH AND SAMUEL GARRETT","ownerName2":null,"propertyName":null,"zoningCode":null,"zoningDistrict":null,"jurisdictionPrefix":null,"dorCode":null,"acreage":18.0927,"centroid":[-85.24291,35.889708],"lastSale":{"date":"2006-04-22","price":32000.0,"qualified":null,"vintage":"2023"},"tax":{"marketValue":60700.0,"assessedValue":null,"taxableValue":null,"taxes":null,"vintage":"2023"},"mailingAddress":{"line1":null,"line2":null,"city":null,"state":null,"zip":null},"incomeTract":null,"incomeBlockGroup":null,"nearestRoad":null,"flu":null,"opportunityZone":null,"oz2Eligibility":null,"source":"tn-oir-public-use-47185","appraiserUrl":"https://assessment.cot.tn.gov/TPAD/Parcel/GIS?gislink=093073%20%20%20%2002600"},"geometry":{"type":"Polygon","coordinates":[[[-85.239817,35.88908],[-85.241725,35.890965],[-85.24274,35.890263],[-85.242834,35.890201],[-85.242952,35.890132],[-85.243083,35.890064],[-85.243206,35.890008],[-85.24334,35.889956],[-85.243347,35.889916],[-85.243361,35.889877],[-85.243381,35.889841],[-85.243408,35.889807],[-85.243448,35.889771],[-85.243645,35.889627],[-85.243243,35.889218],[-85.243703,35.888837],[-85.242244,35.887471],[-85.239817,35.88908]]]}},{"type":"Feature","id":"47185:093073    02300","properties":{"id":"47185:093073    02300","parcelId":"093073    02300","countyFips":"47185","countyName":"White","state":"Tennessee","marketIds":["Nashville"],"situsAddress":"EASTLAND RD 8692","situsCity":null,"situsZip":null,"jurisdictionCode":null,"ownerName":"THOMAS STEVEN ETAL","ownerName2":null,"propertyName":null,"zoningCode":null,"zoningDistrict":null,"jurisdictionPrefix":null,"dorCode":null,"acreage":15.8554,"centroid":[-85.239114,35.891318],"lastSale":{"date":"2022-10-13","price":null,"qualified":null,"vintage":"2023"},"tax":{"marketValue":38800.0,"assessedValue":null,"taxableValue":null,"taxes":null,"vintage":"2023"},"mailingAddress":{"line1":null,"line2":null,"city":null,"state":null,"zip":null},"incomeTract":null,"incomeBlockGroup":null,"nearestRoad":null,"flu":null,"opportunityZone":null,"oz2Eligibility":null,"source":"tn-oir-public-use-47185","appraiserUrl":"https://assessment.cot.tn.gov/TPAD/Parcel/GIS?gislink=093073%20%20%20%2002300"},"geometry":{"type":"Polygon","coordinates":[[[-85.238635,35.889863],[-85.238566,35.890441],[-85.238561,35.890595],[-85.238577,35.890746],[-85.238689,35.891328],[-85.238723,35.891476],[-85.238762,35.891621],[-85.238808,35.89177],[-85.238859,35.891912],[-85.238939,35.892105],[-85.239223,35.892729],[-85.239346,35.89262],[-85.239481,35.892516],[-85.241725,35.890965],[-85.239817,35.88908],[-85.238635,35.889863]]]}},{"type":"Feature","id":"47185:093073    02201","properties":{"id":"47185:093073    02201","parcelId":"093073    02201","countyFips":"47185","countyName":"White","state":"Tennessee","marketIds":["Nashville"],"situsAddress":"EASTLAND CEMETERY RD","situsCity":null,"situsZip":null,"jurisdictionCode":null,"ownerName":"SIMMONS KIMBERLY STONE","ownerName2":null,"propertyName":null,"zoningCode":null,"zoningDistrict":null,"jurisdictionPrefix":null,"dorCode":null,"acreage":15.3611,"centroid":[-85.236966,35.889818],"lastSale":{"date":"2000-08-15","price":9500.0,"qualified":null,"vintage":"2023"},"tax":{"marketValue":34700.0,"assessedValue":null,"taxableValue":null,"taxes":null,"vintage":"2023"},"mailingAddress":{"line1":null,"line2":null,"city":null,"state":null,"zip":null},"incomeTract":null,"incomeBlockGroup":null,"nearestRoad":null,"flu":null,"opportunityZone":null,"oz2Eligibility":null,"source":"tn-oir-public-use-47185","appraiserUrl":"https://assessment.cot.tn.gov/TPAD/Parcel/GIS?gislink=093073%20%20%20%2002201"},"geometry":{"type":"Polygon","coordinates":[[[-85.23508,35.888872],[-85.234846,35.891194],[-85.235293,35.890937],[-85.237646,35.891075],[-85.237596,35.89058],[-85.23846,35.890602],[-85.23846,35.890503],[-85.238469,35.890401],[-85.237937,35.89008],[-85.238545,35.889767],[-85.237084,35.889514],[-85.237162,35.888641],[-85.23688,35.888661],[-85.236607,35.888685],[-85.235886,35.888763],[-85.235513,35.888809],[-85.23508,35.888872]]]}},{"type":"Feature","id":"47185:093073    01100","properties":{"id":"47185:093073    01100","parcelId":"093073    01100","countyFips":"47185","countyName":"White","state":"Tennessee","marketIds":["Nashville"],"situsAddress":"WELCH RD 345","situsCity":null,"situsZip":null,"jurisdictionCode":null,"ownerName":"KIRBY DYLAN R","ownerName2":null,"propertyName":null,"zoningCode":null,"zoningDistrict":null,"jurisdictionPrefix":null,"dorCode":null,"acreage":13.4865,"centroid":[-85.241444,35.898166],"lastSale":{"date":"2020-05-11","price":null,"qualified":null,"vintage":"2023"},"tax":{"marketValue":50300.0,"assessedValue":null,"taxableValue":null,"taxes":null,"vintage":"2023"},"mailingAddress":{"line1":null,"line2":null,"city":null,"state":null,"zip":null},"incomeTract":null,"incomeBlockGroup":null,"nearestRoad":null,"flu":null,"opportunityZone":null,"oz2Eligibility":null,"source":"tn-oir-public-use-47185","appraiserUrl":"https://assessment.cot.tn.gov/TPAD/Parcel/GIS?gislink=093073%20%20%20%2001100"},"geometry":{"type":"Polygon","coordinates":[[[-85.241236,35.898432],[-85.241822,35.89815],[-85.242172,35.898697],[-85.24323,35.898079],[-85.244516,35.893046],[-85.243731,35.892947],[-85.242709,35.896569],[-85.243143,35.896936],[-85.242108,35.897668],[-85.241789,35.89743],[-85.241067,35.897953],[-85.240999,35.898166],[-85.241092,35.898256],[-85.241236,35.898432]]]}},{"type":"Feature","id":"47185:093073    00500","properties":{"id":"47185:093073    00500","parcelId":"093073    00500","countyFips":"47185","countyName":"White","state":"Tennessee","marketIds":["Nashville"],"situsAddress":"CLIFTY RD 125","situsCity":null,"situsZip":null,"jurisdictionCode":null,"ownerName":"STEPHENS PATRICK ETUX ANGELA STEPHENS","ownerName2":null,"propertyName":null,"zoningCode":null,"zoningDistrict":null,"jurisdictionPrefix":null,"dorCode":null,"acreage":13.4001,"centroid":[-85.218893,35.900571],"lastSale":{"date":"2002-04-29","price":25000.0,"qualified":null,"vintage":"2023"},"tax":{"marketValue":66700.0,"assessedValue":null,"taxableValue":null,"taxes":null,"vintage":"2023"},"mailingAddress":{"line1":null,"line2":null,"city":null,"state":null,"zip":null},"incomeTract":null,"incomeBlockGroup":null,"nearestRoad":null,"flu":null,"opportunityZone":null,"oz2Eligibility":null,"source":"tn-oir-public-use-47185","appraiserUrl":"https://assessment.cot.tn.gov/TPAD/Parcel/GIS?gislink=093073%20%20%20%2000500"},"geometry":{"type":"Polygon","coordinates":[[[-85.218492,35.901617],[-85.218813,35.901649],[-85.219717,35.901934],[-85.219858,35.901628],[-85.219902,35.901507],[-85.219939,35.901381],[-85.220104,35.900661],[-85.220185,35.90026],[-85.220204,35.900147],[-85.220198,35.900113],[-85.220181,35.900085],[-85.22016,35.900065],[-85.220137,35.900051],[-85.220108,35.90004],[-85.22008,35.900035],[-85.219897,35.900027],[-85.218729,35.899952],[-85.2186,35.899937],[-85.21847,35.899909],[-85.218416,35.899892],[-85.218372,35.899874],[-85.218331,35.89985],[-85.218295,35.899822],[-85.218264,35.899791],[-85.218238,35.899757],[-85.216867,35.899669],[-85.21681,35.901064],[-85.216965,35.901161],[-85.217318,35.901234],[-85.217543,35.901355],[-85.217972,35.901427],[-85.218147,35.901505],[-85.218171,35.901429],[-85.218492,35.901617]]]}},{"type":"Feature","id":"47185:093073    02401","properties":{"id":"47185:093073    02401","parcelId":"093073    02401","countyFips":"47185","countyName":"White","state":"Tennessee","marketIds":["Nashville"],"situsAddress":"EASTLAND RD 8689","situsCity":null,"situsZip":null,"jurisdictionCode":null,"ownerName":"CLOUSE QUINTINA M","ownerName2":null,"propertyName":null,"zoningCode":null,"zoningDistrict":null,"jurisdictionPrefix":null,"dorCode":null,"acreage":12.7107,"centroid":[-85.243864,35.891567],"lastSale":{"date":"2022-12-09","price":114000.0,"qualified":null,"vintage":"2023"},"tax":{"marketValue":101300.0,"assessedValue":null,"taxableValue":null,"taxes":null,"vintage":"2023"},"mailingAddress":{"line1":null,"line2":null,"city":null,"state":null,"zip":null},"incomeTract":null,"incomeBlockGroup":null,"nearestRoad":null,"flu":null,"opportunityZone":null,"oz2Eligibility":null,"source":"tn-oir-public-use-47185","appraiserUrl":"https://assessment.cot.tn.gov/TPAD/Parcel/GIS?gislink=093073%20%20%20%2002401"},"geometry":{"type":"Polygon","coordinates":[[[-85.24306,35.890172],[-85.242937,35.890242],[-85.242826,35.890312],[-85.24182,35.891007],[-85.243731,35.892947],[-85.244516,35.893046],[-85.244805,35.892947],[-85.245773,35.892016],[-85.244997,35.891291],[-85.244179,35.891691],[-85.24306,35.890172]]]}},{"type":"Feature","id":"47185:093054    00200","properties":{"id":"47185:093054    00200","parcelId":"093054    00200","countyFips":"47185","countyName":"White","state":"Tennessee","marketIds":["Nashville"],"situsAddress":"EASTLAND RD","situsCity":null,"situsZip":null,"jurisdictionCode":null,"ownerName":"CHRISTOPHER CHARLES H &","ownerName2":"CLASSIE D","propertyName":null,"zoningCode":null,"zoningDistrict":null,"jurisdictionPrefix":null,"dorCode":null,"acreage":12.0059,"centroid":[-85.214537,35.909582],"lastSale":{"date":"1994-07-26","price":15000.0,"qualified":null,"vintage":"2023"},"tax":{"marketValue":41400.0,"assessedValue":null,"taxableValue":null,"taxes":null,"vintage":"2023"},"mailingAddress":{"line1":null,"line2":null,"city":null,"state":null,"zip":null},"incomeTract":null,"incomeBlockGroup":null,"nearestRoad":null,"flu":null,"opportunityZone":null,"oz2Eligibility":null,"source":"tn-oir-public-use-47185","appraiserUrl":"https://assessment.cot.tn.gov/TPAD/Parcel/GIS?gislink=093054%20%20%20%2000200"},"geometry":{"type":"Polygon","coordinates":[[[-85.213805,35.910042],[-85.214294,35.910298],[-85.21451,35.91039],[-85.214686,35.910452],[-85.214881,35.910487],[-85.21511,35.910537],[-85.215304,35.910588],[-85.215507,35.910653],[-85.215662,35.910668],[-85.215709,35.91045],[-85.215747,35.910246],[-85.21578,35.910039],[-85.215809,35.909821],[-85.215832,35.909596],[-85.215947,35.908266],[-85.214184,35.908029],[-85.213851,35.908305],[-85.213884,35.908344],[-85.213739,35.908565],[-85.213654,35.908658],[-85.213415,35.908719],[-85.213282,35.908919],[-85.213351,35.909245],[-85.213505,35.909272],[-85.213598,35.909333],[-85.213854,35.909372],[-85.214085,35.909481],[-85.214063,35.909519],[-85.213805,35.910042]]]}},{"type":"Feature","id":"47185:093073    00400","properties":{"id":"47185:093073    00400","parcelId":"093073    00400","countyFips":"47185","countyName":"White","state":"Tennessee","marketIds":["Nashville"],"situsAddress":"TODDTOWN RD 131","situsCity":null,"situsZip":null,"jurisdictionCode":null,"ownerName":"FERRELL OLIVER","ownerName2":null,"propertyName":null,"zoningCode":null,"zoningDistrict":null,"jurisdictionPrefix":null,"dorCode":null,"acreage":11.3995,"centroid":[-85.220704,35.900673],"lastSale":{"date":"1996-05-02","price":42500.0,"qualified":null,"vintage":"2023"},"tax":{"marketValue":95400.0,"assessedValue":null,"taxableValue":null,"taxes":null,"vintage":"2023"},"mailingAddress":{"line1":null,"line2":null,"city":null,"state":null,"zip":null},"incomeTract":null,"incomeBlockGroup":null,"nearestRoad":null,"flu":null,"opportunityZone":null,"oz2Eligibility":null,"source":"tn-oir-public-use-47185","appraiserUrl":"https://assessment.cot.tn.gov/TPAD/Parcel/GIS?gislink=093073%20%20%20%2000400"},"geometry":{"type":"Polygon","coordinates":[[[-85.220278,35.900056],[-85.220294,35.900088],[-85.220304,35.900124],[-85.220305,35.900158],[-85.2203,35.900195],[-85.220208,35.900657],[-85.220031,35.901423],[-85.219988,35.901563],[-85.21994,35.901688],[-85.219722,35.902153],[-85.220218,35.902058],[-85.220787,35.90194],[-85.221035,35.901897],[-85.221242,35.901868],[-85.221457,35.901845],[-85.221666,35.90183],[-85.221879,35.901821],[-85.222005,35.901061],[-85.222204,35.899745],[-85.222239,35.899544],[-85.220531,35.8994],[-85.220518,35.899483],[-85.22051,35.899575],[-85.220515,35.899776],[-85.22051,35.899813],[-85.220497,35.899854],[-85.220464,35.899918],[-85.220416,35.899973],[-85.220354,35.90002],[-85.220278,35.900056]]]}},{"type":"Feature","id":"47185:093073    01701","properties":{"id":"47185:093073    01701","parcelId":"093073    01701","countyFips":"47185","countyName":"White","state":"Tennessee","marketIds":["Nashville"],"situsAddress":"WEST LOOP RD 730","situsCity":null,"situsZip":null,"jurisdictionCode":null,"ownerName":"FERRELL JAMES D SR & JEAN","ownerName2":"%JAMES FERRELL JR & AMANDA","propertyName":null,"zoningCode":null,"zoningDistrict":null,"jurisdictionPrefix":null,"dorCode":null,"acreage":10.2599,"centroid":[-85.226442,35.893901],"lastSale":{"date":"2002-05-28","price":24200.0,"qualified":null,"vintage":"2023"},"tax":{"marketValue":103400.0,"assessedValue":null,"taxableValue":null,"taxes":null,"vintage":"2023"},"mailingAddress":{"line1":null,"line2":null,"city":null,"state":null,"zip":null},"incomeTract":null,"incomeBlockGroup":null,"nearestRoad":null,"flu":null,"opportunityZone":null,"oz2Eligibility":null,"source":"tn-oir-public-use-47185","appraiserUrl":"https://assessment.cot.tn.gov/TPAD/Parcel/GIS?gislink=093073%20%20%20%2001701"},"geometry":{"type":"Polygon","coordinates":[[[-85.225662,35.89434],[-85.225668,35.894396],[-85.227451,35.894472],[-85.227473,35.894121],[-85.227911,35.894139],[-85.227981,35.892824],[-85.225019,35.892851],[-85.225191,35.893988],[-85.225622,35.893974],[-85.225662,35.89434]]]}},{"type":"Feature","id":"47185:093073    01401","properties":{"id":"47185:093073    01401","parcelId":"093073    01401","countyFips":"47185","countyName":"White","state":"Tennessee","marketIds":["Nashville"],"situsAddress":"EASTLAND RD 8944","situsCity":null,"situsZip":null,"jurisdictionCode":null,"ownerName":"TUCKER HERSCHEL R","ownerName2":null,"propertyName":null,"zoningCode":null,"zoningDistrict":null,"jurisdictionPrefix":null,"dorCode":null,"acreage":9.7567,"centroid":[-85.23816,35.893466],"lastSale":{"date":"1992-09-08","price":1.0,"qualified":null,"vintage":"2023"},"tax":{"marketValue":93700.0,"assessedValue":null,"taxableValue":null,"taxes":null,"vintage":"2023"},"mailingAddress":{"line1":null,"line2":null,"city":null,"state":null,"zip":null},"incomeTract":null,"incomeBlockGroup":null,"nearestRoad":null,"flu":null,"opportunityZone":null,"oz2Eligibility":null,"source":"tn-oir-public-use-47185","appraiserUrl":"https://assessment.cot.tn.gov/TPAD/Parcel/GIS?gislink=093073%20%20%20%2001401"},"geometry":{"type":"Polygon","coordinates":[[[-85.237099,35.892161],[-85.236423,35.894],[-85.236739,35.894201],[-85.237315,35.894337],[-85.23835,35.894835],[-85.238755,35.893448],[-85.238801,35.893329],[-85.238856,35.893215],[-85.238921,35.893101],[-85.238989,35.892999],[-85.238874,35.893025],[-85.238801,35.892937],[-85.237099,35.892161]]]}},{"type":"Feature","id":"47185:093073    00708","properties":{"id":"47185:093073    00708","parcelId":"093073    00708","countyFips":"47185","countyName":"White","state":"Tennessee","marketIds":["Nashville"],"situsAddress":"EASTLAND RD 9622","situsCity":null,"situsZip":null,"jurisdictionCode":null,"ownerName":"BLAYLOCK JAMES M &","ownerName2":"KAREN F","propertyName":null,"zoningCode":null,"zoningDistrict":null,"jurisdictionPrefix":null,"dorCode":null,"acreage":7.9969,"centroid":[-85.232663,35.898131],"lastSale":{"date":"1976-07-06","price":null,"qualified":null,"vintage":"2023"},"tax":{"marketValue":110800.0,"assessedValue":null,"taxableValue":null,"taxes":null,"vintage":"2023"},"mailingAddress":{"line1":null,"line2":null,"city":null,"state":null,"zip":null},"incomeTract":null,"incomeBlockGroup":null,"nearestRoad":null,"flu":null,"opportunityZone":null,"oz2Eligibility":null,"source":"tn-oir-public-use-47185","appraiserUrl":"https://assessment.cot.tn.gov/TPAD/Parcel/GIS?gislink=093073%20%20%20%2000708"},"geometry":{"type":"Polygon","coordinates":[[[-85.232111,35.898639],[-85.231968,35.899142],[-85.233312,35.899574],[-85.233706,35.896892],[-85.232513,35.896781],[-85.232369,35.89776],[-85.232111,35.898639]]]}},{"type":"Feature","id":"47185:093114    00300","properties":{"id":"47185:093114    00300","parcelId":"093114    00300","countyFips":"47185","countyName":"White","state":"Tennessee","marketIds":["Nashville"],"situsAddress":"SCOTTS GULF RD","situsCity":null,"situsZip":null,"jurisdictionCode":null,"ownerName":"WINSTEAD HERBERT & NANCY","ownerName2":null,"propertyName":null,"zoningCode":null,"zoningDistrict":null,"jurisdictionPrefix":null,"dorCode":null,"acreage":7.3898,"centroid":[-85.248489,35.802143],"lastSale":{"date":"1981-02-02","price":null,"qualified":null,"vintage":"2023"},"tax":{"marketValue":15500.0,"assessedValue":null,"taxableValue":null,"taxes":null,"vintage":"2023"},"mailingAddress":{"line1":null,"line2":null,"city":null,"state":null,"zip":null},"incomeTract":null,"incomeBlockGroup":null,"nearestRoad":null,"flu":null,"opportunityZone":null,"oz2Eligibility":null,"source":"tn-oir-public-use-47185","appraiserUrl":"https://assessment.cot.tn.gov/TPAD/Parcel/GIS?gislink=093114%20%20%20%2000300"},"geometry":{"type":"Polygon","coordinates":[[[-85.24863,35.798438],[-85.248072,35.79843],[-85.247939,35.802275],[-85.248832,35.802281],[-85.248447,35.809848],[-85.249031,35.802099],[-85.248473,35.801632],[-85.24863,35.798438]]]}},{"type":"Feature","id":"47185:093073    00303","properties":{"id":"47185:093073    00303","parcelId":"093073    00303","countyFips":"47185","countyName":"White","state":"Tennessee","marketIds":["Nashville"],"situsAddress":"EASTLAND RD 10069","situsCity":null,"situsZip":null,"jurisdictionCode":null,"ownerName":"GRIZZLE NOEL R & TATYANA A","ownerName2":null,"propertyName":null,"zoningCode":null,"zoningDistrict":null,"jurisdictionPrefix":null,"dorCode":null,"acreage":7.1741,"centroid":[-85.225396,35.902546],"lastSale":{"date":"2013-10-11","price":225000.0,"qualified":null,"vintage":"2023"},"tax":{"marketValue":284700.0,"assessedValue":null,"taxableValue":null,"taxes":null,"vintage":"2023"},"mailingAddress":{"line1":null,"line2":null,"city":null,"state":null,"zip":null},"incomeTract":null,"incomeBlockGroup":null,"nearestRoad":null,"flu":null,"opportunityZone":null,"oz2Eligibility":null,"source":"tn-oir-public-use-47185","appraiserUrl":"https://assessment.cot.tn.gov/TPAD/Parcel/GIS?gislink=093073%20%20%20%2000303"},"geometry":{"type":"Polygon","coordinates":[[[-85.224714,35.902158],[-85.224713,35.904355],[-85.22567,35.90459],[-85.226145,35.902514],[-85.22598,35.902042],[-85.225838,35.902071],[-85.225682,35.902097],[-85.225521,35.90212],[-85.225363,35.902136],[-85.225204,35.902149],[-85.225042,35.902157],[-85.224879,35.90216],[-85.224714,35.902158]]]}},{"type":"Feature","id":"47185:093073    00707","properties":{"id":"47185:093073    00707","parcelId":"093073    00707","countyFips":"47185","countyName":"White","state":"Tennessee","marketIds":["Nashville"],"situsAddress":"TREBLE LN 132","situsCity":null,"situsZip":null,"jurisdictionCode":null,"ownerName":"BRADDOM TERRI L","ownerName2":null,"propertyName":null,"zoningCode":null,"zoningDistrict":null,"jurisdictionPrefix":null,"dorCode":null,"acreage":6.5079,"centroid":[-85.230653,35.896625],"lastSale":{"date":"2014-05-05","price":20000.0,"qualified":null,"vintage":"2023"},"tax":{"marketValue":19200.0,"assessedValue":null,"taxableValue":null,"taxes":null,"vintage":"2023"},"mailingAddress":{"line1":null,"line2":null,"city":null,"state":null,"zip":null},"incomeTract":null,"incomeBlockGroup":null,"nearestRoad":null,"flu":null,"opportunityZone":null,"oz2Eligibility":null,"source":"tn-oir-public-use-47185","appraiserUrl":"https://assessment.cot.tn.gov/TPAD/Parcel/GIS?gislink=093073%20%20%20%2000707"},"geometry":{"type":"Polygon","coordinates":[[[-85.23028,35.897312],[-85.230432,35.897358],[-85.230475,35.897374],[-85.231509,35.897393],[-85.231526,35.896667],[-85.231454,35.896656],[-85.23153,35.896021],[-85.231182,35.89597],[-85.231055,35.895945],[-85.230881,35.895896],[-85.230728,35.895836],[-85.230615,35.895781],[-85.230498,35.895713],[-85.229903,35.895307],[-85.229847,35.897344],[-85.230055,35.897351],[-85.230067,35.897337],[-85.230121,35.897303],[-85.230246,35.897302],[-85.23028,35.897312]]]}},{"type":"Feature","id":"47185:093073    02400","properties":{"id":"47185:093073    02400","parcelId":"093073    02400","countyFips":"47185","countyName":"White","state":"Tennessee","marketIds":["Nashville"],"situsAddress":"EASTLAND RD","situsCity":null,"situsZip":null,"jurisdictionCode":null,"ownerName":"BROWN WILLIAM E & MARY","ownerName2":null,"propertyName":null,"zoningCode":null,"zoningDistrict":null,"jurisdictionPrefix":null,"dorCode":null,"acreage":6.4196,"centroid":[-85.242039,35.892496],"lastSale":{"date":"1995-02-01","price":1.0,"qualified":null,"vintage":"2023"},"tax":{"marketValue":25900.0,"assessedValue":null,"taxableValue":null,"taxes":null,"vintage":"2023"},"mailingAddress":{"line1":null,"line2":null,"city":null,"state":null,"zip":null},"incomeTract":null,"incomeBlockGroup":null,"nearestRoad":null,"flu":null,"opportunityZone":null,"oz2Eligibility":null,"source":"tn-oir-public-use-47185","appraiserUrl":"https://assessment.cot.tn.gov/TPAD/Parcel/GIS?gislink=093073%20%20%20%2002400"},"geometry":{"type":"Polygon","coordinates":[[[-85.241045,35.892442],[-85.241539,35.89295],[-85.24156,35.89292],[-85.241924,35.892789],[-85.242142,35.89285],[-85.242532,35.89282],[-85.242757,35.892789],[-85.242926,35.892746],[-85.243731,35.892947],[-85.24182,35.891007],[-85.240986,35.891584],[-85.241509,35.892103],[-85.241045,35.892442]]]}},{"type":"Feature","id":"47185:093073    02103","properties":{"id":"47185:093073    02103","parcelId":"093073    02103","countyFips":"47185","countyName":"White","state":"Tennessee","marketIds":["Nashville"],"situsAddress":"EASTLAND CEMETERY RD","situsCity":null,"situsZip":null,"jurisdictionCode":null,"ownerName":"LEWIS WILLIAM NELSON","ownerName2":null,"propertyName":null,"zoningCode":null,"zoningDistrict":null,"jurisdictionPrefix":null,"dorCode":null,"acreage":5.7134,"centroid":[-85.231729,35.890201],"lastSale":{"date":"2003-04-01","price":null,"qualified":null,"vintage":"2023"},"tax":{"marketValue":20600.0,"assessedValue":null,"taxableValue":null,"taxes":null,"vintage":"2023"},"mailingAddress":{"line1":null,"line2":null,"city":null,"state":null,"zip":null},"incomeTract":null,"incomeBlockGroup":null,"nearestRoad":null,"flu":null,"opportunityZone":null,"oz2Eligibility":null,"source":"tn-oir-public-use-47185","appraiserUrl":"https://assessment.cot.tn.gov/TPAD/Parcel/GIS?gislink=093073%20%20%20%2002103"},"geometry":{"type":"MultiPolygon","coordinates":[[[[-85.232028,35.889774],[-85.231964,35.889812],[-85.231893,35.889844],[-85.231817,35.889869],[-85.231738,35.889886],[-85.231631,35.889897],[-85.231256,35.8899],[-85.231083,35.891616],[-85.231845,35.891645],[-85.232034,35.88977],[-85.232028,35.889774]]],[[[-85.231264,35.889818],[-85.23163,35.889814],[-85.231689,35.88981],[-85.231751,35.889799],[-85.231836,35.889775],[-85.231911,35.889742],[-85.23198,35.889699],[-85.23204,35.889649],[-85.232309,35.889368],[-85.232337,35.889328],[-85.232356,35.889285],[-85.232365,35.889237],[-85.232362,35.889188],[-85.232295,35.88894],[-85.232289,35.888906],[-85.232293,35.888848],[-85.232313,35.88879],[-85.231377,35.8887],[-85.231264,35.889818]]]]}},{"type":"Feature","id":"47185:093072    00600","properties":{"id":"47185:093072    00600","parcelId":"093072    00600","countyFips":"47185","countyName":"White","state":"Tennessee","marketIds":["Nashville"],"situsAddress":"J W FARRIS DR 345","situsCity":null,"situsZip":null,"jurisdictionCode":null,"ownerName":"DEAN AMANDA","ownerName2":null,"propertyName":null,"zoningCode":null,"zoningDistrict":null,"jurisdictionPrefix":null,"dorCode":null,"acreage":5.3685,"centroid":[-85.246379,35.887526],"lastSale":{"date":"2022-05-13","price":160000.0,"qualified":null,"vintage":"2023"},"tax":{"marketValue":111700.0,"assessedValue":null,"taxableValue":null,"taxes":null,"vintage":"2023"},"mailingAddress":{"line1":null,"line2":null,"city":null,"state":null,"zip":null},"incomeTract":null,"incomeBlockGroup":null,"nearestRoad":null,"flu":null,"opportunityZone":null,"oz2Eligibility":null,"source":"tn-oir-public-use-47185","appraiserUrl":"https://assessment.cot.tn.gov/TPAD/Parcel/GIS?gislink=093072%20%20%20%2000600"},"geometry":{"type":"Polygon","coordinates":[[[-85.24599,35.888381],[-85.24694,35.888188],[-85.247053,35.888173],[-85.247169,35.888169],[-85.246644,35.886636],[-85.246139,35.887046],[-85.245943,35.886522],[-85.245154,35.887094],[-85.24599,35.888381]]]}},{"type":"Feature","id":"47185:093073    01000","properties":{"id":"47185:093073    01000","parcelId":"093073    01000","countyFips":"47185","countyName":"White","state":"Tennessee","marketIds":["Nashville"],"situsAddress":"WEST LOOP RD 427","situsCity":null,"situsZip":null,"jurisdictionCode":null,"ownerName":"WILSON SANDRA","ownerName2":null,"propertyName":null,"zoningCode":null,"zoningDistrict":null,"jurisdictionPrefix":null,"dorCode":null,"acreage":5.3561,"centroid":[-85.236504,35.897343],"lastSale":{"date":"1991-09-24","price":19900.0,"qualified":null,"vintage":"2023"},"tax":{"marketValue":116400.0,"assessedValue":null,"taxableValue":null,"taxes":null,"vintage":"2023"},"mailingAddress":{"line1":null,"line2":null,"city":null,"state":null,"zip":null},"incomeTract":null,"incomeBlockGroup":null,"nearestRoad":null,"flu":null,"opportunityZone":null,"oz2Eligibility":null,"source":"tn-oir-public-use-47185","appraiserUrl":"https://assessment.cot.tn.gov/TPAD/Parcel/GIS?gislink=093073%20%20%20%2001000"},"geometry":{"type":"Polygon","coordinates":[[[-85.235499,35.897129],[-85.235485,35.897217],[-85.236077,35.897279],[-85.236026,35.897779],[-85.236366,35.897793],[-85.236882,35.897837],[-85.237009,35.897853],[-85.237137,35.897878],[-85.237678,35.896876],[-85.237777,35.896676],[-85.235605,35.896461],[-85.235499,35.897129]]]}},{"type":"Feature","id":"47185:093073    02102","properties":{"id":"47185:093073    02102","parcelId":"093073    02102","countyFips":"47185","countyName":"White","state":"Tennessee","marketIds":["Nashville"],"situsAddress":"EASTLAND CEMETERY RD","situsCity":null,"situsZip":null,"jurisdictionCode":null,"ownerName":"LEWIS BETHEL KEITH","ownerName2":null,"propertyName":null,"zoningCode":null,"zoningDistrict":null,"jurisdictionPrefix":null,"dorCode":null,"acreage":5.2115,"centroid":[-85.23074,35.890582],"lastSale":{"date":"2011-11-30","price":null,"qualified":null,"vintage":"2023"},"tax":{"marketValue":29400.0,"assessedValue":null,"taxableValue":null,"taxes":null,"vintage":"2023"},"mailingAddress":{"line1":null,"line2":null,"city":null,"state":null,"zip":null},"incomeTract":null,"incomeBlockGroup":null,"nearestRoad":null,"flu":null,"opportunityZone":null,"oz2Eligibility":null,"source":"tn-oir-public-use-47185","appraiserUrl":"https://assessment.cot.tn.gov/TPAD/Parcel/GIS?gislink=093073%20%20%20%2002102"},"geometry":{"type":"MultiPolygon","coordinates":[[[[-85.230255,35.891585],[-85.231083,35.891616],[-85.231256,35.8899],[-85.23068,35.889906],[-85.230425,35.889902],[-85.230255,35.891585]]],[[[-85.23079,35.888681],[-85.230644,35.889823],[-85.231264,35.889818],[-85.231377,35.8887],[-85.230794,35.888644],[-85.23079,35.888681]]]]}}]}