{"type":"FeatureCollection","name":"37123-11_34","features":[{"type":"Feature","id":"37123:6653 00 49 3576","properties":{"id":"37123:6653 00 49 3576","parcelId":"6653 00 49 3576","countyFips":"37123","countyName":"Montgomery","state":"North Carolina","marketIds":["Charlotte"],"situsAddress":"TUCKERTOWN RD# R","situsCity":null,"situsZip":null,"jurisdictionCode":null,"ownerName":"UNITED STATES FOREST SERVICE","ownerName2":null,"propertyName":null,"zoningCode":null,"zoningDistrict":null,"jurisdictionPrefix":null,"dorCode":null,"acreage":77.38,"centroid":[-80.160902,35.502007],"lastSale":{"date":"1949-05-16","price":null,"qualified":"WD"},"tax":{"marketValue":null,"assessedValue":70802.0,"taxableValue":null,"taxes":null},"mailingAddress":{"line1":".","line2":null,"city":".","state":".","zip":"."},"incomeTract":null,"incomeBlockGroup":null,"nearestRoad":null,"flu":null,"opportunityZone":null,"oz2Eligibility":null,"source":"nc-montgomery-parcels-37123","appraiserUrl":"https://www.webgis.net/nc/montgomery/PropertyCard.php?pid=665300493576&card=0","gisViewerUrl":"https://www.webgis.net/nc/montgomery/"},"geometry":{"type":"Polygon","coordinates":[[[-80.157588,35.504107],[-80.165252,35.503956],[-80.164045,35.499513],[-80.156724,35.500452],[-80.157588,35.504107]]]}},{"type":"Feature","id":"37123:6663 05 09 6842","properties":{"id":"37123:6663 05 09 6842","parcelId":"6663 05 09 6842","countyFips":"37123","countyName":"Montgomery","state":"North Carolina","marketIds":["Charlotte"],"situsAddress":"222 JARRETT DR","situsCity":null,"situsZip":null,"jurisdictionCode":null,"ownerName":"JARRETT JEFFREY","ownerName2":"JARRETT RONIE JEAN","propertyName":null,"zoningCode":null,"zoningDistrict":null,"jurisdictionPrefix":null,"dorCode":null,"acreage":7.9,"centroid":[-80.139638,35.503139],"lastSale":{"date":"1977-01-01","price":null,"qualified":"UNK"},"tax":{"marketValue":null,"assessedValue":28630.0,"taxableValue":null,"taxes":null},"mailingAddress":{"line1":"222 JARRETT DR","line2":null,"city":"NEW LONDON","state":"NC","zip":"28127"},"incomeTract":null,"incomeBlockGroup":null,"nearestRoad":null,"flu":null,"opportunityZone":null,"oz2Eligibility":null,"source":"nc-montgomery-parcels-37123","appraiserUrl":"https://www.webgis.net/nc/montgomery/PropertyCard.php?pid=666305096842&card=0","gisViewerUrl":"https://www.webgis.net/nc/montgomery/"},"geometry":{"type":"Polygon","coordinates":[[[-80.138183,35.504219],[-80.138388,35.504225],[-80.138382,35.504402],[-80.142559,35.501324],[-80.142084,35.500893],[-80.138229,35.503772],[-80.138183,35.504219]]]}},{"type":"Feature","id":"37123:6663 05 19 6799","properties":{"id":"37123:6663 05 19 6799","parcelId":"6663 05 19 6799","countyFips":"37123","countyName":"Montgomery","state":"North Carolina","marketIds":["Charlotte"],"situsAddress":"2600 BLAINE RD","situsCity":null,"situsZip":null,"jurisdictionCode":null,"ownerName":"BADIN LAKE AUTO LLC","ownerName2":null,"propertyName":null,"zoningCode":null,"zoningDistrict":null,"jurisdictionPrefix":null,"dorCode":null,"acreage":10.89,"centroid":[-80.136988,35.502714],"lastSale":{"date":"2020-05-01","price":200000.0,"qualified":"WD"},"tax":{"marketValue":null,"assessedValue":200376.0,"taxableValue":null,"taxes":null},"mailingAddress":{"line1":"2600 BLAIN RD","line2":null,"city":"NEW LONDON","state":"NC","zip":"28127"},"incomeTract":null,"incomeBlockGroup":null,"nearestRoad":null,"flu":null,"opportunityZone":null,"oz2Eligibility":null,"source":"nc-montgomery-parcels-37123","appraiserUrl":"https://www.webgis.net/nc/montgomery/PropertyCard.php?pid=666305196799&card=0","gisViewerUrl":"https://www.webgis.net/nc/montgomery/"},"geometry":{"type":"Polygon","coordinates":[[[-80.135158,35.503855],[-80.138088,35.503173],[-80.138082,35.502958],[-80.137971,35.501911],[-80.135642,35.501673],[-80.135158,35.503855]]]}},{"type":"Feature","id":"37123:6663 07 59 3594","properties":{"id":"37123:6663 07 59 3594","parcelId":"6663 07 59 3594","countyFips":"37123","countyName":"Montgomery","state":"North Carolina","marketIds":["Charlotte"],"situsAddress":"174 LAKE FOREST DR","situsCity":null,"situsZip":null,"jurisdictionCode":null,"ownerName":"EARNHARDT ROY LEE","ownerName2":null,"propertyName":null,"zoningCode":null,"zoningDistrict":null,"jurisdictionPrefix":null,"dorCode":null,"acreage":6.41,"centroid":[-80.124158,35.502119],"lastSale":{"date":"1999-06-01","price":null,"qualified":"01"},"tax":{"marketValue":null,"assessedValue":36017.0,"taxableValue":null,"taxes":null},"mailingAddress":{"line1":"174 LAKE FOREST DR","line2":null,"city":"NEW LONDON","state":"NC","zip":"28127"},"incomeTract":null,"incomeBlockGroup":null,"nearestRoad":null,"flu":null,"opportunityZone":null,"oz2Eligibility":null,"source":"nc-montgomery-parcels-37123","appraiserUrl":"https://www.webgis.net/nc/montgomery/PropertyCard.php?pid=666307593594&card=0","gisViewerUrl":"https://www.webgis.net/nc/montgomery/"},"geometry":{"type":"Polygon","coordinates":[[[-80.1238,35.503057],[-80.125135,35.502099],[-80.124898,35.500711],[-80.122799,35.502608],[-80.1238,35.503057]]]}},{"type":"Feature","id":"37123:6663 07 69 0638","properties":{"id":"37123:6663 07 69 0638","parcelId":"6663 07 69 0638","countyFips":"37123","countyName":"Montgomery","state":"North Carolina","marketIds":["Charlotte"],"situsAddress":"247 LAKE FOREST DR","situsCity":null,"situsZip":null,"jurisdictionCode":null,"ownerName":"HOLLIS KAREN A","ownerName2":"HOLLIS BRICE WENDELL","propertyName":null,"zoningCode":null,"zoningDistrict":null,"jurisdictionPrefix":null,"dorCode":null,"acreage":11.68,"centroid":[-80.121329,35.502583],"lastSale":{"date":"2023-04-27","price":null,"qualified":"WD"},"tax":{"marketValue":null,"assessedValue":55516.0,"taxableValue":null,"taxes":null},"mailingAddress":{"line1":"247 LAKE FOREST DR","line2":null,"city":"NEW LONDON","state":"NC","zip":"28127"},"incomeTract":null,"incomeBlockGroup":null,"nearestRoad":null,"flu":null,"opportunityZone":null,"oz2Eligibility":null,"source":"nc-montgomery-parcels-37123","appraiserUrl":"https://www.webgis.net/nc/montgomery/PropertyCard.php?pid=666307690638&card=0","gisViewerUrl":"https://www.webgis.net/nc/montgomery/"},"geometry":{"type":"Polygon","coordinates":[[[-80.123269,35.504037],[-80.124103,35.503705],[-80.124334,35.503611],[-80.124306,35.503496],[-80.124219,35.503399],[-80.123794,35.503241],[-80.122673,35.502738],[-80.122363,35.502539],[-80.12189,35.50213],[-80.121672,35.501987],[-80.121505,35.501916],[-80.120525,35.501599],[-80.119591,35.50127],[-80.119475,35.501233],[-80.119431,35.501332],[-80.11944,35.501524],[-80.119256,35.501836],[-80.119094,35.501939],[-80.118994,35.501964],[-80.118913,35.502025],[-80.118958,35.502084],[-80.119159,35.502167],[-80.119571,35.502237],[-80.11984,35.502321],[-80.120119,35.50252],[-80.120504,35.502561],[-80.120704,35.502477],[-80.120903,35.502499],[-80.121236,35.502688],[-80.122162,35.503141],[-80.12262,35.503453],[-80.122833,35.503449],[-80.122898,35.50355],[-80.122992,35.503803],[-80.12317,35.503928],[-80.123269,35.504037]]]}},{"type":"Feature","id":"37123:6663 08 89 9840","properties":{"id":"37123:6663 08 89 9840","parcelId":"6663 08 89 9840","countyFips":"37123","countyName":"Montgomery","state":"North Carolina","marketIds":["Charlotte"],"situsAddress":"FIRST AV","situsCity":null,"situsZip":null,"jurisdictionCode":null,"ownerName":"HARTMAN C E","ownerName2":"C/O JERRY D HARTMAN JR","propertyName":null,"zoningCode":null,"zoningDistrict":null,"jurisdictionPrefix":null,"dorCode":null,"acreage":34.34,"centroid":[-80.111648,35.502104],"lastSale":{"date":"1968-10-07","price":null,"qualified":"UNK"},"tax":{"marketValue":null,"assessedValue":30906.0,"taxableValue":null,"taxes":null},"mailingAddress":{"line1":"735 PUDDING RIDGE RD","line2":null,"city":"MOCKSVILLE","state":"NC","zip":"27028"},"incomeTract":null,"incomeBlockGroup":null,"nearestRoad":null,"flu":null,"opportunityZone":null,"oz2Eligibility":null,"source":"nc-montgomery-parcels-37123","appraiserUrl":"https://www.webgis.net/nc/montgomery/PropertyCard.php?pid=666308899840&card=0","gisViewerUrl":"https://www.webgis.net/nc/montgomery/"},"geometry":{"type":"MultiPolygon","coordinates":[[[[-80.110744,35.501218],[-80.111262,35.501123],[-80.11221,35.501021],[-80.110752,35.500997],[-80.110744,35.501218]]],[[[-80.112157,35.501136],[-80.111382,35.501218],[-80.110068,35.501455],[-80.110141,35.502014],[-80.109652,35.502089],[-80.109901,35.504476],[-80.115453,35.504378],[-80.11331,35.501595],[-80.112198,35.501547],[-80.112219,35.501131],[-80.112157,35.501136]]]]}},{"type":"Feature","id":"37123:6664 19 70 3132","properties":{"id":"37123:6664 19 70 3132","parcelId":"6664 19 70 3132","countyFips":"37123","countyName":"Montgomery","state":"North Carolina","marketIds":["Charlotte"],"situsAddress":"PINEHAVEN DR","situsCity":null,"situsZip":null,"jurisdictionCode":null,"ownerName":"HARTMAN CLIFTON E JR","ownerName2":"C/O JERRY D HARTMAN JR","propertyName":null,"zoningCode":null,"zoningDistrict":null,"jurisdictionPrefix":null,"dorCode":null,"acreage":16.2,"centroid":[-80.116884,35.503253],"lastSale":{"date":"2007-04-01","price":48000.0,"qualified":"WD"},"tax":{"marketValue":null,"assessedValue":91240.0,"taxableValue":null,"taxes":null},"mailingAddress":{"line1":"735 PUDDING RIDGE RD","line2":null,"city":"MOCKSVILLE","state":"NC","zip":"27028"},"incomeTract":null,"incomeBlockGroup":null,"nearestRoad":null,"flu":null,"opportunityZone":null,"oz2Eligibility":null,"source":"nc-montgomery-parcels-37123","appraiserUrl":"https://www.webgis.net/nc/montgomery/PropertyCard.php?pid=666419703132&card=0","gisViewerUrl":"https://www.webgis.net/nc/montgomery/"},"geometry":{"type":"MultiPolygon","coordinates":[[[[-80.115559,35.502588],[-80.115638,35.502629],[-80.115774,35.502662],[-80.115998,35.502669],[-80.116814,35.502558],[-80.117204,35.502556],[-80.117328,35.50245],[-80.117649,35.502339],[-80.11771,35.502263],[-80.117706,35.502094],[-80.118132,35.5021],[-80.118518,35.502011],[-80.117802,35.501947],[-80.117473,35.501933],[-80.117256,35.501954],[-80.116919,35.501892],[-80.11685,35.501909],[-80.116647,35.501857],[-80.116593,35.50183],[-80.11648,35.501725],[-80.116455,35.501724],[-80.116403,35.501777],[-80.116392,35.501836],[-80.116441,35.502045],[-80.116391,35.502112],[-80.116366,35.502116],[-80.116151,35.50191],[-80.115987,35.501792],[-80.11545,35.501589],[-80.115089,35.501401],[-80.11513,35.501473],[-80.115175,35.501655],[-80.115226,35.501714],[-80.115248,35.501846],[-80.115237,35.501901],[-80.115012,35.502042],[-80.115559,35.502588]]],[[[-80.115453,35.504378],[-80.115631,35.504375],[-80.118156,35.50434],[-80.118113,35.504174],[-80.118126,35.5041],[-80.118215,35.504084],[-80.118204,35.504005],[-80.11823,35.503865],[-80.118049,35.503633],[-80.118004,35.503636],[-80.117954,35.503502],[-80.117857,35.503384],[-80.117585,35.503389],[-80.117633,35.503288],[-80.117291,35.503302],[-80.117291,35.50322],[-80.117193,35.503029],[-80.117207,35.502888],[-80.117321,35.502716],[-80.11708,35.502687],[-80.11683,35.502695],[-80.115922,35.50281],[-80.115742,35.502797],[-80.115577,35.502757],[-80.115439,35.502684],[-80.114877,35.502124],[-80.114469,35.501641],[-80.11331,35.501595],[-80.115453,35.504378]]]]}},{"type":"Feature","id":"37123:6673 00 89 2855","properties":{"id":"37123:6673 00 89 2855","parcelId":"6673 00 89 2855","countyFips":"37123","countyName":"Montgomery","state":"North Carolina","marketIds":["Charlotte"],"situsAddress":"BLAINE RD","situsCity":null,"situsZip":null,"jurisdictionCode":null,"ownerName":"CAGLE HAROLD M","ownerName2":"AND OTHERS","propertyName":null,"zoningCode":null,"zoningDistrict":null,"jurisdictionPrefix":null,"dorCode":null,"acreage":35.46,"centroid":[-80.082928,35.502993],"lastSale":{"date":"2007-04-01","price":null,"qualified":"WD"},"tax":{"marketValue":null,"assessedValue":10638.0,"taxableValue":null,"taxes":null},"mailingAddress":{"line1":"7058 VOLUNTEER RESUE RD","line2":null,"city":"DENTON","state":"NC","zip":"27239"},"incomeTract":null,"incomeBlockGroup":null,"nearestRoad":null,"flu":null,"opportunityZone":null,"oz2Eligibility":null,"source":"nc-montgomery-parcels-37123","appraiserUrl":"https://www.webgis.net/nc/montgomery/PropertyCard.php?pid=667300892855&card=0","gisViewerUrl":"https://www.webgis.net/nc/montgomery/"},"geometry":{"type":"Polygon","coordinates":[[[-80.085593,35.504335],[-80.085634,35.503256],[-80.085265,35.503191],[-80.085053,35.503106],[-80.084873,35.502984],[-80.08448,35.502575],[-80.084072,35.502966],[-80.082833,35.502486],[-80.082718,35.502538],[-80.082479,35.502255],[-80.081657,35.502479],[-80.076725,35.502617],[-80.076685,35.504119],[-80.085593,35.504335]]]}},{"type":"Feature","id":"37123:6673 00 89 4163","properties":{"id":"37123:6673 00 89 4163","parcelId":"6673 00 89 4163","countyFips":"37123","countyName":"Montgomery","state":"North Carolina","marketIds":["Charlotte"],"situsAddress":"BLAINE RD","situsCity":null,"situsZip":null,"jurisdictionCode":null,"ownerName":"BINGHAM STEVEN T","ownerName2":"AND OTHERS","propertyName":null,"zoningCode":null,"zoningDistrict":null,"jurisdictionPrefix":null,"dorCode":null,"acreage":36.2,"centroid":[-80.08035,35.501064],"lastSale":{"date":"2007-04-01","price":null,"qualified":"WD"},"tax":{"marketValue":null,"assessedValue":10860.0,"taxableValue":null,"taxes":null},"mailingAddress":{"line1":"6914 NC HWY 47","line2":null,"city":"DENTON","state":"NC","zip":"27239"},"incomeTract":null,"incomeBlockGroup":null,"nearestRoad":null,"flu":null,"opportunityZone":null,"oz2Eligibility":null,"source":"nc-montgomery-parcels-37123","appraiserUrl":"https://www.webgis.net/nc/montgomery/PropertyCard.php?pid=667300894163&card=0","gisViewerUrl":"https://www.webgis.net/nc/montgomery/"},"geometry":{"type":"Polygon","coordinates":[[[-80.076725,35.502617],[-80.081657,35.502479],[-80.082479,35.502255],[-80.08205,35.501747],[-80.08326,35.501205],[-80.082221,35.499767],[-80.08111,35.499751],[-80.078923,35.500047],[-80.078299,35.500312],[-80.076781,35.50046],[-80.076725,35.502617]]]}},{"type":"Feature","id":"37123:6673 06 39 2892","properties":{"id":"37123:6673 06 39 2892","parcelId":"6673 06 39 2892","countyFips":"37123","countyName":"Montgomery","state":"North Carolina","marketIds":["Charlotte"],"situsAddress":"127 OAK RD","situsCity":null,"situsZip":null,"jurisdictionCode":null,"ownerName":"SMITH ANDREA RENEE","ownerName2":null,"propertyName":null,"zoningCode":null,"zoningDistrict":null,"jurisdictionPrefix":null,"dorCode":null,"acreage":29.0,"centroid":[-80.097931,35.503153],"lastSale":{"date":"2021-05-18","price":150000.0,"qualified":"WD"},"tax":{"marketValue":null,"assessedValue":77268.0,"taxableValue":null,"taxes":null},"mailingAddress":{"line1":"150 HICKORY PL","line2":null,"city":"NEW LONDON","state":"NC","zip":"28127"},"incomeTract":null,"incomeBlockGroup":null,"nearestRoad":null,"flu":null,"opportunityZone":null,"oz2Eligibility":null,"source":"nc-montgomery-parcels-37123","appraiserUrl":"https://www.webgis.net/nc/montgomery/PropertyCard.php?pid=667306392892&card=0","gisViewerUrl":"https://www.webgis.net/nc/montgomery/"},"geometry":{"type":"Polygon","coordinates":[[[-80.097159,35.505016],[-80.097146,35.504839],[-80.096811,35.504848],[-80.096795,35.504567],[-80.097126,35.504556],[-80.097121,35.504475],[-80.098039,35.504463],[-80.098014,35.503934],[-80.09818,35.503928],[-80.098176,35.503845],[-80.098002,35.50385],[-80.097986,35.503582],[-80.099164,35.503544],[-80.099122,35.502938],[-80.099147,35.502724],[-80.099658,35.501184],[-80.099431,35.501135],[-80.099633,35.50056],[-80.10029,35.500704],[-80.100514,35.500066],[-80.100453,35.499923],[-80.097064,35.501159],[-80.095821,35.504088],[-80.094104,35.503825],[-80.093318,35.505084],[-80.097159,35.505016]]]}},{"type":"Feature","id":"37123:6673 06 48 7684","properties":{"id":"37123:6673 06 48 7684","parcelId":"6673 06 48 7684","countyFips":"37123","countyName":"Montgomery","state":"North Carolina","marketIds":["Charlotte"],"situsAddress":"BLAINE RD","situsCity":null,"situsZip":null,"jurisdictionCode":null,"ownerName":"CAGLE HAROLD M","ownerName2":"AND OTHERS","propertyName":null,"zoningCode":null,"zoningDistrict":null,"jurisdictionPrefix":null,"dorCode":null,"acreage":131.43,"centroid":[-80.095866,35.500703],"lastSale":{"date":"2007-04-01","price":null,"qualified":"WD"},"tax":{"marketValue":null,"assessedValue":39429.0,"taxableValue":null,"taxes":null},"mailingAddress":{"line1":"7058 VOLUNTEER RESUE RD","line2":null,"city":"DENTON","state":"NC","zip":"27239"},"incomeTract":null,"incomeBlockGroup":null,"nearestRoad":null,"flu":null,"opportunityZone":null,"oz2Eligibility":null,"source":"nc-montgomery-parcels-37123","appraiserUrl":"https://www.webgis.net/nc/montgomery/PropertyCard.php?pid=667306487684&card=0","gisViewerUrl":"https://www.webgis.net/nc/montgomery/"},"geometry":{"type":"Polygon","coordinates":[[[-80.097064,35.501159],[-80.100275,35.499986],[-80.100453,35.499923],[-80.099056,35.496707],[-80.097211,35.495465],[-80.096519,35.496268],[-80.093573,35.498418],[-80.091057,35.498988],[-80.088045,35.498999],[-80.086571,35.497907],[-80.082749,35.49729],[-80.082427,35.498671],[-80.082364,35.499623],[-80.082455,35.49977],[-80.085781,35.499819],[-80.085728,35.500838],[-80.09695,35.501091],[-80.097064,35.501159]]]}},{"type":"Feature","id":"37123:6673 07 59 0673","properties":{"id":"37123:6673 07 59 0673","parcelId":"6673 07 59 0673","countyFips":"37123","countyName":"Montgomery","state":"North Carolina","marketIds":["Charlotte"],"situsAddress":"BLAINE RD","situsCity":null,"situsZip":null,"jurisdictionCode":null,"ownerName":"CARRIGAN BONITA V CLARK","ownerName2":"CLARK CHARLES R","propertyName":null,"zoningCode":null,"zoningDistrict":null,"jurisdictionPrefix":null,"dorCode":null,"acreage":82.78,"centroid":[-80.090544,35.503448],"lastSale":{"date":"2021-05-18","price":1500.0,"qualified":"WD"},"tax":{"marketValue":null,"assessedValue":24834.0,"taxableValue":null,"taxes":null},"mailingAddress":{"line1":"5316 NC HWY 109 N","line2":null,"city":"TROY","state":"NC","zip":"27371"},"incomeTract":null,"incomeBlockGroup":null,"nearestRoad":null,"flu":null,"opportunityZone":null,"oz2Eligibility":null,"source":"nc-montgomery-parcels-37123","appraiserUrl":"https://www.webgis.net/nc/montgomery/PropertyCard.php?pid=667307590673&card=0","gisViewerUrl":"https://www.webgis.net/nc/montgomery/"},"geometry":{"type":"Polygon","coordinates":[[[-80.093318,35.505084],[-80.094104,35.503825],[-80.095821,35.504088],[-80.097064,35.501159],[-80.09695,35.501091],[-80.085728,35.500838],[-80.085641,35.503089],[-80.087592,35.503368],[-80.087961,35.503388],[-80.088668,35.503373],[-80.088956,35.503389],[-80.089307,35.503472],[-80.089613,35.503618],[-80.089672,35.503617],[-80.089762,35.503722],[-80.090019,35.503951],[-80.090131,35.504101],[-80.09019,35.504227],[-80.090227,35.504478],[-80.090154,35.505079],[-80.093318,35.505084]]]}},{"type":"Feature","id":"37123:6673 07 78 3928","properties":{"id":"37123:6673 07 78 3928","parcelId":"6673 07 78 3928","countyFips":"37123","countyName":"Montgomery","state":"North Carolina","marketIds":["Charlotte"],"situsAddress":"BLAINE RD","situsCity":null,"situsZip":null,"jurisdictionCode":null,"ownerName":"BINGHAM STEVEN T","ownerName2":"AND OTHERS","propertyName":null,"zoningCode":null,"zoningDistrict":null,"jurisdictionPrefix":null,"dorCode":null,"acreage":6.19,"centroid":[-80.084636,35.500729],"lastSale":{"date":"2007-04-01","price":null,"qualified":"WD"},"tax":{"marketValue":null,"assessedValue":1857.0,"taxableValue":null,"taxes":null},"mailingAddress":{"line1":"6914 NC HWY 47","line2":null,"city":"DENTON","state":"NC","zip":"27239"},"incomeTract":null,"incomeBlockGroup":null,"nearestRoad":null,"flu":null,"opportunityZone":null,"oz2Eligibility":null,"source":"nc-montgomery-parcels-37123","appraiserUrl":"https://www.webgis.net/nc/montgomery/PropertyCard.php?pid=667307783928&card=0","gisViewerUrl":"https://www.webgis.net/nc/montgomery/"},"geometry":{"type":"Polygon","coordinates":[[[-80.084136,35.501944],[-80.084623,35.5016],[-80.085082,35.500361],[-80.085771,35.500012],[-80.085781,35.499819],[-80.08479,35.499805],[-80.083222,35.500824],[-80.083681,35.501464],[-80.084136,35.501944]]]}},{"type":"Feature","id":"37123:6673 07 79 0313","properties":{"id":"37123:6673 07 79 0313","parcelId":"6673 07 79 0313","countyFips":"37123","countyName":"Montgomery","state":"North Carolina","marketIds":["Charlotte"],"situsAddress":"BLAINE RD","situsCity":null,"situsZip":null,"jurisdictionCode":null,"ownerName":"CAGLE HAROLD M","ownerName2":"AND OTHERS","propertyName":null,"zoningCode":null,"zoningDistrict":null,"jurisdictionPrefix":null,"dorCode":null,"acreage":7.02,"centroid":[-80.085166,35.501721],"lastSale":{"date":"2007-04-01","price":null,"qualified":"WD"},"tax":{"marketValue":null,"assessedValue":2106.0,"taxableValue":null,"taxes":null},"mailingAddress":{"line1":"7058 VOLUNTEER RESUE RD","line2":null,"city":"DENTON","state":"NC","zip":"27239"},"incomeTract":null,"incomeBlockGroup":null,"nearestRoad":null,"flu":null,"opportunityZone":null,"oz2Eligibility":null,"source":"nc-montgomery-parcels-37123","appraiserUrl":"https://www.webgis.net/nc/montgomery/PropertyCard.php?pid=667307790313&card=0","gisViewerUrl":"https://www.webgis.net/nc/montgomery/"},"geometry":{"type":"Polygon","coordinates":[[[-80.085641,35.503089],[-80.085728,35.500838],[-80.085771,35.500012],[-80.085082,35.500361],[-80.084623,35.5016],[-80.084136,35.501944],[-80.08506,35.502903],[-80.085291,35.503023],[-80.085641,35.503089]]]}},{"type":"Feature","id":"37123:6674 19 60 0199","properties":{"id":"37123:6674 19 60 0199","parcelId":"6674 19 60 0199","countyFips":"37123","countyName":"Montgomery","state":"North Carolina","marketIds":["Charlotte"],"situsAddress":"BLAINE RD","situsCity":null,"situsZip":null,"jurisdictionCode":null,"ownerName":"RUSSELL GREGORY K","ownerName2":"RUSSELL VICKY S","propertyName":null,"zoningCode":null,"zoningDistrict":null,"jurisdictionPrefix":null,"dorCode":null,"acreage":15.43,"centroid":[-80.088321,35.504071],"lastSale":{"date":"2017-03-31","price":null,"qualified":"WD"},"tax":{"marketValue":null,"assessedValue":57091.0,"taxableValue":null,"taxes":null},"mailingAddress":{"line1":"2070 FRANK RD","line2":null,"city":"ASHEBORO","state":"NC","zip":"27205"},"incomeTract":null,"incomeBlockGroup":null,"nearestRoad":null,"flu":null,"opportunityZone":null,"oz2Eligibility":null,"source":"nc-montgomery-parcels-37123","appraiserUrl":"https://www.webgis.net/nc/montgomery/PropertyCard.php?pid=667419600199&card=0","gisViewerUrl":"https://www.webgis.net/nc/montgomery/"},"geometry":{"type":"Polygon","coordinates":[[[-80.086405,35.50506],[-80.086489,35.505056],[-80.089953,35.505071],[-80.090025,35.504473],[-80.090008,35.504315],[-80.089925,35.504136],[-80.089772,35.503959],[-80.089543,35.503782],[-80.089279,35.503621],[-80.089155,35.503622],[-80.089025,35.503569],[-80.088764,35.503539],[-80.087957,35.503553],[-80.087568,35.503532],[-80.085634,35.503256],[-80.085593,35.504335],[-80.086361,35.50432],[-80.086405,35.50506]]]}},{"type":"Feature","id":"37123:6683 00 39 8621","properties":{"id":"37123:6683 00 39 8621","parcelId":"6683 00 39 8621","countyFips":"37123","countyName":"Montgomery","state":"North Carolina","marketIds":["Charlotte"],"situsAddress":"NC HWY 109 N, RW","situsCity":null,"situsZip":null,"jurisdictionCode":null,"ownerName":"WALL TIMBERLANDS INC","ownerName2":"C/O CHUCK WALL","propertyName":null,"zoningCode":null,"zoningDistrict":null,"jurisdictionPrefix":null,"dorCode":null,"acreage":48.22,"centroid":[-80.063151,35.502395],"lastSale":{"date":"2000-01-01","price":null,"qualified":"01"},"tax":{"marketValue":null,"assessedValue":14466.0,"taxableValue":null,"taxes":null},"mailingAddress":{"line1":"306 COUNTRY CLUB DR","line2":null,"city":"LEXINGTON","state":"NC","zip":"27292"},"incomeTract":null,"incomeBlockGroup":null,"nearestRoad":null,"flu":null,"opportunityZone":null,"oz2Eligibility":null,"source":"nc-montgomery-parcels-37123","appraiserUrl":"https://www.webgis.net/nc/montgomery/PropertyCard.php?pid=668300398621&card=0","gisViewerUrl":"https://www.webgis.net/nc/montgomery/"},"geometry":{"type":"Polygon","coordinates":[[[-80.060593,35.505712],[-80.061524,35.505691],[-80.061626,35.505606],[-80.062637,35.505359],[-80.063184,35.505067],[-80.063492,35.504795],[-80.063637,35.504599],[-80.06373,35.50445],[-80.063866,35.504146],[-80.064018,35.503961],[-80.064052,35.503844],[-80.06409,35.503517],[-80.064078,35.503367],[-80.064047,35.503263],[-80.063981,35.503126],[-80.06386,35.502966],[-80.063583,35.50252],[-80.063552,35.502431],[-80.063556,35.502334],[-80.063712,35.501813],[-80.063838,35.501282],[-80.063868,35.500918],[-80.063982,35.500453],[-80.063996,35.499966],[-80.063897,35.499773],[-80.063874,35.499556],[-80.063922,35.499341],[-80.064042,35.499218],[-80.062877,35.498791],[-80.061963,35.499508],[-80.061877,35.499779],[-80.061794,35.499959],[-80.059869,35.501536],[-80.060517,35.502779],[-80.060593,35.505712]]]}},{"type":"Feature","id":"37123:6684 00 40 8188","properties":{"id":"37123:6684 00 40 8188","parcelId":"6684 00 40 8188","countyFips":"37123","countyName":"Montgomery","state":"North Carolina","marketIds":["Charlotte"],"situsAddress":"NC HWY 109 N, R","situsCity":null,"situsZip":null,"jurisdictionCode":null,"ownerName":"WALL STERLING C","ownerName2":null,"propertyName":null,"zoningCode":null,"zoningDistrict":null,"jurisdictionPrefix":null,"dorCode":null,"acreage":33.16,"centroid":[-80.058904,35.503966],"lastSale":{"date":"2015-04-16","price":36000.0,"qualified":"WD"},"tax":{"marketValue":null,"assessedValue":9948.0,"taxableValue":null,"taxes":null},"mailingAddress":{"line1":"PO BOX 497","line2":null,"city":"LEXINGTON","state":"NC","zip":"27293"},"incomeTract":null,"incomeBlockGroup":null,"nearestRoad":null,"flu":null,"opportunityZone":null,"oz2Eligibility":null,"source":"nc-montgomery-parcels-37123","appraiserUrl":"https://www.webgis.net/nc/montgomery/PropertyCard.php?pid=668400408188&card=0","gisViewerUrl":"https://www.webgis.net/nc/montgomery/"},"geometry":{"type":"Polygon","coordinates":[[[-80.060593,35.505712],[-80.060517,35.502779],[-80.059869,35.501536],[-80.054636,35.505836],[-80.060593,35.505712]]]}},{"type":"Feature","id":"37123:6684 00 70 0276","properties":{"id":"37123:6684 00 70 0276","parcelId":"6684 00 70 0276","countyFips":"37123","countyName":"Montgomery","state":"North Carolina","marketIds":["Charlotte"],"situsAddress":"NC HWY 109 N, R","situsCity":null,"situsZip":null,"jurisdictionCode":null,"ownerName":"SHK TIMBERLANDS OF LEXINGTON","ownerName2":"LLC","propertyName":null,"zoningCode":null,"zoningDistrict":null,"jurisdictionPrefix":null,"dorCode":null,"acreage":21.15,"centroid":[-80.051115,35.505108],"lastSale":{"date":"2020-12-23","price":null,"qualified":"WD"},"tax":{"marketValue":null,"assessedValue":6345.0,"taxableValue":null,"taxes":null},"mailingAddress":{"line1":"PO BOX 497","line2":null,"city":"LEXINGTON","state":"NC","zip":"27293"},"incomeTract":null,"incomeBlockGroup":null,"nearestRoad":null,"flu":null,"opportunityZone":null,"oz2Eligibility":null,"source":"nc-montgomery-parcels-37123","appraiserUrl":"https://www.webgis.net/nc/montgomery/PropertyCard.php?pid=668400700276&card=0","gisViewerUrl":"https://www.webgis.net/nc/montgomery/"},"geometry":{"type":"Polygon","coordinates":[[[-80.054636,35.505836],[-80.052859,35.504493],[-80.050215,35.502495],[-80.049642,35.505551],[-80.049968,35.505637],[-80.050258,35.505809],[-80.050224,35.505935],[-80.054636,35.505836]]]}},{"type":"Feature","id":"37123:6693 00 19 8200","properties":{"id":"37123:6693 00 19 8200","parcelId":"6693 00 19 8200","countyFips":"37123","countyName":"Montgomery","state":"North Carolina","marketIds":["Charlotte"],"situsAddress":"CENTER METH CH RD, R","situsCity":null,"situsZip":null,"jurisdictionCode":null,"ownerName":"CARTER ERIC R","ownerName2":null,"propertyName":null,"zoningCode":null,"zoningDistrict":null,"jurisdictionPrefix":null,"dorCode":null,"acreage":10.57,"centroid":[-80.037343,35.502847],"lastSale":{"date":"2021-01-11","price":null,"qualified":"QC"},"tax":{"marketValue":null,"assessedValue":12155.0,"taxableValue":null,"taxes":null},"mailingAddress":{"line1":"5880 GOLD MINE HWY","line2":null,"city":"KERSHAW","state":"SC","zip":"29067"},"incomeTract":null,"incomeBlockGroup":null,"nearestRoad":null,"flu":null,"opportunityZone":null,"oz2Eligibility":null,"source":"nc-montgomery-parcels-37123","appraiserUrl":"https://www.webgis.net/nc/montgomery/PropertyCard.php?pid=669300198200&card=0","gisViewerUrl":"https://www.webgis.net/nc/montgomery/"},"geometry":{"type":"Polygon","coordinates":[[[-80.036771,35.50346],[-80.036768,35.504159],[-80.038913,35.504239],[-80.037485,35.501192],[-80.03678,35.501185],[-80.036771,35.50346]]]}},{"type":"Feature","id":"37123:6694 00 60 0228","properties":{"id":"37123:6694 00 60 0228","parcelId":"6694 00 60 0228","countyFips":"37123","countyName":"Montgomery","state":"North Carolina","marketIds":["Charlotte"],"situsAddress":"COGGINS MINE RD","situsCity":null,"situsZip":null,"jurisdictionCode":null,"ownerName":"CAGLE ROGER W","ownerName2":"CAGLE AMANDA S","propertyName":null,"zoningCode":null,"zoningDistrict":null,"jurisdictionPrefix":null,"dorCode":null,"acreage":24.9,"centroid":[-80.02191,35.50505],"lastSale":{"date":"2025-12-15","price":null,"qualified":"WD"},"tax":{"marketValue":null,"assessedValue":29832.0,"taxableValue":null,"taxes":null},"mailingAddress":{"line1":"7065 CHARLES MOUNTAIN RD","line2":null,"city":"DENTON","state":"NC","zip":"27239"},"incomeTract":null,"incomeBlockGroup":null,"nearestRoad":null,"flu":null,"opportunityZone":null,"oz2Eligibility":null,"source":"nc-montgomery-parcels-37123","appraiserUrl":"https://www.webgis.net/nc/montgomery/PropertyCard.php?pid=669400600228&card=0","gisViewerUrl":"https://www.webgis.net/nc/montgomery/"},"geometry":{"type":"Polygon","coordinates":[[[-80.01674,35.505208],[-80.023433,35.506204],[-80.02384,35.505618],[-80.024201,35.505136],[-80.024483,35.504797],[-80.023865,35.504244],[-80.01681,35.50414],[-80.01674,35.505208]]]}},{"type":"Feature","id":"37123:6694 00 60 6612","properties":{"id":"37123:6694 00 60 6612","parcelId":"6694 00 60 6612","countyFips":"37123","countyName":"Montgomery","state":"North Carolina","marketIds":["Charlotte"],"situsAddress":"COGGINS MINE RD","situsCity":null,"situsZip":null,"jurisdictionCode":null,"ownerName":"CAGLE ROGER W","ownerName2":"CAGLE AMANDA S","propertyName":null,"zoningCode":null,"zoningDistrict":null,"jurisdictionPrefix":null,"dorCode":null,"acreage":17.8,"centroid":[-80.019428,35.506256],"lastSale":{"date":"2018-11-21","price":80000.0,"qualified":"WD"},"tax":{"marketValue":null,"assessedValue":9577.0,"taxableValue":null,"taxes":null},"mailingAddress":{"line1":"7065 CHARLES MOUNTAIN RD","line2":null,"city":"DENTON","state":"NC","zip":"27239"},"incomeTract":null,"incomeBlockGroup":null,"nearestRoad":null,"flu":null,"opportunityZone":null,"oz2Eligibility":null,"source":"nc-montgomery-parcels-37123","appraiserUrl":"https://www.webgis.net/nc/montgomery/PropertyCard.php?pid=669400606612&card=0","gisViewerUrl":"https://www.webgis.net/nc/montgomery/"},"geometry":{"type":"MultiPolygon","coordinates":[[[[-80.024371,35.505226],[-80.024014,35.505702],[-80.023441,35.506536],[-80.024642,35.506512],[-80.025272,35.50553],[-80.024621,35.504924],[-80.024371,35.505226]]],[[[-80.016652,35.506648],[-80.017118,35.50668],[-80.023199,35.506541],[-80.023433,35.506204],[-80.01674,35.505208],[-80.016652,35.506648]]]]}},{"type":"Feature","id":"37123:7604 00 10 7391","properties":{"id":"37123:7604 00 10 7391","parcelId":"7604 00 10 7391","countyFips":"37123","countyName":"Montgomery","state":"North Carolina","marketIds":["Charlotte"],"situsAddress":"LOW WATER BRIDGE RD #R","situsCity":null,"situsZip":null,"jurisdictionCode":null,"ownerName":"UNITED STATES FOREST SERVICE","ownerName2":null,"propertyName":null,"zoningCode":null,"zoningDistrict":null,"jurisdictionPrefix":null,"dorCode":null,"acreage":108.08,"centroid":[-80.001789,35.504758],"lastSale":{"date":"1937-04-15","price":null,"qualified":"WD"},"tax":{"marketValue":null,"assessedValue":46204.0,"taxableValue":null,"taxes":null},"mailingAddress":{"line1":".","line2":null,"city":".","state":".","zip":"."},"incomeTract":null,"incomeBlockGroup":null,"nearestRoad":null,"flu":null,"opportunityZone":null,"oz2Eligibility":null,"source":"nc-montgomery-parcels-37123","appraiserUrl":"https://www.webgis.net/nc/montgomery/PropertyCard.php?pid=760400107391&card=0","gisViewerUrl":"https://www.webgis.net/nc/montgomery/"},"geometry":{"type":"Polygon","coordinates":[[[-79.99548,35.507159],[-79.997569,35.507122],[-80.004188,35.506957],[-80.017118,35.50668],[-80.008554,35.506234],[-80.006607,35.506107],[-80.00659,35.505134],[-80.00622,35.502218],[-80.003989,35.50183],[-80.003076,35.502149],[-80.001317,35.502515],[-80.000269,35.50283],[-79.999414,35.503138],[-79.997471,35.503597],[-79.996831,35.504015],[-79.996154,35.505226],[-79.995789,35.506021],[-79.995559,35.506709],[-79.99548,35.507159]]]}},{"type":"Feature","id":"37123:6663 07 68 8882","properties":{"id":"37123:6663 07 68 8882","parcelId":"6663 07 68 8882","countyFips":"37123","countyName":"Montgomery","state":"North Carolina","marketIds":["Charlotte"],"situsAddress":"248 LAKE FOREST DR","situsCity":null,"situsZip":null,"jurisdictionCode":null,"ownerName":"HINSON CAROL RUSHING","ownerName2":"AND OTHERS","propertyName":null,"zoningCode":null,"zoningDistrict":null,"jurisdictionPrefix":null,"dorCode":null,"acreage":5.76,"centroid":[-80.11882,35.500366],"lastSale":{"date":"2014-02-25","price":null,"qualified":"WD"},"tax":{"marketValue":null,"assessedValue":21312.0,"taxableValue":null,"taxes":null},"mailingAddress":{"line1":"322 LAKE FOREST DR","line2":null,"city":"NEW LONDON","state":"NC","zip":"28127"},"incomeTract":null,"incomeBlockGroup":null,"nearestRoad":null,"flu":null,"opportunityZone":null,"oz2Eligibility":null,"source":"nc-montgomery-parcels-37123","appraiserUrl":"https://www.webgis.net/nc/montgomery/PropertyCard.php?pid=666307688882&card=0","gisViewerUrl":"https://www.webgis.net/nc/montgomery/"},"geometry":{"type":"Polygon","coordinates":[[[-80.117645,35.500377],[-80.117689,35.500448],[-80.117775,35.500553],[-80.117907,35.500658],[-80.118183,35.500774],[-80.11908,35.500958],[-80.11949,35.501062],[-80.119757,35.500917],[-80.119616,35.500116],[-80.119851,35.499274],[-80.120023,35.498884],[-80.117645,35.500377]]]}},{"type":"Feature","id":"37123:6663 07 68 1653","properties":{"id":"37123:6663 07 68 1653","parcelId":"6663 07 68 1653","countyFips":"37123","countyName":"Montgomery","state":"North Carolina","marketIds":["Charlotte"],"situsAddress":"208 LAKE FOREST DR","situsCity":null,"situsZip":null,"jurisdictionCode":null,"ownerName":"AWTREY-KIRKMAN MARGARET","ownerName2":null,"propertyName":null,"zoningCode":null,"zoningDistrict":null,"jurisdictionPrefix":null,"dorCode":null,"acreage":8.34,"centroid":[-80.121378,35.50035],"lastSale":{"date":"2018-07-12","price":null,"qualified":"WD"},"tax":{"marketValue":null,"assessedValue":43158.0,"taxableValue":null,"taxes":null},"mailingAddress":{"line1":"208 LAKE FOREST DR","line2":null,"city":"NEW LONDON","state":"NC","zip":"28127"},"incomeTract":null,"incomeBlockGroup":null,"nearestRoad":null,"flu":null,"opportunityZone":null,"oz2Eligibility":null,"source":"nc-montgomery-parcels-37123","appraiserUrl":"https://www.webgis.net/nc/montgomery/PropertyCard.php?pid=666307681653&card=0","gisViewerUrl":"https://www.webgis.net/nc/montgomery/"},"geometry":{"type":"Polygon","coordinates":[[[-80.120522,35.501419],[-80.120601,35.501446],[-80.121343,35.501688],[-80.123118,35.498951],[-80.121321,35.498891],[-80.121364,35.499705],[-80.120522,35.501419]]]}},{"type":"Feature","id":"37123:6663 07 59 8067","properties":{"id":"37123:6663 07 59 8067","parcelId":"6663 07 59 8067","countyFips":"37123","countyName":"Montgomery","state":"North Carolina","marketIds":["Charlotte"],"situsAddress":"LAKE FOREST DR","situsCity":null,"situsZip":null,"jurisdictionCode":null,"ownerName":"EARNHARDT ROY LEE","ownerName2":null,"propertyName":null,"zoningCode":null,"zoningDistrict":null,"jurisdictionPrefix":null,"dorCode":null,"acreage":9.92,"centroid":[-80.122394,35.501026],"lastSale":{"date":"1999-06-01","price":null,"qualified":"01"},"tax":{"marketValue":null,"assessedValue":36704.0,"taxableValue":null,"taxes":null},"mailingAddress":{"line1":"174 LAKE FOREST DR","line2":null,"city":"NEW LONDON","state":"NC","zip":"28127"},"incomeTract":null,"incomeBlockGroup":null,"nearestRoad":null,"flu":null,"opportunityZone":null,"oz2Eligibility":null,"source":"nc-montgomery-parcels-37123","appraiserUrl":"https://www.webgis.net/nc/montgomery/PropertyCard.php?pid=666307598067&card=0","gisViewerUrl":"https://www.webgis.net/nc/montgomery/"},"geometry":{"type":"Polygon","coordinates":[[[-80.121343,35.501688],[-80.121584,35.501764],[-80.121778,35.501847],[-80.122019,35.502003],[-80.122315,35.501926],[-80.124598,35.499001],[-80.123118,35.498951],[-80.121343,35.501688]]]}},{"type":"Feature","id":"37123:6663 06 48 7917","properties":{"id":"37123:6663 06 48 7917","parcelId":"6663 06 48 7917","countyFips":"37123","countyName":"Montgomery","state":"North Carolina","marketIds":["Charlotte"],"situsAddress":"BLAINE RD","situsCity":null,"situsZip":null,"jurisdictionCode":null,"ownerName":"EARNHARDT ROY LEE","ownerName2":null,"propertyName":null,"zoningCode":null,"zoningDistrict":null,"jurisdictionPrefix":null,"dorCode":null,"acreage":8.32,"centroid":[-80.126356,35.500627],"lastSale":{"date":"1999-06-01","price":null,"qualified":"01"},"tax":{"marketValue":null,"assessedValue":30784.0,"taxableValue":null,"taxes":null},"mailingAddress":{"line1":"174 LAKE FOREST DR","line2":null,"city":"NEW LONDON","state":"NC","zip":"28127"},"incomeTract":null,"incomeBlockGroup":null,"nearestRoad":null,"flu":null,"opportunityZone":null,"oz2Eligibility":null,"source":"nc-montgomery-parcels-37123","appraiserUrl":"https://www.webgis.net/nc/montgomery/PropertyCard.php?pid=666306487917&card=0","gisViewerUrl":"https://www.webgis.net/nc/montgomery/"},"geometry":{"type":"Polygon","coordinates":[[[-80.125774,35.499041],[-80.1259,35.502405],[-80.12677,35.501981],[-80.12698,35.499081],[-80.125774,35.499041]]]}},{"type":"Feature","id":"37123:6663 07 59 5146","properties":{"id":"37123:6663 07 59 5146","parcelId":"6663 07 59 5146","countyFips":"37123","countyName":"Montgomery","state":"North Carolina","marketIds":["Charlotte"],"situsAddress":"LAKE FOREST DR","situsCity":null,"situsZip":null,"jurisdictionCode":null,"ownerName":"EARNHARDT ROY LEE","ownerName2":null,"propertyName":null,"zoningCode":null,"zoningDistrict":null,"jurisdictionPrefix":null,"dorCode":null,"acreage":9.4,"centroid":[-80.123208,35.501519],"lastSale":{"date":"1999-06-01","price":null,"qualified":"01"},"tax":{"marketValue":null,"assessedValue":34780.0,"taxableValue":null,"taxes":null},"mailingAddress":{"line1":"174 LAKE FOREST DR","line2":null,"city":"NEW LONDON","state":"NC","zip":"28127"},"incomeTract":null,"incomeBlockGroup":null,"nearestRoad":null,"flu":null,"opportunityZone":null,"oz2Eligibility":null,"source":"nc-montgomery-parcels-37123","appraiserUrl":"https://www.webgis.net/nc/montgomery/PropertyCard.php?pid=666307595146&card=0","gisViewerUrl":"https://www.webgis.net/nc/montgomery/"},"geometry":{"type":"Polygon","coordinates":[[[-80.122156,35.502124],[-80.122298,35.502254],[-80.122497,35.502415],[-80.122799,35.502608],[-80.124898,35.500711],[-80.124598,35.499001],[-80.122156,35.502124]]]}},{"type":"Feature","id":"37123:6663 06 49 1001","properties":{"id":"37123:6663 06 49 1001","parcelId":"6663 06 49 1001","countyFips":"37123","countyName":"Montgomery","state":"North Carolina","marketIds":["Charlotte"],"situsAddress":"BLAINE RD","situsCity":null,"situsZip":null,"jurisdictionCode":null,"ownerName":"EARNHARDT ROY LEE","ownerName2":null,"propertyName":null,"zoningCode":null,"zoningDistrict":null,"jurisdictionPrefix":null,"dorCode":null,"acreage":8.37,"centroid":[-80.125359,35.501613],"lastSale":{"date":"1999-06-01","price":null,"qualified":"01"},"tax":{"marketValue":null,"assessedValue":30969.0,"taxableValue":null,"taxes":null},"mailingAddress":{"line1":"174 LAKE FOREST DR","line2":null,"city":"NEW LONDON","state":"NC","zip":"28127"},"incomeTract":null,"incomeBlockGroup":null,"nearestRoad":null,"flu":null,"opportunityZone":null,"oz2Eligibility":null,"source":"nc-montgomery-parcels-37123","appraiserUrl":"https://www.webgis.net/nc/montgomery/PropertyCard.php?pid=666306491001&card=0","gisViewerUrl":"https://www.webgis.net/nc/montgomery/"},"geometry":{"type":"Polygon","coordinates":[[[-80.125135,35.502099],[-80.125268,35.502966],[-80.125297,35.503051],[-80.125543,35.502731],[-80.1259,35.502405],[-80.125774,35.499041],[-80.124598,35.499001],[-80.125135,35.502099]]]}},{"type":"Feature","id":"37123:6663 06 48 3923","properties":{"id":"37123:6663 06 48 3923","parcelId":"6663 06 48 3923","countyFips":"37123","countyName":"Montgomery","state":"North Carolina","marketIds":["Charlotte"],"situsAddress":"2317 BLAINE RD","situsCity":null,"situsZip":null,"jurisdictionCode":null,"ownerName":"LOOKADOO DAVID","ownerName2":"LOOKADOO CATHY","propertyName":null,"zoningCode":null,"zoningDistrict":null,"jurisdictionPrefix":null,"dorCode":null,"acreage":10.09,"centroid":[-80.127565,35.500366],"lastSale":{"date":"1988-01-01","price":15500.0,"qualified":"UNK"},"tax":{"marketValue":null,"assessedValue":49633.0,"taxableValue":null,"taxes":null},"mailingAddress":{"line1":"2317 BLAINE RD","line2":null,"city":"NEW LONDON","state":"NC","zip":"28127"},"incomeTract":null,"incomeBlockGroup":null,"nearestRoad":null,"flu":null,"opportunityZone":null,"oz2Eligibility":null,"source":"nc-montgomery-parcels-37123","appraiserUrl":"https://www.webgis.net/nc/montgomery/PropertyCard.php?pid=666306483923&card=0","gisViewerUrl":"https://www.webgis.net/nc/montgomery/"},"geometry":{"type":"Polygon","coordinates":[[[-80.12698,35.499081],[-80.12677,35.501981],[-80.128154,35.50133],[-80.128355,35.499074],[-80.12698,35.499081]]]}},{"type":"Feature","id":"37123:6663 06 29 6342","properties":{"id":"37123:6663 06 29 6342","parcelId":"6663 06 29 6342","countyFips":"37123","countyName":"Montgomery","state":"North Carolina","marketIds":["Charlotte"],"situsAddress":"BLAINE RD","situsCity":null,"situsZip":null,"jurisdictionCode":null,"ownerName":"PIERCE LARRY J","ownerName2":null,"propertyName":null,"zoningCode":null,"zoningDistrict":null,"jurisdictionPrefix":null,"dorCode":null,"acreage":5.97,"centroid":[-80.133827,35.501748],"lastSale":{"date":"2018-12-27","price":null,"qualified":"QC"},"tax":{"marketValue":null,"assessedValue":26991.0,"taxableValue":null,"taxes":null},"mailingAddress":{"line1":"2422 BLAINE RD","line2":null,"city":"NEW LONDON","state":"NC","zip":"28127"},"incomeTract":null,"incomeBlockGroup":null,"nearestRoad":null,"flu":null,"opportunityZone":null,"oz2Eligibility":null,"source":"nc-montgomery-parcels-37123","appraiserUrl":"https://www.webgis.net/nc/montgomery/PropertyCard.php?pid=666306296342&card=0","gisViewerUrl":"https://www.webgis.net/nc/montgomery/"},"geometry":{"type":"Polygon","coordinates":[[[-80.133021,35.502446],[-80.133671,35.502504],[-80.133811,35.501942],[-80.134514,35.502005],[-80.13483,35.500752],[-80.133114,35.500842],[-80.133021,35.502446]]]}},{"type":"Feature","id":"37123:6664 18 20 5274","properties":{"id":"37123:6664 18 20 5274","parcelId":"6664 18 20 5274","countyFips":"37123","countyName":"Montgomery","state":"North Carolina","marketIds":["Charlotte"],"situsAddress":"2492 BLAINE RD","situsCity":null,"situsZip":null,"jurisdictionCode":null,"ownerName":"FURR RALPH C","ownerName2":"FURR DAWN C","propertyName":null,"zoningCode":null,"zoningDistrict":null,"jurisdictionPrefix":null,"dorCode":null,"acreage":17.79,"centroid":[-80.131461,35.504106],"lastSale":{"date":"1998-02-01","price":125000.0,"qualified":"01"},"tax":{"marketValue":null,"assessedValue":73033.0,"taxableValue":null,"taxes":null},"mailingAddress":{"line1":"27 CLUBHOUSE DR","line2":null,"city":"NEW LONDON","state":"NC","zip":"28127"},"incomeTract":null,"incomeBlockGroup":null,"nearestRoad":null,"flu":null,"opportunityZone":null,"oz2Eligibility":null,"source":"nc-montgomery-parcels-37123","appraiserUrl":"https://www.webgis.net/nc/montgomery/PropertyCard.php?pid=666418205274&card=0","gisViewerUrl":"https://www.webgis.net/nc/montgomery/"},"geometry":{"type":"Polygon","coordinates":[[[-80.130839,35.504487],[-80.135004,35.504557],[-80.135833,35.500816],[-80.135353,35.500731],[-80.134985,35.500746],[-80.134294,35.503493],[-80.131332,35.503231],[-80.130839,35.504487]]]}},{"type":"Feature","id":"37123:6663 06 39 7403","properties":{"id":"37123:6663 06 39 7403","parcelId":"6663 06 39 7403","countyFips":"37123","countyName":"Montgomery","state":"North Carolina","marketIds":["Charlotte"],"situsAddress":"BLAINE RD","situsCity":null,"situsZip":null,"jurisdictionCode":null,"ownerName":"LITTLE JOSHUA GLENN","ownerName2":null,"propertyName":null,"zoningCode":null,"zoningDistrict":null,"jurisdictionPrefix":null,"dorCode":null,"acreage":10.0,"centroid":[-80.129482,35.501665],"lastSale":{"date":"2023-01-06","price":60000.0,"qualified":"WD"},"tax":{"marketValue":null,"assessedValue":80800.0,"taxableValue":null,"taxes":null},"mailingAddress":{"line1":"PO BOX 595","line2":null,"city":"HARRISBURG","state":"NC","zip":"28075"},"incomeTract":null,"incomeBlockGroup":null,"nearestRoad":null,"flu":null,"opportunityZone":null,"oz2Eligibility":null,"source":"nc-montgomery-parcels-37123","appraiserUrl":"https://www.webgis.net/nc/montgomery/PropertyCard.php?pid=666306397403&card=0","gisViewerUrl":"https://www.webgis.net/nc/montgomery/"},"geometry":{"type":"Polygon","coordinates":[[[-80.128549,35.502992],[-80.130533,35.503163],[-80.130754,35.500968],[-80.129505,35.501035],[-80.129327,35.501059],[-80.129061,35.501133],[-80.128648,35.501302],[-80.128549,35.502992]]]}},{"type":"Feature","id":"37123:6663 06 39 2462","properties":{"id":"37123:6663 06 39 2462","parcelId":"6663 06 39 2462","countyFips":"37123","countyName":"Montgomery","state":"North Carolina","marketIds":["Charlotte"],"situsAddress":"2390 BLAINE RD","situsCity":null,"situsZip":null,"jurisdictionCode":null,"ownerName":"TROGDON DARRELL","ownerName2":"SOSSOMAN JOHN D JR","propertyName":null,"zoningCode":null,"zoningDistrict":null,"jurisdictionPrefix":null,"dorCode":null,"acreage":5.0,"centroid":[-80.131048,35.502071],"lastSale":{"date":"2004-11-01","price":115000.0,"qualified":"WD"},"tax":{"marketValue":null,"assessedValue":99100.0,"taxableValue":null,"taxes":null},"mailingAddress":{"line1":"544 SHORELINE RD","line2":null,"city":"NEW LONDON","state":"NC","zip":"28127"},"incomeTract":null,"incomeBlockGroup":null,"nearestRoad":null,"flu":null,"opportunityZone":null,"oz2Eligibility":null,"source":"nc-montgomery-parcels-37123","appraiserUrl":"https://www.webgis.net/nc/montgomery/PropertyCard.php?pid=666306392462&card=0","gisViewerUrl":"https://www.webgis.net/nc/montgomery/"},"geometry":{"type":"Polygon","coordinates":[[[-80.130533,35.503163],[-80.131332,35.503231],[-80.131574,35.500924],[-80.130754,35.500968],[-80.130533,35.503163]]]}},{"type":"Feature","id":"37123:6663 06 49 4973","properties":{"id":"37123:6663 06 49 4973","parcelId":"6663 06 49 4973","countyFips":"37123","countyName":"Montgomery","state":"North Carolina","marketIds":["Charlotte"],"situsAddress":"BLAINE RD","situsCity":null,"situsZip":null,"jurisdictionCode":null,"ownerName":"STROUD RODNEY C","ownerName2":"STROUD CATHY T","propertyName":null,"zoningCode":null,"zoningDistrict":null,"jurisdictionPrefix":null,"dorCode":null,"acreage":9.61,"centroid":[-80.12746,35.503112],"lastSale":{"date":null,"price":null,"qualified":null},"tax":{"marketValue":null,"assessedValue":65755.0,"taxableValue":null,"taxes":null},"mailingAddress":{"line1":"PO BOX 5688","line2":null,"city":"HIGH POINT","state":"NC","zip":"27262"},"incomeTract":null,"incomeBlockGroup":null,"nearestRoad":null,"flu":null,"opportunityZone":null,"oz2Eligibility":null,"source":"nc-montgomery-parcels-37123","appraiserUrl":"https://www.webgis.net/nc/montgomery/PropertyCard.php?pid=666306494973&card=0","gisViewerUrl":"https://www.webgis.net/nc/montgomery/"},"geometry":{"type":"Polygon","coordinates":[[[-80.12652,35.504388],[-80.128031,35.504421],[-80.128046,35.502956],[-80.128164,35.501514],[-80.126541,35.50228],[-80.12652,35.504388]]]}},{"type":"Feature","id":"37123:6664 18 30 7142","properties":{"id":"37123:6664 18 30 7142","parcelId":"6664 18 30 7142","countyFips":"37123","countyName":"Montgomery","state":"North Carolina","marketIds":["Charlotte"],"situsAddress":"BLAINE RD, RW","situsCity":null,"situsZip":null,"jurisdictionCode":null,"ownerName":"FURR RALPH C","ownerName2":"FURR DAWN C","propertyName":null,"zoningCode":null,"zoningDistrict":null,"jurisdictionPrefix":null,"dorCode":null,"acreage":10.81,"centroid":[-80.128221,35.504138],"lastSale":{"date":"2002-01-01","price":35000.0,"qualified":"01"},"tax":{"marketValue":null,"assessedValue":23998.0,"taxableValue":null,"taxes":null},"mailingAddress":{"line1":"27 CLUBHOUSE DR","line2":null,"city":"NEW LONDON","state":"NC","zip":"28127"},"incomeTract":null,"incomeBlockGroup":null,"nearestRoad":null,"flu":null,"opportunityZone":null,"oz2Eligibility":null,"source":"nc-montgomery-parcels-37123","appraiserUrl":"https://www.webgis.net/nc/montgomery/PropertyCard.php?pid=666418307142&card=0","gisViewerUrl":"https://www.webgis.net/nc/montgomery/"},"geometry":{"type":"Polygon","coordinates":[[[-80.128031,35.504421],[-80.130839,35.504487],[-80.131332,35.503231],[-80.128165,35.502958],[-80.128288,35.501458],[-80.128164,35.501514],[-80.128046,35.502956],[-80.128031,35.504421]]]}},{"type":"Feature","id":"37123:6663 06 38 0972","properties":{"id":"37123:6663 06 38 0972","parcelId":"6663 06 38 0972","countyFips":"37123","countyName":"Montgomery","state":"North Carolina","marketIds":["Charlotte"],"situsAddress":"2396 BLAINE RD","situsCity":null,"situsZip":null,"jurisdictionCode":null,"ownerName":"HARDIN LLC","ownerName2":null,"propertyName":null,"zoningCode":null,"zoningDistrict":null,"jurisdictionPrefix":null,"dorCode":null,"acreage":17.18,"centroid":[-80.130931,35.500433],"lastSale":{"date":null,"price":null,"qualified":null},"tax":{"marketValue":null,"assessedValue":185034.0,"taxableValue":null,"taxes":null},"mailingAddress":{"line1":"PO BOX 400","line2":null,"city":"LIBERTY","state":"NC","zip":"27298"},"incomeTract":null,"incomeBlockGroup":null,"nearestRoad":null,"flu":null,"opportunityZone":null,"oz2Eligibility":null,"source":"nc-montgomery-parcels-37123","appraiserUrl":"https://www.webgis.net/nc/montgomery/PropertyCard.php?pid=666306380972&card=0","gisViewerUrl":"https://www.webgis.net/nc/montgomery/"},"geometry":{"type":"MultiPolygon","coordinates":[[[[-80.135856,35.500711],[-80.135353,35.500731],[-80.135833,35.500816],[-80.135856,35.500711]]],[[[-80.128355,35.499074],[-80.128154,35.50133],[-80.128975,35.500984],[-80.129376,35.500883],[-80.135234,35.50057],[-80.135266,35.500425],[-80.131156,35.499767],[-80.128355,35.499074]]]]}},{"type":"Feature","id":"37123:6683 00 09 1360","properties":{"id":"37123:6683 00 09 1360","parcelId":"6683 00 09 1360","countyFips":"37123","countyName":"Montgomery","state":"North Carolina","marketIds":["Charlotte"],"situsAddress":"NC HWY 109 N #R","situsCity":null,"situsZip":null,"jurisdictionCode":null,"ownerName":"UNITED STATES FOREST SERVICE","ownerName2":null,"propertyName":null,"zoningCode":null,"zoningDistrict":null,"jurisdictionPrefix":null,"dorCode":null,"acreage":127.26,"centroid":[-80.073848,35.501961],"lastSale":{"date":"1937-04-15","price":null,"qualified":"WD"},"tax":{"marketValue":null,"assessedValue":134195.0,"taxableValue":null,"taxes":null},"mailingAddress":{"line1":".","line2":null,"city":".","state":".","zip":"."},"incomeTract":null,"incomeBlockGroup":null,"nearestRoad":null,"flu":null,"opportunityZone":null,"oz2Eligibility":null,"source":"nc-montgomery-parcels-37123","appraiserUrl":"https://www.webgis.net/nc/montgomery/PropertyCard.php?pid=668300091360&card=0","gisViewerUrl":"https://www.webgis.net/nc/montgomery/"},"geometry":{"type":"Polygon","coordinates":[[[-80.071959,35.497739],[-80.071981,35.498349],[-80.071699,35.498624],[-80.071631,35.498822],[-80.071659,35.499229],[-80.071738,35.499563],[-80.071727,35.499745],[-80.071605,35.499921],[-80.071435,35.500066],[-80.0711,35.500412],[-80.070779,35.501039],[-80.070588,35.501461],[-80.070516,35.501725],[-80.070496,35.501956],[-80.070718,35.502732],[-80.071034,35.503298],[-80.071411,35.503869],[-80.071533,35.504154],[-80.071698,35.504704],[-80.07176,35.504819],[-80.071841,35.504879],[-80.072225,35.505012],[-80.072241,35.505447],[-80.083382,35.505197],[-80.086405,35.50506],[-80.086361,35.50432],[-80.085593,35.504335],[-80.076685,35.504119],[-80.076781,35.50046],[-80.076873,35.497784],[-80.071959,35.497739]]]}},{"type":"Feature","id":"37123:6683 00 19 8782","properties":{"id":"37123:6683 00 19 8782","parcelId":"6683 00 19 8782","countyFips":"37123","countyName":"Montgomery","state":"North Carolina","marketIds":["Charlotte"],"situsAddress":"NC HWY 109 N","situsCity":null,"situsZip":null,"jurisdictionCode":null,"ownerName":"WALL TIMBERLANDS INC","ownerName2":"C/O CHUCK WALL","propertyName":null,"zoningCode":null,"zoningDistrict":null,"jurisdictionPrefix":null,"dorCode":null,"acreage":58.21,"centroid":[-80.07051,35.501591],"lastSale":{"date":"2000-01-01","price":null,"qualified":"01"},"tax":{"marketValue":null,"assessedValue":17463.0,"taxableValue":null,"taxes":null},"mailingAddress":{"line1":"306 COUNTRY CLUB DR","line2":null,"city":"LEXINGTON","state":"NC","zip":"27292"},"incomeTract":null,"incomeBlockGroup":null,"nearestRoad":null,"flu":null,"opportunityZone":null,"oz2Eligibility":null,"source":"nc-montgomery-parcels-37123","appraiserUrl":"https://www.webgis.net/nc/montgomery/PropertyCard.php?pid=668300198782.IF&card=0","gisViewerUrl":"https://www.webgis.net/nc/montgomery/"},"geometry":{"type":"MultiPolygon","coordinates":[[[[-80.065125,35.501284],[-80.065249,35.502161],[-80.06574,35.505595],[-80.072241,35.505447],[-80.072225,35.505012],[-80.071841,35.504879],[-80.07176,35.504819],[-80.071698,35.504704],[-80.071533,35.504154],[-80.071411,35.503869],[-80.071034,35.503298],[-80.070718,35.502732],[-80.070496,35.501956],[-80.070516,35.501725],[-80.070588,35.501461],[-80.070779,35.501039],[-80.0711,35.500412],[-80.071435,35.500066],[-80.071605,35.499921],[-80.071727,35.499745],[-80.071738,35.499563],[-80.071659,35.499229],[-80.071631,35.498822],[-80.071699,35.498624],[-80.071981,35.498349],[-80.071959,35.497739],[-80.071148,35.498873],[-80.069268,35.501147],[-80.064875,35.499523],[-80.065125,35.501284]]],[[[-80.063922,35.499341],[-80.063897,35.499403],[-80.063874,35.499556],[-80.063897,35.499773],[-80.063996,35.499966],[-80.063979,35.500213],[-80.063994,35.500374],[-80.063868,35.500918],[-80.063838,35.501282],[-80.063712,35.501813],[-80.063556,35.502334],[-80.063552,35.502431],[-80.063583,35.50252],[-80.06386,35.502966],[-80.063981,35.503126],[-80.064047,35.503263],[-80.064078,35.503367],[-80.06409,35.503517],[-80.064078,35.503702],[-80.064018,35.503961],[-80.063866,35.504146],[-80.06373,35.50445],[-80.063492,35.504795],[-80.063184,35.505067],[-80.062637,35.505359],[-80.061626,35.505606],[-80.061524,35.505691],[-80.065538,35.5056],[-80.064662,35.499445],[-80.064042,35.499218],[-80.063922,35.499341]]]]}},{"type":"Feature","id":"37123:6663 05 09 6416","properties":{"id":"37123:6663 05 09 6416","parcelId":"6663 05 09 6416","countyFips":"37123","countyName":"Montgomery","state":"North Carolina","marketIds":["Charlotte"],"situsAddress":"BLAINE RD","situsCity":null,"situsZip":null,"jurisdictionCode":null,"ownerName":"JARRETT JEFFREY","ownerName2":"JARRETT RONIE JEAN","propertyName":null,"zoningCode":null,"zoningDistrict":null,"jurisdictionPrefix":null,"dorCode":null,"acreage":24.98,"centroid":[-80.142249,35.500237],"lastSale":{"date":"1988-01-01","price":null,"qualified":"UNK"},"tax":{"marketValue":null,"assessedValue":94624.0,"taxableValue":null,"taxes":null},"mailingAddress":{"line1":"222 JARRETT DR","line2":null,"city":"NEW LONDON","state":"NC","zip":"28127"},"incomeTract":null,"incomeBlockGroup":null,"nearestRoad":null,"flu":null,"opportunityZone":null,"oz2Eligibility":null,"source":"nc-montgomery-parcels-37123","appraiserUrl":"https://www.webgis.net/nc/montgomery/PropertyCard.php?pid=666305096416&card=0","gisViewerUrl":"https://www.webgis.net/nc/montgomery/"},"geometry":{"type":"MultiPolygon","coordinates":[[[[-80.142084,35.500893],[-80.142559,35.501324],[-80.144173,35.500125],[-80.142481,35.498159],[-80.140383,35.499823],[-80.141812,35.501097],[-80.142084,35.500893]]],[[[-80.139714,35.500352],[-80.138682,35.501171],[-80.139087,35.501744],[-80.139208,35.502626],[-80.138269,35.502818],[-80.13829,35.503178],[-80.138229,35.503772],[-80.141124,35.50161],[-80.139714,35.500352]]]]}},{"type":"Feature","id":"37123:6663 05 08 8857","properties":{"id":"37123:6663 05 08 8857","parcelId":"6663 05 08 8857","countyFips":"37123","countyName":"Montgomery","state":"North Carolina","marketIds":["Charlotte"],"situsAddress":"2557 BLAINE RD","situsCity":null,"situsZip":null,"jurisdictionCode":null,"ownerName":"CHANDLER'S GROVE CHURCH","ownerName2":null,"propertyName":null,"zoningCode":null,"zoningDistrict":null,"jurisdictionPrefix":null,"dorCode":null,"acreage":17.74,"centroid":[-80.138918,35.50061],"lastSale":{"date":null,"price":null,"qualified":null},"tax":{"marketValue":null,"assessedValue":372540.0,"taxableValue":null,"taxes":null},"mailingAddress":{"line1":"618  BADIN LAKE RD","line2":null,"city":"NEW LONDON","state":"NC","zip":"28127"},"incomeTract":null,"incomeBlockGroup":null,"nearestRoad":null,"flu":null,"opportunityZone":null,"oz2Eligibility":null,"source":"nc-montgomery-parcels-37123","appraiserUrl":"https://www.webgis.net/nc/montgomery/PropertyCard.php?pid=666305088857&card=0","gisViewerUrl":"https://www.webgis.net/nc/montgomery/"},"geometry":{"type":"MultiPolygon","coordinates":[[[[-80.137367,35.501283],[-80.137386,35.501351],[-80.13747,35.501665],[-80.137934,35.501733],[-80.137883,35.501608],[-80.137806,35.50149],[-80.137568,35.501212],[-80.137367,35.501283]]],[[[-80.140983,35.497927],[-80.137092,35.500462],[-80.137667,35.501043],[-80.137977,35.501403],[-80.138116,35.501646],[-80.138175,35.501933],[-80.139087,35.501744],[-80.138682,35.501171],[-80.142481,35.498159],[-80.140983,35.497927]]]]}}]}