{"type":"FeatureCollection","name":"12115-1_0","features":[{"type":"Feature","id":"12115:0131-01-0001","properties":{"id":"12115:0131-01-0001","parcelId":"0131-01-0001","countyFips":"12115","countyName":"Sarasota","state":"Florida","marketIds":["Tampa"],"situsAddress":"- SARASOTA BAY","situsCity":"OSPREY","situsZip":"34229","jurisdictionCode":null,"ownerName":"SARASOTA COUNTY","ownerName2":null,"propertyName":null,"zoningCode":null,"zoningDistrict":null,"jurisdictionPrefix":null,"dorCode":"082","acreage":114.0,"centroid":[-82.508117,27.21202],"lastSale":{"date":null,"price":null,"qualified":null},"tax":{"marketValue":34200.0,"assessedValue":34200.0,"taxableValue":0.0,"taxes":null},"mailingAddress":{"line1":"OFFICE OF MNGMT & BUDGET","line2":"PO BOX 8","city":"SARASOTA","state":"FL","zip":"34230"},"incomeTract":null,"incomeBlockGroup":null,"nearestRoad":null,"flu":null,"opportunityZone":null,"oz2Eligibility":null,"source":"fl-doh-ehwaters-12115"},"geometry":{"type":"Polygon","coordinates":[[[-82.50623,27.21678],[-82.50518,27.21518],[-82.50461,27.2137],[-82.5046,27.21277],[-82.50564,27.21113],[-82.50473,27.21077],[-82.50464,27.20912],[-82.50728,27.20799],[-82.50676,27.20634],[-82.5069,27.20611],[-82.5087,27.2068],[-82.50927,27.20768],[-82.51044,27.20753],[-82.51029,27.20981],[-82.50947,27.21087],[-82.5097,27.21158],[-82.50966,27.21181],[-82.50896,27.21299],[-82.51078,27.21508],[-82.51159,27.21627],[-82.51159,27.21654],[-82.51031,27.21657],[-82.5098,27.2152],[-82.50843,27.21514],[-82.50737,27.21674],[-82.50623,27.21678]]]}},{"type":"Feature","id":"12115:0125-11-0003","properties":{"id":"12115:0125-11-0003","parcelId":"0125-11-0003","countyFips":"12115","countyName":"Sarasota","state":"Florida","marketIds":["Tampa"],"situsAddress":"8000 S TAMIAMI TRL","situsCity":"SARASOTA","situsZip":"34231","jurisdictionCode":null,"ownerName":"EIDE TTEE ELLING O","ownerName2":null,"propertyName":null,"zoningCode":null,"zoningDistrict":null,"jurisdictionPrefix":null,"dorCode":"008","acreage":70.3559,"centroid":[-82.503601,27.232534],"lastSale":{"date":null,"price":null,"qualified":null},"tax":{"marketValue":8254900.0,"assessedValue":1742322.0,"taxableValue":1717322.0,"taxes":null},"mailingAddress":{"line1":"8000 S TAMIAMI TRL","line2":null,"city":"SARASOTA","state":"FL","zip":"34231"},"incomeTract":null,"incomeBlockGroup":null,"nearestRoad":null,"flu":null,"opportunityZone":null,"oz2Eligibility":null,"source":"fl-doh-ehwaters-12115"},"geometry":{"type":"Polygon","coordinates":[[[-82.4979,27.23292],[-82.50012,27.23293],[-82.50012,27.23174],[-82.50281,27.23022],[-82.50489,27.23021],[-82.50477,27.23071],[-82.50484,27.23131],[-82.50498,27.23155],[-82.50532,27.23153],[-82.50528,27.23165],[-82.50498,27.23157],[-82.50497,27.2317],[-82.50496,27.23234],[-82.5052,27.23323],[-82.5055,27.23359],[-82.50681,27.23427],[-82.50737,27.23477],[-82.50158,27.23474],[-82.50159,27.23646],[-82.49803,27.23324],[-82.4979,27.23292]]]}},{"type":"Feature","id":"12115:0125-01-0001","properties":{"id":"12115:0125-01-0001","parcelId":"0125-01-0001","countyFips":"12115","countyName":"Sarasota","state":"Florida","marketIds":["Tampa"],"situsAddress":"7979 S TAMIAMI TRL","situsCity":"SARASOTA","situsZip":"34231","jurisdictionCode":null,"ownerName":"SUNRISE IV LAKE POINT WOODS SL","ownerName2":null,"propertyName":null,"zoningCode":null,"zoningDistrict":null,"jurisdictionPrefix":null,"dorCode":"006","acreage":40.2061,"centroid":[-82.500557,27.238329],"lastSale":{"date":null,"price":null,"qualified":null},"tax":{"marketValue":16943400.0,"assessedValue":16943400.0,"taxableValue":16943400.0,"taxes":null},"mailingAddress":{"line1":"C/O WESTMARK RETIREMENT COM","line2":"2020 W RUDASIL RD ATTN PROP TA","city":"TUCSON","state":"AZ","zip":"85704"},"incomeTract":null,"incomeBlockGroup":null,"nearestRoad":null,"flu":null,"opportunityZone":null,"oz2Eligibility":null,"source":"fl-doh-ehwaters-12115"},"geometry":{"type":"Polygon","coordinates":[[[-82.49998,27.2403],[-82.49997,27.23905],[-82.49963,27.23886],[-82.49888,27.23903],[-82.49847,27.23875],[-82.4977,27.23884],[-82.4977,27.23664],[-82.50025,27.23662],[-82.50025,27.23704],[-82.50056,27.23722],[-82.50089,27.23722],[-82.50124,27.23686],[-82.50319,27.23861],[-82.50305,27.23873],[-82.50358,27.2392],[-82.50357,27.2403],[-82.49998,27.2403]]]}},{"type":"Feature","id":"12115:0144-01-0016","properties":{"id":"12115:0144-01-0016","parcelId":"0144-01-0016","countyFips":"12115","countyName":"Sarasota","state":"Florida","marketIds":["Tampa"],"situsAddress":"1800 N CASEY KEY RD","situsCity":"OSPREY","situsZip":"34229","jurisdictionCode":null,"ownerName":"SARASOTA COUNTY","ownerName2":null,"propertyName":null,"zoningCode":null,"zoningDistrict":null,"jurisdictionPrefix":null,"dorCode":"082","acreage":39.7837,"centroid":[-82.507061,27.205869],"lastSale":{"date":null,"price":null,"qualified":null},"tax":{"marketValue":2967500.0,"assessedValue":2967500.0,"taxableValue":0.0,"taxes":null},"mailingAddress":{"line1":"OFFICE OF MNGMT & BUDGET","line2":"PO BOX 8","city":"SARASOTA","state":"FL","zip":"34230"},"incomeTract":null,"incomeBlockGroup":null,"nearestRoad":null,"flu":null,"opportunityZone":null,"oz2Eligibility":null,"source":"fl-doh-ehwaters-12115"},"geometry":{"type":"Polygon","coordinates":[[[-82.51191,27.21081],[-82.51076,27.21099],[-82.51213,27.21026],[-82.51154,27.20988],[-82.51166,27.20974],[-82.512,27.20993],[-82.51214,27.20946],[-82.51109,27.20777],[-82.50686,27.2054],[-82.50368,27.20461],[-82.50348,27.20448],[-82.50371,27.20403],[-82.50355,27.20362],[-82.50313,27.20325],[-82.50379,27.20285],[-82.50484,27.20268],[-82.50425,27.20322],[-82.50393,27.20296],[-82.50361,27.20323],[-82.50397,27.20356],[-82.50422,27.20348],[-82.50395,27.20376],[-82.50417,27.20397],[-82.50403,27.2045],[-82.50463,27.20426],[-82.50503,27.20442],[-82.50541,27.20365],[-82.50537,27.20298],[-82.50588,27.20256],[-82.50759,27.20556],[-82.50984,27.20455],[-82.51361,27.2111],[-82.51231,27.21119],[-82.51201,27.21084],[-82.51191,27.21081]]]}},{"type":"Feature","id":"12115:0125-02-0001","properties":{"id":"12115:0125-02-0001","parcelId":"0125-02-0001","countyFips":"12115","countyName":"Sarasota","state":"Florida","marketIds":["Tampa"],"situsAddress":"7914 S TAMIAMI TRL","situsCity":"SARASOTA","situsZip":"34231","jurisdictionCode":null,"ownerName":"BMR FUNDING LLC","ownerName2":null,"propertyName":null,"zoningCode":null,"zoningDistrict":null,"jurisdictionPrefix":null,"dorCode":"010","acreage":18.4239,"centroid":[-82.50453,27.237996],"lastSale":{"date":null,"price":null,"qualified":null},"tax":{"marketValue":5787100.0,"assessedValue":5787100.0,"taxableValue":5787100.0,"taxes":null},"mailingAddress":{"line1":"2 GREENWICH PLAZA FL 1","line2":null,"city":"GREENWICH","state":"CT","zip":"68300"},"incomeTract":null,"incomeBlockGroup":null,"nearestRoad":null,"flu":null,"opportunityZone":null,"oz2Eligibility":null,"source":"fl-doh-ehwaters-12115"},"geometry":{"type":"Polygon","coordinates":[[[-82.50575,27.23846],[-82.50574,27.24001],[-82.50557,27.24003],[-82.50243,27.23721],[-82.50265,27.23702],[-82.50265,27.2366],[-82.50572,27.2366],[-82.50573,27.23804],[-82.50575,27.23846]]]}},{"type":"Feature","id":"12115:0125-11-0004","properties":{"id":"12115:0125-11-0004","parcelId":"0125-11-0004","countyFips":"12115","countyName":"Sarasota","state":"Florida","marketIds":["Tampa"],"situsAddress":"- N/A","situsCity":"SARASOTA","situsZip":"34231","jurisdictionCode":null,"ownerName":"BAYONNE DEVELOPMENT LLC","ownerName2":null,"propertyName":null,"zoningCode":null,"zoningDistrict":null,"jurisdictionPrefix":null,"dorCode":"099","acreage":13.7425,"centroid":[-82.507055,27.23563],"lastSale":{"date":null,"price":null,"qualified":null},"tax":{"marketValue":5475000.0,"assessedValue":5475000.0,"taxableValue":5475000.0,"taxes":null},"mailingAddress":{"line1":"5000 E GRAND RIVER","line2":null,"city":"HOWELL","state":"MI","zip":"48843"},"incomeTract":null,"incomeBlockGroup":null,"nearestRoad":null,"flu":null,"opportunityZone":null,"oz2Eligibility":null,"source":"fl-doh-ehwaters-12115"},"geometry":{"type":"Polygon","coordinates":[[[-82.5083,27.23554],[-82.50786,27.23661],[-82.50525,27.2366],[-82.50525,27.23476],[-82.50737,27.23477],[-82.5083,27.2355],[-82.5083,27.23554]]]}},{"type":"Feature","id":"12115:0125-10-0005","properties":{"id":"12115:0125-10-0005","parcelId":"0125-10-0005","countyFips":"12115","countyName":"Sarasota","state":"Florida","marketIds":["Tampa"],"situsAddress":"8050 - SPRINGFIELD DR","situsCity":"SARASOTA","situsZip":"34231","jurisdictionCode":null,"ownerName":"SARASOTA COUNTY","ownerName2":null,"propertyName":null,"zoningCode":null,"zoningDistrict":null,"jurisdictionPrefix":null,"dorCode":"082","acreage":11.2681,"centroid":[-82.503146,27.235587],"lastSale":{"date":null,"price":null,"qualified":null},"tax":{"marketValue":590600.0,"assessedValue":590600.0,"taxableValue":0.0,"taxes":null},"mailingAddress":{"line1":"OFFICE OF MNGMT & BUDGET","line2":"PO BOX 8","city":"SARASOTA","state":"FL","zip":"34230"},"incomeTract":null,"incomeBlockGroup":null,"nearestRoad":null,"flu":null,"opportunityZone":null,"oz2Eligibility":null,"source":"fl-doh-ehwaters-12115"},"geometry":{"type":"Polygon","coordinates":[[[-82.50466,27.23475],[-82.50525,27.23476],[-82.50525,27.2366],[-82.50326,27.2366],[-82.50326,27.23489],[-82.50171,27.23488],[-82.50175,27.2366],[-82.50159,27.23646],[-82.50158,27.23474],[-82.50466,27.23475]]]}},{"type":"Feature","id":"12115:0125-04-0028","properties":{"id":"12115:0125-04-0028","parcelId":"0125-04-0028","countyFips":"12115","countyName":"Sarasota","state":"Florida","marketIds":["Tampa"],"situsAddress":"- SARASOTA BAY","situsCity":"SARASOTA","situsZip":"34231","jurisdictionCode":null,"ownerName":"KELLER JR CHARLES J","ownerName2":null,"propertyName":null,"zoningCode":null,"zoningDistrict":null,"jurisdictionPrefix":null,"dorCode":"095","acreage":11.02,"centroid":[-82.51094,27.238371],"lastSale":{"date":null,"price":null,"qualified":null},"tax":{"marketValue":1700.0,"assessedValue":1700.0,"taxableValue":1700.0,"taxes":null},"mailingAddress":{"line1":"PO BOX 123","line2":null,"city":"ST CHARLES","state":"MO","zip":"63302"},"incomeTract":null,"incomeBlockGroup":null,"nearestRoad":null,"flu":null,"opportunityZone":null,"oz2Eligibility":null,"source":"fl-doh-ehwaters-12115"},"geometry":{"type":"Polygon","coordinates":[[[-82.50985,27.23893],[-82.50972,27.23879],[-82.51103,27.23726],[-82.51204,27.2368],[-82.51243,27.23792],[-82.51195,27.23864],[-82.51063,27.23969],[-82.50987,27.23894],[-82.50985,27.23893]]]}},{"type":"Feature","id":"12115:0129-16-0002","properties":{"id":"12115:0129-16-0002","parcelId":"0129-16-0002","countyFips":"12115","countyName":"Sarasota","state":"Florida","marketIds":["Tampa"],"situsAddress":"8918 - MIDNIGHT PASS RD","situsCity":"SARASOTA","situsZip":"34242","jurisdictionCode":null,"ownerName":"SARASOTA COUNTY","ownerName2":null,"propertyName":null,"zoningCode":null,"zoningDistrict":null,"jurisdictionPrefix":null,"dorCode":"082","acreage":10.5108,"centroid":[-82.516103,27.218609],"lastSale":{"date":null,"price":null,"qualified":null},"tax":{"marketValue":7009700.0,"assessedValue":7009700.0,"taxableValue":0.0,"taxes":null},"mailingAddress":{"line1":"OFFICE OF MNGMT & BUDGET","line2":"PO BOX 8","city":"SARASOTA","state":"FL","zip":"34230"},"incomeTract":null,"incomeBlockGroup":null,"nearestRoad":null,"flu":null,"opportunityZone":null,"oz2Eligibility":null,"source":"fl-doh-ehwaters-12115"},"geometry":{"type":"Polygon","coordinates":[[[-82.51554,27.21996],[-82.51484,27.21846],[-82.51522,27.21846],[-82.51552,27.21895],[-82.51593,27.21928],[-82.51643,27.21925],[-82.51671,27.2191],[-82.51677,27.21887],[-82.51661,27.21866],[-82.51596,27.21891],[-82.51614,27.21862],[-82.51599,27.21809],[-82.51605,27.21748],[-82.51571,27.21685],[-82.51638,27.21684],[-82.51785,27.21997],[-82.51554,27.21996]]]}},{"type":"Feature","id":"12115:0112-04-0036","properties":{"id":"12115:0112-04-0036","parcelId":"0112-04-0036","countyFips":"12115","countyName":"Sarasota","state":"Florida","marketIds":["Tampa"],"situsAddress":"7435 S TAMIAMI TRL","situsCity":"SARASOTA","situsZip":"34231","jurisdictionCode":null,"ownerName":"7435 ASSOCIATES","ownerName2":null,"propertyName":null,"zoningCode":null,"zoningDistrict":null,"jurisdictionPrefix":null,"dorCode":"027","acreage":7.9798,"centroid":[-82.51034,27.247216],"lastSale":{"date":null,"price":null,"qualified":null},"tax":{"marketValue":5414300.0,"assessedValue":5414300.0,"taxableValue":5414300.0,"taxes":null},"mailingAddress":{"line1":"7435 S TAMIAMI TRL","line2":null,"city":"SARASOTA","state":"FL","zip":"34231"},"incomeTract":null,"incomeBlockGroup":null,"nearestRoad":null,"flu":null,"opportunityZone":null,"oz2Eligibility":null,"source":"fl-doh-ehwaters-12115"},"geometry":{"type":"Polygon","coordinates":[[[-82.51129,27.24665],[-82.51206,27.24791],[-82.50977,27.24789],[-82.50974,27.2474],[-82.50912,27.2474],[-82.50912,27.24661],[-82.51128,27.24665],[-82.51129,27.24665]]]}},{"type":"Feature","id":"12115:0125-10-0001","properties":{"id":"12115:0125-10-0001","parcelId":"0125-10-0001","countyFips":"12115","countyName":"Sarasota","state":"Florida","marketIds":["Tampa"],"situsAddress":"7950 S TAMIAMI TRL","situsCity":"SARASOTA","situsZip":"34231","jurisdictionCode":null,"ownerName":"CHURCH OF THE COVENANT INC","ownerName2":null,"propertyName":null,"zoningCode":null,"zoningDistrict":null,"jurisdictionPrefix":null,"dorCode":"071","acreage":6.9,"centroid":[-82.502526,27.235914],"lastSale":{"date":null,"price":null,"qualified":null},"tax":{"marketValue":2146500.0,"assessedValue":2146500.0,"taxableValue":0.0,"taxes":null},"mailingAddress":{"line1":"7950 S TAMIAMI TRL","line2":null,"city":"SARASOTA","state":"FL","zip":"34231"},"incomeTract":null,"incomeBlockGroup":null,"nearestRoad":null,"flu":null,"opportunityZone":null,"oz2Eligibility":null,"source":"fl-doh-ehwaters-12115"},"geometry":{"type":"Polygon","coordinates":[[[-82.50265,27.2366],[-82.50175,27.2366],[-82.50171,27.23488],[-82.50326,27.23489],[-82.50326,27.2366],[-82.50265,27.2366]]]}},{"type":"Feature","id":"12115:0112-01-0008","properties":{"id":"12115:0112-01-0008","parcelId":"0112-01-0008","countyFips":"12115","countyName":"Sarasota","state":"Florida","marketIds":["Tampa"],"situsAddress":"2874 - HARDEE DR","situsCity":"SARASOTA","situsZip":"34231","jurisdictionCode":null,"ownerName":"SARASOTA COUNTY","ownerName2":null,"propertyName":null,"zoningCode":null,"zoningDistrict":null,"jurisdictionPrefix":null,"dorCode":"082","acreage":6.8,"centroid":[-82.500438,27.245979],"lastSale":{"date":null,"price":null,"qualified":null},"tax":{"marketValue":8700.0,"assessedValue":8700.0,"taxableValue":0.0,"taxes":null},"mailingAddress":{"line1":"OFFICE OF MNGMT & BUDGET","line2":"PO BOX 8","city":"SARASOTA","state":"FL","zip":"34230"},"incomeTract":null,"incomeBlockGroup":null,"nearestRoad":null,"flu":null,"opportunityZone":null,"oz2Eligibility":null,"source":"fl-doh-ehwaters-12115"},"geometry":{"type":"Polygon","coordinates":[[[-82.49919,27.24736],[-82.49916,27.24426],[-82.49926,27.24426],[-82.49926,27.24541],[-82.4996,27.24541],[-82.49975,27.24573],[-82.50364,27.24575],[-82.50364,27.24597],[-82.50253,27.24597],[-82.50176,27.24622],[-82.50058,27.24621],[-82.50054,27.24648],[-82.50006,27.24642],[-82.50012,27.24611],[-82.49977,27.24614],[-82.49929,27.24659],[-82.49929,27.24736],[-82.49919,27.24736]]]}},{"type":"Feature","id":"12115:0145-06-0003","properties":{"id":"12115:0145-06-0003","parcelId":"0145-06-0003","countyFips":"12115","countyName":"Sarasota","state":"Florida","marketIds":["Tampa"],"situsAddress":"1360 N CASEY KEY RD","situsCity":"OSPREY","situsZip":"34229","jurisdictionCode":null,"ownerName":"THORNE TTEE OAKLEIGH","ownerName2":null,"propertyName":null,"zoningCode":null,"zoningDistrict":null,"jurisdictionPrefix":null,"dorCode":"008","acreage":5.862,"centroid":[-82.506182,27.201007],"lastSale":{"date":null,"price":null,"qualified":null},"tax":{"marketValue":11571100.0,"assessedValue":11571100.0,"taxableValue":11571100.0,"taxes":null},"mailingAddress":{"line1":"ONE E 66TH ST APT 5E","line2":null,"city":"NEW YORK","state":"NY","zip":"10021"},"incomeTract":null,"incomeBlockGroup":null,"nearestRoad":null,"flu":null,"opportunityZone":null,"oz2Eligibility":null,"source":"fl-doh-ehwaters-12115"},"geometry":{"type":"Polygon","coordinates":[[[-82.50709,27.20147],[-82.50605,27.20194],[-82.50608,27.20166],[-82.50592,27.20119],[-82.50566,27.20098],[-82.5055,27.20019],[-82.50635,27.1998],[-82.50681,27.20083],[-82.50709,27.20147]],[[-82.50786,27.20113],[-82.50722,27.20141],[-82.50648,27.19975],[-82.50706,27.19949],[-82.50785,27.20112],[-82.50786,27.20113]]]}},{"type":"Feature","id":"12115:0129-01-0001","properties":{"id":"12115:0129-01-0001","parcelId":"0129-01-0001","countyFips":"12115","countyName":"Sarasota","state":"Florida","marketIds":["Tampa"],"situsAddress":"8918 - MIDNIGHT PASS RD","situsCity":"SARASOTA","situsZip":"34242","jurisdictionCode":null,"ownerName":"SARASOTA COUNTY","ownerName2":null,"propertyName":null,"zoningCode":null,"zoningDistrict":null,"jurisdictionPrefix":null,"dorCode":"082","acreage":5.6923,"centroid":[-82.518814,27.222714],"lastSale":{"date":null,"price":null,"qualified":null},"tax":{"marketValue":4936400.0,"assessedValue":4936400.0,"taxableValue":0.0,"taxes":null},"mailingAddress":{"line1":"OFFICE OF MNGMT & BUDGET","line2":"PO BOX 8","city":"SARASOTA","state":"FL","zip":"34230"},"incomeTract":null,"incomeBlockGroup":null,"nearestRoad":null,"flu":null,"opportunityZone":null,"oz2Eligibility":null,"source":"fl-doh-ehwaters-12115"},"geometry":{"type":"Polygon","coordinates":[[[-82.51918,27.22413],[-82.51905,27.22372],[-82.51918,27.22372],[-82.51888,27.22282],[-82.51746,27.22024],[-82.51806,27.22024],[-82.51989,27.22413],[-82.51918,27.22413]]]}},{"type":"Feature","id":"12115:0125-04-0026","properties":{"id":"12115:0125-04-0026","parcelId":"0125-04-0026","countyFips":"12115","countyName":"Sarasota","state":"Florida","marketIds":["Tampa"],"situsAddress":"- SOUTHPOINTE DR","situsCity":"SARASOTA","situsZip":"34231","jurisdictionCode":null,"ownerName":"CORAL COVE INC","ownerName2":null,"propertyName":null,"zoningCode":null,"zoningDistrict":null,"jurisdictionPrefix":null,"dorCode":"095","acreage":5.4,"centroid":[-82.512182,27.239233],"lastSale":{"date":null,"price":null,"qualified":null},"tax":{"marketValue":400.0,"assessedValue":400.0,"taxableValue":400.0,"taxes":null},"mailingAddress":{"line1":"C/O CHARLES MILLER","line2":"1725 HONORE AVE","city":"SARASOTA","state":"FL","zip":"34232"},"incomeTract":null,"incomeBlockGroup":null,"nearestRoad":null,"flu":null,"opportunityZone":null,"oz2Eligibility":null,"source":"fl-doh-ehwaters-12115"},"geometry":{"type":"Polygon","coordinates":[[[-82.51151,27.24036],[-82.51273,27.23945],[-82.51278,27.23916],[-82.51257,27.23895],[-82.51207,27.23867],[-82.51069,27.23975],[-82.51063,27.23969],[-82.51195,27.23864],[-82.51243,27.23792],[-82.51263,27.23846],[-82.5133,27.23878],[-82.51354,27.23939],[-82.51153,27.24081],[-82.51151,27.24036]]]}},{"type":"Feature","id":"12115:0111-13-0025","properties":{"id":"12115:0111-13-0025","parcelId":"0111-13-0025","countyFips":"12115","countyName":"Sarasota","state":"Florida","marketIds":["Tampa"],"situsAddress":"7333 S TAMIAMI TRL","situsCity":"SARASOTA","situsZip":"34231","jurisdictionCode":null,"ownerName":"SUN IMPORTS INC","ownerName2":null,"propertyName":null,"zoningCode":null,"zoningDistrict":null,"jurisdictionPrefix":null,"dorCode":"027","acreage":5.3969,"centroid":[-82.511503,27.248552],"lastSale":{"date":null,"price":null,"qualified":null},"tax":{"marketValue":4706900.0,"assessedValue":4706900.0,"taxableValue":4706900.0,"taxes":null},"mailingAddress":{"line1":"7021 S TAMIAMI TRL STE D","line2":null,"city":"SARASOTA","state":"FL","zip":"34231"},"incomeTract":null,"incomeBlockGroup":null,"nearestRoad":null,"flu":null,"opportunityZone":null,"oz2Eligibility":null,"source":"fl-doh-ehwaters-12115"},"geometry":{"type":"Polygon","coordinates":[[[-82.51259,27.24881],[-82.51276,27.24909],[-82.51144,27.24909],[-82.51144,27.24881],[-82.5112,27.2484],[-82.5098,27.24837],[-82.50977,27.24789],[-82.51206,27.24791],[-82.51247,27.2486],[-82.51259,27.24881]]]}},{"type":"Feature","id":"12115:0127-03-0019","properties":{"id":"12115:0127-03-0019","parcelId":"0127-03-0019","countyFips":"12115","countyName":"Sarasota","state":"Florida","marketIds":["Tampa"],"situsAddress":"7725 - MIDNIGHT PASS RD","situsCity":"SARASOTA","situsZip":"34242","jurisdictionCode":null,"ownerName":"SWALM JR CO-TTEE D CLARK","ownerName2":null,"propertyName":null,"zoningCode":null,"zoningDistrict":null,"jurisdictionPrefix":null,"dorCode":"008","acreage":5.0728,"centroid":[-82.52377,27.23885],"lastSale":{"date":"2010-10-01","price":100.0,"qualified":"11"},"tax":{"marketValue":6533900.0,"assessedValue":6533900.0,"taxableValue":6508900.0,"taxes":null},"mailingAddress":{"line1":"6547 MIDNIGHT PASS RD UNIT 63","line2":null,"city":"SARASOTA","state":"FL","zip":"34242"},"incomeTract":null,"incomeBlockGroup":null,"nearestRoad":null,"flu":null,"opportunityZone":null,"oz2Eligibility":null,"source":"fl-doh-ehwaters-12115"},"geometry":{"type":"Polygon","coordinates":[[[-82.52305,27.23874],[-82.5249,27.23793],[-82.52538,27.23858],[-82.52317,27.23958],[-82.52306,27.23946],[-82.52306,27.23881],[-82.52305,27.23874]]]}}]}