{"type":"FeatureCollection","name":"45051-14_28","features":[{"type":"Feature","id":"45051:0520001104","properties":{"id":"45051:0520001104","parcelId":"0520001104","countyFips":"45051","countyName":"Horry","state":"South Carolina","marketIds":["Charleston"],"situsAddress":null,"situsCity":null,"situsZip":null,"jurisdictionCode":null,"ownerName":"LEWIS & SONS LLC ETAL","ownerName2":null,"propertyName":null,"zoningCode":null,"zoningDistrict":null,"jurisdictionPrefix":null,"dorCode":"113","acreage":26.54,"centroid":[-79.262406,34.033514],"lastSale":{"date":"2018-12-14","price":null,"qualified":null},"tax":{"marketValue":359680.0,"assessedValue":370.0,"taxableValue":226987.0,"taxes":null},"mailingAddress":{"line1":"947 HUGGINS SHORTCUT RD","line2":null,"city":"GALIVANTS FERRY","state":"SC","zip":"29544"},"incomeTract":null,"incomeBlockGroup":null,"nearestRoad":null,"flu":null,"opportunityZone":null,"oz2Eligibility":null,"source":"sc-horry-parcels-45051","appraiserUrl":"https://www.horrycountysc.gov/apps/LandRecords/?PIN=0520001104","gisViewerUrl":"https://www.horrycounty.org/gis/parcels/"},"geometry":{"type":"Polygon","coordinates":[[[-79.258515,34.033831],[-79.260504,34.034427],[-79.263011,34.035178],[-79.263162,34.03471],[-79.263227,34.034107],[-79.263492,34.033636],[-79.263789,34.033418],[-79.264173,34.03288],[-79.264332,34.032703],[-79.261391,34.031674],[-79.26087,34.032095],[-79.258515,34.033831]]]}},{"type":"Feature","id":"45051:0520001038","properties":{"id":"45051:0520001038","parcelId":"0520001038","countyFips":"45051","countyName":"Horry","state":"South Carolina","marketIds":["Charleston"],"situsAddress":null,"situsCity":null,"situsZip":null,"jurisdictionCode":null,"ownerName":"FLOYD MARY JACQUELINE","ownerName2":null,"propertyName":null,"zoningCode":null,"zoningDistrict":null,"jurisdictionPrefix":null,"dorCode":"113","acreage":11.0,"centroid":[-79.252635,34.02771],"lastSale":{"date":"2014-01-10","price":null,"qualified":null},"tax":{"marketValue":259600.0,"assessedValue":150.0,"taxableValue":45999.0,"taxes":null},"mailingAddress":{"line1":"7849 AUSTIN GARDEN CT","line2":null,"city":"SHERWOOD","state":"AR","zip":"72120"},"incomeTract":null,"incomeBlockGroup":null,"nearestRoad":null,"flu":null,"opportunityZone":null,"oz2Eligibility":null,"source":"sc-horry-parcels-45051","appraiserUrl":"https://www.horrycountysc.gov/apps/LandRecords/?PIN=0520001038","gisViewerUrl":"https://www.horrycounty.org/gis/parcels/"},"geometry":{"type":"Polygon","coordinates":[[[-79.251037,34.027889],[-79.251113,34.027996],[-79.251599,34.028672],[-79.254589,34.028658],[-79.253905,34.026954],[-79.253692,34.026649],[-79.252511,34.027154],[-79.251037,34.027889]]]}},{"type":"Feature","id":"45051:0520001015","properties":{"id":"45051:0520001015","parcelId":"0520001015","countyFips":"45051","countyName":"Horry","state":"South Carolina","marketIds":["Charleston"],"situsAddress":null,"situsCity":null,"situsZip":null,"jurisdictionCode":null,"ownerName":"LEWIS & SONS LLC","ownerName2":null,"propertyName":null,"zoningCode":null,"zoningDistrict":null,"jurisdictionPrefix":null,"dorCode":"113","acreage":68.0,"centroid":[-79.255458,34.03331],"lastSale":{"date":"2026-06-01","price":null,"qualified":null},"tax":{"marketValue":846358.0,"assessedValue":690.0,"taxableValue":338261.0,"taxes":null},"mailingAddress":{"line1":"947 HUGGINS SHORTCUT RD","line2":null,"city":"GALIVANTS FERRY","state":"SC","zip":"29544"},"incomeTract":null,"incomeBlockGroup":null,"nearestRoad":null,"flu":null,"opportunityZone":null,"oz2Eligibility":null,"source":"sc-horry-parcels-45051","appraiserUrl":"https://www.horrycountysc.gov/apps/LandRecords/?PIN=0520001015","gisViewerUrl":"https://www.horrycounty.org/gis/parcels/"},"geometry":{"type":"Polygon","coordinates":[[[-79.253157,34.032459],[-79.25316,34.032902],[-79.252408,34.034356],[-79.252597,34.034476],[-79.256108,34.036209],[-79.256343,34.035888],[-79.257166,34.034941],[-79.257819,34.034217],[-79.258003,34.034038],[-79.258396,34.033695],[-79.258691,34.033468],[-79.260381,34.032236],[-79.25375,34.029929],[-79.253398,34.030795],[-79.252791,34.031229],[-79.253155,34.03213],[-79.253157,34.032459]]]}},{"type":"Feature","id":"45051:0520001111","properties":{"id":"45051:0520001111","parcelId":"0520001111","countyFips":"45051","countyName":"Horry","state":"South Carolina","marketIds":["Charleston"],"situsAddress":null,"situsCity":null,"situsZip":null,"jurisdictionCode":null,"ownerName":"FLOYD MARY JACQUELINE","ownerName2":null,"propertyName":null,"zoningCode":null,"zoningDistrict":null,"jurisdictionPrefix":null,"dorCode":"112","acreage":14.5,"centroid":[-79.250957,34.030011],"lastSale":{"date":"2015-04-27","price":null,"qualified":null},"tax":{"marketValue":333065.0,"assessedValue":3810.0,"taxableValue":119433.0,"taxes":null},"mailingAddress":{"line1":"7849 AUSTIN GARDENS CT","line2":null,"city":"SHERWOOD","state":"AR","zip":"72120"},"incomeTract":null,"incomeBlockGroup":null,"nearestRoad":null,"flu":null,"opportunityZone":null,"oz2Eligibility":null,"source":"sc-horry-parcels-45051","appraiserUrl":"https://www.horrycountysc.gov/apps/LandRecords/?PIN=0520001111","gisViewerUrl":"https://www.horrycounty.org/gis/parcels/"},"geometry":{"type":"MultiPolygon","coordinates":[[[[-79.249879,34.029838],[-79.249905,34.030607],[-79.251695,34.031362],[-79.251717,34.030478],[-79.251842,34.030013],[-79.251815,34.028928],[-79.249846,34.028849],[-79.249879,34.029838]]],[[[-79.249292,34.028573],[-79.248561,34.028729],[-79.248721,34.030173],[-79.249802,34.030494],[-79.249734,34.028453],[-79.249292,34.028573]]]]}},{"type":"Feature","id":"45051:0520001103","properties":{"id":"45051:0520001103","parcelId":"0520001103","countyFips":"45051","countyName":"Horry","state":"South Carolina","marketIds":["Charleston"],"situsAddress":null,"situsCity":null,"situsZip":null,"jurisdictionCode":null,"ownerName":"ALTMAN FARM LLC","ownerName2":null,"propertyName":null,"zoningCode":null,"zoningDistrict":null,"jurisdictionPrefix":null,"dorCode":"113","acreage":40.94,"centroid":[-79.257409,34.029682],"lastSale":{"date":"2014-12-08","price":null,"qualified":null},"tax":{"marketValue":603800.0,"assessedValue":290.0,"taxableValue":226267.0,"taxes":null},"mailingAddress":{"line1":"307 BLACK OAK BLVD","line2":null,"city":"SUMMERVILLE","state":"SC","zip":"29485"},"incomeTract":null,"incomeBlockGroup":null,"nearestRoad":null,"flu":null,"opportunityZone":null,"oz2Eligibility":null,"source":"sc-horry-parcels-45051","appraiserUrl":"https://www.horrycountysc.gov/apps/LandRecords/?PIN=0520001103","gisViewerUrl":"https://www.horrycounty.org/gis/parcels/"},"geometry":{"type":"Polygon","coordinates":[[[-79.25375,34.029929],[-79.25375,34.029929],[-79.260381,34.032236],[-79.260736,34.031974],[-79.261207,34.031573],[-79.259784,34.030392],[-79.257946,34.028768],[-79.255734,34.027084],[-79.255622,34.02718],[-79.255184,34.027758],[-79.25375,34.029929]]]}},{"type":"Feature","id":"45051:0650001002","properties":{"id":"45051:0650001002","parcelId":"0650001002","countyFips":"45051","countyName":"Horry","state":"South Carolina","marketIds":["Charleston"],"situsAddress":null,"situsCity":null,"situsZip":null,"jurisdictionCode":null,"ownerName":"WOODLE THURMAN DEDRIC ETAL","ownerName2":null,"propertyName":null,"zoningCode":null,"zoningDistrict":null,"jurisdictionPrefix":null,"dorCode":"112","acreage":87.47,"centroid":[-79.277092,34.003019],"lastSale":{"date":"2014-09-08","price":null,"qualified":null},"tax":{"marketValue":751760.0,"assessedValue":1340.0,"taxableValue":311547.0,"taxes":null},"mailingAddress":{"line1":"9500 APPLESAUCE DR","line2":null,"city":"MYRTLE BEACH","state":"SC","zip":"29588"},"incomeTract":null,"incomeBlockGroup":null,"nearestRoad":null,"flu":null,"opportunityZone":null,"oz2Eligibility":null,"source":"sc-horry-parcels-45051","appraiserUrl":"https://www.horrycountysc.gov/apps/LandRecords/?PIN=0650001002","gisViewerUrl":"https://www.horrycounty.org/gis/parcels/"},"geometry":{"type":"Polygon","coordinates":[[[-79.272437,34.004701],[-79.273392,34.005965],[-79.274151,34.005855],[-79.284526,34.003486],[-79.284556,34.001129],[-79.278411,34.000613],[-79.277833,34.001317],[-79.277704,34.001519],[-79.27738,34.002111],[-79.277278,34.002222],[-79.277158,34.002315],[-79.274267,34.003671],[-79.273109,34.004349],[-79.272437,34.004701]]]}},{"type":"Feature","id":"45051:0520001078","properties":{"id":"45051:0520001078","parcelId":"0520001078","countyFips":"45051","countyName":"Horry","state":"South Carolina","marketIds":["Charleston"],"situsAddress":null,"situsCity":null,"situsZip":null,"jurisdictionCode":null,"ownerName":"LEWIS & SONS LLC","ownerName2":null,"propertyName":null,"zoningCode":null,"zoningDistrict":null,"jurisdictionPrefix":null,"dorCode":"113","acreage":38.68,"centroid":[-79.253121,34.035372],"lastSale":{"date":"2001-01-04","price":null,"qualified":null},"tax":{"marketValue":649824.0,"assessedValue":430.0,"taxableValue":151918.0,"taxes":null},"mailingAddress":{"line1":"947 HUGGINS SHORTCUT RD","line2":null,"city":"GALIVANTS FERRY","state":"SC","zip":"29544"},"incomeTract":null,"incomeBlockGroup":null,"nearestRoad":null,"flu":null,"opportunityZone":null,"oz2Eligibility":null,"source":"sc-horry-parcels-45051","appraiserUrl":"https://www.horrycountysc.gov/apps/LandRecords/?PIN=0520001078","gisViewerUrl":"https://www.horrycounty.org/gis/parcels/"},"geometry":{"type":"MultiPolygon","coordinates":[[[[-79.251199,34.031858],[-79.250947,34.032383],[-79.250663,34.032975],[-79.251979,34.034086],[-79.252408,34.034356],[-79.25316,34.032902],[-79.253157,34.032459],[-79.251212,34.031831],[-79.251199,34.031858]]],[[[-79.250622,34.033058],[-79.250366,34.033591],[-79.249451,34.035496],[-79.2556,34.037426],[-79.255678,34.037131],[-79.255855,34.036669],[-79.25606,34.036282],[-79.252541,34.034544],[-79.251914,34.034148],[-79.250622,34.033058]]]]}},{"type":"Feature","id":"45051:0520001044","properties":{"id":"45051:0520001044","parcelId":"0520001044","countyFips":"45051","countyName":"Horry","state":"South Carolina","marketIds":["Charleston"],"situsAddress":null,"situsCity":null,"situsZip":null,"jurisdictionCode":null,"ownerName":"ALTMAN JAMES B ETAL","ownerName2":null,"propertyName":null,"zoningCode":null,"zoningDistrict":null,"jurisdictionPrefix":null,"dorCode":"112","acreage":107.33,"centroid":[-79.269336,34.020808],"lastSale":{"date":"2025-11-25","price":null,"qualified":null},"tax":{"marketValue":900527.0,"assessedValue":14490.0,"taxableValue":883354.0,"taxes":null},"mailingAddress":{"line1":"1223 WATKINS POINT RD","line2":null,"city":"BATESBURG","state":"SC","zip":"29006"},"incomeTract":null,"incomeBlockGroup":null,"nearestRoad":null,"flu":null,"opportunityZone":null,"oz2Eligibility":null,"source":"sc-horry-parcels-45051","appraiserUrl":"https://www.horrycountysc.gov/apps/LandRecords/?PIN=0520001044","gisViewerUrl":"https://www.horrycounty.org/gis/parcels/"},"geometry":{"type":"Polygon","coordinates":[[[-79.26329,34.020031],[-79.26329,34.020031],[-79.263523,34.022461],[-79.263605,34.022938],[-79.275426,34.021758],[-79.275859,34.020969],[-79.274764,34.020548],[-79.274929,34.017724],[-79.26329,34.020031]]]}},{"type":"Feature","id":"45051:0520001049","properties":{"id":"45051:0520001049","parcelId":"0520001049","countyFips":"45051","countyName":"Horry","state":"South Carolina","marketIds":["Charleston"],"situsAddress":null,"situsCity":null,"situsZip":null,"jurisdictionCode":null,"ownerName":"LEWIS CONSTRUCTION GROUP LLC","ownerName2":null,"propertyName":null,"zoningCode":null,"zoningDistrict":null,"jurisdictionPrefix":null,"dorCode":"113","acreage":48.0,"centroid":[-79.259353,34.011929],"lastSale":{"date":"2026-08-26","price":null,"qualified":null},"tax":{"marketValue":766520.0,"assessedValue":1660.0,"taxableValue":235042.0,"taxes":null},"mailingAddress":{"line1":"3530 W HIGHWAY 501","line2":null,"city":"CONWAY","state":"SC","zip":"29526"},"incomeTract":null,"incomeBlockGroup":null,"nearestRoad":null,"flu":null,"opportunityZone":null,"oz2Eligibility":null,"source":"sc-horry-parcels-45051","appraiserUrl":"https://www.horrycountysc.gov/apps/LandRecords/?PIN=0520001049","gisViewerUrl":"https://www.horrycounty.org/gis/parcels/"},"geometry":{"type":"Polygon","coordinates":[[[-79.257923,34.013848],[-79.257923,34.013848],[-79.258342,34.014696],[-79.260792,34.014419],[-79.262606,34.014252],[-79.262648,34.013834],[-79.262874,34.012403],[-79.261282,34.012238],[-79.2613,34.010555],[-79.261141,34.010527],[-79.260486,34.010325],[-79.259763,34.010159],[-79.259685,34.010168],[-79.25875,34.010632],[-79.25855,34.010986],[-79.258333,34.011204],[-79.257878,34.011501],[-79.257608,34.011476],[-79.257173,34.011234],[-79.257029,34.011231],[-79.256953,34.011472],[-79.256734,34.011439],[-79.257923,34.013848]]]}},{"type":"Feature","id":"45051:0520001046","properties":{"id":"45051:0520001046","parcelId":"0520001046","countyFips":"45051","countyName":"Horry","state":"South Carolina","marketIds":["Charleston"],"situsAddress":null,"situsCity":null,"situsZip":null,"jurisdictionCode":null,"ownerName":"DDD FARMS LLC","ownerName2":null,"propertyName":null,"zoningCode":null,"zoningDistrict":null,"jurisdictionPrefix":null,"dorCode":"113","acreage":108.64,"centroid":[-79.269101,34.010895],"lastSale":{"date":"2022-11-15","price":null,"qualified":null},"tax":{"marketValue":869120.0,"assessedValue":1050.0,"taxableValue":548107.0,"taxes":null},"mailingAddress":{"line1":"PO BOX 160","line2":null,"city":"AYNOR","state":"SC","zip":"29511"},"incomeTract":null,"incomeBlockGroup":null,"nearestRoad":null,"flu":null,"opportunityZone":null,"oz2Eligibility":null,"source":"sc-horry-parcels-45051","appraiserUrl":"https://www.horrycountysc.gov/apps/LandRecords/?PIN=0520001046","gisViewerUrl":"https://www.horrycounty.org/gis/parcels/"},"geometry":{"type":"Polygon","coordinates":[[[-79.26315,34.011922],[-79.263136,34.012062],[-79.262857,34.013815],[-79.262809,34.014217],[-79.270339,34.013399],[-79.27483,34.011767],[-79.275342,34.011521],[-79.273765,34.008667],[-79.273251,34.008598],[-79.272714,34.008669],[-79.27221,34.008855],[-79.271128,34.009324],[-79.270654,34.008444],[-79.264971,34.01052],[-79.265366,34.01165],[-79.26315,34.011922]]]}},{"type":"Feature","id":"45051:0520001090","properties":{"id":"45051:0520001090","parcelId":"0520001090","countyFips":"45051","countyName":"Horry","state":"South Carolina","marketIds":["Charleston"],"situsAddress":null,"situsCity":null,"situsZip":null,"jurisdictionCode":null,"ownerName":"ALTMAN CATHERINE B","ownerName2":null,"propertyName":null,"zoningCode":null,"zoningDistrict":null,"jurisdictionPrefix":null,"dorCode":"113","acreage":107.34,"centroid":[-79.269122,34.016851],"lastSale":{"date":"2023-10-09","price":null,"qualified":null},"tax":{"marketValue":948720.0,"assessedValue":810.0,"taxableValue":343488.0,"taxes":null},"mailingAddress":{"line1":"132 PINEWOOD DR","line2":null,"city":"MONCKS CORNER","state":"SC","zip":"29461"},"incomeTract":null,"incomeBlockGroup":null,"nearestRoad":null,"flu":null,"opportunityZone":null,"oz2Eligibility":null,"source":"sc-horry-parcels-45051","appraiserUrl":"https://www.horrycountysc.gov/apps/LandRecords/?PIN=0520001090","gisViewerUrl":"https://www.horrycounty.org/gis/parcels/"},"geometry":{"type":"MultiPolygon","coordinates":[[[[-79.263148,34.018616],[-79.263251,34.019639],[-79.26329,34.020031],[-79.274929,34.017724],[-79.275069,34.015347],[-79.275128,34.014907],[-79.272276,34.015941],[-79.271631,34.016148],[-79.2716,34.016298],[-79.271451,34.016281],[-79.271331,34.016202],[-79.271273,34.016255],[-79.271264,34.016353],[-79.271034,34.016302],[-79.270894,34.016297],[-79.270724,34.016235],[-79.270673,34.016252],[-79.27062,34.01634],[-79.27051,34.01632],[-79.270462,34.016218],[-79.270131,34.016393],[-79.269645,34.016615],[-79.269248,34.016658],[-79.269003,34.016747],[-79.26896,34.016639],[-79.268784,34.01658],[-79.268682,34.016656],[-79.268472,34.016732],[-79.268249,34.01684],[-79.268257,34.016908],[-79.268221,34.01696],[-79.268092,34.016961],[-79.268014,34.01693],[-79.267996,34.016864],[-79.267568,34.016852],[-79.267479,34.01717],[-79.267309,34.017452],[-79.266778,34.01748],[-79.266351,34.017599],[-79.266196,34.01777],[-79.266094,34.017731],[-79.263027,34.017497],[-79.263148,34.018616]]],[[[-79.259582,34.020764],[-79.259688,34.020813],[-79.259898,34.020854],[-79.260568,34.02076],[-79.260959,34.020551],[-79.261195,34.020553],[-79.261396,34.020496],[-79.261556,34.0204],[-79.262487,34.020222],[-79.262942,34.020168],[-79.263086,34.020122],[-79.263058,34.019691],[-79.262847,34.017606],[-79.262807,34.017479],[-79.257779,34.017138],[-79.2578,34.017303],[-79.258211,34.019241],[-79.258536,34.02068],[-79.258534,34.020817],[-79.259156,34.020808],[-79.259536,34.020742],[-79.259582,34.020764]]]]}},{"type":"Feature","id":"45051:0520001050","properties":{"id":"45051:0520001050","parcelId":"0520001050","countyFips":"45051","countyName":"Horry","state":"South Carolina","marketIds":["Charleston"],"situsAddress":null,"situsCity":null,"situsZip":null,"jurisdictionCode":null,"ownerName":"PAGE ROBERT S","ownerName2":null,"propertyName":null,"zoningCode":null,"zoningDistrict":null,"jurisdictionPrefix":null,"dorCode":"113","acreage":45.14,"centroid":[-79.255358,34.012652],"lastSale":{"date":"2009-07-09","price":null,"qualified":null},"tax":{"marketValue":634987.0,"assessedValue":370.0,"taxableValue":197661.0,"taxes":null},"mailingAddress":{"line1":"1262 FORK RETCH CT","line2":null,"city":"MULLINS","state":"SC","zip":"29574"},"incomeTract":null,"incomeBlockGroup":null,"nearestRoad":null,"flu":null,"opportunityZone":null,"oz2Eligibility":null,"source":"sc-horry-parcels-45051","appraiserUrl":"https://www.horrycountysc.gov/apps/LandRecords/?PIN=0520001050","gisViewerUrl":"https://www.horrycounty.org/gis/parcels/"},"geometry":{"type":"Polygon","coordinates":[[[-79.253263,34.011814],[-79.25326,34.011878],[-79.253058,34.016044],[-79.254679,34.015854],[-79.255085,34.015696],[-79.256103,34.015073],[-79.25678,34.014912],[-79.2573,34.014831],[-79.25705,34.014008],[-79.257923,34.013848],[-79.256734,34.011439],[-79.256565,34.011414],[-79.256208,34.011153],[-79.256077,34.010922],[-79.255755,34.010777],[-79.255725,34.011016],[-79.255579,34.011085],[-79.255299,34.01083],[-79.254206,34.011636],[-79.253884,34.011287],[-79.253733,34.011236],[-79.253602,34.0116],[-79.253263,34.011814]]]}},{"type":"Feature","id":"45051:0520001110","properties":{"id":"45051:0520001110","parcelId":"0520001110","countyFips":"45051","countyName":"Horry","state":"South Carolina","marketIds":["Charleston"],"situsAddress":null,"situsCity":null,"situsZip":null,"jurisdictionCode":null,"ownerName":"SMITH WALTER W TR","ownerName2":null,"propertyName":null,"zoningCode":null,"zoningDistrict":null,"jurisdictionPrefix":null,"dorCode":"113","acreage":23.4,"centroid":[-79.25221,34.030174],"lastSale":{"date":"2020-09-05","price":null,"qualified":null},"tax":{"marketValue":393120.0,"assessedValue":330.0,"taxableValue":175306.0,"taxes":null},"mailingAddress":{"line1":"129 UNIVERSITY CIR","line2":null,"city":"CONWAY","state":"SC","zip":"29526"},"incomeTract":null,"incomeBlockGroup":null,"nearestRoad":null,"flu":null,"opportunityZone":null,"oz2Eligibility":null,"source":"sc-horry-parcels-45051","appraiserUrl":"https://www.horrycountysc.gov/apps/LandRecords/?PIN=0520001110","gisViewerUrl":"https://www.horrycounty.org/gis/parcels/"},"geometry":{"type":"Polygon","coordinates":[[[-79.251212,34.031831],[-79.251212,34.031831],[-79.253157,34.032459],[-79.253155,34.03213],[-79.252791,34.031229],[-79.253398,34.030795],[-79.253752,34.029925],[-79.254589,34.028658],[-79.251599,34.028672],[-79.251037,34.027889],[-79.250466,34.02817],[-79.250035,34.028361],[-79.249832,34.028431],[-79.249846,34.028849],[-79.251815,34.028928],[-79.251842,34.030013],[-79.251717,34.030478],[-79.251695,34.031362],[-79.249905,34.030607],[-79.249941,34.031421],[-79.251212,34.031831]]]}},{"type":"Feature","id":"45051:0520001039","properties":{"id":"45051:0520001039","parcelId":"0520001039","countyFips":"45051","countyName":"Horry","state":"South Carolina","marketIds":["Charleston"],"situsAddress":null,"situsCity":null,"situsZip":null,"jurisdictionCode":null,"ownerName":"STEPHEN RABON FARMS LLC","ownerName2":null,"propertyName":null,"zoningCode":null,"zoningDistrict":null,"jurisdictionPrefix":null,"dorCode":"113","acreage":133.12,"centroid":[-79.258728,34.022989],"lastSale":{"date":"2018-02-06","price":null,"qualified":null},"tax":{"marketValue":1431030.0,"assessedValue":1160.0,"taxableValue":633616.0,"taxes":null},"mailingAddress":{"line1":"974 TOLAR RD","line2":null,"city":"GALIVANTS FERRY","state":"SC","zip":"29544"},"incomeTract":null,"incomeBlockGroup":null,"nearestRoad":null,"flu":null,"opportunityZone":null,"oz2Eligibility":null,"source":"sc-horry-parcels-45051","appraiserUrl":"https://www.horrycountysc.gov/apps/LandRecords/?PIN=0520001039","gisViewerUrl":"https://www.horrycounty.org/gis/parcels/"},"geometry":{"type":"Polygon","coordinates":[[[-79.253064,34.025551],[-79.253375,34.026035],[-79.253637,34.026467],[-79.256135,34.025468],[-79.256432,34.025365],[-79.256734,34.025284],[-79.257102,34.025216],[-79.257405,34.025184],[-79.257828,34.025171],[-79.257807,34.024109],[-79.258452,34.0241],[-79.259512,34.024146],[-79.259278,34.025222],[-79.25994,34.025298],[-79.260701,34.025436],[-79.260871,34.024716],[-79.261588,34.024844],[-79.262148,34.022026],[-79.263265,34.02185],[-79.263086,34.020122],[-79.262942,34.020168],[-79.262487,34.020222],[-79.261556,34.0204],[-79.261396,34.020496],[-79.261195,34.020553],[-79.260959,34.020551],[-79.260568,34.02076],[-79.259898,34.020854],[-79.259688,34.020813],[-79.259536,34.020742],[-79.259156,34.020808],[-79.258534,34.020817],[-79.258536,34.02068],[-79.248285,34.020599],[-79.252398,34.024535],[-79.253064,34.025551]]]}},{"type":"Feature","id":"45051:0650001007","properties":{"id":"45051:0650001007","parcelId":"0650001007","countyFips":"45051","countyName":"Horry","state":"South Carolina","marketIds":["Charleston"],"situsAddress":null,"situsCity":null,"situsZip":null,"jurisdictionCode":null,"ownerName":"SHELLEY DANIEL CHRISTOPHER ETAL","ownerName2":null,"propertyName":null,"zoningCode":null,"zoningDistrict":null,"jurisdictionPrefix":null,"dorCode":"113","acreage":75.99,"centroid":[-79.265766,34.001169],"lastSale":{"date":"2025-10-09","price":null,"qualified":null},"tax":{"marketValue":646900.0,"assessedValue":800.0,"taxableValue":646900.0,"taxes":null},"mailingAddress":{"line1":"PO BOX 736","line2":null,"city":"AYNOR","state":"SC","zip":"29511"},"incomeTract":null,"incomeBlockGroup":null,"nearestRoad":null,"flu":null,"opportunityZone":null,"oz2Eligibility":null,"source":"sc-horry-parcels-45051","appraiserUrl":"https://www.horrycountysc.gov/apps/LandRecords/?PIN=0650001007","gisViewerUrl":"https://www.horrycounty.org/gis/parcels/"},"geometry":{"type":"Polygon","coordinates":[[[-79.261615,34.003574],[-79.261774,34.00438],[-79.263436,34.004284],[-79.263418,34.004194],[-79.263518,34.00415],[-79.265835,34.003868],[-79.267098,34.004283],[-79.267014,34.003488],[-79.267187,34.002889],[-79.267472,34.00278],[-79.267452,34.002536],[-79.26767,34.001899],[-79.267797,34.001221],[-79.268019,34.001017],[-79.268313,34.000647],[-79.268792,34.000602],[-79.269084,34.000487],[-79.269274,34.000246],[-79.269569,34.000122],[-79.269907,33.999456],[-79.269425,33.999262],[-79.269237,33.998737],[-79.26895,33.998601],[-79.269069,33.998101],[-79.268705,33.997897],[-79.268195,33.997953],[-79.267898,33.997808],[-79.267704,33.99803],[-79.267428,33.998052],[-79.266747,33.998296],[-79.266786,34.000162],[-79.26495,34.00011],[-79.26453,34.000391],[-79.264518,34.000734],[-79.262568,34.001077],[-79.261937,34.001336],[-79.258915,34.001717],[-79.259035,34.002844],[-79.259662,34.002825],[-79.260029,34.002933],[-79.260122,34.003099],[-79.261502,34.003001],[-79.261615,34.003574]],[[-79.263059,34.003558],[-79.262375,34.003664],[-79.262241,34.003581],[-79.262095,34.002843],[-79.262269,34.002788],[-79.262218,34.002376],[-79.262837,34.002309],[-79.263059,34.003558]]]}},{"type":"Feature","id":"45051:0650003001","properties":{"id":"45051:0650003001","parcelId":"0650003001","countyFips":"45051","countyName":"Horry","state":"South Carolina","marketIds":["Charleston"],"situsAddress":null,"situsCity":null,"situsZip":null,"jurisdictionCode":null,"ownerName":"PAGE PHILLIP & W GASTON (LE) C/O SAMUEL PAGE","ownerName2":null,"propertyName":null,"zoningCode":null,"zoningDistrict":null,"jurisdictionPrefix":null,"dorCode":"113","acreage":37.0,"centroid":[-79.25658,34.004108],"lastSale":{"date":"2002-10-15","price":null,"qualified":null},"tax":{"marketValue":411400.0,"assessedValue":400.0,"taxableValue":155750.0,"taxes":null},"mailingAddress":{"line1":"14421 PEE DEE RD S","line2":null,"city":"AYNOR","state":"SC","zip":"29544"},"incomeTract":null,"incomeBlockGroup":null,"nearestRoad":null,"flu":null,"opportunityZone":null,"oz2Eligibility":null,"source":"sc-horry-parcels-45051","appraiserUrl":"https://www.horrycountysc.gov/apps/LandRecords/?PIN=0650003001","gisViewerUrl":"https://www.horrycounty.org/gis/parcels/"},"geometry":{"type":"Polygon","coordinates":[[[-79.254289,34.005514],[-79.254679,34.005592],[-79.254942,34.00563],[-79.255209,34.005642],[-79.255607,34.005611],[-79.257471,34.005212],[-79.258034,34.005123],[-79.259276,34.004856],[-79.259013,34.004006],[-79.258898,34.003351],[-79.257343,34.003361],[-79.257601,34.002979],[-79.257615,34.00276],[-79.257714,34.00256],[-79.257147,34.002361],[-79.257211,34.00214],[-79.254574,34.001903],[-79.253944,34.004683],[-79.25446,34.004765],[-79.254289,34.005514]]]}},{"type":"Feature","id":"45051:0650002036","properties":{"id":"45051:0650002036","parcelId":"0650002036","countyFips":"45051","countyName":"Horry","state":"South Carolina","marketIds":["Charleston"],"situsAddress":null,"situsCity":null,"situsZip":null,"jurisdictionCode":null,"ownerName":"FLANNEL COAT LLC","ownerName2":null,"propertyName":null,"zoningCode":null,"zoningDistrict":null,"jurisdictionPrefix":null,"dorCode":"101","acreage":8.74,"centroid":[-79.255409,34.005923],"lastSale":{"date":"2014-11-12","price":null,"qualified":null},"tax":{"marketValue":189653.0,"assessedValue":6110.0,"taxableValue":101806.0,"taxes":null},"mailingAddress":{"line1":"PO BOX 370","line2":null,"city":"AYNOR","state":"SC","zip":"29511"},"incomeTract":null,"incomeBlockGroup":null,"nearestRoad":null,"flu":null,"opportunityZone":null,"oz2Eligibility":null,"source":"sc-horry-parcels-45051","appraiserUrl":"https://www.horrycountysc.gov/apps/LandRecords/?PIN=0650002036","gisViewerUrl":"https://www.horrycounty.org/gis/parcels/"},"geometry":{"type":"MultiPolygon","coordinates":[[[[-79.253874,34.004986],[-79.253777,34.005411],[-79.254289,34.005514],[-79.25446,34.004765],[-79.253944,34.004683],[-79.253874,34.004986]]],[[[-79.253532,34.006484],[-79.255303,34.006674],[-79.257618,34.005985],[-79.257526,34.005388],[-79.255792,34.005763],[-79.255405,34.005816],[-79.255015,34.005818],[-79.254756,34.00579],[-79.253737,34.00559],[-79.253532,34.006484]]]]}},{"type":"Feature","id":"45051:0520001148","properties":{"id":"45051:0520001148","parcelId":"0520001148","countyFips":"45051","countyName":"Horry","state":"South Carolina","marketIds":["Charleston"],"situsAddress":null,"situsCity":null,"situsZip":null,"jurisdictionCode":null,"ownerName":"PALMETTO HOLDINGS I LLC","ownerName2":null,"propertyName":null,"zoningCode":null,"zoningDistrict":null,"jurisdictionPrefix":null,"dorCode":"100","acreage":6.3,"centroid":[-79.260125,34.040232],"lastSale":{"date":"2026-06-09","price":null,"qualified":null},"tax":{"marketValue":98000.0,"assessedValue":2160.0,"taxableValue":35972.0,"taxes":null},"mailingAddress":{"line1":"3225 MCLEOD DR # 100","line2":null,"city":"LAS VEGAS","state":"NV","zip":"89121"},"incomeTract":null,"incomeBlockGroup":null,"nearestRoad":null,"flu":null,"opportunityZone":null,"oz2Eligibility":null,"source":"sc-horry-parcels-45051","appraiserUrl":"https://www.horrycountysc.gov/apps/LandRecords/?PIN=0520001148","gisViewerUrl":"https://www.horrycounty.org/gis/parcels/"},"geometry":{"type":"Polygon","coordinates":[[[-79.260894,34.040753],[-79.260942,34.040766],[-79.261409,34.039975],[-79.258783,34.039207],[-79.258377,34.040094],[-79.260343,34.040595],[-79.260894,34.040753]]]}},{"type":"Feature","id":"45051:0520001014","properties":{"id":"45051:0520001014","parcelId":"0520001014","countyFips":"45051","countyName":"Horry","state":"South Carolina","marketIds":["Charleston"],"situsAddress":null,"situsCity":null,"situsZip":null,"jurisdictionCode":null,"ownerName":"ALTMAN JOHN MCCARREL","ownerName2":null,"propertyName":null,"zoningCode":null,"zoningDistrict":null,"jurisdictionPrefix":null,"dorCode":"113","acreage":104.34,"centroid":[-79.264186,34.034766],"lastSale":{"date":"1989-12-13","price":null,"qualified":null},"tax":{"marketValue":603007.0,"assessedValue":650.0,"taxableValue":162800.0,"taxes":null},"mailingAddress":{"line1":"15763 PEE DEE RD S","line2":null,"city":"GALIVANTS FERRY","state":"SC","zip":"29544"},"incomeTract":null,"incomeBlockGroup":null,"nearestRoad":null,"flu":null,"opportunityZone":null,"oz2Eligibility":null,"source":"sc-horry-parcels-45051","appraiserUrl":"https://www.horrycountysc.gov/apps/LandRecords/?PIN=0520001014","gisViewerUrl":"https://www.horrycounty.org/gis/parcels/"},"geometry":{"type":"Polygon","coordinates":[[[-79.260284,34.037067],[-79.260957,34.037296],[-79.262653,34.037872],[-79.271735,34.034555],[-79.26827,34.032101],[-79.267433,34.03166],[-79.266887,34.031745],[-79.266175,34.031712],[-79.265554,34.031957],[-79.264332,34.032703],[-79.264173,34.03288],[-79.263789,34.033418],[-79.263492,34.033636],[-79.263227,34.034107],[-79.263162,34.03471],[-79.263011,34.035178],[-79.258515,34.033831],[-79.258291,34.034026],[-79.259314,34.034835],[-79.258878,34.035214],[-79.257861,34.034444],[-79.257406,34.034946],[-79.258875,34.035654],[-79.25863,34.036072],[-79.257065,34.035338],[-79.256638,34.035827],[-79.260284,34.037067]]]}},{"type":"Feature","id":"45051:0520001008","properties":{"id":"45051:0520001008","parcelId":"0520001008","countyFips":"45051","countyName":"Horry","state":"South Carolina","marketIds":["Charleston"],"situsAddress":null,"situsCity":null,"situsZip":null,"jurisdictionCode":null,"ownerName":"MIRANDA JOSUE ANTONIO ETAL","ownerName2":null,"propertyName":null,"zoningCode":null,"zoningDistrict":null,"jurisdictionPrefix":null,"dorCode":"101","acreage":9.37,"centroid":[-79.256291,34.042784],"lastSale":{"date":"2023-08-16","price":null,"qualified":null},"tax":{"marketValue":368007.0,"assessedValue":15590.0,"taxableValue":368007.0,"taxes":null},"mailingAddress":{"line1":"16043 PEE DEE RD S","line2":null,"city":"GALIVANTS FERRY","state":"SC","zip":"29544"},"incomeTract":null,"incomeBlockGroup":null,"nearestRoad":null,"flu":null,"opportunityZone":null,"oz2Eligibility":null,"source":"sc-horry-parcels-45051","appraiserUrl":"https://www.horrycountysc.gov/apps/LandRecords/?PIN=0520001008","gisViewerUrl":"https://www.horrycounty.org/gis/parcels/"},"geometry":{"type":"Polygon","coordinates":[[[-79.256102,34.043187],[-79.256119,34.043197],[-79.257805,34.04435],[-79.259139,34.042768],[-79.259121,34.042684],[-79.255512,34.042143],[-79.255318,34.042222],[-79.255235,34.042214],[-79.255176,34.042424],[-79.255264,34.042462],[-79.255484,34.04265],[-79.255599,34.042833],[-79.255906,34.043064],[-79.256102,34.043187]]]}},{"type":"Feature","id":"45051:0520001040","properties":{"id":"45051:0520001040","parcelId":"0520001040","countyFips":"45051","countyName":"Horry","state":"South Carolina","marketIds":["Charleston"],"situsAddress":null,"situsCity":null,"situsZip":null,"jurisdictionCode":null,"ownerName":"ALTMAN ALEXANDER B III","ownerName2":null,"propertyName":null,"zoningCode":null,"zoningDistrict":null,"jurisdictionPrefix":null,"dorCode":"113","acreage":33.58,"centroid":[-79.261413,34.028666],"lastSale":{"date":"2008-04-14","price":null,"qualified":null},"tax":{"marketValue":418277.0,"assessedValue":230.0,"taxableValue":135811.0,"taxes":null},"mailingAddress":{"line1":"716 JUSTICE DR","line2":null,"city":"LAKE LURE","state":"NC","zip":"28746"},"incomeTract":null,"incomeBlockGroup":null,"nearestRoad":null,"flu":null,"opportunityZone":null,"oz2Eligibility":null,"source":"sc-horry-parcels-45051","appraiserUrl":"https://www.horrycountysc.gov/apps/LandRecords/?PIN=0520001040","gisViewerUrl":"https://www.horrycounty.org/gis/parcels/"},"geometry":{"type":"Polygon","coordinates":[[[-79.259784,34.030392],[-79.260297,34.029964],[-79.26167,34.031103],[-79.261881,34.030873],[-79.2631,34.029311],[-79.263373,34.028869],[-79.263135,34.028767],[-79.262587,34.028402],[-79.262121,34.027741],[-79.261728,34.027529],[-79.261137,34.026881],[-79.260833,34.026826],[-79.260184,34.025904],[-79.257946,34.028768],[-79.259784,34.030392]]]}},{"type":"Feature","id":"45051:0520001017","properties":{"id":"45051:0520001017","parcelId":"0520001017","countyFips":"45051","countyName":"Horry","state":"South Carolina","marketIds":["Charleston"],"situsAddress":null,"situsCity":null,"situsZip":null,"jurisdictionCode":null,"ownerName":"PARKER KENNETH EARL ETAL","ownerName2":null,"propertyName":null,"zoningCode":null,"zoningDistrict":null,"jurisdictionPrefix":null,"dorCode":"112","acreage":73.7,"centroid":[-79.252085,34.03996],"lastSale":{"date":"2025-01-01","price":null,"qualified":null},"tax":{"marketValue":1308482.0,"assessedValue":11460.0,"taxableValue":681950.0,"taxes":null},"mailingAddress":{"line1":"760 PARKERS RD","line2":null,"city":"GALIVANTS FERRY","state":"SC","zip":"29544"},"incomeTract":null,"incomeBlockGroup":null,"nearestRoad":null,"flu":null,"opportunityZone":null,"oz2Eligibility":null,"source":"sc-horry-parcels-45051","appraiserUrl":"https://www.horrycountysc.gov/apps/LandRecords/?PIN=0520001017","gisViewerUrl":"https://www.horrycounty.org/gis/parcels/"},"geometry":{"type":"Polygon","coordinates":[[[-79.253039,34.040828],[-79.2532,34.040914],[-79.2536,34.041403],[-79.253986,34.041622],[-79.254979,34.042399],[-79.255053,34.042104],[-79.255121,34.041654],[-79.25533,34.039732],[-79.25472,34.039699],[-79.254782,34.03912],[-79.255394,34.039163],[-79.255563,34.037613],[-79.2556,34.037426],[-79.249451,34.035496],[-79.248047,34.038418],[-79.248208,34.038562],[-79.248598,34.038462],[-79.248874,34.038529],[-79.249467,34.038956],[-79.249479,34.039219],[-79.249275,34.039581],[-79.249839,34.040021],[-79.250118,34.04007],[-79.25049,34.040523],[-79.250725,34.041188],[-79.250887,34.041432],[-79.251552,34.041498],[-79.252026,34.041347],[-79.2522,34.041034],[-79.252942,34.040776],[-79.253039,34.040828]],[[-79.251861,34.038175],[-79.251839,34.03824],[-79.251668,34.038722],[-79.251039,34.038606],[-79.251182,34.03805],[-79.251861,34.038175]]]}},{"type":"Feature","id":"45051:0520001071","properties":{"id":"45051:0520001071","parcelId":"0520001071","countyFips":"45051","countyName":"Horry","state":"South Carolina","marketIds":["Charleston"],"situsAddress":null,"situsCity":null,"situsZip":null,"jurisdictionCode":null,"ownerName":"ALTMAN GARY A","ownerName2":null,"propertyName":null,"zoningCode":null,"zoningDistrict":null,"jurisdictionPrefix":null,"dorCode":"113","acreage":105.95,"centroid":[-79.266765,34.024217],"lastSale":{"date":"2005-09-23","price":null,"qualified":null},"tax":{"marketValue":942058.0,"assessedValue":800.0,"taxableValue":426627.0,"taxes":null},"mailingAddress":{"line1":"15285 PEE DEE RD S","line2":null,"city":"GALIVANTS FERRY","state":"SC","zip":"29544"},"incomeTract":null,"incomeBlockGroup":null,"nearestRoad":null,"flu":null,"opportunityZone":null,"oz2Eligibility":null,"source":"sc-horry-parcels-45051","appraiserUrl":"https://www.horrycountysc.gov/apps/LandRecords/?PIN=0520001071","gisViewerUrl":"https://www.horrycounty.org/gis/parcels/"},"geometry":{"type":"Polygon","coordinates":[[[-79.26375,34.024829],[-79.26375,34.024829],[-79.272063,34.027891],[-79.275426,34.021758],[-79.264307,34.022872],[-79.264385,34.023629],[-79.263671,34.023712],[-79.26375,34.024829]]]}},{"type":"Feature","id":"45051:0650001022","properties":{"id":"45051:0650001022","parcelId":"0650001022","countyFips":"45051","countyName":"Horry","state":"South Carolina","marketIds":["Charleston"],"situsAddress":null,"situsCity":null,"situsZip":null,"jurisdictionCode":null,"ownerName":"WINBURN HILDA W TR  ETAL","ownerName2":null,"propertyName":null,"zoningCode":null,"zoningDistrict":null,"jurisdictionPrefix":null,"dorCode":"113","acreage":50.42,"centroid":[-79.263451,34.00705],"lastSale":{"date":"2026-08-30","price":null,"qualified":null},"tax":{"marketValue":504200.0,"assessedValue":170.0,"taxableValue":184721.0,"taxes":null},"mailingAddress":{"line1":"2398 WINBURN RD","line2":null,"city":"GALIVANTS FERRY","state":"SC","zip":"29544"},"incomeTract":null,"incomeBlockGroup":null,"nearestRoad":null,"flu":null,"opportunityZone":null,"oz2Eligibility":null,"source":"sc-horry-parcels-45051","appraiserUrl":"https://www.horrycountysc.gov/apps/LandRecords/?PIN=0650001022","gisViewerUrl":"https://www.horrycounty.org/gis/parcels/"},"geometry":{"type":"Polygon","coordinates":[[[-79.260672,34.007396],[-79.260672,34.007396],[-79.26248,34.009653],[-79.262709,34.010019],[-79.262854,34.010309],[-79.263511,34.009778],[-79.264303,34.009004],[-79.268083,34.00542],[-79.267922,34.004875],[-79.267502,34.004606],[-79.267098,34.004283],[-79.264742,34.005269],[-79.262157,34.006272],[-79.262007,34.005797],[-79.26184,34.005915],[-79.26211,34.006282],[-79.2607,34.007282],[-79.260752,34.007348],[-79.260672,34.007396]]]}},{"type":"Feature","id":"45051:0520001120","properties":{"id":"45051:0520001120","parcelId":"0520001120","countyFips":"45051","countyName":"Horry","state":"South Carolina","marketIds":["Charleston"],"situsAddress":null,"situsCity":null,"situsZip":null,"jurisdictionCode":null,"ownerName":"WARD TAMMY P","ownerName2":null,"propertyName":null,"zoningCode":null,"zoningDistrict":null,"jurisdictionPrefix":null,"dorCode":"113","acreage":38.4,"centroid":[-79.259178,34.037813],"lastSale":{"date":"1998-04-28","price":null,"qualified":null},"tax":{"marketValue":506880.0,"assessedValue":310.0,"taxableValue":112724.0,"taxes":null},"mailingAddress":{"line1":"15825 PEE DEE RD S","line2":null,"city":"GALIVANTS FERRY","state":"SC","zip":"29544"},"incomeTract":null,"incomeBlockGroup":null,"nearestRoad":null,"flu":null,"opportunityZone":null,"oz2Eligibility":null,"source":"sc-horry-parcels-45051","appraiserUrl":"https://www.horrycountysc.gov/apps/LandRecords/?PIN=0520001120","gisViewerUrl":"https://www.horrycounty.org/gis/parcels/"},"geometry":{"type":"Polygon","coordinates":[[[-79.255704,34.038149],[-79.256806,34.038454],[-79.261479,34.039798],[-79.262653,34.037872],[-79.256638,34.035827],[-79.256255,34.036325],[-79.25611,34.036589],[-79.257724,34.037067],[-79.257403,34.037844],[-79.255812,34.037389],[-79.25576,34.037632],[-79.255704,34.038149]]]}},{"type":"Feature","id":"45051:0520001168","properties":{"id":"45051:0520001168","parcelId":"0520001168","countyFips":"45051","countyName":"Horry","state":"South Carolina","marketIds":["Charleston"],"situsAddress":null,"situsCity":null,"situsZip":null,"jurisdictionCode":null,"ownerName":"ROLLING GREEN ESTATES LLC","ownerName2":null,"propertyName":null,"zoningCode":null,"zoningDistrict":null,"jurisdictionPrefix":null,"dorCode":"113","acreage":55.1,"centroid":[-79.255628,34.017773],"lastSale":{"date":"2017-12-27","price":null,"qualified":null},"tax":{"marketValue":763200.0,"assessedValue":450.0,"taxableValue":289041.0,"taxes":null},"mailingAddress":{"line1":"974 TOLAR RD","line2":null,"city":"GALIVANTS FERRY","state":"SC","zip":"29544"},"incomeTract":null,"incomeBlockGroup":null,"nearestRoad":null,"flu":null,"opportunityZone":null,"oz2Eligibility":null,"source":"sc-horry-parcels-45051","appraiserUrl":"https://www.horrycountysc.gov/apps/LandRecords/?PIN=0520001168","gisViewerUrl":"https://www.horrycounty.org/gis/parcels/"},"geometry":{"type":"Polygon","coordinates":[[[-79.254592,34.01642],[-79.254019,34.016494],[-79.253019,34.016605],[-79.253022,34.018243],[-79.252871,34.020627],[-79.258536,34.02068],[-79.258211,34.019241],[-79.2578,34.017303],[-79.257779,34.017138],[-79.256913,34.016417],[-79.255148,34.016332],[-79.254592,34.01642]]]}},{"type":"Feature","id":"45051:0520001191","properties":{"id":"45051:0520001191","parcelId":"0520001191","countyFips":"45051","countyName":"Horry","state":"South Carolina","marketIds":["Charleston"],"situsAddress":null,"situsCity":null,"situsZip":null,"jurisdictionCode":null,"ownerName":"ROLLING GREEN ESTATES LLC","ownerName2":null,"propertyName":null,"zoningCode":null,"zoningDistrict":null,"jurisdictionPrefix":null,"dorCode":"113","acreage":19.07,"centroid":[-79.260379,34.01579],"lastSale":{"date":"2022-01-27","price":null,"qualified":null},"tax":{"marketValue":251724.0,"assessedValue":130.0,"taxableValue":161460.0,"taxes":null},"mailingAddress":{"line1":"974 TOLAR RD","line2":null,"city":"GALIVANTS FERRY","state":"SC","zip":"29544"},"incomeTract":null,"incomeBlockGroup":null,"nearestRoad":null,"flu":null,"opportunityZone":null,"oz2Eligibility":null,"source":"sc-horry-parcels-45051","appraiserUrl":"https://www.horrycountysc.gov/apps/LandRecords/?PIN=0520001191","gisViewerUrl":"https://www.horrycounty.org/gis/parcels/"},"geometry":{"type":"Polygon","coordinates":[[[-79.257779,34.017138],[-79.262807,34.017479],[-79.262732,34.016573],[-79.261419,34.016697],[-79.261334,34.015575],[-79.261278,34.014497],[-79.261195,34.014505],[-79.261252,34.015585],[-79.260599,34.015658],[-79.260532,34.014571],[-79.260205,34.014607],[-79.260273,34.015695],[-79.256981,34.016066],[-79.256913,34.016417],[-79.257779,34.017138]]]}},{"type":"Feature","id":"45051:0520001051","properties":{"id":"45051:0520001051","parcelId":"0520001051","countyFips":"45051","countyName":"Horry","state":"South Carolina","marketIds":["Charleston"],"situsAddress":null,"situsCity":null,"situsZip":null,"jurisdictionCode":null,"ownerName":"STEPEHN RABON FARMS LLC","ownerName2":null,"propertyName":null,"zoningCode":null,"zoningDistrict":null,"jurisdictionPrefix":null,"dorCode":"113","acreage":20.61,"centroid":[-79.25215,34.017682],"lastSale":{"date":"2023-10-07","price":null,"qualified":null},"tax":{"marketValue":313464.0,"assessedValue":150.0,"taxableValue":313464.0,"taxes":null},"mailingAddress":{"line1":"974 TOLAR RD","line2":null,"city":"GALIVANTS FERRY","state":"SC","zip":"29544"},"incomeTract":null,"incomeBlockGroup":null,"nearestRoad":null,"flu":null,"opportunityZone":null,"oz2Eligibility":null,"source":"sc-horry-parcels-45051","appraiserUrl":"https://www.horrycountysc.gov/apps/LandRecords/?PIN=0520001051","gisViewerUrl":"https://www.horrycounty.org/gis/parcels/"},"geometry":{"type":"Polygon","coordinates":[[[-79.252049,34.016285],[-79.252048,34.016285],[-79.251075,34.01639],[-79.251069,34.01791],[-79.251156,34.020612],[-79.252871,34.020627],[-79.253022,34.018243],[-79.253019,34.016605],[-79.253041,34.016184],[-79.252049,34.016285]]]}}]}