{"type":"FeatureCollection","name":"13299-2_15","features":[{"type":"Feature","id":"13299:151    010 A","properties":{"id":"13299:151    010 A","parcelId":"151    010 A","countyFips":"13299","countyName":"Ware","state":"Georgia","marketIds":["Valdosta"],"situsAddress":null,"situsCity":null,"situsZip":null,"jurisdictionCode":null,"ownerName":null,"ownerName2":null,"propertyName":null,"zoningCode":null,"zoningDistrict":null,"jurisdictionPrefix":null,"dorCode":"A","acreage":10.0,"centroid":[-82.44926,30.986231],"lastSale":{"date":null,"price":null,"qualified":null},"tax":{"marketValue":null,"assessedValue":null,"taxableValue":null,"taxes":null},"mailingAddress":{"line1":null,"line2":null,"city":null,"state":null,"zip":null},"incomeTract":null,"incomeBlockGroup":null,"nearestRoad":null,"flu":null,"opportunityZone":null,"oz2Eligibility":null,"source":"ga-ware-parcels-13299","appraiserUrl":"https://qpublic.schneidercorp.com/Application.aspx?App=WareCountyGA&Layer=Parcels&PageType=Report&KeyValue=151%20%20%20%20010%20A","gisViewerUrl":"https://warecogis.maps.arcgis.com/apps/webappviewer/index.html?id=360c2d9273df432b8b8362096abd9b84"},"geometry":{"type":"Polygon","coordinates":[[[-82.44774,30.98538],[-82.447742,30.987239],[-82.449227,30.986606],[-82.449703,30.986475],[-82.450556,30.986339],[-82.450595,30.985349],[-82.44774,30.98538]]]}},{"type":"Feature","id":"13299:154    003","properties":{"id":"13299:154    003","parcelId":"154    003","countyFips":"13299","countyName":"Ware","state":"Georgia","marketIds":["Valdosta"],"situsAddress":null,"situsCity":null,"situsZip":null,"jurisdictionCode":null,"ownerName":null,"ownerName2":null,"propertyName":null,"zoningCode":null,"zoningDistrict":null,"jurisdictionPrefix":null,"dorCode":"V","acreage":28.9,"centroid":[-82.461599,30.963989],"lastSale":{"date":null,"price":null,"qualified":null},"tax":{"marketValue":null,"assessedValue":null,"taxableValue":null,"taxes":null},"mailingAddress":{"line1":null,"line2":null,"city":null,"state":null,"zip":null},"incomeTract":null,"incomeBlockGroup":null,"nearestRoad":null,"flu":null,"opportunityZone":null,"oz2Eligibility":null,"source":"ga-ware-parcels-13299","appraiserUrl":"https://qpublic.schneidercorp.com/Application.aspx?App=WareCountyGA&Layer=Parcels&PageType=Report&KeyValue=154%20%20%20%20003","gisViewerUrl":"https://warecogis.maps.arcgis.com/apps/webappviewer/index.html?id=360c2d9273df432b8b8362096abd9b84"},"geometry":{"type":"MultiPolygon","coordinates":[[[[-82.460376,30.962785],[-82.460369,30.963438],[-82.460427,30.965883],[-82.462905,30.965895],[-82.462815,30.963152],[-82.462705,30.96278],[-82.460376,30.962785]]],[[[-82.462948,30.963419],[-82.462949,30.963459],[-82.463033,30.965896],[-82.464663,30.965904],[-82.464582,30.963407],[-82.463653,30.963414],[-82.463631,30.962778],[-82.462837,30.96278],[-82.462942,30.963137],[-82.462948,30.963419]]]]}},{"type":"Feature","id":"13299:151    007 A","properties":{"id":"13299:151    007 A","parcelId":"151    007 A","countyFips":"13299","countyName":"Ware","state":"Georgia","marketIds":["Valdosta"],"situsAddress":null,"situsCity":null,"situsZip":null,"jurisdictionCode":null,"ownerName":null,"ownerName2":null,"propertyName":null,"zoningCode":null,"zoningDistrict":null,"jurisdictionPrefix":null,"dorCode":"V","acreage":10.07,"centroid":[-82.469575,30.982214],"lastSale":{"date":null,"price":null,"qualified":null},"tax":{"marketValue":null,"assessedValue":null,"taxableValue":null,"taxes":null},"mailingAddress":{"line1":null,"line2":null,"city":null,"state":null,"zip":null},"incomeTract":null,"incomeBlockGroup":null,"nearestRoad":null,"flu":null,"opportunityZone":null,"oz2Eligibility":null,"source":"ga-ware-parcels-13299","appraiserUrl":"https://qpublic.schneidercorp.com/Application.aspx?App=WareCountyGA&Layer=Parcels&PageType=Report&KeyValue=151%20%20%20%20007%20A","gisViewerUrl":"https://warecogis.maps.arcgis.com/apps/webappviewer/index.html?id=360c2d9273df432b8b8362096abd9b84"},"geometry":{"type":"Polygon","coordinates":[[[-82.468505,30.983117],[-82.470642,30.983121],[-82.470634,30.981309],[-82.468519,30.981309],[-82.468505,30.983117]]]}},{"type":"Feature","id":"13299:151    009","properties":{"id":"13299:151    009","parcelId":"151    009","countyFips":"13299","countyName":"Ware","state":"Georgia","marketIds":["Valdosta"],"situsAddress":null,"situsCity":null,"situsZip":null,"jurisdictionCode":null,"ownerName":null,"ownerName2":null,"propertyName":null,"zoningCode":null,"zoningDistrict":null,"jurisdictionPrefix":null,"dorCode":"V","acreage":111.93,"centroid":[-82.450313,30.982021],"lastSale":{"date":null,"price":null,"qualified":null},"tax":{"marketValue":null,"assessedValue":null,"taxableValue":null,"taxes":null},"mailingAddress":{"line1":null,"line2":null,"city":null,"state":null,"zip":null},"incomeTract":null,"incomeBlockGroup":null,"nearestRoad":null,"flu":null,"opportunityZone":null,"oz2Eligibility":null,"source":"ga-ware-parcels-13299","appraiserUrl":"https://qpublic.schneidercorp.com/Application.aspx?App=WareCountyGA&Layer=Parcels&PageType=Report&KeyValue=151%20%20%20%20009","gisViewerUrl":"https://warecogis.maps.arcgis.com/apps/webappviewer/index.html?id=360c2d9273df432b8b8362096abd9b84"},"geometry":{"type":"Polygon","coordinates":[[[-82.44774,30.98538],[-82.450595,30.985349],[-82.452751,30.985339],[-82.45285,30.97703],[-82.44763,30.977008],[-82.44774,30.98538]]]}},{"type":"Feature","id":"13299:151    010","properties":{"id":"13299:151    010","parcelId":"151    010","countyFips":"13299","countyName":"Ware","state":"Georgia","marketIds":["Valdosta"],"situsAddress":null,"situsCity":null,"situsZip":null,"jurisdictionCode":null,"ownerName":null,"ownerName2":null,"propertyName":null,"zoningCode":null,"zoningDistrict":null,"jurisdictionPrefix":null,"dorCode":"A","acreage":5.5,"centroid":[-82.451618,30.98585],"lastSale":{"date":null,"price":null,"qualified":null},"tax":{"marketValue":null,"assessedValue":null,"taxableValue":null,"taxes":null},"mailingAddress":{"line1":null,"line2":null,"city":null,"state":null,"zip":null},"incomeTract":null,"incomeBlockGroup":null,"nearestRoad":null,"flu":null,"opportunityZone":null,"oz2Eligibility":null,"source":"ga-ware-parcels-13299","appraiserUrl":"https://qpublic.schneidercorp.com/Application.aspx?App=WareCountyGA&Layer=Parcels&PageType=Report&KeyValue=151%20%20%20%20010","gisViewerUrl":"https://warecogis.maps.arcgis.com/apps/webappviewer/index.html?id=360c2d9273df432b8b8362096abd9b84"},"geometry":{"type":"Polygon","coordinates":[[[-82.450595,30.985349],[-82.450556,30.986339],[-82.451388,30.98624],[-82.452798,30.985985],[-82.452751,30.985339],[-82.450595,30.985349]]]}},{"type":"Feature","id":"13299:156    003","properties":{"id":"13299:156    003","parcelId":"156    003","countyFips":"13299","countyName":"Ware","state":"Georgia","marketIds":["Valdosta"],"situsAddress":null,"situsCity":null,"situsZip":null,"jurisdictionCode":null,"ownerName":null,"ownerName2":null,"propertyName":null,"zoningCode":null,"zoningDistrict":null,"jurisdictionPrefix":null,"dorCode":"J","acreage":37.61,"centroid":[-82.445945,30.949042],"lastSale":{"date":null,"price":null,"qualified":null},"tax":{"marketValue":null,"assessedValue":null,"taxableValue":null,"taxes":null},"mailingAddress":{"line1":null,"line2":null,"city":null,"state":null,"zip":null},"incomeTract":null,"incomeBlockGroup":null,"nearestRoad":null,"flu":null,"opportunityZone":null,"oz2Eligibility":null,"source":"ga-ware-parcels-13299","appraiserUrl":"https://qpublic.schneidercorp.com/Application.aspx?App=WareCountyGA&Layer=Parcels&PageType=Report&KeyValue=156%20%20%20%20003","gisViewerUrl":"https://warecogis.maps.arcgis.com/apps/webappviewer/index.html?id=360c2d9273df432b8b8362096abd9b84"},"geometry":{"type":"Polygon","coordinates":[[[-82.450151,30.950263],[-82.448445,30.948984],[-82.448068,30.948695],[-82.447874,30.948573],[-82.447705,30.948528],[-82.44742,30.948529],[-82.446737,30.94857],[-82.445086,30.948716],[-82.443616,30.948885],[-82.440068,30.949423],[-82.440222,30.950294],[-82.450151,30.950263]]]}},{"type":"Feature","id":"13299:153    004 A","properties":{"id":"13299:153    004 A","parcelId":"153    004 A","countyFips":"13299","countyName":"Ware","state":"Georgia","marketIds":["Valdosta"],"situsAddress":null,"situsCity":null,"situsZip":null,"jurisdictionCode":null,"ownerName":null,"ownerName2":null,"propertyName":null,"zoningCode":null,"zoningDistrict":null,"jurisdictionPrefix":null,"dorCode":"E","acreage":35.51,"centroid":[-82.432224,30.95228],"lastSale":{"date":null,"price":null,"qualified":null},"tax":{"marketValue":null,"assessedValue":null,"taxableValue":null,"taxes":null},"mailingAddress":{"line1":null,"line2":null,"city":null,"state":null,"zip":null},"incomeTract":null,"incomeBlockGroup":null,"nearestRoad":null,"flu":null,"opportunityZone":null,"oz2Eligibility":null,"source":"ga-ware-parcels-13299","appraiserUrl":"https://qpublic.schneidercorp.com/Application.aspx?App=WareCountyGA&Layer=Parcels&PageType=Report&KeyValue=153%20%20%20%20004%20A","gisViewerUrl":"https://warecogis.maps.arcgis.com/apps/webappviewer/index.html?id=360c2d9273df432b8b8362096abd9b84"},"geometry":{"type":"Polygon","coordinates":[[[-82.430263,30.953518],[-82.430393,30.95351],[-82.430845,30.953445],[-82.431252,30.953302],[-82.435468,30.951568],[-82.437145,30.9503],[-82.430203,30.950314],[-82.430263,30.953518]]]}},{"type":"Feature","id":"13299:151    001 C","properties":{"id":"13299:151    001 C","parcelId":"151    001 C","countyFips":"13299","countyName":"Ware","state":"Georgia","marketIds":["Valdosta"],"situsAddress":null,"situsCity":null,"situsZip":null,"jurisdictionCode":null,"ownerName":null,"ownerName2":null,"propertyName":null,"zoningCode":null,"zoningDistrict":null,"jurisdictionPrefix":null,"dorCode":"A","acreage":132.13,"centroid":[-82.449706,30.990505],"lastSale":{"date":null,"price":null,"qualified":null},"tax":{"marketValue":null,"assessedValue":null,"taxableValue":null,"taxes":null},"mailingAddress":{"line1":null,"line2":null,"city":null,"state":null,"zip":null},"incomeTract":null,"incomeBlockGroup":null,"nearestRoad":null,"flu":null,"opportunityZone":null,"oz2Eligibility":null,"source":"ga-ware-parcels-13299","appraiserUrl":"https://qpublic.schneidercorp.com/Application.aspx?App=WareCountyGA&Layer=Parcels&PageType=Report&KeyValue=151%20%20%20%20001%20C","gisViewerUrl":"https://warecogis.maps.arcgis.com/apps/webappviewer/index.html?id=360c2d9273df432b8b8362096abd9b84"},"geometry":{"type":"Polygon","coordinates":[[[-82.449528,30.990407],[-82.449818,30.990699],[-82.449771,30.990409],[-82.449528,30.990407]]]}},{"type":"Feature","id":"13299:151    001 B","properties":{"id":"13299:151    001 B","parcelId":"151    001 B","countyFips":"13299","countyName":"Ware","state":"Georgia","marketIds":["Valdosta"],"situsAddress":null,"situsCity":null,"situsZip":null,"jurisdictionCode":null,"ownerName":null,"ownerName2":null,"propertyName":null,"zoningCode":null,"zoningDistrict":null,"jurisdictionPrefix":null,"dorCode":"V","acreage":77.16,"centroid":[-82.457221,30.993322],"lastSale":{"date":null,"price":null,"qualified":null},"tax":{"marketValue":null,"assessedValue":null,"taxableValue":null,"taxes":null},"mailingAddress":{"line1":null,"line2":null,"city":null,"state":null,"zip":null},"incomeTract":null,"incomeBlockGroup":null,"nearestRoad":null,"flu":null,"opportunityZone":null,"oz2Eligibility":null,"source":"ga-ware-parcels-13299","appraiserUrl":"https://qpublic.schneidercorp.com/Application.aspx?App=WareCountyGA&Layer=Parcels&PageType=Report&KeyValue=151%20%20%20%20001%20B","gisViewerUrl":"https://warecogis.maps.arcgis.com/apps/webappviewer/index.html?id=360c2d9273df432b8b8362096abd9b84"},"geometry":{"type":"Polygon","coordinates":[[[-82.455089,30.994474],[-82.453579,30.99449],[-82.456367,30.997324],[-82.459837,30.993557],[-82.460547,30.992559],[-82.460547,30.99043],[-82.454579,30.990419],[-82.455089,30.994474]]]}},{"type":"Feature","id":"13299:151 01 001 E","properties":{"id":"13299:151 01 001 E","parcelId":"151 01 001 E","countyFips":"13299","countyName":"Ware","state":"Georgia","marketIds":["Valdosta"],"situsAddress":null,"situsCity":null,"situsZip":null,"jurisdictionCode":null,"ownerName":null,"ownerName2":null,"propertyName":null,"zoningCode":null,"zoningDistrict":null,"jurisdictionPrefix":null,"dorCode":"E","acreage":27.6,"centroid":[-82.458548,30.996591],"lastSale":{"date":null,"price":null,"qualified":null},"tax":{"marketValue":null,"assessedValue":null,"taxableValue":null,"taxes":null},"mailingAddress":{"line1":null,"line2":null,"city":null,"state":null,"zip":null},"incomeTract":null,"incomeBlockGroup":null,"nearestRoad":null,"flu":null,"opportunityZone":null,"oz2Eligibility":null,"source":"ga-ware-parcels-13299","appraiserUrl":"https://qpublic.schneidercorp.com/Application.aspx?App=WareCountyGA&Layer=Parcels&PageType=Report&KeyValue=151%2001%20001%20E","gisViewerUrl":"https://warecogis.maps.arcgis.com/apps/webappviewer/index.html?id=360c2d9273df432b8b8362096abd9b84"},"geometry":{"type":"Polygon","coordinates":[[[-82.458351,30.995587],[-82.456952,30.997095],[-82.45667,30.9974],[-82.456195,30.998019],[-82.460571,30.998],[-82.460547,30.996817],[-82.460547,30.993216],[-82.458351,30.995587]]]}},{"type":"Feature","id":"13299:151 01 001 J","properties":{"id":"13299:151 01 001 J","parcelId":"151 01 001 J","countyFips":"13299","countyName":"Ware","state":"Georgia","marketIds":["Valdosta"],"situsAddress":null,"situsCity":null,"situsZip":null,"jurisdictionCode":null,"ownerName":null,"ownerName2":null,"propertyName":null,"zoningCode":null,"zoningDistrict":null,"jurisdictionPrefix":null,"dorCode":"A","acreage":7.78,"centroid":[-82.45806,30.998944],"lastSale":{"date":null,"price":null,"qualified":null},"tax":{"marketValue":null,"assessedValue":null,"taxableValue":null,"taxes":null},"mailingAddress":{"line1":null,"line2":null,"city":null,"state":null,"zip":null},"incomeTract":null,"incomeBlockGroup":null,"nearestRoad":null,"flu":null,"opportunityZone":null,"oz2Eligibility":null,"source":"ga-ware-parcels-13299","appraiserUrl":"https://qpublic.schneidercorp.com/Application.aspx?App=WareCountyGA&Layer=Parcels&PageType=Report&KeyValue=151%2001%20001%20J","gisViewerUrl":"https://warecogis.maps.arcgis.com/apps/webappviewer/index.html?id=360c2d9273df432b8b8362096abd9b84"},"geometry":{"type":"Polygon","coordinates":[[[-82.455746,30.998657],[-82.455334,30.999238],[-82.460583,30.999236],[-82.460577,30.998646],[-82.455746,30.998657]]]}},{"type":"Feature","id":"13299:151 01 001 H","properties":{"id":"13299:151 01 001 H","parcelId":"151 01 001 H","countyFips":"13299","countyName":"Ware","state":"Georgia","marketIds":["Valdosta"],"situsAddress":null,"situsCity":null,"situsZip":null,"jurisdictionCode":null,"ownerName":null,"ownerName2":null,"propertyName":null,"zoningCode":null,"zoningDistrict":null,"jurisdictionPrefix":null,"dorCode":"R","acreage":20.0,"centroid":[-82.457709,30.999913],"lastSale":{"date":null,"price":null,"qualified":null},"tax":{"marketValue":null,"assessedValue":null,"taxableValue":null,"taxes":null},"mailingAddress":{"line1":null,"line2":null,"city":null,"state":null,"zip":null},"incomeTract":null,"incomeBlockGroup":null,"nearestRoad":null,"flu":null,"opportunityZone":null,"oz2Eligibility":null,"source":"ga-ware-parcels-13299","appraiserUrl":"https://qpublic.schneidercorp.com/Application.aspx?App=WareCountyGA&Layer=Parcels&PageType=Report&KeyValue=151%2001%20001%20H","gisViewerUrl":"https://warecogis.maps.arcgis.com/apps/webappviewer/index.html?id=360c2d9273df432b8b8362096abd9b84"},"geometry":{"type":"Polygon","coordinates":[[[-82.455328,30.999248],[-82.45438,31.000549],[-82.460546,31.00062],[-82.460583,30.999236],[-82.455328,30.999248]]]}},{"type":"Feature","id":"13299:151    006 A","properties":{"id":"13299:151    006 A","parcelId":"151    006 A","countyFips":"13299","countyName":"Ware","state":"Georgia","marketIds":["Valdosta"],"situsAddress":null,"situsCity":null,"situsZip":null,"jurisdictionCode":null,"ownerName":null,"ownerName2":null,"propertyName":null,"zoningCode":null,"zoningDistrict":null,"jurisdictionPrefix":null,"dorCode":"V","acreage":62.69,"centroid":[-82.486803,30.979592],"lastSale":{"date":null,"price":null,"qualified":null},"tax":{"marketValue":null,"assessedValue":null,"taxableValue":null,"taxes":null},"mailingAddress":{"line1":null,"line2":null,"city":null,"state":null,"zip":null},"incomeTract":null,"incomeBlockGroup":null,"nearestRoad":null,"flu":null,"opportunityZone":null,"oz2Eligibility":null,"source":"ga-ware-parcels-13299","appraiserUrl":"https://qpublic.schneidercorp.com/Application.aspx?App=WareCountyGA&Layer=Parcels&PageType=Report&KeyValue=151%20%20%20%20006%20A","gisViewerUrl":"https://warecogis.maps.arcgis.com/apps/webappviewer/index.html?id=360c2d9273df432b8b8362096abd9b84"},"geometry":{"type":"Polygon","coordinates":[[[-82.487076,30.981304],[-82.488356,30.980874],[-82.488365,30.980901],[-82.490676,30.979981],[-82.490653,30.976904],[-82.484827,30.976895],[-82.484499,30.9773],[-82.485052,30.977745],[-82.484609,30.980622],[-82.485282,30.98114],[-82.485433,30.981843],[-82.487076,30.981304]]]}},{"type":"Feature","id":"13299:151    004 F","properties":{"id":"13299:151    004 F","parcelId":"151    004 F","countyFips":"13299","countyName":"Ware","state":"Georgia","marketIds":["Valdosta"],"situsAddress":null,"situsCity":null,"situsZip":null,"jurisdictionCode":null,"ownerName":null,"ownerName2":null,"propertyName":null,"zoningCode":null,"zoningDistrict":null,"jurisdictionPrefix":null,"dorCode":"V","acreage":25.0,"centroid":[-82.479578,30.992185],"lastSale":{"date":null,"price":null,"qualified":null},"tax":{"marketValue":null,"assessedValue":null,"taxableValue":null,"taxes":null},"mailingAddress":{"line1":null,"line2":null,"city":null,"state":null,"zip":null},"incomeTract":null,"incomeBlockGroup":null,"nearestRoad":null,"flu":null,"opportunityZone":null,"oz2Eligibility":null,"source":"ga-ware-parcels-13299","appraiserUrl":"https://qpublic.schneidercorp.com/Application.aspx?App=WareCountyGA&Layer=Parcels&PageType=Report&KeyValue=151%20%20%20%20004%20F","gisViewerUrl":"https://warecogis.maps.arcgis.com/apps/webappviewer/index.html?id=360c2d9273df432b8b8362096abd9b84"},"geometry":{"type":"Polygon","coordinates":[[[-82.475687,30.991584],[-82.475709,30.992816],[-82.483368,30.992786],[-82.483548,30.991554],[-82.475687,30.991584]]]}},{"type":"Feature","id":"13299:151    004 E","properties":{"id":"13299:151    004 E","parcelId":"151    004 E","countyFips":"13299","countyName":"Ware","state":"Georgia","marketIds":["Valdosta"],"situsAddress":null,"situsCity":null,"situsZip":null,"jurisdictionCode":null,"ownerName":null,"ownerName2":null,"propertyName":null,"zoningCode":null,"zoningDistrict":null,"jurisdictionPrefix":null,"dorCode":"V","acreage":25.0,"centroid":[-82.480262,30.993304],"lastSale":{"date":null,"price":null,"qualified":null},"tax":{"marketValue":null,"assessedValue":null,"taxableValue":null,"taxes":null},"mailingAddress":{"line1":null,"line2":null,"city":null,"state":null,"zip":null},"incomeTract":null,"incomeBlockGroup":null,"nearestRoad":null,"flu":null,"opportunityZone":null,"oz2Eligibility":null,"source":"ga-ware-parcels-13299","appraiserUrl":"https://qpublic.schneidercorp.com/Application.aspx?App=WareCountyGA&Layer=Parcels&PageType=Report&KeyValue=151%20%20%20%20004%20E","gisViewerUrl":"https://warecogis.maps.arcgis.com/apps/webappviewer/index.html?id=360c2d9273df432b8b8362096abd9b84"},"geometry":{"type":"Polygon","coordinates":[[[-82.483368,30.992786],[-82.483319,30.992786],[-82.475709,30.992816],[-82.475731,30.994081],[-82.483182,30.994052],[-82.483368,30.992786]]]}},{"type":"Feature","id":"13299:151    004 G","properties":{"id":"13299:151    004 G","parcelId":"151    004 G","countyFips":"13299","countyName":"Ware","state":"Georgia","marketIds":["Valdosta"],"situsAddress":null,"situsCity":null,"situsZip":null,"jurisdictionCode":null,"ownerName":null,"ownerName2":null,"propertyName":null,"zoningCode":null,"zoningDistrict":null,"jurisdictionPrefix":null,"dorCode":"V","acreage":25.0,"centroid":[-82.480143,30.990958],"lastSale":{"date":null,"price":null,"qualified":null},"tax":{"marketValue":null,"assessedValue":null,"taxableValue":null,"taxes":null},"mailingAddress":{"line1":null,"line2":null,"city":null,"state":null,"zip":null},"incomeTract":null,"incomeBlockGroup":null,"nearestRoad":null,"flu":null,"opportunityZone":null,"oz2Eligibility":null,"source":"ga-ware-parcels-13299","appraiserUrl":"https://qpublic.schneidercorp.com/Application.aspx?App=WareCountyGA&Layer=Parcels&PageType=Report&KeyValue=151%20%20%20%20004%20G","gisViewerUrl":"https://warecogis.maps.arcgis.com/apps/webappviewer/index.html?id=360c2d9273df432b8b8362096abd9b84"},"geometry":{"type":"Polygon","coordinates":[[[-82.475687,30.991584],[-82.483506,30.991553],[-82.483548,30.991554],[-82.483715,30.990327],[-82.478735,30.990372],[-82.475665,30.990358],[-82.475687,30.991584]]]}},{"type":"Feature","id":"13299:151    004 D","properties":{"id":"13299:151    004 D","parcelId":"151    004 D","countyFips":"13299","countyName":"Ware","state":"Georgia","marketIds":["Valdosta"],"situsAddress":null,"situsCity":null,"situsZip":null,"jurisdictionCode":null,"ownerName":null,"ownerName2":null,"propertyName":null,"zoningCode":null,"zoningDistrict":null,"jurisdictionPrefix":null,"dorCode":"V","acreage":25.0,"centroid":[-82.480647,30.994769],"lastSale":{"date":null,"price":null,"qualified":null},"tax":{"marketValue":null,"assessedValue":null,"taxableValue":null,"taxes":null},"mailingAddress":{"line1":null,"line2":null,"city":null,"state":null,"zip":null},"incomeTract":null,"incomeBlockGroup":null,"nearestRoad":null,"flu":null,"opportunityZone":null,"oz2Eligibility":null,"source":"ga-ware-parcels-13299","appraiserUrl":"https://qpublic.schneidercorp.com/Application.aspx?App=WareCountyGA&Layer=Parcels&PageType=Report&KeyValue=151%20%20%20%20004%20D","gisViewerUrl":"https://warecogis.maps.arcgis.com/apps/webappviewer/index.html?id=360c2d9273df432b8b8362096abd9b84"},"geometry":{"type":"Polygon","coordinates":[[[-82.483056,30.995353],[-82.483061,30.995113],[-82.483098,30.994634],[-82.483182,30.994052],[-82.475731,30.994081],[-82.475755,30.995381],[-82.483056,30.995353]]]}},{"type":"Feature","id":"13299:151    004 C","properties":{"id":"13299:151    004 C","parcelId":"151    004 C","countyFips":"13299","countyName":"Ware","state":"Georgia","marketIds":["Valdosta"],"situsAddress":null,"situsCity":null,"situsZip":null,"jurisdictionCode":null,"ownerName":null,"ownerName2":null,"propertyName":null,"zoningCode":null,"zoningDistrict":null,"jurisdictionPrefix":null,"dorCode":"V","acreage":25.0,"centroid":[-82.480156,30.996018],"lastSale":{"date":null,"price":null,"qualified":null},"tax":{"marketValue":null,"assessedValue":null,"taxableValue":null,"taxes":null},"mailingAddress":{"line1":null,"line2":null,"city":null,"state":null,"zip":null},"incomeTract":null,"incomeBlockGroup":null,"nearestRoad":null,"flu":null,"opportunityZone":null,"oz2Eligibility":null,"source":"ga-ware-parcels-13299","appraiserUrl":"https://qpublic.schneidercorp.com/Application.aspx?App=WareCountyGA&Layer=Parcels&PageType=Report&KeyValue=151%20%20%20%20004%20C","gisViewerUrl":"https://warecogis.maps.arcgis.com/apps/webappviewer/index.html?id=360c2d9273df432b8b8362096abd9b84"},"geometry":{"type":"Polygon","coordinates":[[[-82.48311,30.99666],[-82.483082,30.996007],[-82.483056,30.995353],[-82.475755,30.995381],[-82.475778,30.996689],[-82.48311,30.99666]]]}},{"type":"Feature","id":"13299:151    004 B","properties":{"id":"13299:151    004 B","parcelId":"151    004 B","countyFips":"13299","countyName":"Ware","state":"Georgia","marketIds":["Valdosta"],"situsAddress":null,"situsCity":null,"situsZip":null,"jurisdictionCode":null,"ownerName":null,"ownerName2":null,"propertyName":null,"zoningCode":null,"zoningDistrict":null,"jurisdictionPrefix":null,"dorCode":"V","acreage":25.0,"centroid":[-82.479464,30.997319],"lastSale":{"date":null,"price":null,"qualified":null},"tax":{"marketValue":null,"assessedValue":null,"taxableValue":null,"taxes":null},"mailingAddress":{"line1":null,"line2":null,"city":null,"state":null,"zip":null},"incomeTract":null,"incomeBlockGroup":null,"nearestRoad":null,"flu":null,"opportunityZone":null,"oz2Eligibility":null,"source":"ga-ware-parcels-13299","appraiserUrl":"https://qpublic.schneidercorp.com/Application.aspx?App=WareCountyGA&Layer=Parcels&PageType=Report&KeyValue=151%20%20%20%20004%20B","gisViewerUrl":"https://warecogis.maps.arcgis.com/apps/webappviewer/index.html?id=360c2d9273df432b8b8362096abd9b84"},"geometry":{"type":"Polygon","coordinates":[[[-82.475801,30.997966],[-82.483165,30.997962],[-82.48311,30.99666],[-82.475778,30.996689],[-82.475801,30.997966]]]}},{"type":"Feature","id":"13299:151 01 001 K","properties":{"id":"13299:151 01 001 K","parcelId":"151 01 001 K","countyFips":"13299","countyName":"Ware","state":"Georgia","marketIds":["Valdosta"],"situsAddress":null,"situsCity":null,"situsZip":null,"jurisdictionCode":null,"ownerName":null,"ownerName2":null,"propertyName":null,"zoningCode":null,"zoningDistrict":null,"jurisdictionPrefix":null,"dorCode":"A","acreage":7.78,"centroid":[-82.458272,30.998331],"lastSale":{"date":null,"price":null,"qualified":null},"tax":{"marketValue":null,"assessedValue":null,"taxableValue":null,"taxes":null},"mailingAddress":{"line1":null,"line2":null,"city":null,"state":null,"zip":null},"incomeTract":null,"incomeBlockGroup":null,"nearestRoad":null,"flu":null,"opportunityZone":null,"oz2Eligibility":null,"source":"ga-ware-parcels-13299","appraiserUrl":"https://qpublic.schneidercorp.com/Application.aspx?App=WareCountyGA&Layer=Parcels&PageType=Report&KeyValue=151%2001%20001%20K","gisViewerUrl":"https://warecogis.maps.arcgis.com/apps/webappviewer/index.html?id=360c2d9273df432b8b8362096abd9b84"},"geometry":{"type":"Polygon","coordinates":[[[-82.460577,30.998646],[-82.460571,30.998],[-82.456195,30.998019],[-82.455746,30.998657],[-82.460577,30.998646]]]}},{"type":"Feature","id":"13299:158    001","properties":{"id":"13299:158    001","parcelId":"158    001","countyFips":"13299","countyName":"Ware","state":"Georgia","marketIds":["Valdosta"],"situsAddress":null,"situsCity":null,"situsZip":null,"jurisdictionCode":null,"ownerName":null,"ownerName2":null,"propertyName":null,"zoningCode":null,"zoningDistrict":null,"jurisdictionPrefix":null,"dorCode":"A","acreage":97.0,"centroid":[-82.428884,30.766041],"lastSale":{"date":null,"price":null,"qualified":null},"tax":{"marketValue":null,"assessedValue":null,"taxableValue":null,"taxes":null},"mailingAddress":{"line1":null,"line2":null,"city":null,"state":null,"zip":null},"incomeTract":null,"incomeBlockGroup":null,"nearestRoad":null,"flu":null,"opportunityZone":null,"oz2Eligibility":null,"source":"ga-ware-parcels-13299","appraiserUrl":"https://qpublic.schneidercorp.com/Application.aspx?App=WareCountyGA&Layer=Parcels&PageType=Report&KeyValue=158%20%20%20%20001","gisViewerUrl":"https://warecogis.maps.arcgis.com/apps/webappviewer/index.html?id=360c2d9273df432b8b8362096abd9b84"},"geometry":{"type":"Polygon","coordinates":[[[-82.431171,30.76377],[-82.429565,30.764544],[-82.428093,30.765312],[-82.427581,30.76564],[-82.427154,30.766029],[-82.426823,30.766417],[-82.426579,30.766911],[-82.426563,30.767009],[-82.426585,30.767073],[-82.42666,30.767148],[-82.432032,30.769419],[-82.432005,30.768025],[-82.431782,30.763803],[-82.431778,30.763468],[-82.431171,30.76377]]]}}]}