{"type":"FeatureCollection","name":"12029--1_11","features":[{"type":"Feature","id":"12029:290811000010050100","properties":{"id":"12029:290811000010050100","parcelId":"290811000010050100","countyFips":"12029","countyName":"Dixie","state":"Florida","marketIds":["Big Bend"],"situsAddress":"3850 NW HWY 357","situsCity":"UNINCORPORATED","situsZip":null,"jurisdictionCode":null,"ownerName":"EIGHT MILE PROPERTIES LLC","ownerName2":null,"propertyName":null,"zoningCode":null,"zoningDistrict":null,"jurisdictionPrefix":null,"dorCode":"056","acreage":149.0497,"centroid":[-83.237979,29.756935],"lastSale":{"date":null,"price":null,"qualified":null},"tax":{"marketValue":229138.0,"assessedValue":null,"taxableValue":null,"taxes":null},"mailingAddress":{"line1":"P O BOX 357","line2":null,"city":"MAYO","state":"FL","zip":"32066"},"incomeTract":null,"incomeBlockGroup":null,"nearestRoad":null,"flu":null,"opportunityZone":null,"oz2Eligibility":null,"source":"fl-srwmd-parcels-12029"},"geometry":{"type":"Polygon","coordinates":[[[-83.237581,29.764805],[-83.238312,29.764799],[-83.239143,29.758152],[-83.239159,29.757459],[-83.239129,29.75686],[-83.239058,29.756263],[-83.238644,29.754119],[-83.238672,29.753658],[-83.238271,29.751831],[-83.238084,29.750209],[-83.234794,29.750236],[-83.234897,29.764829],[-83.237581,29.764805]]]}},{"type":"Feature","id":"12029:200813000037470100","properties":{"id":"12029:200813000037470100","parcelId":"200813000037470100","countyFips":"12029","countyName":"Dixie","state":"Florida","marketIds":["Big Bend"],"situsAddress":"5696 NE 876 AVE","situsCity":"UNINCORPORATED","situsZip":null,"jurisdictionCode":null,"ownerName":"GRIFFIN INVESTMENT LAND COMPAN","ownerName2":null,"propertyName":null,"zoningCode":null,"zoningDistrict":null,"jurisdictionPrefix":null,"dorCode":"056","acreage":122.6491,"centroid":[-83.042681,29.768538],"lastSale":{"date":null,"price":675000.0,"qualified":null},"tax":{"marketValue":199150.0,"assessedValue":null,"taxableValue":null,"taxes":null},"mailingAddress":{"line1":"P O BOX 708","line2":null,"city":"KEYSTONE HEIGHTS","state":"FL","zip":"32656"},"incomeTract":null,"incomeBlockGroup":null,"nearestRoad":null,"flu":null,"opportunityZone":null,"oz2Eligibility":null,"source":"fl-srwmd-parcels-12029"},"geometry":{"type":"MultiPolygon","coordinates":[[[[-83.043571,29.7664],[-83.04275,29.766407],[-83.041295,29.766417],[-83.041386,29.766588],[-83.041426,29.766788],[-83.041449,29.767148],[-83.041431,29.767511],[-83.041388,29.767793],[-83.041323,29.768051],[-83.041061,29.768637],[-83.041029,29.768798],[-83.041021,29.768957],[-83.0411,29.769533],[-83.04114,29.76966],[-83.041279,29.769865],[-83.041479,29.770008],[-83.042182,29.770143],[-83.042473,29.770232],[-83.042728,29.770354],[-83.04338,29.77075],[-83.043379,29.770024],[-83.0517,29.769963],[-83.051696,29.766339],[-83.043571,29.7664]]],[[[-83.049874,29.773606],[-83.048206,29.773619],[-83.04852,29.774357],[-83.048654,29.774577],[-83.048814,29.77478],[-83.050123,29.776167],[-83.051708,29.777555],[-83.051704,29.773593],[-83.049874,29.773606]]]]}},{"type":"Feature","id":"12029:150813000037410200","properties":{"id":"12029:150813000037410200","parcelId":"150813000037410200","countyFips":"12029","countyName":"Dixie","state":"Florida","marketIds":["Big Bend"],"situsAddress":"NE UNASSIGNED","situsCity":"UNINCORPORATED","situsZip":null,"jurisdictionCode":null,"ownerName":"IRON HORSE ACRES LLC","ownerName2":null,"propertyName":null,"zoningCode":null,"zoningDistrict":null,"jurisdictionPrefix":null,"dorCode":"052","acreage":122.4677,"centroid":[-83.003714,29.789247],"lastSale":{"date":null,"price":null,"qualified":null},"tax":{"marketValue":197750.0,"assessedValue":null,"taxableValue":null,"taxes":null},"mailingAddress":{"line1":"C/O MANULIFE INVESTMENT MANAGEMENT AG IN","line2":null,"city":"TURLOCK","state":"CA","zip":"95380"},"incomeTract":null,"incomeBlockGroup":null,"nearestRoad":null,"flu":null,"opportunityZone":null,"oz2Eligibility":null,"source":"fl-srwmd-parcels-12029"},"geometry":{"type":"Polygon","coordinates":[[[-83.00275,29.78493],[-83.001852,29.78493],[-83.001774,29.795737],[-83.006102,29.795706],[-83.006094,29.78493],[-83.00275,29.78493]]]}},{"type":"Feature","id":"12029:140812000013090100","properties":{"id":"12029:140812000013090100","parcelId":"140812000013090100","countyFips":"12029","countyName":"Dixie","state":"Florida","marketIds":["Big Bend"],"situsAddress":"NE UNASSIGNED","situsCity":"UNINCORPORATED","situsZip":null,"jurisdictionCode":null,"ownerName":"PB FORESTRY LMTD PARTNERSHIP","ownerName2":null,"propertyName":null,"zoningCode":null,"zoningDistrict":null,"jurisdictionPrefix":null,"dorCode":"056","acreage":118.6403,"centroid":[-83.092368,29.793736],"lastSale":{"date":null,"price":null,"qualified":null},"tax":{"marketValue":195384.0,"assessedValue":null,"taxableValue":null,"taxes":null},"mailingAddress":{"line1":"C/O PETER BAGEL","line2":null,"city":"GERMANY","state":"XX","zip":null},"incomeTract":null,"incomeBlockGroup":null,"nearestRoad":null,"flu":null,"opportunityZone":null,"oz2Eligibility":null,"source":"fl-srwmd-parcels-12029"},"geometry":{"type":"MultiPolygon","coordinates":[[[[-83.085302,29.795121],[-83.095002,29.795046],[-83.094887,29.794728],[-83.094729,29.79442],[-83.09453,29.794131],[-83.094294,29.793864],[-83.094025,29.793626],[-83.093871,29.793532],[-83.093531,29.79336],[-83.093177,29.793223],[-83.092827,29.793126],[-83.089344,29.792554],[-83.085267,29.791838],[-83.085302,29.795121]]],[[[-83.09976,29.791178],[-83.099508,29.791225],[-83.097991,29.791698],[-83.09744,29.791842],[-83.096866,29.792025],[-83.096371,29.792209],[-83.096139,29.792466],[-83.095514,29.792969],[-83.095268,29.793375],[-83.09514,29.793754],[-83.095072,29.79412],[-83.095017,29.794569],[-83.095198,29.795045],[-83.101947,29.794992],[-83.101909,29.791491],[-83.101406,29.791335],[-83.100949,29.791241],[-83.100436,29.791165],[-83.100104,29.791142],[-83.09976,29.791178]]]]}},{"type":"Feature","id":"12029:150813000037410000","properties":{"id":"12029:150813000037410000","parcelId":"150813000037410000","countyFips":"12029","countyName":"Dixie","state":"Florida","marketIds":["Big Bend"],"situsAddress":"NE UNASSIGNED","situsCity":"UNINCORPORATED","situsZip":null,"jurisdictionCode":null,"ownerName":"BASCOM GULF LLC","ownerName2":null,"propertyName":null,"zoningCode":null,"zoningDistrict":null,"jurisdictionPrefix":null,"dorCode":"056","acreage":117.617,"centroid":[-83.016212,29.789677],"lastSale":{"date":null,"price":null,"qualified":null},"tax":{"marketValue":196952.0,"assessedValue":null,"taxableValue":null,"taxes":null},"mailingAddress":{"line1":"C/O CAMPBELL GLOBAL LLC","line2":null,"city":"CHARLOTTE","state":"NC","zip":"28273"},"incomeTract":null,"incomeBlockGroup":null,"nearestRoad":null,"flu":null,"opportunityZone":null,"oz2Eligibility":null,"source":"fl-srwmd-parcels-12029"},"geometry":{"type":"Polygon","coordinates":[[[-83.017082,29.784927],[-83.014365,29.784928],[-83.014391,29.792017],[-83.014377,29.795647],[-83.018538,29.795618],[-83.01852,29.784927],[-83.017082,29.784927]]]}},{"type":"Feature","id":"12029:180813000037450100","properties":{"id":"12029:180813000037450100","parcelId":"180813000037450100","countyFips":"12029","countyName":"Dixie","state":"Florida","marketIds":["Big Bend"],"situsAddress":"NE UNASSIGNED","situsCity":"UNINCORPORATED","situsZip":null,"jurisdictionCode":null,"ownerName":"TRIPLE B LAND LLC","ownerName2":null,"propertyName":null,"zoningCode":null,"zoningDistrict":null,"jurisdictionPrefix":null,"dorCode":"056","acreage":116.5786,"centroid":[-83.06569,29.786351],"lastSale":{"date":null,"price":null,"qualified":null},"tax":{"marketValue":185150.0,"assessedValue":null,"taxableValue":null,"taxes":null},"mailingAddress":{"line1":"4225 BEAR GULLY ROAD","line2":null,"city":"WINTER PARK","state":"FL","zip":"32792"},"incomeTract":null,"incomeBlockGroup":null,"nearestRoad":null,"flu":null,"opportunityZone":null,"oz2Eligibility":null,"source":"fl-srwmd-parcels-12029"},"geometry":{"type":"Polygon","coordinates":[[[-83.066644,29.786982],[-83.066646,29.786983],[-83.067279,29.787338],[-83.068062,29.787746],[-83.068337,29.787935],[-83.068584,29.788154],[-83.068507,29.78073],[-83.055991,29.780824],[-83.056248,29.780974],[-83.056476,29.781161],[-83.057015,29.781806],[-83.057136,29.781928],[-83.057319,29.782061],[-83.057522,29.782161],[-83.057752,29.782238],[-83.057992,29.782286],[-83.059219,29.782375],[-83.059709,29.782443],[-83.060194,29.782534],[-83.060467,29.782604],[-83.060784,29.782713],[-83.061074,29.782838],[-83.061351,29.782985],[-83.061773,29.783266],[-83.062231,29.78367],[-83.062529,29.783989],[-83.063264,29.784897],[-83.063507,29.785144],[-83.063769,29.785371],[-83.064683,29.785975],[-83.065987,29.786602],[-83.066644,29.786982]]]}},{"type":"Feature","id":"12029:230812000013180000","properties":{"id":"12029:230812000013180000","parcelId":"230812000013180000","countyFips":"12029","countyName":"Dixie","state":"Florida","marketIds":["Big Bend"],"situsAddress":"3353 NE 774 AVE","situsCity":"UNINCORPORATED","situsZip":null,"jurisdictionCode":null,"ownerName":"FRANK CHRISTY","ownerName2":null,"propertyName":null,"zoningCode":null,"zoningDistrict":null,"jurisdictionPrefix":null,"dorCode":"056","acreage":106.8629,"centroid":[-83.087999,29.774701],"lastSale":{"date":null,"price":null,"qualified":null},"tax":{"marketValue":238914.0,"assessedValue":null,"taxableValue":null,"taxes":null},"mailingAddress":{"line1":"105 COUNTRY CLUB COURT","line2":null,"city":"GRAND ISLAND","state":"NY","zip":"14072"},"incomeTract":null,"incomeBlockGroup":null,"nearestRoad":null,"flu":null,"opportunityZone":null,"oz2Eligibility":null,"source":"fl-srwmd-parcels-12029"},"geometry":{"type":"Polygon","coordinates":[[[-83.085075,29.773364],[-83.08515,29.780603],[-83.090625,29.780561],[-83.090619,29.774156],[-83.08919,29.773191],[-83.088849,29.77304],[-83.08848,29.772952],[-83.088206,29.772931],[-83.087935,29.772945],[-83.085862,29.773272],[-83.085075,29.773364]]]}},{"type":"Feature","id":"12029:230812000013180200","properties":{"id":"12029:230812000013180200","parcelId":"230812000013180200","countyFips":"12029","countyName":"Dixie","state":"Florida","marketIds":["Big Bend"],"situsAddress":"NE UNASSIGNED","situsCity":"UNINCORPORATED","situsZip":null,"jurisdictionCode":null,"ownerName":"CHAVOUS JAMES R","ownerName2":null,"propertyName":null,"zoningCode":null,"zoningDistrict":null,"jurisdictionPrefix":null,"dorCode":"059","acreage":99.4605,"centroid":[-83.099226,29.77351],"lastSale":{"date":null,"price":null,"qualified":null},"tax":{"marketValue":169750.0,"assessedValue":null,"taxableValue":null,"taxes":null},"mailingAddress":{"line1":"C/O JAMES R CHAVOUS","line2":null,"city":"OLD TOWN","state":"FL","zip":"32680"},"incomeTract":null,"incomeBlockGroup":null,"nearestRoad":null,"flu":null,"opportunityZone":null,"oz2Eligibility":null,"source":"fl-srwmd-parcels-12029"},"geometry":{"type":"Polygon","coordinates":[[[-83.097002,29.774085],[-83.097076,29.780511],[-83.101792,29.780474],[-83.101695,29.771255],[-83.100188,29.771499],[-83.099932,29.771577],[-83.099694,29.771694],[-83.09954,29.771801],[-83.0994,29.771927],[-83.099283,29.772065],[-83.099185,29.772218],[-83.099052,29.7726],[-83.098884,29.773281],[-83.098787,29.773463],[-83.098646,29.773621],[-83.098455,29.773755],[-83.098232,29.773845],[-83.097002,29.774085]]]}},{"type":"Feature","id":"12029:220813000037550200","properties":{"id":"12029:220813000037550200","parcelId":"220813000037550200","countyFips":"12029","countyName":"Dixie","state":"Florida","marketIds":["Big Bend"],"situsAddress":"NE UNASSIGNED","situsCity":"UNINCORPORATED","situsZip":null,"jurisdictionCode":null,"ownerName":"SHRODE CAROL J","ownerName2":null,"propertyName":null,"zoningCode":null,"zoningDistrict":null,"jurisdictionPrefix":null,"dorCode":"056","acreage":99.2844,"centroid":[-83.00507,29.770019],"lastSale":{"date":null,"price":null,"qualified":null},"tax":{"marketValue":169750.0,"assessedValue":null,"taxableValue":null,"taxes":null},"mailingAddress":{"line1":"266 BEAVER CT","line2":null,"city":"VENICE","state":"FL","zip":"34292"},"incomeTract":null,"incomeBlockGroup":null,"nearestRoad":null,"flu":null,"opportunityZone":null,"oz2Eligibility":null,"source":"fl-srwmd-parcels-12029"},"geometry":{"type":"Polygon","coordinates":[[[-83.004178,29.771511],[-83.005144,29.771516],[-83.010048,29.771538],[-83.01006,29.766676],[-83.001742,29.766745],[-83.001776,29.77035],[-83.003799,29.770307],[-83.003811,29.77151],[-83.004178,29.771511]]]}},{"type":"Feature","id":"12029:230812000013180300","properties":{"id":"12029:230812000013180300","parcelId":"230812000013180300","countyFips":"12029","countyName":"Dixie","state":"Florida","marketIds":["Big Bend"],"situsAddress":"NE UNASSIGNED","situsCity":"UNINCORPORATED","situsZip":null,"jurisdictionCode":null,"ownerName":"CHAVOUS JAMES R","ownerName2":null,"propertyName":null,"zoningCode":null,"zoningDistrict":null,"jurisdictionPrefix":null,"dorCode":"059","acreage":99.0447,"centroid":[-83.093503,29.775658],"lastSale":{"date":null,"price":null,"qualified":null},"tax":{"marketValue":169750.0,"assessedValue":null,"taxableValue":null,"taxes":null},"mailingAddress":{"line1":"C/O JAMES R CHAVOUS","line2":null,"city":"OLD TOWN","state":"FL","zip":"32680"},"incomeTract":null,"incomeBlockGroup":null,"nearestRoad":null,"flu":null,"opportunityZone":null,"oz2Eligibility":null,"source":"fl-srwmd-parcels-12029"},"geometry":{"type":"Polygon","coordinates":[[[-83.090619,29.774156],[-83.090625,29.780561],[-83.097076,29.780511],[-83.097002,29.774085],[-83.096218,29.774241],[-83.095657,29.77439],[-83.093737,29.775076],[-83.09329,29.775166],[-83.092787,29.775208],[-83.092575,29.775197],[-83.09237,29.775158],[-83.09195,29.774993],[-83.091633,29.774817],[-83.090619,29.774156]]]}},{"type":"Feature","id":"12029:280813000038190100","properties":{"id":"12029:280813000038190100","parcelId":"280813000038190100","countyFips":"12029","countyName":"Dixie","state":"Florida","marketIds":["Big Bend"],"situsAddress":"4806 NE 353 HWY","situsCity":"UNINCORPORATED","situsZip":null,"jurisdictionCode":null,"ownerName":"M L C FARMS INC","ownerName2":null,"propertyName":null,"zoningCode":null,"zoningDistrict":null,"jurisdictionPrefix":null,"dorCode":"056","acreage":97.1228,"centroid":[-83.022448,29.761387],"lastSale":{"date":null,"price":null,"qualified":null},"tax":{"marketValue":169750.0,"assessedValue":null,"taxableValue":null,"taxes":null},"mailingAddress":{"line1":"1108  N FRANKLIN ST UNIT 705","line2":null,"city":"TAMPA","state":"FL","zip":"33602"},"incomeTract":null,"incomeBlockGroup":null,"nearestRoad":null,"flu":null,"opportunityZone":null,"oz2Eligibility":null,"source":"fl-srwmd-parcels-12029"},"geometry":{"type":"Polygon","coordinates":[[[-83.022924,29.759146],[-83.021836,29.759149],[-83.018336,29.759158],[-83.018445,29.764494],[-83.022399,29.764461],[-83.022423,29.762791],[-83.026584,29.762757],[-83.026638,29.759137],[-83.022924,29.759146]]]}},{"type":"Feature","id":"12029:200811000009960100","properties":{"id":"12029:200811000009960100","parcelId":"200811000009960100","countyFips":"12029","countyName":"Dixie","state":"Florida","marketIds":["Big Bend"],"situsAddress":"NW UNASSIGNED","situsCity":"UNINCORPORATED","situsZip":null,"jurisdictionCode":null,"ownerName":"EIGHT MILE PROPERTIES LLC","ownerName2":null,"propertyName":null,"zoningCode":null,"zoningDistrict":null,"jurisdictionPrefix":null,"dorCode":"059","acreage":94.7349,"centroid":[-83.23671,29.770882],"lastSale":{"date":null,"price":null,"qualified":null},"tax":{"marketValue":148540.0,"assessedValue":null,"taxableValue":null,"taxes":null},"mailingAddress":{"line1":"P O BOX 357","line2":null,"city":"MAYO","state":"FL","zip":"32066"},"incomeTract":null,"incomeBlockGroup":null,"nearestRoad":null,"flu":null,"opportunityZone":null,"oz2Eligibility":null,"source":"fl-srwmd-parcels-12029"},"geometry":{"type":"MultiPolygon","coordinates":[[[[-83.235791,29.773053],[-83.235792,29.773053],[-83.236197,29.773127],[-83.237162,29.773472],[-83.237237,29.773461],[-83.237284,29.773404],[-83.237382,29.772389],[-83.237825,29.76888],[-83.237897,29.768068],[-83.237975,29.767662],[-83.238312,29.764799],[-83.234897,29.764829],[-83.234956,29.773071],[-83.235236,29.773079],[-83.235791,29.773053]]],[[[-83.234993,29.778293],[-83.234999,29.77921],[-83.235001,29.779364],[-83.236559,29.779351],[-83.236793,29.77731],[-83.236804,29.776792],[-83.237021,29.775718],[-83.237144,29.774533],[-83.237253,29.773695],[-83.237233,29.773649],[-83.23719,29.773618],[-83.23615,29.773259],[-83.235957,29.773212],[-83.235785,29.773191],[-83.235239,29.773217],[-83.234957,29.773209],[-83.234993,29.778293]]]]}},{"type":"Feature","id":"12029:280813000038340100","properties":{"id":"12029:280813000038340100","parcelId":"280813000038340100","countyFips":"12029","countyName":"Dixie","state":"Florida","marketIds":["Big Bend"],"situsAddress":"NE UNASSIGNED","situsCity":"UNINCORPORATED","situsZip":null,"jurisdictionCode":null,"ownerName":"SANDERS STEVE E","ownerName2":null,"propertyName":null,"zoningCode":null,"zoningDistrict":null,"jurisdictionPrefix":null,"dorCode":"063","acreage":89.5654,"centroid":[-83.024585,29.755278],"lastSale":{"date":null,"price":null,"qualified":null},"tax":{"marketValue":157066.0,"assessedValue":null,"taxableValue":null,"taxes":null},"mailingAddress":{"line1":"7133 WIGGINS ROAD","line2":null,"city":"LIVE OAK","state":"FL","zip":"32060"},"incomeTract":null,"incomeBlockGroup":null,"nearestRoad":null,"flu":null,"opportunityZone":null,"oz2Eligibility":null,"source":"fl-srwmd-parcels-12029"},"geometry":{"type":"Polygon","coordinates":[[[-83.022946,29.751832],[-83.021374,29.75183],[-83.019763,29.75184],[-83.018186,29.751822],[-83.018298,29.757304],[-83.019895,29.7573],[-83.019819,29.755295],[-83.02631,29.755631],[-83.026308,29.755713],[-83.028519,29.75576],[-83.028562,29.758106],[-83.028697,29.758198],[-83.028819,29.758071],[-83.028753,29.758026],[-83.028719,29.755611],[-83.026478,29.755553],[-83.026503,29.751838],[-83.022946,29.751832]]]}},{"type":"Feature","id":"12029:220813000037550100","properties":{"id":"12029:220813000037550100","parcelId":"220813000037550100","countyFips":"12029","countyName":"Dixie","state":"Florida","marketIds":["Big Bend"],"situsAddress":"NE UNASSIGNED","situsCity":"UNINCORPORATED","situsZip":null,"jurisdictionCode":null,"ownerName":"MOELLER ROBERT","ownerName2":null,"propertyName":null,"zoningCode":null,"zoningDistrict":null,"jurisdictionPrefix":null,"dorCode":"056","acreage":85.9069,"centroid":[-83.005678,29.773761],"lastSale":{"date":null,"price":null,"qualified":null},"tax":{"marketValue":151970.0,"assessedValue":null,"taxableValue":null,"taxes":null},"mailingAddress":{"line1":"717 NE 665 STREET","line2":null,"city":"OLD TOWN","state":"FL","zip":"32680"},"incomeTract":null,"incomeBlockGroup":null,"nearestRoad":null,"flu":null,"opportunityZone":null,"oz2Eligibility":null,"source":"fl-srwmd-parcels-12029"},"geometry":{"type":"Polygon","coordinates":[[[-83.008172,29.773849],[-83.008894,29.773458],[-83.009711,29.772889],[-83.009693,29.772355],[-83.009403,29.771535],[-83.003811,29.77151],[-83.003799,29.770307],[-83.001776,29.77035],[-83.001843,29.777596],[-83.003792,29.777597],[-83.003803,29.77595],[-83.004286,29.775854],[-83.004828,29.775643],[-83.008172,29.773849]]]}},{"type":"Feature","id":"12029:220813000037540000","properties":{"id":"12029:220813000037540000","parcelId":"220813000037540000","countyFips":"12029","countyName":"Dixie","state":"Florida","marketIds":["Big Bend"],"situsAddress":"NE UNASSIGNED","situsCity":"UNINCORPORATED","situsZip":null,"jurisdictionCode":null,"ownerName":"RICE ELLIOTT A","ownerName2":null,"propertyName":null,"zoningCode":null,"zoningDistrict":null,"jurisdictionPrefix":null,"dorCode":"063","acreage":81.5259,"centroid":[-83.016298,29.771439],"lastSale":{"date":null,"price":null,"qualified":null},"tax":{"marketValue":141750.0,"assessedValue":null,"taxableValue":null,"taxes":null},"mailingAddress":{"line1":"4000 KIMBERLY CIRCLE","line2":null,"city":"TALLAHASSEE","state":"FL","zip":"32308"},"incomeTract":null,"incomeBlockGroup":null,"nearestRoad":null,"flu":null,"opportunityZone":null,"oz2Eligibility":null,"source":"fl-srwmd-parcels-12029"},"geometry":{"type":"Polygon","coordinates":[[[-83.015971,29.773848],[-83.016362,29.773847],[-83.018501,29.773838],[-83.018488,29.766606],[-83.01419,29.766642],[-83.014276,29.773855],[-83.015971,29.773848]]]}},{"type":"Feature","id":"12029:270813000038050100","properties":{"id":"12029:270813000038050100","parcelId":"270813000038050100","countyFips":"12029","countyName":"Dixie","state":"Florida","marketIds":["Big Bend"],"situsAddress":"NE UNASSIGNED","situsCity":"UNINCORPORATED","situsZip":null,"jurisdictionCode":null,"ownerName":"RANCH NIMROD LLC","ownerName2":null,"propertyName":null,"zoningCode":null,"zoningDistrict":null,"jurisdictionPrefix":null,"dorCode":"063","acreage":81.3678,"centroid":[-83.003775,29.762904],"lastSale":{"date":null,"price":null,"qualified":null},"tax":{"marketValue":166658.0,"assessedValue":null,"taxableValue":null,"taxes":null},"mailingAddress":{"line1":"212 SOUTH MAGNOLIA AVE","line2":null,"city":"TAMPA","state":"FL","zip":"33606"},"incomeTract":null,"incomeBlockGroup":null,"nearestRoad":null,"flu":null,"opportunityZone":null,"oz2Eligibility":null,"source":"fl-srwmd-parcels-12029"},"geometry":{"type":"Polygon","coordinates":[[[-83.005877,29.766601],[-83.00581,29.759186],[-83.001674,29.759195],[-83.001741,29.766634],[-83.005877,29.766601]]]}},{"type":"Feature","id":"12029:280813000038190000","properties":{"id":"12029:280813000038190000","parcelId":"280813000038190000","countyFips":"12029","countyName":"Dixie","state":"Florida","marketIds":["Big Bend"],"situsAddress":"NE UNASSIGNED","situsCity":"UNINCORPORATED","situsZip":null,"jurisdictionCode":null,"ownerName":"BASCOM SOUTHERN LLC","ownerName2":null,"propertyName":null,"zoningCode":null,"zoningDistrict":null,"jurisdictionPrefix":null,"dorCode":"055","acreage":80.0123,"centroid":[-83.033298,29.7625],"lastSale":{"date":null,"price":null,"qualified":null},"tax":{"marketValue":141750.0,"assessedValue":null,"taxableValue":null,"taxes":null},"mailingAddress":{"line1":"C/O CAMPBELL GLOBAL LLC","line2":null,"city":"CHARLOTTE","state":"NC","zip":"28273"},"incomeTract":null,"incomeBlockGroup":null,"nearestRoad":null,"flu":null,"opportunityZone":null,"oz2Eligibility":null,"source":"fl-srwmd-parcels-12029"},"geometry":{"type":"MultiPolygon","coordinates":[[[[-83.0308,29.763304],[-83.031869,29.763301],[-83.032365,29.76326],[-83.033383,29.763133],[-83.033671,29.763123],[-83.033993,29.76316],[-83.034591,29.763271],[-83.034827,29.763296],[-83.035028,29.763294],[-83.034994,29.7592],[-83.030752,29.759155],[-83.0308,29.763304]]],[[[-83.032072,29.76345],[-83.031879,29.763466],[-83.030802,29.763484],[-83.030836,29.766503],[-83.035055,29.766468],[-83.03503,29.76346],[-83.034817,29.763461],[-83.034564,29.763434],[-83.033956,29.763322],[-83.033667,29.763288],[-83.033399,29.763298],[-83.032072,29.76345]]]]}},{"type":"Feature","id":"12029:160813000037420000","properties":{"id":"12029:160813000037420000","parcelId":"160813000037420000","countyFips":"12029","countyName":"Dixie","state":"Florida","marketIds":["Big Bend"],"situsAddress":"6411 NE 353 HWY","situsCity":"UNINCORPORATED","situsZip":null,"jurisdictionCode":null,"ownerName":"PRIME AB FLETCHER TRUST KERMIT","ownerName2":null,"propertyName":null,"zoningCode":null,"zoningDistrict":null,"jurisdictionPrefix":null,"dorCode":"063","acreage":80.001,"centroid":[-83.021015,29.784154],"lastSale":{"date":null,"price":null,"qualified":null},"tax":{"marketValue":141750.0,"assessedValue":null,"taxableValue":null,"taxes":null},"mailingAddress":{"line1":"6109 NE HWY 353","line2":null,"city":"OLD TOWN","state":"FL","zip":"32680"},"incomeTract":null,"incomeBlockGroup":null,"nearestRoad":null,"flu":null,"opportunityZone":null,"oz2Eligibility":null,"source":"fl-srwmd-parcels-12029"},"geometry":{"type":"Polygon","coordinates":[[[-83.022687,29.788328],[-83.022676,29.781917],[-83.022674,29.781068],[-83.018513,29.781098],[-83.018526,29.788358],[-83.022687,29.788328]]]}},{"type":"Feature","id":"12029:210813000037490000","properties":{"id":"12029:210813000037490000","parcelId":"210813000037490000","countyFips":"12029","countyName":"Dixie","state":"Florida","marketIds":["Big Bend"],"situsAddress":"6109 NE 353 HWY","situsCity":"UNINCORPORATED","situsZip":null,"jurisdictionCode":null,"ownerName":"PRIME AB FLETCHER TRUST KERMIT","ownerName2":null,"propertyName":null,"zoningCode":null,"zoningDistrict":null,"jurisdictionPrefix":null,"dorCode":"063","acreage":78.9231,"centroid":[-83.019726,29.776749],"lastSale":{"date":null,"price":null,"qualified":null},"tax":{"marketValue":231850.0,"assessedValue":null,"taxableValue":null,"taxes":null},"mailingAddress":{"line1":"6109 NE HWY 353","line2":null,"city":"OLD TOWN","state":"FL","zip":"32680"},"incomeTract":null,"incomeBlockGroup":null,"nearestRoad":null,"flu":null,"opportunityZone":null,"oz2Eligibility":null,"source":"fl-srwmd-parcels-12029"},"geometry":{"type":"Polygon","coordinates":[[[-83.022674,29.781068],[-83.022669,29.778372],[-83.022661,29.773809],[-83.018869,29.773836],[-83.018744,29.774211],[-83.018649,29.774593],[-83.018584,29.77498],[-83.01855,29.775369],[-83.018565,29.778275],[-83.018509,29.778625],[-83.018513,29.781098],[-83.022674,29.781068]]]}},{"type":"Feature","id":"12029:200813000037480000","properties":{"id":"12029:200813000037480000","parcelId":"200813000037480000","countyFips":"12029","countyName":"Dixie","state":"Florida","marketIds":["Big Bend"],"situsAddress":"5400 NE 876 AVE","situsCity":"UNINCORPORATED","situsZip":null,"jurisdictionCode":null,"ownerName":"JONES GARY F","ownerName2":null,"propertyName":null,"zoningCode":null,"zoningDistrict":null,"jurisdictionPrefix":null,"dorCode":"056","acreage":77.3547,"centroid":[-83.046604,29.771926],"lastSale":{"date":null,"price":null,"qualified":null},"tax":{"marketValue":141750.0,"assessedValue":null,"taxableValue":null,"taxes":null},"mailingAddress":{"line1":"13497 NE HWY 349","line2":null,"city":"OLD TOWN","state":"FL","zip":"32680"},"incomeTract":null,"incomeBlockGroup":null,"nearestRoad":null,"flu":null,"opportunityZone":null,"oz2Eligibility":null,"source":"fl-srwmd-parcels-12029"},"geometry":{"type":"MultiPolygon","coordinates":[[[[-83.046191,29.771921],[-83.046194,29.771921],[-83.04652,29.771951],[-83.046835,29.772029],[-83.047159,29.772169],[-83.047334,29.772299],[-83.04761,29.772568],[-83.047843,29.772871],[-83.048006,29.773158],[-83.048206,29.773622],[-83.051704,29.773596],[-83.0517,29.769966],[-83.043379,29.770028],[-83.04338,29.770753],[-83.04383,29.771058],[-83.044363,29.771453],[-83.044656,29.77162],[-83.044977,29.771744],[-83.045582,29.771858],[-83.046191,29.771921]]],[[[-83.043383,29.773658],[-83.048005,29.773624],[-83.047814,29.773185],[-83.04763,29.77288],[-83.047376,29.772579],[-83.047074,29.772317],[-83.046822,29.772201],[-83.046547,29.772123],[-83.045503,29.772014],[-83.045011,29.771922],[-83.044779,29.771854],[-83.04453,29.771747],[-83.044294,29.771614],[-83.04338,29.77096],[-83.043383,29.773658]]]]}},{"type":"Feature","id":"12029:280813000038070000","properties":{"id":"12029:280813000038070000","parcelId":"280813000038070000","countyFips":"12029","countyName":"Dixie","state":"Florida","marketIds":["Big Bend"],"situsAddress":"5293 NE 353 HWY","situsCity":"UNINCORPORATED","situsZip":null,"jurisdictionCode":null,"ownerName":"MILLER JANICE RUTH","ownerName2":null,"propertyName":null,"zoningCode":null,"zoningDistrict":null,"jurisdictionPrefix":null,"dorCode":"056","acreage":75.7159,"centroid":[-83.023863,29.76461],"lastSale":{"date":null,"price":null,"qualified":null},"tax":{"marketValue":159950.0,"assessedValue":null,"taxableValue":null,"taxes":null},"mailingAddress":{"line1":"5293 NE 353 HWY","line2":null,"city":"OLD TOWN","state":"FL","zip":"32680"},"incomeTract":null,"incomeBlockGroup":null,"nearestRoad":null,"flu":null,"opportunityZone":null,"oz2Eligibility":null,"source":"fl-srwmd-parcels-12029"},"geometry":{"type":"MultiPolygon","coordinates":[[[[-83.022661,29.764781],[-83.022661,29.764878],[-83.022664,29.766572],[-83.025089,29.766551],[-83.026645,29.76424],[-83.027566,29.762754],[-83.022423,29.762791],[-83.022399,29.764461],[-83.022658,29.764459],[-83.022661,29.764781]]],[[[-83.026864,29.764349],[-83.026554,29.764809],[-83.025383,29.766549],[-83.030836,29.766503],[-83.030802,29.763484],[-83.027561,29.763237],[-83.026864,29.764349]]],[[[-83.028812,29.763152],[-83.029457,29.763201],[-83.029463,29.762586],[-83.028805,29.762577],[-83.028812,29.763152]]]]}},{"type":"Feature","id":"12029:240812000013190100","properties":{"id":"12029:240812000013190100","parcelId":"240812000013190100","countyFips":"12029","countyName":"Dixie","state":"Florida","marketIds":["Big Bend"],"situsAddress":"NE UNASSIGNED","situsCity":"UNINCORPORATED","situsZip":null,"jurisdictionCode":null,"ownerName":"LAND  RAYMON J","ownerName2":null,"propertyName":null,"zoningCode":null,"zoningDistrict":null,"jurisdictionPrefix":null,"dorCode":"059","acreage":65.7575,"centroid":[-83.081675,29.776377],"lastSale":{"date":null,"price":null,"qualified":null},"tax":{"marketValue":136368.0,"assessedValue":null,"taxableValue":null,"taxes":null},"mailingAddress":{"line1":"P O BOX 394","line2":null,"city":"BRANFORD","state":"FL","zip":"32008"},"incomeTract":null,"incomeBlockGroup":null,"nearestRoad":null,"flu":null,"opportunityZone":null,"oz2Eligibility":null,"source":"fl-srwmd-parcels-12029"},"geometry":{"type":"Polygon","coordinates":[[[-83.08515,29.780603],[-83.085075,29.773364],[-83.08352,29.773489],[-83.080447,29.77366],[-83.079997,29.773651],[-83.079353,29.773565],[-83.079295,29.773584],[-83.079271,29.773633],[-83.079284,29.773671],[-83.080011,29.774614],[-83.080327,29.775072],[-83.080637,29.775587],[-83.081015,29.776336],[-83.081124,29.776496],[-83.08128,29.776643],[-83.0815,29.776781],[-83.081758,29.776909],[-83.082081,29.777034],[-83.082246,29.777127],[-83.082433,29.777294],[-83.082567,29.777493],[-83.082721,29.777945],[-83.082863,29.778636],[-83.082892,29.778883],[-83.082884,29.779198],[-83.082747,29.780293],[-83.082739,29.780621],[-83.08515,29.780603]]]}},{"type":"Feature","id":"12029:040811000009780100","properties":{"id":"12029:040811000009780100","parcelId":"040811000009780100","countyFips":"12029","countyName":"Dixie","state":"Florida","marketIds":["Big Bend"],"situsAddress":"NW UNASSIGNED","situsCity":"UNINCORPORATED","situsZip":null,"jurisdictionCode":null,"ownerName":"FOUR RIVERS LAND AND TIMBER CO","ownerName2":null,"propertyName":null,"zoningCode":null,"zoningDistrict":null,"jurisdictionPrefix":null,"dorCode":"056","acreage":61.6205,"centroid":[-83.234503,29.816311],"lastSale":{"date":null,"price":null,"qualified":null},"tax":{"marketValue":138950.0,"assessedValue":null,"taxableValue":null,"taxes":null},"mailingAddress":{"line1":"1700 FOLEY LANE","line2":null,"city":"PERRY","state":"FL","zip":"32347"},"incomeTract":null,"incomeBlockGroup":null,"nearestRoad":null,"flu":null,"opportunityZone":null,"oz2Eligibility":null,"source":"fl-srwmd-parcels-12029"},"geometry":{"type":"Polygon","coordinates":[[[-83.234637,29.817959],[-83.234639,29.817964],[-83.234877,29.818541],[-83.235066,29.819132],[-83.235204,29.819733],[-83.235292,29.820342],[-83.235207,29.808387],[-83.231103,29.808431],[-83.234637,29.817959]]]}},{"type":"Feature","id":"12029:160811000009920100","properties":{"id":"12029:160811000009920100","parcelId":"160811000009920100","countyFips":"12029","countyName":"Dixie","state":"Florida","marketIds":["Big Bend"],"situsAddress":"NW UNASSIGNED","situsCity":"UNINCORPORATED","situsZip":null,"jurisdictionCode":null,"ownerName":"FOUR RIVERS LAND AND TIMBER CO","ownerName2":null,"propertyName":null,"zoningCode":null,"zoningDistrict":null,"jurisdictionPrefix":null,"dorCode":"056","acreage":49.1543,"centroid":[-83.232642,29.790641],"lastSale":{"date":null,"price":null,"qualified":null},"tax":{"marketValue":99750.0,"assessedValue":null,"taxableValue":null,"taxes":null},"mailingAddress":{"line1":"1700 FOLEY LANE","line2":null,"city":"PERRY","state":"FL","zip":"32347"},"incomeTract":null,"incomeBlockGroup":null,"nearestRoad":null,"flu":null,"opportunityZone":null,"oz2Eligibility":null,"source":"fl-srwmd-parcels-12029"},"geometry":{"type":"Polygon","coordinates":[[[-83.235104,29.793883],[-83.235061,29.787875],[-83.234573,29.788375],[-83.234037,29.788835],[-83.233493,29.789229],[-83.232866,29.789614],[-83.232441,29.789936],[-83.232063,29.79028],[-83.231723,29.790653],[-83.231389,29.791101],[-83.231108,29.791577],[-83.230465,29.793048],[-83.230029,29.793928],[-83.235104,29.793883]]]}},{"type":"Feature","id":"12029:210813000037500300","properties":{"id":"12029:210813000037500300","parcelId":"210813000037500300","countyFips":"12029","countyName":"Dixie","state":"Florida","marketIds":["Big Bend"],"situsAddress":"NE UNASSIGNED","situsCity":"UNINCORPORATED","situsZip":null,"jurisdictionCode":null,"ownerName":"DRAWDY DANIEL WILLIAM","ownerName2":null,"propertyName":null,"zoningCode":null,"zoningDistrict":null,"jurisdictionPrefix":null,"dorCode":"059","acreage":47.6462,"centroid":[-83.02143,29.767025],"lastSale":{"date":null,"price":null,"qualified":null},"tax":{"marketValue":94612.0,"assessedValue":null,"taxableValue":null,"taxes":null},"mailingAddress":{"line1":"856 OAK LANE","line2":null,"city":"FERNANDINA BEACH","state":"FL","zip":"32034"},"incomeTract":null,"incomeBlockGroup":null,"nearestRoad":null,"flu":null,"opportunityZone":null,"oz2Eligibility":null,"source":"fl-srwmd-parcels-12029"},"geometry":{"type":"Polygon","coordinates":[[[-83.019749,29.766596],[-83.019751,29.768179],[-83.019754,29.76969],[-83.022047,29.769671],[-83.025089,29.766551],[-83.022664,29.766572],[-83.022658,29.764459],[-83.019731,29.764483],[-83.019749,29.766596]]]}},{"type":"Feature","id":"12029:100813000036640100","properties":{"id":"12029:100813000036640100","parcelId":"100813000036640100","countyFips":"12029","countyName":"Dixie","state":"Florida","marketIds":["Big Bend"],"situsAddress":"NE UNASSIGNED","situsCity":"UNINCORPORATED","situsZip":null,"jurisdictionCode":null,"ownerName":"IRON HORSE ACRES LLC","ownerName2":null,"propertyName":null,"zoningCode":null,"zoningDistrict":null,"jurisdictionPrefix":null,"dorCode":"052","acreage":43.5564,"centroid":[-83.003947,29.797615],"lastSale":{"date":null,"price":null,"qualified":null},"tax":{"marketValue":85750.0,"assessedValue":null,"taxableValue":null,"taxes":null},"mailingAddress":{"line1":"C/O MANULIFE INVESTMENT MANAGEMENT AG IN","line2":null,"city":"TURLOCK","state":"CA","zip":"95380"},"incomeTract":null,"incomeBlockGroup":null,"nearestRoad":null,"flu":null,"opportunityZone":null,"oz2Eligibility":null,"source":"fl-srwmd-parcels-12029"},"geometry":{"type":"Polygon","coordinates":[[[-83.001774,29.795737],[-83.001778,29.799512],[-83.006135,29.799506],[-83.006102,29.795706],[-83.001774,29.795737]]]}},{"type":"Feature","id":"12029:210813000037500200","properties":{"id":"12029:210813000037500200","parcelId":"210813000037500200","countyFips":"12029","countyName":"Dixie","state":"Florida","marketIds":["Big Bend"],"situsAddress":"NE UNASSIGNED","situsCity":"UNINCORPORATED","situsZip":null,"jurisdictionCode":null,"ownerName":"FLETCHER FREDDIE L","ownerName2":null,"propertyName":null,"zoningCode":null,"zoningDistrict":null,"jurisdictionPrefix":null,"dorCode":"056","acreage":43.3506,"centroid":[-83.018969,29.770158],"lastSale":{"date":null,"price":null,"qualified":null},"tax":{"marketValue":89110.0,"assessedValue":null,"taxableValue":null,"taxes":null},"mailingAddress":{"line1":"6539 NE 353 HWY","line2":null,"city":"OLD TOWN","state":"FL","zip":"32680"},"incomeTract":null,"incomeBlockGroup":null,"nearestRoad":null,"flu":null,"opportunityZone":null,"oz2Eligibility":null,"source":"fl-srwmd-parcels-12029"},"geometry":{"type":"Polygon","coordinates":[[[-83.018495,29.770823],[-83.018497,29.771969],[-83.018501,29.774144],[-83.01867,29.773668],[-83.018901,29.773178],[-83.019155,29.772746],[-83.019477,29.772297],[-83.019909,29.771807],[-83.022047,29.769671],[-83.019754,29.76969],[-83.019731,29.764483],[-83.016964,29.764506],[-83.016981,29.766619],[-83.018488,29.766606],[-83.018495,29.770823]]]}},{"type":"Feature","id":"12029:150813000037390000","properties":{"id":"12029:150813000037390000","parcelId":"150813000037390000","countyFips":"12029","countyName":"Dixie","state":"Florida","marketIds":["Big Bend"],"situsAddress":"6539 NE 353 HWY","situsCity":"UNINCORPORATED","situsZip":null,"jurisdictionCode":null,"ownerName":"FLETCHER FREDDIE L","ownerName2":null,"propertyName":null,"zoningCode":null,"zoningDistrict":null,"jurisdictionPrefix":null,"dorCode":"064","acreage":41.7043,"centroid":[-83.016254,29.782773],"lastSale":{"date":null,"price":null,"qualified":null},"tax":{"marketValue":167750.0,"assessedValue":null,"taxableValue":null,"taxes":null},"mailingAddress":{"line1":"6539 NE 353 HWY","line2":null,"city":"OLD TOWN","state":"FL","zip":"32680"},"incomeTract":null,"incomeBlockGroup":null,"nearestRoad":null,"flu":null,"opportunityZone":null,"oz2Eligibility":null,"source":"fl-srwmd-parcels-12029"},"geometry":{"type":"Polygon","coordinates":[[[-83.017082,29.784927],[-83.01852,29.784927],[-83.018513,29.781098],[-83.015786,29.781118],[-83.015151,29.781205],[-83.014361,29.781206],[-83.014365,29.784928],[-83.017082,29.784927]]]}},{"type":"Feature","id":"12029:280813000038330000","properties":{"id":"12029:280813000038330000","parcelId":"280813000038330000","countyFips":"12029","countyName":"Dixie","state":"Florida","marketIds":["Big Bend"],"situsAddress":"NE 353 HWY","situsCity":"UNINCORPORATED","situsZip":null,"jurisdictionCode":null,"ownerName":"DELANEY CARL RANDOLPH","ownerName2":null,"propertyName":null,"zoningCode":null,"zoningDistrict":null,"jurisdictionPrefix":null,"dorCode":"063","acreage":41.096,"centroid":[-83.028786,29.754342],"lastSale":{"date":null,"price":null,"qualified":null},"tax":{"marketValue":85750.0,"assessedValue":null,"taxableValue":null,"taxes":null},"mailingAddress":{"line1":"224 NE 692nd AVE","line2":null,"city":"OLD TOWN","state":"FL","zip":"32680"},"incomeTract":null,"incomeBlockGroup":null,"nearestRoad":null,"flu":null,"opportunityZone":null,"oz2Eligibility":null,"source":"fl-srwmd-parcels-12029"},"geometry":{"type":"Polygon","coordinates":[[[-83.029756,29.7556],[-83.030629,29.755605],[-83.030628,29.751847],[-83.026503,29.751838],[-83.026478,29.755553],[-83.02872,29.75561],[-83.029756,29.7556]]]}},{"type":"Feature","id":"12029:150813000037380000","properties":{"id":"12029:150813000037380000","parcelId":"150813000037380000","countyFips":"12029","countyName":"Dixie","state":"Florida","marketIds":["Big Bend"],"situsAddress":"NE UNASSIGNED","situsCity":"UNINCORPORATED","situsZip":null,"jurisdictionCode":null,"ownerName":"GRIFFIN FAMILY REV TRUST","ownerName2":null,"propertyName":null,"zoningCode":null,"zoningDistrict":null,"jurisdictionPrefix":null,"dorCode":"064","acreage":40.9712,"centroid":[-83.012282,29.783069],"lastSale":{"date":null,"price":null,"qualified":null},"tax":{"marketValue":108950.0,"assessedValue":null,"taxableValue":null,"taxes":null},"mailingAddress":{"line1":"5013 NW 18th PLACE","line2":null,"city":"GAINESVILLE","state":"FL","zip":"32667"},"incomeTract":null,"incomeBlockGroup":null,"nearestRoad":null,"flu":null,"opportunityZone":null,"oz2Eligibility":null,"source":"fl-srwmd-parcels-12029"},"geometry":{"type":"Polygon","coordinates":[[[-83.014365,29.784928],[-83.014361,29.781206],[-83.0102,29.781215],[-83.010204,29.784929],[-83.014365,29.784928]]]}},{"type":"Feature","id":"12029:150813000037380100","properties":{"id":"12029:150813000037380100","parcelId":"150813000037380100","countyFips":"12029","countyName":"Dixie","state":"Florida","marketIds":["Big Bend"],"situsAddress":"NE UNASSIGNED","situsCity":"UNINCORPORATED","situsZip":null,"jurisdictionCode":null,"ownerName":"DANIEL & MICHAEL LAND HOLDING","ownerName2":null,"propertyName":null,"zoningCode":null,"zoningDistrict":null,"jurisdictionPrefix":null,"dorCode":"056","acreage":40.2647,"centroid":[-83.007835,29.782716],"lastSale":{"date":null,"price":100.0,"qualified":null},"tax":{"marketValue":85750.0,"assessedValue":null,"taxableValue":null,"taxes":null},"mailingAddress":{"line1":"3 SE 12th AVE","line2":null,"city":"CROSS CITY","state":"FL","zip":"32628"},"incomeTract":null,"incomeBlockGroup":null,"nearestRoad":null,"flu":null,"opportunityZone":null,"oz2Eligibility":null,"source":"fl-srwmd-parcels-12029"},"geometry":{"type":"Polygon","coordinates":[[[-83.010204,29.784929],[-83.0102,29.781215],[-83.006586,29.781241],[-83.006091,29.781266],[-83.006094,29.78493],[-83.010204,29.784929]]]}},{"type":"Feature","id":"12029:280813000038340300","properties":{"id":"12029:280813000038340300","parcelId":"280813000038340300","countyFips":"12029","countyName":"Dixie","state":"Florida","marketIds":["Big Bend"],"situsAddress":"NE UNASSIGNED","situsCity":"UNINCORPORATED","situsZip":null,"jurisdictionCode":null,"ownerName":"SANDERS CURTIS M","ownerName2":null,"propertyName":null,"zoningCode":null,"zoningDistrict":null,"jurisdictionPrefix":null,"dorCode":"059","acreage":39.4832,"centroid":[-83.02041,29.75728],"lastSale":{"date":null,"price":null,"qualified":null},"tax":{"marketValue":85596.0,"assessedValue":null,"taxableValue":null,"taxes":null},"mailingAddress":{"line1":"10068 171ST PLACE","line2":null,"city":"LIVE OAK","state":"FL","zip":"32060"},"incomeTract":null,"incomeBlockGroup":null,"nearestRoad":null,"flu":null,"opportunityZone":null,"oz2Eligibility":null,"source":"fl-srwmd-parcels-12029"},"geometry":{"type":"Polygon","coordinates":[[[-83.019895,29.7573],[-83.018298,29.757304],[-83.018336,29.759158],[-83.02284,29.759146],[-83.023274,29.75548],[-83.019819,29.755294],[-83.019895,29.7573]]]}},{"type":"Feature","id":"12029:210813000037500100","properties":{"id":"12029:210813000037500100","parcelId":"210813000037500100","countyFips":"12029","countyName":"Dixie","state":"Florida","marketIds":["Big Bend"],"situsAddress":"5515 NE 353 HWY","situsCity":"UNINCORPORATED","situsZip":null,"jurisdictionCode":null,"ownerName":"BROOM JOHN R JR","ownerName2":null,"propertyName":null,"zoningCode":null,"zoningDistrict":null,"jurisdictionPrefix":null,"dorCode":"056","acreage":39.3376,"centroid":[-83.027546,29.767669],"lastSale":{"date":null,"price":null,"qualified":null},"tax":{"marketValue":273550.0,"assessedValue":null,"taxableValue":null,"taxes":null},"mailingAddress":{"line1":"5515 NE 353 HWY","line2":null,"city":"OLD TOWN","state":"FL","zip":"32680"},"incomeTract":null,"incomeBlockGroup":null,"nearestRoad":null,"flu":null,"opportunityZone":null,"oz2Eligibility":null,"source":"fl-srwmd-parcels-12029"},"geometry":{"type":"Polygon","coordinates":[[[-83.025383,29.766549],[-83.023199,29.768821],[-83.030768,29.768803],[-83.030836,29.766503],[-83.025383,29.766549]]]}},{"type":"Feature","id":"12029:320813000038470000","properties":{"id":"12029:320813000038470000","parcelId":"320813000038470000","countyFips":"12029","countyName":"Dixie","state":"Florida","marketIds":["Big Bend"],"situsAddress":"224 NE 692 AVE","situsCity":"UNINCORPORATED","situsZip":null,"jurisdictionCode":null,"ownerName":"DELANEY C RANDOLPH","ownerName2":null,"propertyName":null,"zoningCode":null,"zoningDistrict":null,"jurisdictionPrefix":null,"dorCode":"064","acreage":38.8239,"centroid":[-83.036777,29.750541],"lastSale":{"date":null,"price":null,"qualified":null},"tax":{"marketValue":195250.0,"assessedValue":null,"taxableValue":null,"taxes":null},"mailingAddress":{"line1":"224 NE 692nd AVE","line2":null,"city":"OLD TOWN","state":"FL","zip":"32680"},"incomeTract":null,"incomeBlockGroup":null,"nearestRoad":null,"flu":null,"opportunityZone":null,"oz2Eligibility":null,"source":"fl-srwmd-parcels-12029"},"geometry":{"type":"Polygon","coordinates":[[[-83.035948,29.751731],[-83.036815,29.751726],[-83.039068,29.751714],[-83.039001,29.748154],[-83.0349,29.748183],[-83.03493,29.751737],[-83.035948,29.751731]]]}},{"type":"Feature","id":"12029:150813000037400000","properties":{"id":"12029:150813000037400000","parcelId":"150813000037400000","countyFips":"12029","countyName":"Dixie","state":"Florida","marketIds":["Big Bend"],"situsAddress":"NE UNASSIGNED","situsCity":"UNINCORPORATED","situsZip":null,"jurisdictionCode":null,"ownerName":"STEPHENS LISA","ownerName2":null,"propertyName":null,"zoningCode":null,"zoningDistrict":null,"jurisdictionPrefix":null,"dorCode":"064","acreage":38.6765,"centroid":[-83.003393,29.782836],"lastSale":{"date":null,"price":null,"qualified":null},"tax":{"marketValue":82446.0,"assessedValue":null,"taxableValue":null,"taxes":null},"mailingAddress":{"line1":"689 FM 3028","line2":null,"city":"MILLSAP","state":"TX","zip":"76066"},"incomeTract":null,"incomeBlockGroup":null,"nearestRoad":null,"flu":null,"opportunityZone":null,"oz2Eligibility":null,"source":"fl-srwmd-parcels-12029"},"geometry":{"type":"Polygon","coordinates":[[[-83.001863,29.78338],[-83.001852,29.784848],[-83.001852,29.78493],[-83.006094,29.78493],[-83.006091,29.781266],[-83.005286,29.781336],[-83.003119,29.78159],[-83.002507,29.781624],[-83.001876,29.781624],[-83.001863,29.78338]]]}},{"type":"Feature","id":"12029:220813000037520000","properties":{"id":"12029:220813000037520000","parcelId":"220813000037520000","countyFips":"12029","countyName":"Dixie","state":"Florida","marketIds":["Big Bend"],"situsAddress":"6804 NE 353 HWY","situsCity":"UNINCORPORATED","situsZip":null,"jurisdictionCode":null,"ownerName":"FLETCHER THOMAS H","ownerName2":null,"propertyName":null,"zoningCode":null,"zoningDistrict":null,"jurisdictionPrefix":null,"dorCode":"063","acreage":38.4136,"centroid":[-83.012217,29.779283],"lastSale":{"date":null,"price":null,"qualified":null},"tax":{"marketValue":166650.0,"assessedValue":null,"taxableValue":null,"taxes":null},"mailingAddress":{"line1":"2277 WEST GAS PLANT RD","line2":null,"city":"PERRY","state":"FL","zip":"32347"},"incomeTract":null,"incomeBlockGroup":null,"nearestRoad":null,"flu":null,"opportunityZone":null,"oz2Eligibility":null,"source":"fl-srwmd-parcels-12029"},"geometry":{"type":"Polygon","coordinates":[[[-83.014321,29.777553],[-83.01007,29.777601],[-83.010114,29.780993],[-83.014362,29.780987],[-83.014321,29.777553]]]}},{"type":"Feature","id":"12029:180813000037450200","properties":{"id":"12029:180813000037450200","parcelId":"180813000037450200","countyFips":"12029","countyName":"Dixie","state":"Florida","marketIds":["Big Bend"],"situsAddress":"NE UNASSIGNED","situsCity":"UNINCORPORATED","situsZip":null,"jurisdictionCode":null,"ownerName":"ZPZ RANCH II LLC","ownerName2":null,"propertyName":null,"zoningCode":null,"zoningDistrict":null,"jurisdictionPrefix":null,"dorCode":"059","acreage":34.3038,"centroid":[-83.053584,29.782997],"lastSale":{"date":null,"price":null,"qualified":null},"tax":{"marketValue":46326.0,"assessedValue":null,"taxableValue":null,"taxes":null},"mailingAddress":{"line1":"500 NE 407TH ST","line2":null,"city":"OLD TOWN","state":"FL","zip":"32680"},"incomeTract":null,"incomeBlockGroup":null,"nearestRoad":null,"flu":null,"opportunityZone":null,"oz2Eligibility":null,"source":"fl-srwmd-parcels-12029"},"geometry":{"type":"Polygon","coordinates":[[[-83.052298,29.784519],[-83.052656,29.784363],[-83.056971,29.782017],[-83.056304,29.781242],[-83.056089,29.781075],[-83.055667,29.780826],[-83.051711,29.780856],[-83.051715,29.784468],[-83.051854,29.784518],[-83.052002,29.784544],[-83.052153,29.784544],[-83.052298,29.784519]]]}},{"type":"Feature","id":"12029:220813000037510200","properties":{"id":"12029:220813000037510200","parcelId":"220813000037510200","countyFips":"12029","countyName":"Dixie","state":"Florida","marketIds":["Big Bend"],"situsAddress":"7312 NE 353 HWY","situsCity":"UNINCORPORATED","situsZip":null,"jurisdictionCode":null,"ownerName":"SANDERS CECIL LEROY","ownerName2":null,"propertyName":null,"zoningCode":null,"zoningDistrict":null,"jurisdictionPrefix":null,"dorCode":"064","acreage":33.8071,"centroid":[-83.003257,29.780152],"lastSale":{"date":null,"price":null,"qualified":null},"tax":{"marketValue":78120.0,"assessedValue":null,"taxableValue":null,"taxes":null},"mailingAddress":{"line1":"7312 NE 353 HWY","line2":null,"city":"OLD TOWN","state":"FL","zip":"32680"},"incomeTract":null,"incomeBlockGroup":null,"nearestRoad":null,"flu":null,"opportunityZone":null,"oz2Eligibility":null,"source":"fl-srwmd-parcels-12029"},"geometry":{"type":"Polygon","coordinates":[[[-83.002967,29.781379],[-83.002971,29.78138],[-83.003388,29.781342],[-83.003383,29.780517],[-83.005532,29.780527],[-83.005536,29.777598],[-83.001272,29.777599],[-83.001295,29.780508],[-83.002967,29.780515],[-83.002967,29.781379]]]}},{"type":"Feature","id":"12029:280813000038340000","properties":{"id":"12029:280813000038340000","parcelId":"280813000038340000","countyFips":"12029","countyName":"Dixie","state":"Florida","marketIds":["Big Bend"],"situsAddress":"373 NE 530 LANE","situsCity":"UNINCORPORATED","situsZip":null,"jurisdictionCode":null,"ownerName":"SANDERS JOEL MARTIN SR ESTATE","ownerName2":null,"propertyName":null,"zoningCode":null,"zoningDistrict":null,"jurisdictionPrefix":null,"dorCode":"063","acreage":31.0269,"centroid":[-83.025011,29.757021],"lastSale":{"date":null,"price":null,"qualified":null},"tax":{"marketValue":74410.0,"assessedValue":null,"taxableValue":null,"taxes":null},"mailingAddress":{"line1":"2528 ORCHARD STREET","line2":null,"city":"JACKSONVILLE","state":"FL","zip":"32254"},"incomeTract":null,"incomeBlockGroup":null,"nearestRoad":null,"flu":null,"opportunityZone":null,"oz2Eligibility":null,"source":"fl-srwmd-parcels-12029"},"geometry":{"type":"Polygon","coordinates":[[[-83.026326,29.759136],[-83.026308,29.755713],[-83.02631,29.755631],[-83.023274,29.75548],[-83.022839,29.759146],[-83.026326,29.759136]]]}},{"type":"Feature","id":"12029:220813000037550300","properties":{"id":"12029:220813000037550300","parcelId":"220813000037550300","countyFips":"12029","countyName":"Dixie","state":"Florida","marketIds":["Big Bend"],"situsAddress":"520 NE 665 ST","situsCity":"UNINCORPORATED","situsZip":null,"jurisdictionCode":null,"ownerName":"BURNETTE JOHN M","ownerName2":null,"propertyName":null,"zoningCode":null,"zoningDistrict":null,"jurisdictionPrefix":null,"dorCode":"056","acreage":30.2117,"centroid":[-83.005269,29.776279],"lastSale":{"date":null,"price":null,"qualified":null},"tax":{"marketValue":177050.0,"assessedValue":null,"taxableValue":null,"taxes":null},"mailingAddress":{"line1":"1882 NE 24TH ST","line2":null,"city":"OCALA","state":"FL","zip":"34470"},"incomeTract":null,"incomeBlockGroup":null,"nearestRoad":null,"flu":null,"opportunityZone":null,"oz2Eligibility":null,"source":"fl-srwmd-parcels-12029"},"geometry":{"type":"Polygon","coordinates":[[[-83.0038,29.777461],[-83.003794,29.777597],[-83.008202,29.7776],[-83.008172,29.773849],[-83.004828,29.775643],[-83.004286,29.775854],[-83.003803,29.77595],[-83.0038,29.777461]]]}},{"type":"Feature","id":"12029:130812000013080200","properties":{"id":"12029:130812000013080200","parcelId":"130812000013080200","countyFips":"12029","countyName":"Dixie","state":"Florida","marketIds":["Big Bend"],"situsAddress":"NE UNASSIGNED","situsCity":"UNINCORPORATED","situsZip":null,"jurisdictionCode":null,"ownerName":"LAND  RAYMON J","ownerName2":null,"propertyName":null,"zoningCode":null,"zoningDistrict":null,"jurisdictionPrefix":null,"dorCode":"056","acreage":28.9268,"centroid":[-83.085103,29.790748],"lastSale":{"date":null,"price":null,"qualified":null},"tax":{"marketValue":84346.0,"assessedValue":null,"taxableValue":null,"taxes":null},"mailingAddress":{"line1":"P O BOX 394","line2":null,"city":"BRANFORD","state":"FL","zip":"32008"},"incomeTract":null,"incomeBlockGroup":null,"nearestRoad":null,"flu":null,"opportunityZone":null,"oz2Eligibility":null,"source":"fl-srwmd-parcels-12029"},"geometry":{"type":"Polygon","coordinates":[[[-83.085266,29.791704],[-83.085254,29.790506],[-83.08515,29.780603],[-83.082739,29.780621],[-83.082803,29.780914],[-83.083037,29.781616],[-83.08338,29.782769],[-83.08449,29.785672],[-83.084719,29.786494],[-83.084883,29.787329],[-83.08495,29.787836],[-83.084974,29.788166],[-83.084975,29.788578],[-83.084948,29.788986],[-83.084895,29.789369],[-83.084724,29.790295],[-83.084448,29.791542],[-83.084508,29.791595],[-83.085266,29.791704]]]}},{"type":"Feature","id":"12029:270813000038040000","properties":{"id":"12029:270813000038040000","parcelId":"270813000038040000","countyFips":"12029","countyName":"Dixie","state":"Florida","marketIds":["Big Bend"],"situsAddress":"NE UNASSIGNED","situsCity":"UNINCORPORATED","situsZip":null,"jurisdictionCode":null,"ownerName":"M L C FARMS INC","ownerName2":null,"propertyName":null,"zoningCode":null,"zoningDistrict":null,"jurisdictionPrefix":null,"dorCode":"056","acreage":23.5825,"centroid":[-83.016304,29.760246],"lastSale":{"date":null,"price":null,"qualified":null},"tax":{"marketValue":65590.0,"assessedValue":null,"taxableValue":null,"taxes":null},"mailingAddress":{"line1":"1108  N FRANKLIN ST UNIT 708","line2":null,"city":"TAMPA","state":"FL","zip":"33602"},"incomeTract":null,"incomeBlockGroup":null,"nearestRoad":null,"flu":null,"opportunityZone":null,"oz2Eligibility":null,"source":"fl-srwmd-parcels-12029"},"geometry":{"type":"Polygon","coordinates":[[[-83.01838,29.761311],[-83.018336,29.759158],[-83.014241,29.759167],[-83.014259,29.761347],[-83.01838,29.761311]]]}},{"type":"Feature","id":"12029:220813000037530100","properties":{"id":"12029:220813000037530100","parcelId":"220813000037530100","countyFips":"12029","countyName":"Dixie","state":"Florida","marketIds":["Big Bend"],"situsAddress":"7044 NE 353 HWY","situsCity":"UNINCORPORATED","situsZip":null,"jurisdictionCode":null,"ownerName":"LEE WILLIAM KEITH","ownerName2":null,"propertyName":null,"zoningCode":null,"zoningDistrict":null,"jurisdictionPrefix":null,"dorCode":"056","acreage":21.1256,"centroid":[-83.006868,29.780708],"lastSale":{"date":null,"price":null,"qualified":null},"tax":{"marketValue":196160.0,"assessedValue":null,"taxableValue":null,"taxes":null},"mailingAddress":{"line1":"7044 NE 353 HWY","line2":null,"city":"OLD TOWN","state":"FL","zip":"32680"},"incomeTract":null,"incomeBlockGroup":null,"nearestRoad":null,"flu":null,"opportunityZone":null,"oz2Eligibility":null,"source":"fl-srwmd-parcels-12029"},"geometry":{"type":"Polygon","coordinates":[[[-83.008515,29.7776],[-83.008502,29.779728],[-83.006503,29.779719],[-83.006493,29.781024],[-83.010114,29.780993],[-83.01007,29.777601],[-83.008515,29.7776]]]}},{"type":"Feature","id":"12029:170811000009930100","properties":{"id":"12029:170811000009930100","parcelId":"170811000009930100","countyFips":"12029","countyName":"Dixie","state":"Florida","marketIds":["Big Bend"],"situsAddress":"NW UNASSIGNED","situsCity":"UNINCORPORATED","situsZip":null,"jurisdictionCode":null,"ownerName":"EIGHT MILE PROPERTIES LLC","ownerName2":null,"propertyName":null,"zoningCode":null,"zoningDistrict":null,"jurisdictionPrefix":null,"dorCode":"056","acreage":20.773,"centroid":[-83.235745,29.783652],"lastSale":{"date":null,"price":null,"qualified":null},"tax":{"marketValue":57750.0,"assessedValue":null,"taxableValue":null,"taxes":null},"mailingAddress":{"line1":"P O BOX 357","line2":null,"city":"MAYO","state":"FL","zip":"32066"},"incomeTract":null,"incomeBlockGroup":null,"nearestRoad":null,"flu":null,"opportunityZone":null,"oz2Eligibility":null,"source":"fl-srwmd-parcels-12029"},"geometry":{"type":"Polygon","coordinates":[[[-83.235191,29.787126],[-83.235191,29.787126],[-83.235559,29.786352],[-83.235709,29.785892],[-83.235768,29.785622],[-83.236287,29.781466],[-83.236392,29.780429],[-83.236483,29.780034],[-83.236559,29.779351],[-83.235001,29.779364],[-83.235058,29.787405],[-83.235191,29.787126]]]}},{"type":"Feature","id":"12029:220813000037530000","properties":{"id":"12029:220813000037530000","parcelId":"220813000037530000","countyFips":"12029","countyName":"Dixie","state":"Florida","marketIds":["Big Bend"],"situsAddress":"7128 NE 353 HWY","situsCity":"UNINCORPORATED","situsZip":null,"jurisdictionCode":null,"ownerName":"LEE JEFFREY JAMES","ownerName2":null,"propertyName":null,"zoningCode":null,"zoningDistrict":null,"jurisdictionPrefix":null,"dorCode":"063","acreage":20.1286,"centroid":[-83.00704,29.779194],"lastSale":{"date":null,"price":null,"qualified":null},"tax":{"marketValue":162560.0,"assessedValue":null,"taxableValue":null,"taxes":null},"mailingAddress":{"line1":"7128 NE HWY 353","line2":null,"city":"OLD TOWN","state":"FL","zip":"32680"},"incomeTract":null,"incomeBlockGroup":null,"nearestRoad":null,"flu":null,"opportunityZone":null,"oz2Eligibility":null,"source":"fl-srwmd-parcels-12029"},"geometry":{"type":"Polygon","coordinates":[[[-83.008202,29.7776],[-83.005536,29.777598],[-83.00553,29.781089],[-83.006493,29.781024],[-83.006503,29.779719],[-83.008502,29.779728],[-83.008515,29.7776],[-83.008202,29.7776]]]}},{"type":"Feature","id":"12029:280813000038190200","properties":{"id":"12029:280813000038190200","parcelId":"280813000038190200","countyFips":"12029","countyName":"Dixie","state":"Florida","marketIds":["Big Bend"],"situsAddress":"4738 NE 353 HWY","situsCity":"UNINCORPORATED","situsZip":null,"jurisdictionCode":null,"ownerName":"SANDERS JOHN WILEY","ownerName2":null,"propertyName":null,"zoningCode":null,"zoningDistrict":null,"jurisdictionPrefix":null,"dorCode":"056","acreage":19.7919,"centroid":[-83.027991,29.758025],"lastSale":{"date":null,"price":null,"qualified":null},"tax":{"marketValue":103550.0,"assessedValue":null,"taxableValue":null,"taxes":null},"mailingAddress":{"line1":"4738 NE 353 HWY","line2":null,"city":"OLD TOWN","state":"FL","zip":"32680"},"incomeTract":null,"incomeBlockGroup":null,"nearestRoad":null,"flu":null,"opportunityZone":null,"oz2Eligibility":null,"source":"fl-srwmd-parcels-12029"},"geometry":{"type":"Polygon","coordinates":[[[-83.028297,29.759133],[-83.028299,29.759058],[-83.028389,29.758689],[-83.028525,29.758438],[-83.028698,29.758197],[-83.028563,29.758105],[-83.028519,29.755759],[-83.026308,29.755713],[-83.026323,29.759137],[-83.028297,29.759133]]]}},{"type":"Feature","id":"12029:150813000037350000","properties":{"id":"12029:150813000037350000","parcelId":"150813000037350000","countyFips":"12029","countyName":"Dixie","state":"Florida","marketIds":["Big Bend"],"situsAddress":"1497 NE 672 ST","situsCity":"UNINCORPORATED","situsZip":null,"jurisdictionCode":null,"ownerName":"FANDRICH SCOTT","ownerName2":null,"propertyName":null,"zoningCode":null,"zoningDistrict":null,"jurisdictionPrefix":null,"dorCode":"056","acreage":19.7681,"centroid":[-83.007747,29.794788],"lastSale":{"date":null,"price":null,"qualified":null},"tax":{"marketValue":68850.0,"assessedValue":null,"taxableValue":null,"taxes":null},"mailingAddress":{"line1":"222 176th TERRACE DR","line2":null,"city":"EAST REDINGTON SHORES","state":"FL","zip":"33708"},"incomeTract":null,"incomeBlockGroup":null,"nearestRoad":null,"flu":null,"opportunityZone":null,"oz2Eligibility":null,"source":"fl-srwmd-parcels-12029"},"geometry":{"type":"Polygon","coordinates":[[[-83.006102,29.794805],[-83.006102,29.795706],[-83.010216,29.795677],[-83.010214,29.793862],[-83.006101,29.793891],[-83.006102,29.794805]]]}},{"type":"Feature","id":"12029:290813000038380000","properties":{"id":"12029:290813000038380000","parcelId":"290813000038380000","countyFips":"12029","countyName":"Dixie","state":"Florida","marketIds":["Big Bend"],"situsAddress":"284 NE 692 AVE 286 NE 692 AVE","situsCity":"UNINCORPORATED","situsZip":null,"jurisdictionCode":null,"ownerName":"KELLEY  ERNEST M","ownerName2":null,"propertyName":null,"zoningCode":null,"zoningDistrict":null,"jurisdictionPrefix":null,"dorCode":"002","acreage":19.4473,"centroid":[-83.037774,29.753421],"lastSale":{"date":null,"price":null,"qualified":null},"tax":{"marketValue":16500.0,"assessedValue":null,"taxableValue":null,"taxes":null},"mailingAddress":{"line1":"222 SE HOWELL DRVE","line2":null,"city":"BRANFORD","state":"FL","zip":"32008"},"incomeTract":null,"incomeBlockGroup":null,"nearestRoad":null,"flu":null,"opportunityZone":null,"oz2Eligibility":null,"source":"fl-srwmd-parcels-12029"},"geometry":{"type":"Polygon","coordinates":[[[-83.035979,29.755361],[-83.036735,29.755356],[-83.036728,29.754532],[-83.038304,29.754523],[-83.0383,29.75411],[-83.039088,29.754106],[-83.039074,29.752401],[-83.038601,29.752404],[-83.038595,29.751716],[-83.037965,29.75172],[-83.037971,29.752407],[-83.035954,29.752418],[-83.035979,29.755361]]]}},{"type":"Feature","id":"12029:220813000037550800","properties":{"id":"12029:220813000037550800","parcelId":"220813000037550800","countyFips":"12029","countyName":"Dixie","state":"Florida","marketIds":["Big Bend"],"situsAddress":"NE UNASSIGNED","situsCity":"UNINCORPORATED","situsZip":null,"jurisdictionCode":null,"ownerName":"DICK ROBERT S III","ownerName2":null,"propertyName":null,"zoningCode":null,"zoningDistrict":null,"jurisdictionPrefix":null,"dorCode":"056","acreage":18.7102,"centroid":[-83.016823,29.778975],"lastSale":{"date":null,"price":null,"qualified":null},"tax":{"marketValue":59150.0,"assessedValue":null,"taxableValue":null,"taxes":null},"mailingAddress":{"line1":"6586 NE HWY 353","line2":null,"city":"OLDTOWN","state":"FL","zip":"32680"},"incomeTract":null,"incomeBlockGroup":null,"nearestRoad":null,"flu":null,"opportunityZone":null,"oz2Eligibility":null,"source":"fl-srwmd-parcels-12029"},"geometry":{"type":"Polygon","coordinates":[[[-83.016373,29.779562],[-83.016338,29.780717],[-83.016756,29.780516],[-83.017131,29.780273],[-83.017488,29.779963],[-83.017769,29.779638],[-83.017997,29.779282],[-83.018179,29.778872],[-83.018289,29.778444],[-83.018314,29.778257],[-83.018312,29.778084],[-83.015599,29.778096],[-83.015584,29.776908],[-83.014313,29.776913],[-83.014339,29.779033],[-83.016389,29.779046],[-83.016373,29.779562]]]}},{"type":"Feature","id":"12029:150813000037340000","properties":{"id":"12029:150813000037340000","parcelId":"150813000037340000","countyFips":"12029","countyName":"Dixie","state":"Florida","marketIds":["Big Bend"],"situsAddress":"1205 NE 668 ST","situsCity":"UNINCORPORATED","situsZip":null,"jurisdictionCode":null,"ownerName":"RUTH SYLVIA W","ownerName2":null,"propertyName":null,"zoningCode":null,"zoningDistrict":null,"jurisdictionPrefix":null,"dorCode":"059","acreage":18.297,"centroid":[-83.007806,29.79309],"lastSale":{"date":null,"price":null,"qualified":null},"tax":{"marketValue":53622.0,"assessedValue":null,"taxableValue":null,"taxes":null},"mailingAddress":{"line1":"797 NE 484TH AVE","line2":null,"city":"OLD TOWN","state":"FL","zip":"32680"},"incomeTract":null,"incomeBlockGroup":null,"nearestRoad":null,"flu":null,"opportunityZone":null,"oz2Eligibility":null,"source":"fl-srwmd-parcels-12029"},"geometry":{"type":"Polygon","coordinates":[[[-83.006097,29.793339],[-83.007106,29.793332],[-83.007106,29.793884],[-83.010214,29.793862],[-83.010212,29.792047],[-83.006099,29.792076],[-83.006097,29.793339]]]}},{"type":"Feature","id":"12029:170812000013120100","properties":{"id":"12029:170812000013120100","parcelId":"170812000013120100","countyFips":"12029","countyName":"Dixie","state":"Florida","marketIds":["Big Bend"],"situsAddress":"587 NW 819 AVE","situsCity":"UNINCORPORATED","situsZip":null,"jurisdictionCode":null,"ownerName":"BAILEY BROTHERS INC","ownerName2":null,"propertyName":null,"zoningCode":null,"zoningDistrict":null,"jurisdictionPrefix":null,"dorCode":"059","acreage":18.1613,"centroid":[-83.141831,29.792024],"lastSale":{"date":null,"price":null,"qualified":null},"tax":{"marketValue":354934.0,"assessedValue":null,"taxableValue":null,"taxes":null},"mailingAddress":{"line1":"P O BOX 96","line2":null,"city":"TRENTON","state":"FL","zip":"32693"},"incomeTract":null,"incomeBlockGroup":null,"nearestRoad":null,"flu":null,"opportunityZone":null,"oz2Eligibility":null,"source":"fl-srwmd-parcels-12029"},"geometry":{"type":"Polygon","coordinates":[[[-83.13961,29.791531],[-83.141089,29.793949],[-83.14234,29.793087],[-83.143451,29.792626],[-83.143388,29.791938],[-83.142141,29.791607],[-83.141812,29.790857],[-83.140818,29.790599],[-83.13961,29.791531]]]}},{"type":"Feature","id":"12029:190813000037460000","properties":{"id":"12029:190813000037460000","parcelId":"190813000037460000","countyFips":"12029","countyName":"Dixie","state":"Florida","marketIds":["Big Bend"],"situsAddress":"4811 NE 876 AVE","situsCity":"UNINCORPORATED","situsZip":null,"jurisdictionCode":null,"ownerName":"ZPZ RANCH II LLC","ownerName2":null,"propertyName":null,"zoningCode":null,"zoningDistrict":null,"jurisdictionPrefix":null,"dorCode":"056","acreage":14.9994,"centroid":[-83.053543,29.779765],"lastSale":{"date":null,"price":null,"qualified":null},"tax":{"marketValue":38613.0,"assessedValue":null,"taxableValue":null,"taxes":null},"mailingAddress":{"line1":"500 NE 407 ST","line2":null,"city":"OLD TOWN","state":"FL","zip":"32680"},"incomeTract":null,"incomeBlockGroup":null,"nearestRoad":null,"flu":null,"opportunityZone":null,"oz2Eligibility":null,"source":"fl-srwmd-parcels-12029"},"geometry":{"type":"Polygon","coordinates":[[[-83.055667,29.780826],[-83.055214,29.780553],[-83.054231,29.779882],[-83.052725,29.778683],[-83.051708,29.777793],[-83.051711,29.780856],[-83.055667,29.780826]]]}},{"type":"Feature","id":"12029:290813000038440100","properties":{"id":"12029:290813000038440100","parcelId":"290813000038440100","countyFips":"12029","countyName":"Dixie","state":"Florida","marketIds":["Big Bend"],"situsAddress":"6694 NE 876 AVE","situsCity":"UNINCORPORATED","situsZip":null,"jurisdictionCode":null,"ownerName":"SALEM NORTHEAST LLC","ownerName2":null,"propertyName":null,"zoningCode":null,"zoningDistrict":null,"jurisdictionPrefix":null,"dorCode":"056","acreage":13.8762,"centroid":[-83.047156,29.751953],"lastSale":{"date":null,"price":null,"qualified":null},"tax":{"marketValue":43086.0,"assessedValue":null,"taxableValue":null,"taxes":null},"mailingAddress":{"line1":"11483 NE 351 HWY","line2":null,"city":"OLD TOWN","state":"FL","zip":"32680"},"incomeTract":null,"incomeBlockGroup":null,"nearestRoad":null,"flu":null,"opportunityZone":null,"oz2Eligibility":null,"source":"fl-srwmd-parcels-12029"},"geometry":{"type":"Polygon","coordinates":[[[-83.039068,29.751714],[-83.051083,29.752501],[-83.051316,29.751644],[-83.039068,29.751714]]]}},{"type":"Feature","id":"12029:220813000037550600","properties":{"id":"12029:220813000037550600","parcelId":"220813000037550600","countyFips":"12029","countyName":"Dixie","state":"Florida","marketIds":["Big Bend"],"situsAddress":"NE UNASSIGNED","situsCity":"UNINCORPORATED","situsZip":null,"jurisdictionCode":null,"ownerName":"DICK ROBERT S III","ownerName2":null,"propertyName":null,"zoningCode":null,"zoningDistrict":null,"jurisdictionPrefix":null,"dorCode":"056","acreage":12.5492,"centroid":[-83.016302,29.776311],"lastSale":{"date":null,"price":null,"qualified":null},"tax":{"marketValue":40302.0,"assessedValue":null,"taxableValue":null,"taxes":null},"mailingAddress":{"line1":"6586 NE HWY 353","line2":null,"city":"OLD TOWN","state":"FL","zip":"32680"},"incomeTract":null,"incomeBlockGroup":null,"nearestRoad":null,"flu":null,"opportunityZone":null,"oz2Eligibility":null,"source":"fl-srwmd-parcels-12029"},"geometry":{"type":"Polygon","coordinates":[[[-83.014299,29.775727],[-83.014313,29.776913],[-83.018303,29.776896],[-83.018294,29.77571],[-83.014299,29.775727]]]}},{"type":"Feature","id":"12029:140813000037290000","properties":{"id":"12029:140813000037290000","parcelId":"140813000037290000","countyFips":"12029","countyName":"Dixie","state":"Florida","marketIds":["Big Bend"],"situsAddress":"7393 NE 353 HWY","situsCity":"UNINCORPORATED","situsZip":null,"jurisdictionCode":null,"ownerName":"LEE THERESA F","ownerName2":null,"propertyName":null,"zoningCode":null,"zoningDistrict":null,"jurisdictionPrefix":null,"dorCode":"056","acreage":11.0072,"centroid":[-83.001007,29.783366],"lastSale":{"date":null,"price":null,"qualified":null},"tax":{"marketValue":163750.0,"assessedValue":null,"taxableValue":null,"taxes":null},"mailingAddress":{"line1":"7044 NE HWY 353","line2":null,"city":"OLD TOWN","state":"FL","zip":"32680"},"incomeTract":null,"incomeBlockGroup":null,"nearestRoad":null,"flu":null,"opportunityZone":null,"oz2Eligibility":null,"source":"fl-srwmd-parcels-12029"},"geometry":{"type":"Polygon","coordinates":[[[-83.000579,29.783389],[-83.000573,29.78389],[-83.000566,29.784856],[-83.001852,29.784848],[-83.001872,29.781624],[-83.0006,29.781587],[-83.000579,29.783389]]]}},{"type":"Feature","id":"12029:280813000038190300","properties":{"id":"12029:280813000038190300","parcelId":"280813000038190300","countyFips":"12029","countyName":"Dixie","state":"Florida","marketIds":["Big Bend"],"situsAddress":"4586 NE 353 HWY","situsCity":"UNINCORPORATED","situsZip":null,"jurisdictionCode":null,"ownerName":"GONZALEZ JUAN","ownerName2":null,"propertyName":null,"zoningCode":null,"zoningDistrict":null,"jurisdictionPrefix":null,"dorCode":"002","acreage":10.2469,"centroid":[-83.03171,29.756354],"lastSale":{"date":null,"price":null,"qualified":null},"tax":{"marketValue":165300.0,"assessedValue":null,"taxableValue":null,"taxes":null},"mailingAddress":{"line1":"4586 NE HWY 353","line2":null,"city":"OLD TOWN","state":"FL","zip":"32680"},"incomeTract":null,"incomeBlockGroup":null,"nearestRoad":null,"flu":null,"opportunityZone":null,"oz2Eligibility":null,"source":"fl-srwmd-parcels-12029"},"geometry":{"type":"Polygon","coordinates":[[[-83.032883,29.755617],[-83.029755,29.7556],[-83.029841,29.757445],[-83.031588,29.756873],[-83.032012,29.756679],[-83.032282,29.756496],[-83.03254,29.756244],[-83.032781,29.755875],[-83.032883,29.755617]]]}},{"type":"Feature","id":"12029:360812000013310100","properties":{"id":"12029:360812000013310100","parcelId":"360812000013310100","countyFips":"12029","countyName":"Dixie","state":"Florida","marketIds":["Big Bend"],"situsAddress":"791 NE 276 ST","situsCity":"UNINCORPORATED","situsZip":null,"jurisdictionCode":null,"ownerName":"SANCHEZ HERMAN","ownerName2":null,"propertyName":null,"zoningCode":null,"zoningDistrict":null,"jurisdictionPrefix":null,"dorCode":"056","acreage":10.0804,"centroid":[-83.081654,29.750999],"lastSale":{"date":null,"price":null,"qualified":null},"tax":{"marketValue":110750.0,"assessedValue":null,"taxableValue":null,"taxes":null},"mailingAddress":{"line1":"P. O. BOX 1107","line2":null,"city":"CROSS CITY","state":"FL","zip":"32628"},"incomeTract":null,"incomeBlockGroup":null,"nearestRoad":null,"flu":null,"opportunityZone":null,"oz2Eligibility":null,"source":"fl-srwmd-parcels-12029"},"geometry":{"type":"Polygon","coordinates":[[[-83.084838,29.75064],[-83.080153,29.750674],[-83.079978,29.750675],[-83.079951,29.75112],[-83.080161,29.75146],[-83.084846,29.751426],[-83.084838,29.75064]]]}},{"type":"Feature","id":"12029:220813000037550400","properties":{"id":"12029:220813000037550400","parcelId":"220813000037550400","countyFips":"12029","countyName":"Dixie","state":"Florida","marketIds":["Big Bend"],"situsAddress":"6586 NE 353 HWY","situsCity":"UNINCORPORATED","situsZip":null,"jurisdictionCode":null,"ownerName":"DICK ROBERT","ownerName2":null,"propertyName":null,"zoningCode":null,"zoningDistrict":null,"jurisdictionPrefix":null,"dorCode":"056","acreage":10.0312,"centroid":[-83.015358,29.780377],"lastSale":{"date":null,"price":null,"qualified":null},"tax":{"marketValue":173850.0,"assessedValue":null,"taxableValue":null,"taxes":null},"mailingAddress":{"line1":"6586 NE HWY 353","line2":null,"city":"OLD TOWN","state":"FL","zip":"32680"},"incomeTract":null,"incomeBlockGroup":null,"nearestRoad":null,"flu":null,"opportunityZone":null,"oz2Eligibility":null,"source":"fl-srwmd-parcels-12029"},"geometry":{"type":"Polygon","coordinates":[[[-83.015134,29.780985],[-83.015165,29.780983],[-83.015782,29.780889],[-83.016338,29.780717],[-83.016389,29.779046],[-83.014339,29.779033],[-83.014362,29.780987],[-83.015134,29.780985]]]}},{"type":"Feature","id":"12029:230813000037610000","properties":{"id":"12029:230813000037610000","parcelId":"230813000037610000","countyFips":"12029","countyName":"Dixie","state":"Florida","marketIds":["Big Bend"],"situsAddress":"717 NE 665 ST","situsCity":"UNINCORPORATED","situsZip":null,"jurisdictionCode":null,"ownerName":"MOELLER  ROBERT","ownerName2":null,"propertyName":null,"zoningCode":null,"zoningDistrict":null,"jurisdictionPrefix":null,"dorCode":"063","acreage":10.0056,"centroid":[-83.000839,29.773022],"lastSale":{"date":null,"price":null,"qualified":null},"tax":{"marketValue":129846.0,"assessedValue":null,"taxableValue":null,"taxes":null},"mailingAddress":{"line1":"717 NE 665 STREET","line2":null,"city":"OLD TOWN","state":"FL","zip":"32680"},"incomeTract":null,"incomeBlockGroup":null,"nearestRoad":null,"flu":null,"opportunityZone":null,"oz2Eligibility":null,"source":"fl-srwmd-parcels-12029"},"geometry":{"type":"Polygon","coordinates":[[[-83.000027,29.774003],[-83.00181,29.774004],[-83.001792,29.772041],[-82.999727,29.77204],[-83.000027,29.774003]]]}},{"type":"Feature","id":"12029:280813381800000080","properties":{"id":"12029:280813381800000080","parcelId":"280813381800000080","countyFips":"12029","countyName":"Dixie","state":"Florida","marketIds":["Big Bend"],"situsAddress":"75 NE 715 AVE","situsCity":"UNINCORPORATED","situsZip":null,"jurisdictionCode":null,"ownerName":"AYUSO-LAMADRID AGUSTIN","ownerName2":null,"propertyName":null,"zoningCode":null,"zoningDistrict":null,"jurisdictionPrefix":null,"dorCode":"001","acreage":8.601,"centroid":[-83.03399,29.756899],"lastSale":{"date":null,"price":null,"qualified":null},"tax":{"marketValue":550500.0,"assessedValue":null,"taxableValue":null,"taxes":null},"mailingAddress":{"line1":"75 NE 715TH AVE","line2":null,"city":"OLD TOWN","state":"FL","zip":"32680"},"incomeTract":null,"incomeBlockGroup":null,"nearestRoad":null,"flu":null,"opportunityZone":null,"oz2Eligibility":null,"source":"fl-srwmd-parcels-12029"},"geometry":{"type":"Polygon","coordinates":[[[-83.034963,29.755648],[-83.033241,29.755625],[-83.033233,29.755724],[-83.033173,29.755876],[-83.033014,29.75617],[-83.033013,29.756201],[-83.033024,29.756231],[-83.033166,29.75637],[-83.033267,29.756749],[-83.033359,29.756918],[-83.033808,29.7573],[-83.033931,29.757364],[-83.034057,29.757395],[-83.034253,29.757401],[-83.034305,29.757322],[-83.034396,29.75729],[-83.034496,29.757314],[-83.034556,29.75738],[-83.034562,29.757462],[-83.034529,29.757514],[-83.034465,29.757554],[-83.034057,29.75756],[-83.034055,29.757927],[-83.034923,29.757943],[-83.034917,29.756564],[-83.034971,29.756571],[-83.034963,29.755648]]]}},{"type":"Feature","id":"12029:220813000037550500","properties":{"id":"12029:220813000037550500","parcelId":"220813000037550500","countyFips":"12029","countyName":"Dixie","state":"Florida","marketIds":["Big Bend"],"situsAddress":"NE UNASSIGNED","situsCity":"UNINCORPORATED","situsZip":null,"jurisdictionCode":null,"ownerName":"DICK ROBERT","ownerName2":null,"propertyName":null,"zoningCode":null,"zoningDistrict":null,"jurisdictionPrefix":null,"dorCode":"055","acreage":8.5468,"centroid":[-83.016949,29.777496],"lastSale":{"date":null,"price":100.0,"qualified":null},"tax":{"marketValue":30702.0,"assessedValue":null,"taxableValue":null,"taxes":null},"mailingAddress":{"line1":"6586 NE HWY 353","line2":null,"city":"OLD TOWN","state":"FL","zip":"32680"},"incomeTract":null,"incomeBlockGroup":null,"nearestRoad":null,"flu":null,"opportunityZone":null,"oz2Eligibility":null,"source":"fl-srwmd-parcels-12029"},"geometry":{"type":"Polygon","coordinates":[[[-83.015584,29.776908],[-83.015599,29.778096],[-83.018312,29.778084],[-83.018303,29.776896],[-83.015584,29.776908]]]}},{"type":"Feature","id":"12029:280813000038220200","properties":{"id":"12029:280813000038220200","parcelId":"280813000038220200","countyFips":"12029","countyName":"Dixie","state":"Florida","marketIds":["Big Bend"],"situsAddress":"NE UNASSIGNED","situsCity":"UNINCORPORATED","situsZip":null,"jurisdictionCode":null,"ownerName":"WALKER WILLIAM R","ownerName2":null,"propertyName":null,"zoningCode":null,"zoningDistrict":null,"jurisdictionPrefix":null,"dorCode":"056","acreage":8.5159,"centroid":[-83.032181,29.755025],"lastSale":{"date":null,"price":null,"qualified":null},"tax":{"marketValue":26550.0,"assessedValue":null,"taxableValue":null,"taxes":null},"mailingAddress":{"line1":"4389 NE 353 HWY","line2":null,"city":"OLD TOWN","state":"FL","zip":"32680"},"incomeTract":null,"incomeBlockGroup":null,"nearestRoad":null,"flu":null,"opportunityZone":null,"oz2Eligibility":null,"source":"fl-srwmd-parcels-12029"},"geometry":{"type":"Polygon","coordinates":[[[-83.030629,29.755605],[-83.032884,29.755617],[-83.032964,29.755319],[-83.032987,29.755128],[-83.032995,29.754244],[-83.030627,29.754239],[-83.030629,29.755605]]]}},{"type":"Feature","id":"12029:270813000038040200","properties":{"id":"12029:270813000038040200","parcelId":"270813000038040200","countyFips":"12029","countyName":"Dixie","state":"Florida","marketIds":["Big Bend"],"situsAddress":"5617 NE 353 HWY","situsCity":"UNINCORPORATED","situsZip":null,"jurisdictionCode":null,"ownerName":"HINES EDDIE","ownerName2":null,"propertyName":null,"zoningCode":null,"zoningDistrict":null,"jurisdictionPrefix":null,"dorCode":"000","acreage":7.8116,"centroid":[-83.015641,29.76608],"lastSale":{"date":null,"price":null,"qualified":null},"tax":{"marketValue":28100.0,"assessedValue":null,"taxableValue":null,"taxes":null},"mailingAddress":{"line1":"6259 NE 55th STREET","line2":null,"city":"HIGH SPRINGS","state":"FL","zip":"32643"},"incomeTract":null,"incomeBlockGroup":null,"nearestRoad":null,"flu":null,"opportunityZone":null,"oz2Eligibility":null,"source":"fl-srwmd-parcels-12029"},"geometry":{"type":"Polygon","coordinates":[[[-83.016984,29.766619],[-83.016975,29.765517],[-83.014297,29.765541],[-83.014306,29.766641],[-83.016984,29.766619]]]}},{"type":"Feature","id":"12029:280813000038220100","properties":{"id":"12029:280813000038220100","parcelId":"280813000038220100","countyFips":"12029","countyName":"Dixie","state":"Florida","marketIds":["Big Bend"],"situsAddress":"4166 NE 353 HWY","situsCity":"UNINCORPORATED","situsZip":null,"jurisdictionCode":null,"ownerName":"LLOYD RICHARD","ownerName2":null,"propertyName":null,"zoningCode":null,"zoningDistrict":null,"jurisdictionPrefix":null,"dorCode":"056","acreage":7.359,"centroid":[-83.031751,29.752468],"lastSale":{"date":null,"price":85000.0,"qualified":null},"tax":{"marketValue":41750.0,"assessedValue":null,"taxableValue":null,"taxes":null},"mailingAddress":{"line1":"4104 VERMONT RT 14","line2":null,"city":"WILLIAMSTOWN","state":"VT","zip":"05679"},"incomeTract":null,"incomeBlockGroup":null,"nearestRoad":null,"flu":null,"opportunityZone":null,"oz2Eligibility":null,"source":"fl-srwmd-parcels-12029"},"geometry":{"type":"Polygon","coordinates":[[[-83.030628,29.753084],[-83.032949,29.753089],[-83.032797,29.751851],[-83.030628,29.751847],[-83.030628,29.753084]]]}},{"type":"Feature","id":"12029:290813000038360000","properties":{"id":"12029:290813000038360000","parcelId":"290813000038360000","countyFips":"12029","countyName":"Dixie","state":"Florida","marketIds":["Big Bend"],"situsAddress":"6694 NE 876 AVE","situsCity":"UNINCORPORATED","situsZip":null,"jurisdictionCode":null,"ownerName":"MANGIONE FREDERIC P","ownerName2":null,"propertyName":null,"zoningCode":null,"zoningDistrict":null,"jurisdictionPrefix":null,"dorCode":"001","acreage":6.026,"centroid":[-83.03791,29.754761],"lastSale":{"date":null,"price":null,"qualified":null},"tax":{"marketValue":206000.0,"assessedValue":null,"taxableValue":null,"taxes":null},"mailingAddress":{"line1":"1764 SW 42ND AVE","line2":null,"city":"GAINESVILLE","state":"FL","zip":"32608"},"incomeTract":null,"incomeBlockGroup":null,"nearestRoad":null,"flu":null,"opportunityZone":null,"oz2Eligibility":null,"source":"fl-srwmd-parcels-12029"},"geometry":{"type":"Polygon","coordinates":[[[-83.036735,29.755356],[-83.037113,29.755354],[-83.039099,29.755343],[-83.039088,29.754106],[-83.0383,29.75411],[-83.038304,29.754523],[-83.036728,29.754532],[-83.036735,29.755356]]]}},{"type":"Feature","id":"12029:280813000038190301","properties":{"id":"12029:280813000038190301","parcelId":"280813000038190301","countyFips":"12029","countyName":"Dixie","state":"Florida","marketIds":["Big Bend"],"situsAddress":"4646 NE 353 HWY","situsCity":"UNINCORPORATED","situsZip":null,"jurisdictionCode":null,"ownerName":"HUFFMAN MARSHALL","ownerName2":null,"propertyName":null,"zoningCode":null,"zoningDistrict":null,"jurisdictionPrefix":null,"dorCode":"056","acreage":5.9947,"centroid":[-83.029212,29.757237],"lastSale":{"date":null,"price":null,"qualified":null},"tax":{"marketValue":56650.0,"assessedValue":null,"taxableValue":null,"taxes":null},"mailingAddress":{"line1":"11203 CLAYMORE STREET","line2":null,"city":"SPRINGHILL","state":"FL","zip":"34609"},"incomeTract":null,"incomeBlockGroup":null,"nearestRoad":null,"flu":null,"opportunityZone":null,"oz2Eligibility":null,"source":"fl-srwmd-parcels-12029"},"geometry":{"type":"Polygon","coordinates":[[[-83.02984,29.757445],[-83.029756,29.7556],[-83.02872,29.75561],[-83.028753,29.758025],[-83.028819,29.75807],[-83.029066,29.757848],[-83.029259,29.757715],[-83.029487,29.757585],[-83.02984,29.757445]]]}},{"type":"Feature","id":"12029:290813000038420000","properties":{"id":"12029:290813000038420000","parcelId":"290813000038420000","countyFips":"12029","countyName":"Dixie","state":"Florida","marketIds":["Big Bend"],"situsAddress":"168 NE 692 AVE","situsCity":"UNINCORPORATED","situsZip":null,"jurisdictionCode":null,"ownerName":"REED  ERNEST T","ownerName2":null,"propertyName":null,"zoningCode":null,"zoningDistrict":null,"jurisdictionPrefix":null,"dorCode":"001","acreage":5.8221,"centroid":[-83.035658,29.753568],"lastSale":{"date":null,"price":100.0,"qualified":null},"tax":{"marketValue":100500.0,"assessedValue":null,"taxableValue":null,"taxes":null},"mailingAddress":{"line1":"6227 DUNN AVE","line2":null,"city":"JACKSONVILLE","state":"FL","zip":"32218"},"incomeTract":null,"incomeBlockGroup":null,"nearestRoad":null,"flu":null,"opportunityZone":null,"oz2Eligibility":null,"source":"fl-srwmd-parcels-12029"},"geometry":{"type":"Polygon","coordinates":[[[-83.035364,29.755364],[-83.035979,29.755361],[-83.035949,29.751772],[-83.035339,29.751776],[-83.035364,29.755364]]]}},{"type":"Feature","id":"12029:280813000038070600","properties":{"id":"12029:280813000038070600","parcelId":"280813000038070600","countyFips":"12029","countyName":"Dixie","state":"Florida","marketIds":["Big Bend"],"situsAddress":"4987 NE 353 HWY","situsCity":"UNINCORPORATED","situsZip":null,"jurisdictionCode":null,"ownerName":"BUZBEE GREDEL A","ownerName2":null,"propertyName":null,"zoningCode":null,"zoningDistrict":null,"jurisdictionPrefix":null,"dorCode":"000","acreage":5.4566,"centroid":[-83.029627,29.762592],"lastSale":{"date":null,"price":null,"qualified":null},"tax":{"marketValue":42300.0,"assessedValue":null,"taxableValue":null,"taxes":null},"mailingAddress":{"line1":"2260 CARTER BIGHT LANDING RD","line2":null,"city":"SURRENCY","state":"GA","zip":"31563"},"incomeTract":null,"incomeBlockGroup":null,"nearestRoad":null,"flu":null,"opportunityZone":null,"oz2Eligibility":null,"source":"fl-srwmd-parcels-12029"},"geometry":{"type":"Polygon","coordinates":[[[-83.030137,29.763253],[-83.030129,29.762591],[-83.030791,29.762598],[-83.030784,29.761967],[-83.028297,29.761973],[-83.027959,29.762568],[-83.029463,29.762586],[-83.029457,29.763201],[-83.030137,29.763253]]]}},{"type":"Feature","id":"12029:220813000037550000","properties":{"id":"12029:220813000037550000","parcelId":"220813000037550000","countyFips":"12029","countyName":"Dixie","state":"Florida","marketIds":["Big Bend"],"situsAddress":"NE UNASSIGNED","situsCity":"UNINCORPORATED","situsZip":null,"jurisdictionCode":null,"ownerName":"PRIME AB FLETCHER TRUST KERMIT","ownerName2":null,"propertyName":null,"zoningCode":null,"zoningDistrict":null,"jurisdictionPrefix":null,"dorCode":"063","acreage":5.4149,"centroid":[-83.01834,29.780867],"lastSale":{"date":null,"price":null,"qualified":null},"tax":{"marketValue":25590.0,"assessedValue":null,"taxableValue":null,"taxes":null},"mailingAddress":{"line1":"6109 NE HWY 353","line2":null,"city":"OLD TOWN","state":"FL","zip":"32680"},"incomeTract":null,"incomeBlockGroup":null,"nearestRoad":null,"flu":null,"opportunityZone":null,"oz2Eligibility":null,"source":"fl-srwmd-parcels-12029"},"geometry":{"type":"Polygon","coordinates":[[[-83.018501,29.778657],[-83.018493,29.778689],[-83.01834,29.779129],[-83.018137,29.779518],[-83.017854,29.779906],[-83.017513,29.780256],[-83.017118,29.780561],[-83.016725,29.78079],[-83.016272,29.780979],[-83.015786,29.781118],[-83.018513,29.781098],[-83.018509,29.778625],[-83.018501,29.778657]]]}},{"type":"Feature","id":"12029:330813385600000130","properties":{"id":"12029:330813385600000130","parcelId":"330813385600000130","countyFips":"12029","countyName":"Dixie","state":"Florida","marketIds":["Big Bend"],"situsAddress":"4070 NE 353 HWY","situsCity":"UNINCORPORATED","situsZip":null,"jurisdictionCode":null,"ownerName":"PEETERS GERALD B","ownerName2":null,"propertyName":null,"zoningCode":null,"zoningDistrict":null,"jurisdictionPrefix":null,"dorCode":"002","acreage":5.3295,"centroid":[-83.031691,29.751356],"lastSale":{"date":null,"price":null,"qualified":null},"tax":{"marketValue":51600.0,"assessedValue":null,"taxableValue":null,"taxes":null},"mailingAddress":{"line1":"N 9445 COUNTY ROAD XX","line2":null,"city":"BEAR CREEK","state":"WI","zip":"54922"},"incomeTract":null,"incomeBlockGroup":null,"nearestRoad":null,"flu":null,"opportunityZone":null,"oz2Eligibility":null,"source":"fl-srwmd-parcels-12029"},"geometry":{"type":"MultiPolygon","coordinates":[[[[-83.032713,29.750945],[-83.030635,29.75094],[-83.030629,29.751767],[-83.032786,29.751772],[-83.032713,29.750945]]],[[[-83.032685,29.750425],[-83.032059,29.750426],[-83.032051,29.750835],[-83.032704,29.750837],[-83.032685,29.750425]]]]}},{"type":"Feature","id":"12029:220813000037510000","properties":{"id":"12029:220813000037510000","parcelId":"220813000037510000","countyFips":"12029","countyName":"Dixie","state":"Florida","marketIds":["Big Bend"],"situsAddress":"7354 NE 353 HWY","situsCity":"UNINCORPORATED","situsZip":null,"jurisdictionCode":null,"ownerName":"STEPHENS LISA","ownerName2":null,"propertyName":null,"zoningCode":null,"zoningDistrict":null,"jurisdictionPrefix":null,"dorCode":"064","acreage":5.1258,"centroid":[-83.001874,29.781138],"lastSale":{"date":null,"price":null,"qualified":null},"tax":{"marketValue":92246.0,"assessedValue":null,"taxableValue":null,"taxes":null},"mailingAddress":{"line1":"689 FM 3028","line2":null,"city":"MILLSAP","state":"TX","zip":"76066"},"incomeTract":null,"incomeBlockGroup":null,"nearestRoad":null,"flu":null,"opportunityZone":null,"oz2Eligibility":null,"source":"fl-srwmd-parcels-12029"},"geometry":{"type":"Polygon","coordinates":[[[-83.001552,29.781394],[-83.001713,29.781396],[-83.002366,29.781407],[-83.002967,29.781379],[-83.002967,29.780515],[-83.000778,29.780505],[-83.000772,29.781372],[-83.001552,29.781394]]]}},{"type":"Feature","id":"12029:110813000036770500","properties":{"id":"12029:110813000036770500","parcelId":"110813000036770500","countyFips":"12029","countyName":"Dixie","state":"Florida","marketIds":["Big Bend"],"situsAddress":"1911 NE 910 AVE","situsCity":"UNINCORPORATED","situsZip":null,"jurisdictionCode":null,"ownerName":"VALENTINE  NANCY (HICKS)","ownerName2":null,"propertyName":null,"zoningCode":null,"zoningDistrict":null,"jurisdictionPrefix":null,"dorCode":"001","acreage":5.1154,"centroid":[-83.000218,29.800437],"lastSale":{"date":null,"price":null,"qualified":null},"tax":{"marketValue":153500.0,"assessedValue":null,"taxableValue":null,"taxes":null},"mailingAddress":{"line1":"1911 NE 910 AVE","line2":null,"city":"OLD TOWN","state":"FL","zip":"32680"},"incomeTract":null,"incomeBlockGroup":null,"nearestRoad":null,"flu":null,"opportunityZone":null,"oz2Eligibility":null,"source":"fl-srwmd-parcels-12029"},"geometry":{"type":"Polygon","coordinates":[[[-82.999698,29.801366],[-83.000739,29.801355],[-83.000744,29.799518],[-82.999693,29.799509],[-82.999698,29.801366]]]}},{"type":"Feature","id":"12029:110813000036770400","properties":{"id":"12029:110813000036770400","parcelId":"110813000036770400","countyFips":"12029","countyName":"Dixie","state":"Florida","marketIds":["Big Bend"],"situsAddress":"1995 NE 910 AVE","situsCity":"UNINCORPORATED","situsZip":null,"jurisdictionCode":null,"ownerName":"HUNT JOEY L","ownerName2":null,"propertyName":null,"zoningCode":null,"zoningDistrict":null,"jurisdictionPrefix":null,"dorCode":"002","acreage":5.044,"centroid":[-83.00126,29.800433],"lastSale":{"date":null,"price":null,"qualified":null},"tax":{"marketValue":79800.0,"assessedValue":null,"taxableValue":null,"taxes":null},"mailingAddress":{"line1":"1995 NE 910 AVENUE","line2":null,"city":"BRANFORD","state":"FL","zip":"32008"},"incomeTract":null,"incomeBlockGroup":null,"nearestRoad":null,"flu":null,"opportunityZone":null,"oz2Eligibility":null,"source":"fl-srwmd-parcels-12029"},"geometry":{"type":"Polygon","coordinates":[[[-83.000739,29.801355],[-83.00178,29.801347],[-83.001778,29.799512],[-83.000744,29.799518],[-83.000739,29.801355]]]}},{"type":"Feature","id":"12029:280813381800000030","properties":{"id":"12029:280813381800000030","parcelId":"280813381800000030","countyFips":"12029","countyName":"Dixie","state":"Florida","marketIds":["Big Bend"],"situsAddress":"4611 NE 353 HWY","situsCity":"UNINCORPORATED","situsZip":null,"jurisdictionCode":null,"ownerName":"BYRD LAURA D","ownerName2":null,"propertyName":null,"zoningCode":null,"zoningDistrict":null,"jurisdictionPrefix":null,"dorCode":"002","acreage":5.0068,"centroid":[-83.030158,29.757912],"lastSale":{"date":null,"price":null,"qualified":null},"tax":{"marketValue":70000.0,"assessedValue":null,"taxableValue":null,"taxes":null},"mailingAddress":{"line1":"4611 NE HWY 353","line2":null,"city":"OLD TOWN","state":"FL","zip":"32680"},"incomeTract":null,"incomeBlockGroup":null,"nearestRoad":null,"flu":null,"opportunityZone":null,"oz2Eligibility":null,"source":"fl-srwmd-parcels-12029"},"geometry":{"type":"Polygon","coordinates":[[[-83.028972,29.758255],[-83.030736,29.758261],[-83.031686,29.758263],[-83.031703,29.757121],[-83.029966,29.757637],[-83.029722,29.757728],[-83.029339,29.757939],[-83.029143,29.758091],[-83.028972,29.758255]]]}}]}