{"type":"FeatureCollection","name":"12071-2_-1","features":[{"type":"Feature","id":"12071:14432000000020000","properties":{"id":"12071:14432000000020000","parcelId":"14432000000020000","countyFips":"12071","countyName":"Lee","state":"Florida","marketIds":["SWFL"],"situsAddress":"500 PALM AVE","situsCity":"BOCA GRANDE","situsZip":"33921","jurisdictionCode":"Unincorporated Lee","ownerName":"GASPARILLA INN INC","ownerName2":null,"propertyName":null,"zoningCode":"AG-2","zoningDistrict":null,"jurisdictionPrefix":null,"dorCode":"39","acreage":136.551,"centroid":[-82.258303,26.754739],"lastSale":{"date":null,"price":null,"qualified":null},"tax":{"marketValue":29373947.0,"assessedValue":29373947.0,"taxableValue":29373947.0,"taxes":null},"mailingAddress":{"line1":"PO BOX 1088","line2":null,"city":"BOCA GRANDE","state":"FL","zip":"33921"},"incomeTract":null,"incomeBlockGroup":null,"nearestRoad":null,"flu":null,"opportunityZone":null,"oz2Eligibility":null,"source":"fl-lee-parceladdress"},"geometry":{"type":"MultiPolygon","coordinates":[[[[-82.26453,26.751703],[-82.264454,26.750588],[-82.263356,26.750617],[-82.263348,26.75173],[-82.26453,26.751703]]],[[[-82.264548,26.752167],[-82.264541,26.752044],[-82.262218,26.752084],[-82.262723,26.753622],[-82.264594,26.753598],[-82.264548,26.752167]]],[[[-82.261693,26.752081],[-82.26104,26.752076],[-82.261499,26.753623],[-82.262166,26.753624],[-82.261693,26.752081]]],[[[-82.257183,26.750301],[-82.257093,26.750306],[-82.257015,26.750147],[-82.256857,26.749978],[-82.256897,26.749963],[-82.256604,26.749667],[-82.256503,26.749749],[-82.256459,26.749818],[-82.256452,26.749899],[-82.256565,26.750131],[-82.256598,26.750263],[-82.256606,26.750574],[-82.256589,26.750736],[-82.25673,26.750816],[-82.256827,26.750926],[-82.256951,26.750972],[-82.25696,26.75106],[-82.256988,26.751065],[-82.257029,26.751109],[-82.257096,26.751114],[-82.257213,26.751194],[-82.257312,26.751508],[-82.257421,26.751661],[-82.257468,26.751926],[-82.257631,26.752194],[-82.257651,26.752299],[-82.257703,26.752366],[-82.257733,26.75253],[-82.25772,26.752579],[-82.257841,26.752759],[-82.257851,26.752865],[-82.258198,26.753196],[-82.258222,26.753374],[-82.258296,26.753487],[-82.258428,26.753592],[-82.258455,26.753666],[-82.261308,26.753622],[-82.260851,26.752074],[-82.257651,26.75203],[-82.257183,26.750301]]],[[[-82.25734,26.758559],[-82.257366,26.75859],[-82.257536,26.758625],[-82.257761,26.758544],[-82.257861,26.758548],[-82.258,26.758469],[-82.258092,26.75849],[-82.258183,26.75845],[-82.258335,26.75846],[-82.258396,26.758436],[-82.258497,26.758441],[-82.258686,26.758407],[-82.258845,26.758429],[-82.259041,26.758418],[-82.259151,26.758444],[-82.259319,26.758451],[-82.2594,26.758418],[-82.259508,26.758427],[-82.259544,26.75845],[-82.259698,26.758433],[-82.259704,26.758408],[-82.259991,26.758351],[-82.260081,26.758369],[-82.260382,26.758311],[-82.260695,26.758296],[-82.26078,26.758277],[-82.260874,26.758176],[-82.262021,26.758077],[-82.262055,26.758054],[-82.26205,26.758018],[-82.262151,26.75803],[-82.262148,26.75798],[-82.262079,26.757897],[-82.262004,26.757856],[-82.261982,26.757793],[-82.261887,26.75774],[-82.26183,26.757681],[-82.261765,26.757531],[-82.261681,26.757434],[-82.261629,26.757274],[-82.261542,26.757192],[-82.261512,26.757098],[-82.261541,26.757086],[-82.261606,26.757005],[-82.261572,26.756849],[-82.261515,26.756811],[-82.261504,26.756761],[-82.261338,26.756668],[-82.261266,26.756495],[-82.261043,26.756258],[-82.260932,26.756197],[-82.260849,26.756191],[-82.260826,26.756153],[-82.260785,26.756137],[-82.260724,26.756142],[-82.26066,26.756079],[-82.260582,26.756085],[-82.260553,26.756067],[-82.260517,26.755986],[-82.260464,26.75598],[-82.260399,26.755888],[-82.260333,26.755882],[-82.260307,26.755845],[-82.260245,26.755874],[-82.260155,26.755851],[-82.260015,26.755753],[-82.259943,26.755722],[-82.259876,26.755721],[-82.259827,26.755655],[-82.259795,26.755662],[-82.259647,26.755625],[-82.259526,26.755403],[-82.259406,26.755344],[-82.259381,26.755358],[-82.259282,26.755178],[-82.259167,26.755077],[-82.25912,26.754933],[-82.25907,26.754903],[-82.259011,26.754744],[-82.258952,26.754746],[-82.258872,26.754636],[-82.258776,26.754582],[-82.258721,26.754485],[-82.258604,26.754405],[-82.258635,26.754223],[-82.258599,26.754126],[-82.258435,26.754031],[-82.258366,26.753949],[-82.258252,26.754023],[-82.258121,26.753852],[-82.258071,26.753675],[-82.258032,26.75362],[-82.258006,26.753611],[-82.257678,26.753249],[-82.257347,26.752729],[-82.257372,26.752686],[-82.257366,26.75263],[-82.25731,26.752592],[-82.257293,26.752543],[-82.257242,26.752531],[-82.257099,26.752412],[-82.257079,26.752351],[-82.257001,26.752257],[-82.256971,26.752166],[-82.256913,26.752108],[-82.256756,26.752037],[-82.256582,26.75201],[-82.256595,26.751963],[-82.25656,26.751894],[-82.256396,26.751781],[-82.256407,26.751727],[-82.256341,26.751666],[-82.256314,26.75157],[-82.256226,26.751438],[-82.256227,26.751391],[-82.256257,26.751338],[-82.256221,26.751251],[-82.256201,26.751038],[-82.25617,26.750984],[-82.256219,26.750938],[-82.256206,26.750835],[-82.256123,26.750619],[-82.256181,26.750551],[-82.256161,26.750503],[-82.256192,26.750436],[-82.256199,26.750208],[-82.256177,26.750127],[-82.256129,26.750077],[-82.256081,26.750061],[-82.25607,26.749996],[-82.255898,26.749886],[-82.255795,26.749847],[-82.255678,26.749848],[-82.255608,26.749784],[-82.255622,26.749739],[-82.255557,26.749649],[-82.254791,26.749334],[-82.254655,26.749323],[-82.254293,26.749396],[-82.254164,26.749463],[-82.254069,26.74954],[-82.253981,26.749651],[-82.253928,26.74976],[-82.253722,26.750974],[-82.253588,26.752456],[-82.253532,26.753722],[-82.25354,26.753902],[-82.253618,26.754402],[-82.254069,26.755385],[-82.254524,26.756218],[-82.254746,26.756581],[-82.254988,26.756944],[-82.255704,26.757918],[-82.256305,26.758667],[-82.25734,26.758559]],[[-82.257767,26.757561],[-82.257609,26.757078],[-82.25931,26.756706],[-82.259656,26.756724],[-82.259956,26.756875],[-82.260016,26.757136],[-82.259595,26.757223],[-82.259537,26.75719],[-82.257767,26.757561]]]]}},{"type":"Feature","id":"12071:12432000000020050","properties":{"id":"12071:12432000000020050","parcelId":"12432000000020050","countyFips":"12071","countyName":"Lee","state":"Florida","marketIds":["SWFL"],"situsAddress":"ACCESS UNDETERMINED","situsCity":"BOCA GRANDE","situsZip":null,"jurisdictionCode":"Unincorporated Lee","ownerName":"GASPARILLA ISLAND CONSERVATION","ownerName2":null,"propertyName":null,"zoningCode":"AG-2","zoningDistrict":null,"jurisdictionPrefix":null,"dorCode":"70","acreage":88.6811,"centroid":[-82.26378,26.772887],"lastSale":{"date":null,"price":975000.0,"qualified":null},"tax":{"marketValue":4434.0,"assessedValue":1365.0,"taxableValue":0.0,"taxes":null},"mailingAddress":{"line1":"PO BOX 446","line2":null,"city":"BOCA GRANDE","state":"FL","zip":"33921"},"incomeTract":null,"incomeBlockGroup":null,"nearestRoad":null,"flu":null,"opportunityZone":null,"oz2Eligibility":null,"source":"fl-lee-parceladdress"},"geometry":{"type":"Polygon","coordinates":[[[-82.264831,26.775146],[-82.265152,26.775115],[-82.265095,26.774849],[-82.265054,26.774779],[-82.264976,26.774515],[-82.265012,26.774333],[-82.264959,26.774254],[-82.264955,26.774208],[-82.265003,26.774086],[-82.264965,26.773856],[-82.265022,26.773587],[-82.264944,26.773405],[-82.264906,26.773117],[-82.264861,26.772933],[-82.264794,26.772797],[-82.264784,26.772745],[-82.264811,26.772675],[-82.264804,26.77251],[-82.264777,26.772427],[-82.264778,26.772358],[-82.264749,26.772299],[-82.264752,26.772202],[-82.264716,26.772029],[-82.264666,26.771884],[-82.264671,26.771741],[-82.264595,26.771563],[-82.26459,26.77146],[-82.264551,26.771392],[-82.264506,26.771371],[-82.264423,26.771391],[-82.264359,26.771351],[-82.264287,26.771238],[-82.263774,26.769894],[-82.263237,26.768563],[-82.254737,26.770734],[-82.254786,26.774308],[-82.256106,26.774295],[-82.256098,26.773195],[-82.264024,26.773119],[-82.26405,26.77532],[-82.264836,26.775312],[-82.264831,26.775146]],[[-82.262537,26.77056],[-82.262572,26.770405],[-82.262514,26.770361],[-82.262462,26.770277],[-82.262457,26.770199],[-82.26248,26.77015],[-82.262468,26.770049],[-82.262422,26.769962],[-82.262219,26.769741],[-82.262213,26.769623],[-82.262186,26.769521],[-82.262135,26.76946],[-82.262133,26.769398],[-82.262313,26.769164],[-82.262352,26.769002],[-82.262461,26.768972],[-82.262761,26.768721],[-82.262815,26.768728],[-82.262905,26.768823],[-82.263033,26.76906],[-82.263008,26.769164],[-82.263111,26.769259],[-82.263157,26.769383],[-82.263127,26.769443],[-82.263188,26.769485],[-82.263463,26.769979],[-82.26354,26.770155],[-82.263528,26.770195],[-82.263615,26.770353],[-82.26364,26.770555],[-82.263793,26.770824],[-82.263787,26.770894],[-82.263843,26.770947],[-82.263958,26.771175],[-82.263989,26.771346],[-82.264087,26.77149],[-82.264071,26.771536],[-82.264027,26.771578],[-82.264049,26.771607],[-82.264056,26.771672],[-82.263948,26.771834],[-82.263713,26.772122],[-82.26363,26.772212],[-82.263294,26.772448],[-82.263038,26.772471],[-82.262911,26.772442],[-82.262848,26.772361],[-82.262866,26.772272],[-82.26283,26.772234],[-82.262773,26.772244],[-82.262701,26.772213],[-82.26254,26.772094],[-82.262544,26.772032],[-82.262501,26.772061],[-82.262268,26.771912],[-82.26224,26.77192],[-82.262229,26.772012],[-82.262173,26.772036],[-82.262079,26.772025],[-82.261873,26.771885],[-82.261805,26.771805],[-82.261772,26.77173],[-82.261781,26.771564],[-82.261757,26.771483],[-82.261672,26.7714],[-82.26166,26.77129],[-82.261725,26.77094],[-82.261783,26.770863],[-82.26189,26.770785],[-82.262065,26.770748],[-82.262203,26.770648],[-82.262406,26.770581],[-82.262537,26.77056]]]}},{"type":"Feature","id":"12071:11432000000050000","properties":{"id":"12071:11432000000050000","parcelId":"11432000000050000","countyFips":"12071","countyName":"Lee","state":"Florida","marketIds":["SWFL"],"situsAddress":"SUBMERGED","situsCity":"BOCA GRANDE","situsZip":"33921","jurisdictionCode":"Unincorporated Lee","ownerName":"TIITF STATE OF FLORIDA","ownerName2":null,"propertyName":null,"zoningCode":"AG-2","zoningDistrict":null,"jurisdictionPrefix":null,"dorCode":"82","acreage":76.5463,"centroid":[-82.261127,26.766266],"lastSale":{"date":null,"price":null,"qualified":null},"tax":{"marketValue":3687.0,"assessedValue":0.0,"taxableValue":0.0,"taxes":null},"mailingAddress":{"line1":"3900 COMMONWEALTH BLVD","line2":"MAIL STATION 115","city":"TALLAHASSEE","state":"FL","zip":"32399"},"incomeTract":null,"incomeBlockGroup":null,"nearestRoad":null,"flu":null,"opportunityZone":null,"oz2Eligibility":null,"source":"fl-lee-parceladdress"},"geometry":{"type":"Polygon","coordinates":[[[-82.257105,26.763811],[-82.259261,26.764531],[-82.257424,26.766941],[-82.256173,26.767758],[-82.256222,26.770354],[-82.263237,26.768563],[-82.263101,26.76839],[-82.263044,26.768266],[-82.263004,26.767964],[-82.263028,26.767829],[-82.263103,26.767781],[-82.263165,26.767777],[-82.263217,26.767745],[-82.263214,26.767706],[-82.263008,26.767478],[-82.262566,26.767516],[-82.262478,26.766798],[-82.261393,26.765725],[-82.261868,26.765673],[-82.261763,26.765519],[-82.261558,26.765315],[-82.261017,26.764948],[-82.260847,26.764776],[-82.260777,26.764611],[-82.260774,26.764526],[-82.26081,26.764436],[-82.260887,26.764326],[-82.26097,26.764299],[-82.260691,26.763152],[-82.258094,26.763478],[-82.257105,26.763811]]]}},{"type":"Feature","id":"12071:11432000000040000","properties":{"id":"12071:11432000000040000","parcelId":"11432000000040000","countyFips":"12071","countyName":"Lee","state":"Florida","marketIds":["SWFL"],"situsAddress":"SUBMERGED","situsCity":"BOCA GRANDE","situsZip":null,"jurisdictionCode":"Unincorporated Lee","ownerName":"TIITF STATE OF FLORIDA","ownerName2":null,"propertyName":null,"zoningCode":"AG-2","zoningDistrict":null,"jurisdictionPrefix":null,"dorCode":"87","acreage":71.2597,"centroid":[-82.255074,26.774582],"lastSale":{"date":null,"price":null,"qualified":null},"tax":{"marketValue":2422.0,"assessedValue":0.0,"taxableValue":0.0,"taxes":null},"mailingAddress":{"line1":"3900 COMMONWEALTH BLVD","line2":"MAIL STATION 115","city":"TALLAHASSEE","state":"FL","zip":"32399"},"incomeTract":null,"incomeBlockGroup":null,"nearestRoad":null,"flu":null,"opportunityZone":null,"oz2Eligibility":null,"source":"fl-lee-parceladdress"},"geometry":{"type":"Polygon","coordinates":[[[-82.26405,26.77532],[-82.264024,26.773119],[-82.256098,26.773195],[-82.256106,26.774295],[-82.253586,26.774322],[-82.253501,26.77443],[-82.253355,26.774542],[-82.253228,26.774718],[-82.253151,26.77479],[-82.253078,26.77484],[-82.252871,26.774879],[-82.252809,26.774879],[-82.252735,26.774798],[-82.25274,26.774584],[-82.252718,26.774512],[-82.252612,26.774333],[-82.246506,26.774387],[-82.2464,26.775167],[-82.246532,26.775487],[-82.261452,26.775345],[-82.263153,26.773591],[-82.263566,26.774521],[-82.262437,26.775335],[-82.26405,26.77532]]]}},{"type":"Feature","id":"12071:12432000000020020","properties":{"id":"12071:12432000000020020","parcelId":"12432000000020020","countyFips":"12071","countyName":"Lee","state":"Florida","marketIds":["SWFL"],"situsAddress":"ACCESS UNDETERMINED","situsCity":"BOCA GRANDE","situsZip":null,"jurisdictionCode":"Unincorporated Lee","ownerName":"JSJ LANDHOLDING LLC","ownerName2":null,"propertyName":null,"zoningCode":null,"zoningDistrict":null,"jurisdictionPrefix":null,"dorCode":"95","acreage":50.82,"centroid":[-82.252634,26.763269],"lastSale":{"date":"2019-07-02","price":24865.0,"qualified":null},"tax":{"marketValue":2540.0,"assessedValue":2540.0,"taxableValue":2540.0,"taxes":null},"mailingAddress":{"line1":"401 SUBSTATION RD","line2":null,"city":"VENICE","state":"FL","zip":"34285"},"incomeTract":null,"incomeBlockGroup":null,"nearestRoad":null,"flu":null,"opportunityZone":null,"oz2Eligibility":null,"source":"fl-lee-parceladdress"},"geometry":{"type":"Polygon","coordinates":[[[-82.254751,26.762563],[-82.254899,26.762314],[-82.255011,26.762056],[-82.255079,26.761788],[-82.255183,26.761528],[-82.255371,26.760911],[-82.256274,26.760984],[-82.256282,26.760846],[-82.248353,26.760885],[-82.248123,26.762506],[-82.249775,26.762411],[-82.2506,26.763083],[-82.251103,26.764151],[-82.250505,26.764274],[-82.250495,26.764517],[-82.25042,26.765064],[-82.250506,26.765269],[-82.250538,26.765307],[-82.250653,26.765345],[-82.250806,26.765523],[-82.250806,26.76511],[-82.252429,26.764553],[-82.253103,26.764218],[-82.253721,26.763805],[-82.253912,26.763651],[-82.254078,26.763474],[-82.254419,26.763047],[-82.254542,26.762933],[-82.254637,26.762671],[-82.254751,26.762563]]]}},{"type":"Feature","id":"12071:12432000000010000","properties":{"id":"12071:12432000000010000","parcelId":"12432000000010000","countyFips":"12071","countyName":"Lee","state":"Florida","marketIds":["SWFL"],"situsAddress":"HOAGEN KEY ISLAND","situsCity":"BOCA GRANDE","situsZip":null,"jurisdictionCode":"Unincorporated Lee","ownerName":"GASPARILLA ISLAND CONSERVATION","ownerName2":null,"propertyName":null,"zoningCode":"AG-2","zoningDistrict":null,"jurisdictionPrefix":null,"dorCode":"70","acreage":38.4083,"centroid":[-82.252592,26.770748],"lastSale":{"date":null,"price":975000.0,"qualified":null},"tax":{"marketValue":636589.0,"assessedValue":636589.0,"taxableValue":0.0,"taxes":null},"mailingAddress":{"line1":"PO BOX 446","line2":null,"city":"BOCA GRANDE","state":"FL","zip":"33921"},"incomeTract":null,"incomeBlockGroup":null,"nearestRoad":null,"flu":null,"opportunityZone":null,"oz2Eligibility":null,"source":"fl-lee-parceladdress"},"geometry":{"type":"Polygon","coordinates":[[[-82.252145,26.769892],[-82.252153,26.770083],[-82.252254,26.770357],[-82.252264,26.77056],[-82.25224,26.77064],[-82.252271,26.770767],[-82.252273,26.771085],[-82.250919,26.7711],[-82.250955,26.774351],[-82.254786,26.774308],[-82.254737,26.770734],[-82.253129,26.770752],[-82.25307,26.770406],[-82.25293,26.770286],[-82.252902,26.77008],[-82.252852,26.770023],[-82.252712,26.769753],[-82.252494,26.769583],[-82.252162,26.769461],[-82.252145,26.769892]]]}},{"type":"Feature","id":"12071:024320020000A0010","properties":{"id":"12071:024320020000A0010","parcelId":"024320020000A0010","countyFips":"12071","countyName":"Lee","state":"Florida","marketIds":["SWFL"],"situsAddress":"4536 GASPARILLA RD","situsCity":"BOCA GRANDE","situsZip":"33921","jurisdictionCode":"Unincorporated Lee","ownerName":"GASPARILLA ISLAND CONSERVATION","ownerName2":null,"propertyName":null,"zoningCode":"AG-2","zoningDistrict":null,"jurisdictionPrefix":null,"dorCode":"70","acreage":37.53,"centroid":[-82.265036,26.786283],"lastSale":{"date":null,"price":975000.0,"qualified":null},"tax":{"marketValue":37530.0,"assessedValue":37530.0,"taxableValue":0.0,"taxes":null},"mailingAddress":{"line1":"PO BOX 446","line2":null,"city":"BOCA GRANDE","state":"FL","zip":"33921"},"incomeTract":null,"incomeBlockGroup":null,"nearestRoad":null,"flu":null,"opportunityZone":null,"oz2Eligibility":null,"source":"fl-lee-parceladdress"},"geometry":{"type":"Polygon","coordinates":[[[-82.264133,26.784356],[-82.264134,26.784392],[-82.264173,26.784579],[-82.264241,26.784621],[-82.26427,26.784675],[-82.264259,26.784752],[-82.26428,26.784832],[-82.264351,26.784904],[-82.264445,26.784926],[-82.264449,26.785042],[-82.264487,26.785101],[-82.264437,26.785306],[-82.264387,26.785373],[-82.264384,26.785485],[-82.264447,26.785559],[-82.264515,26.785757],[-82.26457,26.785849],[-82.264635,26.785873],[-82.264714,26.78604],[-82.264725,26.786112],[-82.264658,26.786299],[-82.264676,26.786379],[-82.264736,26.786479],[-82.264752,26.786651],[-82.264742,26.786739],[-82.264781,26.786804],[-82.26479,26.786862],[-82.264852,26.786933],[-82.264916,26.78696],[-82.265066,26.787302],[-82.265146,26.787369],[-82.265251,26.787541],[-82.26527,26.787655],[-82.265384,26.787733],[-82.265412,26.787773],[-82.265371,26.787868],[-82.265418,26.787937],[-82.265487,26.787952],[-82.265582,26.78801],[-82.265633,26.788077],[-82.265617,26.788139],[-82.265657,26.78822],[-82.265724,26.788282],[-82.265828,26.788576],[-82.268834,26.787214],[-82.267462,26.784145],[-82.266515,26.784506],[-82.266128,26.783655],[-82.264133,26.784356]]]}},{"type":"Feature","id":"12071:12432000000020010","properties":{"id":"12071:12432000000020010","parcelId":"12432000000020010","countyFips":"12071","countyName":"Lee","state":"Florida","marketIds":["SWFL"],"situsAddress":"SUBMERGED","situsCity":"BOCA GRANDE","situsZip":null,"jurisdictionCode":"Unincorporated Lee","ownerName":"TIITF STATE OF FLORIDA","ownerName2":null,"propertyName":null,"zoningCode":null,"zoningDistrict":null,"jurisdictionPrefix":null,"dorCode":"80","acreage":29.5152,"centroid":[-82.256433,26.766179],"lastSale":{"date":null,"price":null,"qualified":null},"tax":{"marketValue":1464.0,"assessedValue":0.0,"taxableValue":0.0,"taxes":null},"mailingAddress":{"line1":"3900 COMMONWEALTH BLVD","line2":"MAIL STATION 115","city":"TALLAHASSEE","state":"FL","zip":"32399"},"incomeTract":null,"incomeBlockGroup":null,"nearestRoad":null,"flu":null,"opportunityZone":null,"oz2Eligibility":null,"source":"fl-lee-parceladdress"},"geometry":{"type":"Polygon","coordinates":[[[-82.25426,26.766405],[-82.254114,26.766459],[-82.253994,26.766474],[-82.253897,26.766429],[-82.253729,26.766312],[-82.253652,26.766305],[-82.253605,26.766324],[-82.254664,26.768742],[-82.257424,26.766941],[-82.259261,26.764531],[-82.257105,26.763811],[-82.257085,26.763616],[-82.256985,26.763797],[-82.256903,26.764026],[-82.256877,26.764169],[-82.256918,26.76427],[-82.256909,26.764385],[-82.256834,26.764511],[-82.256749,26.764582],[-82.256707,26.764666],[-82.256731,26.764719],[-82.256712,26.764888],[-82.256647,26.764951],[-82.256658,26.765023],[-82.256587,26.765084],[-82.256536,26.76517],[-82.25652,26.765256],[-82.256544,26.765354],[-82.256534,26.765453],[-82.256698,26.765723],[-82.256724,26.765821],[-82.256708,26.765922],[-82.256611,26.765973],[-82.256478,26.765995],[-82.256157,26.765948],[-82.25602,26.765779],[-82.255892,26.765724],[-82.255773,26.765722],[-82.25564,26.765646],[-82.25544,26.765636],[-82.255346,26.765712],[-82.255197,26.765892],[-82.255021,26.765964],[-82.254941,26.766017],[-82.25489,26.766101],[-82.254702,26.76622],[-82.254547,26.76627],[-82.254399,26.766387],[-82.25426,26.766405]]]}},{"type":"Feature","id":"12071:12432000000010010","properties":{"id":"12071:12432000000010010","parcelId":"12432000000010010","countyFips":"12071","countyName":"Lee","state":"Florida","marketIds":["SWFL"],"situsAddress":"SUBMERGED","situsCity":"BOCA GRANDE","situsZip":null,"jurisdictionCode":"Unincorporated Lee","ownerName":"TIITF STATE OF FLORIDA","ownerName2":null,"propertyName":null,"zoningCode":"AG-2","zoningDistrict":null,"jurisdictionPrefix":null,"dorCode":"82","acreage":24.02,"centroid":[-82.254064,26.768247],"lastSale":{"date":null,"price":null,"qualified":null},"tax":{"marketValue":24020.0,"assessedValue":16726.0,"taxableValue":0.0,"taxes":null},"mailingAddress":{"line1":"3900 COMMONWEALTH BLVD","line2":"MAIL STATION 115","city":"TALLAHASSEE","state":"FL","zip":"32399"},"incomeTract":null,"incomeBlockGroup":null,"nearestRoad":null,"flu":null,"opportunityZone":null,"oz2Eligibility":null,"source":"fl-lee-parceladdress"},"geometry":{"type":"Polygon","coordinates":[[[-82.253605,26.766324],[-82.253535,26.766421],[-82.25321,26.766867],[-82.253053,26.767599],[-82.252217,26.768034],[-82.253224,26.76964],[-82.254737,26.770734],[-82.256222,26.770354],[-82.256173,26.767758],[-82.254664,26.768742],[-82.253605,26.766324]]]}},{"type":"Feature","id":"12071:124320050000A00CE","properties":{"id":"12071:124320050000A00CE","parcelId":"124320050000A00CE","countyFips":"12071","countyName":"Lee","state":"Florida","marketIds":["SWFL"],"situsAddress":"SUBMERGED","situsCity":"BOCA GRANDE","situsZip":"33921","jurisdictionCode":"Unincorporated Lee","ownerName":"BOCA GRANDE ISLES OWNERS ASSN","ownerName2":null,"propertyName":null,"zoningCode":"RS-1","zoningDistrict":null,"jurisdictionPrefix":null,"dorCode":"09","acreage":18.2633,"centroid":[-82.255236,26.765361],"lastSale":{"date":null,"price":null,"qualified":null},"tax":{"marketValue":0.0,"assessedValue":0.0,"taxableValue":0.0,"taxes":null},"mailingAddress":{"line1":"PO BOX 3085","line2":null,"city":"PLACIDA","state":"FL","zip":"33946"},"incomeTract":null,"incomeBlockGroup":null,"nearestRoad":null,"flu":null,"opportunityZone":null,"oz2Eligibility":null,"source":"fl-lee-parceladdress"},"geometry":{"type":"Polygon","coordinates":[[[-82.25709,26.763558],[-82.257096,26.763535],[-82.256812,26.76272],[-82.256588,26.762811],[-82.256395,26.762956],[-82.256289,26.763078],[-82.255938,26.763756],[-82.255696,26.7641],[-82.255367,26.764445],[-82.254925,26.764828],[-82.254241,26.765317],[-82.253654,26.765655],[-82.253247,26.765849],[-82.252829,26.76602],[-82.252001,26.766295],[-82.251938,26.766348],[-82.251881,26.766455],[-82.251878,26.766577],[-82.251907,26.766653],[-82.252104,26.766895],[-82.252181,26.766946],[-82.252292,26.766978],[-82.252503,26.76699],[-82.25321,26.766867],[-82.253605,26.766324],[-82.253652,26.766305],[-82.253729,26.766312],[-82.253897,26.766429],[-82.253994,26.766474],[-82.254399,26.766387],[-82.254547,26.76627],[-82.254702,26.76622],[-82.25489,26.766101],[-82.254941,26.766017],[-82.255021,26.765964],[-82.255197,26.765892],[-82.255346,26.765712],[-82.25544,26.765636],[-82.25564,26.765646],[-82.255773,26.765722],[-82.255892,26.765724],[-82.25602,26.765779],[-82.256157,26.765948],[-82.256478,26.765995],[-82.256611,26.765973],[-82.256708,26.765922],[-82.256724,26.765821],[-82.256698,26.765723],[-82.256534,26.765453],[-82.256544,26.765354],[-82.25652,26.765256],[-82.256536,26.76517],[-82.256587,26.765084],[-82.256658,26.765023],[-82.256647,26.764951],[-82.256712,26.764888],[-82.256731,26.764719],[-82.256707,26.764666],[-82.256749,26.764582],[-82.256834,26.764511],[-82.256909,26.764385],[-82.256918,26.76427],[-82.256877,26.764169],[-82.256903,26.764026],[-82.256985,26.763797],[-82.257086,26.763614],[-82.25709,26.763558]]]}},{"type":"Feature","id":"12071:1243200000002004B","properties":{"id":"12071:1243200000002004B","parcelId":"1243200000002004B","countyFips":"12071","countyName":"Lee","state":"Florida","marketIds":["SWFL"],"situsAddress":"SUBMERGED","situsCity":"BOCA GRANDE","situsZip":null,"jurisdictionCode":"Unincorporated Lee","ownerName":"THREE SISTERS ISLE LLC","ownerName2":null,"propertyName":null,"zoningCode":"AG-2","zoningDistrict":null,"jurisdictionPrefix":null,"dorCode":"95","acreage":17.39,"centroid":[-82.251266,26.768791],"lastSale":{"date":null,"price":null,"qualified":null},"tax":{"marketValue":870.0,"assessedValue":870.0,"taxableValue":870.0,"taxes":null},"mailingAddress":{"line1":"221 N HOGAN ST #403","line2":null,"city":"JACKSONVILLE","state":"FL","zip":"32202"},"incomeTract":null,"incomeBlockGroup":null,"nearestRoad":null,"flu":null,"opportunityZone":null,"oz2Eligibility":null,"source":"fl-lee-parceladdress"},"geometry":{"type":"Polygon","coordinates":[[[-82.250524,26.767315],[-82.25059,26.767259],[-82.25017,26.766902],[-82.249886,26.765982],[-82.249686,26.766593],[-82.250351,26.768871],[-82.250919,26.7711],[-82.252273,26.771085],[-82.252271,26.770767],[-82.25224,26.77064],[-82.252264,26.77056],[-82.252254,26.770357],[-82.252153,26.770083],[-82.252144,26.769889],[-82.252217,26.768034],[-82.251424,26.767967],[-82.250747,26.767392],[-82.250673,26.767441],[-82.250524,26.767315]]]}},{"type":"Feature","id":"12071:114320020000B0000","properties":{"id":"12071:114320020000B0000","parcelId":"114320020000B0000","countyFips":"12071","countyName":"Lee","state":"Florida","marketIds":["SWFL"],"situsAddress":"PRESERVATION","situsCity":"BOCA GRANDE","situsZip":null,"jurisdictionCode":"Unincorporated Lee","ownerName":"GASPARILLA ISLAND CONSERVATION","ownerName2":null,"propertyName":null,"zoningCode":"AG-2","zoningDistrict":null,"jurisdictionPrefix":null,"dorCode":"70","acreage":16.927,"centroid":[-82.265001,26.77441],"lastSale":{"date":null,"price":null,"qualified":null},"tax":{"marketValue":16930.0,"assessedValue":16930.0,"taxableValue":0.0,"taxes":null},"mailingAddress":{"line1":"PO BOX 446","line2":null,"city":"BOCA GRANDE","state":"FL","zip":"33921"},"incomeTract":null,"incomeBlockGroup":null,"nearestRoad":null,"flu":null,"opportunityZone":null,"oz2Eligibility":null,"source":"fl-lee-parceladdress"},"geometry":{"type":"Polygon","coordinates":[[[-82.263004,26.767964],[-82.263018,26.768113],[-82.263044,26.768266],[-82.263101,26.76839],[-82.263237,26.768563],[-82.263774,26.769894],[-82.264287,26.771238],[-82.264359,26.771351],[-82.264423,26.771391],[-82.264506,26.771371],[-82.264551,26.771392],[-82.26459,26.77146],[-82.264595,26.771563],[-82.264671,26.771741],[-82.264666,26.771884],[-82.264716,26.772029],[-82.264752,26.772202],[-82.264749,26.772299],[-82.264778,26.772358],[-82.264777,26.772427],[-82.264804,26.77251],[-82.264811,26.772675],[-82.264784,26.772745],[-82.264794,26.772797],[-82.264861,26.772933],[-82.264906,26.773117],[-82.264944,26.773405],[-82.265022,26.773587],[-82.264965,26.773856],[-82.265003,26.774086],[-82.264955,26.774208],[-82.264959,26.774254],[-82.265012,26.774333],[-82.264976,26.774515],[-82.265054,26.774779],[-82.265095,26.774849],[-82.265152,26.775115],[-82.26529,26.775071],[-82.265541,26.77505],[-82.265027,26.771212],[-82.264471,26.76734],[-82.263008,26.767478],[-82.263187,26.767672],[-82.263217,26.767745],[-82.263165,26.767777],[-82.263103,26.767781],[-82.263028,26.767829],[-82.263004,26.767964]]]}},{"type":"Feature","id":"12071:144320050000B00CE","properties":{"id":"12071:144320050000B00CE","parcelId":"144320050000B00CE","countyFips":"12071","countyName":"Lee","state":"Florida","marketIds":["SWFL"],"situsAddress":"BOCA GRANDE ISLES C/E","situsCity":null,"situsZip":"33921","jurisdictionCode":"Unincorporated Lee","ownerName":"BOCA GRANDE ISLES PROP OWNERS","ownerName2":null,"propertyName":null,"zoningCode":"RS-1","zoningDistrict":null,"jurisdictionPrefix":null,"dorCode":"09","acreage":15.5963,"centroid":[-82.258303,26.760643],"lastSale":{"date":null,"price":null,"qualified":null},"tax":{"marketValue":0.0,"assessedValue":0.0,"taxableValue":0.0,"taxes":null},"mailingAddress":{"line1":"PO BOX 3085","line2":null,"city":"PLACIDA","state":"FL","zip":"33946"},"incomeTract":null,"incomeBlockGroup":null,"nearestRoad":null,"flu":null,"opportunityZone":null,"oz2Eligibility":null,"source":"fl-lee-parceladdress"},"geometry":{"type":"Polygon","coordinates":[[[-82.25929,26.75955],[-82.259289,26.759547],[-82.259197,26.758898],[-82.259235,26.758809],[-82.25934,26.758755],[-82.257935,26.75894],[-82.258002,26.758963],[-82.25805,26.75901],[-82.258069,26.759088],[-82.258049,26.759145],[-82.257701,26.759688],[-82.257335,26.75996],[-82.25716,26.760154],[-82.25711,26.760292],[-82.257083,26.760689],[-82.257088,26.760953],[-82.257106,26.76105],[-82.257177,26.761179],[-82.257427,26.76143],[-82.257465,26.761517],[-82.257455,26.761619],[-82.25736,26.761723],[-82.257312,26.761835],[-82.257304,26.762037],[-82.257325,26.76214],[-82.257352,26.762178],[-82.25743,26.762196],[-82.258106,26.762061],[-82.258504,26.761938],[-82.25863,26.761856],[-82.258728,26.761747],[-82.258954,26.761286],[-82.259027,26.761195],[-82.259159,26.761135],[-82.259492,26.761093],[-82.25959,26.761029],[-82.259628,26.760928],[-82.259612,26.760835],[-82.259422,26.760547],[-82.259357,26.760365],[-82.259346,26.760206],[-82.259404,26.760092],[-82.259421,26.760005],[-82.25929,26.75955]]]}},{"type":"Feature","id":"12071:11432000000010000","properties":{"id":"12071:11432000000010000","parcelId":"11432000000010000","countyFips":"12071","countyName":"Lee","state":"Florida","marketIds":["SWFL"],"situsAddress":"LOOMIS ISLAND","situsCity":"BOCA GRANDE","situsZip":"33921","jurisdictionCode":"Unincorporated Lee","ownerName":"GASPARILLA ISLAND CONSERVATION","ownerName2":null,"propertyName":null,"zoningCode":"AG-2","zoningDistrict":null,"jurisdictionPrefix":null,"dorCode":"70","acreage":13.7383,"centroid":[-82.262769,26.770826],"lastSale":{"date":null,"price":975000.0,"qualified":null},"tax":{"marketValue":25630.0,"assessedValue":25630.0,"taxableValue":0.0,"taxes":null},"mailingAddress":{"line1":"PO BOX 446","line2":null,"city":"BOCA GRANDE","state":"FL","zip":"33921"},"incomeTract":null,"incomeBlockGroup":null,"nearestRoad":null,"flu":null,"opportunityZone":null,"oz2Eligibility":null,"source":"fl-lee-parceladdress"},"geometry":{"type":"Polygon","coordinates":[[[-82.262203,26.770648],[-82.262081,26.770724],[-82.262065,26.770748],[-82.26189,26.770785],[-82.261783,26.770863],[-82.261704,26.770986],[-82.261666,26.771203],[-82.261672,26.7714],[-82.261757,26.771483],[-82.261781,26.771564],[-82.261772,26.77173],[-82.261805,26.771805],[-82.261873,26.771885],[-82.262079,26.772025],[-82.262173,26.772036],[-82.262229,26.772012],[-82.26224,26.77192],[-82.262268,26.771912],[-82.262501,26.772061],[-82.262544,26.772032],[-82.26254,26.772094],[-82.262701,26.772213],[-82.262773,26.772244],[-82.26283,26.772234],[-82.262866,26.772272],[-82.262848,26.772361],[-82.262911,26.772442],[-82.263038,26.772471],[-82.263198,26.772465],[-82.263294,26.772448],[-82.263359,26.772414],[-82.26363,26.772212],[-82.263948,26.771834],[-82.264056,26.771672],[-82.264049,26.771607],[-82.264027,26.771578],[-82.264071,26.771536],[-82.264087,26.77149],[-82.263989,26.771346],[-82.263958,26.771175],[-82.263843,26.770947],[-82.263787,26.770894],[-82.263793,26.770824],[-82.26364,26.770555],[-82.263615,26.770353],[-82.263528,26.770195],[-82.26354,26.770155],[-82.263293,26.769659],[-82.263188,26.769485],[-82.263127,26.769443],[-82.263157,26.769383],[-82.263111,26.769259],[-82.263008,26.769164],[-82.263033,26.76906],[-82.262959,26.768911],[-82.262905,26.768823],[-82.262815,26.768728],[-82.262761,26.768721],[-82.262461,26.768972],[-82.262352,26.769002],[-82.262313,26.769164],[-82.262133,26.769398],[-82.262135,26.76946],[-82.262186,26.769521],[-82.262213,26.769623],[-82.262219,26.769741],[-82.262422,26.769962],[-82.262468,26.770049],[-82.26248,26.77015],[-82.262457,26.770199],[-82.262462,26.770277],[-82.262514,26.770361],[-82.262572,26.770405],[-82.262537,26.77056],[-82.262406,26.770581],[-82.262203,26.770648]]]}},{"type":"Feature","id":"12071:114320050000R00CE","properties":{"id":"12071:114320050000R00CE","parcelId":"114320050000R00CE","countyFips":"12071","countyName":"Lee","state":"Florida","marketIds":["SWFL"],"situsAddress":"1664 16TH ST E","situsCity":"BOCA GRANDE","situsZip":"33921","jurisdictionCode":"Unincorporated Lee","ownerName":"BOCA GRANDE ISLES PROPERTY OWN","ownerName2":null,"propertyName":null,"zoningCode":"RS-1","zoningDistrict":null,"jurisdictionPrefix":null,"dorCode":"09","acreage":12.6816,"centroid":[-82.253092,26.765757],"lastSale":{"date":null,"price":null,"qualified":null},"tax":{"marketValue":0.0,"assessedValue":0.0,"taxableValue":0.0,"taxes":null},"mailingAddress":{"line1":"PO BOX 3085","line2":null,"city":"PLACIDA","state":"FL","zip":"33946"},"incomeTract":null,"incomeBlockGroup":null,"nearestRoad":null,"flu":null,"opportunityZone":null,"oz2Eligibility":null,"source":"fl-lee-parceladdress"},"geometry":{"type":"Polygon","coordinates":[[[-82.251671,26.766216],[-82.251629,26.766226],[-82.251401,26.766206],[-82.2513,26.766233],[-82.251215,26.766334],[-82.251209,26.766411],[-82.251225,26.76646],[-82.251323,26.766548],[-82.25155,26.766579],[-82.251661,26.766644],[-82.251944,26.766988],[-82.25199,26.767163],[-82.252031,26.767228],[-82.252117,26.767277],[-82.252244,26.76727],[-82.252328,26.767201],[-82.252347,26.76715],[-82.252342,26.767068],[-82.252275,26.766982],[-82.252104,26.766895],[-82.251907,26.766653],[-82.251878,26.766577],[-82.251874,26.766495],[-82.251894,26.766416],[-82.251938,26.766348],[-82.252038,26.766277],[-82.252829,26.76602],[-82.253452,26.765755],[-82.254049,26.765436],[-82.25443,26.765194],[-82.254771,26.764948],[-82.255367,26.764445],[-82.255696,26.7641],[-82.255938,26.763756],[-82.256289,26.763078],[-82.256455,26.762902],[-82.256588,26.762811],[-82.256735,26.762744],[-82.256964,26.762692],[-82.258979,26.76252],[-82.260043,26.762477],[-82.260462,26.7624],[-82.260978,26.762247],[-82.261173,26.762139],[-82.261257,26.762061],[-82.261359,26.761923],[-82.261397,26.761831],[-82.261433,26.761659],[-82.261487,26.761591],[-82.26155,26.761572],[-82.262143,26.761518],[-82.262231,26.761494],[-82.262288,26.761455],[-82.262358,26.761383],[-82.262342,26.761242],[-82.262259,26.761142],[-82.261632,26.761203],[-82.26155,26.761176],[-82.261502,26.761105],[-82.261511,26.760978],[-82.261556,26.760816],[-82.261718,26.760449],[-82.261779,26.760257],[-82.261865,26.759798],[-82.261844,26.759579],[-82.261803,26.759448],[-82.261696,26.759228],[-82.261692,26.759052],[-82.261659,26.758981],[-82.261557,26.758913],[-82.261453,26.758907],[-82.261336,26.758968],[-82.261289,26.759067],[-82.261302,26.759155],[-82.261336,26.759208],[-82.261512,26.759322],[-82.261606,26.759461],[-82.261669,26.759646],[-82.261679,26.759841],[-82.261584,26.760284],[-82.261389,26.760751],[-82.26134,26.76091],[-82.261221,26.761761],[-82.261158,26.761902],[-82.261033,26.762029],[-82.260872,26.762107],[-82.260441,26.762234],[-82.260148,26.762295],[-82.259851,26.762329],[-82.259721,26.762305],[-82.259645,26.76226],[-82.259585,26.762197],[-82.259544,26.762119],[-82.259522,26.762009],[-82.259525,26.761897],[-82.259581,26.761727],[-82.259688,26.761584],[-82.259911,26.761411],[-82.26004,26.761263],[-82.260143,26.76106],[-82.260181,26.760888],[-82.260171,26.760653],[-82.26003,26.760204],[-82.259934,26.759438],[-82.259953,26.759326],[-82.260015,26.759198],[-82.260013,26.759118],[-82.259975,26.759048],[-82.259927,26.759009],[-82.25979,26.758978],[-82.259695,26.759011],[-82.259645,26.759055],[-82.25961,26.759129],[-82.259608,26.759184],[-82.259635,26.759257],[-82.259713,26.75935],[-82.259744,26.759419],[-82.259849,26.76024],[-82.259986,26.760701],[-82.259987,26.760906],[-82.25994,26.761081],[-82.259854,26.761227],[-82.259529,26.761505],[-82.2594,26.761702],[-82.25935,26.761877],[-82.259345,26.762001],[-82.259377,26.762188],[-82.259339,26.762291],[-82.25926,26.762333],[-82.25691,26.762531],[-82.25684,26.76252],[-82.256751,26.762463],[-82.256712,26.762404],[-82.256692,26.7623],[-82.256914,26.76153],[-82.25699,26.761095],[-82.25702,26.760602],[-82.256981,26.760055],[-82.25699,26.759944],[-82.257025,26.759827],[-82.25707,26.759754],[-82.257172,26.759674],[-82.257352,26.7596],[-82.257412,26.759489],[-82.257392,26.759383],[-82.257306,26.759304],[-82.257213,26.759281],[-82.257092,26.759313],[-82.257014,26.759402],[-82.256985,26.759521],[-82.256877,26.759699],[-82.256808,26.759898],[-82.256796,26.760072],[-82.256836,26.760579],[-82.256814,26.761028],[-82.256706,26.761606],[-82.256506,26.762287],[-82.256504,26.762378],[-82.256558,26.762547],[-82.256553,26.762609],[-82.25652,26.762662],[-82.256294,26.762817],[-82.256147,26.76297],[-82.256069,26.763089],[-82.255807,26.763625],[-82.255615,26.763917],[-82.255346,26.764224],[-82.25492,26.764614],[-82.254429,26.764992],[-82.253902,26.765327],[-82.253344,26.76562],[-82.252907,26.765809],[-82.252551,26.76594],[-82.251671,26.766216]]]}},{"type":"Feature","id":"12071:11432000000060000","properties":{"id":"12071:11432000000060000","parcelId":"11432000000060000","countyFips":"12071","countyName":"Lee","state":"Florida","marketIds":["SWFL"],"situsAddress":"SUBMERGED","situsCity":null,"situsZip":null,"jurisdictionCode":"Unincorporated Lee","ownerName":"STRICH RONALD","ownerName2":null,"propertyName":null,"zoningCode":"AG-2","zoningDistrict":null,"jurisdictionPrefix":null,"dorCode":"95","acreage":10.12,"centroid":[-82.26198,26.763053],"lastSale":{"date":null,"price":null,"qualified":null},"tax":{"marketValue":506.0,"assessedValue":506.0,"taxableValue":506.0,"taxes":null},"mailingAddress":{"line1":"2860 OLD REAGAN RD","line2":null,"city":"REAGAN","state":"TN","zip":"38368"},"incomeTract":null,"incomeBlockGroup":null,"nearestRoad":null,"flu":null,"opportunityZone":null,"oz2Eligibility":null,"source":"fl-lee-parceladdress"},"geometry":{"type":"Polygon","coordinates":[[[-82.261831,26.762636],[-82.26138,26.762913],[-82.261054,26.763106],[-82.260691,26.763152],[-82.26097,26.764299],[-82.261152,26.764283],[-82.261358,26.764335],[-82.261497,26.764328],[-82.261578,26.764392],[-82.261709,26.764452],[-82.261856,26.764429],[-82.261979,26.764387],[-82.262496,26.764536],[-82.262601,26.764643],[-82.262644,26.76462],[-82.262686,26.764554],[-82.262704,26.764443],[-82.262785,26.764274],[-82.262798,26.764166],[-82.262781,26.763936],[-82.262702,26.76375],[-82.262635,26.763667],[-82.262557,26.763505],[-82.262524,26.763393],[-82.262388,26.763216],[-82.262392,26.762706],[-82.262417,26.762643],[-82.262459,26.762612],[-82.262953,26.762564],[-82.263195,26.762436],[-82.263253,26.76233],[-82.26327,26.761982],[-82.263178,26.761793],[-82.263185,26.761767],[-82.263154,26.761743],[-82.263166,26.761655],[-82.263135,26.76158],[-82.262957,26.761498],[-82.262853,26.761491],[-82.262775,26.761462],[-82.262587,26.761478],[-82.262349,26.762329],[-82.261831,26.762636]]]}},{"type":"Feature","id":"12071:02432000001000000","properties":{"id":"12071:02432000001000000","parcelId":"02432000001000000","countyFips":"12071","countyName":"Lee","state":"Florida","marketIds":["SWFL"],"situsAddress":"RAILROAD R/W","situsCity":"BOCA GRANDE","situsZip":"33921","jurisdictionCode":"Unincorporated Lee","ownerName":"GASPARILLA ISLAND CONSERVATION","ownerName2":null,"propertyName":null,"zoningCode":"AG-2","zoningDistrict":null,"jurisdictionPrefix":null,"dorCode":"70","acreage":8.804,"centroid":[-82.268789,26.786916],"lastSale":{"date":null,"price":3506000.0,"qualified":null},"tax":{"marketValue":8790.0,"assessedValue":2301.0,"taxableValue":0.0,"taxes":null},"mailingAddress":{"line1":"PO BOX 446","line2":null,"city":"BOCA GRANDE","state":"FL","zip":"33921"},"incomeTract":null,"incomeBlockGroup":null,"nearestRoad":null,"flu":null,"opportunityZone":null,"oz2Eligibility":null,"source":"fl-lee-parceladdress"},"geometry":{"type":"Polygon","coordinates":[[[-82.269059,26.787707],[-82.269374,26.788339],[-82.270067,26.789821],[-82.270182,26.789913],[-82.270369,26.78991],[-82.269719,26.788694],[-82.269048,26.787322],[-82.267199,26.783045],[-82.266873,26.782182],[-82.266647,26.781414],[-82.2665,26.780691],[-82.265791,26.775253],[-82.265573,26.775256],[-82.266202,26.780455],[-82.266272,26.780897],[-82.26642,26.78155],[-82.26662,26.78219],[-82.266877,26.782857],[-82.269059,26.787707]]]}},{"type":"Feature","id":"12071:11432000001000000","properties":{"id":"12071:11432000001000000","parcelId":"11432000001000000","countyFips":"12071","countyName":"Lee","state":"Florida","marketIds":["SWFL"],"situsAddress":"RAILROAD R/W","situsCity":"BOCA GRANDE","situsZip":"33921","jurisdictionCode":null,"ownerName":"GASPARILLA ISLAND CONSERVATION","ownerName2":null,"propertyName":null,"zoningCode":"AG-2","zoningDistrict":null,"jurisdictionPrefix":null,"dorCode":"70","acreage":8.613,"centroid":[-82.264557,26.766864],"lastSale":{"date":null,"price":3506000.0,"qualified":null},"tax":{"marketValue":9000.0,"assessedValue":5445.0,"taxableValue":0.0,"taxes":null},"mailingAddress":{"line1":"PO BOX 446","line2":null,"city":"BOCA GRANDE","state":"FL","zip":"33921"},"incomeTract":null,"incomeBlockGroup":null,"nearestRoad":null,"flu":null,"opportunityZone":null,"oz2Eligibility":null,"source":"fl-lee-parceladdress"},"geometry":{"type":"Polygon","coordinates":[[[-82.264148,26.764472],[-82.264258,26.765428],[-82.264471,26.76734],[-82.265027,26.771212],[-82.265541,26.77505],[-82.265762,26.775047],[-82.264699,26.767317],[-82.263977,26.760996],[-82.263961,26.760886],[-82.263727,26.76089],[-82.264148,26.764472]]]}},{"type":"Feature","id":"12071:1243200100000A0CE","properties":{"id":"12071:1243200100000A0CE","parcelId":"1243200100000A0CE","countyFips":"12071","countyName":"Lee","state":"Florida","marketIds":["SWFL"],"situsAddress":"THREE SISTERS C/E","situsCity":"BOCA GRANDE","situsZip":"33921","jurisdictionCode":"Unincorporated Lee","ownerName":"THREE SISTERS HOMEOWNERS ASSN","ownerName2":null,"propertyName":null,"zoningCode":null,"zoningDistrict":null,"jurisdictionPrefix":null,"dorCode":"09","acreage":7.8487,"centroid":[-82.250033,26.765428],"lastSale":{"date":null,"price":null,"qualified":null},"tax":{"marketValue":0.0,"assessedValue":0.0,"taxableValue":0.0,"taxes":null},"mailingAddress":{"line1":"PO BOX 216","line2":null,"city":"BOCA GRANDE","state":"FL","zip":"33921"},"incomeTract":null,"incomeBlockGroup":null,"nearestRoad":null,"flu":null,"opportunityZone":null,"oz2Eligibility":null,"source":"fl-lee-parceladdress"},"geometry":{"type":"Polygon","coordinates":[[[-82.250495,26.764517],[-82.250506,26.76438],[-82.250505,26.764274],[-82.250351,26.764001],[-82.249822,26.764304],[-82.249856,26.764462],[-82.24983,26.764624],[-82.249632,26.764948],[-82.249487,26.765126],[-82.249066,26.765463],[-82.249013,26.765527],[-82.248968,26.765641],[-82.248786,26.766628],[-82.248806,26.766752],[-82.248898,26.766931],[-82.249686,26.766593],[-82.249886,26.765982],[-82.250348,26.766103],[-82.250546,26.765964],[-82.250722,26.765886],[-82.250923,26.765846],[-82.250933,26.765818],[-82.251008,26.765812],[-82.250734,26.765422],[-82.250653,26.765345],[-82.250538,26.765307],[-82.250506,26.765269],[-82.25042,26.765064],[-82.250495,26.764517]]]}},{"type":"Feature","id":"12071:024320020000A00CE","properties":{"id":"12071:024320020000A00CE","parcelId":"024320020000A00CE","countyFips":"12071","countyName":"Lee","state":"Florida","marketIds":["SWFL"],"situsAddress":"EAST SHORE ACRES C/E","situsCity":"BOCA GRANDE","situsZip":"33921","jurisdictionCode":"Unincorporated Lee","ownerName":"SUNSET REALTY CORP","ownerName2":null,"propertyName":null,"zoningCode":"AG-2","zoningDistrict":null,"jurisdictionPrefix":null,"dorCode":"09","acreage":7.677,"centroid":[-82.266432,26.788879],"lastSale":{"date":null,"price":null,"qualified":null},"tax":{"marketValue":0.0,"assessedValue":0.0,"taxableValue":0.0,"taxes":null},"mailingAddress":{"line1":"7181 COLLEGE PKWY #38","line2":null,"city":"FORT MYERS","state":"FL","zip":"33907"},"incomeTract":null,"incomeBlockGroup":null,"nearestRoad":null,"flu":null,"opportunityZone":null,"oz2Eligibility":null,"source":"fl-lee-parceladdress"},"geometry":{"type":"Polygon","coordinates":[[[-82.266209,26.788911],[-82.266242,26.788936],[-82.266304,26.789003],[-82.26626,26.789071],[-82.266302,26.789192],[-82.266498,26.789295],[-82.266474,26.789397],[-82.2665,26.789459],[-82.266778,26.789819],[-82.267723,26.78982],[-82.266969,26.788207],[-82.268801,26.78807],[-82.268867,26.788086],[-82.268996,26.788171],[-82.269231,26.788253],[-82.269358,26.788355],[-82.269422,26.788443],[-82.268834,26.787214],[-82.265828,26.788576],[-82.266026,26.788702],[-82.266148,26.788806],[-82.266209,26.788911]]]}},{"type":"Feature","id":"12071:14432001000330010","properties":{"id":"12071:14432001000330010","parcelId":"14432001000330010","countyFips":"12071","countyName":"Lee","state":"Florida","marketIds":["SWFL"],"situsAddress":"801 GASPARILLA RD","situsCity":"BOCA GRANDE","situsZip":"33921","jurisdictionCode":"Unincorporated Lee","ownerName":"HRS HACIENDA LLC","ownerName2":null,"propertyName":null,"zoningCode":"RS-2","zoningDistrict":null,"jurisdictionPrefix":null,"dorCode":"08","acreage":7.635,"centroid":[-82.264339,26.754487],"lastSale":{"date":null,"price":null,"qualified":null},"tax":{"marketValue":32268414.0,"assessedValue":21003048.0,"taxableValue":21003048.0,"taxes":null},"mailingAddress":{"line1":"PO BOX 3779","line2":null,"city":"WILMINGTON","state":"DE","zip":"19807"},"incomeTract":null,"incomeBlockGroup":null,"nearestRoad":null,"flu":null,"opportunityZone":null,"oz2Eligibility":null,"source":"fl-lee-parceladdress"},"geometry":{"type":"Polygon","coordinates":[[[-82.264969,26.7552],[-82.264969,26.755168],[-82.26492,26.754808],[-82.26486,26.754589],[-82.264836,26.754072],[-82.26478,26.753771],[-82.263835,26.753762],[-82.262727,26.75378],[-82.263154,26.755235],[-82.264969,26.7552]]]}},{"type":"Feature","id":"12071:114320020000C0000","properties":{"id":"12071:114320020000C0000","parcelId":"114320020000C0000","countyFips":"12071","countyName":"Lee","state":"Florida","marketIds":["SWFL"],"situsAddress":"PRESERVATION","situsCity":"BOCA GRANDE","situsZip":null,"jurisdictionCode":"Unincorporated Lee","ownerName":"GASPARILLA ISLAND CONSERVATION","ownerName2":null,"propertyName":null,"zoningCode":"AG-2","zoningDistrict":null,"jurisdictionPrefix":null,"dorCode":"70","acreage":6.2899,"centroid":[-82.261617,26.764682],"lastSale":{"date":null,"price":975000.0,"qualified":null},"tax":{"marketValue":6270.0,"assessedValue":6270.0,"taxableValue":0.0,"taxes":null},"mailingAddress":{"line1":"PO BOX 446","line2":null,"city":"BOCA GRANDE","state":"FL","zip":"33921"},"incomeTract":null,"incomeBlockGroup":null,"nearestRoad":null,"flu":null,"opportunityZone":null,"oz2Eligibility":null,"source":"fl-lee-parceladdress"},"geometry":{"type":"Polygon","coordinates":[[[-82.261868,26.765673],[-82.263263,26.765532],[-82.263146,26.764582],[-82.262601,26.764643],[-82.262496,26.764536],[-82.261979,26.764387],[-82.261856,26.764429],[-82.261709,26.764452],[-82.261578,26.764392],[-82.261497,26.764328],[-82.261358,26.764335],[-82.261152,26.764283],[-82.261015,26.764283],[-82.260887,26.764326],[-82.26081,26.764436],[-82.260774,26.764526],[-82.260777,26.764611],[-82.260847,26.764776],[-82.261017,26.764948],[-82.261558,26.765315],[-82.261763,26.765519],[-82.261868,26.765673]]]}},{"type":"Feature","id":"12071:1243200000002004A","properties":{"id":"12071:1243200000002004A","parcelId":"1243200000002004A","countyFips":"12071","countyName":"Lee","state":"Florida","marketIds":["SWFL"],"situsAddress":"SUBMERGED","situsCity":"BOCA GRANDE","situsZip":null,"jurisdictionCode":"Unincorporated Lee","ownerName":"STRICH RONALD F","ownerName2":null,"propertyName":null,"zoningCode":"AG-2","zoningDistrict":null,"jurisdictionPrefix":null,"dorCode":"95","acreage":5.42,"centroid":[-82.252948,26.769887],"lastSale":{"date":null,"price":null,"qualified":null},"tax":{"marketValue":271.0,"assessedValue":271.0,"taxableValue":271.0,"taxes":null},"mailingAddress":{"line1":"2860 OLD REAGAN RD","line2":null,"city":"REAGAN","state":"TN","zip":"38368"},"incomeTract":null,"incomeBlockGroup":null,"nearestRoad":null,"flu":null,"opportunityZone":null,"oz2Eligibility":null,"source":"fl-lee-parceladdress"},"geometry":{"type":"Polygon","coordinates":[[[-82.253129,26.770752],[-82.254737,26.770734],[-82.253224,26.76964],[-82.252217,26.768034],[-82.252162,26.769461],[-82.252494,26.769583],[-82.252712,26.769753],[-82.252852,26.770023],[-82.252902,26.77008],[-82.25293,26.770286],[-82.25307,26.770406],[-82.253129,26.770752]]]}},{"type":"Feature","id":"12071:02432000000010000","properties":{"id":"12071:02432000000010000","parcelId":"02432000000010000","countyFips":"12071","countyName":"Lee","state":"Florida","marketIds":["SWFL"],"situsAddress":"ISLAND","situsCity":"BOCA GRANDE","situsZip":"33921","jurisdictionCode":"Unincorporated Lee","ownerName":"TIITF STATE OF FLORIDA","ownerName2":null,"propertyName":null,"zoningCode":"AG-2","zoningDistrict":null,"jurisdictionPrefix":null,"dorCode":"82","acreage":5.309,"centroid":[-82.263696,26.781003],"lastSale":{"date":null,"price":null,"qualified":null},"tax":{"marketValue":5110.0,"assessedValue":0.0,"taxableValue":0.0,"taxes":null},"mailingAddress":{"line1":"3900 COMMONWEALTH BLVD","line2":"MAIL STATION 115","city":"TALLAHASSEE","state":"FL","zip":"32399"},"incomeTract":null,"incomeBlockGroup":null,"nearestRoad":null,"flu":null,"opportunityZone":null,"oz2Eligibility":null,"source":"fl-lee-parceladdress"},"geometry":{"type":"Polygon","coordinates":[[[-82.26386,26.781204],[-82.263835,26.781177],[-82.26374,26.781147],[-82.263712,26.780965],[-82.263551,26.780816],[-82.263523,26.780773],[-82.26353,26.780679],[-82.263494,26.780603],[-82.26344,26.780551],[-82.263336,26.780497],[-82.263258,26.780532],[-82.263162,26.780512],[-82.263137,26.780465],[-82.262984,26.780367],[-82.262982,26.780305],[-82.262921,26.780169],[-82.2628,26.780014],[-82.262808,26.779854],[-82.262682,26.779638],[-82.262726,26.779506],[-82.262829,26.779393],[-82.262936,26.779309],[-82.262958,26.779243],[-82.263318,26.779015],[-82.263446,26.778787],[-82.263576,26.778706],[-82.263571,26.778669],[-82.263528,26.778625],[-82.263482,26.77861],[-82.263395,26.77864],[-82.263362,26.778631],[-82.263068,26.778778],[-82.262949,26.77897],[-82.26293,26.778981],[-82.262887,26.778951],[-82.262838,26.778967],[-82.262796,26.779027],[-82.262669,26.779078],[-82.262594,26.779191],[-82.262552,26.779303],[-82.262442,26.779372],[-82.262411,26.779438],[-82.262409,26.779612],[-82.26247,26.779836],[-82.262361,26.779942],[-82.262358,26.780073],[-82.262307,26.780118],[-82.262286,26.780172],[-82.262288,26.780278],[-82.262363,26.780573],[-82.262402,26.780631],[-82.262441,26.780741],[-82.262428,26.780784],[-82.262454,26.780821],[-82.262647,26.780915],[-82.262762,26.781035],[-82.262987,26.781367],[-82.263078,26.781428],[-82.263123,26.781515],[-82.263174,26.781564],[-82.263232,26.781586],[-82.26323,26.781636],[-82.263276,26.781667],[-82.263331,26.781777],[-82.263428,26.781798],[-82.26354,26.781787],[-82.263777,26.781591],[-82.263817,26.78154],[-82.263813,26.78133],[-82.26386,26.781204]]]}}]}