{"type":"FeatureCollection","name":"12119-3_5","features":[{"type":"Feature","id":"12119:W08-001","properties":{"id":"12119:W08-001","parcelId":"W08-001","countyFips":"12119","countyName":"Sumter","state":"Florida","marketIds":["Tampa"],"situsAddress":null,"situsCity":null,"situsZip":null,"jurisdictionCode":null,"ownerName":"SOUTHWEST FLORIDA WATER MANAGE","ownerName2":null,"propertyName":null,"zoningCode":null,"zoningDistrict":null,"jurisdictionPrefix":null,"dorCode":"87","acreage":130.1399,"centroid":[-82.03648,28.326302],"lastSale":{"date":null,"price":null,"qualified":null},"tax":{"marketValue":null,"assessedValue":null,"taxableValue":null,"taxes":null},"mailingAddress":{"line1":null,"line2":null,"city":null,"state":null,"zip":null},"incomeTract":null,"incomeBlockGroup":null,"nearestRoad":null,"flu":null,"opportunityZone":null,"oz2Eligibility":null,"source":"fl-sumter-bocc-parcels-12119"},"geometry":{"type":"Polygon","coordinates":[[[-82.030065,28.331908],[-82.039583,28.332046],[-82.039693,28.321904],[-82.039682,28.321415],[-82.03796,28.322077],[-82.036745,28.324804],[-82.035586,28.327754],[-82.032525,28.32851],[-82.030065,28.331908]]]}},{"type":"Feature","id":"12119:W06-002","properties":{"id":"12119:W06-002","parcelId":"W06-002","countyFips":"12119","countyName":"Sumter","state":"Florida","marketIds":["Tampa"],"situsAddress":null,"situsCity":null,"situsZip":null,"jurisdictionCode":null,"ownerName":"SOUTHWEST FLORIDA WATER MANAGE","ownerName2":null,"propertyName":null,"zoningCode":null,"zoningDistrict":null,"jurisdictionPrefix":null,"dorCode":"87","acreage":106.182,"centroid":[-82.042848,28.338319],"lastSale":{"date":null,"price":null,"qualified":null},"tax":{"marketValue":null,"assessedValue":null,"taxableValue":null,"taxes":null},"mailingAddress":{"line1":null,"line2":null,"city":null,"state":null,"zip":null},"incomeTract":null,"incomeBlockGroup":null,"nearestRoad":null,"flu":null,"opportunityZone":null,"oz2Eligibility":null,"source":"fl-sumter-bocc-parcels-12119"},"geometry":{"type":"Polygon","coordinates":[[[-82.039525,28.335558],[-82.041245,28.335581],[-82.042253,28.336226],[-82.042229,28.337601],[-82.04022,28.339324],[-82.041302,28.340311],[-82.040298,28.341173],[-82.040283,28.341998],[-82.042261,28.342025],[-82.04356,28.34321],[-82.046047,28.343244],[-82.047878,28.340886],[-82.044041,28.340833],[-82.044092,28.337903],[-82.0472,28.337945],[-82.046615,28.336524],[-82.043507,28.336481],[-82.042376,28.33545],[-82.042435,28.332066],[-82.039583,28.332046],[-82.039525,28.335558]]]}},{"type":"Feature","id":"12119:W08-004","properties":{"id":"12119:W08-004","parcelId":"W08-004","countyFips":"12119","countyName":"Sumter","state":"Florida","marketIds":["Tampa"],"situsAddress":null,"situsCity":null,"situsZip":null,"jurisdictionCode":null,"ownerName":"SWFWMD","ownerName2":null,"propertyName":null,"zoningCode":null,"zoningDistrict":null,"jurisdictionPrefix":null,"dorCode":"87","acreage":86.5375,"centroid":[-82.03111,28.328539],"lastSale":{"date":null,"price":null,"qualified":null},"tax":{"marketValue":null,"assessedValue":null,"taxableValue":null,"taxes":null},"mailingAddress":{"line1":null,"line2":null,"city":null,"state":null,"zip":null},"incomeTract":null,"incomeBlockGroup":null,"nearestRoad":null,"flu":null,"opportunityZone":null,"oz2Eligibility":null,"source":"fl-sumter-bocc-parcels-12119"},"geometry":{"type":"Polygon","coordinates":[[[-82.023055,28.331806],[-82.030065,28.331908],[-82.032525,28.32851],[-82.035586,28.327754],[-82.036745,28.324804],[-82.036714,28.324875],[-82.023077,28.330114],[-82.023055,28.331806]]]}},{"type":"Feature","id":"12119:W07-004","properties":{"id":"12119:W07-004","parcelId":"W07-004","countyFips":"12119","countyName":"Sumter","state":"Florida","marketIds":["Tampa"],"situsAddress":null,"situsCity":null,"situsZip":null,"jurisdictionCode":null,"ownerName":"SOUTHWEST FLORIDA WATER MANAGE","ownerName2":null,"propertyName":null,"zoningCode":null,"zoningDistrict":null,"jurisdictionPrefix":null,"dorCode":"87","acreage":50.5912,"centroid":[-82.041059,28.326069],"lastSale":{"date":null,"price":null,"qualified":null},"tax":{"marketValue":null,"assessedValue":null,"taxableValue":null,"taxes":null},"mailingAddress":{"line1":null,"line2":null,"city":null,"state":null,"zip":null},"incomeTract":null,"incomeBlockGroup":null,"nearestRoad":null,"flu":null,"opportunityZone":null,"oz2Eligibility":null,"source":"fl-sumter-bocc-parcels-12119"},"geometry":{"type":"Polygon","coordinates":[[[-82.039583,28.332046],[-82.042414,28.332066],[-82.042492,28.332067],[-82.041497,28.327289],[-82.041334,28.326139],[-82.041862,28.326146],[-82.041833,28.325941],[-82.041305,28.325934],[-82.040969,28.323567],[-82.041008,28.323128],[-82.04009,28.321258],[-82.039682,28.321415],[-82.039693,28.321904],[-82.039583,28.332046]]]}},{"type":"Feature","id":"12119:W18-001","properties":{"id":"12119:W18-001","parcelId":"W18-001","countyFips":"12119","countyName":"Sumter","state":"Florida","marketIds":["Tampa"],"situsAddress":null,"situsCity":null,"situsZip":null,"jurisdictionCode":null,"ownerName":"SWFWMD","ownerName2":null,"propertyName":null,"zoningCode":null,"zoningDistrict":null,"jurisdictionPrefix":null,"dorCode":"87","acreage":9.7591,"centroid":[-82.053431,28.317055],"lastSale":{"date":null,"price":null,"qualified":null},"tax":{"marketValue":null,"assessedValue":null,"taxableValue":null,"taxes":null},"mailingAddress":{"line1":null,"line2":null,"city":null,"state":null,"zip":null},"incomeTract":null,"incomeBlockGroup":null,"nearestRoad":null,"flu":null,"opportunityZone":null,"oz2Eligibility":null,"source":"fl-sumter-bocc-parcels-12119"},"geometry":{"type":"Polygon","coordinates":[[[-82.051695,28.317561],[-82.055167,28.317588],[-82.055166,28.315983],[-82.051697,28.317088],[-82.051695,28.317561]]]}}]}