{"type":"FeatureCollection","name":"47141--11_37","features":[{"type":"Feature","id":"47141:071009    02600","properties":{"id":"47141:071009    02600","parcelId":"071009    02600","countyFips":"47141","countyName":"Putnam","state":"Tennessee","marketIds":["Nashville"],"situsAddress":"W WHITEHALL RD 1303","situsCity":null,"situsZip":null,"jurisdictionCode":null,"ownerName":"WILSON VICKIE RENAY REVOCABLE TRUST","ownerName2":null,"propertyName":null,"zoningCode":null,"zoningDistrict":null,"jurisdictionPrefix":null,"dorCode":null,"acreage":134.2941,"centroid":[-85.503285,36.257691],"lastSale":{"date":"2007-03-02","price":null,"qualified":null,"vintage":"2023"},"tax":{"marketValue":209600.0,"assessedValue":null,"taxableValue":null,"taxes":null,"vintage":"2023"},"mailingAddress":{"line1":null,"line2":null,"city":null,"state":null,"zip":null},"incomeTract":null,"incomeBlockGroup":null,"nearestRoad":null,"flu":null,"opportunityZone":null,"oz2Eligibility":null,"source":"tn-oir-public-use-47141","appraiserUrl":"https://assessment.cot.tn.gov/TPAD/Parcel/GIS?gislink=071009%20%20%20%2002600"},"geometry":{"type":"Polygon","coordinates":[[[-85.498246,36.260641],[-85.498299,36.260653],[-85.498475,36.260729],[-85.498613,36.260774],[-85.498975,36.260854],[-85.4992,36.260909],[-85.499307,36.260925],[-85.499385,36.260932],[-85.499509,36.260933],[-85.499592,36.260923],[-85.499782,36.260891],[-85.499926,36.260873],[-85.500072,36.260864],[-85.500309,36.260856],[-85.50042,36.260846],[-85.500519,36.26083],[-85.500662,36.260792],[-85.500855,36.260721],[-85.500953,36.260673],[-85.501293,36.260498],[-85.501466,36.260421],[-85.501638,36.260352],[-85.501936,36.260224],[-85.502071,36.260157],[-85.502215,36.260076],[-85.502406,36.259979],[-85.502829,36.259797],[-85.502828,36.259704],[-85.502815,36.259639],[-85.502786,36.259543],[-85.502742,36.259448],[-85.502718,36.259361],[-85.502706,36.259082],[-85.502703,36.259059],[-85.502679,36.258993],[-85.502623,36.258903],[-85.502613,36.258892],[-85.502599,36.258885],[-85.502513,36.258876],[-85.502393,36.258873],[-85.502372,36.258865],[-85.502354,36.258849],[-85.502332,36.25882],[-85.502315,36.258786],[-85.502288,36.258715],[-85.502231,36.258451],[-85.502233,36.258427],[-85.502238,36.258418],[-85.5023,36.258366],[-85.502311,36.258347],[-85.502313,36.258328],[-85.502306,36.258311],[-85.502291,36.258299],[-85.502247,36.258292],[-85.502152,36.258289],[-85.502089,36.258292],[-85.502035,36.258287],[-85.502008,36.258272],[-85.501972,36.25823],[-85.501967,36.258197],[-85.508056,36.258413],[-85.508737,36.257408],[-85.510977,36.25779],[-85.511267,36.256716],[-85.511619,36.256065],[-85.512127,36.255326],[-85.512443,36.254556],[-85.512654,36.25452],[-85.512892,36.25455],[-85.513115,36.254619],[-85.51339,36.25365],[-85.512762,36.25391],[-85.513078,36.252727],[-85.51287,36.252828],[-85.511441,36.253476],[-85.51135,36.253515],[-85.511086,36.253619],[-85.510815,36.253718],[-85.510443,36.253841],[-85.510252,36.253896],[-85.51011,36.253926],[-85.509954,36.253949],[-85.509816,36.253959],[-85.509625,36.253964],[-85.509376,36.253961],[-85.50785,36.253898],[-85.507688,36.253903],[-85.507531,36.253923],[-85.506863,36.254074],[-85.506432,36.254178],[-85.50593,36.254307],[-85.505463,36.254436],[-85.505039,36.254562],[-85.50464,36.25469],[-85.504307,36.254803],[-85.50363,36.255041],[-85.503495,36.2551],[-85.503361,36.255174],[-85.503243,36.255257],[-85.503131,36.255352],[-85.503109,36.255375],[-85.503156,36.255454],[-85.502911,36.255735],[-85.502765,36.255869],[-85.501298,36.256811],[-85.501552,36.256953],[-85.501407,36.257251],[-85.501233,36.257218],[-85.500777,36.25702],[-85.500687,36.25706],[-85.500593,36.257091],[-85.500498,36.257113],[-85.500392,36.257126],[-85.498396,36.257209],[-85.497936,36.257232],[-85.496929,36.257311],[-85.496325,36.257355],[-85.496305,36.257674],[-85.497951,36.257801],[-85.497318,36.259034],[-85.497684,36.259278],[-85.497477,36.259801],[-85.497599,36.259903],[-85.49772,36.260012],[-85.497834,36.260125],[-85.49792,36.260222],[-85.497997,36.260323],[-85.498066,36.260428],[-85.498125,36.260537],[-85.498173,36.260642],[-85.498246,36.260641]]]}},{"type":"Feature","id":"47141:071005    03200","properties":{"id":"47141:071005    03200","parcelId":"071005    03200","countyFips":"47141","countyName":"Putnam","state":"Tennessee","marketIds":["Nashville"],"situsAddress":"HORNER RD 821","situsCity":null,"situsZip":null,"jurisdictionCode":null,"ownerName":"HORNER JAMES O","ownerName2":null,"propertyName":null,"zoningCode":null,"zoningDistrict":null,"jurisdictionPrefix":null,"dorCode":null,"acreage":116.0574,"centroid":[-85.503533,36.259628],"lastSale":{"date":"2005-07-30","price":20778.0,"qualified":null,"vintage":"2023"},"tax":{"marketValue":239500.0,"assessedValue":null,"taxableValue":null,"taxes":null,"vintage":"2023"},"mailingAddress":{"line1":null,"line2":null,"city":null,"state":null,"zip":null},"incomeTract":null,"incomeBlockGroup":null,"nearestRoad":null,"flu":null,"opportunityZone":null,"oz2Eligibility":null,"source":"tn-oir-public-use-47141","appraiserUrl":"https://assessment.cot.tn.gov/TPAD/Parcel/GIS?gislink=071005%20%20%20%2003200"},"geometry":{"type":"Polygon","coordinates":[[[-85.502315,36.26346],[-85.506037,36.263536],[-85.506056,36.263275],[-85.50946,36.263317],[-85.509496,36.263184],[-85.511562,36.263288],[-85.512265,36.25801],[-85.508737,36.257408],[-85.508056,36.258413],[-85.501967,36.258197],[-85.501972,36.25823],[-85.502008,36.258272],[-85.502035,36.258287],[-85.502089,36.258292],[-85.502152,36.258289],[-85.502247,36.258292],[-85.502291,36.258299],[-85.502306,36.258311],[-85.502313,36.258328],[-85.502311,36.258347],[-85.5023,36.258366],[-85.502238,36.258418],[-85.502233,36.258427],[-85.502231,36.258451],[-85.502288,36.258715],[-85.502315,36.258786],[-85.502332,36.25882],[-85.502354,36.258849],[-85.502372,36.258865],[-85.502393,36.258873],[-85.502513,36.258876],[-85.502599,36.258885],[-85.502613,36.258892],[-85.502679,36.258993],[-85.502703,36.259059],[-85.502718,36.259361],[-85.502742,36.259448],[-85.502786,36.259543],[-85.502815,36.259639],[-85.502828,36.259704],[-85.502829,36.259797],[-85.502888,36.259771],[-85.502933,36.259839],[-85.50283,36.259883],[-85.502796,36.260028],[-85.502756,36.260148],[-85.50275,36.260216],[-85.502762,36.260621],[-85.502771,36.260684],[-85.502786,36.260731],[-85.504559,36.260746],[-85.504306,36.261911],[-85.502543,36.261896],[-85.502315,36.26346]]]}},{"type":"Feature","id":"47141:071009    02400","properties":{"id":"47141:071009    02400","parcelId":"071009    02400","countyFips":"47141","countyName":"Putnam","state":"Tennessee","marketIds":["Nashville"],"situsAddress":"DODSON BRANCH RD 6487","situsCity":null,"situsZip":null,"jurisdictionCode":null,"ownerName":"LOFTIS DON","ownerName2":null,"propertyName":null,"zoningCode":null,"zoningDistrict":null,"jurisdictionPrefix":null,"dorCode":null,"acreage":88.6021,"centroid":[-85.516323,36.250447],"lastSale":{"date":"1969-03-14","price":null,"qualified":null,"vintage":"2023"},"tax":{"marketValue":204600.0,"assessedValue":null,"taxableValue":null,"taxes":null,"vintage":"2023"},"mailingAddress":{"line1":null,"line2":null,"city":null,"state":null,"zip":null},"incomeTract":null,"incomeBlockGroup":null,"nearestRoad":null,"flu":null,"opportunityZone":null,"oz2Eligibility":null,"source":"tn-oir-public-use-47141","appraiserUrl":"https://assessment.cot.tn.gov/TPAD/Parcel/GIS?gislink=071009%20%20%20%2002400"},"geometry":{"type":"Polygon","coordinates":[[[-85.508776,36.250198],[-85.514262,36.25065],[-85.513894,36.252258],[-85.514012,36.252216],[-85.514,36.25219],[-85.514213,36.25213],[-85.514434,36.252084],[-85.514642,36.252055],[-85.515168,36.252009],[-85.515375,36.251986],[-85.515608,36.251955],[-85.516547,36.251808],[-85.516897,36.251747],[-85.517292,36.251674],[-85.517634,36.251606],[-85.517816,36.251562],[-85.518004,36.251507],[-85.518284,36.251412],[-85.518302,36.251402],[-85.518318,36.251387],[-85.518331,36.251355],[-85.518314,36.251222],[-85.518313,36.251113],[-85.518417,36.249638],[-85.51847,36.248756],[-85.518492,36.248298],[-85.518496,36.24803],[-85.51849,36.247764],[-85.518436,36.246816],[-85.518421,36.246368],[-85.516222,36.246336],[-85.516074,36.248294],[-85.508698,36.246912],[-85.508776,36.250198]]]}},{"type":"Feature","id":"47141:071005    01605","properties":{"id":"47141:071005    01605","parcelId":"071005    01605","countyFips":"47141","countyName":"Putnam","state":"Tennessee","marketIds":["Nashville"],"situsAddress":"SMITH CHAPEL RD 7690","situsCity":null,"situsZip":null,"jurisdictionCode":null,"ownerName":"LANGFORD CHRISTOPHER W","ownerName2":"ETUX KRISTI MAYBERRY","propertyName":null,"zoningCode":null,"zoningDistrict":null,"jurisdictionPrefix":null,"dorCode":null,"acreage":51.7232,"centroid":[-85.505848,36.274365],"lastSale":{"date":"2017-12-29","price":null,"qualified":null,"vintage":"2023"},"tax":{"marketValue":400600.0,"assessedValue":null,"taxableValue":null,"taxes":null,"vintage":"2023"},"mailingAddress":{"line1":null,"line2":null,"city":null,"state":null,"zip":null},"incomeTract":null,"incomeBlockGroup":null,"nearestRoad":null,"flu":null,"opportunityZone":null,"oz2Eligibility":null,"source":"tn-oir-public-use-47141","appraiserUrl":"https://assessment.cot.tn.gov/TPAD/Parcel/GIS?gislink=071005%20%20%20%2001605"},"geometry":{"type":"Polygon","coordinates":[[[-85.503684,36.275406],[-85.503815,36.275637],[-85.50351,36.27604],[-85.502878,36.276989],[-85.505121,36.277716],[-85.507022,36.277028],[-85.508322,36.276986],[-85.508947,36.272274],[-85.507943,36.271597],[-85.506289,36.274051],[-85.506276,36.274171],[-85.505943,36.273906],[-85.505835,36.273787],[-85.505935,36.272981],[-85.505872,36.272395],[-85.505732,36.272301],[-85.505365,36.272246],[-85.505004,36.271994],[-85.504297,36.271447],[-85.504065,36.27131],[-85.503606,36.271109],[-85.50341,36.271013],[-85.503368,36.271073],[-85.503574,36.271174],[-85.504031,36.271373],[-85.504253,36.271505],[-85.504957,36.27205],[-85.505337,36.272315],[-85.505705,36.27237],[-85.505801,36.272434],[-85.505861,36.272986],[-85.505758,36.273811],[-85.505889,36.273957],[-85.506276,36.274264],[-85.506272,36.274298],[-85.502749,36.273757],[-85.503684,36.275406]]]}},{"type":"Feature","id":"47141:071009    02601","properties":{"id":"47141:071009    02601","parcelId":"071009    02601","countyFips":"47141","countyName":"Putnam","state":"Tennessee","marketIds":["Nashville"],"situsAddress":"WHITEHALL RD","situsCity":null,"situsZip":null,"jurisdictionCode":null,"ownerName":"BARRETT BRIDGETT ANN","ownerName2":"ETVIR TIMOTHY G BARRETT","propertyName":null,"zoningCode":null,"zoningDistrict":null,"jurisdictionPrefix":null,"dorCode":null,"acreage":47.5638,"centroid":[-85.510219,36.253281],"lastSale":{"date":"2021-07-15","price":null,"qualified":null,"vintage":"2023"},"tax":{"marketValue":76500.0,"assessedValue":null,"taxableValue":null,"taxes":null,"vintage":"2023"},"mailingAddress":{"line1":null,"line2":null,"city":null,"state":null,"zip":null},"incomeTract":null,"incomeBlockGroup":null,"nearestRoad":null,"flu":null,"opportunityZone":null,"oz2Eligibility":null,"source":"tn-oir-public-use-47141","appraiserUrl":"https://assessment.cot.tn.gov/TPAD/Parcel/GIS?gislink=071009%20%20%20%2002601"},"geometry":{"type":"Polygon","coordinates":[[[-85.508776,36.250198],[-85.50633,36.254117],[-85.506729,36.25402],[-85.507432,36.253858],[-85.50755,36.253836],[-85.507677,36.253821],[-85.507775,36.253816],[-85.507881,36.253817],[-85.509381,36.253878],[-85.509581,36.253882],[-85.509781,36.253878],[-85.509923,36.253869],[-85.510076,36.253848],[-85.510223,36.253817],[-85.510323,36.25379],[-85.510463,36.253746],[-85.510819,36.253627],[-85.511099,36.253523],[-85.511376,36.253411],[-85.511883,36.253191],[-85.512402,36.252954],[-85.51285,36.252741],[-85.513518,36.252414],[-85.513695,36.252337],[-85.513894,36.252258],[-85.514262,36.25065],[-85.508776,36.250198]]]}},{"type":"Feature","id":"47141:071005    00100","properties":{"id":"47141:071005    00100","parcelId":"071005    00100","countyFips":"47141","countyName":"Putnam","state":"Tennessee","marketIds":["Nashville"],"situsAddress":"SMITH CHAPEL RD 8236","situsCity":null,"situsZip":null,"jurisdictionCode":null,"ownerName":"WRIGHT KIM MCGEE","ownerName2":"AND JANET L MCGEE","propertyName":null,"zoningCode":null,"zoningDistrict":null,"jurisdictionPrefix":null,"dorCode":null,"acreage":42.7177,"centroid":[-85.502565,36.278464],"lastSale":{"date":"2010-06-10","price":null,"qualified":null,"vintage":"2023"},"tax":{"marketValue":275600.0,"assessedValue":null,"taxableValue":null,"taxes":null,"vintage":"2023"},"mailingAddress":{"line1":null,"line2":null,"city":null,"state":null,"zip":null},"incomeTract":null,"incomeBlockGroup":null,"nearestRoad":null,"flu":null,"opportunityZone":null,"oz2Eligibility":null,"source":"tn-oir-public-use-47141","appraiserUrl":"https://assessment.cot.tn.gov/TPAD/Parcel/GIS?gislink=071005%20%20%20%2000100"},"geometry":{"type":"MultiPolygon","coordinates":[[[[-85.50259,36.279819],[-85.502627,36.279604],[-85.503923,36.279671],[-85.504394,36.279375],[-85.505594,36.279429],[-85.506013,36.279613],[-85.506589,36.279394],[-85.508002,36.279398],[-85.508322,36.276986],[-85.507022,36.277028],[-85.505121,36.277716],[-85.503714,36.27726],[-85.503145,36.277535],[-85.502293,36.277795],[-85.501387,36.277532],[-85.501256,36.277438],[-85.501251,36.277525],[-85.501238,36.27761],[-85.501219,36.277694],[-85.501192,36.277782],[-85.501168,36.277839],[-85.50114,36.277891],[-85.501041,36.278033],[-85.500823,36.278317],[-85.500588,36.278596],[-85.500434,36.278765],[-85.500302,36.278901],[-85.500164,36.279033],[-85.5,36.279177],[-85.499932,36.279245],[-85.499835,36.279364],[-85.499755,36.279491],[-85.50259,36.279819]]],[[[-85.500872,36.277307],[-85.500881,36.277533],[-85.500872,36.277598],[-85.500862,36.27763],[-85.500841,36.277674],[-85.500732,36.277842],[-85.500693,36.277889],[-85.500635,36.277934],[-85.500472,36.27805],[-85.50032,36.2782],[-85.500147,36.278339],[-85.500107,36.278366],[-85.499909,36.278495],[-85.499736,36.278577],[-85.499596,36.278655],[-85.49948,36.278705],[-85.499456,36.278723],[-85.49937,36.278771],[-85.499275,36.278834],[-85.499103,36.278977],[-85.498944,36.279078],[-85.498809,36.279186],[-85.498724,36.279239],[-85.498575,36.279305],[-85.498516,36.279348],[-85.499651,36.279479],[-85.49969,36.279409],[-85.499735,36.279339],[-85.499788,36.279269],[-85.499842,36.279206],[-85.499922,36.279125],[-85.500101,36.278966],[-85.500244,36.278829],[-85.500398,36.278667],[-85.500572,36.278471],[-85.500704,36.278314],[-85.500841,36.278141],[-85.500982,36.277951],[-85.501054,36.277845],[-85.501097,36.277749],[-85.501134,36.277615],[-85.501152,36.277486],[-85.501154,36.277363],[-85.500873,36.277159],[-85.500872,36.277307]]]]}},{"type":"Feature","id":"47141:071005    01601","properties":{"id":"47141:071005    01601","parcelId":"071005    01601","countyFips":"47141","countyName":"Putnam","state":"Tennessee","marketIds":["Nashville"],"situsAddress":"SMITH CHAPEL RD 7626","situsCity":null,"situsZip":null,"jurisdictionCode":null,"ownerName":"LANGFORD LINDA SMITH","ownerName2":null,"propertyName":null,"zoningCode":null,"zoningDistrict":null,"jurisdictionPrefix":null,"dorCode":null,"acreage":38.5182,"centroid":[-85.505154,36.271753],"lastSale":{"date":"1993-07-15","price":null,"qualified":null,"vintage":"2023"},"tax":{"marketValue":211600.0,"assessedValue":null,"taxableValue":null,"taxes":null,"vintage":"2023"},"mailingAddress":{"line1":null,"line2":null,"city":null,"state":null,"zip":null},"incomeTract":null,"incomeBlockGroup":null,"nearestRoad":null,"flu":null,"opportunityZone":null,"oz2Eligibility":null,"source":"tn-oir-public-use-47141","appraiserUrl":"https://assessment.cot.tn.gov/TPAD/Parcel/GIS?gislink=071005%20%20%20%2001601"},"geometry":{"type":"MultiPolygon","coordinates":[[[[-85.504277,36.269658],[-85.504219,36.269778],[-85.504152,36.269891],[-85.503559,36.270793],[-85.50341,36.271013],[-85.503606,36.271109],[-85.504065,36.27131],[-85.504297,36.271447],[-85.505004,36.271994],[-85.505365,36.272246],[-85.505732,36.272301],[-85.505872,36.272395],[-85.505935,36.272981],[-85.505835,36.273787],[-85.505943,36.273906],[-85.506276,36.274171],[-85.506289,36.274051],[-85.507943,36.271597],[-85.507022,36.270976],[-85.50428,36.269653],[-85.504277,36.269658]]],[[[-85.503363,36.271079],[-85.503155,36.271362],[-85.502895,36.271693],[-85.502825,36.271793],[-85.502757,36.271899],[-85.50267,36.272054],[-85.502445,36.272503],[-85.50235,36.272702],[-85.502263,36.2729],[-85.502749,36.273757],[-85.506272,36.274298],[-85.506276,36.274264],[-85.505889,36.273957],[-85.505758,36.273811],[-85.505861,36.272986],[-85.505801,36.272434],[-85.505705,36.27237],[-85.505337,36.272315],[-85.504957,36.27205],[-85.504253,36.271505],[-85.504031,36.271373],[-85.503574,36.271174],[-85.503368,36.271073],[-85.503363,36.271079]]]]}},{"type":"Feature","id":"47141:071009    01802","properties":{"id":"47141:071009    01802","parcelId":"071009    01802","countyFips":"47141","countyName":"Putnam","state":"Tennessee","marketIds":["Nashville"],"situsAddress":"GARRISON RD 1855","situsCity":null,"situsZip":null,"jurisdictionCode":null,"ownerName":"GAW MICHAEL B","ownerName2":"ETUX ANNA LOUISE","propertyName":null,"zoningCode":null,"zoningDistrict":null,"jurisdictionPrefix":null,"dorCode":null,"acreage":35.5884,"centroid":[-85.521861,36.250556],"lastSale":{"date":"2012-11-29","price":null,"qualified":null,"vintage":"2023"},"tax":{"marketValue":310100.0,"assessedValue":null,"taxableValue":null,"taxes":null,"vintage":"2023"},"mailingAddress":{"line1":null,"line2":null,"city":null,"state":null,"zip":null},"incomeTract":null,"incomeBlockGroup":null,"nearestRoad":null,"flu":null,"opportunityZone":null,"oz2Eligibility":null,"source":"tn-oir-public-use-47141","appraiserUrl":"https://assessment.cot.tn.gov/TPAD/Parcel/GIS?gislink=071009%20%20%20%2001802"},"geometry":{"type":"Polygon","coordinates":[[[-85.522044,36.253725],[-85.522865,36.253555],[-85.522157,36.25135],[-85.523036,36.251139],[-85.524495,36.251134],[-85.524685,36.251124],[-85.524848,36.251214],[-85.525388,36.249844],[-85.524595,36.249227],[-85.523807,36.24865],[-85.523627,36.248506],[-85.523451,36.248356],[-85.522712,36.248929],[-85.522524,36.249067],[-85.522057,36.249399],[-85.521656,36.249696],[-85.521596,36.249736],[-85.521532,36.249773],[-85.521404,36.249833],[-85.521314,36.249865],[-85.52123,36.249889],[-85.521135,36.249908],[-85.521038,36.249921],[-85.519574,36.250028],[-85.519258,36.250045],[-85.519234,36.250406],[-85.519168,36.250403],[-85.519114,36.251226],[-85.520032,36.252272],[-85.520263,36.25221],[-85.520258,36.25217],[-85.520882,36.25197],[-85.520846,36.252408],[-85.521465,36.251922],[-85.522044,36.253725]]]}},{"type":"Feature","id":"47141:071009    02604","properties":{"id":"47141:071009    02604","parcelId":"071009    02604","countyFips":"47141","countyName":"Putnam","state":"Tennessee","marketIds":["Nashville"],"situsAddress":"HOBART PHILLIPS RD","situsCity":null,"situsZip":null,"jurisdictionCode":null,"ownerName":"MAYBERRY AUBREY LEE","ownerName2":"ETUX AMY CAMILLE FLISS-MAYBERRY","propertyName":null,"zoningCode":null,"zoningDistrict":null,"jurisdictionPrefix":null,"dorCode":null,"acreage":32.4012,"centroid":[-85.519701,36.256789],"lastSale":{"date":"2001-08-17","price":null,"qualified":null,"vintage":"2023"},"tax":{"marketValue":58300.0,"assessedValue":null,"taxableValue":null,"taxes":null,"vintage":"2023"},"mailingAddress":{"line1":null,"line2":null,"city":null,"state":null,"zip":null},"incomeTract":null,"incomeBlockGroup":null,"nearestRoad":null,"flu":null,"opportunityZone":null,"oz2Eligibility":null,"source":"tn-oir-public-use-47141","appraiserUrl":"https://assessment.cot.tn.gov/TPAD/Parcel/GIS?gislink=071009%20%20%20%2002604"},"geometry":{"type":"Polygon","coordinates":[[[-85.515731,36.258008],[-85.516308,36.258049],[-85.516988,36.258112],[-85.517772,36.258197],[-85.518843,36.258302],[-85.519173,36.258319],[-85.519227,36.257453],[-85.520209,36.257462],[-85.520169,36.257669],[-85.521358,36.257275],[-85.521034,36.25684],[-85.520942,36.25671],[-85.520842,36.256551],[-85.520806,36.256479],[-85.520777,36.256411],[-85.520752,36.256339],[-85.520733,36.256266],[-85.520706,36.256095],[-85.520693,36.255968],[-85.520685,36.255829],[-85.520683,36.255702],[-85.520686,36.255563],[-85.520657,36.255561],[-85.520664,36.255474],[-85.516091,36.255097],[-85.515731,36.258008]]]}},{"type":"Feature","id":"47141:071009    02808","properties":{"id":"47141:071009    02808","parcelId":"071009    02808","countyFips":"47141","countyName":"Putnam","state":"Tennessee","marketIds":["Nashville"],"situsAddress":"W WHITEHALL RD 930","situsCity":null,"situsZip":null,"jurisdictionCode":null,"ownerName":"FREEMAN JACK REVOCABLE LIVING TRUST","ownerName2":"JACK LEE FREEMAN, TRUSTEE","propertyName":null,"zoningCode":null,"zoningDistrict":null,"jurisdictionPrefix":null,"dorCode":null,"acreage":30.9322,"centroid":[-85.502817,36.25449],"lastSale":{"date":"2008-04-09","price":null,"qualified":null,"vintage":"2023"},"tax":{"marketValue":612600.0,"assessedValue":null,"taxableValue":null,"taxes":null,"vintage":"2023"},"mailingAddress":{"line1":null,"line2":null,"city":null,"state":null,"zip":null},"incomeTract":null,"incomeBlockGroup":null,"nearestRoad":null,"flu":null,"opportunityZone":null,"oz2Eligibility":null,"source":"tn-oir-public-use-47141","appraiserUrl":"https://assessment.cot.tn.gov/TPAD/Parcel/GIS?gislink=071009%20%20%20%2002808"},"geometry":{"type":"Polygon","coordinates":[[[-85.501219,36.255817],[-85.502002,36.255884],[-85.502029,36.255999],[-85.502124,36.255936],[-85.502564,36.255517],[-85.5029,36.255448],[-85.503075,36.255279],[-85.503174,36.255196],[-85.503308,36.255104],[-85.503454,36.255024],[-85.503543,36.254984],[-85.503628,36.254951],[-85.504489,36.254651],[-85.504943,36.254504],[-85.505436,36.254357],[-85.504302,36.251371],[-85.501799,36.252014],[-85.502145,36.252485],[-85.501892,36.253232],[-85.501703,36.253468],[-85.501691,36.253738],[-85.50056,36.253828],[-85.501219,36.255817]]]}},{"type":"Feature","id":"47141:071009    02603","properties":{"id":"47141:071009    02603","parcelId":"071009    02603","countyFips":"47141","countyName":"Putnam","state":"Tennessee","marketIds":["Nashville"],"situsAddress":"WHITEHALL RD","situsCity":null,"situsZip":null,"jurisdictionCode":null,"ownerName":"MAYBERRY JAMES OPLIS","ownerName2":null,"propertyName":null,"zoningCode":null,"zoningDistrict":null,"jurisdictionPrefix":null,"dorCode":null,"acreage":30.8868,"centroid":[-85.513627,36.25626],"lastSale":{"date":"1977-07-20","price":null,"qualified":null,"vintage":"2023"},"tax":{"marketValue":31300.0,"assessedValue":null,"taxableValue":null,"taxes":null,"vintage":"2023"},"mailingAddress":{"line1":null,"line2":null,"city":null,"state":null,"zip":null},"incomeTract":null,"incomeBlockGroup":null,"nearestRoad":null,"flu":null,"opportunityZone":null,"oz2Eligibility":null,"source":"tn-oir-public-use-47141","appraiserUrl":"https://assessment.cot.tn.gov/TPAD/Parcel/GIS?gislink=071009%20%20%20%2002603"},"geometry":{"type":"Polygon","coordinates":[[[-85.514515,36.258101],[-85.515721,36.25815],[-85.515732,36.258076],[-85.515731,36.258008],[-85.516091,36.255097],[-85.515183,36.255023],[-85.515217,36.255115],[-85.515138,36.25546],[-85.513707,36.255302],[-85.512951,36.255198],[-85.513115,36.254619],[-85.512892,36.25455],[-85.512654,36.25452],[-85.512443,36.254556],[-85.512127,36.255326],[-85.511619,36.256065],[-85.511267,36.256716],[-85.510977,36.25779],[-85.512265,36.25801],[-85.512284,36.257845],[-85.514536,36.257937],[-85.514515,36.258101]]]}},{"type":"Feature","id":"47141:071010    02900","properties":{"id":"47141:071010    02900","parcelId":"071010    02900","countyFips":"47141","countyName":"Putnam","state":"Tennessee","marketIds":["Nashville"],"situsAddress":"TIMBER TRL 1776","situsCity":null,"situsZip":null,"jurisdictionCode":null,"ownerName":"PAGE CYNTHIA J","ownerName2":"ETVIR DANIEL L PAGE","propertyName":null,"zoningCode":null,"zoningDistrict":null,"jurisdictionPrefix":null,"dorCode":null,"acreage":29.2911,"centroid":[-85.532569,36.252728],"lastSale":{"date":"2015-11-04","price":105000.0,"qualified":null,"vintage":"2023"},"tax":{"marketValue":223300.0,"assessedValue":null,"taxableValue":null,"taxes":null,"vintage":"2023"},"mailingAddress":{"line1":null,"line2":null,"city":null,"state":null,"zip":null},"incomeTract":null,"incomeBlockGroup":null,"nearestRoad":null,"flu":null,"opportunityZone":null,"oz2Eligibility":null,"source":"tn-oir-public-use-47141","appraiserUrl":"https://assessment.cot.tn.gov/TPAD/Parcel/GIS?gislink=071010%20%20%20%2002900"},"geometry":{"type":"Polygon","coordinates":[[[-85.531666,36.253775],[-85.53174,36.253759],[-85.531814,36.253751],[-85.531888,36.253749],[-85.531965,36.253756],[-85.532041,36.25377],[-85.532118,36.253792],[-85.532179,36.253818],[-85.532232,36.25385],[-85.533641,36.252955],[-85.533839,36.252875],[-85.534042,36.25313],[-85.535843,36.252413],[-85.536011,36.250559],[-85.531565,36.250257],[-85.531541,36.250801],[-85.531638,36.25114],[-85.531681,36.251812],[-85.531376,36.251864],[-85.531666,36.253775]]]}},{"type":"Feature","id":"47141:071005    01900","properties":{"id":"47141:071005    01900","parcelId":"071005    01900","countyFips":"47141","countyName":"Putnam","state":"Tennessee","marketIds":["Nashville"],"situsAddress":"WALKING HORSE LN 7630","situsCity":null,"situsZip":null,"jurisdictionCode":null,"ownerName":"GRIFFITH WILLIAM BAIRD","ownerName2":"ETUX NAOMI E","propertyName":null,"zoningCode":null,"zoningDistrict":null,"jurisdictionPrefix":null,"dorCode":null,"acreage":25.8687,"centroid":[-85.501628,36.269249],"lastSale":{"date":"1974-11-18","price":null,"qualified":null,"vintage":"2023"},"tax":{"marketValue":167400.0,"assessedValue":null,"taxableValue":null,"taxes":null,"vintage":"2023"},"mailingAddress":{"line1":null,"line2":null,"city":null,"state":null,"zip":null},"incomeTract":null,"incomeBlockGroup":null,"nearestRoad":null,"flu":null,"opportunityZone":null,"oz2Eligibility":null,"source":"tn-oir-public-use-47141","appraiserUrl":"https://assessment.cot.tn.gov/TPAD/Parcel/GIS?gislink=071005%20%20%20%2001900"},"geometry":{"type":"Polygon","coordinates":[[[-85.500119,36.271664],[-85.500255,36.271803],[-85.500661,36.271538],[-85.501345,36.271499],[-85.501706,36.27139],[-85.501963,36.27132],[-85.502147,36.271314],[-85.502379,36.271315],[-85.502628,36.271174],[-85.50281,36.271019],[-85.502934,36.270812],[-85.503071,36.270625],[-85.503177,36.270385],[-85.503344,36.269791],[-85.503493,36.267092],[-85.50244,36.267291],[-85.502295,36.267368],[-85.502141,36.26743],[-85.501975,36.267479],[-85.501776,36.267522],[-85.501649,36.267542],[-85.501531,36.267555],[-85.501413,36.267564],[-85.501287,36.267568],[-85.501237,36.267565],[-85.501191,36.267556],[-85.501148,36.267541],[-85.501107,36.26752],[-85.501106,36.267637],[-85.501092,36.267763],[-85.501074,36.268165],[-85.501044,36.268537],[-85.500985,36.269121],[-85.50091,36.269741],[-85.500867,36.270024],[-85.50083,36.27002],[-85.500817,36.270128],[-85.499915,36.270072],[-85.500119,36.271664]]]}},{"type":"Feature","id":"47141:071005    01501","properties":{"id":"47141:071005    01501","parcelId":"071005    01501","countyFips":"47141","countyName":"Putnam","state":"Tennessee","marketIds":["Nashville"],"situsAddress":"SMITH CHAPEL RD 7580","situsCity":null,"situsZip":null,"jurisdictionCode":null,"ownerName":"SMITH JAMES W","ownerName2":"ETUX LADONNA D","propertyName":null,"zoningCode":null,"zoningDistrict":null,"jurisdictionPrefix":null,"dorCode":null,"acreage":23.7027,"centroid":[-85.506927,36.269678],"lastSale":{"date":"2020-03-19","price":null,"qualified":null,"vintage":"2023"},"tax":{"marketValue":227300.0,"assessedValue":null,"taxableValue":null,"taxes":null,"vintage":"2023"},"mailingAddress":{"line1":null,"line2":null,"city":null,"state":null,"zip":null},"incomeTract":null,"incomeBlockGroup":null,"nearestRoad":null,"flu":null,"opportunityZone":null,"oz2Eligibility":null,"source":"tn-oir-public-use-47141","appraiserUrl":"https://assessment.cot.tn.gov/TPAD/Parcel/GIS?gislink=071005%20%20%20%2001501"},"geometry":{"type":"Polygon","coordinates":[[[-85.50428,36.269653],[-85.507022,36.270976],[-85.508947,36.272274],[-85.509019,36.271733],[-85.509392,36.269712],[-85.509499,36.268794],[-85.508797,36.268828],[-85.507921,36.268943],[-85.507889,36.268799],[-85.507013,36.268914],[-85.506681,36.26893],[-85.504396,36.269252],[-85.504377,36.269354],[-85.504351,36.269458],[-85.504318,36.269556],[-85.50428,36.269653]]]}},{"type":"Feature","id":"47141:071005    03102","properties":{"id":"47141:071005    03102","parcelId":"071005    03102","countyFips":"47141","countyName":"Putnam","state":"Tennessee","marketIds":["Nashville"],"situsAddress":"S SMITH CHAPEL RD","situsCity":null,"situsZip":null,"jurisdictionCode":null,"ownerName":"HORNER MILTON O","ownerName2":"ETUX LOIS","propertyName":null,"zoningCode":null,"zoningDistrict":null,"jurisdictionPrefix":null,"dorCode":null,"acreage":22.573,"centroid":[-85.507772,36.263985],"lastSale":{"date":"1975-12-31","price":null,"qualified":null,"vintage":"2023"},"tax":{"marketValue":34200.0,"assessedValue":null,"taxableValue":null,"taxes":null,"vintage":"2023"},"mailingAddress":{"line1":null,"line2":null,"city":null,"state":null,"zip":null},"incomeTract":null,"incomeBlockGroup":null,"nearestRoad":null,"flu":null,"opportunityZone":null,"oz2Eligibility":null,"source":"tn-oir-public-use-47141","appraiserUrl":"https://assessment.cot.tn.gov/TPAD/Parcel/GIS?gislink=071005%20%20%20%2003102"},"geometry":{"type":"Polygon","coordinates":[[[-85.505825,36.264676],[-85.509245,36.264764],[-85.509249,36.264684],[-85.511378,36.26467],[-85.511562,36.263288],[-85.509496,36.263184],[-85.50946,36.263317],[-85.506056,36.263275],[-85.506037,36.263536],[-85.504591,36.263506],[-85.504532,36.264443],[-85.505834,36.264483],[-85.505825,36.264676]]]}},{"type":"Feature","id":"47141:071009H A 00108","properties":{"id":"47141:071009H A 00108","parcelId":"071009H A 00108","countyFips":"47141","countyName":"Putnam","state":"Tennessee","marketIds":["Nashville"],"situsAddress":"W WHITEHALL RD 1639","situsCity":null,"situsZip":null,"jurisdictionCode":null,"ownerName":"ADAMS MIKE B","ownerName2":"ETUX DEBORAH E","propertyName":null,"zoningCode":null,"zoningDistrict":null,"jurisdictionPrefix":null,"dorCode":null,"acreage":22.3893,"centroid":[-85.517557,36.252949],"lastSale":{"date":"2007-09-03","price":178000.0,"qualified":null,"vintage":"2023"},"tax":{"marketValue":472800.0,"assessedValue":null,"taxableValue":null,"taxes":null,"vintage":"2023"},"mailingAddress":{"line1":null,"line2":null,"city":null,"state":null,"zip":null},"incomeTract":null,"incomeBlockGroup":null,"nearestRoad":null,"flu":null,"opportunityZone":null,"oz2Eligibility":null,"source":"tn-oir-public-use-47141","appraiserUrl":"https://assessment.cot.tn.gov/TPAD/Parcel/GIS?gislink=071009H%20A%2000108"},"geometry":{"type":"Polygon","coordinates":[[[-85.516144,36.25258],[-85.514384,36.252906],[-85.51443,36.252989],[-85.515183,36.255023],[-85.516609,36.25514],[-85.516694,36.254157],[-85.519502,36.253726],[-85.519335,36.253377],[-85.519088,36.253181],[-85.518852,36.253023],[-85.519413,36.252655],[-85.519227,36.25251],[-85.519056,36.252362],[-85.518904,36.252216],[-85.518712,36.252015],[-85.518116,36.252443],[-85.517933,36.252265],[-85.516835,36.252453],[-85.516693,36.251924],[-85.516034,36.252029],[-85.516144,36.25258]]]}},{"type":"Feature","id":"47141:071005    02903","properties":{"id":"47141:071005    02903","parcelId":"071005    02903","countyFips":"47141","countyName":"Putnam","state":"Tennessee","marketIds":["Nashville"],"situsAddress":"S SMITH CHAPEL RD","situsCity":null,"situsZip":null,"jurisdictionCode":null,"ownerName":"BREEDING JAMIE WALTER","ownerName2":"ETUX TONYA JANELLE BREEDING","propertyName":null,"zoningCode":null,"zoningDistrict":null,"jurisdictionPrefix":null,"dorCode":null,"acreage":16.2331,"centroid":[-85.500742,36.263611],"lastSale":{"date":"2020-09-08","price":124929.0,"qualified":null,"vintage":"2023"},"tax":{"marketValue":20000.0,"assessedValue":null,"taxableValue":null,"taxes":null,"vintage":"2023"},"mailingAddress":{"line1":null,"line2":null,"city":null,"state":null,"zip":null},"incomeTract":null,"incomeBlockGroup":null,"nearestRoad":null,"flu":null,"opportunityZone":null,"oz2Eligibility":null,"source":"tn-oir-public-use-47141","appraiserUrl":"https://assessment.cot.tn.gov/TPAD/Parcel/GIS?gislink=071005%20%20%20%2002903"},"geometry":{"type":"Polygon","coordinates":[[[-85.498748,36.262488],[-85.498855,36.262678],[-85.499014,36.262927],[-85.499098,36.263067],[-85.499481,36.263761],[-85.499808,36.264328],[-85.500855,36.264486],[-85.501479,36.264792],[-85.502787,36.265013],[-85.50277,36.264302],[-85.502296,36.264084],[-85.502435,36.263729],[-85.502315,36.26346],[-85.502443,36.262577],[-85.498742,36.262476],[-85.498748,36.262488]]]}},{"type":"Feature","id":"47141:071005    01503","properties":{"id":"47141:071005    01503","parcelId":"071005    01503","countyFips":"47141","countyName":"Putnam","state":"Tennessee","marketIds":["Nashville"],"situsAddress":"SMITH CHAPEL RD 7470","situsCity":null,"situsZip":null,"jurisdictionCode":null,"ownerName":"SHARKEY MICHAEL J","ownerName2":"ETUX STACEY SHARKEY","propertyName":null,"zoningCode":null,"zoningDistrict":null,"jurisdictionPrefix":null,"dorCode":null,"acreage":15.2301,"centroid":[-85.505229,36.267929],"lastSale":{"date":"2004-06-23","price":475000.0,"qualified":null,"vintage":"2023"},"tax":{"marketValue":618500.0,"assessedValue":null,"taxableValue":null,"taxes":null,"vintage":"2023"},"mailingAddress":{"line1":null,"line2":null,"city":null,"state":null,"zip":null},"incomeTract":null,"incomeBlockGroup":null,"nearestRoad":null,"flu":null,"opportunityZone":null,"oz2Eligibility":null,"source":"tn-oir-public-use-47141","appraiserUrl":"https://assessment.cot.tn.gov/TPAD/Parcel/GIS?gislink=071005%20%20%20%2001503"},"geometry":{"type":"Polygon","coordinates":[[[-85.504518,36.26707],[-85.504476,36.267757],[-85.504444,36.268703],[-85.504424,36.268986],[-85.504396,36.269252],[-85.506681,36.26893],[-85.507013,36.268914],[-85.5069,36.266569],[-85.504881,36.266557],[-85.504558,36.266548],[-85.504518,36.26707]]]}},{"type":"Feature","id":"47141:071005    03100","properties":{"id":"47141:071005    03100","parcelId":"071005    03100","countyFips":"47141","countyName":"Putnam","state":"Tennessee","marketIds":["Nashville"],"situsAddress":"S SMITH CHAPEL RD","situsCity":null,"situsZip":null,"jurisdictionCode":null,"ownerName":"FLOWERS EDWARD BRETT","ownerName2":"ETUX ERIN DANIELLE","propertyName":null,"zoningCode":null,"zoningDistrict":null,"jurisdictionPrefix":null,"dorCode":null,"acreage":13.704,"centroid":[-85.507771,36.265968],"lastSale":{"date":"2010-01-19","price":null,"qualified":null,"vintage":"2023"},"tax":{"marketValue":65600.0,"assessedValue":null,"taxableValue":null,"taxes":null,"vintage":"2023"},"mailingAddress":{"line1":null,"line2":null,"city":null,"state":null,"zip":null},"incomeTract":null,"incomeBlockGroup":null,"nearestRoad":null,"flu":null,"opportunityZone":null,"oz2Eligibility":null,"source":"tn-oir-public-use-47141","appraiserUrl":"https://assessment.cot.tn.gov/TPAD/Parcel/GIS?gislink=071005%20%20%20%2003100"},"geometry":{"type":"Polygon","coordinates":[[[-85.505822,36.264749],[-85.505741,36.266481],[-85.506773,36.266488],[-85.507682,36.266477],[-85.507797,36.26647],[-85.507909,36.266452],[-85.507991,36.266432],[-85.508064,36.266409],[-85.508131,36.266382],[-85.508204,36.266346],[-85.509059,36.265829],[-85.509126,36.265794],[-85.5092,36.265765],[-85.509245,36.264764],[-85.505825,36.264676],[-85.505822,36.264749]]]}},{"type":"Feature","id":"47141:071136    00200","properties":{"id":"47141:071136    00200","parcelId":"071136    00200","countyFips":"47141","countyName":"Putnam","state":"Tennessee","marketIds":["Nashville"],"situsAddress":"TIMBER TRL 1836","situsCity":null,"situsZip":null,"jurisdictionCode":null,"ownerName":"THOMAS FAMILY IRREVOCABLE TRUST","ownerName2":"MICHELLE DENESE YOUNG, TRUSTEE","propertyName":null,"zoningCode":null,"zoningDistrict":null,"jurisdictionPrefix":null,"dorCode":null,"acreage":12.9733,"centroid":[-85.529152,36.259682],"lastSale":{"date":"2023-03-14","price":null,"qualified":null,"vintage":"2023"},"tax":{"marketValue":355100.0,"assessedValue":null,"taxableValue":null,"taxes":null,"vintage":"2023"},"mailingAddress":{"line1":null,"line2":null,"city":null,"state":null,"zip":null},"incomeTract":null,"incomeBlockGroup":null,"nearestRoad":null,"flu":null,"opportunityZone":null,"oz2Eligibility":null,"source":"tn-oir-public-use-47141","appraiserUrl":"https://assessment.cot.tn.gov/TPAD/Parcel/GIS?gislink=071136%20%20%20%2000200"},"geometry":{"type":"Polygon","coordinates":[[[-85.528597,36.259363],[-85.527762,36.259301],[-85.527518,36.261061],[-85.530639,36.261281],[-85.530835,36.260391],[-85.529545,36.259107],[-85.529413,36.259236],[-85.529328,36.259298],[-85.529258,36.259329],[-85.52918,36.259353],[-85.529068,36.259376],[-85.528952,36.259386],[-85.528879,36.259384],[-85.528597,36.259363]]]}},{"type":"Feature","id":"47141:071009    02305","properties":{"id":"47141:071009    02305","parcelId":"071009    02305","countyFips":"47141","countyName":"Putnam","state":"Tennessee","marketIds":["Nashville"],"situsAddress":"W WHITEHALL RD 1499","situsCity":null,"situsZip":null,"jurisdictionCode":null,"ownerName":"MEADOWS DEBORAH K","ownerName2":null,"propertyName":null,"zoningCode":null,"zoningDistrict":null,"jurisdictionPrefix":null,"dorCode":null,"acreage":11.8542,"centroid":[-85.513856,36.253477],"lastSale":{"date":"2022-01-13","price":null,"qualified":null,"vintage":"2023"},"tax":{"marketValue":296700.0,"assessedValue":null,"taxableValue":null,"taxes":null,"vintage":"2023"},"mailingAddress":{"line1":null,"line2":null,"city":null,"state":null,"zip":null},"incomeTract":null,"incomeBlockGroup":null,"nearestRoad":null,"flu":null,"opportunityZone":null,"oz2Eligibility":null,"source":"tn-oir-public-use-47141","appraiserUrl":"https://assessment.cot.tn.gov/TPAD/Parcel/GIS?gislink=071009%20%20%20%2002305"},"geometry":{"type":"Polygon","coordinates":[[[-85.513115,36.254619],[-85.512951,36.255198],[-85.513707,36.255302],[-85.515138,36.25546],[-85.515217,36.255115],[-85.51443,36.252989],[-85.514384,36.252906],[-85.514311,36.252919],[-85.514088,36.252309],[-85.514061,36.252318],[-85.514049,36.252293],[-85.513827,36.252376],[-85.513607,36.252468],[-85.513443,36.252545],[-85.513078,36.252727],[-85.512762,36.25391],[-85.51339,36.25365],[-85.513115,36.254619]]]}},{"type":"Feature","id":"47141:071009    01701","properties":{"id":"47141:071009    01701","parcelId":"071009    01701","countyFips":"47141","countyName":"Putnam","state":"Tennessee","marketIds":["Nashville"],"situsAddress":"TIMBER TRL 1720","situsCity":null,"situsZip":null,"jurisdictionCode":null,"ownerName":"RITTER DANNY J","ownerName2":"ETUX MARY F","propertyName":null,"zoningCode":null,"zoningDistrict":null,"jurisdictionPrefix":null,"dorCode":null,"acreage":11.7745,"centroid":[-85.524734,36.252353],"lastSale":{"date":"2013-11-19","price":280000.0,"qualified":null,"vintage":"2023"},"tax":{"marketValue":387000.0,"assessedValue":null,"taxableValue":null,"taxes":null,"vintage":"2023"},"mailingAddress":{"line1":null,"line2":null,"city":null,"state":null,"zip":null},"incomeTract":null,"incomeBlockGroup":null,"nearestRoad":null,"flu":null,"opportunityZone":null,"oz2Eligibility":null,"source":"tn-oir-public-use-47141","appraiserUrl":"https://assessment.cot.tn.gov/TPAD/Parcel/GIS?gislink=071009%20%20%20%2001701"},"geometry":{"type":"Polygon","coordinates":[[[-85.5237,36.253387],[-85.523886,36.253366],[-85.524071,36.253353],[-85.524787,36.253335],[-85.524947,36.253336],[-85.525109,36.253343],[-85.52518,36.253351],[-85.525252,36.253365],[-85.525877,36.251283],[-85.525647,36.251332],[-85.525492,36.251234],[-85.524848,36.251214],[-85.524685,36.251124],[-85.524495,36.251134],[-85.523036,36.251139],[-85.5237,36.253387]]]}},{"type":"Feature","id":"47141:071005    01500","properties":{"id":"47141:071005    01500","parcelId":"071005    01500","countyFips":"47141","countyName":"Putnam","state":"Tennessee","marketIds":["Nashville"],"situsAddress":"SMITH CHAPEL RD 7801","situsCity":null,"situsZip":null,"jurisdictionCode":null,"ownerName":"SMITH JAMES W","ownerName2":"ETUX LA DONNA D","propertyName":null,"zoningCode":null,"zoningDistrict":null,"jurisdictionPrefix":null,"dorCode":null,"acreage":11.4268,"centroid":[-85.501698,36.271687],"lastSale":{"date":"2004-09-09","price":null,"qualified":null,"vintage":"2023"},"tax":{"marketValue":140800.0,"assessedValue":null,"taxableValue":null,"taxes":null,"vintage":"2023"},"mailingAddress":{"line1":null,"line2":null,"city":null,"state":null,"zip":null},"incomeTract":null,"incomeBlockGroup":null,"nearestRoad":null,"flu":null,"opportunityZone":null,"oz2Eligibility":null,"source":"tn-oir-public-use-47141","appraiserUrl":"https://assessment.cot.tn.gov/TPAD/Parcel/GIS?gislink=071005%20%20%20%2001500"},"geometry":{"type":"Polygon","coordinates":[[[-85.503344,36.269791],[-85.503177,36.270385],[-85.503071,36.270625],[-85.502934,36.270812],[-85.50281,36.271019],[-85.502628,36.271174],[-85.502379,36.271315],[-85.502147,36.271314],[-85.501963,36.27132],[-85.501706,36.27139],[-85.501345,36.271499],[-85.500661,36.271538],[-85.499869,36.272056],[-85.499888,36.272164],[-85.499889,36.272273],[-85.499879,36.272347],[-85.499854,36.272456],[-85.499842,36.272529],[-85.499835,36.272621],[-85.499838,36.272746],[-85.499835,36.272805],[-85.499823,36.272881],[-85.499803,36.272955],[-85.499916,36.27302],[-85.502175,36.272854],[-85.502269,36.272642],[-85.50237,36.272433],[-85.502581,36.272013],[-85.502688,36.271826],[-85.502813,36.271643],[-85.503107,36.271268],[-85.503346,36.270937],[-85.50347,36.270754],[-85.504051,36.269869],[-85.504107,36.269778],[-85.503344,36.269791]]]}},{"type":"Feature","id":"47141:071010    03000","properties":{"id":"47141:071010    03000","parcelId":"071010    03000","countyFips":"47141","countyName":"Putnam","state":"Tennessee","marketIds":["Nashville"],"situsAddress":"TIMBER TRL 1772","situsCity":null,"situsZip":null,"jurisdictionCode":null,"ownerName":"PANGBURN RAYMOND W","ownerName2":"ETUX MICHAELA Y","propertyName":null,"zoningCode":null,"zoningDistrict":null,"jurisdictionPrefix":null,"dorCode":null,"acreage":11.0273,"centroid":[-85.53081,36.253916],"lastSale":{"date":"2007-06-27","price":88500.0,"qualified":null,"vintage":"2023"},"tax":{"marketValue":397100.0,"assessedValue":null,"taxableValue":null,"taxes":null,"vintage":"2023"},"mailingAddress":{"line1":null,"line2":null,"city":null,"state":null,"zip":null},"incomeTract":null,"incomeBlockGroup":null,"nearestRoad":null,"flu":null,"opportunityZone":null,"oz2Eligibility":null,"source":"tn-oir-public-use-47141","appraiserUrl":"https://assessment.cot.tn.gov/TPAD/Parcel/GIS?gislink=071010%20%20%20%2003000"},"geometry":{"type":"Polygon","coordinates":[[[-85.529475,36.254401],[-85.529669,36.254401],[-85.529918,36.254396],[-85.530407,36.254376],[-85.530511,36.254369],[-85.530582,36.254361],[-85.530656,36.254348],[-85.530728,36.25433],[-85.530792,36.25431],[-85.530863,36.254282],[-85.530979,36.254223],[-85.531067,36.254164],[-85.531251,36.254011],[-85.531411,36.253897],[-85.531494,36.253846],[-85.531542,36.25382],[-85.531602,36.253795],[-85.531666,36.253775],[-85.531376,36.251864],[-85.530205,36.251351],[-85.529475,36.254401]]]}},{"type":"Feature","id":"47141:071010    00200","properties":{"id":"47141:071010    00200","parcelId":"071010    00200","countyFips":"47141","countyName":"Putnam","state":"Tennessee","marketIds":["Nashville"],"situsAddress":"TIMBER TRL 1823","situsCity":null,"situsZip":null,"jurisdictionCode":null,"ownerName":"FORD BILLY PATRICK","ownerName2":"ETUX MARSHA LYNN","propertyName":null,"zoningCode":null,"zoningDistrict":null,"jurisdictionPrefix":null,"dorCode":null,"acreage":10.7089,"centroid":[-85.529289,36.258354],"lastSale":{"date":"2014-10-23","price":240130.0,"qualified":null,"vintage":"2023"},"tax":{"marketValue":381500.0,"assessedValue":null,"taxableValue":null,"taxes":null,"vintage":"2023"},"mailingAddress":{"line1":null,"line2":null,"city":null,"state":null,"zip":null},"incomeTract":null,"incomeBlockGroup":null,"nearestRoad":null,"flu":null,"opportunityZone":null,"oz2Eligibility":null,"source":"tn-oir-public-use-47141","appraiserUrl":"https://assessment.cot.tn.gov/TPAD/Parcel/GIS?gislink=071010%20%20%20%2000200"},"geometry":{"type":"Polygon","coordinates":[[[-85.528702,36.259233],[-85.528914,36.259248],[-85.528975,36.259247],[-85.529031,36.259242],[-85.529102,36.259229],[-85.529169,36.25921],[-85.529231,36.259185],[-85.52927,36.259159],[-85.529507,36.258928],[-85.529776,36.258639],[-85.530145,36.258258],[-85.530341,36.258047],[-85.530648,36.257707],[-85.53099,36.257344],[-85.530592,36.257208],[-85.530198,36.257063],[-85.529809,36.25691],[-85.529427,36.25675],[-85.528429,36.257975],[-85.527998,36.257941],[-85.527876,36.258239],[-85.52784,36.258234],[-85.52768,36.259157],[-85.528702,36.259233]]]}},{"type":"Feature","id":"47141:071005    01602","properties":{"id":"47141:071005    01602","parcelId":"071005    01602","countyFips":"47141","countyName":"Putnam","state":"Tennessee","marketIds":["Nashville"],"situsAddress":"SMITH CHAPEL RD 8082 7990","situsCity":null,"situsZip":null,"jurisdictionCode":null,"ownerName":"BROWN BILLY A","ownerName2":"ETUX CINDY","propertyName":null,"zoningCode":null,"zoningDistrict":null,"jurisdictionPrefix":null,"dorCode":null,"acreage":9.4664,"centroid":[-85.501226,36.275637],"lastSale":{"date":"2009-05-22","price":109500.0,"qualified":null,"vintage":"2023"},"tax":{"marketValue":136500.0,"assessedValue":null,"taxableValue":null,"taxes":null,"vintage":"2023"},"mailingAddress":{"line1":null,"line2":null,"city":null,"state":null,"zip":null},"incomeTract":null,"incomeBlockGroup":null,"nearestRoad":null,"flu":null,"opportunityZone":null,"oz2Eligibility":null,"source":"tn-oir-public-use-47141","appraiserUrl":"https://assessment.cot.tn.gov/TPAD/Parcel/GIS?gislink=071005%20%20%20%2001602"},"geometry":{"type":"Polygon","coordinates":[[[-85.501158,36.276746],[-85.50246,36.276853],[-85.502878,36.276989],[-85.50351,36.27604],[-85.502201,36.27553],[-85.502296,36.27508],[-85.501132,36.274711],[-85.501015,36.27478],[-85.500848,36.274864],[-85.500801,36.274895],[-85.500759,36.274931],[-85.500712,36.274987],[-85.500678,36.275046],[-85.500657,36.27511],[-85.500649,36.27518],[-85.500652,36.275221],[-85.500673,36.275338],[-85.500722,36.275577],[-85.500782,36.275815],[-85.500841,36.276014],[-85.500893,36.276161],[-85.500956,36.276317],[-85.501024,36.276463],[-85.501116,36.276645],[-85.501158,36.276746]]]}},{"type":"Feature","id":"47141:071010    03400","properties":{"id":"47141:071010    03400","parcelId":"071010    03400","countyFips":"47141","countyName":"Putnam","state":"Tennessee","marketIds":["Nashville"],"situsAddress":"TIMBER TRL 1732","situsCity":null,"situsZip":null,"jurisdictionCode":null,"ownerName":"LOVELLETTE GARY N","ownerName2":"ETUX VIRGINIA S","propertyName":null,"zoningCode":null,"zoningDistrict":null,"jurisdictionPrefix":null,"dorCode":null,"acreage":9.1526,"centroid":[-85.526633,36.252055],"lastSale":{"date":"1979-08-06","price":null,"qualified":null,"vintage":"2023"},"tax":{"marketValue":392700.0,"assessedValue":null,"taxableValue":null,"taxes":null,"vintage":"2023"},"mailingAddress":{"line1":null,"line2":null,"city":null,"state":null,"zip":null},"incomeTract":null,"incomeBlockGroup":null,"nearestRoad":null,"flu":null,"opportunityZone":null,"oz2Eligibility":null,"source":"tn-oir-public-use-47141","appraiserUrl":"https://assessment.cot.tn.gov/TPAD/Parcel/GIS?gislink=071010%20%20%20%2003400"},"geometry":{"type":"Polygon","coordinates":[[[-85.525252,36.253365],[-85.525336,36.253392],[-85.52542,36.253431],[-85.52556,36.253516],[-85.525739,36.253633],[-85.528528,36.250923],[-85.528374,36.250879],[-85.528268,36.25059],[-85.527409,36.25127],[-85.527066,36.251287],[-85.526772,36.251091],[-85.525877,36.251283],[-85.525252,36.253365]]]}},{"type":"Feature","id":"47141:071010    01100","properties":{"id":"47141:071010    01100","parcelId":"071010    01100","countyFips":"47141","countyName":"Putnam","state":"Tennessee","marketIds":["Nashville"],"situsAddress":"TIMBER TRL","situsCity":null,"situsZip":null,"jurisdictionCode":null,"ownerName":"SINGLETARY LEEANNE","ownerName2":"AND RICHARD SHAFFER","propertyName":null,"zoningCode":null,"zoningDistrict":null,"jurisdictionPrefix":null,"dorCode":null,"acreage":8.8655,"centroid":[-85.532536,36.25781],"lastSale":{"date":"2005-10-28","price":258625.0,"qualified":null,"vintage":"2023"},"tax":{"marketValue":64000.0,"assessedValue":null,"taxableValue":null,"taxes":null,"vintage":"2023"},"mailingAddress":{"line1":null,"line2":null,"city":null,"state":null,"zip":null},"incomeTract":null,"incomeBlockGroup":null,"nearestRoad":null,"flu":null,"opportunityZone":null,"oz2Eligibility":null,"source":"tn-oir-public-use-47141","appraiserUrl":"https://assessment.cot.tn.gov/TPAD/Parcel/GIS?gislink=071010%20%20%20%2001100"},"geometry":{"type":"Polygon","coordinates":[[[-85.533829,36.259097],[-85.534264,36.259124],[-85.534399,36.257759],[-85.531533,36.256798],[-85.531319,36.257205],[-85.531261,36.257283],[-85.531147,36.257404],[-85.533829,36.259097]]]}},{"type":"Feature","id":"47141:071005    01600","properties":{"id":"47141:071005    01600","parcelId":"071005    01600","countyFips":"47141","countyName":"Putnam","state":"Tennessee","marketIds":["Nashville"],"situsAddress":"SMITH CHAPEL RD 7924","situsCity":null,"situsZip":null,"jurisdictionCode":null,"ownerName":"MORRISON TIM M","ownerName2":"ETUX RACHEL A","propertyName":null,"zoningCode":null,"zoningDistrict":null,"jurisdictionPrefix":null,"dorCode":null,"acreage":8.3579,"centroid":[-85.501915,36.274495],"lastSale":{"date":"2007-04-13","price":65000.0,"qualified":null,"vintage":"2023"},"tax":{"marketValue":373700.0,"assessedValue":null,"taxableValue":null,"taxes":null,"vintage":"2023"},"mailingAddress":{"line1":null,"line2":null,"city":null,"state":null,"zip":null},"incomeTract":null,"incomeBlockGroup":null,"nearestRoad":null,"flu":null,"opportunityZone":null,"oz2Eligibility":null,"source":"tn-oir-public-use-47141","appraiserUrl":"https://assessment.cot.tn.gov/TPAD/Parcel/GIS?gislink=071005%20%20%20%2001600"},"geometry":{"type":"Polygon","coordinates":[[[-85.501132,36.274711],[-85.502296,36.27508],[-85.502201,36.27553],[-85.50351,36.27604],[-85.503815,36.275637],[-85.502263,36.2729],[-85.502124,36.273212],[-85.501837,36.273808],[-85.501742,36.27404],[-85.50166,36.27419],[-85.501611,36.274263],[-85.501558,36.274335],[-85.501497,36.274405],[-85.501432,36.274474],[-85.501365,36.274537],[-85.501293,36.274597],[-85.501218,36.274654],[-85.501132,36.274711]]]}},{"type":"Feature","id":"47141:071010    02700","properties":{"id":"47141:071010    02700","parcelId":"071010    02700","countyFips":"47141","countyName":"Putnam","state":"Tennessee","marketIds":["Nashville"],"situsAddress":"TIMBER TRL 1784","situsCity":null,"situsZip":null,"jurisdictionCode":null,"ownerName":"DORR RONALD J","ownerName2":"ETUX JANET S DORR","propertyName":null,"zoningCode":null,"zoningDistrict":null,"jurisdictionPrefix":null,"dorCode":null,"acreage":8.1678,"centroid":[-85.53326,36.254574],"lastSale":{"date":"2018-09-25","price":352500.0,"qualified":null,"vintage":"2023"},"tax":{"marketValue":355500.0,"assessedValue":null,"taxableValue":null,"taxes":null,"vintage":"2023"},"mailingAddress":{"line1":null,"line2":null,"city":null,"state":null,"zip":null},"incomeTract":null,"incomeBlockGroup":null,"nearestRoad":null,"flu":null,"opportunityZone":null,"oz2Eligibility":null,"source":"tn-oir-public-use-47141","appraiserUrl":"https://assessment.cot.tn.gov/TPAD/Parcel/GIS?gislink=071010%20%20%20%2002700"},"geometry":{"type":"Polygon","coordinates":[[[-85.53244,36.25494],[-85.535338,36.255384],[-85.535652,36.253896],[-85.535645,36.253761],[-85.532503,36.254354],[-85.532516,36.254429],[-85.532523,36.254501],[-85.532524,36.254574],[-85.532519,36.254652],[-85.532507,36.254729],[-85.532491,36.2548],[-85.532467,36.254873],[-85.53244,36.25494]]]}},{"type":"Feature","id":"47141:071009    00300","properties":{"id":"47141:071009    00300","parcelId":"071009    00300","countyFips":"47141","countyName":"Putnam","state":"Tennessee","marketIds":["Nashville"],"situsAddress":"TIMBER TRL 1875","situsCity":null,"situsZip":null,"jurisdictionCode":null,"ownerName":"MEAD GEORGE O","ownerName2":"ETUX DONNA B","propertyName":null,"zoningCode":null,"zoningDistrict":null,"jurisdictionPrefix":null,"dorCode":null,"acreage":8.1601,"centroid":[-85.523755,36.258042],"lastSale":{"date":"1991-06-15","price":179000.0,"qualified":null,"vintage":"2023"},"tax":{"marketValue":440900.0,"assessedValue":null,"taxableValue":null,"taxes":null,"vintage":"2023"},"mailingAddress":{"line1":null,"line2":null,"city":null,"state":null,"zip":null},"incomeTract":null,"incomeBlockGroup":null,"nearestRoad":null,"flu":null,"opportunityZone":null,"oz2Eligibility":null,"source":"tn-oir-public-use-47141","appraiserUrl":"https://assessment.cot.tn.gov/TPAD/Parcel/GIS?gislink=071009%20%20%20%2000300"},"geometry":{"type":"Polygon","coordinates":[[[-85.525151,36.258946],[-85.525446,36.258981],[-85.525613,36.257755],[-85.523798,36.257613],[-85.523398,36.257102],[-85.521897,36.257881],[-85.522466,36.258731],[-85.524033,36.257955],[-85.524736,36.258902],[-85.524907,36.258899],[-85.52509,36.258911],[-85.525129,36.258915],[-85.525127,36.258943],[-85.525151,36.258946]]]}},{"type":"Feature","id":"47141:071010    03300","properties":{"id":"47141:071010    03300","parcelId":"071010    03300","countyFips":"47141","countyName":"Putnam","state":"Tennessee","marketIds":["Nashville"],"situsAddress":"TIMBER TRL","situsCity":null,"situsZip":null,"jurisdictionCode":null,"ownerName":"LOVELLETTE GARY N","ownerName2":"ETUX VIRGINIA S","propertyName":null,"zoningCode":null,"zoningDistrict":null,"jurisdictionPrefix":null,"dorCode":null,"acreage":7.8145,"centroid":[-85.527243,36.252853],"lastSale":{"date":"1979-08-06","price":null,"qualified":null,"vintage":"2023"},"tax":{"marketValue":60300.0,"assessedValue":null,"taxableValue":null,"taxes":null,"vintage":"2023"},"mailingAddress":{"line1":null,"line2":null,"city":null,"state":null,"zip":null},"incomeTract":null,"incomeBlockGroup":null,"nearestRoad":null,"flu":null,"opportunityZone":null,"oz2Eligibility":null,"source":"tn-oir-public-use-47141","appraiserUrl":"https://assessment.cot.tn.gov/TPAD/Parcel/GIS?gislink=071010%20%20%20%2003300"},"geometry":{"type":"Polygon","coordinates":[[[-85.525739,36.253633],[-85.525967,36.253791],[-85.526247,36.254],[-85.526332,36.254054],[-85.526414,36.2541],[-85.529383,36.251169],[-85.529332,36.251157],[-85.528528,36.250923],[-85.525739,36.253633]]]}},{"type":"Feature","id":"47141:071010    02701","properties":{"id":"47141:071010    02701","parcelId":"071010    02701","countyFips":"47141","countyName":"Putnam","state":"Tennessee","marketIds":["Nashville"],"situsAddress":"TIMBER TRL 1780","situsCity":null,"situsZip":null,"jurisdictionCode":null,"ownerName":"FIKES JOSEPH B","ownerName2":"ETUX ELIZABETH C FIKES","propertyName":null,"zoningCode":null,"zoningDistrict":null,"jurisdictionPrefix":null,"dorCode":null,"acreage":7.6441,"centroid":[-85.533402,36.253753],"lastSale":{"date":"2018-05-29","price":535000.0,"qualified":null,"vintage":"2023"},"tax":{"marketValue":620200.0,"assessedValue":null,"taxableValue":null,"taxes":null,"vintage":"2023"},"mailingAddress":{"line1":null,"line2":null,"city":null,"state":null,"zip":null},"incomeTract":null,"incomeBlockGroup":null,"nearestRoad":null,"flu":null,"opportunityZone":null,"oz2Eligibility":null,"source":"tn-oir-public-use-47141","appraiserUrl":"https://assessment.cot.tn.gov/TPAD/Parcel/GIS?gislink=071010%20%20%20%2002701"},"geometry":{"type":"Polygon","coordinates":[[[-85.532232,36.25385],[-85.532267,36.253877],[-85.532299,36.253908],[-85.532326,36.253941],[-85.532348,36.253977],[-85.532403,36.254085],[-85.532453,36.254193],[-85.532482,36.254273],[-85.532503,36.254354],[-85.535645,36.253761],[-85.535622,36.253317],[-85.535804,36.252838],[-85.535843,36.252413],[-85.532232,36.25385]]]}},{"type":"Feature","id":"47141:071010    00800","properties":{"id":"47141:071010    00800","parcelId":"071010    00800","countyFips":"47141","countyName":"Putnam","state":"Tennessee","marketIds":["Nashville"],"situsAddress":"DRY CREEK RD 1751","situsCity":null,"situsZip":null,"jurisdictionCode":null,"ownerName":"MAXWELL MITCHELL SHANE","ownerName2":null,"propertyName":null,"zoningCode":null,"zoningDistrict":null,"jurisdictionPrefix":null,"dorCode":null,"acreage":7.5291,"centroid":[-85.52826,36.256782],"lastSale":{"date":"2015-12-02","price":158300.0,"qualified":null,"vintage":"2023"},"tax":{"marketValue":239900.0,"assessedValue":null,"taxableValue":null,"taxes":null,"vintage":"2023"},"mailingAddress":{"line1":null,"line2":null,"city":null,"state":null,"zip":null},"incomeTract":null,"incomeBlockGroup":null,"nearestRoad":null,"flu":null,"opportunityZone":null,"oz2Eligibility":null,"source":"tn-oir-public-use-47141","appraiserUrl":"https://assessment.cot.tn.gov/TPAD/Parcel/GIS?gislink=071010%20%20%20%2000800"},"geometry":{"type":"Polygon","coordinates":[[[-85.526779,36.257846],[-85.528429,36.257975],[-85.529427,36.25675],[-85.529275,36.256685],[-85.529141,36.25664],[-85.529002,36.256605],[-85.52885,36.256581],[-85.528733,36.256572],[-85.528339,36.256557],[-85.527952,36.256536],[-85.527593,36.25651],[-85.527094,36.256466],[-85.526763,36.256447],[-85.526779,36.257846]]]}},{"type":"Feature","id":"47141:071010    01400","properties":{"id":"47141:071010    01400","parcelId":"071010    01400","countyFips":"47141","countyName":"Putnam","state":"Tennessee","marketIds":["Nashville"],"situsAddress":"DRY CREEK RD 1758","situsCity":null,"situsZip":null,"jurisdictionCode":null,"ownerName":"ENSOR DALE & GINGER JOINT","ownerName2":"REVOCABLE LIVING TRUST","propertyName":null,"zoningCode":null,"zoningDistrict":null,"jurisdictionPrefix":null,"dorCode":null,"acreage":7.3345,"centroid":[-85.530498,36.256495],"lastSale":{"date":"1991-03-20","price":null,"qualified":null,"vintage":"2023"},"tax":{"marketValue":294400.0,"assessedValue":null,"taxableValue":null,"taxes":null,"vintage":"2023"},"mailingAddress":{"line1":null,"line2":null,"city":null,"state":null,"zip":null},"incomeTract":null,"incomeBlockGroup":null,"nearestRoad":null,"flu":null,"opportunityZone":null,"oz2Eligibility":null,"source":"tn-oir-public-use-47141","appraiserUrl":"https://assessment.cot.tn.gov/TPAD/Parcel/GIS?gislink=071010%20%20%20%2001400"},"geometry":{"type":"Polygon","coordinates":[[[-85.529282,36.256537],[-85.529388,36.256577],[-85.529858,36.256776],[-85.530249,36.25693],[-85.530669,36.257085],[-85.531097,36.257231],[-85.531148,36.257172],[-85.531189,36.257108],[-85.531914,36.255708],[-85.531004,36.255447],[-85.530953,36.255727],[-85.529225,36.255638],[-85.529282,36.256537]]]}},{"type":"Feature","id":"47141:071136    00300","properties":{"id":"47141:071136    00300","parcelId":"071136    00300","countyFips":"47141","countyName":"Putnam","state":"Tennessee","marketIds":["Nashville"],"situsAddress":"TIMBER TRL 1848","situsCity":null,"situsZip":null,"jurisdictionCode":null,"ownerName":"KYLE ROBERT D","ownerName2":"ETUX SHARON L","propertyName":null,"zoningCode":null,"zoningDistrict":null,"jurisdictionPrefix":null,"dorCode":null,"acreage":7.2921,"centroid":[-85.526805,36.260121],"lastSale":{"date":"2001-09-25","price":214000.0,"qualified":null,"vintage":"2023"},"tax":{"marketValue":290400.0,"assessedValue":null,"taxableValue":null,"taxes":null,"vintage":"2023"},"mailingAddress":{"line1":null,"line2":null,"city":null,"state":null,"zip":null},"incomeTract":null,"incomeBlockGroup":null,"nearestRoad":null,"flu":null,"opportunityZone":null,"oz2Eligibility":null,"source":"tn-oir-public-use-47141","appraiserUrl":"https://assessment.cot.tn.gov/TPAD/Parcel/GIS?gislink=071136%20%20%20%2000300"},"geometry":{"type":"Polygon","coordinates":[[[-85.525847,36.260943],[-85.527518,36.261061],[-85.527762,36.259301],[-85.526092,36.259178],[-85.525847,36.260943]]]}},{"type":"Feature","id":"47141:071005    03202","properties":{"id":"47141:071005    03202","parcelId":"071005    03202","countyFips":"47141","countyName":"Putnam","state":"Tennessee","marketIds":["Nashville"],"situsAddress":"DODSON BRANCH RD 7509","situsCity":null,"situsZip":null,"jurisdictionCode":null,"ownerName":"KING WANDA","ownerName2":null,"propertyName":null,"zoningCode":null,"zoningDistrict":null,"jurisdictionPrefix":null,"dorCode":null,"acreage":7.1993,"centroid":[-85.52262,36.26027],"lastSale":{"date":"2013-09-08","price":35000.0,"qualified":null,"vintage":"2023"},"tax":{"marketValue":231700.0,"assessedValue":null,"taxableValue":null,"taxes":null,"vintage":"2023"},"mailingAddress":{"line1":null,"line2":null,"city":null,"state":null,"zip":null},"incomeTract":null,"incomeBlockGroup":null,"nearestRoad":null,"flu":null,"opportunityZone":null,"oz2Eligibility":null,"source":"tn-oir-public-use-47141","appraiserUrl":"https://assessment.cot.tn.gov/TPAD/Parcel/GIS?gislink=071005%20%20%20%2003202"},"geometry":{"type":"Polygon","coordinates":[[[-85.519854,36.259811],[-85.519769,36.260516],[-85.523425,36.260686],[-85.523424,36.260572],[-85.523411,36.260468],[-85.523386,36.260364],[-85.523348,36.260261],[-85.523318,36.260198],[-85.523278,36.26013],[-85.522991,36.259697],[-85.519854,36.259811]]]}},{"type":"Feature","id":"47141:071005    01506","properties":{"id":"47141:071005    01506","parcelId":"071005    01506","countyFips":"47141","countyName":"Putnam","state":"Tennessee","marketIds":["Nashville"],"situsAddress":"S SMITH CHAPEL RD","situsCity":null,"situsZip":null,"jurisdictionCode":null,"ownerName":"HIGGENBOTHAM JASON","ownerName2":"ETUX KAREN HIGGENBOTHAM","propertyName":null,"zoningCode":null,"zoningDistrict":null,"jurisdictionPrefix":null,"dorCode":null,"acreage":6.9394,"centroid":[-85.508828,36.267704],"lastSale":{"date":"2020-04-14","price":null,"qualified":null,"vintage":"2023"},"tax":{"marketValue":61300.0,"assessedValue":null,"taxableValue":null,"taxes":null,"vintage":"2023"},"mailingAddress":{"line1":null,"line2":null,"city":null,"state":null,"zip":null},"incomeTract":null,"incomeBlockGroup":null,"nearestRoad":null,"flu":null,"opportunityZone":null,"oz2Eligibility":null,"source":"tn-oir-public-use-47141","appraiserUrl":"https://assessment.cot.tn.gov/TPAD/Parcel/GIS?gislink=071005%20%20%20%2001506"},"geometry":{"type":"Polygon","coordinates":[[[-85.507846,36.268214],[-85.508481,36.268189],[-85.508595,36.268854],[-85.508797,36.268828],[-85.50867,36.268834],[-85.508612,36.268297],[-85.50923,36.268247],[-85.509318,36.268221],[-85.5094,36.268188],[-85.509428,36.268137],[-85.509584,36.267043],[-85.509613,36.266798],[-85.509575,36.266731],[-85.509515,36.266668],[-85.507872,36.266613],[-85.507811,36.266552],[-85.507723,36.266559],[-85.507846,36.268214]]]}},{"type":"Feature","id":"47141:071010    03101","properties":{"id":"47141:071010    03101","parcelId":"071010    03101","countyFips":"47141","countyName":"Putnam","state":"Tennessee","marketIds":["Nashville"],"situsAddress":"TIMBER TRL 1756","situsCity":null,"situsZip":null,"jurisdictionCode":null,"ownerName":"WOLANIN JOHN M","ownerName2":"ETUX ASHLEY E","propertyName":null,"zoningCode":null,"zoningDistrict":null,"jurisdictionPrefix":null,"dorCode":null,"acreage":6.7432,"centroid":[-85.528766,36.253321],"lastSale":{"date":"2015-08-10","price":168000.0,"qualified":null,"vintage":"2023"},"tax":{"marketValue":240600.0,"assessedValue":null,"taxableValue":null,"taxes":null,"vintage":"2023"},"mailingAddress":{"line1":null,"line2":null,"city":null,"state":null,"zip":null},"incomeTract":null,"incomeBlockGroup":null,"nearestRoad":null,"flu":null,"opportunityZone":null,"oz2Eligibility":null,"source":"tn-oir-public-use-47141","appraiserUrl":"https://assessment.cot.tn.gov/TPAD/Parcel/GIS?gislink=071010%20%20%20%2003101"},"geometry":{"type":"Polygon","coordinates":[[[-85.528993,36.253256],[-85.528888,36.253293],[-85.528689,36.253332],[-85.528537,36.253399],[-85.52847,36.253466],[-85.528454,36.253542],[-85.528474,36.253631],[-85.52846,36.25369],[-85.528408,36.253752],[-85.528221,36.253925],[-85.528194,36.254032],[-85.528187,36.254431],[-85.528288,36.254415],[-85.528296,36.254041],[-85.528315,36.253963],[-85.528489,36.253802],[-85.528556,36.253722],[-85.528577,36.253631],[-85.528558,36.253542],[-85.528566,36.253501],[-85.528604,36.253463],[-85.528718,36.253411],[-85.528926,36.253371],[-85.529035,36.253331],[-85.529132,36.253248],[-85.529235,36.253111],[-85.529258,36.253022],[-85.529266,36.252969],[-85.529799,36.253047],[-85.530204,36.251356],[-85.530011,36.251281],[-85.529383,36.251169],[-85.528075,36.252461],[-85.528993,36.253256]]]}},{"type":"Feature","id":"47141:071010    02600","properties":{"id":"47141:071010    02600","parcelId":"071010    02600","countyFips":"47141","countyName":"Putnam","state":"Tennessee","marketIds":["Nashville"],"situsAddress":"TIMBER TRL 1789","situsCity":null,"situsZip":null,"jurisdictionCode":null,"ownerName":"HALDERSON WILLIAM A","ownerName2":"FAMILY TRUST","propertyName":null,"zoningCode":null,"zoningDistrict":null,"jurisdictionPrefix":null,"dorCode":null,"acreage":6.613,"centroid":[-85.534087,36.255769],"lastSale":{"date":"2005-03-16","price":null,"qualified":null,"vintage":"2023"},"tax":{"marketValue":334500.0,"assessedValue":null,"taxableValue":null,"taxes":null,"vintage":"2023"},"mailingAddress":{"line1":null,"line2":null,"city":null,"state":null,"zip":null},"incomeTract":null,"incomeBlockGroup":null,"nearestRoad":null,"flu":null,"opportunityZone":null,"oz2Eligibility":null,"source":"tn-oir-public-use-47141","appraiserUrl":"https://assessment.cot.tn.gov/TPAD/Parcel/GIS?gislink=071010%20%20%20%2002600"},"geometry":{"type":"Polygon","coordinates":[[[-85.532183,36.25552],[-85.534629,36.256487],[-85.534749,36.256156],[-85.535182,36.256127],[-85.535338,36.255384],[-85.53244,36.25494],[-85.532183,36.25552]]]}},{"type":"Feature","id":"47141:071010    01000","properties":{"id":"47141:071010    01000","parcelId":"071010    01000","countyFips":"47141","countyName":"Putnam","state":"Tennessee","marketIds":["Nashville"],"situsAddress":"TIMBER TRL 1800","situsCity":null,"situsZip":null,"jurisdictionCode":null,"ownerName":"SINGELTARY LEEANNE","ownerName2":"AND RICHARD SHAFFER","propertyName":null,"zoningCode":null,"zoningDistrict":null,"jurisdictionPrefix":null,"dorCode":null,"acreage":6.4446,"centroid":[-85.531459,36.258291],"lastSale":{"date":"2005-10-28","price":258625.0,"qualified":null,"vintage":"2023"},"tax":{"marketValue":306800.0,"assessedValue":null,"taxableValue":null,"taxes":null,"vintage":"2023"},"mailingAddress":{"line1":null,"line2":null,"city":null,"state":null,"zip":null},"incomeTract":null,"incomeBlockGroup":null,"nearestRoad":null,"flu":null,"opportunityZone":null,"oz2Eligibility":null,"source":"tn-oir-public-use-47141","appraiserUrl":"https://assessment.cot.tn.gov/TPAD/Parcel/GIS?gislink=071010%20%20%20%2001000"},"geometry":{"type":"Polygon","coordinates":[[[-85.531156,36.258927],[-85.533829,36.259097],[-85.531147,36.257404],[-85.530786,36.257788],[-85.530375,36.258241],[-85.531156,36.258927]]]}},{"type":"Feature","id":"47141:071009    01000","properties":{"id":"47141:071009    01000","parcelId":"071009    01000","countyFips":"47141","countyName":"Putnam","state":"Tennessee","marketIds":["Nashville"],"situsAddress":"DODSON BRANCH RD","situsCity":null,"situsZip":null,"jurisdictionCode":null,"ownerName":"BRYANT BRIAN","ownerName2":null,"propertyName":null,"zoningCode":null,"zoningDistrict":null,"jurisdictionPrefix":null,"dorCode":null,"acreage":6.3555,"centroid":[-85.52145,36.256169],"lastSale":{"date":"2022-05-11","price":149900.0,"qualified":null,"vintage":"2023"},"tax":{"marketValue":68200.0,"assessedValue":null,"taxableValue":null,"taxes":null,"vintage":"2023"},"mailingAddress":{"line1":null,"line2":null,"city":null,"state":null,"zip":null},"incomeTract":null,"incomeBlockGroup":null,"nearestRoad":null,"flu":null,"opportunityZone":null,"oz2Eligibility":null,"source":"tn-oir-public-use-47141","appraiserUrl":"https://assessment.cot.tn.gov/TPAD/Parcel/GIS?gislink=071009%20%20%20%2001000"},"geometry":{"type":"Polygon","coordinates":[[[-85.520826,36.255571],[-85.520788,36.255569],[-85.520786,36.255799],[-85.520793,36.255945],[-85.520807,36.256085],[-85.520824,36.256206],[-85.520847,36.256305],[-85.520893,36.256432],[-85.520955,36.256552],[-85.521077,36.256737],[-85.521211,36.256915],[-85.521995,36.256555],[-85.522161,36.256489],[-85.522309,36.256444],[-85.522461,36.256408],[-85.522616,36.256383],[-85.522771,36.256369],[-85.522593,36.255059],[-85.520841,36.255394],[-85.520826,36.255571]]]}},{"type":"Feature","id":"47141:071009    02207","properties":{"id":"47141:071009    02207","parcelId":"071009    02207","countyFips":"47141","countyName":"Putnam","state":"Tennessee","marketIds":["Nashville"],"situsAddress":"TIMBER TRL 1704","situsCity":null,"situsZip":null,"jurisdictionCode":null,"ownerName":"STALLARD CLINT","ownerName2":"ETUX STACCEYE STALLARD","propertyName":null,"zoningCode":null,"zoningDistrict":null,"jurisdictionPrefix":null,"dorCode":null,"acreage":6.2332,"centroid":[-85.520797,36.252873],"lastSale":{"date":"2018-05-18","price":320000.0,"qualified":null,"vintage":"2023"},"tax":{"marketValue":327800.0,"assessedValue":null,"taxableValue":null,"taxes":null,"vintage":"2023"},"mailingAddress":{"line1":null,"line2":null,"city":null,"state":null,"zip":null},"incomeTract":null,"incomeBlockGroup":null,"nearestRoad":null,"flu":null,"opportunityZone":null,"oz2Eligibility":null,"source":"tn-oir-public-use-47141","appraiserUrl":"https://assessment.cot.tn.gov/TPAD/Parcel/GIS?gislink=071009%20%20%20%2002207"},"geometry":{"type":"Polygon","coordinates":[[[-85.520188,36.253104],[-85.52026,36.253218],[-85.520379,36.253446],[-85.520645,36.25401],[-85.521854,36.253766],[-85.522044,36.253725],[-85.521465,36.251922],[-85.520846,36.252408],[-85.520882,36.25197],[-85.520258,36.25217],[-85.520262,36.252209],[-85.520482,36.252532],[-85.520188,36.253104]]]}},{"type":"Feature","id":"47141:071010    03404","properties":{"id":"47141:071010    03404","parcelId":"071010    03404","countyFips":"47141","countyName":"Putnam","state":"Tennessee","marketIds":["Nashville"],"situsAddress":"BRIERY CREEK RD 6850","situsCity":null,"situsZip":null,"jurisdictionCode":null,"ownerName":"SPOHNHOLTZ THOMAS C","ownerName2":"ETUX PATRICIA E","propertyName":null,"zoningCode":null,"zoningDistrict":null,"jurisdictionPrefix":null,"dorCode":null,"acreage":6.1728,"centroid":[-85.526414,36.250062],"lastSale":{"date":"1993-11-04","price":25000.0,"qualified":null,"vintage":"2023"},"tax":{"marketValue":287200.0,"assessedValue":null,"taxableValue":null,"taxes":null,"vintage":"2023"},"mailingAddress":{"line1":null,"line2":null,"city":null,"state":null,"zip":null},"incomeTract":null,"incomeBlockGroup":null,"nearestRoad":null,"flu":null,"opportunityZone":null,"oz2Eligibility":null,"source":"tn-oir-public-use-47141","appraiserUrl":"https://assessment.cot.tn.gov/TPAD/Parcel/GIS?gislink=071010%20%20%20%2003404"},"geometry":{"type":"Polygon","coordinates":[[[-85.525718,36.25006],[-85.527575,36.251138],[-85.528268,36.25059],[-85.528124,36.250194],[-85.527254,36.249279],[-85.525815,36.249837],[-85.525826,36.249868],[-85.52583,36.2499],[-85.525827,36.249932],[-85.525817,36.249963],[-85.5258,36.249992],[-85.525778,36.250018],[-85.52575,36.250041],[-85.525718,36.25006]]]}},{"type":"Feature","id":"47141:071009    02303","properties":{"id":"47141:071009    02303","parcelId":"071009    02303","countyFips":"47141","countyName":"Putnam","state":"Tennessee","marketIds":["Nashville"],"situsAddress":"DODSON BRANCH RD","situsCity":null,"situsZip":null,"jurisdictionCode":null,"ownerName":"TORGERSON JOHN G","ownerName2":"ETUX BARBARA A","propertyName":null,"zoningCode":null,"zoningDistrict":null,"jurisdictionPrefix":null,"dorCode":null,"acreage":6.014,"centroid":[-85.520862,36.258813],"lastSale":{"date":"1999-05-26","price":null,"qualified":null,"vintage":"2023"},"tax":{"marketValue":69700.0,"assessedValue":null,"taxableValue":null,"taxes":null,"vintage":"2023"},"mailingAddress":{"line1":null,"line2":null,"city":null,"state":null,"zip":null},"incomeTract":null,"incomeBlockGroup":null,"nearestRoad":null,"flu":null,"opportunityZone":null,"oz2Eligibility":null,"source":"tn-oir-public-use-47141","appraiserUrl":"https://assessment.cot.tn.gov/TPAD/Parcel/GIS?gislink=071009%20%20%20%2002303"},"geometry":{"type":"Polygon","coordinates":[[[-85.519927,36.259198],[-85.519902,36.259411],[-85.522571,36.259064],[-85.521883,36.258032],[-85.520028,36.258359],[-85.519927,36.259198]]]}},{"type":"Feature","id":"47141:071010    03102","properties":{"id":"47141:071010    03102","parcelId":"071010    03102","countyFips":"47141","countyName":"Putnam","state":"Tennessee","marketIds":["Nashville"],"situsAddress":"TIMBER TRL 1748","situsCity":null,"situsZip":null,"jurisdictionCode":null,"ownerName":"DAVID DAVID JOSIAH","ownerName2":"ETUX BROOKE MILLISON DAVID","propertyName":null,"zoningCode":null,"zoningDistrict":null,"jurisdictionPrefix":null,"dorCode":null,"acreage":5.9643,"centroid":[-85.527912,36.253882],"lastSale":{"date":"2022-04-07","price":675000.0,"qualified":null,"vintage":"2023"},"tax":{"marketValue":585800.0,"assessedValue":null,"taxableValue":null,"taxes":null,"vintage":"2023"},"mailingAddress":{"line1":null,"line2":null,"city":null,"state":null,"zip":null},"incomeTract":null,"incomeBlockGroup":null,"nearestRoad":null,"flu":null,"opportunityZone":null,"oz2Eligibility":null,"source":"tn-oir-public-use-47141","appraiserUrl":"https://assessment.cot.tn.gov/TPAD/Parcel/GIS?gislink=071010%20%20%20%2003102"},"geometry":{"type":"Polygon","coordinates":[[[-85.526414,36.2541],[-85.526568,36.25417],[-85.526731,36.254224],[-85.526821,36.254246],[-85.527059,36.254296],[-85.52731,36.254356],[-85.52744,36.254383],[-85.527657,36.254417],[-85.527886,36.254438],[-85.528035,36.254442],[-85.528187,36.254431],[-85.528194,36.254032],[-85.528221,36.253925],[-85.528408,36.253752],[-85.52846,36.25369],[-85.528474,36.253631],[-85.528454,36.253542],[-85.52847,36.253466],[-85.528537,36.253399],[-85.528689,36.253332],[-85.528888,36.253293],[-85.528993,36.253256],[-85.528075,36.252461],[-85.526414,36.2541]]]}},{"type":"Feature","id":"47141:071010    02300","properties":{"id":"47141:071010    02300","parcelId":"071010    02300","countyFips":"47141","countyName":"Putnam","state":"Tennessee","marketIds":["Nashville"],"situsAddress":"TIMBER TRL","situsCity":null,"situsZip":null,"jurisdictionCode":null,"ownerName":"ENSOR DALE & GINGER JOINT","ownerName2":"REVOCABLE LIVING TRUST","propertyName":null,"zoningCode":null,"zoningDistrict":null,"jurisdictionPrefix":null,"dorCode":null,"acreage":5.6455,"centroid":[-85.530459,36.254593],"lastSale":{"date":"1999-10-20","price":30000.0,"qualified":null,"vintage":"2023"},"tax":{"marketValue":45900.0,"assessedValue":null,"taxableValue":null,"taxes":null,"vintage":"2023"},"mailingAddress":{"line1":null,"line2":null,"city":null,"state":null,"zip":null},"incomeTract":null,"incomeBlockGroup":null,"nearestRoad":null,"flu":null,"opportunityZone":null,"oz2Eligibility":null,"source":"tn-oir-public-use-47141","appraiserUrl":"https://assessment.cot.tn.gov/TPAD/Parcel/GIS?gislink=071010%20%20%20%2002300"},"geometry":{"type":"Polygon","coordinates":[[[-85.529225,36.255638],[-85.530953,36.255727],[-85.531226,36.25423],[-85.531161,36.254282],[-85.531091,36.254329],[-85.531022,36.254369],[-85.530943,36.254406],[-85.530864,36.254437],[-85.530778,36.254464],[-85.530694,36.254484],[-85.530604,36.254499],[-85.530514,36.254507],[-85.530196,36.254524],[-85.529685,36.254538],[-85.529352,36.254535],[-85.52904,36.254519],[-85.529225,36.255638]]]}},{"type":"Feature","id":"47141:071009    01200","properties":{"id":"47141:071009    01200","parcelId":"071009    01200","countyFips":"47141","countyName":"Putnam","state":"Tennessee","marketIds":["Nashville"],"situsAddress":"TIMBER TRL 1703","situsCity":null,"situsZip":null,"jurisdictionCode":null,"ownerName":"HOPSON L D","ownerName2":"AND ANNA B HOPSON","propertyName":null,"zoningCode":null,"zoningDistrict":null,"jurisdictionPrefix":null,"dorCode":null,"acreage":5.2216,"centroid":[-85.521227,36.254542],"lastSale":{"date":"2007-01-09","price":null,"qualified":null,"vintage":"2023"},"tax":{"marketValue":308800.0,"assessedValue":null,"taxableValue":null,"taxes":null,"vintage":"2023"},"mailingAddress":{"line1":null,"line2":null,"city":null,"state":null,"zip":null},"incomeTract":null,"incomeBlockGroup":null,"nearestRoad":null,"flu":null,"opportunityZone":null,"oz2Eligibility":null,"source":"tn-oir-public-use-47141","appraiserUrl":"https://assessment.cot.tn.gov/TPAD/Parcel/GIS?gislink=071009%20%20%20%2001200"},"geometry":{"type":"Polygon","coordinates":[[[-85.521895,36.2539],[-85.520707,36.254139],[-85.520768,36.254278],[-85.520818,36.254423],[-85.520854,36.254562],[-85.520875,36.254697],[-85.520882,36.254801],[-85.520881,36.254905],[-85.520841,36.255394],[-85.522593,36.255059],[-85.522384,36.253799],[-85.521895,36.2539]]]}},{"type":"Feature","id":"47141:071005    03203","properties":{"id":"47141:071005    03203","parcelId":"071005    03203","countyFips":"47141","countyName":"Putnam","state":"Tennessee","marketIds":["Nashville"],"situsAddress":"HORNER RD 819","situsCity":null,"situsZip":null,"jurisdictionCode":null,"ownerName":"BROWN CHRISTOPHER SCOTT","ownerName2":"ETUX ELIZABETH MARIE BROWN","propertyName":null,"zoningCode":null,"zoningDistrict":null,"jurisdictionPrefix":null,"dorCode":null,"acreage":5.1624,"centroid":[-85.50353,36.261321],"lastSale":{"date":"1990-12-14","price":null,"qualified":null,"vintage":"2023"},"tax":{"marketValue":160300.0,"assessedValue":null,"taxableValue":null,"taxes":null,"vintage":"2023"},"mailingAddress":{"line1":null,"line2":null,"city":null,"state":null,"zip":null},"incomeTract":null,"incomeBlockGroup":null,"nearestRoad":null,"flu":null,"opportunityZone":null,"oz2Eligibility":null,"source":"tn-oir-public-use-47141","appraiserUrl":"https://assessment.cot.tn.gov/TPAD/Parcel/GIS?gislink=071005%20%20%20%2003203"},"geometry":{"type":"Polygon","coordinates":[[[-85.502543,36.261896],[-85.504306,36.261911],[-85.504559,36.260746],[-85.502713,36.260731],[-85.502543,36.261896]]]}}]}