{"type":"FeatureCollection","name":"37145-15_36","features":[{"type":"Feature","id":"37145:9950-00-99-0265.000","properties":{"id":"37145:9950-00-99-0265.000","parcelId":"9950-00-99-0265.000","countyFips":"37145","countyName":"Person","state":"North Carolina","marketIds":["Raleigh-Durham"],"situsAddress":"ART RD","situsCity":null,"situsZip":null,"jurisdictionCode":null,"ownerName":"TERRY J R ESTATE","ownerName2":null,"propertyName":null,"zoningCode":null,"zoningDistrict":null,"jurisdictionPrefix":null,"dorCode":null,"acreage":123.54,"centroid":[-79.137694,36.247848],"lastSale":{"date":null,"price":null,"qualified":null},"tax":{"marketValue":637095.0,"assessedValue":637095.0,"taxableValue":null,"taxes":null},"mailingAddress":{"line1":null,"line2":null,"city":null,"state":null,"zip":null},"incomeTract":null,"incomeBlockGroup":null,"nearestRoad":null,"flu":null,"opportunityZone":null,"oz2Eligibility":null,"source":"nc-onemap-37145"},"geometry":{"type":"Polygon","coordinates":[[[-79.1338,36.24539],[-79.14282,36.24538],[-79.14412,36.25063],[-79.13389,36.25055],[-79.13384,36.24729],[-79.1338,36.24539]]]}},{"type":"Feature","id":"37145:9960-00-98-6676.000","properties":{"id":"37145:9960-00-98-6676.000","parcelId":"9960-00-98-6676.000","countyFips":"37145","countyName":"Person","state":"North Carolina","marketIds":["Raleigh-Durham"],"situsAddress":"13204 HURDLE MILLS RD","situsCity":null,"situsZip":null,"jurisdictionCode":null,"ownerName":"BRADSHER & WRENN LLC","ownerName2":null,"propertyName":null,"zoningCode":null,"zoningDistrict":null,"jurisdictionPrefix":null,"dorCode":null,"acreage":120.34,"centroid":[-79.103196,36.247811],"lastSale":{"date":null,"price":null,"qualified":null},"tax":{"marketValue":277060.0,"assessedValue":764250.0,"taxableValue":null,"taxes":null},"mailingAddress":{"line1":null,"line2":null,"city":null,"state":null,"zip":null},"incomeTract":null,"incomeBlockGroup":null,"nearestRoad":null,"flu":null,"opportunityZone":null,"oz2Eligibility":null,"source":"nc-onemap-37145"},"geometry":{"type":"Polygon","coordinates":[[[-79.0995,36.24942],[-79.09952,36.24517],[-79.10369,36.24542],[-79.10592,36.24523],[-79.10603,36.2489],[-79.10587,36.24931],[-79.10554,36.24962],[-79.0995,36.24942],[-79.0995,36.24942]],[[-79.10172,36.24163],[-79.1058,36.24159],[-79.106,36.24504],[-79.10396,36.24525],[-79.10042,36.24506],[-79.1004,36.24396],[-79.09951,36.2439],[-79.09947,36.24165],[-79.10172,36.24163]]]}},{"type":"Feature","id":"37145:9960-00-78-8248.000","properties":{"id":"37145:9960-00-78-8248.000","parcelId":"9960-00-78-8248.000","countyFips":"37145","countyName":"Person","state":"North Carolina","marketIds":["Raleigh-Durham"],"situsAddress":"13599 HURDLE MILLS RD","situsCity":null,"situsZip":null,"jurisdictionCode":null,"ownerName":"FREELAND BETTY J M TRUSTEE","ownerName2":null,"propertyName":null,"zoningCode":null,"zoningDistrict":null,"jurisdictionPrefix":null,"dorCode":null,"acreage":114.53,"centroid":[-79.109528,36.246296],"lastSale":{"date":null,"price":null,"qualified":null},"tax":{"marketValue":294531.0,"assessedValue":741365.0,"taxableValue":null,"taxes":null},"mailingAddress":{"line1":null,"line2":null,"city":null,"state":null,"zip":null},"incomeTract":null,"incomeBlockGroup":null,"nearestRoad":null,"flu":null,"opportunityZone":null,"oz2Eligibility":null,"source":"nc-onemap-37145"},"geometry":{"type":"Polygon","coordinates":[[[-79.11191,36.24232],[-79.11208,36.2422],[-79.11232,36.24707],[-79.11158,36.24708],[-79.11163,36.24963],[-79.10692,36.24969],[-79.10689,36.24911],[-79.10619,36.2491],[-79.10612,36.24518],[-79.10889,36.24433],[-79.11028,36.24355],[-79.11191,36.24232]],[[-79.1058,36.24159],[-79.11205,36.24154],[-79.11206,36.24198],[-79.10959,36.24378],[-79.10803,36.24446],[-79.106,36.24504],[-79.1058,36.24159]]]}},{"type":"Feature","id":"37145:9990-01-27-0847.000","properties":{"id":"37145:9990-01-27-0847.000","parcelId":"9990-01-27-0847.000","countyFips":"37145","countyName":"Person","state":"North Carolina","marketIds":["Raleigh-Durham"],"situsAddress":"2828 BERRY PEARCE RD","situsCity":null,"situsZip":null,"jurisdictionCode":null,"ownerName":"THE JOSEPH REVOCABLE LIVING TRUST","ownerName2":null,"propertyName":null,"zoningCode":null,"zoningDistrict":null,"jurisdictionPrefix":null,"dorCode":null,"acreage":110.83,"centroid":[-79.02613,36.245238],"lastSale":{"date":null,"price":null,"qualified":null},"tax":{"marketValue":214395.0,"assessedValue":758108.0,"taxableValue":null,"taxes":null},"mailingAddress":{"line1":null,"line2":null,"city":null,"state":null,"zip":null},"incomeTract":null,"incomeBlockGroup":null,"nearestRoad":null,"flu":null,"opportunityZone":null,"oz2Eligibility":null,"source":"nc-onemap-37145"},"geometry":{"type":"Polygon","coordinates":[[[-79.02259,36.24288],[-79.02265,36.24226],[-79.03248,36.24242],[-79.03239,36.24463],[-79.02942,36.24467],[-79.02937,36.24648],[-79.02642,36.24654],[-79.02645,36.24822],[-79.02158,36.2482],[-79.02149,36.24838],[-79.02259,36.24294],[-79.02259,36.24288]]]}},{"type":"Feature","id":"37145:9970-00-67-3868.000","properties":{"id":"37145:9970-00-67-3868.000","parcelId":"9970-00-67-3868.000","countyFips":"37145","countyName":"Person","state":"North Carolina","marketIds":["Raleigh-Durham"],"situsAddress":"12091 HURDLE MILLS RD","situsCity":null,"situsZip":null,"jurisdictionCode":null,"ownerName":"LONG BARBARA EIDSON","ownerName2":null,"propertyName":null,"zoningCode":null,"zoningDistrict":null,"jurisdictionPrefix":null,"dorCode":null,"acreage":95.43,"centroid":[-79.081741,36.247335],"lastSale":{"date":null,"price":null,"qualified":null},"tax":{"marketValue":31584.0,"assessedValue":481762.0,"taxableValue":null,"taxes":null},"mailingAddress":{"line1":null,"line2":null,"city":null,"state":null,"zip":null},"incomeTract":null,"incomeBlockGroup":null,"nearestRoad":null,"flu":null,"opportunityZone":null,"oz2Eligibility":null,"source":"nc-onemap-37145"},"geometry":{"type":"Polygon","coordinates":[[[-79.08359,36.24989],[-79.08242,36.2499],[-79.08236,36.24947],[-79.08141,36.24952],[-79.08135,36.24611],[-79.07687,36.24615],[-79.07682,36.24137],[-79.08315,36.24134],[-79.08333,36.24707],[-79.08426,36.24998],[-79.08359,36.24989],[-79.08359,36.24989]]]}},{"type":"Feature","id":"37145:9980-00-68-5842.000","properties":{"id":"37145:9980-00-68-5842.000","parcelId":"9980-00-68-5842.000","countyFips":"37145","countyName":"Person","state":"North Carolina","marketIds":["Raleigh-Durham"],"situsAddress":"WOLFE RD","situsCity":null,"situsZip":null,"jurisdictionCode":null,"ownerName":"THE HOMEPLACE","ownerName2":null,"propertyName":null,"zoningCode":null,"zoningDistrict":null,"jurisdictionPrefix":null,"dorCode":null,"acreage":83.62,"centroid":[-79.046725,36.248603],"lastSale":{"date":null,"price":null,"qualified":null},"tax":{"marketValue":45066.0,"assessedValue":499099.0,"taxableValue":null,"taxes":null},"mailingAddress":{"line1":null,"line2":null,"city":null,"state":null,"zip":null},"incomeTract":null,"incomeBlockGroup":null,"nearestRoad":null,"flu":null,"opportunityZone":null,"oz2Eligibility":null,"source":"nc-onemap-37145"},"geometry":{"type":"Polygon","coordinates":[[[-79.04231,36.24949],[-79.04247,36.24434],[-79.04879,36.24441],[-79.0489,36.24819],[-79.04878,36.24983],[-79.04855,36.24926],[-79.04787,36.24929],[-79.0478,36.24893],[-79.0476,36.24895],[-79.04788,36.24989],[-79.04648,36.24997],[-79.04636,36.24973],[-79.04364,36.24956],[-79.04231,36.24949]]]}},{"type":"Feature","id":"37145:9970-00-69-8026.000","properties":{"id":"37145:9970-00-69-8026.000","parcelId":"9970-00-69-8026.000","countyFips":"37145","countyName":"Person","state":"North Carolina","marketIds":["Raleigh-Durham"],"situsAddress":"HURDLE MILLS RD","situsCity":null,"situsZip":null,"jurisdictionCode":null,"ownerName":"PAGE WILLIAM G","ownerName2":null,"propertyName":null,"zoningCode":null,"zoningDistrict":null,"jurisdictionPrefix":null,"dorCode":null,"acreage":79.36,"centroid":[-79.078347,36.247565],"lastSale":{"date":null,"price":null,"qualified":null},"tax":{"marketValue":27033.0,"assessedValue":447935.0,"taxableValue":null,"taxes":null},"mailingAddress":{"line1":null,"line2":null,"city":null,"state":null,"zip":null},"incomeTract":null,"incomeBlockGroup":null,"nearestRoad":null,"flu":null,"opportunityZone":null,"oz2Eligibility":null,"source":"nc-onemap-37145"},"geometry":{"type":"Polygon","coordinates":[[[-79.08135,36.24611],[-79.08141,36.24952],[-79.08119,36.24953],[-79.08105,36.25019],[-79.079,36.25079],[-79.079,36.25049],[-79.07696,36.25051],[-79.07688,36.2474],[-79.07485,36.24738],[-79.07479,36.24134],[-79.07682,36.24137],[-79.07687,36.24615],[-79.08135,36.24611]],[[-79.07915,36.25092],[-79.08142,36.25026],[-79.08143,36.25086],[-79.08114,36.25087],[-79.07915,36.25092]]]}},{"type":"Feature","id":"37145:9970-00-87-6835.000","properties":{"id":"37145:9970-00-87-6835.000","parcelId":"9970-00-87-6835.000","countyFips":"37145","countyName":"Person","state":"North Carolina","marketIds":["Raleigh-Durham"],"situsAddress":"WALNUT GROVE CHURCH RD","situsCity":null,"situsZip":null,"jurisdictionCode":null,"ownerName":"HARRIS JUDY ESTATE","ownerName2":null,"propertyName":null,"zoningCode":null,"zoningDistrict":null,"jurisdictionPrefix":null,"dorCode":null,"acreage":69.57,"centroid":[-79.071867,36.24426],"lastSale":{"date":null,"price":null,"qualified":null},"tax":{"marketValue":405865.0,"assessedValue":405865.0,"taxableValue":null,"taxes":null},"mailingAddress":{"line1":null,"line2":null,"city":null,"state":null,"zip":null},"incomeTract":null,"incomeBlockGroup":null,"nearestRoad":null,"flu":null,"opportunityZone":null,"oz2Eligibility":null,"source":"nc-onemap-37145"},"geometry":{"type":"Polygon","coordinates":[[[-79.07008,36.24363],[-79.07132,36.2413],[-79.07479,36.24134],[-79.07485,36.24738],[-79.07009,36.24737],[-79.07007,36.24454],[-79.07008,36.24363]],[[-79.0703,36.24275],[-79.07008,36.24319],[-79.07008,36.24128],[-79.07108,36.24134],[-79.0703,36.24275]]]}},{"type":"Feature","id":"37145:9960-00-69-2358.000","properties":{"id":"37145:9960-00-69-2358.000","parcelId":"9960-00-69-2358.000","countyFips":"37145","countyName":"Person","state":"North Carolina","marketIds":["Raleigh-Durham"],"situsAddress":"2425 WHEELERS CHURCH RD","situsCity":null,"situsZip":null,"jurisdictionCode":null,"ownerName":"TERRY BERTHA P ESTATE","ownerName2":null,"propertyName":null,"zoningCode":null,"zoningDistrict":null,"jurisdictionPrefix":null,"dorCode":null,"acreage":69.49,"centroid":[-79.114621,36.249626],"lastSale":{"date":null,"price":null,"qualified":null},"tax":{"marketValue":190486.0,"assessedValue":534088.0,"taxableValue":null,"taxes":null},"mailingAddress":{"line1":null,"line2":null,"city":null,"state":null,"zip":null},"incomeTract":null,"incomeBlockGroup":null,"nearestRoad":null,"flu":null,"opportunityZone":null,"oz2Eligibility":null,"source":"nc-onemap-37145"},"geometry":{"type":"Polygon","coordinates":[[[-79.11731,36.24698],[-79.11707,36.2499],[-79.11669,36.25194],[-79.1166,36.25192],[-79.11651,36.25218],[-79.11188,36.24993],[-79.11163,36.24963],[-79.11158,36.24708],[-79.11232,36.24707],[-79.11731,36.24698]],[[-79.11751,36.24718],[-79.11988,36.24754],[-79.11913,36.24869],[-79.11914,36.25064],[-79.1172,36.25034],[-79.11751,36.24725],[-79.11751,36.24718]]]}},{"type":"Feature","id":"37145:9990-00-78-6539.000","properties":{"id":"37145:9990-00-78-6539.000","parcelId":"9990-00-78-6539.000","countyFips":"37145","countyName":"Person","state":"North Carolina","marketIds":["Raleigh-Durham"],"situsAddress":"1281 WILLIE GRAY RD","situsCity":null,"situsZip":null,"jurisdictionCode":null,"ownerName":"HAWKINS DORIS GRAY","ownerName2":null,"propertyName":null,"zoningCode":null,"zoningDistrict":null,"jurisdictionPrefix":null,"dorCode":null,"acreage":60.37,"centroid":[-79.007102,36.246383],"lastSale":{"date":null,"price":null,"qualified":null},"tax":{"marketValue":18449.0,"assessedValue":529997.0,"taxableValue":null,"taxes":null},"mailingAddress":{"line1":null,"line2":null,"city":null,"state":null,"zip":null},"incomeTract":null,"incomeBlockGroup":null,"nearestRoad":null,"flu":null,"opportunityZone":null,"oz2Eligibility":null,"source":"nc-onemap-37145"},"geometry":{"type":"Polygon","coordinates":[[[-79.00967,36.24673],[-79.00963,36.24704],[-79.0069,36.24717],[-79.00681,36.24651],[-79.0061,36.24654],[-79.00619,36.24721],[-79.00418,36.24734],[-79.00353,36.24793],[-79.00343,36.24427],[-79.00814,36.24403],[-79.00828,36.24592],[-79.00976,36.24591],[-79.00971,36.24638],[-79.00967,36.24673]],[[-79.01184,36.24689],[-79.01249,36.24748],[-79.0125,36.24831],[-79.01228,36.24881],[-79.01251,36.24926],[-79.01231,36.24965],[-79.01224,36.25045],[-79.00994,36.25052],[-79.00986,36.2472],[-79.01056,36.2471],[-79.01153,36.2467],[-79.01184,36.24689]]]}},{"type":"Feature","id":"37145:9990-02-48-9710.000","properties":{"id":"37145:9990-02-48-9710.000","parcelId":"9990-02-48-9710.000","countyFips":"37145","countyName":"Person","state":"North Carolina","marketIds":["Raleigh-Durham"],"situsAddress":"BERRY PEARCE RD","situsCity":null,"situsZip":null,"jurisdictionCode":null,"ownerName":"BATTLE KIMBERLY JO","ownerName2":null,"propertyName":null,"zoningCode":null,"zoningDistrict":null,"jurisdictionPrefix":null,"dorCode":null,"acreage":57.95,"centroid":[-79.01612,36.247121],"lastSale":{"date":null,"price":null,"qualified":null},"tax":{"marketValue":360574.0,"assessedValue":360574.0,"taxableValue":null,"taxes":null},"mailingAddress":{"line1":null,"line2":null,"city":null,"state":null,"zip":null},"incomeTract":null,"incomeBlockGroup":null,"nearestRoad":null,"flu":null,"opportunityZone":null,"oz2Eligibility":null,"source":"nc-onemap-37145"},"geometry":{"type":"Polygon","coordinates":[[[-79.01324,36.24587],[-79.0145,36.24548],[-79.02189,36.24537],[-79.02129,36.24825],[-79.02056,36.24785],[-79.01989,36.24768],[-79.01858,36.24809],[-79.01852,36.2483],[-79.0125,36.24829],[-79.01249,36.24748],[-79.01271,36.2471],[-79.01305,36.24707],[-79.01324,36.24692],[-79.01322,36.24594],[-79.01324,36.24587]]]}},{"type":"Feature","id":"37145:9950-00-68-7148.000","properties":{"id":"37145:9950-00-68-7148.000","parcelId":"9950-00-68-7148.000","countyFips":"37145","countyName":"Person","state":"North Carolina","marketIds":["Raleigh-Durham"],"situsAddress":"1802 HENSLEY RD","situsCity":null,"situsZip":null,"jurisdictionCode":null,"ownerName":"HARRIS LYNDEN L","ownerName2":null,"propertyName":null,"zoningCode":null,"zoningDistrict":null,"jurisdictionPrefix":null,"dorCode":null,"acreage":56.02,"centroid":[-79.147624,36.246513],"lastSale":{"date":null,"price":null,"qualified":null},"tax":{"marketValue":300492.0,"assessedValue":440684.0,"taxableValue":null,"taxes":null},"mailingAddress":{"line1":null,"line2":null,"city":null,"state":null,"zip":null},"incomeTract":null,"incomeBlockGroup":null,"nearestRoad":null,"flu":null,"opportunityZone":null,"oz2Eligibility":null,"source":"nc-onemap-37145"},"geometry":{"type":"Polygon","coordinates":[[[-79.1454,36.24565],[-79.14378,36.24541],[-79.14346,36.24447],[-79.14303,36.24457],[-79.14291,36.24407],[-79.14545,36.2434],[-79.1448,36.2424],[-79.14583,36.24213],[-79.14636,36.24304],[-79.14727,36.24421],[-79.14925,36.24466],[-79.1494,36.24523],[-79.14987,36.24575],[-79.14999,36.24606],[-79.14972,36.24609],[-79.14944,36.24686],[-79.14948,36.24747],[-79.14984,36.24799],[-79.14983,36.24826],[-79.15024,36.24857],[-79.15045,36.24891],[-79.15,36.2491],[-79.14949,36.24955],[-79.1497,36.25033],[-79.15014,36.2506],[-79.14912,36.25063],[-79.1485,36.24872],[-79.14694,36.24813],[-79.14736,36.24735],[-79.14602,36.24643],[-79.14549,36.2463],[-79.14542,36.24609],[-79.1454,36.24565]]]}},{"type":"Feature","id":"37145:9980-00-07-7508.000","properties":{"id":"37145:9980-00-07-7508.000","parcelId":"9980-00-07-7508.000","countyFips":"37145","countyName":"Person","state":"North Carolina","marketIds":["Raleigh-Durham"],"situsAddress":"WALNUT GROVE CHURCH RD","situsCity":null,"situsZip":null,"jurisdictionCode":null,"ownerName":"FLOWERS BRENDA NORRIS","ownerName2":null,"propertyName":null,"zoningCode":null,"zoningDistrict":null,"jurisdictionPrefix":null,"dorCode":null,"acreage":55.71,"centroid":[-79.065161,36.245741],"lastSale":{"date":null,"price":null,"qualified":null},"tax":{"marketValue":26706.0,"assessedValue":297719.0,"taxableValue":null,"taxes":null},"mailingAddress":{"line1":null,"line2":null,"city":null,"state":null,"zip":null},"incomeTract":null,"incomeBlockGroup":null,"nearestRoad":null,"flu":null,"opportunityZone":null,"oz2Eligibility":null,"source":"nc-onemap-37145"},"geometry":{"type":"Polygon","coordinates":[[[-79.06193,36.2411],[-79.06555,36.24108],[-79.06567,36.24597],[-79.06893,36.24548],[-79.06822,36.24692],[-79.068,36.24691],[-79.06747,36.24637],[-79.06631,36.246],[-79.0652,36.24615],[-79.06493,36.2457],[-79.06371,36.24613],[-79.06407,36.24723],[-79.06348,36.24742],[-79.06198,36.24744],[-79.06197,36.24622],[-79.06193,36.2411]]]}},{"type":"Feature","id":"37145:9960-00-68-0274.000","properties":{"id":"37145:9960-00-68-0274.000","parcelId":"9960-00-68-0274.000","countyFips":"37145","countyName":"Person","state":"North Carolina","marketIds":["Raleigh-Durham"],"situsAddress":"13966 HURDLE MILLS RD","situsCity":null,"situsZip":null,"jurisdictionCode":null,"ownerName":"BENNETT JACK KISER JR","ownerName2":null,"propertyName":null,"zoningCode":null,"zoningDistrict":null,"jurisdictionPrefix":null,"dorCode":null,"acreage":55.31,"centroid":[-79.115209,36.243621],"lastSale":{"date":null,"price":null,"qualified":null},"tax":{"marketValue":367308.0,"assessedValue":364908.0,"taxableValue":null,"taxes":null},"mailingAddress":{"line1":null,"line2":null,"city":null,"state":null,"zip":null},"incomeTract":null,"incomeBlockGroup":null,"nearestRoad":null,"flu":null,"opportunityZone":null,"oz2Eligibility":null,"source":"nc-onemap-37145"},"geometry":{"type":"Polygon","coordinates":[[[-79.11232,36.24707],[-79.11208,36.2422],[-79.11251,36.24187],[-79.11522,36.24383],[-79.11707,36.24159],[-79.11802,36.2416],[-79.11714,36.24383],[-79.11731,36.24698],[-79.11232,36.24707]],[[-79.11206,36.24198],[-79.11205,36.24154],[-79.11236,36.24176],[-79.11207,36.24197],[-79.11206,36.24198]]]}},{"type":"Feature","id":"37145:9950-00-79-1320.000","properties":{"id":"37145:9950-00-79-1320.000","parcelId":"9950-00-79-1320.000","countyFips":"37145","countyName":"Person","state":"North Carolina","marketIds":["Raleigh-Durham"],"situsAddress":"ART RD","situsCity":null,"situsZip":null,"jurisdictionCode":null,"ownerName":"HOWERTON JOANNE B","ownerName2":null,"propertyName":null,"zoningCode":null,"zoningDistrict":null,"jurisdictionPrefix":null,"dorCode":null,"acreage":53.95,"centroid":[-79.145246,36.246433],"lastSale":{"date":null,"price":null,"qualified":null},"tax":{"marketValue":20897.0,"assessedValue":377087.0,"taxableValue":null,"taxes":null},"mailingAddress":{"line1":null,"line2":null,"city":null,"state":null,"zip":null},"incomeTract":null,"incomeBlockGroup":null,"nearestRoad":null,"flu":null,"opportunityZone":null,"oz2Eligibility":null,"source":"nc-onemap-37145"},"geometry":{"type":"Polygon","coordinates":[[[-79.14542,36.24609],[-79.14549,36.2463],[-79.14602,36.24643],[-79.14736,36.24735],[-79.14694,36.24813],[-79.1485,36.24872],[-79.14912,36.25063],[-79.14412,36.25063],[-79.1422,36.24286],[-79.14261,36.24282],[-79.14303,36.24457],[-79.14346,36.24447],[-79.14378,36.24541],[-79.1454,36.24565],[-79.14542,36.24609]]]}},{"type":"Feature","id":"37145:9980-00-27-3854.000","properties":{"id":"37145:9980-00-27-3854.000","parcelId":"9980-00-27-3854.000","countyFips":"37145","countyName":"Person","state":"North Carolina","marketIds":["Raleigh-Durham"],"situsAddress":"RUDYS FARM RD","situsCity":null,"situsZip":null,"jurisdictionCode":null,"ownerName":"BRADSHER NOEL KEITH","ownerName2":null,"propertyName":null,"zoningCode":null,"zoningDistrict":null,"jurisdictionPrefix":null,"dorCode":null,"acreage":52.76,"centroid":[-79.059401,36.244454],"lastSale":{"date":null,"price":null,"qualified":null},"tax":{"marketValue":14310.0,"assessedValue":172954.0,"taxableValue":null,"taxes":null},"mailingAddress":{"line1":null,"line2":null,"city":null,"state":null,"zip":null},"incomeTract":null,"incomeBlockGroup":null,"nearestRoad":null,"flu":null,"opportunityZone":null,"oz2Eligibility":null,"source":"nc-onemap-37145"},"geometry":{"type":"MultiPolygon","coordinates":[[[[-79.05874,36.24092],[-79.06193,36.2411],[-79.06199,36.24752],[-79.05774,36.24752],[-79.05766,36.24576],[-79.05894,36.24578],[-79.05881,36.24258],[-79.05874,36.24092]]],[[[-79.06079,36.24431],[-79.0618,36.24433],[-79.06182,36.24379],[-79.0608,36.24376],[-79.06079,36.24431]]],[[[-79.06182,36.24362],[-79.06185,36.2428],[-79.06117,36.24278],[-79.06115,36.24361],[-79.06182,36.24362]]],[[[-79.06029,36.24276],[-79.06028,36.24304],[-79.06062,36.24304],[-79.0606,36.24359],[-79.06094,36.2436],[-79.06097,36.24278],[-79.06029,36.24276]]]]}},{"type":"Feature","id":"37145:9960-00-07-2929.000","properties":{"id":"37145:9960-00-07-2929.000","parcelId":"9960-00-07-2929.000","countyFips":"37145","countyName":"Person","state":"North Carolina","marketIds":["Raleigh-Durham"],"situsAddress":"1880 JONES RD","situsCity":null,"situsZip":null,"jurisdictionCode":null,"ownerName":"TALL FARMS LLC","ownerName2":null,"propertyName":null,"zoningCode":null,"zoningDistrict":null,"jurisdictionPrefix":null,"dorCode":null,"acreage":50.45,"centroid":[-79.133548,36.245562],"lastSale":{"date":null,"price":null,"qualified":null},"tax":{"marketValue":134972.0,"assessedValue":436203.0,"taxableValue":null,"taxes":null},"mailingAddress":{"line1":null,"line2":null,"city":null,"state":null,"zip":null},"incomeTract":null,"incomeBlockGroup":null,"nearestRoad":null,"flu":null,"opportunityZone":null,"oz2Eligibility":null,"source":"nc-onemap-37145"},"geometry":{"type":"Polygon","coordinates":[[[-79.13115,36.24597],[-79.13236,36.24647],[-79.13298,36.24548],[-79.13176,36.24497],[-79.13275,36.24374],[-79.1397,36.24296],[-79.13971,36.24538],[-79.1338,36.24539],[-79.13384,36.24729],[-79.12999,36.24735],[-79.13099,36.24618],[-79.13115,36.24597]]]}},{"type":"Feature","id":"37145:9960-00-39-3601.000","properties":{"id":"37145:9960-00-39-3601.000","parcelId":"9960-00-39-3601.000","countyFips":"37145","countyName":"Person","state":"North Carolina","marketIds":["Raleigh-Durham"],"situsAddress":"JONES RD","situsCity":null,"situsZip":null,"jurisdictionCode":null,"ownerName":"JONES LINWOOD C JR","ownerName2":null,"propertyName":null,"zoningCode":null,"zoningDistrict":null,"jurisdictionPrefix":null,"dorCode":null,"acreage":43.54,"centroid":[-79.124055,36.248812],"lastSale":{"date":null,"price":null,"qualified":null},"tax":{"marketValue":19344.0,"assessedValue":341116.0,"taxableValue":null,"taxes":null},"mailingAddress":{"line1":null,"line2":null,"city":null,"state":null,"zip":null},"incomeTract":null,"incomeBlockGroup":null,"nearestRoad":null,"flu":null,"opportunityZone":null,"oz2Eligibility":null,"source":"nc-onemap-37145"},"geometry":{"type":"Polygon","coordinates":[[[-79.12786,36.24905],[-79.12655,36.25082],[-79.12531,36.25176],[-79.12103,36.24772],[-79.12121,36.2473],[-79.12237,36.24622],[-79.12786,36.24905]]]}},{"type":"Feature","id":"37145:9980-00-09-8520.000","properties":{"id":"37145:9980-00-09-8520.000","parcelId":"9980-00-09-8520.000","countyFips":"37145","countyName":"Person","state":"North Carolina","marketIds":["Raleigh-Durham"],"situsAddress":"WALNUT GROVE CHURCH RD","situsCity":null,"situsZip":null,"jurisdictionCode":null,"ownerName":"NORRIS DENNIS L","ownerName2":null,"propertyName":null,"zoningCode":null,"zoningDistrict":null,"jurisdictionPrefix":null,"dorCode":null,"acreage":42.29,"centroid":[-79.065204,36.24863],"lastSale":{"date":null,"price":null,"qualified":null},"tax":{"marketValue":14007.0,"assessedValue":270184.0,"taxableValue":null,"taxes":null},"mailingAddress":{"line1":null,"line2":null,"city":null,"state":null,"zip":null},"incomeTract":null,"incomeBlockGroup":null,"nearestRoad":null,"flu":null,"opportunityZone":null,"oz2Eligibility":null,"source":"nc-onemap-37145"},"geometry":{"type":"MultiPolygon","coordinates":[[[[-79.06714,36.24947],[-79.06724,36.25046],[-79.06202,36.25049],[-79.06198,36.24744],[-79.06348,36.24742],[-79.06454,36.2471],[-79.06809,36.24719],[-79.06714,36.24947],[-79.06714,36.24947]]],[[[-79.06643,36.24988],[-79.06635,36.24909],[-79.06584,36.24912],[-79.06592,36.24992],[-79.06643,36.24988]]]]}},{"type":"Feature","id":"37145:9960-00-47-5493.000","properties":{"id":"37145:9960-00-47-5493.000","parcelId":"9960-00-47-5493.000","countyFips":"37145","countyName":"Person","state":"North Carolina","marketIds":["Raleigh-Durham"],"situsAddress":"2838 WHEELERS CHURCH RD","situsCity":null,"situsZip":null,"jurisdictionCode":null,"ownerName":"HESTER PATRICIA MONK","ownerName2":null,"propertyName":null,"zoningCode":null,"zoningDistrict":null,"jurisdictionPrefix":null,"dorCode":null,"acreage":41.33,"centroid":[-79.120369,36.242917],"lastSale":{"date":null,"price":null,"qualified":null},"tax":{"marketValue":44110.0,"assessedValue":296670.0,"taxableValue":null,"taxes":null},"mailingAddress":{"line1":null,"line2":null,"city":null,"state":null,"zip":null},"incomeTract":null,"incomeBlockGroup":null,"nearestRoad":null,"flu":null,"opportunityZone":null,"oz2Eligibility":null,"source":"nc-onemap-37145"},"geometry":{"type":"Polygon","coordinates":[[[-79.12272,36.24157],[-79.12278,36.24279],[-79.12248,36.24488],[-79.11736,36.24476],[-79.11742,36.24349],[-79.1183,36.24148],[-79.12152,36.24145],[-79.12272,36.24157]]]}},{"type":"Feature","id":"37145:9980-00-87-2799.000","properties":{"id":"37145:9980-00-87-2799.000","parcelId":"9980-00-87-2799.000","countyFips":"37145","countyName":"Person","state":"North Carolina","marketIds":["Raleigh-Durham"],"situsAddress":"490 JACK CHAVIS RD","situsCity":null,"situsZip":null,"jurisdictionCode":null,"ownerName":"ROWE CLYDE E JR","ownerName2":null,"propertyName":null,"zoningCode":null,"zoningDistrict":null,"jurisdictionPrefix":null,"dorCode":null,"acreage":38.98,"centroid":[-79.038804,36.243757],"lastSale":{"date":null,"price":null,"qualified":null},"tax":{"marketValue":661756.0,"assessedValue":333343.0,"taxableValue":null,"taxes":null},"mailingAddress":{"line1":null,"line2":null,"city":null,"state":null,"zip":null},"incomeTract":null,"incomeBlockGroup":null,"nearestRoad":null,"flu":null,"opportunityZone":null,"oz2Eligibility":null,"source":"nc-onemap-37145"},"geometry":{"type":"Polygon","coordinates":[[[-79.03705,36.24353],[-79.03704,36.24318],[-79.03767,36.24321],[-79.03766,36.24263],[-79.04076,36.24274],[-79.04251,36.2426],[-79.04242,36.24576],[-79.03709,36.24558],[-79.03704,36.24458],[-79.03705,36.24353]]]}},{"type":"Feature","id":"37145:9980-00-06-0902.000","properties":{"id":"37145:9980-00-06-0902.000","parcelId":"9980-00-06-0902.000","countyFips":"37145","countyName":"Person","state":"North Carolina","marketIds":["Raleigh-Durham"],"situsAddress":"WALNUT GROVE CHURCH RD","situsCity":null,"situsZip":null,"jurisdictionCode":null,"ownerName":"SNIPES SUDIE","ownerName2":null,"propertyName":null,"zoningCode":null,"zoningDistrict":null,"jurisdictionPrefix":null,"dorCode":null,"acreage":38.78,"centroid":[-79.068582,36.243597],"lastSale":{"date":null,"price":null,"qualified":null},"tax":{"marketValue":249950.0,"assessedValue":236600.0,"taxableValue":null,"taxes":null},"mailingAddress":{"line1":null,"line2":null,"city":null,"state":null,"zip":null},"incomeTract":null,"incomeBlockGroup":null,"nearestRoad":null,"flu":null,"opportunityZone":null,"oz2Eligibility":null,"source":"nc-onemap-37145"},"geometry":{"type":"MultiPolygon","coordinates":[[[[-79.06567,36.24597],[-79.06555,36.24122],[-79.07008,36.24128],[-79.07008,36.24252],[-79.06921,36.24215],[-79.06903,36.2425],[-79.07008,36.24296],[-79.07008,36.24319],[-79.06967,36.24399],[-79.06874,36.24373],[-79.06855,36.24411],[-79.06895,36.24422],[-79.06869,36.24506],[-79.06714,36.24532],[-79.06721,36.24574],[-79.06567,36.24597]]],[[[-79.06901,36.24313],[-79.06836,36.24298],[-79.06817,36.24355],[-79.06892,36.24372],[-79.06901,36.24313]]],[[[-79.06811,36.24304],[-79.0684,36.24249],[-79.06777,36.24227],[-79.06748,36.24282],[-79.06782,36.24294],[-79.06811,36.24304]],[[-79.06994,36.24391],[-79.07008,36.24363],[-79.07007,36.24454],[-79.06967,36.24443],[-79.06994,36.24391]]]]}},{"type":"Feature","id":"37145:9980-00-49-2248.000","properties":{"id":"37145:9980-00-49-2248.000","parcelId":"9980-00-49-2248.000","countyFips":"37145","countyName":"Person","state":"North Carolina","marketIds":["Raleigh-Durham"],"situsAddress":"WRONG LN","situsCity":null,"situsZip":null,"jurisdictionCode":null,"ownerName":"MARTELL CAROL A","ownerName2":null,"propertyName":null,"zoningCode":null,"zoningDistrict":null,"jurisdictionPrefix":null,"dorCode":null,"acreage":38.75,"centroid":[-79.053818,36.24769],"lastSale":{"date":null,"price":null,"qualified":null},"tax":{"marketValue":138460.0,"assessedValue":138460.0,"taxableValue":null,"taxes":null},"mailingAddress":{"line1":null,"line2":null,"city":null,"state":null,"zip":null},"incomeTract":null,"incomeBlockGroup":null,"nearestRoad":null,"flu":null,"opportunityZone":null,"oz2Eligibility":null,"source":"nc-onemap-37145"},"geometry":{"type":"Polygon","coordinates":[[[-79.05569,36.24663],[-79.05602,36.24663],[-79.05584,36.24989],[-79.05081,36.24968],[-79.05104,36.24666],[-79.05351,36.24665],[-79.05569,36.24663]]]}},{"type":"Feature","id":"37145:9990-00-47-0683.000","properties":{"id":"37145:9990-00-47-0683.000","parcelId":"9990-00-47-0683.000","countyFips":"37145","countyName":"Person","state":"North Carolina","marketIds":["Raleigh-Durham"],"situsAddress":"BERRY PEARCE RD","situsCity":null,"situsZip":null,"jurisdictionCode":null,"ownerName":"BATTLE JOSEPH","ownerName2":null,"propertyName":null,"zoningCode":null,"zoningDistrict":null,"jurisdictionPrefix":null,"dorCode":null,"acreage":33.52,"centroid":[-79.019868,36.243887],"lastSale":{"date":null,"price":null,"qualified":null},"tax":{"marketValue":305133.0,"assessedValue":304133.0,"taxableValue":null,"taxes":null},"mailingAddress":{"line1":null,"line2":null,"city":null,"state":null,"zip":null},"incomeTract":null,"incomeBlockGroup":null,"nearestRoad":null,"flu":null,"opportunityZone":null,"oz2Eligibility":null,"source":"nc-onemap-37145"},"geometry":{"type":"Polygon","coordinates":[[[-79.02239,36.24274],[-79.02193,36.24521],[-79.01983,36.24523],[-79.01981,36.24445],[-79.01777,36.2445],[-79.01778,36.24488],[-79.01734,36.24489],[-79.01699,36.24212],[-79.02244,36.24226],[-79.0224,36.24259],[-79.02239,36.24274]]]}},{"type":"Feature","id":"37145:9950-00-97-6101.000","properties":{"id":"37145:9950-00-97-6101.000","parcelId":"9950-00-97-6101.000","countyFips":"37145","countyName":"Person","state":"North Carolina","marketIds":["Raleigh-Durham"],"situsAddress":"ROBERTS RD","situsCity":null,"situsZip":null,"jurisdictionCode":null,"ownerName":"BLAYLOCK DENICE JONES","ownerName2":null,"propertyName":null,"zoningCode":null,"zoningDistrict":null,"jurisdictionPrefix":null,"dorCode":null,"acreage":32.59,"centroid":[-79.136495,36.24219],"lastSale":{"date":null,"price":null,"qualified":null},"tax":{"marketValue":19934.0,"assessedValue":366132.0,"taxableValue":null,"taxes":null},"mailingAddress":{"line1":null,"line2":null,"city":null,"state":null,"zip":null},"incomeTract":null,"incomeBlockGroup":null,"nearestRoad":null,"flu":null,"opportunityZone":null,"oz2Eligibility":null,"source":"nc-onemap-37145"},"geometry":{"type":"Polygon","coordinates":[[[-79.13318,36.24273],[-79.1341,36.24105],[-79.13592,36.24104],[-79.13788,36.24114],[-79.13793,36.24178],[-79.14196,36.24174],[-79.14216,36.2427],[-79.13628,36.24296],[-79.13261,36.24362],[-79.13293,36.24314],[-79.13318,36.24273]]]}},{"type":"Feature","id":"37145:9980-00-46-3853.000","properties":{"id":"37145:9980-00-46-3853.000","parcelId":"9980-00-46-3853.000","countyFips":"37145","countyName":"Person","state":"North Carolina","marketIds":["Raleigh-Durham"],"situsAddress":"0","situsCity":null,"situsZip":null,"jurisdictionCode":null,"ownerName":"AUSTIN WAYNE MICHAEL","ownerName2":null,"propertyName":null,"zoningCode":null,"zoningDistrict":null,"jurisdictionPrefix":null,"dorCode":null,"acreage":31.96,"centroid":[-79.051752,36.241762],"lastSale":{"date":null,"price":null,"qualified":null},"tax":{"marketValue":8456.0,"assessedValue":134926.0,"taxableValue":null,"taxes":null},"mailingAddress":{"line1":null,"line2":null,"city":null,"state":null,"zip":null},"incomeTract":null,"incomeBlockGroup":null,"nearestRoad":null,"flu":null,"opportunityZone":null,"oz2Eligibility":null,"source":"nc-onemap-37145"},"geometry":{"type":"Polygon","coordinates":[[[-79.0488,36.24076],[-79.05614,36.24088],[-79.05622,36.24259],[-79.0488,36.24263],[-79.0488,36.24195],[-79.0488,36.24076]]]}},{"type":"Feature","id":"37145:9980-00-67-4279.000","properties":{"id":"37145:9980-00-67-4279.000","parcelId":"9980-00-67-4279.000","countyFips":"37145","countyName":"Person","state":"North Carolina","marketIds":["Raleigh-Durham"],"situsAddress":"JACK CHAVIS RD","situsCity":null,"situsZip":null,"jurisdictionCode":null,"ownerName":"BOWLING BRADSHER EUGENE","ownerName2":null,"propertyName":null,"zoningCode":null,"zoningDistrict":null,"jurisdictionPrefix":null,"dorCode":null,"acreage":29.18,"centroid":[-79.044915,36.243093],"lastSale":{"date":null,"price":null,"qualified":null},"tax":{"marketValue":6217.0,"assessedValue":164717.0,"taxableValue":null,"taxes":null},"mailingAddress":{"line1":null,"line2":null,"city":null,"state":null,"zip":null},"incomeTract":null,"incomeBlockGroup":null,"nearestRoad":null,"flu":null,"opportunityZone":null,"oz2Eligibility":null,"source":"nc-onemap-37145"},"geometry":{"type":"Polygon","coordinates":[[[-79.04294,36.24255],[-79.04525,36.24232],[-79.04524,36.24224],[-79.04556,36.24216],[-79.0457,36.24194],[-79.0488,36.24195],[-79.04879,36.24441],[-79.04524,36.24437],[-79.04513,36.24281],[-79.0441,36.24295],[-79.04419,36.24436],[-79.04247,36.24434],[-79.04249,36.24347],[-79.04291,36.24343],[-79.04294,36.24255]]]}},{"type":"Feature","id":"37145:9970-00-79-9601.000","properties":{"id":"37145:9970-00-79-9601.000","parcelId":"9970-00-79-9601.000","countyFips":"37145","countyName":"Person","state":"North Carolina","marketIds":["Raleigh-Durham"],"situsAddress":"HURDLE MILLS RD","situsCity":null,"situsZip":null,"jurisdictionCode":null,"ownerName":"WRENN REBECCA ANN M","ownerName2":null,"propertyName":null,"zoningCode":null,"zoningDistrict":null,"jurisdictionPrefix":null,"dorCode":null,"acreage":27.95,"centroid":[-79.074522,36.249813],"lastSale":{"date":null,"price":null,"qualified":null},"tax":{"marketValue":157332.0,"assessedValue":157332.0,"taxableValue":null,"taxes":null},"mailingAddress":{"line1":null,"line2":null,"city":null,"state":null,"zip":null},"incomeTract":null,"incomeBlockGroup":null,"nearestRoad":null,"flu":null,"opportunityZone":null,"oz2Eligibility":null,"source":"nc-onemap-37145"},"geometry":{"type":"Polygon","coordinates":[[[-79.07323,36.25163],[-79.07291,36.25169],[-79.0734,36.24888],[-79.07336,36.24736],[-79.07688,36.2474],[-79.07694,36.24967],[-79.07535,36.2497],[-79.07539,36.25097],[-79.07324,36.25102],[-79.07323,36.25163]]]}},{"type":"Feature","id":"37145:9980-00-98-7329.000","properties":{"id":"37145:9980-00-98-7329.000","parcelId":"9980-00-98-7329.000","countyFips":"37145","countyName":"Person","state":"North Carolina","marketIds":["Raleigh-Durham"],"situsAddress":"187 LAMBERTH HALL RD","situsCity":null,"situsZip":null,"jurisdictionCode":null,"ownerName":"JOHNSON OLIVIA P","ownerName2":null,"propertyName":null,"zoningCode":null,"zoningDistrict":null,"jurisdictionPrefix":null,"dorCode":null,"acreage":27.63,"centroid":[-79.034475,36.24591],"lastSale":{"date":null,"price":null,"qualified":null},"tax":{"marketValue":1545389.0,"assessedValue":291558.0,"taxableValue":null,"taxes":null},"mailingAddress":{"line1":null,"line2":null,"city":null,"state":null,"zip":null},"incomeTract":null,"incomeBlockGroup":null,"nearestRoad":null,"flu":null,"opportunityZone":null,"oz2Eligibility":null,"source":"nc-onemap-37145"},"geometry":{"type":"Polygon","coordinates":[[[-79.0326,36.24461],[-79.03704,36.24458],[-79.03707,36.24765],[-79.03455,36.247],[-79.03299,36.247],[-79.0326,36.24462],[-79.0326,36.24461]]]}},{"type":"Feature","id":"37145:9970-00-49-7480.000","properties":{"id":"37145:9970-00-49-7480.000","parcelId":"9970-00-49-7480.000","countyFips":"37145","countyName":"Person","state":"North Carolina","marketIds":["Raleigh-Durham"],"situsAddress":"12215 HURDLE MILLS RD","situsCity":null,"situsZip":null,"jurisdictionCode":null,"ownerName":"ALVARADO YEFRIN ARONY PADILLA","ownerName2":null,"propertyName":null,"zoningCode":null,"zoningDistrict":null,"jurisdictionPrefix":null,"dorCode":null,"acreage":24.25,"centroid":[-79.085337,36.248559],"lastSale":{"date":null,"price":null,"qualified":null},"tax":{"marketValue":556940.0,"assessedValue":231151.0,"taxableValue":null,"taxes":null},"mailingAddress":{"line1":null,"line2":null,"city":null,"state":null,"zip":null},"incomeTract":null,"incomeBlockGroup":null,"nearestRoad":null,"flu":null,"opportunityZone":null,"oz2Eligibility":null,"source":"nc-onemap-37145"},"geometry":{"type":"Polygon","coordinates":[[[-79.08584,36.24994],[-79.08426,36.24998],[-79.08349,36.24755],[-79.08429,36.24754],[-79.0842,36.24705],[-79.08712,36.24701],[-79.08762,36.24947],[-79.08588,36.24993],[-79.08584,36.24994]]]}},{"type":"Feature","id":"37145:9970-00-29-8740.000","properties":{"id":"37145:9970-00-29-8740.000","parcelId":"9970-00-29-8740.000","countyFips":"37145","countyName":"Person","state":"North Carolina","marketIds":["Raleigh-Durham"],"situsAddress":"177 MCCULLOCK LOOP","situsCity":null,"situsZip":null,"jurisdictionCode":null,"ownerName":"FARRISH BILLY GENE","ownerName2":null,"propertyName":null,"zoningCode":null,"zoningDistrict":null,"jurisdictionPrefix":null,"dorCode":null,"acreage":23.28,"centroid":[-79.091936,36.248965],"lastSale":{"date":null,"price":null,"qualified":null},"tax":{"marketValue":393116.0,"assessedValue":268996.0,"taxableValue":null,"taxes":null},"mailingAddress":{"line1":null,"line2":null,"city":null,"state":null,"zip":null},"incomeTract":null,"incomeBlockGroup":null,"nearestRoad":null,"flu":null,"opportunityZone":null,"oz2Eligibility":null,"source":"nc-onemap-37145"},"geometry":{"type":"Polygon","coordinates":[[[-79.09104,36.24818],[-79.09211,36.24752],[-79.09304,36.24835],[-79.09366,36.24839],[-79.09324,36.25102],[-79.09063,36.25049],[-79.09074,36.24891],[-79.09103,36.24886],[-79.09104,36.24818]],[[-79.094,36.248],[-79.0941,36.24773],[-79.09492,36.248],[-79.09472,36.24893],[-79.09411,36.25028],[-79.09358,36.25023],[-79.09394,36.24816],[-79.094,36.248]]]}},{"type":"Feature","id":"37145:9980-00-86-2804.000","properties":{"id":"37145:9980-00-86-2804.000","parcelId":"9980-00-86-2804.000","countyFips":"37145","countyName":"Person","state":"North Carolina","marketIds":["Raleigh-Durham"],"situsAddress":"JACK CHAVIS RD","situsCity":null,"situsZip":null,"jurisdictionCode":null,"ownerName":"ROWE CLYDE E JR","ownerName2":null,"propertyName":null,"zoningCode":null,"zoningDistrict":null,"jurisdictionPrefix":null,"dorCode":null,"acreage":23.2,"centroid":[-79.03939,36.241583],"lastSale":{"date":null,"price":null,"qualified":null},"tax":{"marketValue":9289.0,"assessedValue":239704.0,"taxableValue":null,"taxes":null},"mailingAddress":{"line1":null,"line2":null,"city":null,"state":null,"zip":null},"incomeTract":null,"incomeBlockGroup":null,"nearestRoad":null,"flu":null,"opportunityZone":null,"oz2Eligibility":null,"source":"nc-onemap-37145"},"geometry":{"type":"Polygon","coordinates":[[[-79.03769,36.24247],[-79.03775,36.24161],[-79.03696,36.24149],[-79.03695,36.24074],[-79.04046,36.24077],[-79.04047,36.24062],[-79.04257,36.24065],[-79.04252,36.24243],[-79.04076,36.24258],[-79.03777,36.24247],[-79.03769,36.24247]]]}},{"type":"Feature","id":"37145:9960-00-37-3741.000","properties":{"id":"37145:9960-00-37-3741.000","parcelId":"9960-00-37-3741.000","countyFips":"37145","countyName":"Person","state":"North Carolina","marketIds":["Raleigh-Durham"],"situsAddress":"0","situsCity":null,"situsZip":null,"jurisdictionCode":null,"ownerName":"BACON THOMAS H III","ownerName2":null,"propertyName":null,"zoningCode":null,"zoningDistrict":null,"jurisdictionPrefix":null,"dorCode":null,"acreage":21.85,"centroid":[-79.12564,36.243511],"lastSale":{"date":null,"price":null,"qualified":null},"tax":{"marketValue":174534.0,"assessedValue":174534.0,"taxableValue":null,"taxes":null},"mailingAddress":{"line1":null,"line2":null,"city":null,"state":null,"zip":null},"incomeTract":null,"incomeBlockGroup":null,"nearestRoad":null,"flu":null,"opportunityZone":null,"oz2Eligibility":null,"source":"nc-onemap-37145"},"geometry":{"type":"Polygon","coordinates":[[[-79.12465,36.2439],[-79.13219,36.24388],[-79.13203,36.24415],[-79.12508,36.24417],[-79.12511,36.24486],[-79.12248,36.24488],[-79.12278,36.24279],[-79.12272,36.24157],[-79.12469,36.2417],[-79.12467,36.24321],[-79.12465,36.2439]]]}},{"type":"Feature","id":"37145:0900-00-05-0528.000","properties":{"id":"37145:0900-00-05-0528.000","parcelId":"0900-00-05-0528.000","countyFips":"37145","countyName":"Person","state":"North Carolina","marketIds":["Raleigh-Durham"],"situsAddress":"6395 READE HALL RD","situsCity":null,"situsZip":null,"jurisdictionCode":null,"ownerName":"MAY JOHN MARVIN","ownerName2":null,"propertyName":null,"zoningCode":null,"zoningDistrict":null,"jurisdictionPrefix":null,"dorCode":null,"acreage":21.26,"centroid":[-79.000915,36.238396],"lastSale":{"date":null,"price":null,"qualified":null},"tax":{"marketValue":959348.0,"assessedValue":156917.0,"taxableValue":null,"taxes":null},"mailingAddress":{"line1":null,"line2":null,"city":null,"state":null,"zip":null},"incomeTract":null,"incomeBlockGroup":null,"nearestRoad":null,"flu":null,"opportunityZone":null,"oz2Eligibility":null,"source":"nc-onemap-37145"},"geometry":{"type":"Polygon","coordinates":[[[-79.00032,36.23742],[-79.00047,36.23723],[-79.00082,36.23758],[-79.00113,36.23769],[-79.00171,36.23759],[-79.00185,36.23771],[-79.0023,36.23768],[-79.00274,36.2379],[-79.00308,36.2379],[-79.00325,36.2412],[-78.99884,36.24144],[-78.99889,36.24074],[-79.00153,36.2407],[-79.00172,36.23918],[-79.00305,36.23938],[-79.00301,36.23815],[-79.00156,36.23793],[-79.00131,36.23849],[-79.00052,36.23842],[-79.00034,36.23874],[-78.99958,36.23907],[-78.99901,36.23907],[-78.99913,36.23721],[-78.99942,36.23739],[-78.99971,36.23719],[-78.99995,36.23735],[-79.00011,36.23729],[-79.00026,36.23746],[-79.00032,36.23742]]]}},{"type":"Feature","id":"37145:9980-00-39-0384.000","properties":{"id":"37145:9980-00-39-0384.000","parcelId":"9980-00-39-0384.000","countyFips":"37145","countyName":"Person","state":"North Carolina","marketIds":["Raleigh-Durham"],"situsAddress":"405 WRONG WAY RD","situsCity":null,"situsZip":null,"jurisdictionCode":null,"ownerName":"MARTELL STUART LIFE ESTATE","ownerName2":null,"propertyName":null,"zoningCode":null,"zoningDistrict":null,"jurisdictionPrefix":null,"dorCode":null,"acreage":19.77,"centroid":[-79.057781,36.248173],"lastSale":{"date":null,"price":null,"qualified":null},"tax":{"marketValue":94343.0,"assessedValue":91093.0,"taxableValue":null,"taxes":null},"mailingAddress":{"line1":null,"line2":null,"city":null,"state":null,"zip":null},"incomeTract":null,"incomeBlockGroup":null,"nearestRoad":null,"flu":null,"opportunityZone":null,"oz2Eligibility":null,"source":"nc-onemap-37145"},"geometry":{"type":"Polygon","coordinates":[[[-79.05602,36.24663],[-79.0577,36.24661],[-79.05774,36.24752],[-79.05888,36.24752],[-79.05889,36.24868],[-79.05858,36.24867],[-79.0586,36.24986],[-79.05584,36.24989],[-79.05602,36.24663]]]}},{"type":"Feature","id":"37145:9960-00-48-4278.000","properties":{"id":"37145:9960-00-48-4278.000","parcelId":"9960-00-48-4278.000","countyFips":"37145","countyName":"Person","state":"North Carolina","marketIds":["Raleigh-Durham"],"situsAddress":"WHEELERS CHURCH RD","situsCity":null,"situsZip":null,"jurisdictionCode":null,"ownerName":"BENNETT JACK KISER JR","ownerName2":null,"propertyName":null,"zoningCode":null,"zoningDistrict":null,"jurisdictionPrefix":null,"dorCode":null,"acreage":19.35,"centroid":[-79.120295,36.24558],"lastSale":{"date":null,"price":null,"qualified":null},"tax":{"marketValue":171802.0,"assessedValue":171802.0,"taxableValue":null,"taxes":null},"mailingAddress":{"line1":null,"line2":null,"city":null,"state":null,"zip":null},"incomeTract":null,"incomeBlockGroup":null,"nearestRoad":null,"flu":null,"opportunityZone":null,"oz2Eligibility":null,"source":"nc-onemap-37145"},"geometry":{"type":"Polygon","coordinates":[[[-79.11736,36.24476],[-79.12362,36.2449],[-79.1235,36.24572],[-79.12237,36.24622],[-79.11747,36.24608],[-79.11745,36.2458],[-79.11736,36.24476]]]}},{"type":"Feature","id":"37145:9970-00-99-6037.000","properties":{"id":"37145:9970-00-99-6037.000","parcelId":"9970-00-99-6037.000","countyFips":"37145","countyName":"Person","state":"North Carolina","marketIds":["Raleigh-Durham"],"situsAddress":"384 WALNUT GROVE CHURCH RD","situsCity":null,"situsZip":null,"jurisdictionCode":null,"ownerName":"NORRIS PHILLIP WAYNE","ownerName2":null,"propertyName":null,"zoningCode":null,"zoningDistrict":null,"jurisdictionPrefix":null,"dorCode":null,"acreage":18.46,"centroid":[-79.068888,36.247786],"lastSale":{"date":null,"price":null,"qualified":null},"tax":{"marketValue":356556.0,"assessedValue":162223.0,"taxableValue":null,"taxes":null},"mailingAddress":{"line1":null,"line2":null,"city":null,"state":null,"zip":null},"incomeTract":null,"incomeBlockGroup":null,"nearestRoad":null,"flu":null,"opportunityZone":null,"oz2Eligibility":null,"source":"nc-onemap-37145"},"geometry":{"type":"Polygon","coordinates":[[[-79.06737,36.24934],[-79.06916,36.24544],[-79.07008,36.24528],[-79.07001,36.2495],[-79.06782,36.24937],[-79.06737,36.24934]]]}},{"type":"Feature","id":"37145:9980-00-99-6249.000","properties":{"id":"37145:9980-00-99-6249.000","parcelId":"9980-00-99-6249.000","countyFips":"37145","countyName":"Person","state":"North Carolina","marketIds":["Raleigh-Durham"],"situsAddress":"LAMBERTH HALL RD","situsCity":null,"situsZip":null,"jurisdictionCode":null,"ownerName":"TITCH JAMES FRANKLIN TRUSTEE","ownerName2":null,"propertyName":null,"zoningCode":null,"zoningDistrict":null,"jurisdictionPrefix":null,"dorCode":null,"acreage":17.82,"centroid":[-79.034948,36.2486],"lastSale":{"date":null,"price":null,"qualified":null},"tax":{"marketValue":154754.0,"assessedValue":149409.0,"taxableValue":null,"taxes":null},"mailingAddress":{"line1":null,"line2":null,"city":null,"state":null,"zip":null},"incomeTract":null,"incomeBlockGroup":null,"nearestRoad":null,"flu":null,"opportunityZone":null,"oz2Eligibility":null,"source":"nc-onemap-37145"},"geometry":{"type":"Polygon","coordinates":[[[-79.03365,36.24933],[-79.03305,36.24716],[-79.03707,36.24782],[-79.03706,36.24935],[-79.03391,36.24934],[-79.03365,36.24933]]]}},{"type":"Feature","id":"37145:9980-00-66-5735.000","properties":{"id":"37145:9980-00-66-5735.000","parcelId":"9980-00-66-5735.000","countyFips":"37145","countyName":"Person","state":"North Carolina","marketIds":["Raleigh-Durham"],"situsAddress":"JACK CHAVIS RD","situsCity":null,"situsZip":null,"jurisdictionCode":null,"ownerName":"TORIAN DAVID A","ownerName2":null,"propertyName":null,"zoningCode":null,"zoningDistrict":null,"jurisdictionPrefix":null,"dorCode":null,"acreage":17.33,"centroid":[-79.045035,36.241548],"lastSale":{"date":null,"price":null,"qualified":null},"tax":{"marketValue":16573.0,"assessedValue":305316.0,"taxableValue":null,"taxes":null},"mailingAddress":{"line1":null,"line2":null,"city":null,"state":null,"zip":null},"incomeTract":null,"incomeBlockGroup":null,"nearestRoad":null,"flu":null,"opportunityZone":null,"oz2Eligibility":null,"source":"nc-onemap-37145"},"geometry":{"type":"Polygon","coordinates":[[[-79.04554,36.24194],[-79.04552,36.24167],[-79.04467,36.24156],[-79.0448,36.24194],[-79.04321,36.24194],[-79.04322,36.24134],[-79.04255,36.24134],[-79.04257,36.24065],[-79.0488,36.24076],[-79.0488,36.24195],[-79.0457,36.24194],[-79.04554,36.24194]]]}},{"type":"Feature","id":"37145:9950-00-87-3881.000","properties":{"id":"37145:9950-00-87-3881.000","parcelId":"9950-00-87-3881.000","countyFips":"37145","countyName":"Person","state":"North Carolina","marketIds":["Raleigh-Durham"],"situsAddress":"HENSLEY RD","situsCity":null,"situsZip":null,"jurisdictionCode":null,"ownerName":"BLAYLOCK DENICE JONES","ownerName2":null,"propertyName":null,"zoningCode":null,"zoningDistrict":null,"jurisdictionPrefix":null,"dorCode":null,"acreage":17.12,"centroid":[-79.141036,36.243898],"lastSale":{"date":null,"price":null,"qualified":null},"tax":{"marketValue":7510.0,"assessedValue":177866.0,"taxableValue":null,"taxes":null},"mailingAddress":{"line1":null,"line2":null,"city":null,"state":null,"zip":null},"incomeTract":null,"incomeBlockGroup":null,"nearestRoad":null,"flu":null,"opportunityZone":null,"oz2Eligibility":null,"source":"nc-onemap-37145"},"geometry":{"type":"Polygon","coordinates":[[[-79.14075,36.24291],[-79.1422,36.24286],[-79.14282,36.24538],[-79.13971,36.24538],[-79.1397,36.24296],[-79.14075,36.24291]]]}},{"type":"Feature","id":"37145:9990-01-08-8335.000","properties":{"id":"37145:9990-01-08-8335.000","parcelId":"9990-01-08-8335.000","countyFips":"37145","countyName":"Person","state":"North Carolina","marketIds":["Raleigh-Durham"],"situsAddress":"2025 GUESS RD","situsCity":null,"situsZip":null,"jurisdictionCode":null,"ownerName":"JONES RANDY W","ownerName2":null,"propertyName":null,"zoningCode":null,"zoningDistrict":null,"jurisdictionPrefix":null,"dorCode":null,"acreage":16.92,"centroid":[-79.031223,36.246223],"lastSale":{"date":null,"price":null,"qualified":null},"tax":{"marketValue":273793.0,"assessedValue":223627.0,"taxableValue":null,"taxes":null},"mailingAddress":{"line1":null,"line2":null,"city":null,"state":null,"zip":null},"incomeTract":null,"incomeBlockGroup":null,"nearestRoad":null,"flu":null,"opportunityZone":null,"oz2Eligibility":null,"source":"nc-onemap-37145"},"geometry":{"type":"Polygon","coordinates":[[[-79.03239,36.24463],[-79.03297,36.24758],[-79.03159,36.24758],[-79.0316,36.2464],[-79.02937,36.24648],[-79.02942,36.24467],[-79.03239,36.24463]]]}},{"type":"Feature","id":"37145:9960-00-29-1915.000","properties":{"id":"37145:9960-00-29-1915.000","parcelId":"9960-00-29-1915.000","countyFips":"37145","countyName":"Person","state":"North Carolina","marketIds":["Raleigh-Durham"],"situsAddress":"JONES RD","situsCity":null,"situsZip":null,"jurisdictionCode":null,"ownerName":"TALL FARMS LLC","ownerName2":null,"propertyName":null,"zoningCode":null,"zoningDistrict":null,"jurisdictionPrefix":null,"dorCode":null,"acreage":16.28,"centroid":[-79.128654,36.249491],"lastSale":{"date":null,"price":null,"qualified":null},"tax":{"marketValue":10501.0,"assessedValue":210328.0,"taxableValue":null,"taxes":null},"mailingAddress":{"line1":null,"line2":null,"city":null,"state":null,"zip":null},"incomeTract":null,"incomeBlockGroup":null,"nearestRoad":null,"flu":null,"opportunityZone":null,"oz2Eligibility":null,"source":"nc-onemap-37145"},"geometry":{"type":"Polygon","coordinates":[[[-79.12996,36.24739],[-79.12996,36.2489],[-79.12961,36.24936],[-79.12894,36.25137],[-79.12605,36.25147],[-79.12681,36.25081],[-79.12802,36.24915],[-79.12988,36.24748],[-79.12996,36.24739]]]}},{"type":"Feature","id":"37145:9980-00-97-7536.000","properties":{"id":"37145:9980-00-97-7536.000","parcelId":"9980-00-97-7536.000","countyFips":"37145","countyName":"Person","state":"North Carolina","marketIds":["Raleigh-Durham"],"situsAddress":"GUESS RD","situsCity":null,"situsZip":null,"jurisdictionCode":null,"ownerName":"TORAIN ARTHUR ESTATE","ownerName2":null,"propertyName":null,"zoningCode":null,"zoningDistrict":null,"jurisdictionPrefix":null,"dorCode":null,"acreage":14.1,"centroid":[-79.03446,36.243581],"lastSale":{"date":null,"price":null,"qualified":null},"tax":{"marketValue":188036.0,"assessedValue":185536.0,"taxableValue":null,"taxes":null},"mailingAddress":{"line1":null,"line2":null,"city":null,"state":null,"zip":null},"incomeTract":null,"incomeBlockGroup":null,"nearestRoad":null,"flu":null,"opportunityZone":null,"oz2Eligibility":null,"source":"nc-onemap-37145"},"geometry":{"type":"Polygon","coordinates":[[[-79.03389,36.24345],[-79.03393,36.24248],[-79.0354,36.24254],[-79.03539,36.24344],[-79.03705,36.24353],[-79.03704,36.24458],[-79.0338,36.2446],[-79.03383,36.24398],[-79.03262,36.24399],[-79.03264,36.24338],[-79.03347,36.24342],[-79.03389,36.24345]]]}},{"type":"Feature","id":"37145:9960-00-67-1241.000","properties":{"id":"37145:9960-00-67-1241.000","parcelId":"9960-00-67-1241.000","countyFips":"37145","countyName":"Person","state":"North Carolina","marketIds":["Raleigh-Durham"],"situsAddress":"13966 HURDLE MILLS RD","situsCity":null,"situsZip":null,"jurisdictionCode":null,"ownerName":"BENNETT JACK KISER JR","ownerName2":null,"propertyName":null,"zoningCode":null,"zoningDistrict":null,"jurisdictionPrefix":null,"dorCode":null,"acreage":13.77,"centroid":[-79.114162,36.242086],"lastSale":{"date":null,"price":null,"qualified":null},"tax":{"marketValue":734674.0,"assessedValue":181911.0,"taxableValue":null,"taxes":null},"mailingAddress":{"line1":null,"line2":null,"city":null,"state":null,"zip":null},"incomeTract":null,"incomeBlockGroup":null,"nearestRoad":null,"flu":null,"opportunityZone":null,"oz2Eligibility":null,"source":"nc-onemap-37145"},"geometry":{"type":"Polygon","coordinates":[[[-79.11304,36.24155],[-79.11707,36.24159],[-79.11522,36.24383],[-79.11251,36.24187],[-79.11297,36.24159],[-79.11304,36.24155]],[[-79.11236,36.24176],[-79.11205,36.24154],[-79.1127,36.24154],[-79.11237,36.24175],[-79.11236,36.24176]]]}},{"type":"Feature","id":"37145:9960-00-48-8714.000","properties":{"id":"37145:9960-00-48-8714.000","parcelId":"9960-00-48-8714.000","countyFips":"37145","countyName":"Person","state":"North Carolina","marketIds":["Raleigh-Durham"],"situsAddress":"WHEELERS CHURCH RD","situsCity":null,"situsZip":null,"jurisdictionCode":null,"ownerName":"TERRY BERTHA P ESTATE","ownerName2":null,"propertyName":null,"zoningCode":null,"zoningDistrict":null,"jurisdictionPrefix":null,"dorCode":null,"acreage":13.72,"centroid":[-79.12052,36.246807],"lastSale":{"date":null,"price":null,"qualified":null},"tax":{"marketValue":176939.0,"assessedValue":176939.0,"taxableValue":null,"taxes":null},"mailingAddress":{"line1":null,"line2":null,"city":null,"state":null,"zip":null},"incomeTract":null,"incomeBlockGroup":null,"nearestRoad":null,"flu":null,"opportunityZone":null,"oz2Eligibility":null,"source":"nc-onemap-37145"},"geometry":{"type":"Polygon","coordinates":[[[-79.12186,36.24675],[-79.12121,36.2473],[-79.12103,36.24772],[-79.11751,36.24718],[-79.11747,36.24608],[-79.12237,36.24622],[-79.12219,36.2464],[-79.12186,36.24675]]]}},{"type":"Feature","id":"37145:9980-00-37-5436.000","properties":{"id":"37145:9980-00-37-5436.000","parcelId":"9980-00-37-5436.000","countyFips":"37145","countyName":"Person","state":"North Carolina","marketIds":["Raleigh-Durham"],"situsAddress":"RUDYS FARM RD","situsCity":null,"situsZip":null,"jurisdictionCode":null,"ownerName":"BEASLEY MCKENNEY","ownerName2":null,"propertyName":null,"zoningCode":null,"zoningDistrict":null,"jurisdictionPrefix":null,"dorCode":null,"acreage":13.16,"centroid":[-79.055269,36.243934],"lastSale":{"date":null,"price":null,"qualified":null},"tax":{"marketValue":76029.0,"assessedValue":76029.0,"taxableValue":null,"taxes":null},"mailingAddress":{"line1":null,"line2":null,"city":null,"state":null,"zip":null},"incomeTract":null,"incomeBlockGroup":null,"nearestRoad":null,"flu":null,"opportunityZone":null,"oz2Eligibility":null,"source":"nc-onemap-37145"},"geometry":{"type":"MultiPolygon","coordinates":[[[[-79.05604,36.24458],[-79.05584,36.24481],[-79.0553,36.24436],[-79.05503,36.2449],[-79.05381,36.24388],[-79.05213,36.24365],[-79.05361,36.24256],[-79.05622,36.24259],[-79.05707,36.24378],[-79.05656,36.24418],[-79.05607,36.24376],[-79.05555,36.24416],[-79.05604,36.24458]]],[[[-79.0553,36.24436],[-79.05556,36.24408],[-79.05529,36.24383],[-79.05557,36.24359],[-79.05491,36.243],[-79.05434,36.24349],[-79.0553,36.24436]]]]}},{"type":"Feature","id":"37145:9970-00-07-9367.000","properties":{"id":"37145:9970-00-07-9367.000","parcelId":"9970-00-07-9367.000","countyFips":"37145","countyName":"Person","state":"North Carolina","marketIds":["Raleigh-Durham"],"situsAddress":"136 NAT VILLINES RD","situsCity":null,"situsZip":null,"jurisdictionCode":null,"ownerName":"TWESTEN CAROLYN MARIE","ownerName2":null,"propertyName":null,"zoningCode":null,"zoningDistrict":null,"jurisdictionPrefix":null,"dorCode":null,"acreage":13.09,"centroid":[-79.098542,36.243405],"lastSale":{"date":null,"price":null,"qualified":null},"tax":{"marketValue":330567.0,"assessedValue":154944.0,"taxableValue":null,"taxes":null},"mailingAddress":{"line1":null,"line2":null,"city":null,"state":null,"zip":null},"incomeTract":null,"incomeBlockGroup":null,"nearestRoad":null,"flu":null,"opportunityZone":null,"oz2Eligibility":null,"source":"nc-onemap-37145"},"geometry":{"type":"Polygon","coordinates":[[[-79.09834,36.24428],[-79.09756,36.24421],[-79.09745,36.2416],[-79.09947,36.24165],[-79.09951,36.24437],[-79.09892,36.24432],[-79.09834,36.24428]]]}},{"type":"Feature","id":"37145:9960-00-27-7218.000","properties":{"id":"37145:9960-00-27-7218.000","parcelId":"9960-00-27-7218.000","countyFips":"37145","countyName":"Person","state":"North Carolina","marketIds":["Raleigh-Durham"],"situsAddress":"JONES RD","situsCity":null,"situsZip":null,"jurisdictionCode":null,"ownerName":"ROUNTREE DONALD THOMAS JR","ownerName2":null,"propertyName":null,"zoningCode":null,"zoningDistrict":null,"jurisdictionPrefix":null,"dorCode":null,"acreage":12.52,"centroid":[-79.129049,36.242444],"lastSale":{"date":null,"price":null,"qualified":null},"tax":{"marketValue":145659.0,"assessedValue":145659.0,"taxableValue":null,"taxes":null},"mailingAddress":{"line1":null,"line2":null,"city":null,"state":null,"zip":null},"incomeTract":null,"incomeBlockGroup":null,"nearestRoad":null,"flu":null,"opportunityZone":null,"oz2Eligibility":null,"source":"nc-onemap-37145"},"geometry":{"type":"Polygon","coordinates":[[[-79.133,36.24267],[-79.12467,36.24321],[-79.12469,36.2417],[-79.12727,36.24178],[-79.1275,36.24279],[-79.13313,36.24244],[-79.13308,36.24252],[-79.133,36.24267]]]}},{"type":"Feature","id":"37145:9980-00-57-0423.000","properties":{"id":"37145:9980-00-57-0423.000","parcelId":"9980-00-57-0423.000","countyFips":"37145","countyName":"Person","state":"North Carolina","marketIds":["Raleigh-Durham"],"situsAddress":"RUDYS FARM RD","situsCity":null,"situsZip":null,"jurisdictionCode":null,"ownerName":"BEASLEY KATRINA P","ownerName2":null,"propertyName":null,"zoningCode":null,"zoningDistrict":null,"jurisdictionPrefix":null,"dorCode":null,"acreage":12.45,"centroid":[-79.05066,36.243255],"lastSale":{"date":null,"price":null,"qualified":null},"tax":{"marketValue":98140.0,"assessedValue":98140.0,"taxableValue":null,"taxes":null},"mailingAddress":{"line1":null,"line2":null,"city":null,"state":null,"zip":null},"incomeTract":null,"incomeBlockGroup":null,"nearestRoad":null,"flu":null,"opportunityZone":null,"oz2Eligibility":null,"source":"nc-onemap-37145"},"geometry":{"type":"Polygon","coordinates":[[[-79.04879,36.24367],[-79.0488,36.24263],[-79.05361,36.24256],[-79.05144,36.24416],[-79.04879,36.24367]]]}},{"type":"Feature","id":"37145:9990-01-46-5772.000","properties":{"id":"37145:9990-01-46-5772.000","parcelId":"9990-01-46-5772.000","countyFips":"37145","countyName":"Person","state":"North Carolina","marketIds":["Raleigh-Durham"],"situsAddress":"BERRY PEARCE RD","situsCity":null,"situsZip":null,"jurisdictionCode":null,"ownerName":"BENTLEY KAREN","ownerName2":null,"propertyName":null,"zoningCode":null,"zoningDistrict":null,"jurisdictionPrefix":null,"dorCode":null,"acreage":12.23,"centroid":[-79.018122,36.24125],"lastSale":{"date":null,"price":null,"qualified":null},"tax":{"marketValue":124081.0,"assessedValue":124081.0,"taxableValue":null,"taxes":null},"mailingAddress":{"line1":null,"line2":null,"city":null,"state":null,"zip":null},"incomeTract":null,"incomeBlockGroup":null,"nearestRoad":null,"flu":null,"opportunityZone":null,"oz2Eligibility":null,"source":"nc-onemap-37145"},"geometry":{"type":"Polygon","coordinates":[[[-79.01701,36.24126],[-79.01703,36.24039],[-79.01983,36.24035],[-79.01975,36.24219],[-79.01699,36.24206],[-79.01701,36.24126]]]}},{"type":"Feature","id":"37145:9990-02-99-6603.000","properties":{"id":"37145:9990-02-99-6603.000","parcelId":"9990-02-99-6603.000","countyFips":"37145","countyName":"Person","state":"North Carolina","marketIds":["Raleigh-Durham"],"situsAddress":"821 WILLIE GRAY RD","situsCity":null,"situsZip":null,"jurisdictionCode":null,"ownerName":"WARD KENNETH ANDREW","ownerName2":null,"propertyName":null,"zoningCode":null,"zoningDistrict":null,"jurisdictionPrefix":null,"dorCode":null,"acreage":12.12,"centroid":[-79.001332,36.249142],"lastSale":{"date":null,"price":null,"qualified":null},"tax":{"marketValue":618260.0,"assessedValue":165808.0,"taxableValue":null,"taxes":null},"mailingAddress":{"line1":null,"line2":null,"city":null,"state":null,"zip":null},"incomeTract":null,"incomeBlockGroup":null,"nearestRoad":null,"flu":null,"opportunityZone":null,"oz2Eligibility":null,"source":"nc-onemap-37145"},"geometry":{"type":"Polygon","coordinates":[[[-79.0035,36.24913],[-79.00353,36.24983],[-78.99915,36.24981],[-78.99918,36.24825],[-79.0013,36.24869],[-79.0035,36.24913]]]}},{"type":"Feature","id":"37145:9960-00-28-4045.000","properties":{"id":"37145:9960-00-28-4045.000","parcelId":"9960-00-28-4045.000","countyFips":"37145","countyName":"Person","state":"North Carolina","marketIds":["Raleigh-Durham"],"situsAddress":"0","situsCity":null,"situsZip":null,"jurisdictionCode":null,"ownerName":"RODGERS GREGORY PAUL","ownerName2":null,"propertyName":null,"zoningCode":null,"zoningDistrict":null,"jurisdictionPrefix":null,"dorCode":null,"acreage":12.06,"centroid":[-79.127674,36.245292],"lastSale":{"date":null,"price":null,"qualified":null},"tax":{"marketValue":183430.0,"assessedValue":183430.0,"taxableValue":null,"taxes":null},"mailingAddress":{"line1":null,"line2":null,"city":null,"state":null,"zip":null},"incomeTract":null,"incomeBlockGroup":null,"nearestRoad":null,"flu":null,"opportunityZone":null,"oz2Eligibility":null,"source":"nc-onemap-37145"},"geometry":{"type":"Polygon","coordinates":[[[-79.12508,36.24417],[-79.12853,36.24416],[-79.12903,36.24589],[-79.13053,36.24646],[-79.13033,36.24669],[-79.12666,36.24528],[-79.12612,36.24483],[-79.12511,36.24486],[-79.12508,36.24417]]]}},{"type":"Feature","id":"37145:9960-00-38-3662.000","properties":{"id":"37145:9960-00-38-3662.000","parcelId":"9960-00-38-3662.000","countyFips":"37145","countyName":"Person","state":"North Carolina","marketIds":["Raleigh-Durham"],"situsAddress":"JONES RD","situsCity":null,"situsZip":null,"jurisdictionCode":null,"ownerName":"KIGER JOSEPH THOMAS","ownerName2":null,"propertyName":null,"zoningCode":null,"zoningDistrict":null,"jurisdictionPrefix":null,"dorCode":null,"acreage":10.92,"centroid":[-79.125203,36.247004],"lastSale":{"date":null,"price":null,"qualified":null},"tax":{"marketValue":167830.0,"assessedValue":167330.0,"taxableValue":null,"taxes":null},"mailingAddress":{"line1":null,"line2":null,"city":null,"state":null,"zip":null},"incomeTract":null,"incomeBlockGroup":null,"nearestRoad":null,"flu":null,"opportunityZone":null,"oz2Eligibility":null,"source":"nc-onemap-37145"},"geometry":{"type":"Polygon","coordinates":[[[-79.12354,36.24546],[-79.1259,36.2464],[-79.12517,36.24734],[-79.12808,36.24884],[-79.12786,36.24905],[-79.12237,36.24622],[-79.1235,36.24572],[-79.12354,36.24546]]]}},{"type":"Feature","id":"37145:9980-00-08-5647.000","properties":{"id":"37145:9980-00-08-5647.000","parcelId":"9980-00-08-5647.000","countyFips":"37145","countyName":"Person","state":"North Carolina","marketIds":["Raleigh-Durham"],"situsAddress":"525 WALNUT GROVE CHURCH RD","situsCity":null,"situsZip":null,"jurisdictionCode":null,"ownerName":"FLOWERS BRENDA NORRIS","ownerName2":null,"propertyName":null,"zoningCode":null,"zoningDistrict":null,"jurisdictionPrefix":null,"dorCode":null,"acreage":10.47,"centroid":[-79.066215,36.246625],"lastSale":{"date":null,"price":null,"qualified":null},"tax":{"marketValue":392292.0,"assessedValue":137218.0,"taxableValue":null,"taxes":null},"mailingAddress":{"line1":null,"line2":null,"city":null,"state":null,"zip":null},"incomeTract":null,"incomeBlockGroup":null,"nearestRoad":null,"flu":null,"opportunityZone":null,"oz2Eligibility":null,"source":"nc-onemap-37145"},"geometry":{"type":"Polygon","coordinates":[[[-79.06454,36.2471],[-79.06407,36.24723],[-79.06371,36.24613],[-79.06493,36.2457],[-79.0652,36.24615],[-79.06631,36.246],[-79.06747,36.24637],[-79.068,36.24691],[-79.06822,36.24692],[-79.06809,36.24719],[-79.06782,36.24718],[-79.06454,36.2471]]]}},{"type":"Feature","id":"37145:9960-00-28-9284.000","properties":{"id":"37145:9960-00-28-9284.000","parcelId":"9960-00-28-9284.000","countyFips":"37145","countyName":"Person","state":"North Carolina","marketIds":["Raleigh-Durham"],"situsAddress":"JONES RD","situsCity":null,"situsZip":null,"jurisdictionCode":null,"ownerName":"HOWE RICHARD M","ownerName2":null,"propertyName":null,"zoningCode":null,"zoningDistrict":null,"jurisdictionPrefix":null,"dorCode":null,"acreage":10.46,"centroid":[-79.126599,36.24575],"lastSale":{"date":null,"price":null,"qualified":null},"tax":{"marketValue":160414.0,"assessedValue":160414.0,"taxableValue":null,"taxes":null},"mailingAddress":{"line1":null,"line2":null,"city":null,"state":null,"zip":null},"incomeTract":null,"incomeBlockGroup":null,"nearestRoad":null,"flu":null,"opportunityZone":null,"oz2Eligibility":null,"source":"nc-onemap-37145"},"geometry":{"type":"Polygon","coordinates":[[[-79.12362,36.2449],[-79.12612,36.24483],[-79.12666,36.24528],[-79.13033,36.24669],[-79.13013,36.24692],[-79.12649,36.24552],[-79.1259,36.2464],[-79.12354,36.24546],[-79.12362,36.2449]]]}},{"type":"Feature","id":"37145:9990-00-77-6154.000","properties":{"id":"37145:9990-00-77-6154.000","parcelId":"9990-00-77-6154.000","countyFips":"37145","countyName":"Person","state":"North Carolina","marketIds":["Raleigh-Durham"],"situsAddress":"325 AL GRAY RD","situsCity":null,"situsZip":null,"jurisdictionCode":null,"ownerName":"WOODLIEF DEREK","ownerName2":null,"propertyName":null,"zoningCode":null,"zoningDistrict":null,"jurisdictionPrefix":null,"dorCode":null,"acreage":10.36,"centroid":[-79.008201,36.242835],"lastSale":{"date":null,"price":null,"qualified":null},"tax":{"marketValue":301757.0,"assessedValue":130826.0,"taxableValue":null,"taxes":null},"mailingAddress":{"line1":null,"line2":null,"city":null,"state":null,"zip":null},"incomeTract":null,"incomeBlockGroup":null,"nearestRoad":null,"flu":null,"opportunityZone":null,"oz2Eligibility":null,"source":"nc-onemap-37145"},"geometry":{"type":"Polygon","coordinates":[[[-79.0089,36.24399],[-79.00628,36.24413],[-79.00657,36.24313],[-79.00716,36.24314],[-79.00745,36.24233],[-79.00794,36.24182],[-79.00837,36.24219],[-79.00987,36.24212],[-79.00987,36.2424],[-79.0089,36.24245],[-79.0089,36.24348],[-79.0089,36.24399]]]}},{"type":"Feature","id":"37145:9960-00-17-7069.000","properties":{"id":"37145:9960-00-17-7069.000","parcelId":"9960-00-17-7069.000","countyFips":"37145","countyName":"Person","state":"North Carolina","marketIds":["Raleigh-Durham"],"situsAddress":"JONES RD","situsCity":null,"situsZip":null,"jurisdictionCode":null,"ownerName":"PETERS CALLI ROUNTREE","ownerName2":null,"propertyName":null,"zoningCode":null,"zoningDistrict":null,"jurisdictionPrefix":null,"dorCode":null,"acreage":10.24,"centroid":[-79.130755,36.242145],"lastSale":{"date":null,"price":null,"qualified":null},"tax":{"marketValue":126114.0,"assessedValue":126114.0,"taxableValue":null,"taxes":null},"mailingAddress":{"line1":null,"line2":null,"city":null,"state":null,"zip":null},"incomeTract":null,"incomeBlockGroup":null,"nearestRoad":null,"flu":null,"opportunityZone":null,"oz2Eligibility":null,"source":"nc-onemap-37145"},"geometry":{"type":"Polygon","coordinates":[[[-79.12727,36.24178],[-79.13358,36.24175],[-79.13341,36.242],[-79.13138,36.24201],[-79.13139,36.24254],[-79.1275,36.24279],[-79.12727,36.24178]]]}},{"type":"Feature","id":"37145:9990-02-86-5555.000","properties":{"id":"37145:9990-02-86-5555.000","parcelId":"9990-02-86-5555.000","countyFips":"37145","countyName":"Person","state":"North Carolina","marketIds":["Raleigh-Durham"],"situsAddress":"327 AL GRAY RD","situsCity":null,"situsZip":null,"jurisdictionCode":null,"ownerName":"BREWER THERESA M","ownerName2":null,"propertyName":null,"zoningCode":null,"zoningDistrict":null,"jurisdictionPrefix":null,"dorCode":null,"acreage":10.03,"centroid":[-79.00483,36.240918],"lastSale":{"date":null,"price":null,"qualified":null},"tax":{"marketValue":479550.0,"assessedValue":106419.0,"taxableValue":null,"taxes":null},"mailingAddress":{"line1":null,"line2":null,"city":null,"state":null,"zip":null},"incomeTract":null,"incomeBlockGroup":null,"nearestRoad":null,"flu":null,"opportunityZone":null,"oz2Eligibility":null,"source":"nc-onemap-37145"},"geometry":{"type":"Polygon","coordinates":[[[-79.00454,36.24163],[-79.00325,36.24128],[-79.00317,36.24017],[-79.00705,36.24027],[-79.00614,36.24124],[-79.00454,36.24163]]]}},{"type":"Feature","id":"37145:9960-00-28-7734.000","properties":{"id":"37145:9960-00-28-7734.000","parcelId":"9960-00-28-7734.000","countyFips":"37145","countyName":"Person","state":"North Carolina","marketIds":["Raleigh-Durham"],"situsAddress":"JONES RD","situsCity":null,"situsZip":null,"jurisdictionCode":null,"ownerName":"KIGER JUSTIN BRADY","ownerName2":null,"propertyName":null,"zoningCode":null,"zoningDistrict":null,"jurisdictionPrefix":null,"dorCode":null,"acreage":10.02,"centroid":[-79.127331,36.247103],"lastSale":{"date":null,"price":null,"qualified":null},"tax":{"marketValue":154880.0,"assessedValue":154880.0,"taxableValue":null,"taxes":null},"mailingAddress":{"line1":null,"line2":null,"city":null,"state":null,"zip":null},"incomeTract":null,"incomeBlockGroup":null,"nearestRoad":null,"flu":null,"opportunityZone":null,"oz2Eligibility":null,"source":"nc-onemap-37145"},"geometry":{"type":"Polygon","coordinates":[[[-79.12649,36.24552],[-79.12897,36.24647],[-79.12882,36.24672],[-79.12773,36.2463],[-79.1265,36.2477],[-79.12832,36.24864],[-79.12808,36.24884],[-79.12517,36.24734],[-79.1259,36.2464],[-79.12649,36.24552]]]}},{"type":"Feature","id":"37145:9990-02-87-4583.000","properties":{"id":"37145:9990-02-87-4583.000","parcelId":"9990-02-87-4583.000","countyFips":"37145","countyName":"Person","state":"North Carolina","marketIds":["Raleigh-Durham"],"situsAddress":"GRAY RD","situsCity":null,"situsZip":null,"jurisdictionCode":null,"ownerName":"COOLEY STEVEN C","ownerName2":null,"propertyName":null,"zoningCode":null,"zoningDistrict":null,"jurisdictionPrefix":null,"dorCode":null,"acreage":10.01,"centroid":[-79.005413,36.24316],"lastSale":{"date":null,"price":null,"qualified":null},"tax":{"marketValue":102586.0,"assessedValue":102586.0,"taxableValue":null,"taxes":null},"mailingAddress":{"line1":null,"line2":null,"city":null,"state":null,"zip":null},"incomeTract":null,"incomeBlockGroup":null,"nearestRoad":null,"flu":null,"opportunityZone":null,"oz2Eligibility":null,"source":"nc-onemap-37145"},"geometry":{"type":"Polygon","coordinates":[[[-79.00616,36.24241],[-79.00617,36.2429],[-79.00663,36.24293],[-79.00628,36.24413],[-79.00343,36.24427],[-79.0034,36.24383],[-79.00515,36.24241],[-79.00608,36.2424],[-79.00616,36.24241]]]}},{"type":"Feature","id":"37145:9990-02-87-6078.000","properties":{"id":"37145:9990-02-87-6078.000","parcelId":"9990-02-87-6078.000","countyFips":"37145","countyName":"Person","state":"North Carolina","marketIds":["Raleigh-Durham"],"situsAddress":"GRAY RD","situsCity":null,"situsZip":null,"jurisdictionCode":null,"ownerName":"COOLEY THERESA MICHELLE","ownerName2":null,"propertyName":null,"zoningCode":null,"zoningDistrict":null,"jurisdictionPrefix":null,"dorCode":null,"acreage":10.01,"centroid":[-79.00496,36.242171],"lastSale":{"date":null,"price":null,"qualified":null},"tax":{"marketValue":108336.0,"assessedValue":108336.0,"taxableValue":null,"taxes":null},"mailingAddress":{"line1":null,"line2":null,"city":null,"state":null,"zip":null},"incomeTract":null,"incomeBlockGroup":null,"nearestRoad":null,"flu":null,"opportunityZone":null,"oz2Eligibility":null,"source":"nc-onemap-37145"},"geometry":{"type":"Polygon","coordinates":[[[-79.00608,36.2424],[-79.00515,36.24241],[-79.0034,36.24383],[-79.00325,36.24128],[-79.00454,36.24163],[-79.00614,36.24124],[-79.00616,36.24241],[-79.00608,36.2424]]]}},{"type":"Feature","id":"37145:9980-00-29-2657.000","properties":{"id":"37145:9980-00-29-2657.000","parcelId":"9980-00-29-2657.000","countyFips":"37145","countyName":"Person","state":"North Carolina","marketIds":["Raleigh-Durham"],"situsAddress":"HICKORY NUT RD","situsCity":null,"situsZip":null,"jurisdictionCode":null,"ownerName":"HESSEE REBECCA BLAND","ownerName2":null,"propertyName":null,"zoningCode":null,"zoningDistrict":null,"jurisdictionPrefix":null,"dorCode":null,"acreage":10.0,"centroid":[-79.060016,36.249164],"lastSale":{"date":null,"price":null,"qualified":null},"tax":{"marketValue":64588.0,"assessedValue":64588.0,"taxableValue":null,"taxes":null},"mailingAddress":{"line1":null,"line2":null,"city":null,"state":null,"zip":null},"incomeTract":null,"incomeBlockGroup":null,"nearestRoad":null,"flu":null,"opportunityZone":null,"oz2Eligibility":null,"source":"nc-onemap-37145"},"geometry":{"type":"Polygon","coordinates":[[[-79.062,36.24871],[-79.06201,36.2499],[-79.0586,36.24986],[-79.05858,36.24867],[-79.05889,36.24868],[-79.062,36.24871]]]}},{"type":"Feature","id":"37145:9950-00-67-4655.000","properties":{"id":"37145:9950-00-67-4655.000","parcelId":"9950-00-67-4655.000","countyFips":"37145","countyName":"Person","state":"North Carolina","marketIds":["Raleigh-Durham"],"situsAddress":"9602 ART RD","situsCity":null,"situsZip":null,"jurisdictionCode":null,"ownerName":"HARRIS LYNDEN L","ownerName2":null,"propertyName":null,"zoningCode":null,"zoningDistrict":null,"jurisdictionPrefix":null,"dorCode":null,"acreage":9.83,"centroid":[-79.147524,36.243147],"lastSale":{"date":null,"price":null,"qualified":null},"tax":{"marketValue":474074.0,"assessedValue":134176.0,"taxableValue":null,"taxes":null},"mailingAddress":{"line1":null,"line2":null,"city":null,"state":null,"zip":null},"incomeTract":null,"incomeBlockGroup":null,"nearestRoad":null,"flu":null,"opportunityZone":null,"oz2Eligibility":null,"source":"nc-onemap-37145"},"geometry":{"type":"Polygon","coordinates":[[[-79.14727,36.24421],[-79.14636,36.24304],[-79.14583,36.24213],[-79.14647,36.24193],[-79.14678,36.2425],[-79.14723,36.24238],[-79.14747,36.2431],[-79.14912,36.24338],[-79.14946,36.24414],[-79.14925,36.24466],[-79.14727,36.24421]]]}},{"type":"Feature","id":"37145:9990-02-89-3536.000","properties":{"id":"37145:9990-02-89-3536.000","parcelId":"9990-02-89-3536.000","countyFips":"37145","countyName":"Person","state":"North Carolina","marketIds":["Raleigh-Durham"],"situsAddress":"848 WILLIE GRAY RD","situsCity":null,"situsZip":null,"jurisdictionCode":null,"ownerName":"MARTIN CHRISTINA LORENE","ownerName2":null,"propertyName":null,"zoningCode":null,"zoningDistrict":null,"jurisdictionPrefix":null,"dorCode":null,"acreage":9.36,"centroid":[-79.005319,36.248488],"lastSale":{"date":null,"price":null,"qualified":null},"tax":{"marketValue":379997.0,"assessedValue":122962.0,"taxableValue":null,"taxes":null},"mailingAddress":{"line1":null,"line2":null,"city":null,"state":null,"zip":null},"incomeTract":null,"incomeBlockGroup":null,"nearestRoad":null,"flu":null,"opportunityZone":null,"oz2Eligibility":null,"source":"nc-onemap-37145"},"geometry":{"type":"Polygon","coordinates":[[[-79.00369,36.24883],[-79.00367,36.24814],[-79.00396,36.24764],[-79.00435,36.24747],[-79.00539,36.24741],[-79.00542,36.24861],[-79.00664,36.24855],[-79.00664,36.24871],[-79.00732,36.24868],[-79.00765,36.2493],[-79.00615,36.24937],[-79.00457,36.24881],[-79.0037,36.24883],[-79.00369,36.24883]]]}},{"type":"Feature","id":"37145:9980-00-29-1285.000","properties":{"id":"37145:9980-00-29-1285.000","parcelId":"9980-00-29-1285.000","countyFips":"37145","countyName":"Person","state":"North Carolina","marketIds":["Raleigh-Durham"],"situsAddress":"644 WRONG WAY RD","situsCity":null,"situsZip":null,"jurisdictionCode":null,"ownerName":"HESSEE REBECCA BLAND","ownerName2":null,"propertyName":null,"zoningCode":null,"zoningDistrict":null,"jurisdictionPrefix":null,"dorCode":null,"acreage":9.0,"centroid":[-79.06044,36.248108],"lastSale":{"date":null,"price":null,"qualified":null},"tax":{"marketValue":409876.0,"assessedValue":73360.0,"taxableValue":null,"taxes":null},"mailingAddress":{"line1":null,"line2":null,"city":null,"state":null,"zip":null},"incomeTract":null,"incomeBlockGroup":null,"nearestRoad":null,"flu":null,"opportunityZone":null,"oz2Eligibility":null,"source":"nc-onemap-37145"},"geometry":{"type":"Polygon","coordinates":[[[-79.05888,36.24752],[-79.06199,36.24752],[-79.062,36.24871],[-79.05889,36.24868],[-79.05888,36.24752]]]}},{"type":"Feature","id":"37145:9980-00-48-5392.000","properties":{"id":"37145:9980-00-48-5392.000","parcelId":"9980-00-48-5392.000","countyFips":"37145","countyName":"Person","state":"North Carolina","marketIds":["Raleigh-Durham"],"situsAddress":"845 RUDYS FARM RD","situsCity":null,"situsZip":null,"jurisdictionCode":null,"ownerName":"SEYMOUR MICHELLE P","ownerName2":null,"propertyName":null,"zoningCode":null,"zoningDistrict":null,"jurisdictionPrefix":null,"dorCode":null,"acreage":8.63,"centroid":[-79.052448,36.2454],"lastSale":{"date":null,"price":null,"qualified":null},"tax":{"marketValue":304135.0,"assessedValue":60650.0,"taxableValue":null,"taxes":null},"mailingAddress":{"line1":null,"line2":null,"city":null,"state":null,"zip":null},"incomeTract":null,"incomeBlockGroup":null,"nearestRoad":null,"flu":null,"opportunityZone":null,"oz2Eligibility":null,"source":"nc-onemap-37145"},"geometry":{"type":"Polygon","coordinates":[[[-79.05294,36.24665],[-79.05102,36.24666],[-79.05212,36.24423],[-79.05311,36.24432],[-79.05305,36.24514],[-79.05294,36.24665]]]}},{"type":"Feature","id":"37145:9980-00-58-2977.000","properties":{"id":"37145:9980-00-58-2977.000","parcelId":"9980-00-58-2977.000","countyFips":"37145","countyName":"Person","state":"North Carolina","marketIds":["Raleigh-Durham"],"situsAddress":"WRONG LN","situsCity":null,"situsZip":null,"jurisdictionCode":null,"ownerName":"BRADSHER NOEL KEITH","ownerName2":null,"propertyName":null,"zoningCode":null,"zoningDistrict":null,"jurisdictionPrefix":null,"dorCode":null,"acreage":7.81,"centroid":[-79.04993,36.247425],"lastSale":{"date":null,"price":null,"qualified":null},"tax":{"marketValue":4264.0,"assessedValue":60234.0,"taxableValue":null,"taxes":null},"mailingAddress":{"line1":null,"line2":null,"city":null,"state":null,"zip":null},"incomeTract":null,"incomeBlockGroup":null,"nearestRoad":null,"flu":null,"opportunityZone":null,"oz2Eligibility":null,"source":"nc-onemap-37145"},"geometry":{"type":"Polygon","coordinates":[[[-79.04886,36.24668],[-79.05104,36.24666],[-79.05092,36.24817],[-79.0489,36.24819],[-79.04886,36.24668]]]}},{"type":"Feature","id":"37145:9970-00-49-0265.000","properties":{"id":"37145:9970-00-49-0265.000","parcelId":"9970-00-49-0265.000","countyFips":"37145","countyName":"Person","state":"North Carolina","marketIds":["Raleigh-Durham"],"situsAddress":"HURDLE MILLS RD","situsCity":null,"situsZip":null,"jurisdictionCode":null,"ownerName":"ALVARADO YEFRIN ARONY PADILLA","ownerName2":null,"propertyName":null,"zoningCode":null,"zoningDistrict":null,"jurisdictionPrefix":null,"dorCode":null,"acreage":7.49,"centroid":[-79.087974,36.247896],"lastSale":{"date":null,"price":null,"qualified":null},"tax":{"marketValue":106602.0,"assessedValue":106602.0,"taxableValue":null,"taxes":null},"mailingAddress":{"line1":null,"line2":null,"city":null,"state":null,"zip":null},"incomeTract":null,"incomeBlockGroup":null,"nearestRoad":null,"flu":null,"opportunityZone":null,"oz2Eligibility":null,"source":"nc-onemap-37145"},"geometry":{"type":"Polygon","coordinates":[[[-79.08859,36.24699],[-79.08878,36.24901],[-79.08762,36.24947],[-79.08712,36.24701],[-79.08776,36.247],[-79.08859,36.24699]]]}},{"type":"Feature","id":"37145:9980-00-58-3410.000","properties":{"id":"37145:9980-00-58-3410.000","parcelId":"9980-00-58-3410.000","countyFips":"37145","countyName":"Person","state":"North Carolina","marketIds":["Raleigh-Durham"],"situsAddress":"RUDYS FARM RD","situsCity":null,"situsZip":null,"jurisdictionCode":null,"ownerName":"BRADSHER NOEL KEITH","ownerName2":null,"propertyName":null,"zoningCode":null,"zoningDistrict":null,"jurisdictionPrefix":null,"dorCode":null,"acreage":7.47,"centroid":[-79.049773,36.245868],"lastSale":{"date":null,"price":null,"qualified":null},"tax":{"marketValue":47381.0,"assessedValue":47381.0,"taxableValue":null,"taxes":null},"mailingAddress":{"line1":null,"line2":null,"city":null,"state":null,"zip":null},"incomeTract":null,"incomeBlockGroup":null,"nearestRoad":null,"flu":null,"opportunityZone":null,"oz2Eligibility":null,"source":"nc-onemap-37145"},"geometry":{"type":"Polygon","coordinates":[[[-79.04881,36.24512],[-79.05078,36.245],[-79.05064,36.24667],[-79.04886,36.24668],[-79.04881,36.24512]]]}},{"type":"Feature","id":"37145:9990-02-76-6713.000","properties":{"id":"37145:9990-02-76-6713.000","parcelId":"9990-02-76-6713.000","countyFips":"37145","countyName":"Person","state":"North Carolina","marketIds":["Raleigh-Durham"],"situsAddress":"327 AL GRAY RD","situsCity":null,"situsZip":null,"jurisdictionCode":null,"ownerName":"BREWER THERESA M","ownerName2":null,"propertyName":null,"zoningCode":null,"zoningDistrict":null,"jurisdictionPrefix":null,"dorCode":null,"acreage":7.19,"centroid":[-79.007934,36.241202],"lastSale":{"date":null,"price":null,"qualified":null},"tax":{"marketValue":121255.0,"assessedValue":121255.0,"taxableValue":null,"taxes":null},"mailingAddress":{"line1":null,"line2":null,"city":null,"state":null,"zip":null},"incomeTract":null,"incomeBlockGroup":null,"nearestRoad":null,"flu":null,"opportunityZone":null,"oz2Eligibility":null,"source":"nc-onemap-37145"},"geometry":{"type":"Polygon","coordinates":[[[-79.00794,36.24144],[-79.00615,36.24165],[-79.00614,36.24124],[-79.00728,36.24103],[-79.00811,36.24028],[-79.00854,36.24028],[-79.00856,36.24058],[-79.00907,36.24056],[-79.00917,36.24215],[-79.00837,36.24219],[-79.00794,36.24182],[-79.00794,36.24144]]]}},{"type":"Feature","id":"37145:9950-00-77-5435.000","properties":{"id":"37145:9950-00-77-5435.000","parcelId":"9950-00-77-5435.000","countyFips":"37145","countyName":"Person","state":"North Carolina","marketIds":["Raleigh-Durham"],"situsAddress":"1810 HENSLEY RD","situsCity":null,"situsZip":null,"jurisdictionCode":null,"ownerName":"COOPER CHARLES W","ownerName2":null,"propertyName":null,"zoningCode":null,"zoningDistrict":null,"jurisdictionPrefix":null,"dorCode":null,"acreage":7.16,"centroid":[-79.143943,36.243173],"lastSale":{"date":null,"price":null,"qualified":null},"tax":{"marketValue":418589.0,"assessedValue":116215.0,"taxableValue":null,"taxes":null},"mailingAddress":{"line1":null,"line2":null,"city":null,"state":null,"zip":null},"incomeTract":null,"incomeBlockGroup":null,"nearestRoad":null,"flu":null,"opportunityZone":null,"oz2Eligibility":null,"source":"nc-onemap-37145"},"geometry":{"type":"Polygon","coordinates":[[[-79.14545,36.2434],[-79.14291,36.24407],[-79.14261,36.24282],[-79.1448,36.2424],[-79.14545,36.2434]]]}},{"type":"Feature","id":"37145:9990-00-09-3394.000","properties":{"id":"37145:9990-00-09-3394.000","parcelId":"9990-00-09-3394.000","countyFips":"37145","countyName":"Person","state":"North Carolina","marketIds":["Raleigh-Durham"],"situsAddress":"0","situsCity":null,"situsZip":null,"jurisdictionCode":null,"ownerName":"JONES RANDY W","ownerName2":null,"propertyName":null,"zoningCode":null,"zoningDistrict":null,"jurisdictionPrefix":null,"dorCode":null,"acreage":7.16,"centroid":[-79.032398,36.248455],"lastSale":{"date":null,"price":null,"qualified":null},"tax":{"marketValue":85554.0,"assessedValue":85554.0,"taxableValue":null,"taxes":null},"mailingAddress":{"line1":null,"line2":null,"city":null,"state":null,"zip":null},"incomeTract":null,"incomeBlockGroup":null,"nearestRoad":null,"flu":null,"opportunityZone":null,"oz2Eligibility":null,"source":"nc-onemap-37145"},"geometry":{"type":"Polygon","coordinates":[[[-79.03297,36.24758],[-79.03344,36.24933],[-79.03159,36.24933],[-79.03159,36.24758],[-79.03297,36.24758]]]}},{"type":"Feature","id":"37145:9990-02-98-8738.000","properties":{"id":"37145:9990-02-98-8738.000","parcelId":"9990-02-98-8738.000","countyFips":"37145","countyName":"Person","state":"North Carolina","marketIds":["Raleigh-Durham"],"situsAddress":"877 WILLIE GRAY RD","situsCity":null,"situsZip":null,"jurisdictionCode":null,"ownerName":"PLUCKER CARL E","ownerName2":null,"propertyName":null,"zoningCode":null,"zoningDistrict":null,"jurisdictionPrefix":null,"dorCode":null,"acreage":7.13,"centroid":[-79.001648,36.247456],"lastSale":{"date":null,"price":null,"qualified":null},"tax":{"marketValue":449701.0,"assessedValue":125136.0,"taxableValue":null,"taxes":null},"mailingAddress":{"line1":null,"line2":null,"city":null,"state":null,"zip":null},"incomeTract":null,"incomeBlockGroup":null,"nearestRoad":null,"flu":null,"opportunityZone":null,"oz2Eligibility":null,"source":"nc-onemap-37145"},"geometry":{"type":"Polygon","coordinates":[[[-79.00263,36.24805],[-79.00345,36.24832],[-79.00345,36.24842],[-78.99923,36.24706],[-78.99928,36.24562],[-79.00089,36.24639],[-79.00171,36.24776],[-79.00254,36.24803],[-79.00263,36.24805]]]}},{"type":"Feature","id":"37145:9960-00-17-9470.000","properties":{"id":"37145:9960-00-17-9470.000","parcelId":"9960-00-17-9470.000","countyFips":"37145","countyName":"Person","state":"North Carolina","marketIds":["Raleigh-Durham"],"situsAddress":"JONES RD","situsCity":null,"situsZip":null,"jurisdictionCode":null,"ownerName":"ROUNTREE DONALD THOMAS JR","ownerName2":null,"propertyName":null,"zoningCode":null,"zoningDistrict":null,"jurisdictionPrefix":null,"dorCode":null,"acreage":6.72,"centroid":[-79.127893,36.24333],"lastSale":{"date":null,"price":null,"qualified":null},"tax":{"marketValue":93147.0,"assessedValue":93147.0,"taxableValue":null,"taxes":null},"mailingAddress":{"line1":null,"line2":null,"city":null,"state":null,"zip":null},"incomeTract":null,"incomeBlockGroup":null,"nearestRoad":null,"flu":null,"opportunityZone":null,"oz2Eligibility":null,"source":"nc-onemap-37145"},"geometry":{"type":"Polygon","coordinates":[[[-79.12467,36.24321],[-79.13299,36.24269],[-79.13283,36.24295],[-79.12646,36.24334],[-79.12576,36.24389],[-79.12465,36.2439],[-79.12467,36.24321]]]}},{"type":"Feature","id":"37145:9980-00-57-2859.000","properties":{"id":"37145:9980-00-57-2859.000","parcelId":"9980-00-57-2859.000","countyFips":"37145","countyName":"Person","state":"North Carolina","marketIds":["Raleigh-Durham"],"situsAddress":"RUDYS FARM RD","situsCity":null,"situsZip":null,"jurisdictionCode":null,"ownerName":"MORROW BETTY RUTH B ESTATE","ownerName2":null,"propertyName":null,"zoningCode":null,"zoningDistrict":null,"jurisdictionPrefix":null,"dorCode":null,"acreage":6.66,"centroid":[-79.049722,36.244472],"lastSale":{"date":null,"price":null,"qualified":null},"tax":{"marketValue":42456.0,"assessedValue":42456.0,"taxableValue":null,"taxes":null},"mailingAddress":{"line1":null,"line2":null,"city":null,"state":null,"zip":null},"incomeTract":null,"incomeBlockGroup":null,"nearestRoad":null,"flu":null,"opportunityZone":null,"oz2Eligibility":null,"source":"nc-onemap-37145"},"geometry":{"type":"Polygon","coordinates":[[[-79.04879,36.24441],[-79.04879,36.24367],[-79.05144,36.24416],[-79.05078,36.245],[-79.04881,36.24512],[-79.04879,36.24441]]]}},{"type":"Feature","id":"37145:9960-00-27-3508.000","properties":{"id":"37145:9960-00-27-3508.000","parcelId":"9960-00-27-3508.000","countyFips":"37145","countyName":"Person","state":"North Carolina","marketIds":["Raleigh-Durham"],"situsAddress":"JONES RD","situsCity":null,"situsZip":null,"jurisdictionCode":null,"ownerName":"BACON THOMAS H III","ownerName2":null,"propertyName":null,"zoningCode":null,"zoningDistrict":null,"jurisdictionPrefix":null,"dorCode":null,"acreage":6.56,"centroid":[-79.129257,36.243452],"lastSale":{"date":null,"price":null,"qualified":null},"tax":{"marketValue":90623.0,"assessedValue":90623.0,"taxableValue":null,"taxes":null},"mailingAddress":{"line1":null,"line2":null,"city":null,"state":null,"zip":null},"incomeTract":null,"incomeBlockGroup":null,"nearestRoad":null,"flu":null,"opportunityZone":null,"oz2Eligibility":null,"source":"nc-onemap-37145"},"geometry":{"type":"Polygon","coordinates":[[[-79.12576,36.24389],[-79.12646,36.24334],[-79.13283,36.24295],[-79.13266,36.2432],[-79.12892,36.24344],[-79.12891,36.24389],[-79.12576,36.24389]]]}},{"type":"Feature","id":"37145:9990-02-98-5547.000","properties":{"id":"37145:9990-02-98-5547.000","parcelId":"9990-02-98-5547.000","countyFips":"37145","countyName":"Person","state":"North Carolina","marketIds":["Raleigh-Durham"],"situsAddress":"899 WILLIE GRAY RD","situsCity":null,"situsZip":null,"jurisdictionCode":null,"ownerName":"THOMPSON LISA CAROL","ownerName2":null,"propertyName":null,"zoningCode":null,"zoningDistrict":null,"jurisdictionPrefix":null,"dorCode":null,"acreage":6.31,"centroid":[-79.001582,36.246494],"lastSale":{"date":null,"price":null,"qualified":null},"tax":{"marketValue":344284.0,"assessedValue":113052.0,"taxableValue":null,"taxes":null},"mailingAddress":{"line1":null,"line2":null,"city":null,"state":null,"zip":null},"incomeTract":null,"incomeBlockGroup":null,"nearestRoad":null,"flu":null,"opportunityZone":null,"oz2Eligibility":null,"source":"nc-onemap-37145"},"geometry":{"type":"Polygon","coordinates":[[[-78.99928,36.24562],[-79.00155,36.24559],[-79.00354,36.24758],[-79.00354,36.24774],[-79.0,36.24594],[-78.99928,36.24562]]]}},{"type":"Feature","id":"37145:9980-00-36-2920.000","properties":{"id":"37145:9980-00-36-2920.000","parcelId":"9980-00-36-2920.000","countyFips":"37145","countyName":"Person","state":"North Carolina","marketIds":["Raleigh-Durham"],"situsAddress":"RUDYS FARM RD","situsCity":null,"situsZip":null,"jurisdictionCode":null,"ownerName":"JACKNA JOHN H JR","ownerName2":null,"propertyName":null,"zoningCode":null,"zoningDistrict":null,"jurisdictionPrefix":null,"dorCode":null,"acreage":6.24,"centroid":[-79.0569,36.241743],"lastSale":{"date":null,"price":null,"qualified":null},"tax":{"marketValue":41855.0,"assessedValue":41855.0,"taxableValue":null,"taxes":null},"mailingAddress":{"line1":null,"line2":null,"city":null,"state":null,"zip":null},"incomeTract":null,"incomeBlockGroup":null,"nearestRoad":null,"flu":null,"opportunityZone":null,"oz2Eligibility":null,"source":"nc-onemap-37145"},"geometry":{"type":"Polygon","coordinates":[[[-79.05757,36.2409],[-79.05767,36.2426],[-79.05622,36.24259],[-79.05614,36.24088],[-79.05757,36.2409]]]}},{"type":"Feature","id":"37145:9990-02-68-2045.000","properties":{"id":"37145:9990-02-68-2045.000","parcelId":"9990-02-68-2045.000","countyFips":"37145","countyName":"Person","state":"North Carolina","marketIds":["Raleigh-Durham"],"situsAddress":"1439 WILLIE GRAY RD","situsCity":null,"situsZip":null,"jurisdictionCode":null,"ownerName":"CONNOLLY ROBERT FRANCIS","ownerName2":null,"propertyName":null,"zoningCode":null,"zoningDistrict":null,"jurisdictionPrefix":null,"dorCode":null,"acreage":6.18,"centroid":[-79.012826,36.244992],"lastSale":{"date":null,"price":null,"qualified":null},"tax":{"marketValue":233527.0,"assessedValue":87246.0,"taxableValue":null,"taxes":null},"mailingAddress":{"line1":null,"line2":null,"city":null,"state":null,"zip":null},"incomeTract":null,"incomeBlockGroup":null,"nearestRoad":null,"flu":null,"opportunityZone":null,"oz2Eligibility":null,"source":"nc-onemap-37145"},"geometry":{"type":"Polygon","coordinates":[[[-79.01328,36.24381],[-79.01337,36.24544],[-79.01324,36.24568],[-79.01219,36.24617],[-79.01205,36.24386],[-79.01328,36.24381]]]}},{"type":"Feature","id":"37145:9990-00-71-9038.000","properties":{"id":"37145:9990-00-71-9038.000","parcelId":"9990-00-71-9038.000","countyFips":"37145","countyName":"Person","state":"North Carolina","marketIds":["Raleigh-Durham"],"situsAddress":"AL GRAY RD","situsCity":null,"situsZip":null,"jurisdictionCode":null,"ownerName":"BREWER THERESA M","ownerName2":null,"propertyName":null,"zoningCode":null,"zoningDistrict":null,"jurisdictionPrefix":null,"dorCode":null,"acreage":5.27,"centroid":[-79.007001,36.242418],"lastSale":{"date":null,"price":null,"qualified":null},"tax":{"marketValue":62744.0,"assessedValue":57481.0,"taxableValue":null,"taxes":null},"mailingAddress":{"line1":null,"line2":null,"city":null,"state":null,"zip":null},"incomeTract":null,"incomeBlockGroup":null,"nearestRoad":null,"flu":null,"opportunityZone":null,"oz2Eligibility":null,"source":"nc-onemap-37145"},"geometry":{"type":"Polygon","coordinates":[[[-79.00794,36.24182],[-79.00745,36.24233],[-79.00716,36.24314],[-79.00657,36.24313],[-79.00663,36.24293],[-79.00617,36.2429],[-79.00615,36.24165],[-79.00794,36.24144],[-79.00794,36.24182]]]}},{"type":"Feature","id":"37145:9980-00-47-3804.000","properties":{"id":"37145:9980-00-47-3804.000","parcelId":"9980-00-47-3804.000","countyFips":"37145","countyName":"Person","state":"North Carolina","marketIds":["Raleigh-Durham"],"situsAddress":"RUDYS FARM RD","situsCity":null,"situsZip":null,"jurisdictionCode":null,"ownerName":"ROSS CHRISTANA TRUSTEE","ownerName2":null,"propertyName":null,"zoningCode":null,"zoningDistrict":null,"jurisdictionPrefix":null,"dorCode":null,"acreage":5.16,"centroid":[-79.053107,36.244383],"lastSale":{"date":null,"price":null,"qualified":null},"tax":{"marketValue":43734.0,"assessedValue":43734.0,"taxableValue":null,"taxes":null},"mailingAddress":{"line1":null,"line2":null,"city":null,"state":null,"zip":null},"incomeTract":null,"incomeBlockGroup":null,"nearestRoad":null,"flu":null,"opportunityZone":null,"oz2Eligibility":null,"source":"nc-onemap-37145"},"geometry":{"type":"Polygon","coordinates":[[[-79.05213,36.24365],[-79.05381,36.24388],[-79.05455,36.2445],[-79.05365,36.24518],[-79.05306,36.24499],[-79.05311,36.24432],[-79.05144,36.24416],[-79.05213,36.24365]]]}}]}