{"type":"FeatureCollection","name":"47093--6_35","features":[{"type":"Feature","id":"47093:141  014","properties":{"id":"47093:141  014","parcelId":"141  014","countyFips":"47093","countyName":"Knox","state":"Tennessee","marketIds":["Knoxville"],"situsAddress":"13071 HICKORY CREEK RD","situsCity":null,"situsZip":null,"jurisdictionCode":"KNOX-COUNTY","ownerName":"T V A","ownerName2":null,"propertyName":null,"zoningCode":"A","zoningDistrict":"A","jurisdictionPrefix":"KNOX-COUNTY","dorCode":"501: FEDERAL","acreage":56.68,"centroid":[-84.253045,35.894214],"lastSale":{"date":"1900-01-01","price":null,"qualified":null,"datePurchased":null,"deedBook":null,"deedPage":null,"odocBook":"000000NR","odocPage":"00000NR"},"tax":{"marketValue":0.0,"assessedValue":0.0,"taxableValue":null,"taxes":null,"appraisedLand":0.0,"appraisedBuilding":0.0},"mailingAddress":{"line1":"400 SUMMITT HILL DR","line2":null,"city":"KNOXVILLE","state":"TN","zip":"37902"},"incomeTract":null,"incomeBlockGroup":null,"nearestRoad":null,"flu":{"code":"POS","label":"POS","jurisdiction":"KNOX-COUNTY","source":"advance-knox"},"opportunityZone":null,"oz2Eligibility":null,"source":"kgis-parcel-search","appraiserUrl":"https://propertyinfo.knoxcountytn.gov/Datalets/Datalet.aspx?ParcelID=141%20%20014&UseSearch=yes","dataGaps":[],"municipality":"Unincorporated Knox County","baseParcelId":null,"pbaid":null,"recordedAcreage":0.0},"geometry":{"type":"MultiPolygon","coordinates":[[[[-84.244415,35.888368],[-84.244586,35.888661],[-84.244725,35.888894],[-84.245293,35.889287],[-84.24579,35.888599],[-84.245805,35.888426],[-84.245777,35.88831],[-84.245754,35.888267],[-84.245243,35.887795],[-84.245053,35.887674],[-84.244854,35.887604],[-84.243754,35.887556],[-84.24342,35.887768],[-84.243436,35.888297],[-84.243485,35.888653],[-84.243989,35.888277],[-84.244415,35.888368]]],[[[-84.245292,35.890373],[-84.245441,35.890507],[-84.245641,35.890347],[-84.246084,35.890146],[-84.245826,35.889873],[-84.245649,35.889644],[-84.245292,35.890373]]],[[[-84.256352,35.892583],[-84.256415,35.892588],[-84.256602,35.892626],[-84.256724,35.892456],[-84.256437,35.892349],[-84.256352,35.892583]]],[[[-84.253441,35.89466],[-84.253657,35.894751],[-84.253957,35.894882],[-84.254482,35.89522],[-84.254911,35.895315],[-84.255025,35.894567],[-84.255033,35.893856],[-84.255224,35.893622],[-84.255561,35.893513],[-84.256829,35.893884],[-84.257972,35.893941],[-84.258832,35.89434],[-84.259415,35.894558],[-84.26105,35.895243],[-84.258528,35.892931],[-84.257292,35.892978],[-84.25694,35.892909],[-84.256599,35.892772],[-84.256415,35.892727],[-84.256057,35.89273],[-84.254815,35.892607],[-84.254612,35.892619],[-84.254483,35.89266],[-84.254138,35.892838],[-84.253938,35.894197],[-84.25383,35.894155],[-84.253286,35.894044],[-84.252976,35.893956],[-84.252836,35.893875],[-84.252737,35.893782],[-84.252564,35.893426],[-84.252545,35.893331],[-84.252451,35.893139],[-84.25236,35.89299],[-84.252264,35.892878],[-84.252109,35.892747],[-84.251726,35.892573],[-84.251394,35.892463],[-84.251091,35.89248],[-84.250958,35.892455],[-84.250868,35.892387],[-84.250844,35.892329],[-84.25085,35.892231],[-84.250579,35.892118],[-84.250429,35.892014],[-84.249909,35.891368],[-84.24925,35.890608],[-84.248379,35.889686],[-84.247326,35.888955],[-84.246296,35.888663],[-84.246389,35.888834],[-84.246268,35.888876],[-84.246146,35.888707],[-84.245942,35.888637],[-84.245897,35.888693],[-84.245643,35.889052],[-84.245613,35.889142],[-84.245612,35.889274],[-84.245637,35.889357],[-84.24578,35.889556],[-84.245965,35.889795],[-84.246185,35.890034],[-84.246405,35.890211],[-84.246655,35.890363],[-84.249107,35.8916],[-84.249415,35.891793],[-84.2496,35.891968],[-84.249743,35.892179],[-84.249817,35.892363],[-84.249872,35.892359],[-84.249949,35.892422],[-84.250021,35.892514],[-84.250073,35.892632],[-84.250037,35.892801],[-84.249704,35.893335],[-84.249652,35.893391],[-84.249819,35.893457],[-84.250004,35.893315],[-84.250179,35.893214],[-84.25038,35.89312],[-84.250495,35.893088],[-84.250719,35.893133],[-84.250834,35.893136],[-84.250853,35.893156],[-84.250902,35.893156],[-84.251035,35.893205],[-84.251276,35.89322],[-84.251455,35.893297],[-84.25133,35.893378],[-84.252021,35.894059],[-84.253441,35.89466]]]]}},{"type":"Feature","id":"47093:128  00902","properties":{"id":"47093:128  00902","parcelId":"128  00902","countyFips":"47093","countyName":"Knox","state":"Tennessee","marketIds":["Knoxville"],"situsAddress":"2407 DIGGS RD","situsCity":null,"situsZip":null,"jurisdictionCode":"KNOX-COUNTY","ownerName":"FULGHUM WILLIAM C & FULGHUM HEATHER J","ownerName2":null,"propertyName":null,"zoningCode":"A","zoningDistrict":"A","jurisdictionPrefix":"KNOX-COUNTY","dorCode":"880: AGRICULTURE-ACT","acreage":33.83,"centroid":[-84.251734,35.905796],"lastSale":{"date":"2024-11-18","price":38400.0,"qualified":null,"datePurchased":null,"deedBook":null,"deedPage":null,"odocBook":"20241118","odocPage":"0026968"},"tax":{"marketValue":1443600.0,"assessedValue":360900.0,"taxableValue":null,"taxes":null,"appraisedLand":121800.0,"appraisedBuilding":1321800.0},"mailingAddress":{"line1":"2407 DIGGS RD","line2":null,"city":"KNOXVILLE","state":"TN","zip":"37932"},"incomeTract":null,"incomeBlockGroup":null,"nearestRoad":null,"flu":{"code":"RL","label":"RL","jurisdiction":"KNOX-COUNTY","source":"advance-knox"},"opportunityZone":null,"oz2Eligibility":null,"source":"kgis-parcel-search","appraiserUrl":"https://propertyinfo.knoxcountytn.gov/Datalets/Datalet.aspx?ParcelID=128%20%2000902&UseSearch=yes","dataGaps":[],"municipality":"Unincorporated Knox County","baseParcelId":null,"pbaid":null,"recordedAcreage":0.0},"geometry":{"type":"Polygon","coordinates":[[[-84.252249,35.907866],[-84.252278,35.908864],[-84.252592,35.908837],[-84.252556,35.90758],[-84.252949,35.907215],[-84.252926,35.906816],[-84.254196,35.906395],[-84.256039,35.905678],[-84.255807,35.905464],[-84.255312,35.904889],[-84.255175,35.904781],[-84.254055,35.903634],[-84.250964,35.905282],[-84.24997,35.903726],[-84.249964,35.903982],[-84.249856,35.904157],[-84.24973,35.90426],[-84.249225,35.904558],[-84.249052,35.904682],[-84.248807,35.904934],[-84.248657,35.905135],[-84.249061,35.90538],[-84.249172,35.905308],[-84.251393,35.906209],[-84.251537,35.907056],[-84.251556,35.907998],[-84.252249,35.907866]]]}},{"type":"Feature","id":"47093:140  004","properties":{"id":"47093:140  004","parcelId":"140  004","countyFips":"47093","countyName":"Knox","state":"Tennessee","marketIds":["Knoxville"],"situsAddress":"13124 GEORGE LOVELACE LN","situsCity":null,"situsZip":null,"jurisdictionCode":"KNOX-COUNTY","ownerName":"POTTS ROBERT L & MARY J G","ownerName2":null,"propertyName":null,"zoningCode":"A","zoningDistrict":"A","jurisdictionPrefix":"KNOX-COUNTY","dorCode":"880: AGRICULTURE-ACT","acreage":27.98,"centroid":[-84.253741,35.896291],"lastSale":{"date":"2001-12-12","price":null,"qualified":null,"datePurchased":null,"deedBook":null,"deedPage":null,"odocBook":"20011212","odocPage":"0047577"},"tax":{"marketValue":639200.0,"assessedValue":159800.0,"taxableValue":null,"taxes":null,"appraisedLand":205700.0,"appraisedBuilding":433500.0},"mailingAddress":{"line1":"13124 GEORGE LOVELACE LN","line2":null,"city":"KNOXVILLE","state":"TN","zip":"37932"},"incomeTract":null,"incomeBlockGroup":null,"nearestRoad":null,"flu":{"code":"RL","label":"RL","jurisdiction":"KNOX-COUNTY","source":"advance-knox"},"opportunityZone":null,"oz2Eligibility":null,"source":"kgis-parcel-search","appraiserUrl":"https://propertyinfo.knoxcountytn.gov/Datalets/Datalet.aspx?ParcelID=140%20%20004&UseSearch=yes","dataGaps":[],"municipality":"Unincorporated Knox County","baseParcelId":null,"pbaid":null,"recordedAcreage":null},"geometry":{"type":"Polygon","coordinates":[[[-84.253464,35.897873],[-84.255132,35.898894],[-84.256889,35.896317],[-84.254911,35.895315],[-84.254482,35.89522],[-84.253957,35.894882],[-84.253441,35.89466],[-84.253105,35.894765],[-84.252707,35.895082],[-84.252116,35.8958],[-84.253244,35.896295],[-84.252945,35.897414],[-84.252809,35.897669],[-84.253176,35.897893],[-84.253464,35.897873]]]}},{"type":"Feature","id":"47093:115  01002","properties":{"id":"47093:115  01002","parcelId":"115  01002","countyFips":"47093","countyName":"Knox","state":"Tennessee","marketIds":["Knoxville"],"situsAddress":"12740 MANNING LN","situsCity":null,"situsZip":null,"jurisdictionCode":"KNOX-COUNTY","ownerName":"HAMMAKER CHARLTON ATLEE & VIRGINIA J","ownerName2":null,"propertyName":null,"zoningCode":"A","zoningDistrict":"A","jurisdictionPrefix":"KNOX-COUNTY","dorCode":"880: AGRICULTURE-ACT","acreage":27.62,"centroid":[-84.258484,35.933707],"lastSale":{"date":"1988-07-18","price":null,"qualified":null,"datePurchased":null,"deedBook":"94L","deedPage":"38","odocBook":"00001953","odocPage":"0000780"},"tax":{"marketValue":2065900.0,"assessedValue":516475.0,"taxableValue":null,"taxes":null,"appraisedLand":222000.0,"appraisedBuilding":1843900.0},"mailingAddress":{"line1":"12740 MANNING LN","line2":null,"city":"KNOXVILLE","state":"TN","zip":"37932"},"incomeTract":null,"incomeBlockGroup":null,"nearestRoad":null,"flu":{"code":"RL","label":"RL","jurisdiction":"KNOX-COUNTY","source":"advance-knox"},"opportunityZone":null,"oz2Eligibility":null,"source":"kgis-parcel-search","appraiserUrl":"https://propertyinfo.knoxcountytn.gov/Datalets/Datalet.aspx?ParcelID=115%20%2001002&UseSearch=yes","dataGaps":[],"municipality":"Unincorporated Knox County","baseParcelId":null,"pbaid":null,"recordedAcreage":0.0},"geometry":{"type":"Polygon","coordinates":[[[-84.258971,35.934327],[-84.260494,35.935209],[-84.2608,35.934945],[-84.261124,35.934972],[-84.261424,35.934833],[-84.26181,35.934491],[-84.262086,35.934573],[-84.262705,35.934388],[-84.261527,35.933736],[-84.261438,35.933486],[-84.260611,35.932924],[-84.259737,35.932197],[-84.258692,35.933023],[-84.258534,35.932716],[-84.258972,35.932248],[-84.258105,35.931825],[-84.257189,35.932592],[-84.255243,35.932917],[-84.255286,35.933065],[-84.255266,35.933217],[-84.254962,35.933914],[-84.255,35.933973],[-84.25506,35.933967],[-84.255325,35.933576],[-84.25543,35.933512],[-84.255551,35.933501],[-84.256303,35.933843],[-84.258727,35.933975],[-84.258784,35.934025],[-84.258783,35.934068],[-84.258756,35.934096],[-84.258707,35.93411],[-84.258584,35.934103],[-84.258971,35.934327]]]}},{"type":"Feature","id":"47093:128  01401","properties":{"id":"47093:128  01401","parcelId":"128  01401","countyFips":"47093","countyName":"Knox","state":"Tennessee","marketIds":["Knoxville"],"situsAddress":"13055 GEORGE LOVELACE LN","situsCity":null,"situsZip":null,"jurisdictionCode":"KNOX-COUNTY","ownerName":"TOMPKINS MICHAEL C & TOMPKINS ANGELA","ownerName2":null,"propertyName":null,"zoningCode":"A","zoningDistrict":"A","jurisdictionPrefix":"KNOX-COUNTY","dorCode":"880: AGRICULTURE-ACT","acreage":27.02,"centroid":[-84.256052,35.901095],"lastSale":{"date":"2022-06-24","price":null,"qualified":null,"datePurchased":null,"deedBook":"20200225","deedPage":"0056554","odocBook":"20220708","odocPage":"0001872"},"tax":{"marketValue":955400.0,"assessedValue":238850.0,"taxableValue":null,"taxes":null,"appraisedLand":193800.0,"appraisedBuilding":761600.0},"mailingAddress":{"line1":"13055 GEORGE LOVELACE LN","line2":null,"city":"KNOXVILLE","state":"TN","zip":"37932"},"incomeTract":null,"incomeBlockGroup":null,"nearestRoad":null,"flu":{"code":"RL","label":"RL","jurisdiction":"KNOX-COUNTY","source":"advance-knox"},"opportunityZone":null,"oz2Eligibility":null,"source":"kgis-parcel-search","appraiserUrl":"https://propertyinfo.knoxcountytn.gov/Datalets/Datalet.aspx?ParcelID=128%20%2001401&UseSearch=yes","dataGaps":[],"municipality":"Unincorporated Knox County","baseParcelId":null,"pbaid":null,"recordedAcreage":0.0},"geometry":{"type":"Polygon","coordinates":[[[-84.254009,35.902546],[-84.254794,35.903338],[-84.256862,35.902543],[-84.258059,35.903094],[-84.258758,35.901906],[-84.257323,35.899571],[-84.257105,35.899441],[-84.256711,35.899575],[-84.256018,35.899874],[-84.255291,35.900343],[-84.254724,35.899713],[-84.254265,35.90037],[-84.255419,35.901329],[-84.255385,35.901693],[-84.254009,35.902546]]]}},{"type":"Feature","id":"47093:128  011","properties":{"id":"47093:128  011","parcelId":"128  011","countyFips":"47093","countyName":"Knox","state":"Tennessee","marketIds":["Knoxville"],"situsAddress":"12917 LOVELACE RD","situsCity":null,"situsZip":null,"jurisdictionCode":"KNOX-COUNTY","ownerName":"MANROD COURTNEY A (TRUST)","ownerName2":null,"propertyName":null,"zoningCode":"A","zoningDistrict":"A","jurisdictionPrefix":"KNOX-COUNTY","dorCode":"880: AGRICULTURE-ACT","acreage":24.48,"centroid":[-84.252258,35.910202],"lastSale":{"date":"2025-09-11","price":null,"qualified":null,"datePurchased":null,"deedBook":null,"deedPage":null,"odocBook":"20250922","odocPage":"0017251"},"tax":{"marketValue":909700.0,"assessedValue":227425.0,"taxableValue":null,"taxes":null,"appraisedLand":144500.0,"appraisedBuilding":765200.0},"mailingAddress":{"line1":"12913 LOVELACE RD","line2":null,"city":"KNOXVILLE","state":"TN","zip":"37932"},"incomeTract":null,"incomeBlockGroup":null,"nearestRoad":null,"flu":{"code":"RL","label":"RL","jurisdiction":"KNOX-COUNTY","source":"advance-knox"},"opportunityZone":null,"oz2Eligibility":null,"source":"kgis-parcel-search","appraiserUrl":"https://propertyinfo.knoxcountytn.gov/Datalets/Datalet.aspx?ParcelID=128%20%20011&UseSearch=yes","dataGaps":[],"municipality":"Unincorporated Knox County","baseParcelId":null,"pbaid":null,"recordedAcreage":null},"geometry":{"type":"Polygon","coordinates":[[[-84.251079,35.912875],[-84.251782,35.913772],[-84.255004,35.911494],[-84.254875,35.911326],[-84.254768,35.911229],[-84.254123,35.910877],[-84.253754,35.910579],[-84.253414,35.910765],[-84.25315,35.910479],[-84.253403,35.910282],[-84.253296,35.910176],[-84.253175,35.909985],[-84.253124,35.909843],[-84.252989,35.90923],[-84.252784,35.908936],[-84.252112,35.908998],[-84.251791,35.90908],[-84.250478,35.909315],[-84.250476,35.90934],[-84.250394,35.909324],[-84.250391,35.90938],[-84.250585,35.909438],[-84.250801,35.909411],[-84.251025,35.909355],[-84.251239,35.909342],[-84.251507,35.909391],[-84.251665,35.909466],[-84.251898,35.909716],[-84.252064,35.910261],[-84.25239,35.910565],[-84.250447,35.912037],[-84.251079,35.912875]]]}},{"type":"Feature","id":"47093:128  008","properties":{"id":"47093:128  008","parcelId":"128  008","countyFips":"47093","countyName":"Knox","state":"Tennessee","marketIds":["Knoxville"],"situsAddress":"12931 LOVELACE RD","situsCity":null,"situsZip":null,"jurisdictionCode":"KNOX-COUNTY","ownerName":"MANROD COURTNEY A (TRUST)","ownerName2":null,"propertyName":null,"zoningCode":"A","zoningDistrict":"A","jurisdictionPrefix":"KNOX-COUNTY","dorCode":"881: FOREST","acreage":22.03,"centroid":[-84.25345,35.914768],"lastSale":{"date":"2025-09-11","price":null,"qualified":null,"datePurchased":null,"deedBook":"20050913","deedPage":"0024050","odocBook":"20250922","odocPage":"0017252"},"tax":{"marketValue":48000.0,"assessedValue":12000.0,"taxableValue":null,"taxes":null,"appraisedLand":48000.0,"appraisedBuilding":0.0},"mailingAddress":{"line1":"12913 LOVELACE RD","line2":null,"city":"KNOXVILLE","state":"TN","zip":"37932"},"incomeTract":null,"incomeBlockGroup":null,"nearestRoad":null,"flu":{"code":"RL","label":"RL","jurisdiction":"KNOX-COUNTY","source":"advance-knox"},"opportunityZone":null,"oz2Eligibility":null,"source":"kgis-parcel-search","appraiserUrl":"https://propertyinfo.knoxcountytn.gov/Datalets/Datalet.aspx?ParcelID=128%20%20008&UseSearch=yes","dataGaps":[],"municipality":"Unincorporated Knox County","baseParcelId":null,"pbaid":null,"recordedAcreage":null},"geometry":{"type":"Polygon","coordinates":[[[-84.251782,35.913772],[-84.253295,35.915619],[-84.254813,35.914652],[-84.25542,35.914466],[-84.254969,35.913237],[-84.255055,35.913109],[-84.255464,35.91264],[-84.255572,35.912364],[-84.255573,35.912298],[-84.255519,35.91204],[-84.254944,35.911274],[-84.254756,35.91112],[-84.254281,35.910871],[-84.254027,35.910701],[-84.25337,35.910125],[-84.253291,35.910007],[-84.253234,35.909878],[-84.25302,35.908929],[-84.252784,35.908936],[-84.252989,35.90923],[-84.253124,35.909843],[-84.253175,35.909985],[-84.253296,35.910176],[-84.253403,35.910282],[-84.25315,35.910479],[-84.253414,35.910765],[-84.253754,35.910579],[-84.254123,35.910877],[-84.254768,35.911229],[-84.254875,35.911326],[-84.255004,35.911494],[-84.251782,35.913772]]]}},{"type":"Feature","id":"47093:140  010","properties":{"id":"47093:140  010","parcelId":"140  010","countyFips":"47093","countyName":"Knox","state":"Tennessee","marketIds":["Knoxville"],"situsAddress":"2143 EVERETT RD","situsCity":null,"situsZip":null,"jurisdictionCode":"KNOX-COUNTY","ownerName":"BRENNAN JOEY LEA","ownerName2":null,"propertyName":null,"zoningCode":"A","zoningDistrict":"A","jurisdictionPrefix":"KNOX-COUNTY","dorCode":"101: 1-FAMILY","acreage":14.9,"centroid":[-84.25354,35.891458],"lastSale":{"date":"2020-06-24","price":null,"qualified":null,"datePurchased":null,"deedBook":"59S","deedPage":"41","odocBook":"20200629","odocPage":"0087366"},"tax":{"marketValue":413100.0,"assessedValue":103275.0,"taxableValue":null,"taxes":null,"appraisedLand":245900.0,"appraisedBuilding":167200.0},"mailingAddress":{"line1":"2139 EVERETT RD","line2":null,"city":"KNOXVILLE","state":"TN","zip":"37932"},"incomeTract":null,"incomeBlockGroup":null,"nearestRoad":null,"flu":{"code":"RL","label":"RL","jurisdiction":"KNOX-COUNTY","source":"advance-knox"},"opportunityZone":null,"oz2Eligibility":null,"source":"kgis-parcel-search","appraiserUrl":"https://propertyinfo.knoxcountytn.gov/Datalets/Datalet.aspx?ParcelID=140%20%20010&UseSearch=yes","dataGaps":[],"municipality":"Unincorporated Knox County","baseParcelId":null,"pbaid":null,"recordedAcreage":0.0},"geometry":{"type":"Polygon","coordinates":[[[-84.25271,35.89292],[-84.252747,35.892959],[-84.252884,35.893044],[-84.252988,35.893071],[-84.253177,35.893068],[-84.253332,35.893038],[-84.253652,35.891145],[-84.254962,35.891285],[-84.255329,35.888973],[-84.254775,35.889025],[-84.254254,35.888424],[-84.252279,35.890932],[-84.252932,35.891068],[-84.25271,35.89292]]]}},{"type":"Feature","id":"47093:115  00703","properties":{"id":"47093:115  00703","parcelId":"115  00703","countyFips":"47093","countyName":"Knox","state":"Tennessee","marketIds":["Knoxville"],"situsAddress":"0 MANNING LN","situsCity":null,"situsZip":null,"jurisdictionCode":"KNOX-COUNTY","ownerName":"GALLAHER LESLIE E","ownerName2":null,"propertyName":null,"zoningCode":"A","zoningDistrict":"A","jurisdictionPrefix":"KNOX-COUNTY","dorCode":"101: 1-FAMILY","acreage":10.7,"centroid":[-84.258702,35.935102],"lastSale":{"date":null,"price":null,"qualified":null,"datePurchased":null,"deedBook":"94L","deedPage":"38","odocBook":null,"odocPage":null},"tax":{"marketValue":470300.0,"assessedValue":117575.0,"taxableValue":null,"taxes":null,"appraisedLand":470300.0,"appraisedBuilding":0.0},"mailingAddress":{"line1":"3231 WEST GALLAHER FERRY RD","line2":null,"city":"KNOXVILLE","state":"TN","zip":"37932"},"incomeTract":null,"incomeBlockGroup":null,"nearestRoad":null,"flu":{"code":"RL","label":"RL","jurisdiction":"KNOX-COUNTY","source":"advance-knox"},"opportunityZone":null,"oz2Eligibility":null,"source":"kgis-parcel-search","appraiserUrl":"https://propertyinfo.knoxcountytn.gov/Datalets/Datalet.aspx?ParcelID=115%20%2000703&UseSearch=yes","dataGaps":[],"municipality":"Unincorporated Knox County","baseParcelId":null,"pbaid":"238190","recordedAcreage":0.0},"geometry":{"type":"MultiPolygon","coordinates":[[[[-84.255609,35.933709],[-84.255585,35.933699],[-84.255485,35.933701],[-84.255422,35.933745],[-84.255107,35.934176],[-84.254969,35.934329],[-84.257015,35.935526],[-84.256204,35.934006],[-84.255609,35.933709]]],[[[-84.2584,35.934999],[-84.25811,35.936183],[-84.259654,35.935931],[-84.260494,35.935209],[-84.258971,35.934327],[-84.258476,35.934872],[-84.257794,35.934607],[-84.257718,35.934691],[-84.2584,35.934999]]]]}},{"type":"Feature","id":"47093:115  018","properties":{"id":"47093:115  018","parcelId":"115  018","countyFips":"47093","countyName":"Knox","state":"Tennessee","marketIds":["Knoxville"],"situsAddress":"0 WEST GALLAHER FERRY RD","situsCity":null,"situsZip":null,"jurisdictionCode":"KNOX-COUNTY","ownerName":"DEVAULT ROBERT C & WATTS JULIA A","ownerName2":null,"propertyName":null,"zoningCode":"A","zoningDistrict":"A","jurisdictionPrefix":"KNOX-COUNTY","dorCode":"191: UNUSED-LAND","acreage":10.0,"centroid":[-84.250647,35.929835],"lastSale":{"date":"1993-01-20","price":125000.0,"qualified":null,"datePurchased":null,"deedBook":"41S","deedPage":"55","odocBook":"00002094","odocPage":"0001032"},"tax":{"marketValue":595500.0,"assessedValue":148875.0,"taxableValue":null,"taxes":null,"appraisedLand":595500.0,"appraisedBuilding":0.0},"mailingAddress":{"line1":"3132 GALLAHER FERRY DR WEST","line2":null,"city":"KNOXVILLE","state":"TN","zip":"37932"},"incomeTract":null,"incomeBlockGroup":null,"nearestRoad":null,"flu":{"code":"RL","label":"RL","jurisdiction":"KNOX-COUNTY","source":"advance-knox"},"opportunityZone":null,"oz2Eligibility":null,"source":"kgis-parcel-search","appraiserUrl":"https://propertyinfo.knoxcountytn.gov/Datalets/Datalet.aspx?ParcelID=115%20%20018&UseSearch=yes","dataGaps":[],"municipality":"Unincorporated Knox County","baseParcelId":null,"pbaid":null,"recordedAcreage":11.0},"geometry":{"type":"Polygon","coordinates":[[[-84.247991,35.930168],[-84.24866,35.93086],[-84.252411,35.929778],[-84.252209,35.929449],[-84.251964,35.928922],[-84.247991,35.930168]]]}},{"type":"Feature","id":"47093:115  01501","properties":{"id":"47093:115  01501","parcelId":"115  01501","countyFips":"47093","countyName":"Knox","state":"Tennessee","marketIds":["Knoxville"],"situsAddress":"3220 WEST GALLAHER FERRY RD","situsCity":null,"situsZip":null,"jurisdictionCode":"KNOX-COUNTY","ownerName":"RICE JAMES R & SALLIE","ownerName2":null,"propertyName":null,"zoningCode":"A","zoningDistrict":"A","jurisdictionPrefix":"KNOX-COUNTY","dorCode":"101: 1-FAMILY","acreage":9.51,"centroid":[-84.252821,35.93283],"lastSale":{"date":"1995-11-06","price":null,"qualified":null,"datePurchased":null,"deedBook":"P-132","deedPage":"A","odocBook":"00002195","odocPage":"0000111"},"tax":{"marketValue":1000700.0,"assessedValue":250175.0,"taxableValue":null,"taxes":null,"appraisedLand":549400.0,"appraisedBuilding":451300.0},"mailingAddress":{"line1":"3220 WEST GALLAHER FERY RD","line2":null,"city":"KNOXVILLE","state":"TN","zip":"37932"},"incomeTract":null,"incomeBlockGroup":null,"nearestRoad":null,"flu":{"code":"RL","label":"RL","jurisdiction":"KNOX-COUNTY","source":"advance-knox"},"opportunityZone":null,"oz2Eligibility":null,"source":"kgis-parcel-search","appraiserUrl":"https://propertyinfo.knoxcountytn.gov/Datalets/Datalet.aspx?ParcelID=115%20%2001501&UseSearch=yes","dataGaps":[],"municipality":"Unincorporated Knox County","baseParcelId":null,"pbaid":null,"recordedAcreage":0.0},"geometry":{"type":"Polygon","coordinates":[[[-84.250664,35.933834],[-84.25082,35.934092],[-84.25487,35.932661],[-84.254228,35.932454],[-84.254098,35.932372],[-84.253933,35.932212],[-84.25362,35.931752],[-84.250337,35.933266],[-84.250664,35.933834]]]}},{"type":"Feature","id":"47093:115  02013","properties":{"id":"47093:115  02013","parcelId":"115  02013","countyFips":"47093","countyName":"Knox","state":"Tennessee","marketIds":["Knoxville"],"situsAddress":"3061 WEST GALLAHER FERRY RD","situsCity":null,"situsZip":null,"jurisdictionCode":"KNOX-COUNTY","ownerName":"GRAU JOHN D","ownerName2":null,"propertyName":null,"zoningCode":"A","zoningDistrict":"A","jurisdictionPrefix":"KNOX-COUNTY","dorCode":"101: 1-FAMILY","acreage":5.0,"centroid":[-84.253291,35.927345],"lastSale":{"date":"2000-08-01","price":375000.0,"qualified":null,"datePurchased":null,"deedBook":null,"deedPage":null,"odocBook":"20000803","odocPage":"0008393"},"tax":{"marketValue":1757200.0,"assessedValue":439300.0,"taxableValue":null,"taxes":null,"appraisedLand":701300.0,"appraisedBuilding":1055900.0},"mailingAddress":{"line1":"3061 W GALLAHER FERRY RD","line2":null,"city":"KNOXVILLE","state":"TN","zip":"37932"},"incomeTract":null,"incomeBlockGroup":null,"nearestRoad":null,"flu":{"code":"RL","label":"RL","jurisdiction":"KNOX-COUNTY","source":"advance-knox"},"opportunityZone":null,"oz2Eligibility":null,"source":"kgis-parcel-search","appraiserUrl":"https://propertyinfo.knoxcountytn.gov/Datalets/Datalet.aspx?ParcelID=115%20%2002013&UseSearch=yes","dataGaps":[],"municipality":"Unincorporated Knox County","baseParcelId":null,"pbaid":null,"recordedAcreage":0.0},"geometry":{"type":"Polygon","coordinates":[[[-84.251429,35.927518],[-84.251563,35.927747],[-84.254589,35.927601],[-84.254796,35.92737],[-84.254728,35.927034],[-84.254579,35.926755],[-84.251351,35.927389],[-84.251429,35.927518]]]}}]}