{"type":"FeatureCollection","name":"47165--16_37","features":[{"type":"Feature","id":"47165:119    00100 000","properties":{"id":"47165:119    00100 000","parcelId":"119    00100 000","countyFips":"47165","countyName":"Sumner","state":"Tennessee","marketIds":["Nashville"],"situsAddress":"LIEBENGOOD ROAD 2031","situsCity":"Millersville","situsZip":null,"jurisdictionCode":null,"ownerName":"CRABTREE BRADLEY CLAY","ownerName2":"CRABTREE DENISE LYNNE","propertyName":null,"zoningCode":"RR","zoningDistrict":"RR","jurisdictionPrefix":"Millersville","dorCode":null,"acreage":27.44,"centroid":[-86.750968,36.407591],"lastSale":{"date":null,"price":null,"qualified":null},"tax":{"marketValue":239200.0,"assessedValue":null,"taxableValue":null,"taxes":null},"mailingAddress":{"line1":"2031 LIEBENGOOD RD","line2":null,"city":"GOODLETTSVILLE","state":"TN","zip":"37072"},"incomeTract":null,"incomeBlockGroup":null,"nearestRoad":null,"flu":null,"opportunityZone":null,"oz2Eligibility":null,"source":"tn-sumner-911-parcels-cama","appraiserUrl":"https://tn.sumner.geopowered.com/","dataGaps":["No public future land use layer for this municipality."]},"geometry":{"type":"Polygon","coordinates":[[[-86.747639,36.408385],[-86.751321,36.408636],[-86.751434,36.407969],[-86.751484,36.408047],[-86.75233,36.408148],[-86.752464,36.408005],[-86.752622,36.407877],[-86.752185,36.407815],[-86.75226,36.407557],[-86.752193,36.407035],[-86.752202,36.406555],[-86.750633,36.406351],[-86.748643,36.406061],[-86.748739,36.40749],[-86.748365,36.407933],[-86.747639,36.408385]]]}}]}