{"type":"FeatureCollection","name":"37157-12_36","features":[{"type":"Feature","id":"37157:796100804434","properties":{"id":"37157:796100804434","parcelId":"796100804434","countyFips":"37157","countyName":"Rockingham","state":"North Carolina","marketIds":["Winston-Salem"],"situsAddress":"0  CHURCH STREET EX","situsCity":null,"situsZip":null,"jurisdictionCode":null,"ownerName":"BRADY ROBERT HOLLAND BRADY KAREN ELIZABETH","ownerName2":null,"propertyName":null,"zoningCode":null,"zoningDistrict":null,"jurisdictionPrefix":null,"dorCode":null,"acreage":47.65,"centroid":[-79.785025,36.249417],"lastSale":{"date":null,"price":null,"qualified":null},"tax":{"marketValue":115079.0,"assessedValue":109679.0,"taxableValue":null,"taxes":null},"mailingAddress":{"line1":null,"line2":null,"city":null,"state":null,"zip":null},"incomeTract":null,"incomeBlockGroup":null,"nearestRoad":null,"flu":null,"opportunityZone":null,"oz2Eligibility":null,"source":"nc-onemap-37157"},"geometry":{"type":"Polygon","coordinates":[[[-79.78424,36.25049],[-79.78241,36.24836],[-79.7822,36.24699],[-79.7886,36.24705],[-79.7884,36.25069],[-79.78545,36.25044],[-79.78466,36.25083],[-79.78424,36.25049],[-79.78424,36.25049]]]}},{"type":"Feature","id":"37157:796100001785","properties":{"id":"37157:796100001785","parcelId":"796100001785","countyFips":"37157","countyName":"Rockingham","state":"North Carolina","marketIds":["Winston-Salem"],"situsAddress":"0  SCALESVILLE RD","situsCity":null,"situsZip":null,"jurisdictionCode":null,"ownerName":"DONAHUE WILLIAM DONAHUE ELIZABETH","ownerName2":null,"propertyName":null,"zoningCode":null,"zoningDistrict":null,"jurisdictionPrefix":null,"dorCode":null,"acreage":21.34,"centroid":[-79.813015,36.249585],"lastSale":{"date":null,"price":null,"qualified":null},"tax":{"marketValue":81734.0,"assessedValue":81734.0,"taxableValue":null,"taxes":null},"mailingAddress":{"line1":null,"line2":null,"city":null,"state":null,"zip":null},"incomeTract":null,"incomeBlockGroup":null,"nearestRoad":null,"flu":null,"opportunityZone":null,"oz2Eligibility":null,"source":"nc-onemap-37157"},"geometry":{"type":"Polygon","coordinates":[[[-79.81197,36.25225],[-79.8132,36.24866],[-79.81108,36.24864],[-79.81108,36.24724],[-79.81512,36.24761],[-79.81455,36.24766],[-79.81409,36.24801],[-79.81358,36.2488],[-79.81388,36.25207],[-79.81256,36.25227],[-79.81206,36.25222],[-79.81197,36.25225]]]}}]}