{"type":"FeatureCollection","name":"13053--8_20","features":[{"type":"Feature","id":"13053:011    0014B","properties":{"id":"13053:011    0014B","parcelId":"011    0014B","countyFips":"13053","countyName":"Chattahoochee","state":"Georgia","marketIds":["Macon"],"situsAddress":null,"situsCity":null,"situsZip":null,"jurisdictionCode":null,"ownerName":"SURLES CHRISTOPHER","ownerName2":null,"propertyName":null,"zoningCode":null,"zoningDistrict":null,"jurisdictionPrefix":null,"dorCode":null,"acreage":5.02,"centroid":[-84.751798,32.245368],"lastSale":{"date":null,"price":null,"qualified":null},"tax":{"marketValue":null,"assessedValue":null,"taxableValue":null,"taxes":null},"mailingAddress":{"line1":null,"line2":null,"city":null,"state":null,"zip":null},"incomeTract":null,"incomeBlockGroup":null,"nearestRoad":null,"flu":null,"opportunityZone":null,"oz2Eligibility":null,"source":"ga-chattahoochee-parcels-13053","appraiserUrl":"https://qpublic.schneidercorp.com/Application.aspx?App=ChattahoocheeCountyGA&Layer=Parcels&PageType=Report&KeyValue=011%20%20%20%200014B","gisViewerUrl":"https://www.arcgis.com/apps/mapviewer/index.html?webmap=1ec384d3885644ad8a701cb4e095ef3b"},"geometry":{"type":"Polygon","coordinates":[[[-84.752309,32.245966],[-84.752341,32.245998],[-84.752517,32.245384],[-84.752303,32.244844],[-84.750994,32.243974],[-84.750595,32.245326],[-84.751469,32.245508],[-84.751641,32.245559],[-84.752016,32.24575],[-84.752309,32.245966]]]}},{"type":"Feature","id":"13053:011    0013","properties":{"id":"13053:011    0013","parcelId":"011    0013","countyFips":"13053","countyName":"Chattahoochee","state":"Georgia","marketIds":["Macon"],"situsAddress":null,"situsCity":null,"situsZip":null,"jurisdictionCode":null,"ownerName":"TIMBERLANDS II, LLC","ownerName2":null,"propertyName":null,"zoningCode":null,"zoningDistrict":null,"jurisdictionPrefix":null,"dorCode":null,"acreage":14.24,"centroid":[-84.750588,32.232483],"lastSale":{"date":null,"price":null,"qualified":null},"tax":{"marketValue":null,"assessedValue":null,"taxableValue":null,"taxes":null},"mailingAddress":{"line1":null,"line2":null,"city":null,"state":null,"zip":null},"incomeTract":null,"incomeBlockGroup":null,"nearestRoad":null,"flu":null,"opportunityZone":null,"oz2Eligibility":null,"source":"ga-chattahoochee-parcels-13053","appraiserUrl":"https://qpublic.schneidercorp.com/Application.aspx?App=ChattahoocheeCountyGA&Layer=Parcels&PageType=Report&KeyValue=011%20%20%20%200013","gisViewerUrl":"https://www.arcgis.com/apps/mapviewer/index.html?webmap=1ec384d3885644ad8a701cb4e095ef3b"},"geometry":{"type":"Polygon","coordinates":[[[-84.748158,32.233091],[-84.75129,32.233092],[-84.752743,32.232768],[-84.752681,32.231769],[-84.748066,32.231694],[-84.748158,32.233091]]]}},{"type":"Feature","id":"13053:011    0014","properties":{"id":"13053:011    0014","parcelId":"011    0014","countyFips":"13053","countyName":"Chattahoochee","state":"Georgia","marketIds":["Macon"],"situsAddress":null,"situsCity":null,"situsZip":null,"jurisdictionCode":null,"ownerName":"WILLIAMS GEORGE P. & TERESA R.","ownerName2":null,"propertyName":null,"zoningCode":null,"zoningDistrict":null,"jurisdictionPrefix":null,"dorCode":null,"acreage":12.0,"centroid":[-84.75015,32.241099],"lastSale":{"date":null,"price":null,"qualified":null},"tax":{"marketValue":null,"assessedValue":null,"taxableValue":null,"taxes":null},"mailingAddress":{"line1":null,"line2":null,"city":null,"state":null,"zip":null},"incomeTract":null,"incomeBlockGroup":null,"nearestRoad":null,"flu":null,"opportunityZone":null,"oz2Eligibility":null,"source":"ga-chattahoochee-parcels-13053","appraiserUrl":"https://qpublic.schneidercorp.com/Application.aspx?App=ChattahoocheeCountyGA&Layer=Parcels&PageType=Report&KeyValue=011%20%20%20%200014","gisViewerUrl":"https://www.arcgis.com/apps/mapviewer/index.html?webmap=1ec384d3885644ad8a701cb4e095ef3b"},"geometry":{"type":"Polygon","coordinates":[[[-84.752378,32.241996],[-84.752776,32.242099],[-84.752787,32.240483],[-84.749149,32.240454],[-84.749153,32.240545],[-84.748478,32.240562],[-84.748625,32.241113],[-84.748643,32.241415],[-84.74936,32.241222],[-84.752378,32.241996]]]}},{"type":"Feature","id":"13053:011    0014C","properties":{"id":"13053:011    0014C","parcelId":"011    0014C","countyFips":"13053","countyName":"Chattahoochee","state":"Georgia","marketIds":["Macon"],"situsAddress":null,"situsCity":null,"situsZip":null,"jurisdictionCode":null,"ownerName":"CERAVONE JR PETER & MARIE E","ownerName2":null,"propertyName":null,"zoningCode":null,"zoningDistrict":null,"jurisdictionPrefix":null,"dorCode":null,"acreage":15.9,"centroid":[-84.753251,32.241961],"lastSale":{"date":null,"price":null,"qualified":null},"tax":{"marketValue":null,"assessedValue":null,"taxableValue":null,"taxes":null},"mailingAddress":{"line1":null,"line2":null,"city":null,"state":null,"zip":null},"incomeTract":null,"incomeBlockGroup":null,"nearestRoad":null,"flu":null,"opportunityZone":null,"oz2Eligibility":null,"source":"ga-chattahoochee-parcels-13053","appraiserUrl":"https://qpublic.schneidercorp.com/Application.aspx?App=ChattahoocheeCountyGA&Layer=Parcels&PageType=Report&KeyValue=011%20%20%20%200014C","gisViewerUrl":"https://www.arcgis.com/apps/mapviewer/index.html?webmap=1ec384d3885644ad8a701cb4e095ef3b"},"geometry":{"type":"Polygon","coordinates":[[[-84.752327,32.24268],[-84.752325,32.243083],[-84.755101,32.242871],[-84.755111,32.240524],[-84.752787,32.240483],[-84.752776,32.242099],[-84.752331,32.241984],[-84.752327,32.24268]]]}},{"type":"Feature","id":"13053:011    0022","properties":{"id":"13053:011    0022","parcelId":"011    0022","countyFips":"13053","countyName":"Chattahoochee","state":"Georgia","marketIds":["Macon"],"situsAddress":null,"situsCity":null,"situsZip":null,"jurisdictionCode":null,"ownerName":"KING CHARLES J.","ownerName2":null,"propertyName":null,"zoningCode":null,"zoningDistrict":null,"jurisdictionPrefix":null,"dorCode":null,"acreage":12.43,"centroid":[-84.753769,32.246446],"lastSale":{"date":null,"price":null,"qualified":null},"tax":{"marketValue":null,"assessedValue":null,"taxableValue":null,"taxes":null},"mailingAddress":{"line1":null,"line2":null,"city":null,"state":null,"zip":null},"incomeTract":null,"incomeBlockGroup":null,"nearestRoad":null,"flu":null,"opportunityZone":null,"oz2Eligibility":null,"source":"ga-chattahoochee-parcels-13053","appraiserUrl":"https://qpublic.schneidercorp.com/Application.aspx?App=ChattahoocheeCountyGA&Layer=Parcels&PageType=Report&KeyValue=011%20%20%20%200022","gisViewerUrl":"https://www.arcgis.com/apps/mapviewer/index.html?webmap=1ec384d3885644ad8a701cb4e095ef3b"},"geometry":{"type":"Polygon","coordinates":[[[-84.75317,32.247602],[-84.755189,32.247646],[-84.755126,32.24587],[-84.754378,32.245891],[-84.753506,32.24567],[-84.752416,32.24608],[-84.752597,32.246361],[-84.75317,32.247602]]]}},{"type":"Feature","id":"13053:001    0002","properties":{"id":"13053:001    0002","parcelId":"001    0002","countyFips":"13053","countyName":"Chattahoochee","state":"Georgia","marketIds":["Macon"],"situsAddress":null,"situsCity":null,"situsZip":null,"jurisdictionCode":null,"ownerName":"U S CORP OF ENGINEERS","ownerName2":null,"propertyName":null,"zoningCode":null,"zoningDistrict":null,"jurisdictionPrefix":null,"dorCode":null,"acreage":10.0,"centroid":[-84.895437,32.245663],"lastSale":{"date":null,"price":null,"qualified":null},"tax":{"marketValue":null,"assessedValue":null,"taxableValue":null,"taxes":null},"mailingAddress":{"line1":null,"line2":null,"city":null,"state":null,"zip":null},"incomeTract":null,"incomeBlockGroup":null,"nearestRoad":null,"flu":null,"opportunityZone":null,"oz2Eligibility":null,"source":"ga-chattahoochee-parcels-13053","appraiserUrl":"https://qpublic.schneidercorp.com/Application.aspx?App=ChattahoocheeCountyGA&Layer=Parcels&PageType=Report&KeyValue=001%20%20%20%200002","gisViewerUrl":"https://www.arcgis.com/apps/mapviewer/index.html?webmap=1ec384d3885644ad8a701cb4e095ef3b"},"geometry":{"type":"Polygon","coordinates":[[[-84.895132,32.246025],[-84.895229,32.246123],[-84.895554,32.246387],[-84.895923,32.246605],[-84.896327,32.246773],[-84.896611,32.246854],[-84.897052,32.246929],[-84.897351,32.246946],[-84.897651,32.246937],[-84.898627,32.246854],[-84.898586,32.246366],[-84.897624,32.246455],[-84.897215,32.246459],[-84.896944,32.246428],[-84.896679,32.246371],[-84.896424,32.246288],[-84.896182,32.246181],[-84.895955,32.246051],[-84.895748,32.2459],[-84.894492,32.244732],[-84.894076,32.24441],[-84.893773,32.244222],[-84.893453,32.244057],[-84.893117,32.243916],[-84.892768,32.2438],[-84.892596,32.244247],[-84.892914,32.244349],[-84.893219,32.244476],[-84.893508,32.244626],[-84.89378,32.244798],[-84.894033,32.244991],[-84.895132,32.246025]]]}},{"type":"Feature","id":"13053:006    0010","properties":{"id":"13053:006    0010","parcelId":"006    0010","countyFips":"13053","countyName":"Chattahoochee","state":"Georgia","marketIds":["Macon"],"situsAddress":null,"situsCity":null,"situsZip":null,"jurisdictionCode":null,"ownerName":"ROBERTS GLYNDA C","ownerName2":null,"propertyName":null,"zoningCode":null,"zoningDistrict":null,"jurisdictionPrefix":null,"dorCode":null,"acreage":46.67,"centroid":[-84.794369,32.245429],"lastSale":{"date":null,"price":null,"qualified":null},"tax":{"marketValue":null,"assessedValue":null,"taxableValue":null,"taxes":null},"mailingAddress":{"line1":null,"line2":null,"city":null,"state":null,"zip":null},"incomeTract":null,"incomeBlockGroup":null,"nearestRoad":null,"flu":null,"opportunityZone":null,"oz2Eligibility":null,"source":"ga-chattahoochee-parcels-13053","appraiserUrl":"https://qpublic.schneidercorp.com/Application.aspx?App=ChattahoocheeCountyGA&Layer=Parcels&PageType=Report&KeyValue=006%20%20%20%200010","gisViewerUrl":"https://www.arcgis.com/apps/mapviewer/index.html?webmap=1ec384d3885644ad8a701cb4e095ef3b"},"geometry":{"type":"Polygon","coordinates":[[[-84.795536,32.248496],[-84.796935,32.248518],[-84.797007,32.242979],[-84.794957,32.242655],[-84.794541,32.243136],[-84.794188,32.243652],[-84.79399,32.244013],[-84.793823,32.244385],[-84.793632,32.24496],[-84.793546,32.245351],[-84.793381,32.245346],[-84.793447,32.24601],[-84.793466,32.246722],[-84.793596,32.246733],[-84.793492,32.248478],[-84.795536,32.248496]]]}},{"type":"Feature","id":"13053:007    0002","properties":{"id":"13053:007    0002","parcelId":"007    0002","countyFips":"13053","countyName":"Chattahoochee","state":"Georgia","marketIds":["Macon"],"situsAddress":null,"situsCity":null,"situsZip":null,"jurisdictionCode":null,"ownerName":"AZALEA TIMBERLAND LLC","ownerName2":null,"propertyName":null,"zoningCode":null,"zoningDistrict":null,"jurisdictionPrefix":null,"dorCode":null,"acreage":40.41,"centroid":[-84.809176,32.2227],"lastSale":{"date":null,"price":null,"qualified":null},"tax":{"marketValue":null,"assessedValue":null,"taxableValue":null,"taxes":null},"mailingAddress":{"line1":null,"line2":null,"city":null,"state":null,"zip":null},"incomeTract":null,"incomeBlockGroup":null,"nearestRoad":null,"flu":null,"opportunityZone":null,"oz2Eligibility":null,"source":"ga-chattahoochee-parcels-13053","appraiserUrl":"https://qpublic.schneidercorp.com/Application.aspx?App=ChattahoocheeCountyGA&Layer=Parcels&PageType=Report&KeyValue=007%20%20%20%200002","gisViewerUrl":"https://www.arcgis.com/apps/mapviewer/index.html?webmap=1ec384d3885644ad8a701cb4e095ef3b"},"geometry":{"type":"Polygon","coordinates":[[[-84.804482,32.223836],[-84.813845,32.22415],[-84.813869,32.221561],[-84.804508,32.221253],[-84.804482,32.223836]]]}},{"type":"Feature","id":"13053:011    0014F","properties":{"id":"13053:011    0014F","parcelId":"011    0014F","countyFips":"13053","countyName":"Chattahoochee","state":"Georgia","marketIds":["Macon"],"situsAddress":null,"situsCity":null,"situsZip":null,"jurisdictionCode":null,"ownerName":"SURLES CHRISTOPHER D","ownerName2":null,"propertyName":null,"zoningCode":null,"zoningDistrict":null,"jurisdictionPrefix":null,"dorCode":null,"acreage":25.05,"centroid":[-84.753144,32.244944],"lastSale":{"date":null,"price":null,"qualified":null},"tax":{"marketValue":null,"assessedValue":null,"taxableValue":null,"taxes":null},"mailingAddress":{"line1":null,"line2":null,"city":null,"state":null,"zip":null},"incomeTract":null,"incomeBlockGroup":null,"nearestRoad":null,"flu":null,"opportunityZone":null,"oz2Eligibility":null,"source":"ga-chattahoochee-parcels-13053","appraiserUrl":"https://qpublic.schneidercorp.com/Application.aspx?App=ChattahoocheeCountyGA&Layer=Parcels&PageType=Report&KeyValue=011%20%20%20%200014F","gisViewerUrl":"https://www.arcgis.com/apps/mapviewer/index.html?webmap=1ec384d3885644ad8a701cb4e095ef3b"},"geometry":{"type":"Polygon","coordinates":[[[-84.752379,32.246038],[-84.752416,32.24608],[-84.753506,32.24567],[-84.754378,32.245891],[-84.755126,32.24587],[-84.755097,32.244131],[-84.755101,32.242871],[-84.752325,32.243083],[-84.750235,32.24347],[-84.752303,32.244844],[-84.752517,32.245384],[-84.752341,32.245998],[-84.752379,32.246038]]]}},{"type":"Feature","id":"13053:011    0024B","properties":{"id":"13053:011    0024B","parcelId":"011    0024B","countyFips":"13053","countyName":"Chattahoochee","state":"Georgia","marketIds":["Macon"],"situsAddress":null,"situsCity":null,"situsZip":null,"jurisdictionCode":null,"ownerName":"DREW WILLIAM","ownerName2":null,"propertyName":null,"zoningCode":null,"zoningDistrict":null,"jurisdictionPrefix":null,"dorCode":null,"acreage":25.95,"centroid":[-84.750973,32.246169],"lastSale":{"date":null,"price":null,"qualified":null},"tax":{"marketValue":null,"assessedValue":null,"taxableValue":null,"taxes":null},"mailingAddress":{"line1":null,"line2":null,"city":null,"state":null,"zip":null},"incomeTract":null,"incomeBlockGroup":null,"nearestRoad":null,"flu":null,"opportunityZone":null,"oz2Eligibility":null,"source":"ga-chattahoochee-parcels-13053","appraiserUrl":"https://qpublic.schneidercorp.com/Application.aspx?App=ChattahoocheeCountyGA&Layer=Parcels&PageType=Report&KeyValue=011%20%20%20%200024B","gisViewerUrl":"https://www.arcgis.com/apps/mapviewer/index.html?webmap=1ec384d3885644ad8a701cb4e095ef3b"},"geometry":{"type":"Polygon","coordinates":[[[-84.746924,32.248023],[-84.751279,32.248011],[-84.752452,32.246526],[-84.752359,32.246369],[-84.75224,32.246197],[-84.752095,32.246041],[-84.751835,32.245841],[-84.751638,32.245734],[-84.751314,32.245618],[-84.750217,32.245383],[-84.749836,32.245238],[-84.749489,32.245041],[-84.746924,32.248023]]]}},{"type":"Feature","id":"13053:001    0003","properties":{"id":"13053:001    0003","parcelId":"001    0003","countyFips":"13053","countyName":"Chattahoochee","state":"Georgia","marketIds":["Macon"],"situsAddress":null,"situsCity":null,"situsZip":null,"jurisdictionCode":null,"ownerName":"FOLEY FRANK D III","ownerName2":null,"propertyName":null,"zoningCode":null,"zoningDistrict":null,"jurisdictionPrefix":null,"dorCode":null,"acreage":24.0,"centroid":[-84.898731,32.248382],"lastSale":{"date":null,"price":null,"qualified":null},"tax":{"marketValue":null,"assessedValue":null,"taxableValue":null,"taxes":null},"mailingAddress":{"line1":null,"line2":null,"city":null,"state":null,"zip":null},"incomeTract":null,"incomeBlockGroup":null,"nearestRoad":null,"flu":null,"opportunityZone":null,"oz2Eligibility":null,"source":"ga-chattahoochee-parcels-13053","appraiserUrl":"https://qpublic.schneidercorp.com/Application.aspx?App=ChattahoocheeCountyGA&Layer=Parcels&PageType=Report&KeyValue=001%20%20%20%200003","gisViewerUrl":"https://www.arcgis.com/apps/mapviewer/index.html?webmap=1ec384d3885644ad8a701cb4e095ef3b"},"geometry":{"type":"MultiPolygon","coordinates":[[[[-84.898593,32.24643],[-84.898775,32.246426],[-84.899319,32.246383],[-84.899282,32.244409],[-84.900301,32.243072],[-84.897877,32.243037],[-84.897942,32.246415],[-84.898586,32.246366],[-84.898593,32.24643]]],[[[-84.899339,32.24652],[-84.899321,32.246522],[-84.898593,32.246567],[-84.898627,32.246854],[-84.897948,32.246901],[-84.898001,32.25164],[-84.898614,32.251045],[-84.899402,32.251003],[-84.899339,32.24652]]]]}},{"type":"Feature","id":"13053:001    0005","properties":{"id":"13053:001    0005","parcelId":"001    0005","countyFips":"13053","countyName":"Chattahoochee","state":"Georgia","marketIds":["Macon"],"situsAddress":null,"situsCity":null,"situsZip":null,"jurisdictionCode":null,"ownerName":"FOLEY FRANK D III","ownerName2":null,"propertyName":null,"zoningCode":null,"zoningDistrict":null,"jurisdictionPrefix":null,"dorCode":null,"acreage":100.0,"centroid":[-84.912993,32.23956],"lastSale":{"date":null,"price":null,"qualified":null},"tax":{"marketValue":null,"assessedValue":null,"taxableValue":null,"taxes":null},"mailingAddress":{"line1":null,"line2":null,"city":null,"state":null,"zip":null},"incomeTract":null,"incomeBlockGroup":null,"nearestRoad":null,"flu":null,"opportunityZone":null,"oz2Eligibility":null,"source":"ga-chattahoochee-parcels-13053","appraiserUrl":"https://qpublic.schneidercorp.com/Application.aspx?App=ChattahoocheeCountyGA&Layer=Parcels&PageType=Report&KeyValue=001%20%20%20%200005","gisViewerUrl":"https://www.arcgis.com/apps/mapviewer/index.html?webmap=1ec384d3885644ad8a701cb4e095ef3b"},"geometry":{"type":"Polygon","coordinates":[[[-84.907302,32.239635],[-84.907274,32.242516],[-84.911289,32.241654],[-84.91277,32.241642],[-84.912717,32.241417],[-84.91274,32.241189],[-84.912836,32.240975],[-84.912976,32.240785],[-84.913001,32.240689],[-84.912994,32.240591],[-84.912854,32.240656],[-84.91271,32.240652],[-84.912646,32.24067],[-84.912588,32.240729],[-84.912587,32.24082],[-84.912567,32.240856],[-84.912529,32.240879],[-84.912467,32.240882],[-84.912409,32.240833],[-84.912386,32.240766],[-84.912411,32.240535],[-84.912491,32.240361],[-84.912629,32.240216],[-84.912982,32.239994],[-84.91346,32.239607],[-84.913749,32.239325],[-84.914012,32.239024],[-84.914355,32.238544],[-84.914804,32.237764],[-84.915177,32.23716],[-84.91578,32.236276],[-84.916135,32.235919],[-84.916513,32.23558],[-84.916913,32.23526],[-84.917334,32.23496],[-84.907349,32.234799],[-84.907302,32.239635]]]}},{"type":"Feature","id":"13053:002    0004","properties":{"id":"13053:002    0004","parcelId":"002    0004","countyFips":"13053","countyName":"Chattahoochee","state":"Georgia","marketIds":["Macon"],"situsAddress":null,"situsCity":null,"situsZip":null,"jurisdictionCode":null,"ownerName":"TCC INVESTMENTS, LLC","ownerName2":null,"propertyName":null,"zoningCode":null,"zoningDistrict":null,"jurisdictionPrefix":null,"dorCode":null,"acreage":105.34,"centroid":[-84.896072,32.244358],"lastSale":{"date":null,"price":null,"qualified":null},"tax":{"marketValue":null,"assessedValue":null,"taxableValue":null,"taxes":null},"mailingAddress":{"line1":null,"line2":null,"city":null,"state":null,"zip":null},"incomeTract":null,"incomeBlockGroup":null,"nearestRoad":null,"flu":null,"opportunityZone":null,"oz2Eligibility":null,"source":"ga-chattahoochee-parcels-13053","appraiserUrl":"https://qpublic.schneidercorp.com/Application.aspx?App=ChattahoocheeCountyGA&Layer=Parcels&PageType=Report&KeyValue=002%20%20%20%200004","gisViewerUrl":"https://www.arcgis.com/apps/mapviewer/index.html?webmap=1ec384d3885644ad8a701cb4e095ef3b"},"geometry":{"type":"Polygon","coordinates":[[[-84.895478,32.245639],[-84.895562,32.24573],[-84.895748,32.2459],[-84.896066,32.246119],[-84.896424,32.246288],[-84.896679,32.246371],[-84.897079,32.246446],[-84.897351,32.246464],[-84.897624,32.246455],[-84.897942,32.246415],[-84.897877,32.243037],[-84.901938,32.237921],[-84.897919,32.234886],[-84.892768,32.2438],[-84.893117,32.243916],[-84.893453,32.244057],[-84.893773,32.244222],[-84.894076,32.24441],[-84.894492,32.244732],[-84.895478,32.245639]]]}},{"type":"Feature","id":"13053:007    0001","properties":{"id":"13053:007    0001","parcelId":"007    0001","countyFips":"13053","countyName":"Chattahoochee","state":"Georgia","marketIds":["Macon"],"situsAddress":null,"situsCity":null,"situsZip":null,"jurisdictionCode":null,"ownerName":"TIMBERLANDS II, LLC","ownerName2":null,"propertyName":null,"zoningCode":null,"zoningDistrict":null,"jurisdictionPrefix":null,"dorCode":null,"acreage":124.97,"centroid":[-84.809774,32.228859],"lastSale":{"date":null,"price":null,"qualified":null},"tax":{"marketValue":null,"assessedValue":null,"taxableValue":null,"taxes":null},"mailingAddress":{"line1":null,"line2":null,"city":null,"state":null,"zip":null},"incomeTract":null,"incomeBlockGroup":null,"nearestRoad":null,"flu":null,"opportunityZone":null,"oz2Eligibility":null,"source":"ga-chattahoochee-parcels-13053","appraiserUrl":"https://qpublic.schneidercorp.com/Application.aspx?App=ChattahoocheeCountyGA&Layer=Parcels&PageType=Report&KeyValue=007%20%20%20%200001","gisViewerUrl":"https://www.arcgis.com/apps/mapviewer/index.html?webmap=1ec384d3885644ad8a701cb4e095ef3b"},"geometry":{"type":"Polygon","coordinates":[[[-84.812201,32.232159],[-84.814056,32.232206],[-84.813845,32.22415],[-84.804482,32.223836],[-84.804284,32.231944],[-84.812201,32.232159]]]}}]}