{"type":"FeatureCollection","name":"47065--10_33","features":[{"type":"Feature","id":"47065:046  005","properties":{"id":"47065:046  005","parcelId":"046  005","countyFips":"47065","countyName":"Hamilton","state":"Tennessee","marketIds":["Chattanooga"],"situsAddress":"2627 MOWBRAY PIKE","situsCity":null,"situsZip":null,"jurisdictionCode":null,"ownerName":"BOOKOUT PAUL WILLIAM ETAL","ownerName2":"C/O JERRY L & MARY F BOOKOUT","propertyName":null,"zoningCode":"A-1","zoningDistrict":"A-1","jurisdictionPrefix":"Unincorporated Hamilton","dorCode":null,"acreage":142.65,"centroid":[-85.252674,35.289385],"lastSale":{"date":"2006-09-26","price":null,"qualified":null,"book":"8079","page":"0123"},"priorSales":[{"date":"1985-08-29","price":null,"book":"3121","page":"0460"},{"date":"1977-10-26","price":10000.0,"book":"2445","page":"0883"},{"date":"1968-01-01","price":null,"book":"1769","page":"0278"}],"tax":{"marketValue":1717600.0,"assessedValue":148025.0,"taxableValue":null,"taxes":null,"landValue":1391800.0,"buildingValue":253200.0,"yardItemsValue":72600.0},"mailingAddress":{"line1":"2627 MOWBRAY PIKE","line2":null,"city":"SODDY DAISY","state":"TN","zip":"37379"},"incomeTract":null,"incomeBlockGroup":null,"nearestRoad":null,"flu":{"code":"CR","label":"Countryside Residential","jurisdiction":"Plan Hamilton","source":"https://mapsdev.hamiltontn.gov/hcwa03/rest/services/PlanHamilton/MapServer/3"},"opportunityZone":null,"oz2Eligibility":null,"appraiserUrl":"https://assessor.hamiltontn.gov/card/046_005","gisLink":"033046    00500","pbaNum":"033046    00500P000","dataGaps":["Zoning joined from Unincorporated Hamilton (Live_PropertyZoning/16).","Plan Hamilton place type is unincorporated policy guidance, not a zoning entitlement."],"source":"tn-hamilton-live-parcels"},"geometry":{"type":"Polygon","coordinates":[[[-85.248235,35.300039],[-85.248251,35.300053],[-85.250489,35.301107],[-85.254495,35.294169],[-85.253055,35.293642],[-85.254467,35.291238],[-85.253593,35.290896],[-85.254422,35.289534],[-85.253459,35.2891],[-85.254738,35.286908],[-85.255646,35.287295],[-85.256473,35.285877],[-85.255315,35.285272],[-85.254814,35.284959],[-85.254456,35.284785],[-85.253988,35.284642],[-85.253496,35.284574],[-85.252997,35.284585],[-85.252453,35.284677],[-85.252214,35.285127],[-85.252352,35.285512],[-85.252097,35.285965],[-85.2517,35.285826],[-85.249414,35.290052],[-85.248557,35.291295],[-85.249395,35.29205],[-85.251634,35.294207],[-85.248235,35.300039]]]}},{"type":"Feature","id":"47065:038  001.03","properties":{"id":"47065:038  001.03","parcelId":"038  001.03","countyFips":"47065","countyName":"Hamilton","state":"Tennessee","marketIds":["Chattanooga"],"situsAddress":"MOWBRAY PIKE","situsCity":null,"situsZip":null,"jurisdictionCode":null,"ownerName":"CLARK MARY KATHERINE LEWIS","ownerName2":null,"propertyName":null,"zoningCode":"A-1","zoningDistrict":"A-1","jurisdictionPrefix":"Unincorporated Hamilton","dorCode":null,"acreage":100.16,"centroid":[-85.255454,35.298845],"lastSale":{"date":"2020-02-28","price":null,"qualified":null,"book":"11924","page":"0800"},"priorSales":[{"date":"1990-06-18","price":25000.0,"book":"3742","page":"0075"},{"date":"1980-10-28","price":25000.0,"book":"2719","page":"0532"},{"date":"1900-01-01","price":null,"book":null,"page":null}],"tax":{"marketValue":531400.0,"assessedValue":27875.0,"taxableValue":null,"taxes":null,"landValue":531400.0,"buildingValue":0.0,"yardItemsValue":0.0},"mailingAddress":{"line1":"13673 TONJA LN","line2":null,"city":"SODDY DAISY","state":"TN","zip":"37379"},"incomeTract":null,"incomeBlockGroup":null,"nearestRoad":null,"flu":{"code":"CR","label":"Countryside Residential","jurisdiction":"Plan Hamilton","source":"https://mapsdev.hamiltontn.gov/hcwa03/rest/services/PlanHamilton/MapServer/3"},"opportunityZone":null,"oz2Eligibility":null,"appraiserUrl":"https://assessor.hamiltontn.gov/card/038_001.03","gisLink":"033038    00103","pbaNum":"033038    00103P000","dataGaps":["Zoning joined from Unincorporated Hamilton (Live_PropertyZoning/16).","Plan Hamilton place type is unincorporated policy guidance, not a zoning entitlement."],"source":"tn-hamilton-live-parcels"},"geometry":{"type":"Polygon","coordinates":[[[-85.251873,35.302698],[-85.254205,35.303509],[-85.25495,35.302855],[-85.255072,35.302614],[-85.255132,35.302255],[-85.255254,35.302044],[-85.255472,35.301752],[-85.255519,35.301572],[-85.25552,35.301253],[-85.255677,35.300854],[-85.255705,35.300679],[-85.255815,35.300267],[-85.256006,35.299752],[-85.256067,35.299382],[-85.256274,35.298738],[-85.256435,35.298362],[-85.256674,35.298057],[-85.256976,35.297468],[-85.257307,35.297022],[-85.257726,35.296673],[-85.257949,35.296428],[-85.258114,35.29612],[-85.258286,35.295932],[-85.258652,35.295807],[-85.258818,35.295726],[-85.258969,35.29569],[-85.259119,35.295602],[-85.259315,35.295294],[-85.259347,35.295115],[-85.259378,35.295047],[-85.257135,35.294395],[-85.256791,35.29501],[-85.254495,35.294169],[-85.250489,35.301107],[-85.248235,35.300039],[-85.247951,35.300355],[-85.24825,35.301104],[-85.248784,35.302031],[-85.24897,35.302192],[-85.251873,35.302698]]]}},{"type":"Feature","id":"47065:046  014.01","properties":{"id":"47065:046  014.01","parcelId":"046  014.01","countyFips":"47065","countyName":"Hamilton","state":"Tennessee","marketIds":["Chattanooga"],"situsAddress":"COOPER CREEK TRL","situsCity":null,"situsZip":null,"jurisdictionCode":null,"ownerName":"GILES DON A & KELLIE B","ownerName2":null,"propertyName":null,"zoningCode":"A-1","zoningDistrict":"A-1","jurisdictionPrefix":"Unincorporated Hamilton","dorCode":null,"acreage":71.03,"centroid":[-85.264314,35.273797],"lastSale":{"date":"2019-11-05","price":null,"qualified":null,"book":"11812","page":"0072"},"priorSales":[{"date":"2014-11-10","price":125000.0,"book":"10342","page":"0610"},{"date":"2013-12-30","price":null,"book":"10132","page":"0592"},{"date":"1985-09-13","price":null,"book":"3125","page":"0882"}],"tax":{"marketValue":1035300.0,"assessedValue":23525.0,"taxableValue":null,"taxes":null,"landValue":1035300.0,"buildingValue":0.0,"yardItemsValue":0.0},"mailingAddress":{"line1":"9821 COOPER CREEK TRL","line2":null,"city":"SODDY DAISY","state":"TN","zip":"37379"},"incomeTract":null,"incomeBlockGroup":null,"nearestRoad":null,"flu":{"code":"CR","label":"Countryside Residential; also Preserve","jurisdiction":"Plan Hamilton","source":"https://mapsdev.hamiltontn.gov/hcwa03/rest/services/PlanHamilton/MapServer/3"},"opportunityZone":null,"oz2Eligibility":null,"appraiserUrl":"https://assessor.hamiltontn.gov/card/046_014.01","gisLink":"033046    01401","pbaNum":"033046    01401P000","dataGaps":["Zoning joined from Unincorporated Hamilton (Live_PropertyZoning/16).","Plan Hamilton place type is unincorporated policy guidance, not a zoning entitlement."],"source":"tn-hamilton-live-parcels"},"geometry":{"type":"Polygon","coordinates":[[[-85.265198,35.269904],[-85.262212,35.274383],[-85.263227,35.274812],[-85.262254,35.276347],[-85.261252,35.277824],[-85.260746,35.278623],[-85.262805,35.279533],[-85.265688,35.275619],[-85.264983,35.274887],[-85.264889,35.274697],[-85.264841,35.274496],[-85.264845,35.274336],[-85.264924,35.273923],[-85.265022,35.273674],[-85.265318,35.273173],[-85.265356,35.27302],[-85.265287,35.272757],[-85.265164,35.272499],[-85.264873,35.272138],[-85.264784,35.271984],[-85.264725,35.271791],[-85.264703,35.271635],[-85.264735,35.271399],[-85.264968,35.271004],[-85.265044,35.270459],[-85.265198,35.269904]]]}},{"type":"Feature","id":"47065:046  002","properties":{"id":"47065:046  002","parcelId":"046  002","countyFips":"47065","countyName":"Hamilton","state":"Tennessee","marketIds":["Chattanooga"],"situsAddress":"3001 MOWBRAY PIKE","situsCity":null,"situsZip":null,"jurisdictionCode":null,"ownerName":"QUALLS CHARLES C & JANET L","ownerName2":"NATHAN TYLER QUALLS CO-TRS","propertyName":null,"zoningCode":"A-1","zoningDistrict":"A-1","jurisdictionPrefix":"Unincorporated Hamilton","dorCode":null,"acreage":63.0,"centroid":[-85.257807,35.301232],"lastSale":{"date":"2014-09-12","price":null,"qualified":null,"book":"10305","page":"0962"},"priorSales":[{"date":"2003-08-21","price":null,"book":"6868","page":"0105"},{"date":"2002-05-09","price":null,"book":"6249","page":"0186"},{"date":"1952-01-01","price":null,"book":"1661","page":"0375"}],"tax":{"marketValue":898900.0,"assessedValue":19400.0,"taxableValue":null,"taxes":null,"landValue":898900.0,"buildingValue":0.0,"yardItemsValue":0.0},"mailingAddress":{"line1":"3007 MOWBRAY PIKE","line2":null,"city":"SODDY DAISY","state":"TN","zip":"37379"},"incomeTract":null,"incomeBlockGroup":null,"nearestRoad":null,"flu":{"code":"CR","label":"Countryside Residential","jurisdiction":"Plan Hamilton","source":"https://mapsdev.hamiltontn.gov/hcwa03/rest/services/PlanHamilton/MapServer/3"},"opportunityZone":null,"oz2Eligibility":null,"appraiserUrl":"https://assessor.hamiltontn.gov/card/046_002","gisLink":"033046    00200","pbaNum":"033046    00200P000","dataGaps":["Zoning joined from Unincorporated Hamilton (Live_PropertyZoning/16).","Plan Hamilton place type is unincorporated policy guidance, not a zoning entitlement."],"source":"tn-hamilton-live-parcels"},"geometry":{"type":"MultiPolygon","coordinates":[[[[-85.255475,35.303506],[-85.255497,35.303508],[-85.255728,35.30357],[-85.255974,35.303699],[-85.256058,35.303775],[-85.256129,35.303889],[-85.263442,35.296252],[-85.264463,35.294258],[-85.262625,35.294063],[-85.25525,35.303496],[-85.255239,35.303535],[-85.255475,35.303506]]],[[[-85.266934,35.290895],[-85.266879,35.291237],[-85.265835,35.29255],[-85.267844,35.292875],[-85.269429,35.29091],[-85.271149,35.288862],[-85.270072,35.289506],[-85.269377,35.289957],[-85.269183,35.290061],[-85.268907,35.290171],[-85.26854,35.290264],[-85.268158,35.290303],[-85.267039,35.290251],[-85.266934,35.290895]]]]}},{"type":"Feature","id":"47065:038  001.02","properties":{"id":"47065:038  001.02","parcelId":"038  001.02","countyFips":"47065","countyName":"Hamilton","state":"Tennessee","marketIds":["Chattanooga"],"situsAddress":"9876 EVANS RD","situsCity":null,"situsZip":null,"jurisdictionCode":null,"ownerName":"FARRIS GRANT E & TALMA L","ownerName2":null,"propertyName":null,"zoningCode":"A-1","zoningDistrict":"A-1","jurisdictionPrefix":"Unincorporated Hamilton","dorCode":null,"acreage":59.62,"centroid":[-85.259331,35.301677],"lastSale":{"date":"2002-05-09","price":null,"qualified":null,"book":"6249","page":"0196"},"priorSales":[{"date":"1979-09-19","price":3500.0,"book":"2641","page":"0776"},{"date":"1900-01-01","price":null,"book":null,"page":null},{"date":"1900-01-01","price":null,"book":null,"page":null}],"tax":{"marketValue":894400.0,"assessedValue":100925.0,"taxableValue":null,"taxes":null,"landValue":603800.0,"buildingValue":290600.0,"yardItemsValue":0.0},"mailingAddress":{"line1":"9876 EVANS RD","line2":null,"city":"SODDY DAISY","state":"TN","zip":"37379"},"incomeTract":null,"incomeBlockGroup":null,"nearestRoad":null,"flu":{"code":"CR","label":"Countryside Residential","jurisdiction":"Plan Hamilton","source":"https://mapsdev.hamiltontn.gov/hcwa03/rest/services/PlanHamilton/MapServer/3"},"opportunityZone":null,"oz2Eligibility":null,"appraiserUrl":"https://assessor.hamiltontn.gov/card/038_001.02","gisLink":"033038    00102","pbaNum":"033038    00102P000","dataGaps":["Zoning joined from Unincorporated Hamilton (Live_PropertyZoning/16).","Plan Hamilton place type is unincorporated policy guidance, not a zoning entitlement."],"source":"tn-hamilton-live-parcels"},"geometry":{"type":"Polygon","coordinates":[[[-85.256129,35.303889],[-85.256132,35.303894],[-85.256189,35.304012],[-85.256161,35.30419],[-85.256172,35.304249],[-85.256266,35.304435],[-85.256454,35.304646],[-85.256842,35.305018],[-85.257134,35.305353],[-85.257216,35.305427],[-85.257288,35.305455],[-85.257669,35.305487],[-85.264195,35.297399],[-85.264082,35.296249],[-85.265126,35.296244],[-85.266699,35.294295],[-85.264753,35.293696],[-85.263442,35.296252],[-85.256129,35.303889]]]}},{"type":"Feature","id":"47065:046  011","properties":{"id":"47065:046  011","parcelId":"046  011","countyFips":"47065","countyName":"Hamilton","state":"Tennessee","marketIds":["Chattanooga"],"situsAddress":"2724 POE RD","situsCity":null,"situsZip":null,"jurisdictionCode":null,"ownerName":"CARPENTER CARLIN H TR","ownerName2":"POSTON SHARON ANN TR","propertyName":null,"zoningCode":"A-1","zoningDistrict":"A-1","jurisdictionPrefix":"Unincorporated Hamilton","dorCode":null,"acreage":52.0,"centroid":[-85.264072,35.282864],"lastSale":{"date":"2024-07-18","price":null,"qualified":null,"book":"13656","page":"0408"},"priorSales":[{"date":"1967-01-01","price":null,"book":"1751","page":"0693"},{"date":"1966-01-01","price":null,"book":"1751","page":"0694"},{"date":"1900-01-01","price":null,"book":null,"page":null}],"tax":{"marketValue":894600.0,"assessedValue":44750.0,"taxableValue":null,"taxes":null,"landValue":787800.0,"buildingValue":97100.0,"yardItemsValue":9700.0},"mailingAddress":{"line1":"2724 POE RD","line2":null,"city":"SODDY DAISY","state":"TN","zip":"37379"},"incomeTract":null,"incomeBlockGroup":null,"nearestRoad":null,"flu":{"code":"CR","label":"Countryside Residential","jurisdiction":"Plan Hamilton","source":"https://mapsdev.hamiltontn.gov/hcwa03/rest/services/PlanHamilton/MapServer/3"},"opportunityZone":null,"oz2Eligibility":null,"appraiserUrl":"https://assessor.hamiltontn.gov/card/046_011","gisLink":"033046    01100","pbaNum":"033046    01100P000","dataGaps":["Zoning joined from Unincorporated Hamilton (Live_PropertyZoning/16).","Plan Hamilton place type is unincorporated policy guidance, not a zoning entitlement."],"source":"tn-hamilton-live-parcels"},"geometry":{"type":"Polygon","coordinates":[[[-85.26112,35.284893],[-85.261436,35.285017],[-85.26104,35.28605],[-85.262933,35.286793],[-85.263064,35.286459],[-85.263386,35.286144],[-85.263469,35.286004],[-85.263499,35.285844],[-85.263493,35.285439],[-85.263522,35.285314],[-85.26361,35.285112],[-85.263802,35.284806],[-85.263902,35.284576],[-85.264158,35.284091],[-85.264235,35.28379],[-85.264326,35.283587],[-85.264375,35.283424],[-85.264419,35.283076],[-85.264517,35.282937],[-85.264801,35.282633],[-85.264207,35.282404],[-85.264014,35.282279],[-85.263962,35.282189],[-85.263948,35.282066],[-85.263969,35.281914],[-85.264022,35.281757],[-85.264115,35.281599],[-85.264304,35.281443],[-85.265131,35.281033],[-85.265641,35.280741],[-85.266329,35.280296],[-85.266483,35.280135],[-85.266541,35.279949],[-85.266542,35.279773],[-85.266279,35.278807],[-85.266262,35.278637],[-85.26634,35.278333],[-85.266572,35.277819],[-85.266746,35.27726],[-85.259257,35.285312],[-85.260432,35.285798],[-85.260801,35.284769],[-85.26112,35.284893]]]}},{"type":"Feature","id":"47065:046  010","properties":{"id":"47065:046  010","parcelId":"046  010","countyFips":"47065","countyName":"Hamilton","state":"Tennessee","marketIds":["Chattanooga"],"situsAddress":"2940 POE RD","situsCity":null,"situsZip":null,"jurisdictionCode":null,"ownerName":"OLDHAM MICHAEL & PAMELA","ownerName2":null,"propertyName":null,"zoningCode":"A-1","zoningDistrict":"A-1","jurisdictionPrefix":"Unincorporated Hamilton","dorCode":null,"acreage":51.5,"centroid":[-85.265353,35.28386],"lastSale":{"date":"2003-04-28","price":130000.0,"qualified":null,"book":"6647","page":"0169"},"priorSales":[{"date":"1994-03-22","price":null,"book":"4318","page":"0467"},{"date":"1992-04-10","price":null,"book":"3983","page":"0532"},{"date":"1992-03-17","price":null,"book":"3959","page":"0119"}],"tax":{"marketValue":860100.0,"assessedValue":43125.0,"taxableValue":null,"taxes":null,"landValue":780900.0,"buildingValue":52400.0,"yardItemsValue":26800.0},"mailingAddress":{"line1":"2940 POE RD","line2":null,"city":"SODDY DAISY","state":"TN","zip":"37379"},"incomeTract":null,"incomeBlockGroup":null,"nearestRoad":null,"flu":{"code":"CR","label":"Countryside Residential; also Preserve","jurisdiction":"Plan Hamilton","source":"https://mapsdev.hamiltontn.gov/hcwa03/rest/services/PlanHamilton/MapServer/3"},"opportunityZone":null,"oz2Eligibility":null,"appraiserUrl":"https://assessor.hamiltontn.gov/card/046_010","gisLink":"033046    01000","pbaNum":"033046    01000P000","dataGaps":["Zoning joined from Unincorporated Hamilton (Live_PropertyZoning/16).","Plan Hamilton place type is unincorporated policy guidance, not a zoning entitlement."],"source":"tn-hamilton-live-parcels"},"geometry":{"type":"Polygon","coordinates":[[[-85.264578,35.28287],[-85.264547,35.282902],[-85.264412,35.283093],[-85.264375,35.283424],[-85.264326,35.283587],[-85.264235,35.28379],[-85.264158,35.284091],[-85.263902,35.284576],[-85.263802,35.284806],[-85.26361,35.285112],[-85.263522,35.285314],[-85.263492,35.285459],[-85.263499,35.285844],[-85.263461,35.286025],[-85.263386,35.286144],[-85.263064,35.286459],[-85.262933,35.286793],[-85.264126,35.287256],[-85.264271,35.287299],[-85.266186,35.287512],[-85.269891,35.281609],[-85.269354,35.281633],[-85.268845,35.281606],[-85.268017,35.281526],[-85.267894,35.281538],[-85.267407,35.28172],[-85.267231,35.281852],[-85.267085,35.282023],[-85.266725,35.282657],[-85.266645,35.282737],[-85.266531,35.282803],[-85.266228,35.282855],[-85.265732,35.28283],[-85.265097,35.28272],[-85.264801,35.282633],[-85.264578,35.28287]]]}},{"type":"Feature","id":"47065:046  002.05","properties":{"id":"47065:046  002.05","parcelId":"046  002.05","countyFips":"47065","countyName":"Hamilton","state":"Tennessee","marketIds":["Chattanooga"],"situsAddress":"MOWBRAY PIKE","situsCity":null,"situsZip":null,"jurisdictionCode":null,"ownerName":"QUALLS CHARLES THOMAS & AMY NI","ownerName2":null,"propertyName":null,"zoningCode":"A-1","zoningDistrict":"A-1","jurisdictionPrefix":"Unincorporated Hamilton","dorCode":null,"acreage":50.33,"centroid":[-85.257108,35.298853],"lastSale":{"date":"2014-10-23","price":null,"qualified":null,"book":"10326","page":"0898"},"priorSales":[{"date":"2014-09-17","price":null,"book":"10304","page":"0030"},{"date":"2014-08-04","price":null,"book":"10272","page":"0296"},{"date":"1978-04-24","price":null,"book":"2499","page":"0571"}],"tax":{"marketValue":764800.0,"assessedValue":13475.0,"taxableValue":null,"taxes":null,"landValue":764800.0,"buildingValue":0.0,"yardItemsValue":0.0},"mailingAddress":{"line1":"2981 MOWBRAY PIKE","line2":null,"city":"SODDY DAISY","state":"TN","zip":"37379"},"incomeTract":null,"incomeBlockGroup":null,"nearestRoad":null,"flu":{"code":"CR","label":"Countryside Residential","jurisdiction":"Plan Hamilton","source":"https://mapsdev.hamiltontn.gov/hcwa03/rest/services/PlanHamilton/MapServer/3"},"opportunityZone":null,"oz2Eligibility":null,"appraiserUrl":"https://assessor.hamiltontn.gov/card/046_002.05","gisLink":"033046    00205","pbaNum":"033046    00205P000","dataGaps":["Zoning joined from Unincorporated Hamilton (Live_PropertyZoning/16).","Plan Hamilton place type is unincorporated policy guidance, not a zoning entitlement."],"source":"tn-hamilton-live-parcels"},"geometry":{"type":"Polygon","coordinates":[[[-85.259378,35.295047],[-85.259347,35.295115],[-85.259315,35.295294],[-85.259119,35.295602],[-85.258969,35.29569],[-85.258818,35.295726],[-85.258652,35.295807],[-85.258286,35.295932],[-85.258114,35.29612],[-85.257949,35.296428],[-85.257726,35.296673],[-85.257307,35.297022],[-85.256976,35.297468],[-85.256674,35.298057],[-85.256435,35.298362],[-85.256274,35.298738],[-85.256067,35.299382],[-85.256006,35.299752],[-85.255815,35.300267],[-85.255705,35.300679],[-85.255677,35.300854],[-85.25552,35.301253],[-85.255519,35.301572],[-85.255472,35.301752],[-85.255254,35.302044],[-85.255132,35.302255],[-85.255072,35.302614],[-85.25495,35.302855],[-85.254205,35.303509],[-85.254495,35.303612],[-85.25474,35.303665],[-85.254846,35.303653],[-85.255239,35.303535],[-85.25525,35.303496],[-85.262625,35.294063],[-85.261781,35.293973],[-85.261541,35.294708],[-85.259838,35.293857],[-85.259378,35.295047]]]}},{"type":"Feature","id":"47065:046  003","properties":{"id":"47065:046  003","parcelId":"046  003","countyFips":"47065","countyName":"Hamilton","state":"Tennessee","marketIds":["Chattanooga"],"situsAddress":"2809 MOWBRAY PIKE","situsCity":null,"situsZip":null,"jurisdictionCode":null,"ownerName":"DOBBS CHESTER L JR & EVELENA W TRS","ownerName2":null,"propertyName":null,"zoningCode":"A-1","zoningDistrict":"A-1","jurisdictionPrefix":"Unincorporated Hamilton","dorCode":null,"acreage":50.0,"centroid":[-85.257935,35.290477],"lastSale":{"date":"2005-10-21","price":null,"qualified":null,"book":"7718","page":"0958"},"priorSales":[{"date":"1969-01-01","price":null,"book":"1831","page":"0146"},{"date":"1900-01-01","price":null,"book":null,"page":null},{"date":"1900-01-01","price":null,"book":null,"page":null}],"tax":{"marketValue":1031300.0,"assessedValue":95475.0,"taxableValue":null,"taxes":null,"landValue":760200.0,"buildingValue":264000.0,"yardItemsValue":7100.0},"mailingAddress":{"line1":"2809 MOWBRAY PIKE","line2":null,"city":"SODDY DAISY","state":"TN","zip":"37379"},"incomeTract":null,"incomeBlockGroup":null,"nearestRoad":null,"flu":{"code":"CR","label":"Countryside Residential","jurisdiction":"Plan Hamilton","source":"https://mapsdev.hamiltontn.gov/hcwa03/rest/services/PlanHamilton/MapServer/3"},"opportunityZone":null,"oz2Eligibility":null,"appraiserUrl":"https://assessor.hamiltontn.gov/card/046_003","gisLink":"033046    00300","pbaNum":"033046    00300P000","dataGaps":["Zoning joined from Unincorporated Hamilton (Live_PropertyZoning/16).","Plan Hamilton place type is unincorporated policy guidance, not a zoning entitlement."],"source":"tn-hamilton-live-parcels"},"geometry":{"type":"Polygon","coordinates":[[[-85.254495,35.294169],[-85.256791,35.29501],[-85.259127,35.290847],[-85.260731,35.288072],[-85.259437,35.287444],[-85.25854,35.286969],[-85.256426,35.29083],[-85.254495,35.294169]]]}},{"type":"Feature","id":"47065:046  014.03","properties":{"id":"47065:046  014.03","parcelId":"046  014.03","countyFips":"47065","countyName":"Hamilton","state":"Tennessee","marketIds":["Chattanooga"],"situsAddress":"POE RD","situsCity":null,"situsZip":null,"jurisdictionCode":null,"ownerName":"NU ERA CONSTRUCTION LLC","ownerName2":null,"propertyName":null,"zoningCode":"A-1","zoningDistrict":"A-1","jurisdictionPrefix":"Unincorporated Hamilton","dorCode":null,"acreage":45.6,"centroid":[-85.262812,35.271963],"lastSale":{"date":"2019-02-04","price":120000.0,"qualified":null,"book":"11560","page":"0327"},"priorSales":[{"date":null,"price":null,"book":"1909","page":"0294"},{"date":"1900-01-01","price":null,"book":null,"page":null},{"date":"1900-01-01","price":null,"book":null,"page":null}],"tax":{"marketValue":609300.0,"assessedValue":12050.0,"taxableValue":null,"taxes":null,"landValue":609300.0,"buildingValue":0.0,"yardItemsValue":0.0},"mailingAddress":{"line1":"8851 DAYTON PIKE","line2":null,"city":"SODDY DAISY","state":"TN","zip":"37379"},"incomeTract":null,"incomeBlockGroup":null,"nearestRoad":null,"flu":{"code":"CR","label":"Countryside Residential; also Preserve","jurisdiction":"Plan Hamilton","source":"https://mapsdev.hamiltontn.gov/hcwa03/rest/services/PlanHamilton/MapServer/3"},"opportunityZone":null,"oz2Eligibility":null,"appraiserUrl":"https://assessor.hamiltontn.gov/card/046_014.03","gisLink":"033046    01403","pbaNum":"033046    01403P000","dataGaps":["Zoning joined from Unincorporated Hamilton (Live_PropertyZoning/16).","Plan Hamilton place type is unincorporated policy guidance, not a zoning entitlement."],"source":"tn-hamilton-live-parcels"},"geometry":{"type":"Polygon","coordinates":[[[-85.25725,35.279378],[-85.257065,35.279658],[-85.256734,35.280158],[-85.257659,35.281211],[-85.265198,35.269904],[-85.265206,35.269766],[-85.265167,35.26956],[-85.265004,35.269293],[-85.265046,35.269166],[-85.26506,35.269011],[-85.264956,35.268469],[-85.264791,35.267852],[-85.264506,35.268339],[-85.264682,35.268384],[-85.263612,35.270654],[-85.263055,35.270597],[-85.25725,35.279378]]]}},{"type":"Feature","id":"47065:046  004","properties":{"id":"47065:046  004","parcelId":"046  004","countyFips":"47065","countyName":"Hamilton","state":"Tennessee","marketIds":["Chattanooga"],"situsAddress":"2723 MOWBRAY PIKE","situsCity":null,"situsZip":null,"jurisdictionCode":null,"ownerName":"STANFIELD RANDALL E & JANICE E","ownerName2":null,"propertyName":null,"zoningCode":"A-1","zoningDistrict":"A-1","jurisdictionPrefix":"Unincorporated Hamilton","dorCode":null,"acreage":45.0,"centroid":[-85.256038,35.288814],"lastSale":{"date":"1995-09-28","price":175000.0,"qualified":null,"book":"4570","page":"0080"},"priorSales":[{"date":"1994-09-13","price":null,"book":"4411","page":"0359"},{"date":"1985-08-29","price":null,"book":"3121","page":"0458"},{"date":"1968-01-01","price":null,"book":"1769","page":"0280"}],"tax":{"marketValue":1284400.0,"assessedValue":182675.0,"taxableValue":null,"taxes":null,"landValue":691400.0,"buildingValue":571000.0,"yardItemsValue":22000.0},"mailingAddress":{"line1":"2723 MOWBRAY PIKE","line2":null,"city":"SODDY DAISY","state":"TN","zip":"37379"},"incomeTract":null,"incomeBlockGroup":null,"nearestRoad":null,"flu":{"code":"CR","label":"Countryside Residential","jurisdiction":"Plan Hamilton","source":"https://mapsdev.hamiltontn.gov/hcwa03/rest/services/PlanHamilton/MapServer/3"},"opportunityZone":null,"oz2Eligibility":null,"appraiserUrl":"https://assessor.hamiltontn.gov/card/046_004","gisLink":"033046    00400","pbaNum":"033046    00400P000","dataGaps":["Zoning joined from Unincorporated Hamilton (Live_PropertyZoning/16).","Plan Hamilton place type is unincorporated policy guidance, not a zoning entitlement."],"source":"tn-hamilton-live-parcels"},"geometry":{"type":"Polygon","coordinates":[[[-85.256473,35.285877],[-85.255646,35.287295],[-85.254738,35.286908],[-85.253459,35.2891],[-85.254422,35.289534],[-85.253593,35.290896],[-85.254467,35.291238],[-85.253055,35.293642],[-85.254495,35.294169],[-85.256426,35.29083],[-85.257262,35.289304],[-85.25629,35.289103],[-85.256436,35.28908],[-85.256516,35.289029],[-85.256701,35.288731],[-85.256785,35.288548],[-85.25679,35.288473],[-85.256765,35.2884],[-85.256598,35.288233],[-85.256542,35.288121],[-85.25655,35.288001],[-85.256647,35.287765],[-85.256785,35.287613],[-85.25717,35.287389],[-85.25731,35.287256],[-85.257465,35.286948],[-85.25765,35.286499],[-85.256473,35.285877]]]}},{"type":"Feature","id":"47065:046  015.05","properties":{"id":"47065:046  015.05","parcelId":"046  015.05","countyFips":"47065","countyName":"Hamilton","state":"Tennessee","marketIds":["Chattanooga"],"situsAddress":"9804 SOUR MASH LN","situsCity":null,"situsZip":null,"jurisdictionCode":null,"ownerName":"LUSK JEREMY B & VICTORIA R ETAL","ownerName2":null,"propertyName":null,"zoningCode":"A-1","zoningDistrict":"A-1","jurisdictionPrefix":"Unincorporated Hamilton","dorCode":null,"acreage":43.19,"centroid":[-85.260841,35.27201],"lastSale":{"date":"2017-08-11","price":172500.0,"qualified":null,"book":"11136","page":"0793"},"priorSales":[{"date":"2010-08-26","price":null,"book":"9240","page":"0659"},{"date":"2001-04-12","price":3780.0,"book":"5840","page":"0325"},{"date":"2001-04-12","price":60000.0,"book":"5840","page":"0322"}],"tax":{"marketValue":1156400.0,"assessedValue":177825.0,"taxableValue":null,"taxes":null,"landValue":522000.0,"buildingValue":634400.0,"yardItemsValue":0.0},"mailingAddress":{"line1":"921 CHATTANOOGA ROAD","line2":null,"city":"COHUTTA","state":"GA","zip":"30710"},"incomeTract":null,"incomeBlockGroup":null,"nearestRoad":null,"flu":{"code":"CR","label":"Countryside Residential; also Preserve","jurisdiction":"Plan Hamilton","source":"https://mapsdev.hamiltontn.gov/hcwa03/rest/services/PlanHamilton/MapServer/3"},"opportunityZone":null,"oz2Eligibility":null,"appraiserUrl":"https://assessor.hamiltontn.gov/card/046_015.05","gisLink":"033046    01505","pbaNum":"033046    01505P000","dataGaps":["Zoning joined from Unincorporated Hamilton (Live_PropertyZoning/16).","Plan Hamilton place type is unincorporated policy guidance, not a zoning entitlement."],"source":"tn-hamilton-live-parcels"},"geometry":{"type":"Polygon","coordinates":[[[-85.257158,35.279085],[-85.257171,35.279102],[-85.257187,35.279162],[-85.257177,35.279203],[-85.257083,35.279298],[-85.25725,35.279378],[-85.263055,35.270597],[-85.263612,35.270654],[-85.264682,35.268384],[-85.264506,35.268339],[-85.264406,35.268363],[-85.264267,35.26835],[-85.264165,35.268373],[-85.26403,35.268358],[-85.263712,35.26837],[-85.263518,35.26829],[-85.263362,35.268181],[-85.262882,35.268891],[-85.262588,35.2692],[-85.26223,35.269525],[-85.261521,35.269913],[-85.260991,35.270293],[-85.26083,35.270428],[-85.260543,35.27062],[-85.26002,35.270878],[-85.259774,35.271027],[-85.259033,35.271565],[-85.258623,35.271761],[-85.258264,35.271906],[-85.258571,35.273326],[-85.258513,35.274287],[-85.257813,35.275289],[-85.259232,35.275948],[-85.257158,35.279085]]]}},{"type":"Feature","id":"47065:046  015.04","properties":{"id":"47065:046  015.04","parcelId":"046  015.04","countyFips":"47065","countyName":"Hamilton","state":"Tennessee","marketIds":["Chattanooga"],"situsAddress":"9816 SOUR MASH LN","situsCity":null,"situsZip":null,"jurisdictionCode":null,"ownerName":"HAILE MELVIN T ETAL","ownerName2":null,"propertyName":null,"zoningCode":"A-1","zoningDistrict":"A-1","jurisdictionPrefix":"Unincorporated Hamilton","dorCode":null,"acreage":41.08,"centroid":[-85.257114,35.275161],"lastSale":{"date":"2001-04-12","price":null,"qualified":null,"book":"5840","page":"0292"},"priorSales":[{"date":"1998-05-06","price":null,"book":"5090","page":"0218"},{"date":"1900-01-01","price":null,"book":null,"page":null},{"date":"1900-01-01","price":null,"book":null,"page":null}],"tax":{"marketValue":730200.0,"assessedValue":79150.0,"taxableValue":null,"taxes":null,"landValue":499200.0,"buildingValue":231000.0,"yardItemsValue":0.0},"mailingAddress":{"line1":"9824 SOUR MASH LN","line2":null,"city":"SODDY DAISY","state":"TN","zip":"37379"},"incomeTract":null,"incomeBlockGroup":null,"nearestRoad":null,"flu":{"code":"CR","label":"Countryside Residential","jurisdiction":"Plan Hamilton","source":"https://mapsdev.hamiltontn.gov/hcwa03/rest/services/PlanHamilton/MapServer/3"},"opportunityZone":null,"oz2Eligibility":null,"appraiserUrl":"https://assessor.hamiltontn.gov/card/046_015.04","gisLink":"033046    01504","pbaNum":"033046    01504P000","dataGaps":["Zoning joined from Unincorporated Hamilton (Live_PropertyZoning/16).","Plan Hamilton place type is unincorporated policy guidance, not a zoning entitlement."],"source":"tn-hamilton-live-parcels"},"geometry":{"type":"Polygon","coordinates":[[[-85.25494,35.273665],[-85.25628,35.279097],[-85.256629,35.279078],[-85.256457,35.278495],[-85.256935,35.278434],[-85.256838,35.277696],[-85.257101,35.276901],[-85.258389,35.277223],[-85.259232,35.275948],[-85.257813,35.275289],[-85.258513,35.274287],[-85.258571,35.273326],[-85.258264,35.271906],[-85.257694,35.272155],[-85.257303,35.272425],[-85.257117,35.272532],[-85.256413,35.272822],[-85.255493,35.27329],[-85.255177,35.273485],[-85.25494,35.273665]]]}},{"type":"Feature","id":"47065:046  007.01","properties":{"id":"47065:046  007.01","parcelId":"046  007.01","countyFips":"47065","countyName":"Hamilton","state":"Tennessee","marketIds":["Chattanooga"],"situsAddress":"2524 MOWBRAY PIKE","situsCity":null,"situsZip":null,"jurisdictionCode":null,"ownerName":"ESCANDON WILLARD R & DEBORAH LYNN","ownerName2":null,"propertyName":null,"zoningCode":"A-1","zoningDistrict":"A-1","jurisdictionPrefix":"Unincorporated Hamilton","dorCode":null,"acreage":39.8,"centroid":[-85.25066,35.283337],"lastSale":{"date":"2021-04-21","price":null,"qualified":null,"book":"12465","page":"0739"},"priorSales":[{"date":"2020-01-30","price":null,"book":"11897","page":"0300"},{"date":"2003-08-14","price":56000.0,"book":"6816","page":"0439"},{"date":"1972-01-01","price":6000.0,"book":"2050","page":"0030"}],"tax":{"marketValue":793400.0,"assessedValue":13275.0,"taxableValue":null,"taxes":null,"landValue":793400.0,"buildingValue":0.0,"yardItemsValue":0.0},"mailingAddress":{"line1":"2530 MOWBRAY PIKE","line2":null,"city":"SODDY DAISY","state":"TN","zip":"37379"},"incomeTract":null,"incomeBlockGroup":null,"nearestRoad":null,"flu":{"code":"CR","label":"Countryside Residential","jurisdiction":"Plan Hamilton","source":"https://mapsdev.hamiltontn.gov/hcwa03/rest/services/PlanHamilton/MapServer/3"},"opportunityZone":null,"oz2Eligibility":null,"appraiserUrl":"https://assessor.hamiltontn.gov/card/046_007.01","gisLink":"033046    00701","pbaNum":"033046    00701P000","dataGaps":["Zoning joined from Unincorporated Hamilton (Live_PropertyZoning/16).","Plan Hamilton place type is unincorporated policy guidance, not a zoning entitlement."],"source":"tn-hamilton-live-parcels"},"geometry":{"type":"Polygon","coordinates":[[[-85.253311,35.281941],[-85.253114,35.281841],[-85.252556,35.281574],[-85.252021,35.28137],[-85.249432,35.280613],[-85.24767,35.284107],[-85.248291,35.284237],[-85.248942,35.284107],[-85.249267,35.2852],[-85.249479,35.285158],[-85.249195,35.2842],[-85.250201,35.283988],[-85.250491,35.284966],[-85.252299,35.284621],[-85.253638,35.282134],[-85.253311,35.281941]]]}},{"type":"Feature","id":"47065:046  002.03","properties":{"id":"47065:046  002.03","parcelId":"046  002.03","countyFips":"47065","countyName":"Hamilton","state":"Tennessee","marketIds":["Chattanooga"],"situsAddress":"2907 MOWBRAY PIKE","situsCity":null,"situsZip":null,"jurisdictionCode":null,"ownerName":"VANDERLUGT GERRIT D ET AL","ownerName2":null,"propertyName":null,"zoningCode":"A-1","zoningDistrict":"A-1","jurisdictionPrefix":"Unincorporated Hamilton","dorCode":null,"acreage":38.0,"centroid":[-85.260128,35.291766],"lastSale":{"date":"2026-02-04","price":835000.0,"qualified":null,"book":"14186","page":"0075"},"priorSales":[{"date":"2006-11-07","price":319000.0,"book":"8145","page":"0540"},{"date":"1979-10-20","price":38000.0,"book":"2638","page":"0587"},{"date":"1900-01-01","price":null,"book":null,"page":null}],"tax":{"marketValue":838800.0,"assessedValue":79625.0,"taxableValue":null,"taxes":null,"landValue":595000.0,"buildingValue":238400.0,"yardItemsValue":5400.0},"mailingAddress":{"line1":"2907 MOWBRAY PIKE","line2":null,"city":"SODDY DAISY","state":"TN","zip":"37379"},"incomeTract":null,"incomeBlockGroup":null,"nearestRoad":null,"flu":{"code":"CR","label":"Countryside Residential","jurisdiction":"Plan Hamilton","source":"https://mapsdev.hamiltontn.gov/hcwa03/rest/services/PlanHamilton/MapServer/3"},"opportunityZone":null,"oz2Eligibility":null,"appraiserUrl":"https://assessor.hamiltontn.gov/card/046_002.03","gisLink":"033046    00203","pbaNum":"033046    00203P000","dataGaps":["Zoning joined from Unincorporated Hamilton (Live_PropertyZoning/16).","Plan Hamilton place type is unincorporated policy guidance, not a zoning entitlement."],"source":"tn-hamilton-live-parcels"},"geometry":{"type":"Polygon","coordinates":[[[-85.257135,35.294395],[-85.259378,35.295047],[-85.259816,35.293906],[-85.260665,35.291964],[-85.261401,35.290861],[-85.262774,35.289036],[-85.260731,35.288072],[-85.259127,35.290847],[-85.257135,35.294395]]]}},{"type":"Feature","id":"47065:046  015.02","properties":{"id":"47065:046  015.02","parcelId":"046  015.02","countyFips":"47065","countyName":"Hamilton","state":"Tennessee","marketIds":["Chattanooga"],"situsAddress":"9852 SOUR MASH LN","situsCity":null,"situsZip":null,"jurisdictionCode":null,"ownerName":"LONGBROOK JOSHUA & EMILY","ownerName2":null,"propertyName":null,"zoningCode":"A-1","zoningDistrict":"A-1","jurisdictionPrefix":"Unincorporated Hamilton","dorCode":null,"acreage":31.0,"centroid":[-85.251253,35.276942],"lastSale":{"date":"2023-03-09","price":600000.0,"qualified":null,"book":"13232","page":"0728"},"priorSales":[{"date":"2001-04-12","price":63000.0,"book":"5840","page":"0337"},{"date":"1998-05-06","price":null,"book":"5090","page":"0218"},{"date":"1900-01-01","price":null,"book":null,"page":null}],"tax":{"marketValue":727300.0,"assessedValue":99750.0,"taxableValue":null,"taxes":null,"landValue":390200.0,"buildingValue":328500.0,"yardItemsValue":8600.0},"mailingAddress":{"line1":"9852 SOUR MASH LN","line2":null,"city":"SODDY DAISY","state":"TN","zip":"37379"},"incomeTract":null,"incomeBlockGroup":null,"nearestRoad":null,"flu":{"code":"CR","label":"Countryside Residential; also Preserve","jurisdiction":"Plan Hamilton","source":"https://mapsdev.hamiltontn.gov/hcwa03/rest/services/PlanHamilton/MapServer/3"},"opportunityZone":null,"oz2Eligibility":null,"appraiserUrl":"https://assessor.hamiltontn.gov/card/046_015.02","gisLink":"033046    01502","pbaNum":"033046    01502P000","dataGaps":["Zoning joined from Unincorporated Hamilton (Live_PropertyZoning/16).","Plan Hamilton place type is unincorporated policy guidance, not a zoning entitlement."],"source":"tn-hamilton-live-parcels"},"geometry":{"type":"Polygon","coordinates":[[[-85.248955,35.277124],[-85.249533,35.277347],[-85.25526,35.27956],[-85.255314,35.279457],[-85.255393,35.279366],[-85.255552,35.27926],[-85.255677,35.279215],[-85.25165,35.275215],[-85.251449,35.275271],[-85.250966,35.275359],[-85.250718,35.275446],[-85.25064,35.275492],[-85.250579,35.275563],[-85.250371,35.27591],[-85.25018,35.276109],[-85.24994,35.276311],[-85.24954,35.276524],[-85.249408,35.276662],[-85.249167,35.276808],[-85.249135,35.276867],[-85.249082,35.276896],[-85.249065,35.276959],[-85.248955,35.277124]]]}},{"type":"Feature","id":"47065:046  015.03","properties":{"id":"47065:046  015.03","parcelId":"046  015.03","countyFips":"47065","countyName":"Hamilton","state":"Tennessee","marketIds":["Chattanooga"],"situsAddress":"9838 SOUR MASH LN","situsCity":null,"situsZip":null,"jurisdictionCode":null,"ownerName":"PFEISTER DANIELLE & BRIAN","ownerName2":null,"propertyName":null,"zoningCode":"A-1","zoningDistrict":"A-1","jurisdictionPrefix":"Unincorporated Hamilton","dorCode":null,"acreage":26.92,"centroid":[-85.253519,35.275533],"lastSale":{"date":"2025-04-16","price":1525000.0,"qualified":null,"book":"13893","page":"0065"},"priorSales":[{"date":"2012-04-20","price":521000.0,"book":"9626","page":"0065"},{"date":"2001-12-20","price":85000.0,"book":"6098","page":"0986"},{"date":"2001-06-04","price":40500.0,"book":"5893","page":"0071"}],"tax":{"marketValue":1069000.0,"assessedValue":193200.0,"taxableValue":null,"taxes":null,"landValue":357200.0,"buildingValue":675900.0,"yardItemsValue":35900.0},"mailingAddress":{"line1":"9838 SOUR MASH LN","line2":null,"city":"SODDY DAISY","state":"TN","zip":"37379"},"incomeTract":null,"incomeBlockGroup":null,"nearestRoad":null,"flu":{"code":"CR","label":"Countryside Residential; also Preserve","jurisdiction":"Plan Hamilton","source":"https://mapsdev.hamiltontn.gov/hcwa03/rest/services/PlanHamilton/MapServer/3"},"opportunityZone":null,"oz2Eligibility":null,"appraiserUrl":"https://assessor.hamiltontn.gov/card/046_015.03","gisLink":"033046    01503","pbaNum":"033046    01503P000","dataGaps":["Zoning joined from Unincorporated Hamilton (Live_PropertyZoning/16).","Plan Hamilton place type is unincorporated policy guidance, not a zoning entitlement."],"source":"tn-hamilton-live-parcels"},"geometry":{"type":"Polygon","coordinates":[[[-85.25165,35.275215],[-85.255677,35.279215],[-85.255972,35.279132],[-85.25628,35.279097],[-85.25494,35.273665],[-85.254117,35.274147],[-85.253545,35.274339],[-85.253371,35.274489],[-85.253241,35.274558],[-85.253057,35.274621],[-85.252537,35.274712],[-85.252251,35.274827],[-85.252167,35.274879],[-85.252037,35.275015],[-85.25195,35.275077],[-85.25165,35.275215]]]}},{"type":"Feature","id":"47065:046  002.01","properties":{"id":"47065:046  002.01","parcelId":"046  002.01","countyFips":"47065","countyName":"Hamilton","state":"Tennessee","marketIds":["Chattanooga"],"situsAddress":"2923 MOWBRAY PIKE","situsCity":null,"situsZip":null,"jurisdictionCode":null,"ownerName":"Private Owner","ownerName2":null,"propertyName":null,"zoningCode":"A-1","zoningDistrict":"A-1","jurisdictionPrefix":"Unincorporated Hamilton","dorCode":null,"acreage":25.0,"centroid":[-85.261919,35.291701],"lastSale":{"date":"2025-03-07","price":1250000.0,"qualified":null,"book":"13856","page":"0221"},"priorSales":[{"date":"2019-03-08","price":null,"book":"11585","page":"0456"},{"date":"1978-04-15","price":25000.0,"book":"2489","page":"0771"},{"date":"1900-01-01","price":null,"book":null,"page":null}],"tax":{"marketValue":1110800.0,"assessedValue":277700.0,"taxableValue":null,"taxes":null,"landValue":322900.0,"buildingValue":692200.0,"yardItemsValue":95700.0},"mailingAddress":{"line1":"2923 MOWBRAY PIKE","line2":null,"city":"SODDY DAISY","state":"TN","zip":"37379"},"incomeTract":null,"incomeBlockGroup":null,"nearestRoad":null,"flu":{"code":"CR","label":"Countryside Residential","jurisdiction":"Plan Hamilton","source":"https://mapsdev.hamiltontn.gov/hcwa03/rest/services/PlanHamilton/MapServer/3"},"opportunityZone":null,"oz2Eligibility":null,"appraiserUrl":"https://assessor.hamiltontn.gov/card/046_002.01","gisLink":"033046    00201","pbaNum":"033046    00201P000","dataGaps":["Zoning joined from Unincorporated Hamilton (Live_PropertyZoning/16).","Plan Hamilton place type is unincorporated policy guidance, not a zoning entitlement."],"source":"tn-hamilton-live-parcels"},"geometry":{"type":"Polygon","coordinates":[[[-85.261401,35.290861],[-85.260968,35.29151],[-85.260665,35.291964],[-85.259838,35.293857],[-85.261541,35.294708],[-85.262187,35.292731],[-85.263567,35.290874],[-85.264334,35.289771],[-85.262774,35.289036],[-85.261401,35.290861]]]}},{"type":"Feature","id":"47065:046  009","properties":{"id":"47065:046  009","parcelId":"046  009","countyFips":"47065","countyName":"Hamilton","state":"Tennessee","marketIds":["Chattanooga"],"situsAddress":"3210 POE RD","situsCity":null,"situsZip":null,"jurisdictionCode":null,"ownerName":"JENKINS MICHAEL T","ownerName2":"JENKINS TEDDY R","propertyName":null,"zoningCode":"A-1","zoningDistrict":"A-1","jurisdictionPrefix":"Unincorporated Hamilton","dorCode":null,"acreage":21.8,"centroid":[-85.271558,35.286669],"lastSale":{"date":"2006-09-29","price":225000.0,"qualified":null,"book":"8104","page":"0719"},"priorSales":[{"date":"2004-09-21","price":180000.0,"book":"7287","page":"0270"},{"date":"1971-01-01","price":17500.0,"book":"1957","page":"0858"},{"date":"1900-01-01","price":null,"book":null,"page":null}],"tax":{"marketValue":513200.0,"assessedValue":22225.0,"taxableValue":null,"taxes":null,"landValue":494000.0,"buildingValue":0.0,"yardItemsValue":19200.0},"mailingAddress":{"line1":"2052 FLAT TOP LN","line2":null,"city":"SODDY DAISY","state":"TN","zip":"37379"},"incomeTract":null,"incomeBlockGroup":null,"nearestRoad":null,"flu":{"code":"CR","label":"Countryside Residential; also Preserve","jurisdiction":"Plan Hamilton","source":"https://mapsdev.hamiltontn.gov/hcwa03/rest/services/PlanHamilton/MapServer/3"},"opportunityZone":null,"oz2Eligibility":null,"appraiserUrl":"https://assessor.hamiltontn.gov/card/046_009","gisLink":"033046    00900","pbaNum":"033046    00900P000","dataGaps":["Zoning joined from Unincorporated Hamilton (Live_PropertyZoning/16).","Plan Hamilton place type is unincorporated policy guidance, not a zoning entitlement."],"source":"tn-hamilton-live-parcels"},"geometry":{"type":"Polygon","coordinates":[[[-85.270306,35.287954],[-85.270397,35.287962],[-85.271017,35.288005],[-85.271846,35.288032],[-85.273488,35.286076],[-85.273376,35.285729],[-85.272662,35.285899],[-85.272328,35.285944],[-85.271566,35.28534],[-85.271118,35.28455],[-85.269034,35.287871],[-85.270306,35.287954]]]}},{"type":"Feature","id":"47065:046  013.02","properties":{"id":"47065:046  013.02","parcelId":"046  013.02","countyFips":"47065","countyName":"Hamilton","state":"Tennessee","marketIds":["Chattanooga"],"situsAddress":"2716 POE RD","situsCity":null,"situsZip":null,"jurisdictionCode":null,"ownerName":"DUKES GLENN MICHAEL & MARGARET S","ownerName2":null,"propertyName":null,"zoningCode":"A-1","zoningDistrict":"A-1","jurisdictionPrefix":"Unincorporated Hamilton","dorCode":null,"acreage":19.7,"centroid":[-85.263617,35.279686],"lastSale":{"date":"1988-08-12","price":null,"qualified":null,"book":"3519","page":"0518"},"priorSales":[{"date":"1983-09-13","price":11102.0,"book":"2927","page":"0009"},{"date":"1980-12-02","price":null,"book":"2724","page":"0227"},{"date":"1900-01-01","price":null,"book":null,"page":null}],"tax":{"marketValue":454800.0,"assessedValue":34450.0,"taxableValue":null,"taxes":null,"landValue":357600.0,"buildingValue":97200.0,"yardItemsValue":0.0},"mailingAddress":{"line1":"2716 POE RD","line2":null,"city":"SODDY DAISY","state":"TN","zip":"37379"},"incomeTract":null,"incomeBlockGroup":null,"nearestRoad":null,"flu":{"code":"CR","label":"Countryside Residential; also Preserve","jurisdiction":"Plan Hamilton","source":"https://mapsdev.hamiltontn.gov/hcwa03/rest/services/PlanHamilton/MapServer/3"},"opportunityZone":null,"oz2Eligibility":null,"appraiserUrl":"https://assessor.hamiltontn.gov/card/046_013.02","gisLink":"033046    01302","pbaNum":"033046    01302P000","dataGaps":["Zoning joined from Unincorporated Hamilton (Live_PropertyZoning/16).","Plan Hamilton place type is unincorporated policy guidance, not a zoning entitlement."],"source":"tn-hamilton-live-parcels"},"geometry":{"type":"Polygon","coordinates":[[[-85.262805,35.279533],[-85.260874,35.282155],[-85.259408,35.284146],[-85.25976,35.284333],[-85.259097,35.285246],[-85.259257,35.285312],[-85.266746,35.27726],[-85.26677,35.277114],[-85.266759,35.277032],[-85.266602,35.276733],[-85.266452,35.276548],[-85.266253,35.276366],[-85.26603,35.276076],[-85.263955,35.278842],[-85.263492,35.2786],[-85.262805,35.279533]]]}},{"type":"Feature","id":"47065:038  001.04","properties":{"id":"47065:038  001.04","parcelId":"038  001.04","countyFips":"47065","countyName":"Hamilton","state":"Tennessee","marketIds":["Chattanooga"],"situsAddress":"2929 MOWBRAY PIKE","situsCity":null,"situsZip":null,"jurisdictionCode":null,"ownerName":"EZELL LINDA F ET AL","ownerName2":null,"propertyName":null,"zoningCode":"A-1","zoningDistrict":"A-1","jurisdictionPrefix":"Unincorporated Hamilton","dorCode":null,"acreage":17.3,"centroid":[-85.263868,35.292264],"lastSale":{"date":"2020-08-04","price":null,"qualified":null,"book":"12104","page":"0185"},"priorSales":[{"date":"2018-05-13","price":null,"book":"11340","page":"0752"},{"date":"2007-03-07","price":null,"book":"8275","page":"0801"},{"date":"2007-03-06","price":null,"book":"8275","page":"0799"}],"tax":{"marketValue":401800.0,"assessedValue":63925.0,"taxableValue":null,"taxes":null,"landValue":209300.0,"buildingValue":184500.0,"yardItemsValue":8000.0},"mailingAddress":{"line1":"2929 MOWBRAY PIKE","line2":null,"city":"SODDY DAISY","state":"TN","zip":"37379"},"incomeTract":null,"incomeBlockGroup":null,"nearestRoad":null,"flu":{"code":"CR","label":"Countryside Residential","jurisdiction":"Plan Hamilton","source":"https://mapsdev.hamiltontn.gov/hcwa03/rest/services/PlanHamilton/MapServer/3"},"opportunityZone":null,"oz2Eligibility":null,"appraiserUrl":"https://assessor.hamiltontn.gov/card/038_001.04","gisLink":"033038    00104","pbaNum":"033038    00104P000","dataGaps":["Zoning joined from Unincorporated Hamilton (Live_PropertyZoning/16).","Plan Hamilton place type is unincorporated policy guidance, not a zoning entitlement."],"source":"tn-hamilton-live-parcels"},"geometry":{"type":"Polygon","coordinates":[[[-85.262625,35.294063],[-85.264463,35.294258],[-85.264753,35.293696],[-85.264709,35.292362],[-85.264907,35.292395],[-85.265059,35.291826],[-85.263481,35.291336],[-85.264553,35.289879],[-85.264334,35.289771],[-85.263567,35.290874],[-85.262187,35.292731],[-85.261781,35.293973],[-85.262625,35.294063]]]}},{"type":"Feature","id":"47065:046  013.04","properties":{"id":"47065:046  013.04","parcelId":"046  013.04","countyFips":"47065","countyName":"Hamilton","state":"Tennessee","marketIds":["Chattanooga"],"situsAddress":"2702 POE RD","situsCity":null,"situsZip":null,"jurisdictionCode":null,"ownerName":"SPENCE DENNIS STANLEY & HEATHER R TRS","ownerName2":null,"propertyName":null,"zoningCode":"A-1","zoningDistrict":"A-1","jurisdictionPrefix":"Unincorporated Hamilton","dorCode":null,"acreage":15.79,"centroid":[-85.25883,35.283804],"lastSale":{"date":"2026-02-05","price":null,"qualified":null,"book":"14241","page":"0742"},"priorSales":[{"date":"2017-06-26","price":454900.0,"book":"11085","page":"0339"},{"date":"2016-03-31","price":300000.0,"book":"10709","page":"0789"},{"date":"2015-03-03","price":null,"book":"10413","page":"0561"}],"tax":{"marketValue":812100.0,"assessedValue":138100.0,"taxableValue":null,"taxes":null,"landValue":311100.0,"buildingValue":477300.0,"yardItemsValue":23700.0},"mailingAddress":{"line1":"2702 POE RD","line2":null,"city":"SODDY DAISY","state":"TN","zip":"37379"},"incomeTract":null,"incomeBlockGroup":null,"nearestRoad":null,"flu":{"code":"CR","label":"Countryside Residential","jurisdiction":"Plan Hamilton","source":"https://mapsdev.hamiltontn.gov/hcwa03/rest/services/PlanHamilton/MapServer/3"},"opportunityZone":null,"oz2Eligibility":null,"appraiserUrl":"https://assessor.hamiltontn.gov/card/046_013.04","gisLink":"033046    01304","pbaNum":"033046    01304P000","dataGaps":["Zoning joined from Unincorporated Hamilton (Live_PropertyZoning/16).","Plan Hamilton place type is unincorporated policy guidance, not a zoning entitlement."],"source":"tn-hamilton-live-parcels"},"geometry":{"type":"Polygon","coordinates":[[[-85.25726,35.284205],[-85.258138,35.284748],[-85.258453,35.28494],[-85.258694,35.284587],[-85.258877,35.284206],[-85.259235,35.284381],[-85.260874,35.282155],[-85.259106,35.281213],[-85.25726,35.284205]]]}},{"type":"Feature","id":"47065:046  014.05","properties":{"id":"47065:046  014.05","parcelId":"046  014.05","countyFips":"47065","countyName":"Hamilton","state":"Tennessee","marketIds":["Chattanooga"],"situsAddress":"9821 COOPER CREEK TRL","situsCity":null,"situsZip":null,"jurisdictionCode":null,"ownerName":"GILES DON A & KELLIE B","ownerName2":null,"propertyName":null,"zoningCode":"A-1","zoningDistrict":"A-1","jurisdictionPrefix":"Unincorporated Hamilton","dorCode":null,"acreage":15.76,"centroid":[-85.260534,35.280551],"lastSale":{"date":"2019-11-05","price":null,"qualified":null,"book":"11812","page":"0072"},"priorSales":[{"date":"1900-01-01","price":null,"book":null,"page":null},{"date":"1900-01-01","price":null,"book":null,"page":null},{"date":"1900-01-01","price":null,"book":null,"page":null}],"tax":{"marketValue":973200.0,"assessedValue":194700.0,"taxableValue":null,"taxes":null,"landValue":237600.0,"buildingValue":652500.0,"yardItemsValue":83100.0},"mailingAddress":{"line1":"9821 COOPER CREEK TRL","line2":null,"city":"SODDY DAISY","state":"TN","zip":"37379"},"incomeTract":null,"incomeBlockGroup":null,"nearestRoad":null,"flu":{"code":"CR","label":"Countryside Residential","jurisdiction":"Plan Hamilton","source":"https://mapsdev.hamiltontn.gov/hcwa03/rest/services/PlanHamilton/MapServer/3"},"opportunityZone":null,"oz2Eligibility":null,"appraiserUrl":"https://assessor.hamiltontn.gov/card/046_014.05","gisLink":"033046    01405","pbaNum":"033046    01405P000","dataGaps":["Zoning joined from Unincorporated Hamilton (Live_PropertyZoning/16).","Plan Hamilton place type is unincorporated policy guidance, not a zoning entitlement."],"source":"tn-hamilton-live-parcels"},"geometry":{"type":"Polygon","coordinates":[[[-85.259106,35.281213],[-85.259137,35.281229],[-85.260874,35.282155],[-85.262805,35.279533],[-85.260746,35.278623],[-85.259106,35.281213]]]}},{"type":"Feature","id":"47065:046  015","properties":{"id":"47065:046  015","parcelId":"046  015","countyFips":"47065","countyName":"Hamilton","state":"Tennessee","marketIds":["Chattanooga"],"situsAddress":"9893 SOUR MASH LN","situsCity":null,"situsZip":null,"jurisdictionCode":null,"ownerName":"HUIE HUBERT HAROLD & DONNA NANN","ownerName2":null,"propertyName":null,"zoningCode":"A-1","zoningDistrict":"A-1","jurisdictionPrefix":"Unincorporated Hamilton","dorCode":null,"acreage":14.02,"centroid":[-85.255996,35.279894],"lastSale":{"date":"2016-07-18","price":412000.0,"qualified":null,"book":"10801","page":"0659"},"priorSales":[{"date":"2013-05-23","price":160000.0,"book":"9961","page":"0752"},{"date":"2001-05-15","price":55000.0,"book":"5882","page":"0280"},{"date":"1998-05-06","price":185000.0,"book":"5090","page":"0218"}],"tax":{"marketValue":678000.0,"assessedValue":169500.0,"taxableValue":null,"taxes":null,"landValue":184900.0,"buildingValue":493100.0,"yardItemsValue":0.0},"mailingAddress":{"line1":"9893 SOUR MASH LN","line2":null,"city":"SODDY DAISY","state":"TN","zip":"37379"},"incomeTract":null,"incomeBlockGroup":null,"nearestRoad":null,"flu":{"code":"CR","label":"Countryside Residential","jurisdiction":"Plan Hamilton","source":"https://mapsdev.hamiltontn.gov/hcwa03/rest/services/PlanHamilton/MapServer/3"},"opportunityZone":null,"oz2Eligibility":null,"appraiserUrl":"https://assessor.hamiltontn.gov/card/046_015","gisLink":"033046    01500","pbaNum":"033046    01500P000","dataGaps":["Zoning joined from Unincorporated Hamilton (Live_PropertyZoning/16).","Plan Hamilton place type is unincorporated policy guidance, not a zoning entitlement."],"source":"tn-hamilton-live-parcels"},"geometry":{"type":"Polygon","coordinates":[[[-85.253903,35.282157],[-85.253956,35.282186],[-85.254529,35.282516],[-85.254983,35.282806],[-85.25725,35.279378],[-85.257083,35.279298],[-85.257184,35.279183],[-85.257186,35.279142],[-85.257158,35.279085],[-85.2571,35.279047],[-85.257028,35.279037],[-85.256958,35.279057],[-85.256909,35.279103],[-85.256512,35.279078],[-85.256074,35.279114],[-85.255872,35.279154],[-85.255613,35.279235],[-85.255495,35.27929],[-85.255393,35.279366],[-85.255284,35.279507],[-85.254441,35.281035],[-85.253903,35.282157]]]}},{"type":"Feature","id":"47065:046  006.03","properties":{"id":"47065:046  006.03","parcelId":"046  006.03","countyFips":"47065","countyName":"Hamilton","state":"Tennessee","marketIds":["Chattanooga"],"situsAddress":"MOWBRAY PIKE","situsCity":null,"situsZip":null,"jurisdictionCode":null,"ownerName":"BOOKOUT RICHARD","ownerName2":null,"propertyName":null,"zoningCode":"A-1","zoningDistrict":"A-1","jurisdictionPrefix":"Unincorporated Hamilton","dorCode":null,"acreage":11.12,"centroid":[-85.250424,35.286544],"lastSale":{"date":"2020-02-28","price":77000.0,"qualified":null,"book":"11926","page":"0146"},"priorSales":[{"date":"2020-02-19","price":null,"book":"11926","page":"0143"},{"date":"1900-01-01","price":null,"book":null,"page":null},{"date":"1900-01-01","price":null,"book":null,"page":null}],"tax":{"marketValue":203600.0,"assessedValue":50900.0,"taxableValue":null,"taxes":null,"landValue":196100.0,"buildingValue":0.0,"yardItemsValue":7500.0},"mailingAddress":{"line1":"2623 MOWBRAY PIKE","line2":null,"city":"SODDY DAISY","state":"TN","zip":"37379"},"incomeTract":null,"incomeBlockGroup":null,"nearestRoad":null,"flu":{"code":"CR","label":"Countryside Residential","jurisdiction":"Plan Hamilton","source":"https://mapsdev.hamiltontn.gov/hcwa03/rest/services/PlanHamilton/MapServer/3"},"opportunityZone":null,"oz2Eligibility":null,"appraiserUrl":"https://assessor.hamiltontn.gov/card/046_006.03","gisLink":"033046    00603","pbaNum":"033046    00603P000","dataGaps":["Zoning joined from Unincorporated Hamilton (Live_PropertyZoning/16).","Plan Hamilton place type is unincorporated policy guidance, not a zoning entitlement."],"source":"tn-hamilton-live-parcels"},"geometry":{"type":"Polygon","coordinates":[[[-85.249076,35.288003],[-85.249432,35.288139],[-85.250261,35.288487],[-85.252306,35.284705],[-85.250774,35.284996],[-85.250903,35.285675],[-85.250215,35.2858],[-85.249076,35.288003]]]}},{"type":"Feature","id":"47065:046  002.06","properties":{"id":"47065:046  002.06","parcelId":"046  002.06","countyFips":"47065","countyName":"Hamilton","state":"Tennessee","marketIds":["Chattanooga"],"situsAddress":"2981 MOWBRAY PIKE","situsCity":null,"situsZip":null,"jurisdictionCode":null,"ownerName":"QUALLS CHARLES THOMAS & AMY NI","ownerName2":null,"propertyName":null,"zoningCode":"A-1","zoningDistrict":"A-1","jurisdictionPrefix":"Unincorporated Hamilton","dorCode":null,"acreage":10.89,"centroid":[-85.265009,35.292112],"lastSale":{"date":"2014-10-24","price":null,"qualified":null,"book":"10327","page":"0938"},"priorSales":[{"date":"2014-10-23","price":null,"book":"10326","page":"0901"},{"date":"2014-08-04","price":null,"book":"10272","page":"0296"},{"date":"1978-04-24","price":null,"book":"2499","page":"0571"}],"tax":{"marketValue":575300.0,"assessedValue":143825.0,"taxableValue":null,"taxes":null,"landValue":134500.0,"buildingValue":440800.0,"yardItemsValue":0.0},"mailingAddress":{"line1":"2891 MOWBRAY PIKE","line2":null,"city":"SODDY DAISY","state":"TN","zip":"37379"},"incomeTract":null,"incomeBlockGroup":null,"nearestRoad":null,"flu":{"code":"CR","label":"Countryside Residential","jurisdiction":"Plan Hamilton","source":"https://mapsdev.hamiltontn.gov/hcwa03/rest/services/PlanHamilton/MapServer/3"},"opportunityZone":null,"oz2Eligibility":null,"appraiserUrl":"https://assessor.hamiltontn.gov/card/046_002.06","gisLink":"033046    00206","pbaNum":"033046    00206P000","dataGaps":["Zoning joined from Unincorporated Hamilton (Live_PropertyZoning/16).","Plan Hamilton place type is unincorporated policy guidance, not a zoning entitlement."],"source":"tn-hamilton-live-parcels"},"geometry":{"type":"Polygon","coordinates":[[[-85.264907,35.292395],[-85.265835,35.29255],[-85.266879,35.291237],[-85.267039,35.290251],[-85.266443,35.290219],[-85.265623,35.291905],[-85.264997,35.291698],[-85.265736,35.29018],[-85.265376,35.290156],[-85.265095,35.290101],[-85.264827,35.290013],[-85.264553,35.289879],[-85.263481,35.291336],[-85.265059,35.291826],[-85.264907,35.292395]]]}},{"type":"Feature","id":"47065:046  008","properties":{"id":"47065:046  008","parcelId":"046  008","countyFips":"47065","countyName":"Hamilton","state":"Tennessee","marketIds":["Chattanooga"],"situsAddress":"10220 MORGAN LN","situsCity":null,"situsZip":null,"jurisdictionCode":null,"ownerName":"GRANT CLEO SMITH","ownerName2":null,"propertyName":null,"zoningCode":"A-1","zoningDistrict":"A-1","jurisdictionPrefix":"Unincorporated Hamilton","dorCode":null,"acreage":10.09,"centroid":[-85.257052,35.285347],"lastSale":{"date":"1945-01-01","price":null,"qualified":null,"book":"0882","page":"0638"},"priorSales":[{"date":"1900-01-01","price":null,"book":null,"page":null},{"date":"1900-01-01","price":null,"book":null,"page":null},{"date":"1900-01-01","price":null,"book":null,"page":null}],"tax":{"marketValue":453500.0,"assessedValue":113375.0,"taxableValue":null,"taxes":null,"landValue":445400.0,"buildingValue":0.0,"yardItemsValue":8100.0},"mailingAddress":{"line1":"2718 MOWBRAY PIKE","line2":null,"city":"SODDY DAISY","state":"TN","zip":"37379"},"incomeTract":null,"incomeBlockGroup":null,"nearestRoad":null,"flu":{"code":"CR","label":"Countryside Residential","jurisdiction":"Plan Hamilton","source":"https://mapsdev.hamiltontn.gov/hcwa03/rest/services/PlanHamilton/MapServer/3"},"opportunityZone":null,"oz2Eligibility":null,"appraiserUrl":"https://assessor.hamiltontn.gov/card/046_008","gisLink":"033046    00800","pbaNum":"033046    00800P000","dataGaps":["Zoning joined from Unincorporated Hamilton (Live_PropertyZoning/16).","Plan Hamilton place type is unincorporated policy guidance, not a zoning entitlement."],"source":"tn-hamilton-live-parcels"},"geometry":{"type":"Polygon","coordinates":[[[-85.255781,35.285414],[-85.256577,35.285833],[-85.257457,35.286299],[-85.25827,35.284935],[-85.257174,35.284255],[-85.255781,35.285414]]]}},{"type":"Feature","id":"47065:046  014","properties":{"id":"47065:046  014","parcelId":"046  014","countyFips":"47065","countyName":"Hamilton","state":"Tennessee","marketIds":["Chattanooga"],"situsAddress":"2630 POE RD","situsCity":null,"situsZip":null,"jurisdictionCode":null,"ownerName":"ULVENES MATTHEW H","ownerName2":null,"propertyName":null,"zoningCode":"A-1","zoningDistrict":"A-1","jurisdictionPrefix":"Unincorporated Hamilton","dorCode":null,"acreage":10.0,"centroid":[-85.256375,35.281921],"lastSale":{"date":"2022-02-18","price":null,"qualified":null,"book":"12953","page":"0308"},"priorSales":[{"date":"2018-11-16","price":407000.0,"book":"11504","page":"0677"},{"date":"1989-05-10","price":26500.0,"book":"3634","page":"0912"},{"date":"1988-04-06","price":26000.0,"book":"3478","page":"0901"}],"tax":{"marketValue":602000.0,"assessedValue":150500.0,"taxableValue":null,"taxes":null,"landValue":176600.0,"buildingValue":416900.0,"yardItemsValue":8500.0},"mailingAddress":{"line1":"2630 POE RD","line2":null,"city":"SODDY DAISY","state":"TN","zip":"37379"},"incomeTract":null,"incomeBlockGroup":null,"nearestRoad":null,"flu":{"code":"CR","label":"Countryside Residential","jurisdiction":"Plan Hamilton","source":"https://mapsdev.hamiltontn.gov/hcwa03/rest/services/PlanHamilton/MapServer/3"},"opportunityZone":null,"oz2Eligibility":null,"appraiserUrl":"https://assessor.hamiltontn.gov/card/046_014","gisLink":"033046    01400","pbaNum":"033046    01400P000","dataGaps":["Zoning joined from Unincorporated Hamilton (Live_PropertyZoning/16).","Plan Hamilton place type is unincorporated policy guidance, not a zoning entitlement."],"source":"tn-hamilton-live-parcels"},"geometry":{"type":"Polygon","coordinates":[[[-85.254983,35.282806],[-85.256126,35.283509],[-85.257659,35.281211],[-85.256734,35.280158],[-85.254983,35.282806]]]}},{"type":"Feature","id":"47065:038  001.05","properties":{"id":"47065:038  001.05","parcelId":"038  001.05","countyFips":"47065","countyName":"Hamilton","state":"Tennessee","marketIds":["Chattanooga"],"situsAddress":"9864 EVANS RD","situsCity":null,"situsZip":null,"jurisdictionCode":null,"ownerName":"FARRIS ERIC EDWARD & TINA KALEN","ownerName2":null,"propertyName":null,"zoningCode":"A-1","zoningDistrict":"A-1","jurisdictionPrefix":"Unincorporated Hamilton","dorCode":null,"acreage":9.47,"centroid":[-85.266001,35.293307],"lastSale":{"date":"2022-07-08","price":null,"qualified":null,"book":"13024","page":"0807"},"priorSales":[{"date":"2002-05-09","price":null,"book":"6249","page":"0196"},{"date":"1900-01-01","price":null,"book":null,"page":null},{"date":"1900-01-01","price":null,"book":null,"page":null}],"tax":{"marketValue":677800.0,"assessedValue":169450.0,"taxableValue":null,"taxes":null,"landValue":125500.0,"buildingValue":552300.0,"yardItemsValue":0.0},"mailingAddress":{"line1":"9876 EVANS RD","line2":null,"city":"SODDY DAISY","state":"TN","zip":"37379"},"incomeTract":null,"incomeBlockGroup":null,"nearestRoad":null,"flu":{"code":"CR","label":"Countryside Residential","jurisdiction":"Plan Hamilton","source":"https://mapsdev.hamiltontn.gov/hcwa03/rest/services/PlanHamilton/MapServer/3"},"opportunityZone":null,"oz2Eligibility":null,"appraiserUrl":"https://assessor.hamiltontn.gov/card/038_001.05","gisLink":"033038    00105","pbaNum":"033038    00105P000","dataGaps":["Zoning joined from Unincorporated Hamilton (Live_PropertyZoning/16).","Plan Hamilton place type is unincorporated policy guidance, not a zoning entitlement."],"source":"tn-hamilton-live-parcels"},"geometry":{"type":"Polygon","coordinates":[[[-85.264753,35.293696],[-85.266699,35.294295],[-85.267844,35.292875],[-85.264709,35.292362],[-85.264753,35.293696]]]}},{"type":"Feature","id":"47065:046  014.02","properties":{"id":"47065:046  014.02","parcelId":"046  014.02","countyFips":"47065","countyName":"Hamilton","state":"Tennessee","marketIds":["Chattanooga"],"situsAddress":"2664 POE RD","situsCity":null,"situsZip":null,"jurisdictionCode":null,"ownerName":"NISBET MATTHEW FLYNN","ownerName2":"NISBET TAMMY JOHNSTON","propertyName":null,"zoningCode":"A-1","zoningDistrict":"A-1","jurisdictionPrefix":"Unincorporated Hamilton","dorCode":null,"acreage":8.11,"centroid":[-85.257165,35.282814],"lastSale":{"date":"2022-03-18","price":null,"qualified":null,"book":"12891","page":"0475"},"priorSales":[{"date":"2020-05-22","price":386000.0,"book":"12012","page":"0661"},{"date":"2015-02-10","price":null,"book":"10403","page":"0729"},{"date":"2014-05-23","price":280500.0,"book":"10222","page":"0583"}],"tax":{"marketValue":655100.0,"assessedValue":163775.0,"taxableValue":null,"taxes":null,"landValue":143700.0,"buildingValue":462500.0,"yardItemsValue":48900.0},"mailingAddress":{"line1":"2664 POE RD","line2":null,"city":"SODDY DAISY","state":"TN","zip":"37379"},"incomeTract":null,"incomeBlockGroup":null,"nearestRoad":null,"flu":{"code":"CR","label":"Countryside Residential","jurisdiction":"Plan Hamilton","source":"https://mapsdev.hamiltontn.gov/hcwa03/rest/services/PlanHamilton/MapServer/3"},"opportunityZone":null,"oz2Eligibility":null,"appraiserUrl":"https://assessor.hamiltontn.gov/card/046_014.02","gisLink":"033046    01402","pbaNum":"033046    01402P000","dataGaps":["Zoning joined from Unincorporated Hamilton (Live_PropertyZoning/16).","Plan Hamilton place type is unincorporated policy guidance, not a zoning entitlement."],"source":"tn-hamilton-live-parcels"},"geometry":{"type":"Polygon","coordinates":[[[-85.256126,35.283509],[-85.256262,35.283592],[-85.257124,35.284121],[-85.258657,35.281636],[-85.257657,35.281214],[-85.256126,35.283509]]]}},{"type":"Feature","id":"47065:046  016","properties":{"id":"47065:046  016","parcelId":"046  016","countyFips":"47065","countyName":"Hamilton","state":"Tennessee","marketIds":["Chattanooga"],"situsAddress":"2540 POE RD","situsCity":null,"situsZip":null,"jurisdictionCode":null,"ownerName":"JOHNSON BRYSON","ownerName2":null,"propertyName":null,"zoningCode":"A-1","zoningDistrict":"A-1","jurisdictionPrefix":"Unincorporated Hamilton","dorCode":null,"acreage":7.7,"centroid":[-85.253844,35.280874],"lastSale":{"date":"1999-12-22","price":null,"qualified":null,"book":"5516","page":"0310"},"priorSales":[{"date":"1961-01-01","price":null,"book":"1453","page":"0509"},{"date":"1961-01-01","price":null,"book":"1471","page":"0188"},{"date":"1900-01-01","price":null,"book":null,"page":null}],"tax":{"marketValue":128000.0,"assessedValue":32000.0,"taxableValue":null,"taxes":null,"landValue":122900.0,"buildingValue":0.0,"yardItemsValue":5100.0},"mailingAddress":{"line1":"1606 POE RD","line2":null,"city":"SODDY DAISY","state":"TN","zip":"37379"},"incomeTract":null,"incomeBlockGroup":null,"nearestRoad":null,"flu":{"code":"CR","label":"Countryside Residential","jurisdiction":"Plan Hamilton","source":"https://mapsdev.hamiltontn.gov/hcwa03/rest/services/PlanHamilton/MapServer/3"},"opportunityZone":null,"oz2Eligibility":null,"appraiserUrl":"https://assessor.hamiltontn.gov/card/046_016","gisLink":"033046    01600","pbaNum":"033046    01600P000","dataGaps":["Zoning joined from Unincorporated Hamilton (Live_PropertyZoning/16).","Plan Hamilton place type is unincorporated policy guidance, not a zoning entitlement."],"source":"tn-hamilton-live-parcels"},"geometry":{"type":"Polygon","coordinates":[[[-85.253127,35.281751],[-85.253172,35.281773],[-85.253903,35.282157],[-85.254441,35.281035],[-85.255189,35.279684],[-85.254072,35.279253],[-85.253194,35.280581],[-85.253654,35.28076],[-85.253127,35.281751]]]}},{"type":"Feature","id":"47065:046  009.01","properties":{"id":"47065:046  009.01","parcelId":"046  009.01","countyFips":"47065","countyName":"Hamilton","state":"Tennessee","marketIds":["Chattanooga"],"situsAddress":"3062 POE RD","situsCity":null,"situsZip":null,"jurisdictionCode":null,"ownerName":"KOVACHEVICH CHRISTA J & JACK A","ownerName2":null,"propertyName":null,"zoningCode":"A-1","zoningDistrict":"A-1","jurisdictionPrefix":"Unincorporated Hamilton","dorCode":null,"acreage":7.56,"centroid":[-85.26897,35.285988],"lastSale":{"date":"2026-02-11","price":null,"qualified":null,"book":"14198","page":"0288"},"priorSales":[{"date":"2025-07-10","price":450000.0,"book":"13979","page":"0428"},{"date":"2005-01-31","price":64700.0,"book":"7424","page":"0040"},{"date":"1900-01-01","price":null,"book":null,"page":null}],"tax":{"marketValue":421800.0,"assessedValue":105450.0,"taxableValue":null,"taxes":null,"landValue":134100.0,"buildingValue":287700.0,"yardItemsValue":0.0},"mailingAddress":{"line1":"3062 POE RD","line2":null,"city":"SODDY DAISY","state":"TN","zip":"37379"},"incomeTract":null,"incomeBlockGroup":null,"nearestRoad":null,"flu":{"code":"CR","label":"Countryside Residential; also Preserve","jurisdiction":"Plan Hamilton","source":"https://mapsdev.hamiltontn.gov/hcwa03/rest/services/PlanHamilton/MapServer/3"},"opportunityZone":null,"oz2Eligibility":null,"appraiserUrl":"https://assessor.hamiltontn.gov/card/046_009.01","gisLink":"033046    00901","pbaNum":"033046    00901P000","dataGaps":["Zoning joined from Unincorporated Hamilton (Live_PropertyZoning/16).","Plan Hamilton place type is unincorporated policy guidance, not a zoning entitlement."],"source":"tn-hamilton-live-parcels"},"geometry":{"type":"Polygon","coordinates":[[[-85.267638,35.28772],[-85.267644,35.287721],[-85.268323,35.287802],[-85.270787,35.283877],[-85.270573,35.283529],[-85.270217,35.283554],[-85.267605,35.287716],[-85.267638,35.28772]]]}},{"type":"Feature","id":"47065:046  009.03","properties":{"id":"47065:046  009.03","parcelId":"046  009.03","countyFips":"47065","countyName":"Hamilton","state":"Tennessee","marketIds":["Chattanooga"],"situsAddress":"3086 POE RD","situsCity":null,"situsZip":null,"jurisdictionCode":null,"ownerName":"SHATTUCK FRED WILLIAM","ownerName2":null,"propertyName":null,"zoningCode":"A-1","zoningDistrict":"A-1","jurisdictionPrefix":"Unincorporated Hamilton","dorCode":null,"acreage":7.53,"centroid":[-85.269861,35.286005],"lastSale":{"date":"2026-08-10","price":1350000.0,"qualified":null,"book":"14402","page":"0180"},"priorSales":[{"date":"2025-12-01","price":1320000.0,"book":"14123","page":"0554"},{"date":"2021-07-26","price":945000.0,"book":"12585","page":"0072"},{"date":"2021-06-08","price":340553.0,"book":"12521","page":"0108"}],"tax":{"marketValue":888500.0,"assessedValue":222125.0,"taxableValue":null,"taxes":null,"landValue":133600.0,"buildingValue":754900.0,"yardItemsValue":0.0},"mailingAddress":{"line1":"562 WHISPERING COVE DR","line2":null,"city":"SYLVA","state":"NC","zip":"28779"},"incomeTract":null,"incomeBlockGroup":null,"nearestRoad":null,"flu":{"code":"CR","label":"Countryside Residential; also Preserve","jurisdiction":"Plan Hamilton","source":"https://mapsdev.hamiltontn.gov/hcwa03/rest/services/PlanHamilton/MapServer/3"},"opportunityZone":null,"oz2Eligibility":null,"appraiserUrl":"https://assessor.hamiltontn.gov/card/046_009.03","gisLink":"033046    00903","pbaNum":"033046    00903P000","dataGaps":["Zoning joined from Unincorporated Hamilton (Live_PropertyZoning/16).","Plan Hamilton place type is unincorporated policy guidance, not a zoning entitlement."],"source":"tn-hamilton-live-parcels"},"geometry":{"type":"Polygon","coordinates":[[[-85.269001,35.287867],[-85.269034,35.287871],[-85.271118,35.28455],[-85.270902,35.284064],[-85.270787,35.283877],[-85.268323,35.287802],[-85.269001,35.287867]]]}},{"type":"Feature","id":"47065:046  009.04","properties":{"id":"47065:046  009.04","parcelId":"046  009.04","countyFips":"47065","countyName":"Hamilton","state":"Tennessee","marketIds":["Chattanooga"],"situsAddress":"3018 POE RD","situsCity":null,"situsZip":null,"jurisdictionCode":null,"ownerName":"GRAHAM JASON & LISA","ownerName2":null,"propertyName":null,"zoningCode":"A-1","zoningDistrict":"A-1","jurisdictionPrefix":"Unincorporated Hamilton","dorCode":null,"acreage":6.83,"centroid":[-85.268575,35.285443],"lastSale":{"date":"2025-03-10","price":764900.0,"qualified":null,"book":"13858","page":"0950"},"priorSales":[{"date":"2017-01-27","price":380500.0,"book":"10968","page":"0065"},{"date":"2006-02-16","price":53274.0,"book":"7847","page":"0916"},{"date":"1900-01-01","price":null,"book":null,"page":null}],"tax":{"marketValue":668300.0,"assessedValue":167075.0,"taxableValue":null,"taxes":null,"landValue":227700.0,"buildingValue":440600.0,"yardItemsValue":0.0},"mailingAddress":{"line1":"3018 POE RD","line2":null,"city":"SODDY DAISY","state":"TN","zip":"37379"},"incomeTract":null,"incomeBlockGroup":null,"nearestRoad":null,"flu":{"code":"CR","label":"Countryside Residential; also Preserve","jurisdiction":"Plan Hamilton","source":"https://mapsdev.hamiltontn.gov/hcwa03/rest/services/PlanHamilton/MapServer/3"},"opportunityZone":null,"oz2Eligibility":null,"appraiserUrl":"https://assessor.hamiltontn.gov/card/046_009.04","gisLink":"033046    00904","pbaNum":"033046    00904P000","dataGaps":["Zoning joined from Unincorporated Hamilton (Live_PropertyZoning/16).","Plan Hamilton place type is unincorporated policy guidance, not a zoning entitlement."],"source":"tn-hamilton-live-parcels"},"geometry":{"type":"Polygon","coordinates":[[[-85.266894,35.287619],[-85.266901,35.28762],[-85.267605,35.287716],[-85.270217,35.283554],[-85.270045,35.283566],[-85.26921,35.284011],[-85.269155,35.284017],[-85.266894,35.287619]]]}},{"type":"Feature","id":"47065:046  009.02","properties":{"id":"47065:046  009.02","parcelId":"046  009.02","countyFips":"47065","countyName":"Hamilton","state":"Tennessee","marketIds":["Chattanooga"],"situsAddress":"2972 POE RD","situsCity":null,"situsZip":null,"jurisdictionCode":null,"ownerName":"SONNTAG JON MICHAEL & BETH","ownerName2":null,"propertyName":null,"zoningCode":"A-1","zoningDistrict":"A-1","jurisdictionPrefix":"Unincorporated Hamilton","dorCode":null,"acreage":6.34,"centroid":[-85.267574,35.285786],"lastSale":{"date":"2022-05-03","price":635000.0,"qualified":null,"book":"12948","page":"0260"},"priorSales":[{"date":"2017-09-05","price":360000.0,"book":"11155","page":"0598"},{"date":"2017-05-01","price":297000.0,"book":"11044","page":"0714"},{"date":"2005-02-11","price":55000.0,"book":"7430","page":"0858"}],"tax":{"marketValue":635700.0,"assessedValue":158925.0,"taxableValue":null,"taxes":null,"landValue":155300.0,"buildingValue":480400.0,"yardItemsValue":0.0},"mailingAddress":{"line1":"2972 POE RD","line2":null,"city":"SODDY DAISY","state":"TN","zip":"37379"},"incomeTract":null,"incomeBlockGroup":null,"nearestRoad":null,"flu":{"code":"CR","label":"Countryside Residential; also Preserve","jurisdiction":"Plan Hamilton","source":"https://mapsdev.hamiltontn.gov/hcwa03/rest/services/PlanHamilton/MapServer/3"},"opportunityZone":null,"oz2Eligibility":null,"appraiserUrl":"https://assessor.hamiltontn.gov/card/046_009.02","gisLink":"033046    00902","pbaNum":"033046    00902P000","dataGaps":["Zoning joined from Unincorporated Hamilton (Live_PropertyZoning/16).","Plan Hamilton place type is unincorporated policy guidance, not a zoning entitlement."],"source":"tn-hamilton-live-parcels"},"geometry":{"type":"Polygon","coordinates":[[[-85.266186,35.287512],[-85.266193,35.287513],[-85.266894,35.287619],[-85.269155,35.284017],[-85.268612,35.284079],[-85.268405,35.283977],[-85.266186,35.287512]]]}},{"type":"Feature","id":"47065:046  008.01","properties":{"id":"47065:046  008.01","parcelId":"046  008.01","countyFips":"47065","countyName":"Hamilton","state":"Tennessee","marketIds":["Chattanooga"],"situsAddress":"2718 MOWBRAY PIKE","situsCity":null,"situsZip":null,"jurisdictionCode":null,"ownerName":"GREENWOOD DARLENE W & THOMAS E","ownerName2":null,"propertyName":null,"zoningCode":"A-1","zoningDistrict":"A-1","jurisdictionPrefix":"Unincorporated Hamilton","dorCode":null,"acreage":6.2,"centroid":[-85.258426,35.285904],"lastSale":{"date":"1998-11-13","price":null,"qualified":null,"book":"5225","page":"0841"},"priorSales":[{"date":"1998-03-25","price":null,"book":"5057","page":"0862"},{"date":"1995-12-05","price":null,"book":"4602","page":"0721"},{"date":"1945-01-01","price":null,"book":"0882","page":"0638"}],"tax":{"marketValue":778100.0,"assessedValue":194525.0,"taxableValue":null,"taxes":null,"landValue":158800.0,"buildingValue":526900.0,"yardItemsValue":92400.0},"mailingAddress":{"line1":"2718 MOWBRAY PIKE","line2":null,"city":"SODDY DAISY","state":"TN","zip":"37379"},"incomeTract":null,"incomeBlockGroup":null,"nearestRoad":null,"flu":{"code":"CR","label":"Countryside Residential","jurisdiction":"Plan Hamilton","source":"https://mapsdev.hamiltontn.gov/hcwa03/rest/services/PlanHamilton/MapServer/3"},"opportunityZone":null,"oz2Eligibility":null,"appraiserUrl":"https://assessor.hamiltontn.gov/card/046_008.01","gisLink":"033046    00801","pbaNum":"033046    00801P000","dataGaps":["Zoning joined from Unincorporated Hamilton (Live_PropertyZoning/16).","Plan Hamilton place type is unincorporated policy guidance, not a zoning entitlement."],"source":"tn-hamilton-live-parcels"},"geometry":{"type":"Polygon","coordinates":[[[-85.257457,35.286299],[-85.257915,35.286547],[-85.258532,35.286871],[-85.259623,35.285579],[-85.258761,35.285195],[-85.25827,35.284935],[-85.257457,35.286299]]]}},{"type":"Feature","id":"47065:046  008.09","properties":{"id":"47065:046  008.09","parcelId":"046  008.09","countyFips":"47065","countyName":"Hamilton","state":"Tennessee","marketIds":["Chattanooga"],"situsAddress":"2807 POE RD","situsCity":null,"situsZip":null,"jurisdictionCode":null,"ownerName":"MOWBRAY PROPERTIES LLC","ownerName2":null,"propertyName":null,"zoningCode":"A-1","zoningDistrict":"A-1","jurisdictionPrefix":"Unincorporated Hamilton","dorCode":null,"acreage":5.5,"centroid":[-85.263124,35.287506],"lastSale":{"date":"2024-01-18","price":870000.0,"qualified":null,"book":"13497","page":"0466"},"priorSales":[{"date":"1945-01-01","price":null,"book":"0882","page":"0638"},{"date":"1900-01-01","price":null,"book":null,"page":null},{"date":"1900-01-01","price":null,"book":null,"page":null}],"tax":{"marketValue":5500.0,"assessedValue":0.0,"taxableValue":null,"taxes":null,"landValue":5500.0,"buildingValue":0.0,"yardItemsValue":0.0},"mailingAddress":{"line1":"2199 TURNBERRY CIR","line2":null,"city":"HIXSON","state":"TN","zip":"37343"},"incomeTract":null,"incomeBlockGroup":null,"nearestRoad":null,"flu":{"code":"CR","label":"Countryside Residential","jurisdiction":"Plan Hamilton","source":"https://mapsdev.hamiltontn.gov/hcwa03/rest/services/PlanHamilton/MapServer/3"},"opportunityZone":null,"oz2Eligibility":null,"appraiserUrl":"https://assessor.hamiltontn.gov/card/046_008.09","gisLink":"033046    00809","pbaNum":"033046    00809P000","dataGaps":["Zoning joined from Unincorporated Hamilton (Live_PropertyZoning/16).","Plan Hamilton place type is unincorporated policy guidance, not a zoning entitlement."],"source":"tn-hamilton-live-parcels"},"geometry":{"type":"Polygon","coordinates":[[[-85.263491,35.288187],[-85.263845,35.288356],[-85.264058,35.287315],[-85.263634,35.287185],[-85.260394,35.285888],[-85.26332,35.288105],[-85.263491,35.288187]]]}},{"type":"Feature","id":"47065:046  014.04","properties":{"id":"47065:046  014.04","parcelId":"046  014.04","countyFips":"47065","countyName":"Hamilton","state":"Tennessee","marketIds":["Chattanooga"],"situsAddress":"9812 COOPER CREEK TRL","situsCity":null,"situsZip":null,"jurisdictionCode":null,"ownerName":"SCOTT JESSICA HEATHER &","ownerName2":"JONATHAN BRENT","propertyName":null,"zoningCode":"A-1","zoningDistrict":"A-1","jurisdictionPrefix":"Unincorporated Hamilton","dorCode":null,"acreage":5.38,"centroid":[-85.260028,35.278475],"lastSale":{"date":"2020-01-30","price":28400.0,"qualified":null,"book":"11895","page":"0647"},"priorSales":[{"date":"2019-11-05","price":null,"book":"11812","page":"0072"},{"date":"2014-11-10","price":125000.0,"book":"10342","page":"0610"},{"date":"1900-01-01","price":null,"book":null,"page":null}],"tax":{"marketValue":477800.0,"assessedValue":119450.0,"taxableValue":null,"taxes":null,"landValue":120300.0,"buildingValue":357500.0,"yardItemsValue":0.0},"mailingAddress":{"line1":"9812 COOPER CREEK TRL","line2":null,"city":"SODDY DAISY","state":"TN","zip":"37379"},"incomeTract":null,"incomeBlockGroup":null,"nearestRoad":null,"flu":{"code":"CR","label":"Countryside Residential","jurisdiction":"Plan Hamilton","source":"https://mapsdev.hamiltontn.gov/hcwa03/rest/services/PlanHamilton/MapServer/3"},"opportunityZone":null,"oz2Eligibility":null,"appraiserUrl":"https://assessor.hamiltontn.gov/card/046_014.04","gisLink":"033046    01404","pbaNum":"033046    01404P000","dataGaps":["Zoning joined from Unincorporated Hamilton (Live_PropertyZoning/16).","Plan Hamilton place type is unincorporated policy guidance, not a zoning entitlement."],"source":"tn-hamilton-live-parcels"},"geometry":{"type":"Polygon","coordinates":[[[-85.259198,35.278903],[-85.259198,35.278903],[-85.26028,35.279359],[-85.261252,35.277824],[-85.26021,35.277384],[-85.259198,35.278903]]]}},{"type":"Feature","id":"47065:046  014.06","properties":{"id":"47065:046  014.06","parcelId":"046  014.06","countyFips":"47065","countyName":"Hamilton","state":"Tennessee","marketIds":["Chattanooga"],"situsAddress":"9806 COOPER CREEK TRL","situsCity":null,"situsZip":null,"jurisdictionCode":null,"ownerName":"DAVIS SAMANTHA R ET AL","ownerName2":null,"propertyName":null,"zoningCode":"A-1","zoningDistrict":"A-1","jurisdictionPrefix":"Unincorporated Hamilton","dorCode":null,"acreage":5.08,"centroid":[-85.261025,35.276968],"lastSale":{"date":"2023-03-17","price":null,"qualified":null,"book":"13241","page":"0306"},"priorSales":[{"date":"2023-03-17","price":null,"book":"13241","page":"0310"},{"date":"2019-11-05","price":null,"book":"11812","page":"0072"},{"date":"1900-01-01","price":null,"book":null,"page":null}],"tax":{"marketValue":357400.0,"assessedValue":89350.0,"taxableValue":null,"taxes":null,"landValue":113700.0,"buildingValue":243700.0,"yardItemsValue":0.0},"mailingAddress":{"line1":"9806 COOPER CREEK TRL","line2":null,"city":"SODDY DAISY","state":"TN","zip":"37379"},"incomeTract":null,"incomeBlockGroup":null,"nearestRoad":null,"flu":{"code":"CR","label":"Countryside Residential","jurisdiction":"Plan Hamilton","source":"https://mapsdev.hamiltontn.gov/hcwa03/rest/services/PlanHamilton/MapServer/3"},"opportunityZone":null,"oz2Eligibility":null,"appraiserUrl":"https://assessor.hamiltontn.gov/card/046_014.06","gisLink":"033046    01406","pbaNum":"033046    01406P000","dataGaps":["Zoning joined from Unincorporated Hamilton (Live_PropertyZoning/16).","Plan Hamilton place type is unincorporated policy guidance, not a zoning entitlement."],"source":"tn-hamilton-live-parcels"},"geometry":{"type":"Polygon","coordinates":[[[-85.26021,35.277384],[-85.260211,35.277384],[-85.261252,35.277824],[-85.262254,35.276347],[-85.261199,35.275902],[-85.26021,35.277384]]]}},{"type":"Feature","id":"47065:046  014.07","properties":{"id":"47065:046  014.07","parcelId":"046  014.07","countyFips":"47065","countyName":"Hamilton","state":"Tennessee","marketIds":["Chattanooga"],"situsAddress":"9802 COOPER CREEK TRL","situsCity":null,"situsZip":null,"jurisdictionCode":null,"ownerName":"BUCKNER BLAKE ET AL","ownerName2":null,"propertyName":null,"zoningCode":"A-1","zoningDistrict":"A-1","jurisdictionPrefix":"Unincorporated Hamilton","dorCode":null,"acreage":5.04,"centroid":[-85.258368,35.281483],"lastSale":{"date":"2026-07-02","price":null,"qualified":null,"book":"14370","page":"0936"},"priorSales":[{"date":"2019-11-05","price":null,"book":"11812","page":"0072"},{"date":"1900-01-01","price":null,"book":null,"page":null},{"date":"1900-01-01","price":null,"book":null,"page":null}],"tax":{"marketValue":112900.0,"assessedValue":28225.0,"taxableValue":null,"taxes":null,"landValue":112900.0,"buildingValue":0.0,"yardItemsValue":0.0},"mailingAddress":{"line1":"9802 COOPER CREEK TRL","line2":null,"city":"SODDY DAISY","state":"TN","zip":"37379"},"incomeTract":null,"incomeBlockGroup":null,"nearestRoad":null,"flu":{"code":"CR","label":"Countryside Residential","jurisdiction":"Plan Hamilton","source":"https://mapsdev.hamiltontn.gov/hcwa03/rest/services/PlanHamilton/MapServer/3"},"opportunityZone":null,"oz2Eligibility":null,"appraiserUrl":"https://assessor.hamiltontn.gov/card/046_014.07","gisLink":"033046    01407","pbaNum":"033046    01407P000","dataGaps":["Zoning joined from Unincorporated Hamilton (Live_PropertyZoning/16).","Plan Hamilton place type is unincorporated policy guidance, not a zoning entitlement."],"source":"tn-hamilton-live-parcels"},"geometry":{"type":"MultiPolygon","coordinates":[[[[-85.257659,35.281211],[-85.257657,35.281214],[-85.258657,35.281636],[-85.257124,35.284121],[-85.25726,35.284205],[-85.259106,35.281213],[-85.26028,35.279359],[-85.259198,35.278903],[-85.257659,35.281211]]],[[[-85.261199,35.275902],[-85.262254,35.276347],[-85.263227,35.274812],[-85.262212,35.274383],[-85.261199,35.275902]]]]}},{"type":"Feature","id":"47065:046  004.01","properties":{"id":"47065:046  004.01","parcelId":"046  004.01","countyFips":"47065","countyName":"Hamilton","state":"Tennessee","marketIds":["Chattanooga"],"situsAddress":"2717 MOWBRAY PIKE","situsCity":null,"situsZip":null,"jurisdictionCode":null,"ownerName":"STANFIELD BRANDON","ownerName2":null,"propertyName":null,"zoningCode":"A-1","zoningDistrict":"A-1","jurisdictionPrefix":"Unincorporated Hamilton","dorCode":null,"acreage":5.0,"centroid":[-85.256967,35.288007],"lastSale":{"date":"2022-02-10","price":null,"qualified":null,"book":"12842","page":"0873"},"priorSales":[{"date":"1995-09-28","price":175000.0,"book":"4570","page":"0080"},{"date":"1900-01-01","price":null,"book":null,"page":null},{"date":"1900-01-01","price":null,"book":null,"page":null}],"tax":{"marketValue":295100.0,"assessedValue":73775.0,"taxableValue":null,"taxes":null,"landValue":112000.0,"buildingValue":183100.0,"yardItemsValue":0.0},"mailingAddress":{"line1":"2723 MOWBRAY PIKE","line2":null,"city":"SODDY DAISY","state":"TN","zip":"37379"},"incomeTract":null,"incomeBlockGroup":null,"nearestRoad":null,"flu":{"code":"CR","label":"Countryside Residential","jurisdiction":"Plan Hamilton","source":"https://mapsdev.hamiltontn.gov/hcwa03/rest/services/PlanHamilton/MapServer/3"},"opportunityZone":null,"oz2Eligibility":null,"appraiserUrl":"https://assessor.hamiltontn.gov/card/046_004.01","gisLink":"033046    00401","pbaNum":"033046    00401P000","dataGaps":["Zoning joined from Unincorporated Hamilton (Live_PropertyZoning/16).","Plan Hamilton place type is unincorporated policy guidance, not a zoning entitlement."],"source":"tn-hamilton-live-parcels"},"geometry":{"type":"Polygon","coordinates":[[[-85.25765,35.286499],[-85.257572,35.286669],[-85.257465,35.286948],[-85.25731,35.287256],[-85.25717,35.287389],[-85.256785,35.287613],[-85.256647,35.287765],[-85.25655,35.288001],[-85.256542,35.288121],[-85.256598,35.288233],[-85.256765,35.2884],[-85.25679,35.288473],[-85.256785,35.288548],[-85.256701,35.288731],[-85.256516,35.289029],[-85.256436,35.28908],[-85.25629,35.289103],[-85.257262,35.289304],[-85.25854,35.286969],[-85.25765,35.286499]]]}},{"type":"Feature","id":"47065:046  015.06","properties":{"id":"47065:046  015.06","parcelId":"046  015.06","countyFips":"47065","countyName":"Hamilton","state":"Tennessee","marketIds":["Chattanooga"],"situsAddress":"9810 SOUR MASH LN","situsCity":null,"situsZip":null,"jurisdictionCode":null,"ownerName":"HAILE TERRI SUSAN &  STEVEN THOMAS","ownerName2":null,"propertyName":null,"zoningCode":"A-1","zoningDistrict":"A-1","jurisdictionPrefix":"Unincorporated Hamilton","dorCode":null,"acreage":5.0,"centroid":[-85.257018,35.278471],"lastSale":{"date":"2014-10-20","price":null,"qualified":null,"book":"10333","page":"0905"},"priorSales":[{"date":"2001-04-12","price":null,"book":"5840","page":"0292"},{"date":"1900-01-01","price":null,"book":null,"page":null},{"date":"1900-01-01","price":null,"book":null,"page":null}],"tax":{"marketValue":252000.0,"assessedValue":63000.0,"taxableValue":null,"taxes":null,"landValue":112000.0,"buildingValue":140000.0,"yardItemsValue":0.0},"mailingAddress":{"line1":"428 BELL MARTIN RD","line2":null,"city":"AFTON","state":"TN","zip":"37616"},"incomeTract":null,"incomeBlockGroup":null,"nearestRoad":null,"flu":{"code":"CR","label":"Countryside Residential","jurisdiction":"Plan Hamilton","source":"https://mapsdev.hamiltontn.gov/hcwa03/rest/services/PlanHamilton/MapServer/3"},"opportunityZone":null,"oz2Eligibility":null,"appraiserUrl":"https://assessor.hamiltontn.gov/card/046_015.06","gisLink":"033046    01506","pbaNum":"033046    01506P000","dataGaps":["Zoning joined from Unincorporated Hamilton (Live_PropertyZoning/16).","Plan Hamilton place type is unincorporated policy guidance, not a zoning entitlement."],"source":"tn-hamilton-live-parcels"},"geometry":{"type":"Polygon","coordinates":[[[-85.256629,35.279078],[-85.256749,35.279085],[-85.256909,35.279103],[-85.25698,35.279047],[-85.257053,35.279037],[-85.257158,35.279085],[-85.258389,35.277223],[-85.257101,35.276901],[-85.256838,35.277696],[-85.256935,35.278434],[-85.256457,35.278495],[-85.256629,35.279078]]]}}]}