{"type":"FeatureCollection","name":"13093--5_20","features":[{"type":"Feature","id":"13093:3      1","properties":{"id":"13093:3      1","parcelId":"3      1","countyFips":"13093","countyName":"Dooly","state":"Georgia","marketIds":["Macon"],"situsAddress":"0 RIVER RD","situsCity":null,"situsZip":null,"jurisdictionCode":null,"ownerName":"CREEK RUN FARMS LLC","ownerName2":null,"propertyName":null,"zoningCode":"WLD","zoningDistrict":null,"jurisdictionPrefix":null,"dorCode":"V","acreage":12.25,"centroid":[-84.002524,32.204814],"lastSale":{"date":null,"price":null,"qualified":null},"tax":{"marketValue":16400.0,"assessedValue":null,"taxableValue":null,"taxes":null},"mailingAddress":{"line1":null,"line2":"4020 POWERS FERRY RD NW","city":"ATLANTA","state":"GA","zip":"30342"},"incomeTract":null,"incomeBlockGroup":null,"nearestRoad":null,"flu":null,"opportunityZone":null,"oz2Eligibility":null,"source":"ga-dooly-parcels-13093","appraiserUrl":"https://qpublic.schneidercorp.com/Application.aspx?App=doolyCountyGA&Layer=Parcels&PageType=Report&KeyValue=3%20%20%20%20%20%201","gisViewerUrl":"https://www.arcgis.com/apps/mapviewer/index.html?url=https://services1.arcgis.com/Ug5xGQbHsD8zuZzM/arcgis/rest/services/Dooly_County_Parcels/FeatureServer"},"geometry":{"type":"Polygon","coordinates":[[[-84.002249,32.204513],[-84.002257,32.207559],[-84.00243,32.207238],[-84.002683,32.207078],[-84.002803,32.206978],[-84.003032,32.206702],[-84.003131,32.206493],[-84.003279,32.206344],[-84.003342,32.206105],[-84.003357,32.205903],[-84.003546,32.205754],[-84.003757,32.205653],[-84.004339,32.205653],[-84.004606,32.205612],[-84.004831,32.205541],[-84.00502,32.205433],[-84.005252,32.205219],[-84.005288,32.204508],[-84.002249,32.204513]]]}}]}