{"type":"FeatureCollection","name":"37043--5_31","features":[{"type":"Feature","id":"37043:540800292279","properties":{"id":"37043:540800292279","parcelId":"540800292279","countyFips":"37043","countyName":"Clay","state":"North Carolina","marketIds":["Asheville"],"situsAddress":"LAUREL MTN RD","situsCity":null,"situsZip":null,"jurisdictionCode":null,"ownerName":"HYATT WILLIAM DAVIDSON","ownerName2":null,"propertyName":null,"zoningCode":null,"zoningDistrict":null,"jurisdictionPrefix":null,"dorCode":null,"acreage":15.53,"centroid":[-84.003747,34.990608],"lastSale":{"date":"2011-06-06","price":null,"qualified":null},"tax":{"marketValue":155300.0,"assessedValue":4300.0,"taxableValue":null,"taxes":null},"mailingAddress":{"line1":"5356 PINE LOG ROAD","line2":null,"city":"BRASSTOWN","state":"NC","zip":"28902"},"incomeTract":null,"incomeBlockGroup":null,"nearestRoad":null,"flu":null,"opportunityZone":null,"oz2Eligibility":null,"source":"nc-clay-parcels-37043","appraiserUrl":"http://bttaxpayerportal.com/ITSPublicCL/AppraisalCard.aspx?id=540800292279","gisViewerUrl":"https://experience.arcgis.com/experience/d706343410ba46c586bfb15b0ca30bdb/"},"geometry":{"type":"Polygon","coordinates":[[[-84.002965,34.991503],[-84.003171,34.991495],[-84.003166,34.991537],[-84.003446,34.99124],[-84.004191,34.990812],[-84.004525,34.99046],[-84.004907,34.990116],[-84.005394,34.989513],[-84.005766,34.989383],[-84.005852,34.988947],[-84.000838,34.990695],[-84.000748,34.99159],[-84.002965,34.991503]]]}},{"type":"Feature","id":"37043:540800281309","properties":{"id":"37043:540800281309","parcelId":"540800281309","countyFips":"37043","countyName":"Clay","state":"North Carolina","marketIds":["Asheville"],"situsAddress":"LAUREL MTN RD","situsCity":null,"situsZip":null,"jurisdictionCode":null,"ownerName":"LESLIE JERRY L II & LISA A","ownerName2":null,"propertyName":null,"zoningCode":null,"zoningDistrict":null,"jurisdictionPrefix":null,"dorCode":null,"acreage":5.0,"centroid":[-84.003219,34.988209],"lastSale":{"date":"2001-07-30","price":null,"qualified":null},"tax":{"marketValue":50000.0,"assessedValue":50000.0,"taxableValue":null,"taxes":null},"mailingAddress":{"line1":"1659 ALYESKA POINT RD","line2":null,"city":"LAMPE","state":"MO","zip":"65681"},"incomeTract":null,"incomeBlockGroup":null,"nearestRoad":null,"flu":null,"opportunityZone":null,"oz2Eligibility":null,"source":"nc-clay-parcels-37043","appraiserUrl":"http://bttaxpayerportal.com/ITSPublicCL/AppraisalCard.aspx?id=540800281309","gisViewerUrl":"https://experience.arcgis.com/experience/d706343410ba46c586bfb15b0ca30bdb/"},"geometry":{"type":"Polygon","coordinates":[[[-84.005434,34.988601],[-84.005244,34.988101],[-84.001112,34.987834],[-84.001085,34.988299],[-84.005434,34.988601]]]}},{"type":"Feature","id":"37043:540800282745","properties":{"id":"37043:540800282745","parcelId":"540800282745","countyFips":"37043","countyName":"Clay","state":"North Carolina","marketIds":["Asheville"],"situsAddress":"LAUREL MTN RD","situsCity":null,"situsZip":null,"jurisdictionCode":null,"ownerName":"LESLIE JERRY L & DOROTHY L","ownerName2":null,"propertyName":null,"zoningCode":null,"zoningDistrict":null,"jurisdictionPrefix":null,"dorCode":null,"acreage":15.47,"centroid":[-84.002977,34.98922],"lastSale":{"date":"2011-06-06","price":62000.0,"qualified":null},"tax":{"marketValue":154700.0,"assessedValue":154700.0,"taxableValue":null,"taxes":null},"mailingAddress":{"line1":"PO BOX 694","line2":null,"city":"BLAIRSVILLE","state":"GA","zip":"30514"},"incomeTract":null,"incomeBlockGroup":null,"nearestRoad":null,"flu":null,"opportunityZone":null,"oz2Eligibility":null,"source":"nc-clay-parcels-37043","appraiserUrl":"http://bttaxpayerportal.com/ITSPublicCL/AppraisalCard.aspx?id=540800282745","gisViewerUrl":"https://experience.arcgis.com/experience/d706343410ba46c586bfb15b0ca30bdb/"},"geometry":{"type":"Polygon","coordinates":[[[-84.000952,34.989575],[-84.00094,34.989692],[-84.000838,34.990695],[-84.005852,34.988947],[-84.005739,34.988733],[-84.005434,34.988601],[-84.001085,34.988299],[-84.000952,34.989575]]]}},{"type":"Feature","id":"37043:540800289415","properties":{"id":"37043:540800289415","parcelId":"540800289415","countyFips":"37043","countyName":"Clay","state":"North Carolina","marketIds":["Asheville"],"situsAddress":"PINE LOG CHURCH RD","situsCity":null,"situsZip":null,"jurisdictionCode":null,"ownerName":"GREENWOOD JONATHAN RICHARD","ownerName2":null,"propertyName":null,"zoningCode":null,"zoningDistrict":null,"jurisdictionPrefix":null,"dorCode":null,"acreage":8.6,"centroid":[-84.000573,34.98906],"lastSale":{"date":"2023-12-11","price":45000.0,"qualified":null},"tax":{"marketValue":86000.0,"assessedValue":106000.0,"taxableValue":null,"taxes":null},"mailingAddress":{"line1":"545 BARBARA JEAN LANE","line2":null,"city":"BURLESON","state":"TX","zip":"76028"},"incomeTract":null,"incomeBlockGroup":null,"nearestRoad":null,"flu":null,"opportunityZone":null,"oz2Eligibility":null,"source":"nc-clay-parcels-37043","appraiserUrl":"http://bttaxpayerportal.com/ITSPublicCL/AppraisalCard.aspx?id=540800289415","gisViewerUrl":"https://experience.arcgis.com/experience/d706343410ba46c586bfb15b0ca30bdb/"},"geometry":{"type":"Polygon","coordinates":[[[-84.000952,34.989575],[-84.001085,34.988299],[-84.001207,34.986304],[-84.000419,34.986311],[-84.000034,34.990652],[-84.000061,34.990625],[-84.000261,34.990141],[-84.000448,34.989919],[-84.000691,34.98971],[-84.000952,34.989575]]]}},{"type":"Feature","id":"37043:540800281122","properties":{"id":"37043:540800281122","parcelId":"540800281122","countyFips":"37043","countyName":"Clay","state":"North Carolina","marketIds":["Asheville"],"situsAddress":"LAUREL MTN RD","situsCity":null,"situsZip":null,"jurisdictionCode":null,"ownerName":"LESLIE JERRY L & DOROTHY L","ownerName2":null,"propertyName":null,"zoningCode":null,"zoningDistrict":null,"jurisdictionPrefix":null,"dorCode":null,"acreage":10.0,"centroid":[-84.003787,34.987448],"lastSale":{"date":"2001-07-30","price":null,"qualified":null},"tax":{"marketValue":100000.0,"assessedValue":100000.0,"taxableValue":null,"taxes":null},"mailingAddress":{"line1":"PO BOX 694","line2":null,"city":"BLAIRSVILLE","state":"GA","zip":"30514"},"incomeTract":null,"incomeBlockGroup":null,"nearestRoad":null,"flu":null,"opportunityZone":null,"oz2Eligibility":null,"source":"nc-clay-parcels-37043","appraiserUrl":"http://bttaxpayerportal.com/ITSPublicCL/AppraisalCard.aspx?id=540800281122","gisViewerUrl":"https://experience.arcgis.com/experience/d706343410ba46c586bfb15b0ca30bdb/"},"geometry":{"type":"Polygon","coordinates":[[[-84.001112,34.987834],[-84.005243,34.988096],[-84.00517,34.987556],[-84.005086,34.987302],[-84.004943,34.986991],[-84.001166,34.986907],[-84.001112,34.987834]]]}}]}