{"type":"FeatureCollection","name":"13101-0_14","features":[{"type":"Feature","id":"13101:068    003","properties":{"id":"13101:068    003","parcelId":"068    003","countyFips":"13101","countyName":"Echols","state":"Georgia","marketIds":["Valdosta"],"situsAddress":"1534.0 REGISTER ROAD RD","situsCity":null,"situsZip":null,"jurisdictionCode":null,"ownerName":"EVANS BARBARA  & JACK","ownerName2":null,"propertyName":null,"zoningCode":null,"zoningDistrict":null,"jurisdictionPrefix":null,"dorCode":"V","acreage":20.77,"centroid":[-82.853134,30.746621],"lastSale":{"date":null,"price":null,"qualified":null},"tax":{"marketValue":134590.0,"assessedValue":null,"taxableValue":null,"taxes":null,"landValue":4900.0},"mailingAddress":{"line1":"1534 REGISTER ROAD","line2":null,"city":"FARGO","state":"GA","zip":"31631"},"incomeTract":null,"incomeBlockGroup":null,"nearestRoad":null,"flu":null,"opportunityZone":null,"oz2Eligibility":null,"source":"ga-echols-parcels-13101","appraiserUrl":"https://qpublic.schneidercorp.com/Application.aspx?App=EcholsCountyGA&Layer=Parcels&PageType=Report&KeyValue=068%20%20%20%20003","gisViewerUrl":"https://qpublic.schneidercorp.com/Application.aspx?AppID=765&LayerID=11801&PageTypeID=1&PageID=0"},"geometry":{"type":"Polygon","coordinates":[[[-82.851461,30.746397],[-82.851606,30.746564],[-82.853603,30.74873],[-82.853621,30.747529],[-82.856129,30.747544],[-82.856131,30.746307],[-82.85364,30.746292],[-82.853652,30.745459],[-82.850496,30.745468],[-82.851,30.745917],[-82.851461,30.746397]]]}},{"type":"Feature","id":"13101:068    001","properties":{"id":"13101:068    001","parcelId":"068    001","countyFips":"13101","countyName":"Echols","state":"Georgia","marketIds":["Valdosta"],"situsAddress":"0.0","situsCity":null,"situsZip":null,"jurisdictionCode":null,"ownerName":"RHODEN MARK","ownerName2":null,"propertyName":null,"zoningCode":null,"zoningDistrict":null,"jurisdictionPrefix":null,"dorCode":"V","acreage":108.39,"centroid":[-82.852116,30.749924],"lastSale":{"date":null,"price":null,"qualified":null},"tax":{"marketValue":276720.0,"assessedValue":null,"taxableValue":null,"taxes":null,"landValue":8200.0},"mailingAddress":{"line1":null,"line2":"6045 HORSESHOE DR.","city":"JACKSONVILLE","state":"FL","zip":"32254"},"incomeTract":null,"incomeBlockGroup":null,"nearestRoad":null,"flu":null,"opportunityZone":null,"oz2Eligibility":null,"source":"ga-echols-parcels-13101","appraiserUrl":"https://qpublic.schneidercorp.com/Application.aspx?App=EcholsCountyGA&Layer=Parcels&PageType=Report&KeyValue=068%20%20%20%20001","gisViewerUrl":"https://qpublic.schneidercorp.com/Application.aspx?AppID=765&LayerID=11801&PageTypeID=1&PageID=0"},"geometry":{"type":"Polygon","coordinates":[[[-82.850176,30.745325],[-82.850169,30.745935],[-82.850098,30.752286],[-82.850001,30.7559],[-82.855593,30.755905],[-82.855657,30.751085],[-82.855419,30.750851],[-82.851207,30.746253],[-82.850721,30.745778],[-82.850176,30.745325]]]}},{"type":"Feature","id":"13101:042    002","properties":{"id":"13101:042    002","parcelId":"042    002","countyFips":"13101","countyName":"Echols","state":"Georgia","marketIds":["Valdosta"],"situsAddress":"0.0","situsCity":null,"situsZip":null,"jurisdictionCode":null,"ownerName":"BAR D RANCH PARTNERSHIP","ownerName2":null,"propertyName":null,"zoningCode":null,"zoningDistrict":null,"jurisdictionPrefix":null,"dorCode":"V","acreage":82.0,"centroid":[-82.977038,30.615963],"lastSale":{"date":null,"price":null,"qualified":null},"tax":{"marketValue":205700.0,"assessedValue":null,"taxableValue":null,"taxes":null},"mailingAddress":{"line1":"CLINTON F DICKS JR & N TERRY  DICKS","line2":"4458 SOUTH US HWY 441","city":"LAKE CITY","state":"FL","zip":"32025"},"incomeTract":null,"incomeBlockGroup":null,"nearestRoad":null,"flu":null,"opportunityZone":null,"oz2Eligibility":null,"source":"ga-echols-parcels-13101","appraiserUrl":"https://qpublic.schneidercorp.com/Application.aspx?App=EcholsCountyGA&Layer=Parcels&PageType=Report&KeyValue=042%20%20%20%20002","gisViewerUrl":"https://qpublic.schneidercorp.com/Application.aspx?AppID=765&LayerID=11801&PageTypeID=1&PageID=0"},"geometry":{"type":"Polygon","coordinates":[[[-82.96994,30.617125],[-82.984127,30.617221],[-82.984098,30.615112],[-82.969986,30.614396],[-82.96994,30.617125]]]}},{"type":"Feature","id":"13101:049    002A","properties":{"id":"13101:049    002A","parcelId":"049    002A","countyFips":"13101","countyName":"Echols","state":"Georgia","marketIds":["Valdosta"],"situsAddress":"0.0","situsCity":null,"situsZip":null,"jurisdictionCode":null,"ownerName":"NCWPCS MPL 25-YR SITES TOWER HOLINGS LLC","ownerName2":null,"propertyName":null,"zoningCode":null,"zoningDistrict":null,"jurisdictionPrefix":null,"dorCode":"C","acreage":6.01,"centroid":[-82.920337,30.719801],"lastSale":{"date":null,"price":null,"qualified":null},"tax":{"marketValue":34800.0,"assessedValue":null,"taxableValue":null,"taxes":null,"landValue":28600.0},"mailingAddress":{"line1":"ATTN: PROPERTY TAX DEPT","line2":"1010 PINE","city":"ST LOUIS","state":"MO","zip":"36101"},"incomeTract":null,"incomeBlockGroup":null,"nearestRoad":null,"flu":null,"opportunityZone":null,"oz2Eligibility":null,"source":"ga-echols-parcels-13101","appraiserUrl":"https://qpublic.schneidercorp.com/Application.aspx?App=EcholsCountyGA&Layer=Parcels&PageType=Report&KeyValue=049%20%20%20%20002A","gisViewerUrl":"https://qpublic.schneidercorp.com/Application.aspx?AppID=765&LayerID=11801&PageTypeID=1&PageID=0"},"geometry":{"type":"Polygon","coordinates":[[[-82.9196,30.720098],[-82.919561,30.720377],[-82.92128,30.720535],[-82.921482,30.719073],[-82.919764,30.718921],[-82.9196,30.720098]]]}},{"type":"Feature","id":"13101:068    004","properties":{"id":"13101:068    004","parcelId":"068    004","countyFips":"13101","countyName":"Echols","state":"Georgia","marketIds":["Valdosta"],"situsAddress":"1542.0 REGISTER RD","situsCity":null,"situsZip":null,"jurisdictionCode":null,"ownerName":"HARDEE AUDREY","ownerName2":null,"propertyName":null,"zoningCode":null,"zoningDistrict":null,"jurisdictionPrefix":null,"dorCode":"A","acreage":12.71,"centroid":[-82.851405,30.744904],"lastSale":{"date":null,"price":null,"qualified":null},"tax":{"marketValue":205800.0,"assessedValue":null,"taxableValue":null,"taxes":null,"landValue":42100.0},"mailingAddress":{"line1":"1542 REGISTER ROAD","line2":null,"city":"FARGO","state":"GA","zip":"31631"},"incomeTract":null,"incomeBlockGroup":null,"nearestRoad":null,"flu":null,"opportunityZone":null,"oz2Eligibility":null,"source":"ga-echols-parcels-13101","appraiserUrl":"https://qpublic.schneidercorp.com/Application.aspx?App=EcholsCountyGA&Layer=Parcels&PageType=Report&KeyValue=068%20%20%20%20004","gisViewerUrl":"https://qpublic.schneidercorp.com/Application.aspx?AppID=765&LayerID=11801&PageTypeID=1&PageID=0"},"geometry":{"type":"Polygon","coordinates":[[[-82.850192,30.745232],[-82.850237,30.745261],[-82.850496,30.745468],[-82.853652,30.745459],[-82.853673,30.744019],[-82.850177,30.743984],[-82.850192,30.745232]]]}},{"type":"Feature","id":"13101:058    004","properties":{"id":"13101:058    004","parcelId":"058    004","countyFips":"13101","countyName":"Echols","state":"Georgia","marketIds":["Valdosta"],"situsAddress":"0.0","situsCity":null,"situsZip":null,"jurisdictionCode":null,"ownerName":"REGISTER CHANDLER","ownerName2":null,"propertyName":null,"zoningCode":null,"zoningDistrict":null,"jurisdictionPrefix":null,"dorCode":"V","acreage":26.67,"centroid":[-82.875034,30.74813],"lastSale":{"date":null,"price":null,"qualified":null},"tax":{"marketValue":68400.0,"assessedValue":null,"taxableValue":null,"taxes":null},"mailingAddress":{"line1":null,"line2":"777 REGISTER RD","city":"FARGO","state":"GA","zip":"31631"},"incomeTract":null,"incomeBlockGroup":null,"nearestRoad":null,"flu":null,"opportunityZone":null,"oz2Eligibility":null,"source":"ga-echols-parcels-13101","appraiserUrl":"https://qpublic.schneidercorp.com/Application.aspx?App=EcholsCountyGA&Layer=Parcels&PageType=Report&KeyValue=058%20%20%20%20004","gisViewerUrl":"https://qpublic.schneidercorp.com/Application.aspx?AppID=765&LayerID=11801&PageTypeID=1&PageID=0"},"geometry":{"type":"Polygon","coordinates":[[[-82.873087,30.748845],[-82.875106,30.749895],[-82.877245,30.751033],[-82.878434,30.749465],[-82.875745,30.747922],[-82.875746,30.747859],[-82.874886,30.747407],[-82.874863,30.748618],[-82.87398,30.748617],[-82.87401,30.746328],[-82.874198,30.746327],[-82.873107,30.745246],[-82.873087,30.748845]]]}},{"type":"Feature","id":"13101:039    001A","properties":{"id":"13101:039    001A","parcelId":"039    001A","countyFips":"13101","countyName":"Echols","state":"Georgia","marketIds":["Valdosta"],"situsAddress":"0.0","situsCity":null,"situsZip":null,"jurisdictionCode":null,"ownerName":"TUCKER JIMMY JR","ownerName2":null,"propertyName":null,"zoningCode":null,"zoningDistrict":null,"jurisdictionPrefix":null,"dorCode":"A","acreage":10.2,"centroid":[-82.925559,30.700411],"lastSale":{"date":null,"price":null,"qualified":null},"tax":{"marketValue":29200.0,"assessedValue":null,"taxableValue":null,"taxes":null,"landValue":29200.0},"mailingAddress":{"line1":null,"line2":"8080 ENCOCH LAKE CIRCLE","city":"LAKE PARK","state":"GA","zip":"31636"},"incomeTract":null,"incomeBlockGroup":null,"nearestRoad":null,"flu":null,"opportunityZone":null,"oz2Eligibility":null,"source":"ga-echols-parcels-13101","appraiserUrl":"https://qpublic.schneidercorp.com/Application.aspx?App=EcholsCountyGA&Layer=Parcels&PageType=Report&KeyValue=039%20%20%20%20001A","gisViewerUrl":"https://qpublic.schneidercorp.com/Application.aspx?AppID=765&LayerID=11801&PageTypeID=1&PageID=0"},"geometry":{"type":"Polygon","coordinates":[[[-82.924646,30.700133],[-82.925201,30.700233],[-82.92502,30.701363],[-82.926713,30.701642],[-82.927025,30.699684],[-82.924746,30.699412],[-82.924646,30.700133]]]}},{"type":"Feature","id":"13101:068    005","properties":{"id":"13101:068    005","parcelId":"068    005","countyFips":"13101","countyName":"Echols","state":"Georgia","marketIds":["Valdosta"],"situsAddress":"140.0 WORTH LN","situsCity":null,"situsZip":null,"jurisdictionCode":null,"ownerName":"WORTH LEON BRENT","ownerName2":null,"propertyName":null,"zoningCode":null,"zoningDistrict":null,"jurisdictionPrefix":null,"dorCode":"V","acreage":35.84,"centroid":[-82.851077,30.74388],"lastSale":{"date":null,"price":null,"qualified":null},"tax":{"marketValue":229200.0,"assessedValue":null,"taxableValue":null,"taxes":null,"landValue":7500.0},"mailingAddress":{"line1":"PO BOX 147","line2":null,"city":"STATENVILLE","state":"GA","zip":"31648"},"incomeTract":null,"incomeBlockGroup":null,"nearestRoad":null,"flu":null,"opportunityZone":null,"oz2Eligibility":null,"source":"ga-echols-parcels-13101","appraiserUrl":"https://qpublic.schneidercorp.com/Application.aspx?App=EcholsCountyGA&Layer=Parcels&PageType=Report&KeyValue=068%20%20%20%20005","gisViewerUrl":"https://qpublic.schneidercorp.com/Application.aspx?AppID=765&LayerID=11801&PageTypeID=1&PageID=0"},"geometry":{"type":"Polygon","coordinates":[[[-82.848243,30.743964],[-82.848559,30.744173],[-82.850192,30.745232],[-82.850177,30.743984],[-82.853673,30.744019],[-82.853658,30.745071],[-82.854315,30.744969],[-82.854321,30.743915],[-82.855554,30.743722],[-82.855563,30.742582],[-82.845791,30.742518],[-82.846564,30.742893],[-82.847387,30.7434],[-82.848243,30.743964]]]}},{"type":"Feature","id":"13101:068    002C","properties":{"id":"13101:068    002C","parcelId":"068    002C","countyFips":"13101","countyName":"Echols","state":"Georgia","marketIds":["Valdosta"],"situsAddress":"0.0","situsCity":null,"situsZip":null,"jurisdictionCode":null,"ownerName":"HARDEE AUDREY","ownerName2":null,"propertyName":null,"zoningCode":null,"zoningDistrict":null,"jurisdictionPrefix":null,"dorCode":"A","acreage":8.06,"centroid":[-82.854776,30.744271],"lastSale":{"date":null,"price":null,"qualified":null},"tax":{"marketValue":13700.0,"assessedValue":null,"taxableValue":null,"taxes":null,"landValue":13700.0},"mailingAddress":{"line1":"1542 REGISTER ROAD","line2":null,"city":"FARGO","state":"GA","zip":"31631"},"incomeTract":null,"incomeBlockGroup":null,"nearestRoad":null,"flu":null,"opportunityZone":null,"oz2Eligibility":null,"source":"ga-echols-parcels-13101","appraiserUrl":"https://qpublic.schneidercorp.com/Application.aspx?App=EcholsCountyGA&Layer=Parcels&PageType=Report&KeyValue=068%20%20%20%20002C","gisViewerUrl":"https://qpublic.schneidercorp.com/Application.aspx?AppID=765&LayerID=11801&PageTypeID=1&PageID=0"},"geometry":{"type":"Polygon","coordinates":[[[-82.853652,30.745459],[-82.853652,30.745465],[-82.856132,30.744676],[-82.856135,30.742584],[-82.855563,30.742582],[-82.855554,30.743722],[-82.854321,30.743915],[-82.854315,30.744969],[-82.853658,30.745071],[-82.853652,30.745459]]]}},{"type":"Feature","id":"13101:068    002D","properties":{"id":"13101:068    002D","parcelId":"068    002D","countyFips":"13101","countyName":"Echols","state":"Georgia","marketIds":["Valdosta"],"situsAddress":"0.0","situsCity":null,"situsZip":null,"jurisdictionCode":null,"ownerName":"TUTT CHANDRA","ownerName2":null,"propertyName":null,"zoningCode":null,"zoningDistrict":null,"jurisdictionPrefix":null,"dorCode":"V","acreage":8.06,"centroid":[-82.854403,30.748563],"lastSale":{"date":null,"price":null,"qualified":null},"tax":{"marketValue":22800.0,"assessedValue":null,"taxableValue":null,"taxes":null},"mailingAddress":{"line1":"147 TUTT RD","line2":null,"city":"LAKE PARK","state":"GA","zip":"31636"},"incomeTract":null,"incomeBlockGroup":null,"nearestRoad":null,"flu":null,"opportunityZone":null,"oz2Eligibility":null,"source":"ga-echols-parcels-13101","appraiserUrl":"https://qpublic.schneidercorp.com/Application.aspx?App=EcholsCountyGA&Layer=Parcels&PageType=Report&KeyValue=068%20%20%20%20002D","gisViewerUrl":"https://qpublic.schneidercorp.com/Application.aspx?AppID=765&LayerID=11801&PageTypeID=1&PageID=0"},"geometry":{"type":"Polygon","coordinates":[[[-82.853603,30.74873],[-82.855183,30.750456],[-82.855206,30.747539],[-82.853621,30.747529],[-82.853603,30.74873]]]}},{"type":"Feature","id":"13101:068    002A","properties":{"id":"13101:068    002A","parcelId":"068    002A","countyFips":"13101","countyName":"Echols","state":"Georgia","marketIds":["Valdosta"],"situsAddress":"0.0","situsCity":null,"situsZip":null,"jurisdictionCode":null,"ownerName":"REGISTER CHESTER SR","ownerName2":null,"propertyName":null,"zoningCode":null,"zoningDistrict":null,"jurisdictionPrefix":null,"dorCode":"A","acreage":8.06,"centroid":[-82.855677,30.74981],"lastSale":{"date":null,"price":null,"qualified":null},"tax":{"marketValue":22800.0,"assessedValue":null,"taxableValue":null,"taxes":null,"landValue":22800.0},"mailingAddress":{"line1":"74 REGISTER RD","line2":null,"city":"FARGO","state":"GA","zip":"31631"},"incomeTract":null,"incomeBlockGroup":null,"nearestRoad":null,"flu":null,"opportunityZone":null,"oz2Eligibility":null,"source":"ga-echols-parcels-13101","appraiserUrl":"https://qpublic.schneidercorp.com/Application.aspx?App=EcholsCountyGA&Layer=Parcels&PageType=Report&KeyValue=068%20%20%20%20002A","gisViewerUrl":"https://qpublic.schneidercorp.com/Application.aspx?AppID=765&LayerID=11801&PageTypeID=1&PageID=0"},"geometry":{"type":"Polygon","coordinates":[[[-82.855654,30.750962],[-82.855765,30.751054],[-82.856125,30.751306],[-82.856129,30.747544],[-82.855206,30.747539],[-82.855183,30.750456],[-82.855654,30.750962]]]}},{"type":"Feature","id":"13101:068    002","properties":{"id":"13101:068    002","parcelId":"068    002","countyFips":"13101","countyName":"Echols","state":"Georgia","marketIds":["Valdosta"],"situsAddress":"0.0","situsCity":null,"situsZip":null,"jurisdictionCode":null,"ownerName":"REGISTER CHESTER SR","ownerName2":null,"propertyName":null,"zoningCode":null,"zoningDistrict":null,"jurisdictionPrefix":null,"dorCode":"A","acreage":8.06,"centroid":[-82.854889,30.745685],"lastSale":{"date":null,"price":null,"qualified":null},"tax":{"marketValue":24400.0,"assessedValue":null,"taxableValue":null,"taxes":null,"landValue":13700.0},"mailingAddress":{"line1":"784 REGISTER RD","line2":null,"city":"FARGO","state":"GA","zip":"31631"},"incomeTract":null,"incomeBlockGroup":null,"nearestRoad":null,"flu":null,"opportunityZone":null,"oz2Eligibility":null,"source":"ga-echols-parcels-13101","appraiserUrl":"https://qpublic.schneidercorp.com/Application.aspx?App=EcholsCountyGA&Layer=Parcels&PageType=Report&KeyValue=068%20%20%20%20002","gisViewerUrl":"https://qpublic.schneidercorp.com/Application.aspx?AppID=765&LayerID=11801&PageTypeID=1&PageID=0"},"geometry":{"type":"Polygon","coordinates":[[[-82.853652,30.745465],[-82.85364,30.746292],[-82.856131,30.746307],[-82.856132,30.744676],[-82.853652,30.745465]]]}},{"type":"Feature","id":"13101:058    001A","properties":{"id":"13101:058    001A","parcelId":"058    001A","countyFips":"13101","countyName":"Echols","state":"Georgia","marketIds":["Valdosta"],"situsAddress":"784.0 REGISTER RD","situsCity":null,"situsZip":null,"jurisdictionCode":null,"ownerName":"REGISTER CHESTER & JOYCE","ownerName2":null,"propertyName":null,"zoningCode":null,"zoningDistrict":null,"jurisdictionPrefix":null,"dorCode":"V","acreage":25.08,"centroid":[-82.875111,30.747362],"lastSale":{"date":null,"price":null,"qualified":null},"tax":{"marketValue":200500.0,"assessedValue":null,"taxableValue":null,"taxes":null,"landValue":7400.0},"mailingAddress":{"line1":"784 REGISTER RD","line2":null,"city":"FARGO","state":"GA","zip":"31631"},"incomeTract":null,"incomeBlockGroup":null,"nearestRoad":null,"flu":null,"opportunityZone":null,"oz2Eligibility":null,"source":"ga-echols-parcels-13101","appraiserUrl":"https://qpublic.schneidercorp.com/Application.aspx?App=EcholsCountyGA&Layer=Parcels&PageType=Report&KeyValue=058%20%20%20%20001A","gisViewerUrl":"https://qpublic.schneidercorp.com/Application.aspx?AppID=765&LayerID=11801&PageTypeID=1&PageID=0"},"geometry":{"type":"Polygon","coordinates":[[[-82.874886,30.747407],[-82.875325,30.747635],[-82.875746,30.747859],[-82.875773,30.744356],[-82.867536,30.744147],[-82.868994,30.745648],[-82.870657,30.744503],[-82.870846,30.744401],[-82.871162,30.744325],[-82.871471,30.744309],[-82.871798,30.74433],[-82.872175,30.744405],[-82.872441,30.744557],[-82.872703,30.744767],[-82.873107,30.745246],[-82.874198,30.746327],[-82.874891,30.747127],[-82.874886,30.747407]]]}}]}