{"type":"FeatureCollection","name":"13101-0_15","features":[{"type":"Feature","id":"13101:055A   001","properties":{"id":"13101:055A   001","parcelId":"055A   001","countyFips":"13101","countyName":"Echols","state":"Georgia","marketIds":["Valdosta"],"situsAddress":"0.0","situsCity":null,"situsZip":null,"jurisdictionCode":null,"ownerName":"LANGDALE COMPANY THE","ownerName2":null,"propertyName":null,"zoningCode":null,"zoningDistrict":null,"jurisdictionPrefix":null,"dorCode":"A","acreage":8.33,"centroid":[-82.907643,30.827192],"lastSale":{"date":null,"price":null,"qualified":null},"tax":{"marketValue":18900.0,"assessedValue":null,"taxableValue":null,"taxes":null,"landValue":18900.0},"mailingAddress":{"line1":"PO BOX 1088","line2":null,"city":"VALDOSTA","state":"GA","zip":"31601"},"incomeTract":null,"incomeBlockGroup":null,"nearestRoad":null,"flu":null,"opportunityZone":null,"oz2Eligibility":null,"source":"ga-echols-parcels-13101","appraiserUrl":"https://qpublic.schneidercorp.com/Application.aspx?App=EcholsCountyGA&Layer=Parcels&PageType=Report&KeyValue=055A%20%20%20001","gisViewerUrl":"https://qpublic.schneidercorp.com/Application.aspx?AppID=765&LayerID=11801&PageTypeID=1&PageID=0"},"geometry":{"type":"Polygon","coordinates":[[[-82.907134,30.826705],[-82.906824,30.828866],[-82.908243,30.828853],[-82.908292,30.826012],[-82.907742,30.826005],[-82.907626,30.826713],[-82.907134,30.826705]]]}},{"type":"Feature","id":"13101:023A   034","properties":{"id":"13101:023A   034","parcelId":"023A   034","countyFips":"13101","countyName":"Echols","state":"Georgia","marketIds":["Valdosta"],"situsAddress":"179.0 GRAY LN","situsCity":null,"situsZip":null,"jurisdictionCode":null,"ownerName":"GREEN WENDELL T & ELISE L","ownerName2":null,"propertyName":null,"zoningCode":null,"zoningDistrict":null,"jurisdictionPrefix":null,"dorCode":"V","acreage":30.58,"centroid":[-82.998496,30.821747],"lastSale":{"date":null,"price":null,"qualified":null},"tax":{"marketValue":385800.0,"assessedValue":null,"taxableValue":null,"taxes":null,"landValue":8200.0},"mailingAddress":{"line1":null,"line2":"179 GRAY LANE","city":"LAKE PARK","state":"GA","zip":"31636"},"incomeTract":null,"incomeBlockGroup":null,"nearestRoad":null,"flu":null,"opportunityZone":null,"oz2Eligibility":null,"source":"ga-echols-parcels-13101","appraiserUrl":"https://qpublic.schneidercorp.com/Application.aspx?App=EcholsCountyGA&Layer=Parcels&PageType=Report&KeyValue=023A%20%20%20034","gisViewerUrl":"https://qpublic.schneidercorp.com/Application.aspx?AppID=765&LayerID=11801&PageTypeID=1&PageID=0"},"geometry":{"type":"Polygon","coordinates":[[[-82.996691,30.82259],[-82.997618,30.822621],[-82.997616,30.823731],[-82.999642,30.824118],[-82.999834,30.821117],[-82.999899,30.821071],[-82.999981,30.819411],[-82.996684,30.819314],[-82.996691,30.82259]]]}},{"type":"Feature","id":"13101:057    002","properties":{"id":"13101:057    002","parcelId":"057    002","countyFips":"13101","countyName":"Echols","state":"Georgia","marketIds":["Valdosta"],"situsAddress":"178.0 BENNETT RD","situsCity":null,"situsZip":null,"jurisdictionCode":null,"ownerName":"BENNETT BENJAMIN MERVIN","ownerName2":null,"propertyName":null,"zoningCode":null,"zoningDistrict":null,"jurisdictionPrefix":null,"dorCode":"V","acreage":41.0,"centroid":[-82.906069,30.77482],"lastSale":{"date":null,"price":null,"qualified":null},"tax":{"marketValue":110500.0,"assessedValue":null,"taxableValue":null,"taxes":null},"mailingAddress":{"line1":null,"line2":"1998 BYPASS ROAD","city":"HOMERVILLE","state":"GA","zip":"31634"},"incomeTract":null,"incomeBlockGroup":null,"nearestRoad":null,"flu":null,"opportunityZone":null,"oz2Eligibility":null,"source":"ga-echols-parcels-13101","appraiserUrl":"https://qpublic.schneidercorp.com/Application.aspx?App=EcholsCountyGA&Layer=Parcels&PageType=Report&KeyValue=057%20%20%20%20002","gisViewerUrl":"https://qpublic.schneidercorp.com/Application.aspx?AppID=765&LayerID=11801&PageTypeID=1&PageID=0"},"geometry":{"type":"MultiPolygon","coordinates":[[[[-82.90396,30.774798],[-82.908378,30.77525],[-82.913736,30.775798],[-82.913951,30.774302],[-82.902314,30.774133],[-82.902217,30.774598],[-82.90219,30.774827],[-82.903937,30.774879],[-82.903939,30.774796],[-82.90396,30.774798]]],[[[-82.897251,30.774732],[-82.901877,30.774764],[-82.901916,30.774492],[-82.901498,30.774504],[-82.901513,30.774176],[-82.900221,30.774161],[-82.900226,30.773779],[-82.902055,30.773729],[-82.902192,30.772911],[-82.89723,30.772872],[-82.897251,30.774732]]]]}},{"type":"Feature","id":"13101:065    002","properties":{"id":"13101:065    002","parcelId":"065    002","countyFips":"13101","countyName":"Echols","state":"Georgia","marketIds":["Valdosta"],"situsAddress":"0.0","situsCity":null,"situsZip":null,"jurisdictionCode":null,"ownerName":"RAYONIER FOREST RESOURCES LP","ownerName2":null,"propertyName":null,"zoningCode":null,"zoningDistrict":null,"jurisdictionPrefix":null,"dorCode":"A","acreage":65.3,"centroid":[-82.857946,30.816831],"lastSale":{"date":null,"price":null,"qualified":null},"tax":{"marketValue":159700.0,"assessedValue":null,"taxableValue":null,"taxes":null,"landValue":159700.0},"mailingAddress":{"line1":"C/O PROPERTY TAX COORDINATOR","line2":"1 RAYONIER WAY","city":"WILDLIGHT","state":"FL","zip":"32097"},"incomeTract":null,"incomeBlockGroup":null,"nearestRoad":null,"flu":null,"opportunityZone":null,"oz2Eligibility":null,"source":"ga-echols-parcels-13101","appraiserUrl":"https://qpublic.schneidercorp.com/Application.aspx?App=EcholsCountyGA&Layer=Parcels&PageType=Report&KeyValue=065%20%20%20%20002","gisViewerUrl":"https://qpublic.schneidercorp.com/Application.aspx?AppID=765&LayerID=11801&PageTypeID=1&PageID=0"},"geometry":{"type":"Polygon","coordinates":[[[-82.85442,30.818164],[-82.861589,30.818352],[-82.861569,30.816075],[-82.861551,30.815959],[-82.861417,30.8157],[-82.85256,30.815455],[-82.852519,30.818113],[-82.85442,30.818164]]]}},{"type":"Feature","id":"13101:057    014E","properties":{"id":"13101:057    014E","parcelId":"057    014E","countyFips":"13101","countyName":"Echols","state":"Georgia","marketIds":["Valdosta"],"situsAddress":"1978.0 WILL REWIS RD","situsCity":null,"situsZip":null,"jurisdictionCode":null,"ownerName":"DELOACH F AUSTIN JR","ownerName2":null,"propertyName":null,"zoningCode":null,"zoningDistrict":null,"jurisdictionPrefix":null,"dorCode":"V","acreage":9.93,"centroid":[-82.8975,30.760755],"lastSale":{"date":null,"price":null,"qualified":null},"tax":{"marketValue":31800.0,"assessedValue":null,"taxableValue":null,"taxes":null},"mailingAddress":{"line1":"133 MCHUGH DRIVE","line2":null,"city":"HOMERVILLE","state":"GA","zip":"31634"},"incomeTract":null,"incomeBlockGroup":null,"nearestRoad":null,"flu":null,"opportunityZone":null,"oz2Eligibility":null,"source":"ga-echols-parcels-13101","appraiserUrl":"https://qpublic.schneidercorp.com/Application.aspx?App=EcholsCountyGA&Layer=Parcels&PageType=Report&KeyValue=057%20%20%20%20014E","gisViewerUrl":"https://qpublic.schneidercorp.com/Application.aspx?AppID=765&LayerID=11801&PageTypeID=1&PageID=0"},"geometry":{"type":"Polygon","coordinates":[[[-82.896469,30.761441],[-82.89647,30.761565],[-82.898197,30.761578],[-82.89809,30.761255],[-82.898012,30.760689],[-82.898015,30.760445],[-82.898037,30.760336],[-82.897812,30.760287],[-82.89744,30.760165],[-82.896462,30.759788],[-82.896469,30.761441]]]}},{"type":"Feature","id":"13101:055    001","properties":{"id":"13101:055    001","parcelId":"055    001","countyFips":"13101","countyName":"Echols","state":"Georgia","marketIds":["Valdosta"],"situsAddress":"0.0","situsCity":null,"situsZip":null,"jurisdictionCode":null,"ownerName":"SMITH JAMES QUINTON","ownerName2":null,"propertyName":null,"zoningCode":null,"zoningDistrict":null,"jurisdictionPrefix":null,"dorCode":"A","acreage":5.5,"centroid":[-82.894529,30.82462],"lastSale":{"date":null,"price":null,"qualified":null},"tax":{"marketValue":17900.0,"assessedValue":null,"taxableValue":null,"taxes":null,"landValue":17900.0},"mailingAddress":{"line1":null,"line2":"6746 TANGLEWOOD DRIVE","city":"BLACKSHEAR","state":"GA","zip":"31516"},"incomeTract":null,"incomeBlockGroup":null,"nearestRoad":null,"flu":null,"opportunityZone":null,"oz2Eligibility":null,"source":"ga-echols-parcels-13101","appraiserUrl":"https://qpublic.schneidercorp.com/Application.aspx?App=EcholsCountyGA&Layer=Parcels&PageType=Report&KeyValue=055%20%20%20%20001","gisViewerUrl":"https://qpublic.schneidercorp.com/Application.aspx?AppID=765&LayerID=11801&PageTypeID=1&PageID=0"},"geometry":{"type":"Polygon","coordinates":[[[-82.895504,30.824767],[-82.898074,30.82481],[-82.898076,30.82441],[-82.890495,30.824395],[-82.890494,30.824719],[-82.895504,30.824767]]]}},{"type":"Feature","id":"13101:035    005","properties":{"id":"13101:035    005","parcelId":"035    005","countyFips":"13101","countyName":"Echols","state":"Georgia","marketIds":["Valdosta"],"situsAddress":"321.0 JESSE LN","situsCity":null,"situsZip":null,"jurisdictionCode":null,"ownerName":"MORRIS STEVE W & VICKI S","ownerName2":null,"propertyName":null,"zoningCode":null,"zoningDistrict":null,"jurisdictionPrefix":null,"dorCode":"A","acreage":22.83,"centroid":[-82.991478,30.794241],"lastSale":{"date":null,"price":null,"qualified":null},"tax":{"marketValue":354100.0,"assessedValue":null,"taxableValue":null,"taxes":null,"landValue":65900.0},"mailingAddress":{"line1":"321 JESSE LN","line2":null,"city":"LAKE PARK","state":"GA","zip":"31636"},"incomeTract":null,"incomeBlockGroup":null,"nearestRoad":null,"flu":null,"opportunityZone":null,"oz2Eligibility":null,"source":"ga-echols-parcels-13101","appraiserUrl":"https://qpublic.schneidercorp.com/Application.aspx?App=EcholsCountyGA&Layer=Parcels&PageType=Report&KeyValue=035%20%20%20%20005","gisViewerUrl":"https://qpublic.schneidercorp.com/Application.aspx?AppID=765&LayerID=11801&PageTypeID=1&PageID=0"},"geometry":{"type":"Polygon","coordinates":[[[-82.989592,30.793072],[-82.989578,30.795379],[-82.993361,30.795402],[-82.99338,30.793109],[-82.989592,30.793072]]]}},{"type":"Feature","id":"13101:035    008","properties":{"id":"13101:035    008","parcelId":"035    008","countyFips":"13101","countyName":"Echols","state":"Georgia","marketIds":["Valdosta"],"situsAddress":"0.0","situsCity":null,"situsZip":null,"jurisdictionCode":null,"ownerName":"HERREN JESSE & CAROLYN TRUST","ownerName2":null,"propertyName":null,"zoningCode":null,"zoningDistrict":null,"jurisdictionPrefix":null,"dorCode":"R","acreage":5.0,"centroid":[-82.991501,30.791936],"lastSale":{"date":null,"price":null,"qualified":null},"tax":{"marketValue":13500.0,"assessedValue":null,"taxableValue":null,"taxes":null,"landValue":13500.0},"mailingAddress":{"line1":"DATED FEBRUARY 1, 2021","line2":"JESSE W JR & CAROLYN P HERREN TRUSTEE","city":"NASHVILLE","state":"GA","zip":"31639"},"incomeTract":null,"incomeBlockGroup":null,"nearestRoad":null,"flu":null,"opportunityZone":null,"oz2Eligibility":null,"source":"ga-echols-parcels-13101","appraiserUrl":"https://qpublic.schneidercorp.com/Application.aspx?App=EcholsCountyGA&Layer=Parcels&PageType=Report&KeyValue=035%20%20%20%20008","gisViewerUrl":"https://qpublic.schneidercorp.com/Application.aspx?AppID=765&LayerID=11801&PageTypeID=1&PageID=0"},"geometry":{"type":"Polygon","coordinates":[[[-82.98961,30.791687],[-82.989604,30.79215],[-82.993391,30.792184],[-82.993397,30.791722],[-82.98961,30.791687]]]}},{"type":"Feature","id":"13101:035    009","properties":{"id":"13101:035    009","parcelId":"035    009","countyFips":"13101","countyName":"Echols","state":"Georgia","marketIds":["Valdosta"],"situsAddress":"0.0","situsCity":null,"situsZip":null,"jurisdictionCode":null,"ownerName":"HERREN JESSE & CAROLYN TRUST","ownerName2":null,"propertyName":null,"zoningCode":null,"zoningDistrict":null,"jurisdictionPrefix":null,"dorCode":"R","acreage":5.0,"centroid":[-82.991506,30.791473],"lastSale":{"date":null,"price":null,"qualified":null},"tax":{"marketValue":13500.0,"assessedValue":null,"taxableValue":null,"taxes":null,"landValue":13500.0},"mailingAddress":{"line1":"DATED FEBRUARY 1, 2021","line2":"JESSE W JR & CAROLYN P HERREN TRUSTEE","city":"NASHVILLE","state":"GA","zip":"31639"},"incomeTract":null,"incomeBlockGroup":null,"nearestRoad":null,"flu":null,"opportunityZone":null,"oz2Eligibility":null,"source":"ga-echols-parcels-13101","appraiserUrl":"https://qpublic.schneidercorp.com/Application.aspx?App=EcholsCountyGA&Layer=Parcels&PageType=Report&KeyValue=035%20%20%20%20009","gisViewerUrl":"https://qpublic.schneidercorp.com/Application.aspx?AppID=765&LayerID=11801&PageTypeID=1&PageID=0"},"geometry":{"type":"Polygon","coordinates":[[[-82.993397,30.791722],[-82.993403,30.791259],[-82.989616,30.791225],[-82.98961,30.791687],[-82.993397,30.791722]]]}},{"type":"Feature","id":"13101:057    006","properties":{"id":"13101:057    006","parcelId":"057    006","countyFips":"13101","countyName":"Echols","state":"Georgia","marketIds":["Valdosta"],"situsAddress":"2506.0 WILL REWIS RD","situsCity":null,"situsZip":null,"jurisdictionCode":null,"ownerName":"BENNETT BETTY JANE","ownerName2":null,"propertyName":null,"zoningCode":null,"zoningDistrict":null,"jurisdictionPrefix":null,"dorCode":"V","acreage":67.0,"centroid":[-82.899564,30.777624],"lastSale":{"date":null,"price":null,"qualified":null},"tax":{"marketValue":447800.0,"assessedValue":null,"taxableValue":null,"taxes":null,"landValue":8100.0},"mailingAddress":{"line1":"2506 WILL REWIS RD","line2":null,"city":"FARGO","state":"GA","zip":"31631"},"incomeTract":null,"incomeBlockGroup":null,"nearestRoad":null,"flu":null,"opportunityZone":null,"oz2Eligibility":null,"source":"ga-echols-parcels-13101","appraiserUrl":"https://qpublic.schneidercorp.com/Application.aspx?App=EcholsCountyGA&Layer=Parcels&PageType=Report&KeyValue=057%20%20%20%20006","gisViewerUrl":"https://qpublic.schneidercorp.com/Application.aspx?AppID=765&LayerID=11801&PageTypeID=1&PageID=0"},"geometry":{"type":"Polygon","coordinates":[[[-82.897251,30.774732],[-82.897323,30.780493],[-82.90178,30.780516],[-82.901849,30.779859],[-82.901772,30.777607],[-82.900297,30.777593],[-82.900306,30.776858],[-82.901755,30.77642],[-82.901795,30.775459],[-82.901877,30.774764],[-82.897251,30.774732]]]}},{"type":"Feature","id":"13101:057    007","properties":{"id":"13101:057    007","parcelId":"057    007","countyFips":"13101","countyName":"Echols","state":"Georgia","marketIds":["Valdosta"],"situsAddress":"0.0","situsCity":null,"situsZip":null,"jurisdictionCode":null,"ownerName":"BENNETT BENJAMIN MERVIN","ownerName2":null,"propertyName":null,"zoningCode":null,"zoningDistrict":null,"jurisdictionPrefix":null,"dorCode":"V","acreage":108.0,"centroid":[-82.888035,30.770157],"lastSale":{"date":null,"price":null,"qualified":null},"tax":{"marketValue":267800.0,"assessedValue":null,"taxableValue":null,"taxes":null},"mailingAddress":{"line1":null,"line2":"1998 BYPASS ROAD","city":"HOMERVILLE","state":"GA","zip":"31634"},"incomeTract":null,"incomeBlockGroup":null,"nearestRoad":null,"flu":null,"opportunityZone":null,"oz2Eligibility":null,"source":"ga-echols-parcels-13101","appraiserUrl":"https://qpublic.schneidercorp.com/Application.aspx?App=EcholsCountyGA&Layer=Parcels&PageType=Report&KeyValue=057%20%20%20%20007","gisViewerUrl":"https://qpublic.schneidercorp.com/Application.aspx?AppID=765&LayerID=11801&PageTypeID=1&PageID=0"},"geometry":{"type":"Polygon","coordinates":[[[-82.88072,30.774547],[-82.88912,30.774642],[-82.897251,30.774732],[-82.89723,30.772872],[-82.902192,30.772911],[-82.902687,30.770423],[-82.898619,30.771159],[-82.891057,30.771278],[-82.891011,30.771179],[-82.890876,30.771016],[-82.890712,30.770912],[-82.890517,30.770841],[-82.890473,30.770792],[-82.890294,30.770494],[-82.890136,30.770297],[-82.889749,30.769449],[-82.88968,30.769386],[-82.889558,30.769341],[-82.889462,30.769327],[-82.889204,30.769341],[-82.888569,30.769231],[-82.887857,30.769152],[-82.887192,30.769175],[-82.88701,30.769203],[-82.886801,30.769272],[-82.886443,30.76929],[-82.886078,30.769241],[-82.885672,30.769157],[-82.885462,30.769093],[-82.885232,30.769076],[-82.885016,30.769088],[-82.884866,30.769129],[-82.884105,30.769397],[-82.883952,30.769423],[-82.883782,30.76942],[-82.883327,30.769282],[-82.88308,30.769154],[-82.882912,30.769091],[-82.882374,30.769042],[-82.881811,30.769176],[-82.881535,30.769217],[-82.881232,30.769217],[-82.880631,30.769265],[-82.88072,30.774547]]]}},{"type":"Feature","id":"13101:025    004","properties":{"id":"13101:025    004","parcelId":"025    004","countyFips":"13101","countyName":"Echols","state":"Georgia","marketIds":["Valdosta"],"situsAddress":"0.0","situsCity":null,"situsZip":null,"jurisdictionCode":null,"ownerName":"LANGDALE H TRUST B-1","ownerName2":null,"propertyName":null,"zoningCode":null,"zoningDistrict":null,"jurisdictionPrefix":null,"dorCode":"A","acreage":79.3,"centroid":[-82.993508,30.770865],"lastSale":{"date":null,"price":null,"qualified":null},"tax":{"marketValue":206500.0,"assessedValue":null,"taxableValue":null,"taxes":null,"landValue":206500.0},"mailingAddress":{"line1":"PO BOX 1088","line2":null,"city":"VALDOSTA","state":"GA","zip":"31603"},"incomeTract":null,"incomeBlockGroup":null,"nearestRoad":null,"flu":null,"opportunityZone":null,"oz2Eligibility":null,"source":"ga-echols-parcels-13101","appraiserUrl":"https://qpublic.schneidercorp.com/Application.aspx?App=EcholsCountyGA&Layer=Parcels&PageType=Report&KeyValue=025%20%20%20%20004","gisViewerUrl":"https://qpublic.schneidercorp.com/Application.aspx?AppID=765&LayerID=11801&PageTypeID=1&PageID=0"},"geometry":{"type":"Polygon","coordinates":[[[-82.996805,30.765481],[-82.995311,30.765497],[-82.995279,30.768522],[-82.994847,30.768718],[-82.993842,30.768505],[-82.992482,30.768617],[-82.990642,30.769584],[-82.991073,30.771466],[-82.991693,30.771498],[-82.991828,30.77159],[-82.992091,30.771682],[-82.99216,30.771724],[-82.992266,30.771856],[-82.992367,30.771897],[-82.992796,30.771982],[-82.992962,30.77199],[-82.993161,30.771961],[-82.993602,30.771819],[-82.993793,30.771792],[-82.994073,30.771882],[-82.994287,30.771886],[-82.994455,30.771855],[-82.995334,30.77453],[-82.99704,30.774431],[-82.996805,30.765481]]]}},{"type":"Feature","id":"13101:057    014A","properties":{"id":"13101:057    014A","parcelId":"057    014A","countyFips":"13101","countyName":"Echols","state":"Georgia","marketIds":["Valdosta"],"situsAddress":"203.0 REGISTER RD","situsCity":null,"situsZip":null,"jurisdictionCode":null,"ownerName":"HENDERSON MICHAEL","ownerName2":null,"propertyName":null,"zoningCode":null,"zoningDistrict":null,"jurisdictionPrefix":null,"dorCode":"A","acreage":38.0,"centroid":[-82.893958,30.760077],"lastSale":{"date":null,"price":null,"qualified":null},"tax":{"marketValue":93300.0,"assessedValue":null,"taxableValue":null,"taxes":null,"landValue":90800.0},"mailingAddress":{"line1":"2581 HOWELL RD","line2":null,"city":"LAKE PARK","state":"GA","zip":"31636"},"incomeTract":null,"incomeBlockGroup":null,"nearestRoad":null,"flu":null,"opportunityZone":null,"oz2Eligibility":null,"source":"ga-echols-parcels-13101","appraiserUrl":"https://qpublic.schneidercorp.com/Application.aspx?App=EcholsCountyGA&Layer=Parcels&PageType=Report&KeyValue=057%20%20%20%20014A","gisViewerUrl":"https://qpublic.schneidercorp.com/Application.aspx?AppID=765&LayerID=11801&PageTypeID=1&PageID=0"},"geometry":{"type":"Polygon","coordinates":[[[-82.893166,30.758056],[-82.890289,30.762248],[-82.896473,30.762221],[-82.896461,30.759578],[-82.893401,30.758284],[-82.893166,30.758056]]]}},{"type":"Feature","id":"13101:024    048","properties":{"id":"13101:024    048","parcelId":"024    048","countyFips":"13101","countyName":"Echols","state":"Georgia","marketIds":["Valdosta"],"situsAddress":"379.0 MAYDAY RD","situsCity":null,"situsZip":null,"jurisdictionCode":null,"ownerName":"ROBERTS JEAN TUTT","ownerName2":null,"propertyName":null,"zoningCode":null,"zoningDistrict":null,"jurisdictionPrefix":null,"dorCode":"V","acreage":84.73,"centroid":[-82.99905,30.799374],"lastSale":{"date":null,"price":null,"qualified":null},"tax":{"marketValue":224800.0,"assessedValue":null,"taxableValue":null,"taxes":null,"landValue":7400.0},"mailingAddress":{"line1":"379 MAYDAY RD","line2":null,"city":"LAKE PARK","state":"GA","zip":"31636"},"incomeTract":null,"incomeBlockGroup":null,"nearestRoad":null,"flu":null,"opportunityZone":null,"oz2Eligibility":null,"source":"ga-echols-parcels-13101","appraiserUrl":"https://qpublic.schneidercorp.com/Application.aspx?App=EcholsCountyGA&Layer=Parcels&PageType=Report&KeyValue=024%20%20%20%20048","gisViewerUrl":"https://qpublic.schneidercorp.com/Application.aspx?AppID=765&LayerID=11801&PageTypeID=1&PageID=0"},"geometry":{"type":"MultiPolygon","coordinates":[[[[-82.996057,30.797743],[-82.995899,30.801439],[-83.000211,30.801322],[-83.000194,30.801002],[-83.002299,30.800915],[-83.002137,30.798151],[-82.999515,30.797424],[-82.996089,30.796993],[-82.996057,30.797743]]],[[[-83.006262,30.797803],[-83.006078,30.797862],[-83.005627,30.798021],[-83.005412,30.798163],[-83.005963,30.799556],[-83.006917,30.799276],[-83.006768,30.798798],[-83.006354,30.797772],[-83.006262,30.797803]]],[[[-83.008147,30.800301],[-83.008162,30.80036],[-83.007387,30.800569],[-83.007396,30.80062],[-83.009884,30.799947],[-83.00994,30.796919],[-83.009475,30.796959],[-83.009291,30.796998],[-83.007894,30.797342],[-83.007444,30.797479],[-83.00801,30.79914],[-83.007044,30.799275],[-83.007091,30.799452],[-83.007902,30.799322],[-83.008147,30.800301]]]]}},{"type":"Feature","id":"13101:024    048C","properties":{"id":"13101:024    048C","parcelId":"024    048C","countyFips":"13101","countyName":"Echols","state":"Georgia","marketIds":["Valdosta"],"situsAddress":"0.0","situsCity":null,"situsZip":null,"jurisdictionCode":null,"ownerName":"TUTT KENNETH A & CHANDRA D","ownerName2":null,"propertyName":null,"zoningCode":null,"zoningDistrict":null,"jurisdictionPrefix":null,"dorCode":"V","acreage":85.32,"centroid":[-82.998791,30.803263],"lastSale":{"date":null,"price":null,"qualified":null},"tax":{"marketValue":266200.0,"assessedValue":null,"taxableValue":null,"taxes":null},"mailingAddress":{"line1":"147 TUTT RD","line2":null,"city":"LAKE PARK","state":"GA","zip":"31636"},"incomeTract":null,"incomeBlockGroup":null,"nearestRoad":null,"flu":null,"opportunityZone":null,"oz2Eligibility":null,"source":"ga-echols-parcels-13101","appraiserUrl":"https://qpublic.schneidercorp.com/Application.aspx?App=EcholsCountyGA&Layer=Parcels&PageType=Report&KeyValue=024%20%20%20%20048C","gisViewerUrl":"https://qpublic.schneidercorp.com/Application.aspx?AppID=765&LayerID=11801&PageTypeID=1&PageID=0"},"geometry":{"type":"MultiPolygon","coordinates":[[[[-82.995816,30.803377],[-82.995801,30.803741],[-82.995751,30.804656],[-82.996979,30.804761],[-82.99696,30.805354],[-83.001593,30.805853],[-83.001529,30.802924],[-83.002414,30.802918],[-83.002326,30.801363],[-83.000219,30.80145],[-83.000211,30.801322],[-82.995899,30.801439],[-82.995816,30.803377]],[[-82.99856,30.801758],[-82.999502,30.801793],[-82.999345,30.802857],[-82.997635,30.802793],[-82.997792,30.80173],[-82.99856,30.801758]]],[[[-83.007324,30.797507],[-83.007114,30.797544],[-83.006473,30.797732],[-83.006813,30.798576],[-83.007734,30.79833],[-83.007444,30.797479],[-83.007324,30.797507]]],[[[-83.002685,30.802163],[-83.002702,30.802425],[-83.002938,30.802296],[-83.003808,30.801732],[-83.004111,30.801575],[-83.003689,30.800684],[-83.004312,30.800503],[-83.004681,30.801382],[-83.006461,30.800815],[-83.005412,30.798163],[-83.004784,30.798623],[-83.00464,30.798777],[-83.002463,30.79827],[-83.002685,30.802163]]]]}},{"type":"Feature","id":"13101:065    016A","properties":{"id":"13101:065    016A","parcelId":"065    016A","countyFips":"13101","countyName":"Echols","state":"Georgia","marketIds":["Valdosta"],"situsAddress":"143.0 HENDLEY LN","situsCity":null,"situsZip":null,"jurisdictionCode":null,"ownerName":"HENDLEY RICHARD","ownerName2":null,"propertyName":null,"zoningCode":null,"zoningDistrict":null,"jurisdictionPrefix":null,"dorCode":"R","acreage":10.0,"centroid":[-82.846415,30.822101],"lastSale":{"date":null,"price":null,"qualified":null},"tax":{"marketValue":201920.0,"assessedValue":null,"taxableValue":null,"taxes":null,"landValue":34500.0},"mailingAddress":{"line1":"& MICHELLE","line2":"143 HENDLEY LANE","city":"DU PONT","state":"GA","zip":"31630"},"incomeTract":null,"incomeBlockGroup":null,"nearestRoad":null,"flu":null,"opportunityZone":null,"oz2Eligibility":null,"source":"ga-echols-parcels-13101","appraiserUrl":"https://qpublic.schneidercorp.com/Application.aspx?App=EcholsCountyGA&Layer=Parcels&PageType=Report&KeyValue=065%20%20%20%20016A","gisViewerUrl":"https://qpublic.schneidercorp.com/Application.aspx?AppID=765&LayerID=11801&PageTypeID=1&PageID=0"},"geometry":{"type":"Polygon","coordinates":[[[-82.84538,30.822218],[-82.845388,30.822331],[-82.847101,30.82244],[-82.847073,30.823191],[-82.847501,30.823206],[-82.847208,30.82072],[-82.845255,30.820604],[-82.84538,30.822218]]]}},{"type":"Feature","id":"13101:067    004","properties":{"id":"13101:067    004","parcelId":"067    004","countyFips":"13101","countyName":"Echols","state":"Georgia","marketIds":["Valdosta"],"situsAddress":"152.0 MARYS LN","situsCity":null,"situsZip":null,"jurisdictionCode":null,"ownerName":"ELLIS MONICA M & JAMES L REWIS","ownerName2":null,"propertyName":null,"zoningCode":null,"zoningDistrict":null,"jurisdictionPrefix":null,"dorCode":"V","acreage":39.23,"centroid":[-82.855204,30.75679],"lastSale":{"date":null,"price":null,"qualified":null},"tax":{"marketValue":328080.0,"assessedValue":null,"taxableValue":null,"taxes":null,"landValue":52900.0},"mailingAddress":{"line1":"285 JOES LANE","line2":null,"city":"FARGO","state":"GA","zip":"31631"},"incomeTract":null,"incomeBlockGroup":null,"nearestRoad":null,"flu":null,"opportunityZone":null,"oz2Eligibility":null,"source":"ga-echols-parcels-13101","appraiserUrl":"https://qpublic.schneidercorp.com/Application.aspx?App=EcholsCountyGA&Layer=Parcels&PageType=Report&KeyValue=067%20%20%20%20004","gisViewerUrl":"https://qpublic.schneidercorp.com/Application.aspx?AppID=765&LayerID=11801&PageTypeID=1&PageID=0"},"geometry":{"type":"Polygon","coordinates":[[[-82.855593,30.755905],[-82.852935,30.755901],[-82.852751,30.755901],[-82.852736,30.758551],[-82.858596,30.758581],[-82.85861,30.755902],[-82.855593,30.755905]]]}},{"type":"Feature","id":"13101:057    016A","properties":{"id":"13101:057    016A","parcelId":"057    016A","countyFips":"13101","countyName":"Echols","state":"Georgia","marketIds":["Valdosta"],"situsAddress":"2029.0 WILL REWIS RD","situsCity":null,"situsZip":null,"jurisdictionCode":null,"ownerName":"SANABRIA LEONARDO & SHANNON","ownerName2":null,"propertyName":null,"zoningCode":null,"zoningDistrict":null,"jurisdictionPrefix":null,"dorCode":"R","acreage":8.0,"centroid":[-82.900064,30.762631],"lastSale":{"date":null,"price":null,"qualified":null},"tax":{"marketValue":34600.0,"assessedValue":null,"taxableValue":null,"taxes":null,"landValue":31600.0},"mailingAddress":{"line1":"31143 GRASSY PARKS DRIVE","line2":null,"city":"FERNANDINA BEACH","state":"FL","zip":"32034"},"incomeTract":null,"incomeBlockGroup":null,"nearestRoad":null,"flu":null,"opportunityZone":null,"oz2Eligibility":null,"source":"ga-echols-parcels-13101","appraiserUrl":"https://qpublic.schneidercorp.com/Application.aspx?App=EcholsCountyGA&Layer=Parcels&PageType=Report&KeyValue=057%20%20%20%20016A","gisViewerUrl":"https://qpublic.schneidercorp.com/Application.aspx?AppID=765&LayerID=11801&PageTypeID=1&PageID=0"},"geometry":{"type":"Polygon","coordinates":[[[-82.89916,30.763213],[-82.900323,30.762837],[-82.900547,30.763399],[-82.901256,30.763165],[-82.900565,30.761595],[-82.898533,30.76158],[-82.89916,30.763213]]]}},{"type":"Feature","id":"13101:057    019","properties":{"id":"13101:057    019","parcelId":"057    019","countyFips":"13101","countyName":"Echols","state":"Georgia","marketIds":["Valdosta"],"situsAddress":"0.0","situsCity":null,"situsZip":null,"jurisdictionCode":null,"ownerName":"REGISTER CHESTER","ownerName2":null,"propertyName":null,"zoningCode":null,"zoningDistrict":null,"jurisdictionPrefix":null,"dorCode":"A","acreage":44.04,"centroid":[-82.902667,30.760158],"lastSale":{"date":null,"price":null,"qualified":null},"tax":{"marketValue":51100.0,"assessedValue":null,"taxableValue":null,"taxes":null,"landValue":51100.0},"mailingAddress":{"line1":"784 REGISTER ROAD","line2":null,"city":"FARGO","state":"GA","zip":"31631"},"incomeTract":null,"incomeBlockGroup":null,"nearestRoad":null,"flu":null,"opportunityZone":null,"oz2Eligibility":null,"source":"ga-echols-parcels-13101","appraiserUrl":"https://qpublic.schneidercorp.com/Application.aspx?App=EcholsCountyGA&Layer=Parcels&PageType=Report&KeyValue=057%20%20%20%20019","gisViewerUrl":"https://qpublic.schneidercorp.com/Application.aspx?AppID=765&LayerID=11801&PageTypeID=1&PageID=0"},"geometry":{"type":"Polygon","coordinates":[[[-82.901925,30.760735],[-82.901966,30.760736],[-82.904506,30.760763],[-82.904457,30.760563],[-82.904439,30.760291],[-82.904467,30.76005],[-82.904577,30.759715],[-82.904806,30.758862],[-82.904693,30.758285],[-82.904472,30.757615],[-82.904439,30.757441],[-82.904607,30.75722],[-82.904826,30.757108],[-82.905123,30.757019],[-82.905327,30.756845],[-82.905562,30.756785],[-82.905824,30.756786],[-82.90579,30.756957],[-82.905909,30.757221],[-82.906285,30.757325],[-82.90649,30.75741],[-82.906729,30.757354],[-82.90727,30.757058],[-82.907866,30.756931],[-82.908205,30.756835],[-82.908378,30.756812],[-82.908841,30.756816],[-82.909424,30.756339],[-82.909845,30.75582],[-82.901999,30.755796],[-82.901925,30.760735]]]}},{"type":"Feature","id":"13101:057    014B","properties":{"id":"13101:057    014B","parcelId":"057    014B","countyFips":"13101","countyName":"Echols","state":"Georgia","marketIds":["Valdosta"],"situsAddress":"295.0 REGISTER RD","situsCity":null,"situsZip":null,"jurisdictionCode":null,"ownerName":"CANGELOSI TOMMY & JEFFERY D CORBITT","ownerName2":null,"propertyName":null,"zoningCode":null,"zoningDistrict":null,"jurisdictionPrefix":null,"dorCode":"V","acreage":52.16,"centroid":[-82.890436,30.758153],"lastSale":{"date":null,"price":null,"qualified":null},"tax":{"marketValue":127600.0,"assessedValue":null,"taxableValue":null,"taxes":null},"mailingAddress":{"line1":"5550 SHILOH RD","line2":null,"city":"HAHIRA","state":"GA","zip":"31632"},"incomeTract":null,"incomeBlockGroup":null,"nearestRoad":null,"flu":null,"opportunityZone":null,"oz2Eligibility":null,"source":"ga-echols-parcels-13101","appraiserUrl":"https://qpublic.schneidercorp.com/Application.aspx?App=EcholsCountyGA&Layer=Parcels&PageType=Report&KeyValue=057%20%20%20%20014B","gisViewerUrl":"https://qpublic.schneidercorp.com/Application.aspx?AppID=765&LayerID=11801&PageTypeID=1&PageID=0"},"geometry":{"type":"Polygon","coordinates":[[[-82.888706,30.762238],[-82.890289,30.762248],[-82.893166,30.758056],[-82.891061,30.756404],[-82.890662,30.756185],[-82.89053,30.756138],[-82.888635,30.755799],[-82.888706,30.762238]]]}},{"type":"Feature","id":"13101:057    012","properties":{"id":"13101:057    012","parcelId":"057    012","countyFips":"13101","countyName":"Echols","state":"Georgia","marketIds":["Valdosta"],"situsAddress":"0.0","situsCity":null,"situsZip":null,"jurisdictionCode":null,"ownerName":"RHODEN MARK","ownerName2":null,"propertyName":null,"zoningCode":null,"zoningDistrict":null,"jurisdictionPrefix":null,"dorCode":"V","acreage":100.0,"centroid":[-82.881434,30.761649],"lastSale":{"date":null,"price":null,"qualified":null},"tax":{"marketValue":249200.0,"assessedValue":null,"taxableValue":null,"taxes":null},"mailingAddress":{"line1":null,"line2":"6045 HORSESHOE DR","city":"JACKSONVILLE","state":"FL","zip":"32254"},"incomeTract":null,"incomeBlockGroup":null,"nearestRoad":null,"flu":null,"opportunityZone":null,"oz2Eligibility":null,"source":"ga-echols-parcels-13101","appraiserUrl":"https://qpublic.schneidercorp.com/Application.aspx?App=EcholsCountyGA&Layer=Parcels&PageType=Report&KeyValue=057%20%20%20%20012","gisViewerUrl":"https://qpublic.schneidercorp.com/Application.aspx?AppID=765&LayerID=11801&PageTypeID=1&PageID=0"},"geometry":{"type":"Polygon","coordinates":[[[-82.880632,30.759204],[-82.880626,30.762292],[-82.888706,30.762238],[-82.888635,30.755799],[-82.884737,30.755788],[-82.88467,30.75913],[-82.880632,30.759204]]]}},{"type":"Feature","id":"13101:057    011","properties":{"id":"13101:057    011","parcelId":"057    011","countyFips":"13101","countyName":"Echols","state":"Georgia","marketIds":["Valdosta"],"situsAddress":"0.0","situsCity":null,"situsZip":null,"jurisdictionCode":null,"ownerName":"RHODEN MARK","ownerName2":null,"propertyName":null,"zoningCode":null,"zoningDistrict":null,"jurisdictionPrefix":null,"dorCode":"V","acreage":40.0,"centroid":[-82.882663,30.757475],"lastSale":{"date":null,"price":null,"qualified":null},"tax":{"marketValue":85100.0,"assessedValue":null,"taxableValue":null,"taxes":null},"mailingAddress":{"line1":null,"line2":"6045 HORSESHOE DR","city":"JACKSONVILLE","state":"FL","zip":"32254"},"incomeTract":null,"incomeBlockGroup":null,"nearestRoad":null,"flu":null,"opportunityZone":null,"oz2Eligibility":null,"source":"ga-echols-parcels-13101","appraiserUrl":"https://qpublic.schneidercorp.com/Application.aspx?App=EcholsCountyGA&Layer=Parcels&PageType=Report&KeyValue=057%20%20%20%20011","gisViewerUrl":"https://qpublic.schneidercorp.com/Application.aspx?AppID=765&LayerID=11801&PageTypeID=1&PageID=0"},"geometry":{"type":"Polygon","coordinates":[[[-82.880613,30.755777],[-82.880632,30.759204],[-82.88467,30.75913],[-82.884737,30.755788],[-82.880613,30.755777]]]}},{"type":"Feature","id":"13101:055A   039A","properties":{"id":"13101:055A   039A","parcelId":"055A   039A","countyFips":"13101","countyName":"Echols","state":"Georgia","marketIds":["Valdosta"],"situsAddress":"2448.0 187 HWY","situsCity":null,"situsZip":null,"jurisdictionCode":null,"ownerName":"MANAC DON MARTIN & AUDREY M","ownerName2":null,"propertyName":null,"zoningCode":null,"zoningDistrict":null,"jurisdictionPrefix":null,"dorCode":"A","acreage":14.9,"centroid":[-82.898638,30.821656],"lastSale":{"date":null,"price":null,"qualified":null},"tax":{"marketValue":53600.0,"assessedValue":null,"taxableValue":null,"taxes":null,"landValue":40200.0},"mailingAddress":{"line1":"1326 CHAUNCEY RD","line2":null,"city":"DU PONT","state":"GA","zip":"31630"},"incomeTract":null,"incomeBlockGroup":null,"nearestRoad":null,"flu":null,"opportunityZone":null,"oz2Eligibility":null,"source":"ga-echols-parcels-13101","appraiserUrl":"https://qpublic.schneidercorp.com/Application.aspx?App=EcholsCountyGA&Layer=Parcels&PageType=Report&KeyValue=055A%20%20%20039A","gisViewerUrl":"https://qpublic.schneidercorp.com/Application.aspx?AppID=765&LayerID=11801&PageTypeID=1&PageID=0"},"geometry":{"type":"Polygon","coordinates":[[[-82.898077,30.824132],[-82.898642,30.824146],[-82.899737,30.819191],[-82.898095,30.819156],[-82.898077,30.824132]]]}},{"type":"Feature","id":"13101:057    001A","properties":{"id":"13101:057    001A","parcelId":"057    001A","countyFips":"13101","countyName":"Echols","state":"Georgia","marketIds":["Valdosta"],"situsAddress":"0.0","situsCity":null,"situsZip":null,"jurisdictionCode":null,"ownerName":"RAULERSON MELISSA J & BILLY","ownerName2":null,"propertyName":null,"zoningCode":null,"zoningDistrict":null,"jurisdictionPrefix":null,"dorCode":"V","acreage":67.49,"centroid":[-82.910113,30.77844],"lastSale":{"date":null,"price":null,"qualified":null},"tax":{"marketValue":167500.0,"assessedValue":null,"taxableValue":null,"taxes":null},"mailingAddress":{"line1":"4410 GILES COURT","line2":null,"city":"HAHIRA","state":"GA","zip":"31632"},"incomeTract":null,"incomeBlockGroup":null,"nearestRoad":null,"flu":null,"opportunityZone":null,"oz2Eligibility":null,"source":"ga-echols-parcels-13101","appraiserUrl":"https://qpublic.schneidercorp.com/Application.aspx?App=EcholsCountyGA&Layer=Parcels&PageType=Report&KeyValue=057%20%20%20%20001A","gisViewerUrl":"https://qpublic.schneidercorp.com/Application.aspx?AppID=765&LayerID=11801&PageTypeID=1&PageID=0"},"geometry":{"type":"Polygon","coordinates":[[[-82.908492,30.77782],[-82.908422,30.780538],[-82.908419,30.780628],[-82.913049,30.780585],[-82.913736,30.775798],[-82.908558,30.775268],[-82.908492,30.77782]]]}},{"type":"Feature","id":"13101:057    001B","properties":{"id":"13101:057    001B","parcelId":"057    001B","countyFips":"13101","countyName":"Echols","state":"Georgia","marketIds":["Valdosta"],"situsAddress":"0.0","situsCity":null,"situsZip":null,"jurisdictionCode":null,"ownerName":"PINHOLSTER BETH R & JOHNNA K","ownerName2":null,"propertyName":null,"zoningCode":null,"zoningDistrict":null,"jurisdictionPrefix":null,"dorCode":"V","acreage":46.26,"centroid":[-82.903764,30.776104],"lastSale":{"date":null,"price":null,"qualified":null},"tax":{"marketValue":117000.0,"assessedValue":null,"taxableValue":null,"taxes":null},"mailingAddress":{"line1":"1523 SARDIS CHURCH RD","line2":null,"city":"LAKE PARK","state":"GA","zip":"31636"},"incomeTract":null,"incomeBlockGroup":null,"nearestRoad":null,"flu":null,"opportunityZone":null,"oz2Eligibility":null,"source":"ga-echols-parcels-13101","appraiserUrl":"https://qpublic.schneidercorp.com/Application.aspx?App=EcholsCountyGA&Layer=Parcels&PageType=Report&KeyValue=057%20%20%20%20001B","gisViewerUrl":"https://qpublic.schneidercorp.com/Application.aspx?AppID=765&LayerID=11801&PageTypeID=1&PageID=0"},"geometry":{"type":"Polygon","coordinates":[[[-82.902092,30.77771],[-82.90217,30.777711],[-82.908492,30.77782],[-82.908558,30.775268],[-82.903939,30.774796],[-82.903937,30.774879],[-82.90219,30.774827],[-82.902113,30.775478],[-82.902082,30.775952],[-82.902071,30.776602],[-82.902092,30.77771]]]}},{"type":"Feature","id":"13101:057    001","properties":{"id":"13101:057    001","parcelId":"057    001","countyFips":"13101","countyName":"Echols","state":"Georgia","marketIds":["Valdosta"],"situsAddress":"0.0","situsCity":null,"situsZip":null,"jurisdictionCode":null,"ownerName":"CARTER JACKIE C & RHONDA R","ownerName2":null,"propertyName":null,"zoningCode":null,"zoningDistrict":null,"jurisdictionPrefix":null,"dorCode":"V","acreage":46.26,"centroid":[-82.90416,30.779656],"lastSale":{"date":null,"price":null,"qualified":null},"tax":{"marketValue":116500.0,"assessedValue":null,"taxableValue":null,"taxes":null},"mailingAddress":{"line1":"553 SARDIS CHURCH RD","line2":null,"city":"LAKE PARK","state":"GA","zip":"31636"},"incomeTract":null,"incomeBlockGroup":null,"nearestRoad":null,"flu":null,"opportunityZone":null,"oz2Eligibility":null,"source":"ga-echols-parcels-13101","appraiserUrl":"https://qpublic.schneidercorp.com/Application.aspx?App=EcholsCountyGA&Layer=Parcels&PageType=Report&KeyValue=057%20%20%20%20001","gisViewerUrl":"https://qpublic.schneidercorp.com/Application.aspx?AppID=765&LayerID=11801&PageTypeID=1&PageID=0"},"geometry":{"type":"Polygon","coordinates":[[[-82.902073,30.780517],[-82.90379,30.780548],[-82.908419,30.780628],[-82.908492,30.77782],[-82.902092,30.77771],[-82.902167,30.77986],[-82.902089,30.780507],[-82.902073,30.780517]]]}},{"type":"Feature","id":"13101:057    014D","properties":{"id":"13101:057    014D","parcelId":"057    014D","countyFips":"13101","countyName":"Echols","state":"Georgia","marketIds":["Valdosta"],"situsAddress":"0.0","situsCity":null,"situsZip":null,"jurisdictionCode":null,"ownerName":"DELOACH AUSTIN","ownerName2":null,"propertyName":null,"zoningCode":null,"zoningDistrict":null,"jurisdictionPrefix":null,"dorCode":"V","acreage":51.57,"centroid":[-82.894287,30.758026],"lastSale":{"date":null,"price":null,"qualified":null},"tax":{"marketValue":181300.0,"assessedValue":null,"taxableValue":null,"taxes":null},"mailingAddress":{"line1":"231 PEAGLER STREET","line2":null,"city":"HOMERVILLE","state":"GA","zip":"31634"},"incomeTract":null,"incomeBlockGroup":null,"nearestRoad":null,"flu":null,"opportunityZone":null,"oz2Eligibility":null,"source":"ga-echols-parcels-13101","appraiserUrl":"https://qpublic.schneidercorp.com/Application.aspx?App=EcholsCountyGA&Layer=Parcels&PageType=Report&KeyValue=057%20%20%20%20014D","gisViewerUrl":"https://qpublic.schneidercorp.com/Application.aspx?AppID=765&LayerID=11801&PageTypeID=1&PageID=0"},"geometry":{"type":"Polygon","coordinates":[[[-82.897506,30.760098],[-82.897514,30.760101],[-82.897842,30.760209],[-82.898052,30.760254],[-82.89814,30.759832],[-82.898407,30.759135],[-82.89994,30.755798],[-82.898942,30.755827],[-82.888635,30.755799],[-82.89053,30.756138],[-82.890662,30.756185],[-82.890986,30.756354],[-82.89112,30.756449],[-82.893166,30.758056],[-82.893401,30.758284],[-82.896461,30.759578],[-82.896462,30.759697],[-82.89655,30.759733],[-82.89664,30.758731],[-82.894468,30.758429],[-82.894526,30.758012],[-82.894525,30.757112],[-82.897978,30.757326],[-82.897707,30.759168],[-82.897506,30.760098]]]}},{"type":"Feature","id":"13101:057    015C","properties":{"id":"13101:057    015C","parcelId":"057    015C","countyFips":"13101","countyName":"Echols","state":"Georgia","marketIds":["Valdosta"],"situsAddress":"0.0","situsCity":null,"situsZip":null,"jurisdictionCode":null,"ownerName":"DELOACH AUSTIN SR","ownerName2":null,"propertyName":null,"zoningCode":null,"zoningDistrict":null,"jurisdictionPrefix":null,"dorCode":"A","acreage":10.0,"centroid":[-82.89605,30.757943],"lastSale":{"date":null,"price":null,"qualified":null},"tax":{"marketValue":23700.0,"assessedValue":null,"taxableValue":null,"taxes":null,"landValue":23000.0},"mailingAddress":{"line1":"231 PEAGLER STREET","line2":null,"city":"HOMERVILLE","state":"GA","zip":"31634"},"incomeTract":null,"incomeBlockGroup":null,"nearestRoad":null,"flu":null,"opportunityZone":null,"oz2Eligibility":null,"source":"ga-echols-parcels-13101","appraiserUrl":"https://qpublic.schneidercorp.com/Application.aspx?App=EcholsCountyGA&Layer=Parcels&PageType=Report&KeyValue=057%20%20%20%20015C","gisViewerUrl":"https://qpublic.schneidercorp.com/Application.aspx?AppID=765&LayerID=11801&PageTypeID=1&PageID=0"},"geometry":{"type":"Polygon","coordinates":[[[-82.894526,30.758012],[-82.894468,30.758429],[-82.896449,30.758704],[-82.896537,30.757959],[-82.89787,30.758061],[-82.897978,30.757326],[-82.894525,30.757112],[-82.894526,30.758012]]]}},{"type":"Feature","id":"13101:057    003","properties":{"id":"13101:057    003","parcelId":"057    003","countyFips":"13101","countyName":"Echols","state":"Georgia","marketIds":["Valdosta"],"situsAddress":"0.0","situsCity":null,"situsZip":null,"jurisdictionCode":null,"ownerName":"A & C BULLDAWGS LLC","ownerName2":null,"propertyName":null,"zoningCode":null,"zoningDistrict":null,"jurisdictionPrefix":null,"dorCode":"A","acreage":144.7,"centroid":[-82.909417,30.769916],"lastSale":{"date":null,"price":null,"qualified":null},"tax":{"marketValue":372600.0,"assessedValue":null,"taxableValue":null,"taxes":null,"landValue":372600.0},"mailingAddress":{"line1":"PO BOX 456","line2":null,"city":"HOMERVILLE","state":"GA","zip":"31634"},"incomeTract":null,"incomeBlockGroup":null,"nearestRoad":null,"flu":null,"opportunityZone":null,"oz2Eligibility":null,"source":"ga-echols-parcels-13101","appraiserUrl":"https://qpublic.schneidercorp.com/Application.aspx?App=EcholsCountyGA&Layer=Parcels&PageType=Report&KeyValue=057%20%20%20%20003","gisViewerUrl":"https://qpublic.schneidercorp.com/Application.aspx?AppID=765&LayerID=11801&PageTypeID=1&PageID=0"},"geometry":{"type":"Polygon","coordinates":[[[-82.91357,30.768121],[-82.912869,30.768469],[-82.912401,30.768687],[-82.911494,30.769028],[-82.911385,30.769106],[-82.911324,30.769116],[-82.910921,30.769287],[-82.907444,30.769694],[-82.906612,30.770095],[-82.906302,30.770153],[-82.905042,30.770307],[-82.903654,30.770391],[-82.902993,30.770509],[-82.902477,30.773069],[-82.902314,30.774133],[-82.913951,30.774302],[-82.914843,30.768085],[-82.914716,30.768119],[-82.91462,30.767737],[-82.91357,30.768121]]]}},{"type":"Feature","id":"13101:057    014F","properties":{"id":"13101:057    014F","parcelId":"057    014F","countyFips":"13101","countyName":"Echols","state":"Georgia","marketIds":["Valdosta"],"situsAddress":"0.0","situsCity":null,"situsZip":null,"jurisdictionCode":null,"ownerName":"DELOACH F AUSTIN JR","ownerName2":null,"propertyName":null,"zoningCode":null,"zoningDistrict":null,"jurisdictionPrefix":null,"dorCode":"V","acreage":17.45,"centroid":[-82.900722,30.757395],"lastSale":{"date":null,"price":null,"qualified":null},"tax":{"marketValue":50300.0,"assessedValue":null,"taxableValue":null,"taxes":null},"mailingAddress":{"line1":"133 MCHUGH DR","line2":null,"city":"HOMERVILLE","state":"GA","zip":"31634"},"incomeTract":null,"incomeBlockGroup":null,"nearestRoad":null,"flu":null,"opportunityZone":null,"oz2Eligibility":null,"source":"ga-echols-parcels-13101","appraiserUrl":"https://qpublic.schneidercorp.com/Application.aspx?App=EcholsCountyGA&Layer=Parcels&PageType=Report&KeyValue=057%20%20%20%20014F","gisViewerUrl":"https://qpublic.schneidercorp.com/Application.aspx?AppID=765&LayerID=11801&PageTypeID=1&PageID=0"},"geometry":{"type":"Polygon","coordinates":[[[-82.900078,30.758619],[-82.901948,30.759212],[-82.901999,30.755796],[-82.900283,30.755796],[-82.899559,30.757371],[-82.900462,30.757576],[-82.900078,30.758619]]]}},{"type":"Feature","id":"13101:057    019A","properties":{"id":"13101:057    019A","parcelId":"057    019A","countyFips":"13101","countyName":"Echols","state":"Georgia","marketIds":["Valdosta"],"situsAddress":"0.0","situsCity":null,"situsZip":null,"jurisdictionCode":null,"ownerName":"REGISTER ROBERT PLEZ, ETAL","ownerName2":null,"propertyName":null,"zoningCode":null,"zoningDistrict":null,"jurisdictionPrefix":null,"dorCode":"V","acreage":44.04,"centroid":[-82.906543,30.76204],"lastSale":{"date":null,"price":null,"qualified":null},"tax":{"marketValue":49000.0,"assessedValue":null,"taxableValue":null,"taxes":null},"mailingAddress":{"line1":"DARRELL MARVIN & SAMMY RANDOLPH REGISTER","line2":"SAMMY RANDOLPH REGISTER JR","city":"HAHIRA","state":"GA","zip":"31632"},"incomeTract":null,"incomeBlockGroup":null,"nearestRoad":null,"flu":null,"opportunityZone":null,"oz2Eligibility":null,"source":"ga-echols-parcels-13101","appraiserUrl":"https://qpublic.schneidercorp.com/Application.aspx?App=EcholsCountyGA&Layer=Parcels&PageType=Report&KeyValue=057%20%20%20%20019A","gisViewerUrl":"https://qpublic.schneidercorp.com/Application.aspx?AppID=765&LayerID=11801&PageTypeID=1&PageID=0"},"geometry":{"type":"Polygon","coordinates":[[[-82.901913,30.761605],[-82.902664,30.762388],[-82.902985,30.762755],[-82.903279,30.763238],[-82.903414,30.763397],[-82.903794,30.76375],[-82.904048,30.763905],[-82.904756,30.764166],[-82.90529,30.764325],[-82.905708,30.764297],[-82.90726,30.763684],[-82.908595,30.763393],[-82.90954,30.763099],[-82.908932,30.762893],[-82.908647,30.762823],[-82.908315,30.76288],[-82.907992,30.76283],[-82.907821,30.762727],[-82.907747,30.762573],[-82.907596,30.762383],[-82.907588,30.762119],[-82.90755,30.761853],[-82.907694,30.761567],[-82.907921,30.761461],[-82.908631,30.761225],[-82.908888,30.76121],[-82.908955,30.761155],[-82.909032,30.761021],[-82.908965,30.76069],[-82.908867,30.760612],[-82.908713,30.760553],[-82.908335,30.760471],[-82.907852,30.760639],[-82.907347,30.760889],[-82.906849,30.76104],[-82.906717,30.761117],[-82.906265,30.761235],[-82.905403,30.76136],[-82.905162,30.761369],[-82.905042,30.761332],[-82.904791,30.761215],[-82.904602,30.760997],[-82.904506,30.760763],[-82.901925,30.760735],[-82.901913,30.761605]]]}},{"type":"Feature","id":"13101:055A   039","properties":{"id":"13101:055A   039","parcelId":"055A   039","countyFips":"13101","countyName":"Echols","state":"Georgia","marketIds":["Valdosta"],"situsAddress":"0.0","situsCity":null,"situsZip":null,"jurisdictionCode":null,"ownerName":"SUPERIOR PINE PRODUCTS","ownerName2":null,"propertyName":null,"zoningCode":null,"zoningDistrict":null,"jurisdictionPrefix":null,"dorCode":"A","acreage":100.2,"centroid":[-82.905862,30.82242],"lastSale":{"date":null,"price":null,"qualified":null},"tax":{"marketValue":224400.0,"assessedValue":null,"taxableValue":null,"taxes":null,"landValue":224400.0},"mailingAddress":{"line1":"PO BOX 278","line2":null,"city":"FARGO","state":"GA","zip":"31631"},"incomeTract":null,"incomeBlockGroup":null,"nearestRoad":null,"flu":null,"opportunityZone":null,"oz2Eligibility":null,"source":"ga-echols-parcels-13101","appraiserUrl":"https://qpublic.schneidercorp.com/Application.aspx?App=EcholsCountyGA&Layer=Parcels&PageType=Report&KeyValue=055A%20%20%20039","gisViewerUrl":"https://qpublic.schneidercorp.com/Application.aspx?AppID=765&LayerID=11801&PageTypeID=1&PageID=0"},"geometry":{"type":"Polygon","coordinates":[[[-82.905665,30.82431],[-82.906991,30.824324],[-82.907138,30.82332],[-82.906687,30.823279],[-82.90679,30.822537],[-82.907016,30.822555],[-82.907018,30.822244],[-82.907292,30.822249],[-82.907405,30.821475],[-82.906893,30.821466],[-82.906935,30.820327],[-82.907574,30.820331],[-82.907718,30.819358],[-82.899995,30.819196],[-82.8989,30.824152],[-82.904879,30.824299],[-82.904922,30.824062],[-82.9057,30.824077],[-82.905665,30.82431]]]}},{"type":"Feature","id":"13101:065    015","properties":{"id":"13101:065    015","parcelId":"065    015","countyFips":"13101","countyName":"Echols","state":"Georgia","marketIds":["Valdosta"],"situsAddress":"0.0","situsCity":null,"situsZip":null,"jurisdictionCode":null,"ownerName":"RAYONIER FOREST RESOURCES LP","ownerName2":null,"propertyName":null,"zoningCode":null,"zoningDistrict":null,"jurisdictionPrefix":null,"dorCode":"A","acreage":40.08,"centroid":[-82.848771,30.81489],"lastSale":{"date":null,"price":null,"qualified":null},"tax":{"marketValue":89200.0,"assessedValue":null,"taxableValue":null,"taxes":null,"landValue":89200.0},"mailingAddress":{"line1":"C/O PROPERTY TAX COORDINATOR","line2":"1 RAYONIER WAY","city":"WILDLIGHT","state":"FL","zip":"32097"},"incomeTract":null,"incomeBlockGroup":null,"nearestRoad":null,"flu":null,"opportunityZone":null,"oz2Eligibility":null,"source":"ga-echols-parcels-13101","appraiserUrl":"https://qpublic.schneidercorp.com/Application.aspx?App=EcholsCountyGA&Layer=Parcels&PageType=Report&KeyValue=065%20%20%20%20015","gisViewerUrl":"https://qpublic.schneidercorp.com/Application.aspx?AppID=765&LayerID=11801&PageTypeID=1&PageID=0"},"geometry":{"type":"Polygon","coordinates":[[[-82.8463,30.816024],[-82.846685,30.816033],[-82.851121,30.816108],[-82.851096,30.815439],[-82.851062,30.812901],[-82.846364,30.812836],[-82.8463,30.816024]]]}},{"type":"Feature","id":"13101:065    016B1","properties":{"id":"13101:065    016B1","parcelId":"065    016B1","countyFips":"13101","countyName":"Echols","state":"Georgia","marketIds":["Valdosta"],"situsAddress":"249.0 HENDLEY LN","situsCity":null,"situsZip":null,"jurisdictionCode":null,"ownerName":"MELTON TIM & MAHALA","ownerName2":null,"propertyName":null,"zoningCode":null,"zoningDistrict":null,"jurisdictionPrefix":null,"dorCode":"A","acreage":21.99,"centroid":[-82.8449,30.817712],"lastSale":{"date":null,"price":null,"qualified":null},"tax":{"marketValue":72700.0,"assessedValue":null,"taxableValue":null,"taxes":null,"landValue":53600.0},"mailingAddress":{"line1":null,"line2":"3956   HWY 187 EAST","city":"DU PONT","state":"GA","zip":"31630"},"incomeTract":null,"incomeBlockGroup":null,"nearestRoad":null,"flu":null,"opportunityZone":null,"oz2Eligibility":null,"source":"ga-echols-parcels-13101","appraiserUrl":"https://qpublic.schneidercorp.com/Application.aspx?App=EcholsCountyGA&Layer=Parcels&PageType=Report&KeyValue=065%20%20%20%20016B1","gisViewerUrl":"https://qpublic.schneidercorp.com/Application.aspx?AppID=765&LayerID=11801&PageTypeID=1&PageID=0"},"geometry":{"type":"Polygon","coordinates":[[[-82.843621,30.819096],[-82.8439,30.819113],[-82.847036,30.819298],[-82.846797,30.817307],[-82.844775,30.817188],[-82.844752,30.816009],[-82.843418,30.815976],[-82.843621,30.819096]]]}},{"type":"Feature","id":"13101:065    016A1","properties":{"id":"13101:065    016A1","parcelId":"065    016A1","countyFips":"13101","countyName":"Echols","state":"Georgia","marketIds":["Valdosta"],"situsAddress":"0.0","situsCity":null,"situsZip":null,"jurisdictionCode":null,"ownerName":"HENDLEY RICHARD & MICHELLE","ownerName2":null,"propertyName":null,"zoningCode":null,"zoningDistrict":null,"jurisdictionPrefix":null,"dorCode":"A","acreage":18.61,"centroid":[-82.844969,30.821047],"lastSale":{"date":null,"price":null,"qualified":null},"tax":{"marketValue":47600.0,"assessedValue":null,"taxableValue":null,"taxes":null,"landValue":47600.0},"mailingAddress":{"line1":null,"line2":"143 HENDLEY LANE","city":"DU PONT","state":"GA","zip":"31630"},"incomeTract":null,"incomeBlockGroup":null,"nearestRoad":null,"flu":null,"opportunityZone":null,"oz2Eligibility":null,"source":"ga-echols-parcels-13101","appraiserUrl":"https://qpublic.schneidercorp.com/Application.aspx?App=EcholsCountyGA&Layer=Parcels&PageType=Report&KeyValue=065%20%20%20%20016A1","gisViewerUrl":"https://qpublic.schneidercorp.com/Application.aspx?AppID=765&LayerID=11801&PageTypeID=1&PageID=0"},"geometry":{"type":"Polygon","coordinates":[[[-82.844348,30.821561],[-82.844367,30.822197],[-82.844369,30.822267],[-82.845388,30.822331],[-82.845255,30.820604],[-82.847208,30.82072],[-82.847036,30.819298],[-82.843621,30.819096],[-82.843757,30.821193],[-82.84434,30.821199],[-82.844348,30.821561]]]}},{"type":"Feature","id":"13101:065    016B","properties":{"id":"13101:065    016B","parcelId":"065    016B","countyFips":"13101","countyName":"Echols","state":"Georgia","marketIds":["Valdosta"],"situsAddress":"281.0 HENDLEY LN","situsCity":null,"situsZip":null,"jurisdictionCode":null,"ownerName":"KAMPH CHRISTOPHER MICHAEL & AMANDA R","ownerName2":null,"propertyName":null,"zoningCode":null,"zoningDistrict":null,"jurisdictionPrefix":null,"dorCode":"R","acreage":6.37,"centroid":[-82.845826,30.816574],"lastSale":{"date":null,"price":null,"qualified":null},"tax":{"marketValue":376060.0,"assessedValue":null,"taxableValue":null,"taxes":null,"landValue":17600.0},"mailingAddress":{"line1":"281 HENDLEY LANE","line2":null,"city":"DU PONT","state":"GA","zip":"31630"},"incomeTract":null,"incomeBlockGroup":null,"nearestRoad":null,"flu":null,"opportunityZone":null,"oz2Eligibility":null,"source":"ga-echols-parcels-13101","appraiserUrl":"https://qpublic.schneidercorp.com/Application.aspx?App=EcholsCountyGA&Layer=Parcels&PageType=Report&KeyValue=065%20%20%20%20016B","gisViewerUrl":"https://qpublic.schneidercorp.com/Application.aspx?AppID=765&LayerID=11801&PageTypeID=1&PageID=0"},"geometry":{"type":"Polygon","coordinates":[[[-82.844775,30.817188],[-82.845206,30.817213],[-82.846797,30.817307],[-82.846655,30.816141],[-82.8463,30.816113],[-82.8463,30.816047],[-82.844752,30.816009],[-82.844775,30.817188]]]}},{"type":"Feature","id":"13101:055    006","properties":{"id":"13101:055    006","parcelId":"055    006","countyFips":"13101","countyName":"Echols","state":"Georgia","marketIds":["Valdosta"],"situsAddress":"0.0","situsCity":null,"situsZip":null,"jurisdictionCode":null,"ownerName":"SUPERIOR PINE PRODUCTS","ownerName2":null,"propertyName":null,"zoningCode":null,"zoningDistrict":null,"jurisdictionPrefix":null,"dorCode":"A","acreage":92.0,"centroid":[-82.909474,30.827383],"lastSale":{"date":null,"price":null,"qualified":null},"tax":{"marketValue":203600.0,"assessedValue":null,"taxableValue":null,"taxes":null,"landValue":203600.0},"mailingAddress":{"line1":"PO BOX 278","line2":null,"city":"FARGO","state":"GA","zip":"31631"},"incomeTract":null,"incomeBlockGroup":null,"nearestRoad":null,"flu":null,"opportunityZone":null,"oz2Eligibility":null,"source":"ga-echols-parcels-13101","appraiserUrl":"https://qpublic.schneidercorp.com/Application.aspx?App=EcholsCountyGA&Layer=Parcels&PageType=Report&KeyValue=055%20%20%20%20006","gisViewerUrl":"https://qpublic.schneidercorp.com/Application.aspx?AppID=765&LayerID=11801&PageTypeID=1&PageID=0"},"geometry":{"type":"Polygon","coordinates":[[[-82.908465,30.831496],[-82.913031,30.831562],[-82.913064,30.826788],[-82.913054,30.825346],[-82.909388,30.825273],[-82.908855,30.825274],[-82.908821,30.82592],[-82.909379,30.825923],[-82.909429,30.825945],[-82.909433,30.825995],[-82.909385,30.826022],[-82.908292,30.826012],[-82.908243,30.828853],[-82.906824,30.828866],[-82.906451,30.831467],[-82.908465,30.831496]]]}},{"type":"Feature","id":"13101:055A   019","properties":{"id":"13101:055A   019","parcelId":"055A   019","countyFips":"13101","countyName":"Echols","state":"Georgia","marketIds":["Valdosta"],"situsAddress":"104.0 WINSTON LN","situsCity":null,"situsZip":null,"jurisdictionCode":null,"ownerName":"TROUBLESOME CREEK","ownerName2":null,"propertyName":null,"zoningCode":null,"zoningDistrict":null,"jurisdictionPrefix":null,"dorCode":"R","acreage":5.16,"centroid":[-82.904024,30.82577],"lastSale":{"date":null,"price":null,"qualified":null},"tax":{"marketValue":21600.0,"assessedValue":null,"taxableValue":null,"taxes":null,"landValue":18400.0},"mailingAddress":{"line1":"INVESTMENT PROPBETIES, LLC","line2":"386 HWY 129 N","city":"STATENVILLE","state":"GA","zip":"31648"},"incomeTract":null,"incomeBlockGroup":null,"nearestRoad":null,"flu":null,"opportunityZone":null,"oz2Eligibility":null,"source":"ga-echols-parcels-13101","appraiserUrl":"https://qpublic.schneidercorp.com/Application.aspx?App=EcholsCountyGA&Layer=Parcels&PageType=Report&KeyValue=055A%20%20%20019","gisViewerUrl":"https://qpublic.schneidercorp.com/Application.aspx?AppID=765&LayerID=11801&PageTypeID=1&PageID=0"},"geometry":{"type":"Polygon","coordinates":[[[-82.903407,30.825347],[-82.903427,30.825533],[-82.90352,30.826387],[-82.904858,30.826219],[-82.904909,30.825365],[-82.903407,30.825347]]]}},{"type":"Feature","id":"13101:057    014","properties":{"id":"13101:057    014","parcelId":"057    014","countyFips":"13101","countyName":"Echols","state":"Georgia","marketIds":["Valdosta"],"situsAddress":"0.0","situsCity":null,"situsZip":null,"jurisdictionCode":null,"ownerName":"JNA DAWG PROPERTIES LLC","ownerName2":null,"propertyName":null,"zoningCode":null,"zoningDistrict":null,"jurisdictionPrefix":null,"dorCode":"V","acreage":24.93,"centroid":[-82.899382,30.760007],"lastSale":{"date":null,"price":null,"qualified":null},"tax":{"marketValue":64800.0,"assessedValue":null,"taxableValue":null,"taxes":null},"mailingAddress":{"line1":"1692 SEA LARK LANE","line2":null,"city":"NAVARRE","state":"FL","zip":"32566"},"incomeTract":null,"incomeBlockGroup":null,"nearestRoad":null,"flu":null,"opportunityZone":null,"oz2Eligibility":null,"source":"ga-echols-parcels-13101","appraiserUrl":"https://qpublic.schneidercorp.com/Application.aspx?App=EcholsCountyGA&Layer=Parcels&PageType=Report&KeyValue=057%20%20%20%20014","gisViewerUrl":"https://qpublic.schneidercorp.com/Application.aspx?AppID=765&LayerID=11801&PageTypeID=1&PageID=0"},"geometry":{"type":"Polygon","coordinates":[[[-82.898504,30.759743],[-82.898483,30.759802],[-82.89839,30.760131],[-82.898333,30.760468],[-82.89833,30.760666],[-82.898403,30.761202],[-82.898533,30.76158],[-82.901913,30.761605],[-82.901948,30.759212],[-82.900078,30.758619],[-82.900049,30.758698],[-82.899779,30.758624],[-82.899227,30.759741],[-82.898504,30.759743]]]}},{"type":"Feature","id":"13101:057    008A","properties":{"id":"13101:057    008A","parcelId":"057    008A","countyFips":"13101","countyName":"Echols","state":"Georgia","marketIds":["Valdosta"],"situsAddress":"0.0","situsCity":null,"situsZip":null,"jurisdictionCode":null,"ownerName":"RAULERSON KELLY R.","ownerName2":null,"propertyName":null,"zoningCode":null,"zoningDistrict":null,"jurisdictionPrefix":null,"dorCode":"V","acreage":100.0,"centroid":[-82.879192,30.778328],"lastSale":{"date":null,"price":null,"qualified":null},"tax":{"marketValue":249200.0,"assessedValue":null,"taxableValue":null,"taxes":null},"mailingAddress":{"line1":"C/O DAVID T RAULERSON","line2":"18 BENT OAK LANE","city":"ASHEVILLE","state":"NC","zip":"28803"},"incomeTract":null,"incomeBlockGroup":null,"nearestRoad":null,"flu":null,"opportunityZone":null,"oz2Eligibility":null,"source":"ga-echols-parcels-13101","appraiserUrl":"https://qpublic.schneidercorp.com/Application.aspx?App=EcholsCountyGA&Layer=Parcels&PageType=Report&KeyValue=057%20%20%20%20008A","gisViewerUrl":"https://qpublic.schneidercorp.com/Application.aspx?AppID=765&LayerID=11801&PageTypeID=1&PageID=0"},"geometry":{"type":"MultiPolygon","coordinates":[[[[-82.871417,30.779538],[-82.871355,30.779812],[-82.871255,30.779931],[-82.871228,30.780192],[-82.871236,30.780346],[-82.872827,30.780332],[-82.886489,30.780426],[-82.886688,30.780045],[-82.886837,30.779708],[-82.886993,30.779428],[-82.886984,30.779179],[-82.886831,30.77887],[-82.886685,30.778672],[-82.886364,30.778065],[-82.88624,30.777879],[-82.88618,30.777438],[-82.885854,30.777241],[-82.885674,30.777211],[-82.885221,30.777239],[-82.884709,30.777105],[-82.884449,30.776914],[-82.884051,30.776568],[-82.883834,30.776433],[-82.883437,30.776267],[-82.883185,30.776219],[-82.88289,30.776282],[-82.882798,30.776444],[-82.882951,30.776692],[-82.883154,30.776865],[-82.883372,30.777137],[-82.883591,30.777664],[-82.883622,30.777962],[-82.88356,30.77831],[-82.883549,30.778689],[-82.883363,30.778901],[-82.883091,30.779033],[-82.882723,30.778899],[-82.882355,30.778851],[-82.882182,30.778765],[-82.881614,30.778749],[-82.881225,30.778714],[-82.880753,30.778624],[-82.88041,30.778477],[-82.880236,30.778273],[-82.880364,30.77811],[-82.880442,30.777892],[-82.87993,30.777709],[-82.879289,30.777706],[-82.879025,30.777931],[-82.878846,30.778025],[-82.878024,30.77785],[-82.877715,30.777858],[-82.877097,30.777973],[-82.876688,30.778118],[-82.875984,30.778259],[-82.875438,30.778349],[-82.875042,30.778338],[-82.874826,30.778383],[-82.874684,30.778614],[-82.874238,30.778641],[-82.874045,30.778797],[-82.873997,30.779077],[-82.873769,30.779389],[-82.873446,30.77949],[-82.873201,30.779423],[-82.873135,30.779212],[-82.873018,30.779057],[-82.872846,30.778922],[-82.872849,30.778719],[-82.872604,30.778519],[-82.87256,30.778333],[-82.872399,30.778011],[-82.872254,30.777801],[-82.872016,30.777727],[-82.871621,30.77791],[-82.871508,30.778159],[-82.871425,30.778538],[-82.871417,30.779538]]],[[[-82.889284,30.778825],[-82.88909,30.778938],[-82.88838,30.779153],[-82.888121,30.779154],[-82.887626,30.779437],[-82.887499,30.779773],[-82.887392,30.779904],[-82.887401,30.780072],[-82.887438,30.780214],[-82.887374,30.780432],[-82.890295,30.78045],[-82.89056,30.780129],[-82.890737,30.779773],[-82.890757,30.779531],[-82.890653,30.779209],[-82.890371,30.77898],[-82.889981,30.778815],[-82.889737,30.778804],[-82.889284,30.778825]]]]}},{"type":"Feature","id":"13101:057    008B","properties":{"id":"13101:057    008B","parcelId":"057    008B","countyFips":"13101","countyName":"Echols","state":"Georgia","marketIds":["Valdosta"],"situsAddress":"0.0","situsCity":null,"situsZip":null,"jurisdictionCode":null,"ownerName":"RAULERSON LEONARD THOMAS","ownerName2":null,"propertyName":null,"zoningCode":null,"zoningDistrict":null,"jurisdictionPrefix":null,"dorCode":"V","acreage":100.0,"centroid":[-82.891574,30.776297],"lastSale":{"date":null,"price":null,"qualified":null},"tax":{"marketValue":248700.0,"assessedValue":null,"taxableValue":null,"taxes":null},"mailingAddress":{"line1":"C/O: DAVID RAULERSON","line2":"18 BENT OAK LANE","city":"ASHEVILLE","state":"NC","zip":"28803"},"incomeTract":null,"incomeBlockGroup":null,"nearestRoad":null,"flu":null,"opportunityZone":null,"oz2Eligibility":null,"source":"ga-echols-parcels-13101","appraiserUrl":"https://qpublic.schneidercorp.com/Application.aspx?App=EcholsCountyGA&Layer=Parcels&PageType=Report&KeyValue=057%20%20%20%20008B","gisViewerUrl":"https://qpublic.schneidercorp.com/Application.aspx?AppID=765&LayerID=11801&PageTypeID=1&PageID=0"},"geometry":{"type":"Polygon","coordinates":[[[-82.888489,30.776208],[-82.888614,30.776303],[-82.888689,30.776441],[-82.888851,30.776611],[-82.888889,30.777051],[-82.889035,30.777273],[-82.889609,30.778016],[-82.890078,30.778324],[-82.890583,30.778439],[-82.891303,30.778484],[-82.891893,30.778574],[-82.892017,30.778692],[-82.892032,30.778884],[-82.891812,30.779177],[-82.891028,30.779213],[-82.891189,30.779641],[-82.89108,30.780455],[-82.897323,30.780493],[-82.897276,30.776739],[-82.897075,30.776705],[-82.89665,30.776405],[-82.896169,30.776149],[-82.896062,30.77607],[-82.895924,30.776071],[-82.895808,30.77594],[-82.895669,30.775882],[-82.895531,30.775874],[-82.89538,30.775915],[-82.895237,30.775983],[-82.895095,30.776088],[-82.894953,30.776128],[-82.894783,30.776129],[-82.894662,30.776026],[-82.894477,30.775908],[-82.894001,30.77568],[-82.893945,30.775557],[-82.893805,30.775359],[-82.893454,30.775166],[-82.893325,30.775211],[-82.892962,30.775233],[-82.892864,30.775134],[-82.892629,30.77508],[-82.892159,30.775054],[-82.892031,30.775143],[-82.891884,30.775211],[-82.891765,30.775228],[-82.891631,30.775216],[-82.89133,30.77496],[-82.891237,30.774797],[-82.891084,30.774664],[-82.888007,30.774629],[-82.888106,30.774799],[-82.888047,30.774958],[-82.887891,30.775078],[-82.887698,30.775135],[-82.887449,30.775108],[-82.887246,30.775038],[-82.887071,30.775015],[-82.887008,30.775123],[-82.886922,30.77541],[-82.886947,30.775648],[-82.887115,30.775953],[-82.887263,30.776095],[-82.887462,30.776218],[-82.888024,30.776238],[-82.888268,30.776197],[-82.888489,30.776208]]]}}]}