{"type":"FeatureCollection","name":"13061--9_17","features":[{"type":"Feature","id":"13061:019    007","properties":{"id":"13061:019    007","parcelId":"019    007","countyFips":"13061","countyName":"Clay","state":"Georgia","marketIds":["Macon"],"situsAddress":null,"situsCity":null,"situsZip":null,"jurisdictionCode":null,"ownerName":"BETHEL BAPTIST CHURCH  OF CLAY CO INC","ownerName2":null,"propertyName":null,"zoningCode":"004","zoningDistrict":null,"jurisdictionPrefix":null,"dorCode":null,"acreage":9.39,"centroid":[-85.017897,31.487959],"lastSale":{"date":null,"price":null,"qualified":null},"tax":{"marketValue":261100.0,"assessedValue":null,"taxableValue":null,"taxes":null},"mailingAddress":{"line1":null,"line2":null,"city":null,"state":null,"zip":null},"incomeTract":null,"incomeBlockGroup":null,"nearestRoad":null,"flu":null,"opportunityZone":null,"oz2Eligibility":null,"source":"ga-clay-parcels-13061","appraiserUrl":"https://qpublic.schneidercorp.com/Application.aspx?App=clayCountyGA&Layer=Parcels&PageType=Report&KeyValue=019%20%20%20%20007","gisViewerUrl":"https://garc.maps.arcgis.com/apps/webappviewer/index.html?id=603ec184e56e4d07b16939aa1f660e89"},"geometry":{"type":"Polygon","coordinates":[[[-85.017395,31.488543],[-85.0174,31.488692],[-85.018821,31.488338],[-85.01886,31.487159],[-85.017492,31.487136],[-85.017416,31.487889],[-85.017395,31.488543]]]}},{"type":"Feature","id":"13061:029    001A","properties":{"id":"13061:029    001A","parcelId":"029    001A","countyFips":"13061","countyName":"Clay","state":"Georgia","marketIds":["Macon"],"situsAddress":null,"situsCity":null,"situsZip":null,"jurisdictionCode":null,"ownerName":"COATES JR RICHARD L & PAMELA TEMPLES","ownerName2":null,"propertyName":null,"zoningCode":"004","zoningDistrict":null,"jurisdictionPrefix":null,"dorCode":null,"acreage":82.13,"centroid":[-85.013436,31.495636],"lastSale":{"date":null,"price":null,"qualified":null},"tax":{"marketValue":154494.0,"assessedValue":null,"taxableValue":null,"taxes":null},"mailingAddress":{"line1":"42 MT CALVARY  RD","line2":null,"city":null,"state":null,"zip":null},"incomeTract":null,"incomeBlockGroup":null,"nearestRoad":null,"flu":null,"opportunityZone":null,"oz2Eligibility":null,"source":"ga-clay-parcels-13061","appraiserUrl":"https://qpublic.schneidercorp.com/Application.aspx?App=clayCountyGA&Layer=Parcels&PageType=Report&KeyValue=029%20%20%20%20001A","gisViewerUrl":"https://garc.maps.arcgis.com/apps/webappviewer/index.html?id=603ec184e56e4d07b16939aa1f660e89"},"geometry":{"type":"MultiPolygon","coordinates":[[[[-85.008407,31.494718],[-85.008394,31.495113],[-85.011189,31.494714],[-85.011198,31.49468],[-85.008407,31.494718]]],[[[-85.012192,31.494748],[-85.01201,31.494757],[-85.011646,31.49479],[-85.008389,31.495252],[-85.008302,31.49792],[-85.018505,31.498089],[-85.018578,31.495458],[-85.018553,31.494963],[-85.012747,31.494746],[-85.012192,31.494748]]]]}},{"type":"Feature","id":"13061:029    011","properties":{"id":"13061:029    011","parcelId":"029    011","countyFips":"13061","countyName":"Clay","state":"Georgia","marketIds":["Macon"],"situsAddress":null,"situsCity":null,"situsZip":null,"jurisdictionCode":null,"ownerName":"THOMPSON DONALD EDWARD","ownerName2":null,"propertyName":null,"zoningCode":"004","zoningDistrict":null,"jurisdictionPrefix":null,"dorCode":null,"acreage":40.2,"centroid":[-85.000215,31.48763],"lastSale":{"date":null,"price":null,"qualified":null},"tax":{"marketValue":26000.0,"assessedValue":null,"taxableValue":null,"taxes":null},"mailingAddress":{"line1":"P O BOX 421","line2":null,"city":null,"state":null,"zip":null},"incomeTract":null,"incomeBlockGroup":null,"nearestRoad":null,"flu":null,"opportunityZone":null,"oz2Eligibility":null,"source":"ga-clay-parcels-13061","appraiserUrl":"https://qpublic.schneidercorp.com/Application.aspx?App=clayCountyGA&Layer=Parcels&PageType=Report&KeyValue=029%20%20%20%20011","gisViewerUrl":"https://garc.maps.arcgis.com/apps/webappviewer/index.html?id=603ec184e56e4d07b16939aa1f660e89"},"geometry":{"type":"Polygon","coordinates":[[[-85.000098,31.490525],[-85.002851,31.490571],[-85.002884,31.48691],[-85.00259,31.486922],[-85.002307,31.486992],[-85.00205,31.487116],[-85.001759,31.487327],[-85.001601,31.487409],[-85.001429,31.487467],[-85.001156,31.487508],[-85.000972,31.487503],[-85.00079,31.487473],[-85.000617,31.487418],[-85.000318,31.487275],[-85.00009,31.487219],[-84.999932,31.487213],[-84.999775,31.487231],[-84.999416,31.487355],[-84.999269,31.487382],[-84.999119,31.487383],[-84.998577,31.487264],[-84.998065,31.487219],[-84.997878,31.487172],[-84.997546,31.487047],[-84.997301,31.487001],[-84.997208,31.490476],[-85.000098,31.490525]]]}},{"type":"Feature","id":"13061:029    013","properties":{"id":"13061:029    013","parcelId":"029    013","countyFips":"13061","countyName":"Clay","state":"Georgia","marketIds":["Macon"],"situsAddress":null,"situsCity":null,"situsZip":null,"jurisdictionCode":null,"ownerName":"CLEVELAND WILLIAM GARRETT","ownerName2":null,"propertyName":null,"zoningCode":"004","zoningDistrict":null,"jurisdictionPrefix":null,"dorCode":null,"acreage":30.58,"centroid":[-85.001582,31.493541],"lastSale":{"date":null,"price":null,"qualified":null},"tax":{"marketValue":45300.0,"assessedValue":null,"taxableValue":null,"taxes":null},"mailingAddress":{"line1":"194 MOUNT CALVARY ROAD","line2":null,"city":null,"state":null,"zip":null},"incomeTract":null,"incomeBlockGroup":null,"nearestRoad":null,"flu":null,"opportunityZone":null,"oz2Eligibility":null,"source":"ga-clay-parcels-13061","appraiserUrl":"https://qpublic.schneidercorp.com/Application.aspx?App=clayCountyGA&Layer=Parcels&PageType=Report&KeyValue=029%20%20%20%20013","gisViewerUrl":"https://garc.maps.arcgis.com/apps/webappviewer/index.html?id=603ec184e56e4d07b16939aa1f660e89"},"geometry":{"type":"Polygon","coordinates":[[[-85.00178,31.495127],[-85.001815,31.495128],[-85.001824,31.494169],[-85.002818,31.494185],[-85.002851,31.490571],[-85.000098,31.490525],[-84.999891,31.495085],[-85.00178,31.495127]]]}},{"type":"Feature","id":"13061:029    015","properties":{"id":"13061:029    015","parcelId":"029    015","countyFips":"13061","countyName":"Clay","state":"Georgia","marketIds":["Macon"],"situsAddress":null,"situsCity":null,"situsZip":null,"jurisdictionCode":null,"ownerName":"KING JOSEPH M","ownerName2":null,"propertyName":null,"zoningCode":"004","zoningDistrict":null,"jurisdictionPrefix":null,"dorCode":null,"acreage":62.7,"centroid":[-85.006443,31.494062],"lastSale":{"date":null,"price":null,"qualified":null},"tax":{"marketValue":136070.0,"assessedValue":null,"taxableValue":null,"taxes":null},"mailingAddress":{"line1":"263 BLAKELY HIGHWAY","line2":null,"city":null,"state":null,"zip":null},"incomeTract":null,"incomeBlockGroup":null,"nearestRoad":null,"flu":null,"opportunityZone":null,"oz2Eligibility":null,"source":"ga-clay-parcels-13061","appraiserUrl":"https://qpublic.schneidercorp.com/Application.aspx?App=clayCountyGA&Layer=Parcels&PageType=Report&KeyValue=029%20%20%20%20015","gisViewerUrl":"https://garc.maps.arcgis.com/apps/webappviewer/index.html?id=603ec184e56e4d07b16939aa1f660e89"},"geometry":{"type":"Polygon","coordinates":[[[-85.006454,31.49523],[-85.006658,31.495231],[-85.006999,31.494739],[-85.007571,31.494661],[-85.007714,31.495196],[-85.008394,31.495113],[-85.008539,31.490665],[-85.002851,31.490571],[-85.002809,31.49515],[-85.006454,31.49523]]]}},{"type":"Feature","id":"13061:029    017B","properties":{"id":"13061:029    017B","parcelId":"029    017B","countyFips":"13061","countyName":"Clay","state":"Georgia","marketIds":["Macon"],"situsAddress":null,"situsCity":null,"situsZip":null,"jurisdictionCode":null,"ownerName":"M C COATES LAND LLC","ownerName2":null,"propertyName":null,"zoningCode":"004","zoningDistrict":null,"jurisdictionPrefix":null,"dorCode":null,"acreage":10.1,"centroid":[-85.016323,31.494301],"lastSale":{"date":null,"price":null,"qualified":null},"tax":{"marketValue":85200.0,"assessedValue":null,"taxableValue":null,"taxes":null},"mailingAddress":{"line1":"P O BOX 2134","line2":null,"city":null,"state":null,"zip":null},"incomeTract":null,"incomeBlockGroup":null,"nearestRoad":null,"flu":null,"opportunityZone":null,"oz2Eligibility":null,"source":"ga-clay-parcels-13061","appraiserUrl":"https://qpublic.schneidercorp.com/Application.aspx?App=clayCountyGA&Layer=Parcels&PageType=Report&KeyValue=029%20%20%20%20017B","gisViewerUrl":"https://garc.maps.arcgis.com/apps/webappviewer/index.html?id=603ec184e56e4d07b16939aa1f660e89"},"geometry":{"type":"Polygon","coordinates":[[[-85.017965,31.494803],[-85.018537,31.494825],[-85.01842,31.494146],[-85.018298,31.493658],[-85.014674,31.49352],[-85.014685,31.494682],[-85.014746,31.494685],[-85.014769,31.493982],[-85.015579,31.493995],[-85.015555,31.494714],[-85.017965,31.494803]]]}}]}