{"type":"FeatureCollection","name":"28049--31_22","features":[{"type":"Feature","id":"28049:049670000784000001","properties":{"id":"28049:049670000784000001","parcelId":"049670000784000001","countyFips":"28049","countyName":"Hinds","state":"Mississippi","marketIds":["Jackson MS"],"situsAddress":"RICHARDSON RD","situsCity":null,"situsZip":null,"jurisdictionCode":null,"ownerName":"MORRISON DOROTHY B","ownerName2":null,"propertyName":null,"zoningCode":null,"zoningDistrict":null,"jurisdictionPrefix":null,"dorCode":null,"acreage":142.3766,"centroid":[-90.520222,32.507218],"lastSale":{"date":null,"price":null,"qualified":null},"tax":{"marketValue":0.0,"assessedValue":null,"taxableValue":null,"taxes":null},"mailingAddress":{"line1":null,"line2":null,"city":null,"state":null,"zip":null},"incomeTract":null,"incomeBlockGroup":null,"nearestRoad":null,"flu":null,"opportunityZone":null,"oz2Eligibility":null,"source":"ms-hinds-maris-august-2024"},"geometry":{"type":"Polygon","coordinates":[[[-90.512146,32.508239],[-90.512146,32.508243],[-90.517132,32.508283],[-90.517127,32.50986],[-90.520563,32.509875],[-90.520475,32.509773],[-90.520405,32.509609],[-90.520426,32.509444],[-90.520481,32.509292],[-90.52064,32.509151],[-90.520771,32.509092],[-90.521062,32.509039],[-90.521304,32.508968],[-90.521705,32.50875],[-90.522058,32.508403],[-90.522528,32.507986],[-90.522631,32.507786],[-90.522568,32.507605],[-90.522353,32.507406],[-90.522125,32.507283],[-90.521889,32.507113],[-90.52175,32.506955],[-90.521653,32.506749],[-90.521632,32.506591],[-90.521659,32.506362],[-90.521762,32.505951],[-90.521754,32.505711],[-90.521678,32.505541],[-90.521136,32.504896],[-90.520997,32.50465],[-90.520893,32.504392],[-90.520882,32.504176],[-90.51862,32.504144],[-90.51863,32.502688],[-90.512194,32.502627],[-90.512146,32.508239]]]}},{"type":"Feature","id":"28049:049670000783000000","properties":{"id":"28049:049670000783000000","parcelId":"049670000783000000","countyFips":"28049","countyName":"Hinds","state":"Mississippi","marketIds":["Jackson MS"],"situsAddress":"RICHARDSON RD","situsCity":null,"situsZip":null,"jurisdictionCode":null,"ownerName":"RICHARDSON ROAD LAND LLC","ownerName2":null,"propertyName":null,"zoningCode":null,"zoningDistrict":null,"jurisdictionPrefix":null,"dorCode":null,"acreage":109.9577,"centroid":[-90.509678,32.506555],"lastSale":{"date":null,"price":null,"qualified":null},"tax":{"marketValue":0.0,"assessedValue":null,"taxableValue":null,"taxes":null},"mailingAddress":{"line1":null,"line2":null,"city":null,"state":null,"zip":null},"incomeTract":null,"incomeBlockGroup":null,"nearestRoad":null,"flu":null,"opportunityZone":null,"oz2Eligibility":null,"source":"ms-hinds-maris-august-2024"},"geometry":{"type":"MultiPolygon","coordinates":[[[[-90.508899,32.50262],[-90.508893,32.502885],[-90.50893,32.503073],[-90.508998,32.503232],[-90.509178,32.503541],[-90.509539,32.504032],[-90.510375,32.505438],[-90.510504,32.505733],[-90.510673,32.506287],[-90.510809,32.50652],[-90.511348,32.507206],[-90.511418,32.507351],[-90.511467,32.507537],[-90.511479,32.507724],[-90.511449,32.507915],[-90.511319,32.50824],[-90.512146,32.508239],[-90.512194,32.502627],[-90.5089,32.502597],[-90.508899,32.50262]]],[[[-90.505731,32.509783],[-90.508935,32.509805],[-90.509138,32.509806],[-90.510251,32.509574],[-90.510439,32.509439],[-90.510533,32.509328],[-90.51085,32.50886],[-90.511252,32.507897],[-90.511277,32.507737],[-90.511267,32.507579],[-90.511225,32.50742],[-90.511167,32.5073],[-90.510623,32.50658],[-90.510472,32.506323],[-90.510301,32.505761],[-90.510178,32.505482],[-90.509352,32.504092],[-90.50899,32.503599],[-90.508801,32.503275],[-90.508724,32.503094],[-90.508681,32.502875],[-90.508687,32.502595],[-90.505729,32.502567],[-90.505731,32.509783]]]]}},{"type":"Feature","id":"28049:049670000780000000","properties":{"id":"28049:049670000780000000","parcelId":"049670000780000000","countyFips":"28049","countyName":"Hinds","state":"Mississippi","marketIds":["Jackson MS"],"situsAddress":"RICHARDSON RD","situsCity":null,"situsZip":null,"jurisdictionCode":null,"ownerName":"COWART JOSEPH P & LISA M","ownerName2":null,"propertyName":null,"zoningCode":null,"zoningDistrict":null,"jurisdictionPrefix":null,"dorCode":null,"acreage":100.0221,"centroid":[-90.509186,32.513452],"lastSale":{"date":null,"price":null,"qualified":null},"tax":{"marketValue":0.0,"assessedValue":null,"taxableValue":null,"taxes":null},"mailingAddress":{"line1":null,"line2":null,"city":null,"state":null,"zip":null},"incomeTract":null,"incomeBlockGroup":null,"nearestRoad":null,"flu":null,"opportunityZone":null,"oz2Eligibility":null,"source":"ms-hinds-maris-august-2024"},"geometry":{"type":"MultiPolygon","coordinates":[[[[-90.508935,32.509865],[-90.509138,32.509806],[-90.508935,32.509805],[-90.508935,32.509865]]],[[[-90.505674,32.517029],[-90.505675,32.517029],[-90.512626,32.517093],[-90.512698,32.509831],[-90.509865,32.509811],[-90.509268,32.50994],[-90.508937,32.510035],[-90.508918,32.513163],[-90.508246,32.513423],[-90.50571,32.513397],[-90.505674,32.517029]]]]}},{"type":"Feature","id":"28049:049670000833000000","properties":{"id":"28049:049670000833000000","parcelId":"049670000833000000","countyFips":"28049","countyName":"Hinds","state":"Mississippi","marketIds":["Jackson MS"],"situsAddress":"HALIFAX RD","situsCity":null,"situsZip":null,"jurisdictionCode":null,"ownerName":"GADDIS FARMS INC","ownerName2":null,"propertyName":null,"zoningCode":null,"zoningDistrict":null,"jurisdictionPrefix":null,"dorCode":null,"acreage":85.6249,"centroid":[-90.568125,32.504431],"lastSale":{"date":null,"price":null,"qualified":null},"tax":{"marketValue":0.0,"assessedValue":null,"taxableValue":null,"taxes":null},"mailingAddress":{"line1":null,"line2":null,"city":null,"state":null,"zip":null},"incomeTract":null,"incomeBlockGroup":null,"nearestRoad":null,"flu":null,"opportunityZone":null,"oz2Eligibility":null,"source":"ms-hinds-maris-august-2024"},"geometry":{"type":"MultiPolygon","coordinates":[[[[-90.570565,32.506244],[-90.570604,32.506245],[-90.571031,32.50621],[-90.571334,32.506153],[-90.571612,32.506021],[-90.571743,32.505906],[-90.57177,32.505814],[-90.571772,32.505711],[-90.571695,32.504985],[-90.571753,32.504092],[-90.571746,32.503928],[-90.571653,32.503714],[-90.571472,32.503497],[-90.571274,32.50339],[-90.571071,32.503235],[-90.570715,32.503101],[-90.57056,32.503],[-90.570523,32.502944],[-90.570473,32.502783],[-90.570382,32.502676],[-90.570349,32.502481],[-90.570277,32.502292],[-90.569813,32.501643],[-90.569733,32.501499],[-90.56905,32.502033],[-90.567952,32.50269],[-90.56759,32.50273],[-90.566724,32.50298],[-90.566209,32.50295],[-90.5658,32.502971],[-90.565536,32.503055],[-90.565435,32.503053],[-90.565215,32.502973],[-90.564766,32.50304],[-90.564478,32.503093],[-90.564124,32.503286],[-90.564402,32.503318],[-90.564567,32.503403],[-90.564846,32.503638],[-90.565011,32.5039],[-90.565121,32.504181],[-90.565173,32.504542],[-90.565161,32.504872],[-90.565084,32.505333],[-90.565084,32.505493],[-90.565135,32.505584],[-90.565209,32.505664],[-90.565417,32.505816],[-90.565598,32.50587],[-90.565833,32.50589],[-90.566026,32.505871],[-90.566211,32.505819],[-90.566532,32.505691],[-90.56669,32.505598],[-90.566782,32.505495],[-90.566987,32.50517],[-90.567097,32.505082],[-90.567312,32.505],[-90.567463,32.504966],[-90.567891,32.504974],[-90.568082,32.505003],[-90.568341,32.505077],[-90.568661,32.505199],[-90.56886,32.505301],[-90.569098,32.505519],[-90.56939,32.505909],[-90.56946,32.506029],[-90.569615,32.506125],[-90.569792,32.506197],[-90.570021,32.506237],[-90.570565,32.506244]]],[[[-90.553804,32.507206],[-90.553973,32.507156],[-90.554419,32.506515],[-90.554689,32.505883],[-90.554802,32.505526],[-90.555117,32.505116],[-90.555231,32.504848],[-90.555686,32.504364],[-90.555861,32.504349],[-90.556071,32.504207],[-90.556483,32.504028],[-90.557019,32.503997],[-90.557387,32.503997],[-90.557747,32.504056],[-90.558002,32.50413],[-90.558368,32.504167],[-90.558888,32.504158],[-90.559783,32.504067],[-90.560766,32.503909],[-90.561423,32.503729],[-90.5623,32.503586],[-90.563301,32.503269],[-90.563854,32.503023],[-90.553859,32.502837],[-90.553804,32.507206]]]]}},{"type":"Feature","id":"28049:049670000781000000","properties":{"id":"28049:049670000781000000","parcelId":"049670000781000000","countyFips":"28049","countyName":"Hinds","state":"Mississippi","marketIds":["Jackson MS"],"situsAddress":"RICHARDSON RD","situsCity":null,"situsZip":null,"jurisdictionCode":null,"ownerName":"VICE LEIGH C & COWART JOSEPH P","ownerName2":null,"propertyName":null,"zoningCode":null,"zoningDistrict":null,"jurisdictionPrefix":null,"dorCode":null,"acreage":74.2722,"centroid":[-90.515156,32.513999],"lastSale":{"date":null,"price":null,"qualified":null},"tax":{"marketValue":0.0,"assessedValue":null,"taxableValue":null,"taxes":null},"mailingAddress":{"line1":null,"line2":null,"city":null,"state":null,"zip":null},"incomeTract":null,"incomeBlockGroup":null,"nearestRoad":null,"flu":null,"opportunityZone":null,"oz2Eligibility":null,"source":"ms-hinds-maris-august-2024"},"geometry":{"type":"Polygon","coordinates":[[[-90.512626,32.517093],[-90.514266,32.517108],[-90.518531,32.517147],[-90.518556,32.513489],[-90.514703,32.513481],[-90.514715,32.509844],[-90.512698,32.509831],[-90.512626,32.517093]]]}},{"type":"Feature","id":"28049:049670000787000000","properties":{"id":"28049:049670000787000000","parcelId":"049670000787000000","countyFips":"28049","countyName":"Hinds","state":"Mississippi","marketIds":["Jackson MS"],"situsAddress":"HALIFAX RD","situsCity":null,"situsZip":null,"jurisdictionCode":null,"ownerName":"ANDERSON TULLY LUMBER COMP","ownerName2":null,"propertyName":null,"zoningCode":null,"zoningDistrict":null,"jurisdictionPrefix":null,"dorCode":null,"acreage":69.4115,"centroid":[-90.522464,32.514289],"lastSale":{"date":null,"price":null,"qualified":null},"tax":{"marketValue":0.0,"assessedValue":null,"taxableValue":null,"taxes":null},"mailingAddress":{"line1":null,"line2":null,"city":null,"state":null,"zip":null},"incomeTract":null,"incomeBlockGroup":null,"nearestRoad":null,"flu":null,"opportunityZone":null,"oz2Eligibility":null,"source":"ms-hinds-maris-august-2024"},"geometry":{"type":"Polygon","coordinates":[[[-90.518531,32.517147],[-90.520008,32.51716],[-90.520033,32.516902],[-90.520115,32.516521],[-90.520253,32.516221],[-90.520412,32.516033],[-90.521491,32.515568],[-90.522072,32.515356],[-90.522308,32.515309],[-90.522598,32.515291],[-90.522896,32.515349],[-90.523354,32.515524],[-90.523749,32.515794],[-90.524193,32.516251],[-90.524464,32.516626],[-90.524563,32.516719],[-90.525317,32.515509],[-90.525502,32.51491],[-90.525435,32.514371],[-90.525294,32.514313],[-90.525033,32.514285],[-90.524777,32.514296],[-90.523774,32.514579],[-90.523587,32.514585],[-90.523241,32.514504],[-90.523047,32.514428],[-90.52288,32.514322],[-90.52254,32.513853],[-90.522094,32.512628],[-90.521906,32.511895],[-90.521842,32.511425],[-90.521654,32.510763],[-90.52137,32.510399],[-90.521016,32.510124],[-90.520676,32.509978],[-90.520563,32.509875],[-90.518581,32.509874],[-90.518531,32.517147]]]}},{"type":"Feature","id":"28049:049670000784000000","properties":{"id":"28049:049670000784000000","parcelId":"049670000784000000","countyFips":"28049","countyName":"Hinds","state":"Mississippi","marketIds":["Jackson MS"],"situsAddress":"RICHARDSON RD","situsCity":null,"situsZip":null,"jurisdictionCode":null,"ownerName":"RICHARDSON VAN M JR","ownerName2":null,"propertyName":null,"zoningCode":null,"zoningDistrict":null,"jurisdictionPrefix":null,"dorCode":null,"acreage":61.4498,"centroid":[-90.517573,32.512796],"lastSale":{"date":null,"price":null,"qualified":null},"tax":{"marketValue":0.0,"assessedValue":null,"taxableValue":null,"taxes":null},"mailingAddress":{"line1":null,"line2":null,"city":null,"state":null,"zip":null},"incomeTract":null,"incomeBlockGroup":null,"nearestRoad":null,"flu":null,"opportunityZone":null,"oz2Eligibility":null,"source":"ms-hinds-maris-august-2024"},"geometry":{"type":"Polygon","coordinates":[[[-90.512698,32.509831],[-90.514715,32.509844],[-90.514703,32.513481],[-90.518556,32.513489],[-90.518581,32.50987],[-90.517127,32.50986],[-90.517132,32.508283],[-90.511319,32.50824],[-90.511021,32.50893],[-90.510694,32.509416],[-90.510584,32.509545],[-90.51033,32.509725],[-90.509865,32.509811],[-90.512698,32.509831]]]}},{"type":"Feature","id":"28049:049670000780000005","properties":{"id":"28049:049670000780000005","parcelId":"049670000780000005","countyFips":"28049","countyName":"Hinds","state":"Mississippi","marketIds":["Jackson MS"],"situsAddress":"RICHARDSON RD","situsCity":null,"situsZip":null,"jurisdictionCode":null,"ownerName":"HUGHES PATRICIA R & ANTHONY G","ownerName2":null,"propertyName":null,"zoningCode":null,"zoningDistrict":null,"jurisdictionPrefix":null,"dorCode":null,"acreage":32.2058,"centroid":[-90.50247,32.513547],"lastSale":{"date":null,"price":null,"qualified":null},"tax":{"marketValue":0.0,"assessedValue":null,"taxableValue":null,"taxes":null},"mailingAddress":{"line1":null,"line2":null,"city":null,"state":null,"zip":null},"incomeTract":null,"incomeBlockGroup":null,"nearestRoad":null,"flu":null,"opportunityZone":null,"oz2Eligibility":null,"source":"ms-hinds-maris-august-2024"},"geometry":{"type":"Polygon","coordinates":[[[-90.501366,32.516989],[-90.503524,32.517009],[-90.503587,32.511245],[-90.502477,32.511258],[-90.501394,32.511236],[-90.501366,32.516989]]]}},{"type":"Feature","id":"28049:049670000780000003","properties":{"id":"28049:049670000780000003","parcelId":"049670000780000003","countyFips":"28049","countyName":"Hinds","state":"Mississippi","marketIds":["Jackson MS"],"situsAddress":"3175   RICHARDSON RD","situsCity":null,"situsZip":null,"jurisdictionCode":null,"ownerName":"ROBERSON BETTYE R","ownerName2":null,"propertyName":null,"zoningCode":null,"zoningDistrict":null,"jurisdictionPrefix":null,"dorCode":null,"acreage":31.9537,"centroid":[-90.504782,32.513541],"lastSale":{"date":null,"price":null,"qualified":null},"tax":{"marketValue":37750.0,"assessedValue":null,"taxableValue":null,"taxes":null},"mailingAddress":{"line1":null,"line2":null,"city":null,"state":null,"zip":null},"incomeTract":null,"incomeBlockGroup":null,"nearestRoad":null,"flu":null,"opportunityZone":null,"oz2Eligibility":null,"source":"ms-hinds-maris-august-2024"},"geometry":{"type":"Polygon","coordinates":[[[-90.503524,32.517009],[-90.505674,32.517029],[-90.505731,32.511189],[-90.505394,32.511234],[-90.503587,32.511245],[-90.503524,32.517009]]]}},{"type":"Feature","id":"28049:049670000799000000","properties":{"id":"28049:049670000799000000","parcelId":"049670000799000000","countyFips":"28049","countyName":"Hinds","state":"Mississippi","marketIds":["Jackson MS"],"situsAddress":"RICHARDSON RD","situsCity":null,"situsZip":null,"jurisdictionCode":null,"ownerName":"RICHARDSON ROAD LAND LLC","ownerName2":null,"propertyName":null,"zoningCode":null,"zoningDistrict":null,"jurisdictionPrefix":null,"dorCode":null,"acreage":29.7664,"centroid":[-90.508122,32.500671],"lastSale":{"date":null,"price":null,"qualified":null},"tax":{"marketValue":0.0,"assessedValue":null,"taxableValue":null,"taxes":null},"mailingAddress":{"line1":null,"line2":null,"city":null,"state":null,"zip":null},"incomeTract":null,"incomeBlockGroup":null,"nearestRoad":null,"flu":null,"opportunityZone":null,"oz2Eligibility":null,"source":"ms-hinds-maris-august-2024"},"geometry":{"type":"Polygon","coordinates":[[[-90.505729,32.502567],[-90.508687,32.502595],[-90.508704,32.502234],[-90.508977,32.500685],[-90.508994,32.500092],[-90.509073,32.499293],[-90.509087,32.498968],[-90.505728,32.498937],[-90.505729,32.502567]]]}},{"type":"Feature","id":"28049:049670000782000003","properties":{"id":"28049:049670000782000003","parcelId":"049670000782000003","countyFips":"28049","countyName":"Hinds","state":"Mississippi","marketIds":["Jackson MS"],"situsAddress":"RICHARDSON RD","situsCity":null,"situsZip":null,"jurisdictionCode":null,"ownerName":"RICHARDSON ROAD LAND LLC","ownerName2":null,"propertyName":null,"zoningCode":null,"zoningDistrict":null,"jurisdictionPrefix":null,"dorCode":null,"acreage":26.9352,"centroid":[-90.505005,32.506169],"lastSale":{"date":null,"price":null,"qualified":null},"tax":{"marketValue":0.0,"assessedValue":null,"taxableValue":null,"taxes":null},"mailingAddress":{"line1":null,"line2":null,"city":null,"state":null,"zip":null},"incomeTract":null,"incomeBlockGroup":null,"nearestRoad":null,"flu":null,"opportunityZone":null,"oz2Eligibility":null,"source":"ms-hinds-maris-august-2024"},"geometry":{"type":"Polygon","coordinates":[[[-90.504249,32.509773],[-90.505731,32.509783],[-90.505729,32.502567],[-90.504311,32.502554],[-90.504249,32.509773]]]}},{"type":"Feature","id":"28049:049670000782000001","properties":{"id":"28049:049670000782000001","parcelId":"049670000782000001","countyFips":"28049","countyName":"Hinds","state":"Mississippi","marketIds":["Jackson MS"],"situsAddress":"RICHARDSON RD","situsCity":null,"situsZip":null,"jurisdictionCode":null,"ownerName":"RICHARDSON ROAD LAND LLC","ownerName2":null,"propertyName":null,"zoningCode":null,"zoningDistrict":null,"jurisdictionPrefix":null,"dorCode":null,"acreage":26.5876,"centroid":[-90.503565,32.506158],"lastSale":{"date":null,"price":null,"qualified":null},"tax":{"marketValue":0.0,"assessedValue":null,"taxableValue":null,"taxes":null},"mailingAddress":{"line1":null,"line2":null,"city":null,"state":null,"zip":null},"incomeTract":null,"incomeBlockGroup":null,"nearestRoad":null,"flu":null,"opportunityZone":null,"oz2Eligibility":null,"source":"ms-hinds-maris-august-2024"},"geometry":{"type":"Polygon","coordinates":[[[-90.502823,32.509764],[-90.504249,32.509773],[-90.504311,32.502554],[-90.502878,32.50254],[-90.502823,32.509764]]]}},{"type":"Feature","id":"28049:049670000782000002","properties":{"id":"28049:049670000782000002","parcelId":"049670000782000002","countyFips":"28049","countyName":"Hinds","state":"Mississippi","marketIds":["Jackson MS"],"situsAddress":"RICHARDSON RD","situsCity":null,"situsZip":null,"jurisdictionCode":null,"ownerName":"RICHARDSON ROAD LAND LLC","ownerName2":null,"propertyName":null,"zoningCode":null,"zoningDistrict":null,"jurisdictionPrefix":null,"dorCode":null,"acreage":26.5798,"centroid":[-90.502136,32.506146],"lastSale":{"date":null,"price":null,"qualified":null},"tax":{"marketValue":0.0,"assessedValue":null,"taxableValue":null,"taxes":null},"mailingAddress":{"line1":null,"line2":null,"city":null,"state":null,"zip":null},"incomeTract":null,"incomeBlockGroup":null,"nearestRoad":null,"flu":null,"opportunityZone":null,"oz2Eligibility":null,"source":"ms-hinds-maris-august-2024"},"geometry":{"type":"Polygon","coordinates":[[[-90.501402,32.509754],[-90.502823,32.509764],[-90.502878,32.50254],[-90.501441,32.502526],[-90.501402,32.509754]]]}},{"type":"Feature","id":"28049:049670000780000002","properties":{"id":"28049:049670000780000002","parcelId":"049670000780000002","countyFips":"28049","countyName":"Hinds","state":"Mississippi","marketIds":["Jackson MS"],"situsAddress":"3184   RICHARDSON RD","situsCity":null,"situsZip":null,"jurisdictionCode":null,"ownerName":"ROBERSON BETTYE R & KENNETH D","ownerName2":null,"propertyName":null,"zoningCode":null,"zoningDistrict":null,"jurisdictionPrefix":null,"dorCode":null,"acreage":19.5753,"centroid":[-90.504924,32.510692],"lastSale":{"date":null,"price":null,"qualified":null},"tax":{"marketValue":33250.0,"assessedValue":null,"taxableValue":null,"taxes":null},"mailingAddress":{"line1":null,"line2":null,"city":null,"state":null,"zip":null},"incomeTract":null,"incomeBlockGroup":null,"nearestRoad":null,"flu":null,"opportunityZone":null,"oz2Eligibility":null,"source":"ms-hinds-maris-august-2024"},"geometry":{"type":"Polygon","coordinates":[[[-90.501395,32.511067],[-90.501451,32.511081],[-90.502477,32.511096],[-90.504825,32.51108],[-90.505379,32.511072],[-90.505663,32.511038],[-90.505855,32.510992],[-90.506151,32.510871],[-90.506625,32.510582],[-90.508935,32.509865],[-90.508935,32.509805],[-90.501402,32.509754],[-90.501395,32.511067]]]}},{"type":"Feature","id":"28049:049670000780000006","properties":{"id":"28049:049670000780000006","parcelId":"049670000780000006","countyFips":"28049","countyName":"Hinds","state":"Mississippi","marketIds":["Jackson MS"],"situsAddress":"3059   RICHARDSON RD","situsCity":null,"situsZip":null,"jurisdictionCode":null,"ownerName":"PARKER CHAD G & PARKER ERICA","ownerName2":null,"propertyName":null,"zoningCode":null,"zoningDistrict":null,"jurisdictionPrefix":null,"dorCode":null,"acreage":11.4472,"centroid":[-90.50646,32.511624],"lastSale":{"date":null,"price":null,"qualified":null},"tax":{"marketValue":12650.0,"assessedValue":null,"taxableValue":null,"taxes":null},"mailingAddress":{"line1":null,"line2":null,"city":null,"state":null,"zip":null},"incomeTract":null,"incomeBlockGroup":null,"nearestRoad":null,"flu":null,"opportunityZone":null,"oz2Eligibility":null,"source":"ms-hinds-maris-august-2024"},"geometry":{"type":"Polygon","coordinates":[[[-90.50571,32.513397],[-90.507451,32.513414],[-90.507445,32.510494],[-90.506711,32.510727],[-90.506256,32.511006],[-90.505919,32.511144],[-90.505731,32.511189],[-90.50571,32.513397]]]}},{"type":"Feature","id":"28049:049670000802000001","properties":{"id":"28049:049670000802000001","parcelId":"049670000802000001","countyFips":"28049","countyName":"Hinds","state":"Mississippi","marketIds":["Jackson MS"],"situsAddress":"RICHARDSON RD","situsCity":null,"situsZip":null,"jurisdictionCode":null,"ownerName":"RICHARDSON RD LAND LLC","ownerName2":null,"propertyName":null,"zoningCode":null,"zoningDistrict":null,"jurisdictionPrefix":null,"dorCode":null,"acreage":8.0175,"centroid":[-90.501859,32.500621],"lastSale":{"date":null,"price":null,"qualified":null},"tax":{"marketValue":0.0,"assessedValue":null,"taxableValue":null,"taxes":null},"mailingAddress":{"line1":null,"line2":null,"city":null,"state":null,"zip":null},"incomeTract":null,"incomeBlockGroup":null,"nearestRoad":null,"flu":null,"opportunityZone":null,"oz2Eligibility":null,"source":"ms-hinds-maris-august-2024"},"geometry":{"type":"Polygon","coordinates":[[[-90.501441,32.502526],[-90.502236,32.502534],[-90.502299,32.498719],[-90.501462,32.498706],[-90.501441,32.502526]]]}},{"type":"Feature","id":"28049:049670000780000008","properties":{"id":"28049:049670000780000008","parcelId":"049670000780000008","countyFips":"28049","countyName":"Hinds","state":"Mississippi","marketIds":["Jackson MS"],"situsAddress":"RICHARDSON RD","situsCity":null,"situsZip":null,"jurisdictionCode":null,"ownerName":"COWARD JOSEPH & LISA M","ownerName2":null,"propertyName":null,"zoningCode":null,"zoningDistrict":null,"jurisdictionPrefix":null,"dorCode":null,"acreage":7.9894,"centroid":[-90.508189,32.51131],"lastSale":{"date":null,"price":null,"qualified":null},"tax":{"marketValue":0.0,"assessedValue":null,"taxableValue":null,"taxes":null},"mailingAddress":{"line1":null,"line2":null,"city":null,"state":null,"zip":null},"incomeTract":null,"incomeBlockGroup":null,"nearestRoad":null,"flu":null,"opportunityZone":null,"oz2Eligibility":null,"source":"ms-hinds-maris-august-2024"},"geometry":{"type":"Polygon","coordinates":[[[-90.508923,32.512343],[-90.508937,32.510035],[-90.507445,32.510494],[-90.507449,32.512369],[-90.508923,32.512343]]]}}]}