{"type":"FeatureCollection","name":"12107-6_9","features":[{"type":"Feature","id":"12107:17-13-28-0000-0070-0000","properties":{"id":"12107:17-13-28-0000-0070-0000","parcelId":"17-13-28-0000-0070-0000","countyFips":"12107","countyName":"Putnam","state":"Florida","marketIds":["North-Central Florida"],"situsAddress":"00 Unassigned Location RE","situsCity":null,"situsZip":null,"jurisdictionCode":"Unincorporated Putnam County","ownerName":"ST JOHNS RIVER WATER MANAGEMENT DIS","ownerName2":null,"propertyName":null,"zoningCode":null,"zoningDistrict":null,"jurisdictionPrefix":null,"dorCode":"08700","acreage":72.62,"centroid":[-81.499873,29.367894],"lastSale":{"date":null,"price":null,"qualified":null},"tax":{"marketValue":363000.0,"assessedValue":363000.0,"taxableValue":null,"taxes":null},"mailingAddress":{"line1":"ATTN:VICTORIA M KROGER-DIRECTOR PO BOX 1429","line2":null,"city":"PALATKA","state":"FL","zip":"32178"},"incomeTract":null,"incomeBlockGroup":null,"nearestRoad":null,"flu":null,"opportunityZone":null,"oz2Eligibility":null,"source":"fl-putnam-parcels-pa-12107","gisViewerUrl":"https://pamap.putnam-fl.gov/PropertyAppraiserPublicMap/","appraiserUrl":"https://apps.putnam-fl.com/pa/property/?type=api&parcel=17-13-28-0000-0070-0000"},"geometry":{"type":"Polygon","coordinates":[[[-81.503871,29.365398],[-81.489241,29.368861],[-81.495572,29.368785],[-81.499737,29.368843],[-81.502846,29.368741],[-81.503957,29.368683],[-81.503886,29.365949],[-81.503871,29.365398]]]}},{"type":"Feature","id":"12107:09-13-28-0000-0113-0010","properties":{"id":"12107:09-13-28-0000-0113-0010","parcelId":"09-13-28-0000-0113-0010","countyFips":"12107","countyName":"Putnam","state":"Florida","marketIds":["North-Central Florida"],"situsAddress":"432 CLIFTON RD CRESCENT CITY","situsCity":null,"situsZip":null,"jurisdictionCode":"Unincorporated Putnam County","ownerName":"BABINE KEITH","ownerName2":null,"propertyName":null,"zoningCode":null,"zoningDistrict":null,"jurisdictionPrefix":null,"dorCode":"00100","acreage":8.08,"centroid":[-81.483236,29.382663],"lastSale":{"date":null,"price":null,"qualified":null},"tax":{"marketValue":551410.0,"assessedValue":125480.0,"taxableValue":100480.0,"taxes":null},"mailingAddress":{"line1":"432 CLIFTON RD","line2":null,"city":"CRESCENT CITY","state":"FL","zip":"32112"},"incomeTract":null,"incomeBlockGroup":null,"nearestRoad":null,"flu":null,"opportunityZone":null,"oz2Eligibility":null,"source":"fl-putnam-parcels-pa-12107","gisViewerUrl":"https://pamap.putnam-fl.gov/PropertyAppraiserPublicMap/","appraiserUrl":"https://apps.putnam-fl.com/pa/property/?type=api&parcel=09-13-28-0000-0113-0010"},"geometry":{"type":"Polygon","coordinates":[[[-81.483466,29.380333],[-81.482838,29.380356],[-81.482881,29.385076],[-81.48351,29.385189],[-81.483484,29.382363],[-81.483466,29.380333]]]}},{"type":"Feature","id":"12107:09-13-28-0000-0110-0000","properties":{"id":"12107:09-13-28-0000-0110-0000","parcelId":"09-13-28-0000-0110-0000","countyFips":"12107","countyName":"Putnam","state":"Florida","marketIds":["North-Central Florida"],"situsAddress":"491 CLIFTON RD CRESCENT CITY","situsCity":null,"situsZip":null,"jurisdictionCode":"Unincorporated Putnam County","ownerName":"CUNNINGHAM SUSAN M","ownerName2":null,"propertyName":null,"zoningCode":null,"zoningDistrict":null,"jurisdictionPrefix":null,"dorCode":"06400","acreage":15.61,"centroid":[-81.471638,29.378767],"lastSale":{"date":null,"price":null,"qualified":null},"tax":{"marketValue":180000.0,"assessedValue":4540.0,"taxableValue":4540.0,"taxes":null},"mailingAddress":{"line1":"495 CLIFTON RD","line2":null,"city":"CRESCENT CITY","state":"FL","zip":"32112"},"incomeTract":null,"incomeBlockGroup":null,"nearestRoad":null,"flu":null,"opportunityZone":null,"oz2Eligibility":null,"source":"fl-putnam-parcels-pa-12107","gisViewerUrl":"https://pamap.putnam-fl.gov/PropertyAppraiserPublicMap/","appraiserUrl":"https://apps.putnam-fl.com/pa/property/?type=api&parcel=09-13-28-0000-0110-0000"},"geometry":{"type":"Polygon","coordinates":[[[-81.472464,29.377013],[-81.470747,29.377081],[-81.470828,29.380501],[-81.472514,29.380471],[-81.472464,29.377013]]]}},{"type":"Feature","id":"12107:10-13-28-0000-0010-0030","properties":{"id":"12107:10-13-28-0000-0010-0030","parcelId":"10-13-28-0000-0010-0030","countyFips":"12107","countyName":"Putnam","state":"Florida","marketIds":["North-Central Florida"],"situsAddress":"581 CLIFTON RD CRESCENT CITY","situsCity":null,"situsZip":null,"jurisdictionCode":"Unincorporated Putnam County","ownerName":"DELANEY ADAM EDGAR","ownerName2":null,"propertyName":null,"zoningCode":null,"zoningDistrict":null,"jurisdictionPrefix":null,"dorCode":"00200","acreage":8.52,"centroid":[-81.457667,29.379154],"lastSale":{"date":null,"price":null,"qualified":null},"tax":{"marketValue":190050.0,"assessedValue":190050.0,"taxableValue":165050.0,"taxes":null},"mailingAddress":{"line1":"581 CLIFTON RD","line2":null,"city":"CRESCENT CITY","state":"FL","zip":"32112"},"incomeTract":null,"incomeBlockGroup":null,"nearestRoad":null,"flu":null,"opportunityZone":null,"oz2Eligibility":null,"source":"fl-putnam-parcels-pa-12107","gisViewerUrl":"https://pamap.putnam-fl.gov/PropertyAppraiserPublicMap/","appraiserUrl":"https://apps.putnam-fl.com/pa/property/?type=api&parcel=10-13-28-0000-0010-0030"},"geometry":{"type":"Polygon","coordinates":[[[-81.458158,29.377211],[-81.457035,29.377541],[-81.457056,29.379367],[-81.457428,29.379565],[-81.457752,29.379819],[-81.458019,29.38012],[-81.458219,29.380458],[-81.458158,29.377211]]]}},{"type":"Feature","id":"12107:08-13-28-0000-0020-0000","properties":{"id":"12107:08-13-28-0000-0020-0000","parcelId":"08-13-28-0000-0020-0000","countyFips":"12107","countyName":"Putnam","state":"Florida","marketIds":["North-Central Florida"],"situsAddress":"351 CLIFTON RD CRESCENT CITY","situsCity":null,"situsZip":null,"jurisdictionCode":"Unincorporated Putnam County","ownerName":"REVELS LANDHOLDING COMPANY LLC","ownerName2":null,"propertyName":null,"zoningCode":null,"zoningDistrict":null,"jurisdictionPrefix":null,"dorCode":"00700","acreage":44.66,"centroid":[-81.498497,29.378408],"lastSale":{"date":null,"price":null,"qualified":null},"tax":{"marketValue":300740.0,"assessedValue":182140.0,"taxableValue":182140.0,"taxes":null},"mailingAddress":{"line1":"8850 COWPEN BRANCH RD","line2":null,"city":"HASTINGS","state":"FL","zip":"32145"},"incomeTract":null,"incomeBlockGroup":null,"nearestRoad":null,"flu":null,"opportunityZone":null,"oz2Eligibility":null,"source":"fl-putnam-parcels-pa-12107","gisViewerUrl":"https://pamap.putnam-fl.gov/PropertyAppraiserPublicMap/","appraiserUrl":"https://apps.putnam-fl.com/pa/property/?type=api&parcel=08-13-28-0000-0020-0000"},"geometry":{"type":"Polygon","coordinates":[[[-81.500027,29.377625],[-81.49972,29.377825],[-81.499436,29.377963],[-81.499134,29.37807],[-81.498713,29.37816],[-81.498405,29.378188],[-81.495445,29.378284],[-81.495505,29.379851],[-81.500088,29.379707],[-81.500027,29.377625]],[[-81.499981,29.376034],[-81.500015,29.377214],[-81.500017,29.377253],[-81.49984,29.377404],[-81.499446,29.377649],[-81.499104,29.377787],[-81.498704,29.377883],[-81.498395,29.377913],[-81.495434,29.378009],[-81.495395,29.377],[-81.494454,29.377028],[-81.494423,29.376227],[-81.499981,29.376034]]]}},{"type":"Feature","id":"12107:10-13-28-0000-0080-0000","properties":{"id":"12107:10-13-28-0000-0080-0000","parcelId":"10-13-28-0000-0080-0000","countyFips":"12107","countyName":"Putnam","state":"Florida","marketIds":["North-Central Florida"],"situsAddress":"520 CLIFTON RD CRESCENT CITY","situsCity":null,"situsZip":null,"jurisdictionCode":"Unincorporated Putnam County","ownerName":"PARGA GULMAR J + DENISE R H/W","ownerName2":null,"propertyName":null,"zoningCode":null,"zoningDistrict":null,"jurisdictionPrefix":null,"dorCode":"00200","acreage":7.24,"centroid":[-81.467138,29.382575],"lastSale":{"date":null,"price":null,"qualified":null},"tax":{"marketValue":195982.0,"assessedValue":122992.0,"taxableValue":122992.0,"taxes":null},"mailingAddress":{"line1":"682 21ST ST NW","line2":null,"city":"NAPLES","state":"FL","zip":"34120"},"incomeTract":null,"incomeBlockGroup":null,"nearestRoad":null,"flu":null,"opportunityZone":null,"oz2Eligibility":null,"source":"fl-putnam-parcels-pa-12107","gisViewerUrl":"https://pamap.putnam-fl.gov/PropertyAppraiserPublicMap/","appraiserUrl":"https://apps.putnam-fl.com/pa/property/?type=api&parcel=10-13-28-0000-0080-0000"},"geometry":{"type":"Polygon","coordinates":[[[-81.467694,29.380745],[-81.466653,29.380772],[-81.466662,29.383344],[-81.466779,29.383342],[-81.467044,29.383288],[-81.467389,29.383264],[-81.467744,29.383268],[-81.467694,29.380745]]]}},{"type":"Feature","id":"12107:10-13-28-0000-0020-0030","properties":{"id":"12107:10-13-28-0000-0020-0030","parcelId":"10-13-28-0000-0020-0030","countyFips":"12107","countyName":"Putnam","state":"Florida","marketIds":["North-Central Florida"],"situsAddress":"568 CLIFTON RD CRESCENT CITY","situsCity":null,"situsZip":null,"jurisdictionCode":"Unincorporated Putnam County","ownerName":"GOVREAU JEFFREY","ownerName2":null,"propertyName":null,"zoningCode":null,"zoningDistrict":null,"jurisdictionPrefix":null,"dorCode":"09900","acreage":5.07,"centroid":[-81.458642,29.381708],"lastSale":{"date":null,"price":null,"qualified":null},"tax":{"marketValue":141000.0,"assessedValue":141000.0,"taxableValue":141000.0,"taxes":null},"mailingAddress":{"line1":"547 KINGS CASTLE DR","line2":null,"city":"ORANGE CITY","state":"FL","zip":"32763"},"incomeTract":null,"incomeBlockGroup":null,"nearestRoad":null,"flu":null,"opportunityZone":null,"oz2Eligibility":null,"source":"fl-putnam-parcels-pa-12107","gisViewerUrl":"https://pamap.putnam-fl.gov/PropertyAppraiserPublicMap/","appraiserUrl":"https://apps.putnam-fl.com/pa/property/?type=api&parcel=10-13-28-0000-0020-0030"},"geometry":{"type":"Polygon","coordinates":[[[-81.458709,29.380925],[-81.458477,29.380929],[-81.458454,29.382482],[-81.458519,29.382495],[-81.458835,29.382488],[-81.45886,29.380926],[-81.458709,29.380925]],[[-81.458904,29.376992],[-81.458895,29.377824],[-81.458872,29.380792],[-81.458595,29.380796],[-81.458434,29.37713],[-81.458904,29.376992]]]}},{"type":"Feature","id":"12107:10-13-28-0000-0030-0000","properties":{"id":"12107:10-13-28-0000-0030-0000","parcelId":"10-13-28-0000-0030-0000","countyFips":"12107","countyName":"Putnam","state":"Florida","marketIds":["North-Central Florida"],"situsAddress":"562 CLIFTON RD CRESCENT CITY","situsCity":null,"situsZip":null,"jurisdictionCode":"Unincorporated Putnam County","ownerName":"LEONARD REVOCABLE TRUST","ownerName2":null,"propertyName":null,"zoningCode":null,"zoningDistrict":null,"jurisdictionPrefix":null,"dorCode":"09900","acreage":5.76,"centroid":[-81.460071,29.379275],"lastSale":{"date":null,"price":null,"qualified":null},"tax":{"marketValue":69120.0,"assessedValue":69120.0,"taxableValue":69120.0,"taxes":null},"mailingAddress":{"line1":"560 CLIFTON RD","line2":null,"city":"CRESCENT CITY","state":"FL","zip":"32112"},"incomeTract":null,"incomeBlockGroup":null,"nearestRoad":null,"flu":null,"opportunityZone":null,"oz2Eligibility":null,"source":"fl-putnam-parcels-pa-12107","gisViewerUrl":"https://pamap.putnam-fl.gov/PropertyAppraiserPublicMap/","appraiserUrl":"https://apps.putnam-fl.com/pa/property/?type=api&parcel=10-13-28-0000-0030-0000"},"geometry":{"type":"Polygon","coordinates":[[[-81.460392,29.377763],[-81.459775,29.377789],[-81.459749,29.380779],[-81.460366,29.380769],[-81.460392,29.377763]]]}},{"type":"Feature","id":"12107:16-13-28-0000-0010-0000","properties":{"id":"12107:16-13-28-0000-0010-0000","parcelId":"16-13-28-0000-0010-0000","countyFips":"12107","countyName":"Putnam","state":"Florida","marketIds":["North-Central Florida"],"situsAddress":"493 CLIFTON RD CRESCENT CITY","situsCity":null,"situsZip":null,"jurisdictionCode":"Unincorporated Putnam County","ownerName":"CUNNINGHAM SUSAN M","ownerName2":null,"propertyName":null,"zoningCode":null,"zoningDistrict":null,"jurisdictionPrefix":null,"dorCode":"05100","acreage":10.22,"centroid":[-81.47157,29.375469],"lastSale":{"date":null,"price":null,"qualified":null},"tax":{"marketValue":122640.0,"assessedValue":15450.0,"taxableValue":15450.0,"taxes":null},"mailingAddress":{"line1":"495 CLIFTON RD","line2":null,"city":"CRESCENT CITY","state":"FL","zip":"32112"},"incomeTract":null,"incomeBlockGroup":null,"nearestRoad":null,"flu":null,"opportunityZone":null,"oz2Eligibility":null,"source":"fl-putnam-parcels-pa-12107","gisViewerUrl":"https://pamap.putnam-fl.gov/PropertyAppraiserPublicMap/","appraiserUrl":"https://apps.putnam-fl.com/pa/property/?type=api&parcel=16-13-28-0000-0010-0000"},"geometry":{"type":"Polygon","coordinates":[[[-81.472449,29.373086],[-81.471498,29.373328],[-81.471528,29.376135],[-81.470735,29.376168],[-81.470747,29.377081],[-81.472464,29.377013],[-81.472449,29.373086]]]}},{"type":"Feature","id":"12107:10-13-28-0000-0040-0000","properties":{"id":"12107:10-13-28-0000-0040-0000","parcelId":"10-13-28-0000-0040-0000","countyFips":"12107","countyName":"Putnam","state":"Florida","marketIds":["North-Central Florida"],"situsAddress":"554 CLIFTON RD CRESCENT CITY","situsCity":null,"situsZip":null,"jurisdictionCode":"Unincorporated Putnam County","ownerName":"LANE HELEN MURCHISON LIVING TRUST","ownerName2":null,"propertyName":null,"zoningCode":null,"zoningDistrict":null,"jurisdictionPrefix":null,"dorCode":"00100","acreage":5.68,"centroid":[-81.461914,29.38215],"lastSale":{"date":null,"price":null,"qualified":null},"tax":{"marketValue":544956.0,"assessedValue":544956.0,"taxableValue":544956.0,"taxes":null},"mailingAddress":{"line1":"3775 ORTEGA BLVD","line2":null,"city":"JACKSONVILLE","state":"FL","zip":"32210"},"incomeTract":null,"incomeBlockGroup":null,"nearestRoad":null,"flu":null,"opportunityZone":null,"oz2Eligibility":null,"source":"fl-putnam-parcels-pa-12107","gisViewerUrl":"https://pamap.putnam-fl.gov/PropertyAppraiserPublicMap/","appraiserUrl":"https://apps.putnam-fl.com/pa/property/?type=api&parcel=10-13-28-0000-0040-0000"},"geometry":{"type":"Polygon","coordinates":[[[-81.462449,29.380854],[-81.461342,29.38088],[-81.461255,29.382847],[-81.461606,29.382829],[-81.46237,29.382737],[-81.462462,29.382751],[-81.462449,29.380854]]]}},{"type":"Feature","id":"12107:10-13-28-0000-0090-0050","properties":{"id":"12107:10-13-28-0000-0090-0050","parcelId":"10-13-28-0000-0090-0050","countyFips":"12107","countyName":"Putnam","state":"Florida","marketIds":["North-Central Florida"],"situsAddress":"500 CLIFTON RD CRESCENT CITY","situsCity":null,"situsZip":null,"jurisdictionCode":"Unincorporated Putnam County","ownerName":"SCHULTZ HELEN B + ERIC R","ownerName2":null,"propertyName":null,"zoningCode":null,"zoningDistrict":null,"jurisdictionPrefix":null,"dorCode":"00100","acreage":5.38,"centroid":[-81.470663,29.38295],"lastSale":{"date":null,"price":null,"qualified":null},"tax":{"marketValue":363300.0,"assessedValue":363300.0,"taxableValue":363300.0,"taxes":null},"mailingAddress":{"line1":"4509 ORTEGA FARMS CIRCLE","line2":null,"city":"JACKSONVILLE","state":"FL","zip":"32210"},"incomeTract":null,"incomeBlockGroup":null,"nearestRoad":null,"flu":null,"opportunityZone":null,"oz2Eligibility":null,"source":"fl-putnam-parcels-pa-12107","gisViewerUrl":"https://pamap.putnam-fl.gov/PropertyAppraiserPublicMap/","appraiserUrl":"https://apps.putnam-fl.com/pa/property/?type=api&parcel=10-13-28-0000-0090-0050"},"geometry":{"type":"Polygon","coordinates":[[[-81.470858,29.380687],[-81.470324,29.380697],[-81.470457,29.384216],[-81.4707,29.384565],[-81.470974,29.384586],[-81.470858,29.380687]]]}},{"type":"Feature","id":"12107:10-13-28-0000-0010-0040","properties":{"id":"12107:10-13-28-0000-0010-0040","parcelId":"10-13-28-0000-0010-0040","countyFips":"12107","countyName":"Putnam","state":"Florida","marketIds":["North-Central Florida"],"situsAddress":"590 CLIFTON RD CRESCENT CITY","situsCity":null,"situsZip":null,"jurisdictionCode":"Unincorporated Putnam County","ownerName":"REEVES GARY B + MARY ANN H/W","ownerName2":null,"propertyName":null,"zoningCode":null,"zoningDistrict":null,"jurisdictionPrefix":null,"dorCode":"00100","acreage":12.37,"centroid":[-81.457051,29.37971],"lastSale":{"date":null,"price":null,"qualified":null},"tax":{"marketValue":136710.0,"assessedValue":136710.0,"taxableValue":136710.0,"taxes":null},"mailingAddress":{"line1":"1643 JUNO ISLES BLVD","line2":null,"city":"NORTH PALM BEACH","state":"FL","zip":"33408"},"incomeTract":null,"incomeBlockGroup":null,"nearestRoad":null,"flu":null,"opportunityZone":null,"oz2Eligibility":null,"source":"fl-putnam-parcels-pa-12107","gisViewerUrl":"https://pamap.putnam-fl.gov/PropertyAppraiserPublicMap/","appraiserUrl":"https://apps.putnam-fl.com/pa/property/?type=api&parcel=10-13-28-0000-0010-0040"},"geometry":{"type":"Polygon","coordinates":[[[-81.457035,29.377541],[-81.456195,29.377788],[-81.456283,29.381738],[-81.457089,29.382057],[-81.457073,29.380737],[-81.457638,29.38018],[-81.4577,29.379959],[-81.4574,29.379704],[-81.457058,29.379495],[-81.457039,29.3779],[-81.457035,29.377541]]]}},{"type":"Feature","id":"12107:10-13-28-0000-0040-0010","properties":{"id":"12107:10-13-28-0000-0040-0010","parcelId":"10-13-28-0000-0040-0010","countyFips":"12107","countyName":"Putnam","state":"Florida","marketIds":["North-Central Florida"],"situsAddress":"555 CLIFTON RD CRESCENT CITY","situsCity":null,"situsZip":null,"jurisdictionCode":"Unincorporated Putnam County","ownerName":"LANE CHARLES M [MURCHISON]","ownerName2":null,"propertyName":null,"zoningCode":null,"zoningDistrict":null,"jurisdictionPrefix":null,"dorCode":"00200","acreage":25.7,"centroid":[-81.461532,29.377903],"lastSale":{"date":null,"price":null,"qualified":null},"tax":{"marketValue":277342.0,"assessedValue":93532.0,"taxableValue":93532.0,"taxes":null},"mailingAddress":{"line1":"206 FLORIDA AVE","line2":null,"city":"CRESCENT CITY","state":"FL","zip":"32112"},"incomeTract":null,"incomeBlockGroup":null,"nearestRoad":null,"flu":null,"opportunityZone":null,"oz2Eligibility":null,"source":"fl-putnam-parcels-pa-12107","gisViewerUrl":"https://pamap.putnam-fl.gov/PropertyAppraiserPublicMap/","appraiserUrl":"https://apps.putnam-fl.com/pa/property/?type=api&parcel=10-13-28-0000-0040-0010"},"geometry":{"type":"Polygon","coordinates":[[[-81.462588,29.375715],[-81.460767,29.376239],[-81.460404,29.376551],[-81.460366,29.380769],[-81.462463,29.380715],[-81.462602,29.377429],[-81.462588,29.375715]]]}},{"type":"Feature","id":"12107:09-13-28-0000-0113-0000","properties":{"id":"12107:09-13-28-0000-0113-0000","parcelId":"09-13-28-0000-0113-0000","countyFips":"12107","countyName":"Putnam","state":"Florida","marketIds":["North-Central Florida"],"situsAddress":"436 CLIFTON RD CRESCENT CITY","situsCity":null,"situsZip":null,"jurisdictionCode":"Unincorporated Putnam County","ownerName":"NELSON ASHTON","ownerName2":null,"propertyName":null,"zoningCode":null,"zoningDistrict":null,"jurisdictionPrefix":null,"dorCode":"00200","acreage":14.46,"centroid":[-81.480978,29.383048],"lastSale":{"date":null,"price":null,"qualified":null},"tax":{"marketValue":255560.0,"assessedValue":52490.0,"taxableValue":27490.0,"taxes":null},"mailingAddress":{"line1":"436 CLIFTON RD","line2":null,"city":"CRESCENT CITY","state":"FL","zip":"32112"},"incomeTract":null,"incomeBlockGroup":null,"nearestRoad":null,"flu":null,"opportunityZone":null,"oz2Eligibility":null,"source":"fl-putnam-parcels-pa-12107","gisViewerUrl":"https://pamap.putnam-fl.gov/PropertyAppraiserPublicMap/","appraiserUrl":"https://apps.putnam-fl.com/pa/property/?type=api&parcel=09-13-28-0000-0113-0000"},"geometry":{"type":"Polygon","coordinates":[[[-81.481581,29.380404],[-81.480287,29.380453],[-81.480357,29.384709],[-81.481041,29.384727],[-81.481622,29.384946],[-81.481581,29.380404]]]}},{"type":"Feature","id":"12107:10-13-28-0000-0090-0000","properties":{"id":"12107:10-13-28-0000-0090-0000","parcelId":"10-13-28-0000-0090-0000","countyFips":"12107","countyName":"Putnam","state":"Florida","marketIds":["North-Central Florida"],"situsAddress":"504 CLIFTON RD CRESCENT CITY","situsCity":null,"situsZip":null,"jurisdictionCode":"Unincorporated Putnam County","ownerName":"MITCHELL KENNETH W + LAURA J H/W","ownerName2":null,"propertyName":null,"zoningCode":null,"zoningDistrict":null,"jurisdictionPrefix":null,"dorCode":"00100","acreage":5.38,"centroid":[-81.470153,29.382719],"lastSale":{"date":null,"price":null,"qualified":null},"tax":{"marketValue":483780.0,"assessedValue":352540.0,"taxableValue":327540.0,"taxes":null},"mailingAddress":{"line1":"504 CLIFTON RD","line2":null,"city":"CRESCENT CITY","state":"FL","zip":"32112"},"incomeTract":null,"incomeBlockGroup":null,"nearestRoad":null,"flu":null,"opportunityZone":null,"oz2Eligibility":null,"source":"fl-putnam-parcels-pa-12107","gisViewerUrl":"https://pamap.putnam-fl.gov/PropertyAppraiserPublicMap/","appraiserUrl":"https://apps.putnam-fl.com/pa/property/?type=api&parcel=10-13-28-0000-0090-0000"},"geometry":{"type":"Polygon","coordinates":[[[-81.470324,29.380697],[-81.469794,29.380706],[-81.469882,29.383909],[-81.470309,29.384067],[-81.470457,29.384216],[-81.470324,29.380697]]]}},{"type":"Feature","id":"12107:10-13-28-0000-0010-0000","properties":{"id":"12107:10-13-28-0000-0010-0000","parcelId":"10-13-28-0000-0010-0000","countyFips":"12107","countyName":"Putnam","state":"Florida","marketIds":["North-Central Florida"],"situsAddress":"574 CLIFTON RD CRESCENT CITY","situsCity":null,"situsZip":null,"jurisdictionCode":"Unincorporated Putnam County","ownerName":"WARD GARLY D","ownerName2":null,"propertyName":null,"zoningCode":null,"zoningDistrict":null,"jurisdictionPrefix":null,"dorCode":"00100","acreage":5.81,"centroid":[-81.457565,29.380533],"lastSale":{"date":null,"price":null,"qualified":null},"tax":{"marketValue":474730.0,"assessedValue":474730.0,"taxableValue":474730.0,"taxes":null},"mailingAddress":{"line1":"574 CLIFTON RD","line2":null,"city":"CRESCENT CITY","state":"FL","zip":"32112"},"incomeTract":null,"incomeBlockGroup":null,"nearestRoad":null,"flu":null,"opportunityZone":null,"oz2Eligibility":null,"source":"fl-putnam-parcels-pa-12107","gisViewerUrl":"https://pamap.putnam-fl.gov/PropertyAppraiserPublicMap/","appraiserUrl":"https://apps.putnam-fl.com/pa/property/?type=api&parcel=10-13-28-0000-0010-0000"},"geometry":{"type":"Polygon","coordinates":[[[-81.457056,29.379367],[-81.457058,29.379495],[-81.4574,29.379704],[-81.4577,29.379959],[-81.457638,29.38018],[-81.457073,29.380737],[-81.457089,29.382057],[-81.457759,29.382318],[-81.457791,29.382306],[-81.458257,29.382445],[-81.458219,29.380458],[-81.458019,29.38012],[-81.457752,29.379819],[-81.457514,29.379624],[-81.457153,29.379411],[-81.457056,29.379367]]]}},{"type":"Feature","id":"12107:10-13-28-0000-0100-0010","properties":{"id":"12107:10-13-28-0000-0100-0010","parcelId":"10-13-28-0000-0100-0010","countyFips":"12107","countyName":"Putnam","state":"Florida","marketIds":["North-Central Florida"],"situsAddress":"00 Unassigned Location RE","situsCity":null,"situsZip":null,"jurisdictionCode":"Unincorporated Putnam County","ownerName":"LANE CHARLES M [MURCHISON]","ownerName2":null,"propertyName":null,"zoningCode":null,"zoningDistrict":null,"jurisdictionPrefix":null,"dorCode":"06500","acreage":37.17,"centroid":[-81.46894,29.379185],"lastSale":{"date":null,"price":null,"qualified":null},"tax":{"marketValue":297360.0,"assessedValue":7520.0,"taxableValue":7520.0,"taxes":null},"mailingAddress":{"line1":"206 FLORIDA AVE","line2":null,"city":"CRESCENT CITY","state":"FL","zip":"32112"},"incomeTract":null,"incomeBlockGroup":null,"nearestRoad":null,"flu":null,"opportunityZone":null,"oz2Eligibility":null,"source":"fl-putnam-parcels-pa-12107","gisViewerUrl":"https://pamap.putnam-fl.gov/PropertyAppraiserPublicMap/","appraiserUrl":"https://apps.putnam-fl.com/pa/property/?type=api&parcel=10-13-28-0000-0100-0010"},"geometry":{"type":"Polygon","coordinates":[[[-81.470747,29.377081],[-81.466626,29.377268],[-81.466651,29.380591],[-81.469415,29.380515],[-81.469399,29.37984],[-81.470802,29.379813],[-81.470747,29.377081]]]}},{"type":"Feature","id":"12107:15-13-28-0000-0040-0000","properties":{"id":"12107:15-13-28-0000-0040-0000","parcelId":"15-13-28-0000-0040-0000","countyFips":"12107","countyName":"Putnam","state":"Florida","marketIds":["North-Central Florida"],"situsAddress":"499 CLIFTON RD CRESCENT CITY","situsCity":null,"situsZip":null,"jurisdictionCode":"Unincorporated Putnam County","ownerName":"REGISTER CHERIE NELSON+CHERIE N REGISTER LIFE EST","ownerName2":null,"propertyName":null,"zoningCode":null,"zoningDistrict":null,"jurisdictionPrefix":null,"dorCode":"00200","acreage":31.75,"centroid":[-81.469077,29.375757],"lastSale":{"date":null,"price":null,"qualified":null},"tax":{"marketValue":443790.0,"assessedValue":103490.0,"taxableValue":78490.0,"taxes":null},"mailingAddress":{"line1":"499 CLIFTON ROAD","line2":null,"city":"CRESCENT CITY","state":"FL","zip":"32112"},"incomeTract":null,"incomeBlockGroup":null,"nearestRoad":null,"flu":null,"opportunityZone":null,"oz2Eligibility":null,"source":"fl-putnam-parcels-pa-12107","gisViewerUrl":"https://pamap.putnam-fl.gov/PropertyAppraiserPublicMap/","appraiserUrl":"https://apps.putnam-fl.com/pa/property/?type=api&parcel=15-13-28-0000-0040-0000"},"geometry":{"type":"Polygon","coordinates":[[[-81.470733,29.373522],[-81.466542,29.374747],[-81.466626,29.377268],[-81.470747,29.377081],[-81.470735,29.376168],[-81.470733,29.373522]]]}},{"type":"Feature","id":"12107:10-13-28-0000-0020-0020","properties":{"id":"12107:10-13-28-0000-0020-0020","parcelId":"10-13-28-0000-0020-0020","countyFips":"12107","countyName":"Putnam","state":"Florida","marketIds":["North-Central Florida"],"situsAddress":"572 CLIFTON RD CRESCENT CITY","situsCity":null,"situsZip":null,"jurisdictionCode":"Unincorporated Putnam County","ownerName":"D+P PENNINGTON TRUST","ownerName2":null,"propertyName":null,"zoningCode":null,"zoningDistrict":null,"jurisdictionPrefix":null,"dorCode":"09900","acreage":5.38,"centroid":[-81.458354,29.381697],"lastSale":{"date":null,"price":null,"qualified":null},"tax":{"marketValue":140950.0,"assessedValue":140950.0,"taxableValue":140950.0,"taxes":null},"mailingAddress":{"line1":"11628 MANDARIN TERR","line2":null,"city":"JACKSONVILLE","state":"FL","zip":"32223"},"incomeTract":null,"incomeBlockGroup":null,"nearestRoad":null,"flu":null,"opportunityZone":null,"oz2Eligibility":null,"source":"fl-putnam-parcels-pa-12107","gisViewerUrl":"https://pamap.putnam-fl.gov/PropertyAppraiserPublicMap/","appraiserUrl":"https://apps.putnam-fl.com/pa/property/?type=api&parcel=10-13-28-0000-0020-0020"},"geometry":{"type":"Polygon","coordinates":[[[-81.458477,29.380929],[-81.458228,29.380933],[-81.458257,29.382445],[-81.458454,29.382482],[-81.458477,29.380929]],[[-81.458434,29.37713],[-81.458467,29.377842],[-81.458595,29.380796],[-81.458226,29.380802],[-81.458158,29.377211],[-81.458434,29.37713]]]}},{"type":"Feature","id":"12107:09-13-28-0000-0170-0000","properties":{"id":"12107:09-13-28-0000-0170-0000","parcelId":"09-13-28-0000-0170-0000","countyFips":"12107","countyName":"Putnam","state":"Florida","marketIds":["North-Central Florida"],"situsAddress":"414 CLIFTON RD CRESCENT CITY","situsCity":null,"situsZip":null,"jurisdictionCode":"Unincorporated Putnam County","ownerName":"MACC LLC","ownerName2":null,"propertyName":null,"zoningCode":null,"zoningDistrict":null,"jurisdictionPrefix":null,"dorCode":"00100","acreage":7.63,"centroid":[-81.485294,29.382464],"lastSale":{"date":null,"price":null,"qualified":null},"tax":{"marketValue":397290.0,"assessedValue":397290.0,"taxableValue":397290.0,"taxes":null},"mailingAddress":{"line1":"2 ALHAMBRA PLAZA SUITE 1040","line2":null,"city":"CORAL GABLES","state":"FL","zip":"33134"},"incomeTract":null,"incomeBlockGroup":null,"nearestRoad":null,"flu":null,"opportunityZone":null,"oz2Eligibility":null,"source":"fl-putnam-parcels-pa-12107","gisViewerUrl":"https://pamap.putnam-fl.gov/PropertyAppraiserPublicMap/","appraiserUrl":"https://apps.putnam-fl.com/pa/property/?type=api&parcel=09-13-28-0000-0170-0000"},"geometry":{"type":"Polygon","coordinates":[[[-81.48516,29.380299],[-81.48489,29.380304],[-81.484981,29.385289],[-81.485287,29.385354],[-81.485722,29.385327],[-81.485605,29.382519],[-81.485587,29.381484],[-81.485267,29.381496],[-81.485264,29.381281],[-81.485174,29.381285],[-81.48516,29.380299]]]}},{"type":"Feature","id":"12107:10-13-28-0000-0020-0000","properties":{"id":"12107:10-13-28-0000-0020-0000","parcelId":"10-13-28-0000-0020-0000","countyFips":"12107","countyName":"Putnam","state":"Florida","marketIds":["North-Central Florida"],"situsAddress":"00 Unassigned Location RE","situsCity":null,"situsZip":null,"jurisdictionCode":"Unincorporated Putnam County","ownerName":"THOMAS ZELMA GRACE","ownerName2":null,"propertyName":null,"zoningCode":null,"zoningDistrict":null,"jurisdictionPrefix":null,"dorCode":"09900","acreage":7.8,"centroid":[-81.459323,29.379296],"lastSale":{"date":null,"price":null,"qualified":null},"tax":{"marketValue":93600.0,"assessedValue":93600.0,"taxableValue":93600.0,"taxes":null},"mailingAddress":{"line1":"100 ADELAIDE TRAIL","line2":null,"city":"BLUE RIDGE","state":"GA","zip":"30513"},"incomeTract":null,"incomeBlockGroup":null,"nearestRoad":null,"flu":null,"opportunityZone":null,"oz2Eligibility":null,"source":"fl-putnam-parcels-pa-12107","gisViewerUrl":"https://pamap.putnam-fl.gov/PropertyAppraiserPublicMap/","appraiserUrl":"https://apps.putnam-fl.com/pa/property/?type=api&parcel=10-13-28-0000-0020-0000"},"geometry":{"type":"Polygon","coordinates":[[[-81.459775,29.377789],[-81.458895,29.377824],[-81.458872,29.380792],[-81.459749,29.380779],[-81.459775,29.377789]]]}},{"type":"Feature","id":"12107:09-13-28-0000-0113-0020","properties":{"id":"12107:09-13-28-0000-0113-0020","parcelId":"09-13-28-0000-0113-0020","countyFips":"12107","countyName":"Putnam","state":"Florida","marketIds":["North-Central Florida"],"situsAddress":"00 Unassigned Location RE","situsCity":null,"situsZip":null,"jurisdictionCode":"Unincorporated Putnam County","ownerName":"NELSON ASHTON ET AL","ownerName2":null,"propertyName":null,"zoningCode":null,"zoningDistrict":null,"jurisdictionPrefix":null,"dorCode":"06400","acreage":15.55,"centroid":[-81.482283,29.383157],"lastSale":{"date":null,"price":null,"qualified":null},"tax":{"marketValue":92470.0,"assessedValue":9540.0,"taxableValue":9540.0,"taxes":null},"mailingAddress":{"line1":"510 CLIFTON RD","line2":null,"city":"CRESCENT CITY","state":"FL","zip":"32112"},"incomeTract":null,"incomeBlockGroup":null,"nearestRoad":null,"flu":null,"opportunityZone":null,"oz2Eligibility":null,"source":"fl-putnam-parcels-pa-12107","gisViewerUrl":"https://pamap.putnam-fl.gov/PropertyAppraiserPublicMap/","appraiserUrl":"https://apps.putnam-fl.com/pa/property/?type=api&parcel=09-13-28-0000-0113-0020"},"geometry":{"type":"Polygon","coordinates":[[[-81.482838,29.380356],[-81.481581,29.380404],[-81.481622,29.384946],[-81.482491,29.385002],[-81.482881,29.385076],[-81.482838,29.380356]]]}},{"type":"Feature","id":"12107:16-13-28-0000-0010-0020","properties":{"id":"12107:16-13-28-0000-0010-0020","parcelId":"16-13-28-0000-0010-0020","countyFips":"12107","countyName":"Putnam","state":"Florida","marketIds":["North-Central Florida"],"situsAddress":"495 CLIFTON RD CRESCENT CITY","situsCity":null,"situsZip":null,"jurisdictionCode":"Unincorporated Putnam County","ownerName":"CUNNINGHAM SUSAN M","ownerName2":null,"propertyName":null,"zoningCode":null,"zoningDistrict":null,"jurisdictionPrefix":null,"dorCode":"00200","acreage":5.0,"centroid":[-81.471124,29.374788],"lastSale":{"date":null,"price":null,"qualified":null},"tax":{"marketValue":225620.0,"assessedValue":93850.0,"taxableValue":68850.0,"taxes":null},"mailingAddress":{"line1":"495 CLIFTON RD","line2":null,"city":"CRESCENT CITY","state":"FL","zip":"32112"},"incomeTract":null,"incomeBlockGroup":null,"nearestRoad":null,"flu":null,"opportunityZone":null,"oz2Eligibility":null,"source":"fl-putnam-parcels-pa-12107","gisViewerUrl":"https://pamap.putnam-fl.gov/PropertyAppraiserPublicMap/","appraiserUrl":"https://apps.putnam-fl.com/pa/property/?type=api&parcel=16-13-28-0000-0010-0020"},"geometry":{"type":"Polygon","coordinates":[[[-81.471498,29.373328],[-81.470733,29.373522],[-81.470735,29.376168],[-81.471528,29.376135],[-81.471498,29.373328]]]}},{"type":"Feature","id":"12107:09-13-28-0000-0110-0020","properties":{"id":"12107:09-13-28-0000-0110-0020","parcelId":"09-13-28-0000-0110-0020","countyFips":"12107","countyName":"Putnam","state":"Florida","marketIds":["North-Central Florida"],"situsAddress":"481 CLIFTON RD CRESCENT CITY","situsCity":null,"situsZip":null,"jurisdictionCode":"Unincorporated Putnam County","ownerName":"FLAMAN CATHERINE M","ownerName2":null,"propertyName":null,"zoningCode":null,"zoningDistrict":null,"jurisdictionPrefix":null,"dorCode":"00200","acreage":15.15,"centroid":[-81.473252,29.378719],"lastSale":{"date":null,"price":null,"qualified":null},"tax":{"marketValue":454090.0,"assessedValue":212920.0,"taxableValue":187920.0,"taxes":null},"mailingAddress":{"line1":"481 CLIFTON RD","line2":null,"city":"CRESCENT CITY","state":"FL","zip":"32112"},"incomeTract":null,"incomeBlockGroup":null,"nearestRoad":null,"flu":null,"opportunityZone":null,"oz2Eligibility":null,"source":"fl-putnam-parcels-pa-12107","gisViewerUrl":"https://pamap.putnam-fl.gov/PropertyAppraiserPublicMap/","appraiserUrl":"https://apps.putnam-fl.com/pa/property/?type=api&parcel=09-13-28-0000-0110-0020"},"geometry":{"type":"Polygon","coordinates":[[[-81.473979,29.376985],[-81.472464,29.377013],[-81.472514,29.380471],[-81.474051,29.380406],[-81.473979,29.376985]]]}},{"type":"Feature","id":"12107:15-13-28-0000-0030-0000","properties":{"id":"12107:15-13-28-0000-0030-0000","parcelId":"15-13-28-0000-0030-0000","countyFips":"12107","countyName":"Putnam","state":"Florida","marketIds":["North-Central Florida"],"situsAddress":"00 Unassigned Location RE","situsCity":null,"situsZip":null,"jurisdictionCode":"Unincorporated Putnam County","ownerName":"LANE CHARLES M [MURCHISON]","ownerName2":null,"propertyName":null,"zoningCode":null,"zoningDistrict":null,"jurisdictionPrefix":null,"dorCode":"06700","acreage":21.34,"centroid":[-81.464589,29.376289],"lastSale":{"date":null,"price":null,"qualified":null},"tax":{"marketValue":172200.0,"assessedValue":13390.0,"taxableValue":13390.0,"taxes":null},"mailingAddress":{"line1":"206 FLORIDA AVE","line2":null,"city":"CRESCENT CITY","state":"FL","zip":"32112"},"incomeTract":null,"incomeBlockGroup":null,"nearestRoad":null,"flu":null,"opportunityZone":null,"oz2Eligibility":null,"source":"fl-putnam-parcels-pa-12107","gisViewerUrl":"https://pamap.putnam-fl.gov/PropertyAppraiserPublicMap/","appraiserUrl":"https://apps.putnam-fl.com/pa/property/?type=api&parcel=15-13-28-0000-0030-0000"},"geometry":{"type":"Polygon","coordinates":[[[-81.466542,29.374747],[-81.462588,29.375715],[-81.462602,29.377429],[-81.466625,29.377264],[-81.466542,29.374747]]]}},{"type":"Feature","id":"12107:11-13-28-0000-0010-0000","properties":{"id":"12107:11-13-28-0000-0010-0000","parcelId":"11-13-28-0000-0010-0000","countyFips":"12107","countyName":"Putnam","state":"Florida","marketIds":["North-Central Florida"],"situsAddress":"00 Unassigned Location RE","situsCity":null,"situsZip":null,"jurisdictionCode":"Unincorporated Putnam County","ownerName":"TIITF/DEP-REC + PARKS HAW CREEK ST PRESERVE","ownerName2":null,"propertyName":null,"zoningCode":null,"zoningDistrict":null,"jurisdictionPrefix":null,"dorCode":"08200","acreage":7.2,"centroid":[-81.453528,29.37897],"lastSale":{"date":null,"price":null,"qualified":null},"tax":{"marketValue":25170.0,"assessedValue":25170.0,"taxableValue":null,"taxes":null},"mailingAddress":{"line1":"3900 COMMONWEALTH BLVD MAIL STATION 108","line2":null,"city":"TALLAHASSEE","state":"FL","zip":"32399"},"incomeTract":null,"incomeBlockGroup":null,"nearestRoad":null,"flu":null,"opportunityZone":null,"oz2Eligibility":null,"source":"fl-putnam-parcels-pa-12107","gisViewerUrl":"https://pamap.putnam-fl.gov/PropertyAppraiserPublicMap/","appraiserUrl":"https://apps.putnam-fl.com/pa/property/?type=api&parcel=11-13-28-0000-0010-0000"},"geometry":{"type":"Polygon","coordinates":[[[-81.453981,29.378438],[-81.452991,29.378729],[-81.453147,29.378832],[-81.453414,29.37912],[-81.454108,29.379732],[-81.453981,29.378438]]]}},{"type":"Feature","id":"12107:09-13-28-0000-0180-0000","properties":{"id":"12107:09-13-28-0000-0180-0000","parcelId":"09-13-28-0000-0180-0000","countyFips":"12107","countyName":"Putnam","state":"Florida","marketIds":["North-Central Florida"],"situsAddress":"423 CLIFTON RD CRESCENT CITY","situsCity":null,"situsZip":null,"jurisdictionCode":"Unincorporated Putnam County","ownerName":"REVELS LANDHOLDING COMPANY LLC","ownerName2":null,"propertyName":null,"zoningCode":null,"zoningDistrict":null,"jurisdictionPrefix":null,"dorCode":"05100","acreage":129.01,"centroid":[-81.480667,29.378847],"lastSale":{"date":null,"price":null,"qualified":null},"tax":{"marketValue":365030.0,"assessedValue":76130.0,"taxableValue":76130.0,"taxes":null},"mailingAddress":{"line1":"8850 COWPEN BRANCH RD","line2":null,"city":"HASTINGS","state":"FL","zip":"32145"},"incomeTract":null,"incomeBlockGroup":null,"nearestRoad":null,"flu":null,"opportunityZone":null,"oz2Eligibility":null,"source":"fl-putnam-parcels-pa-12107","gisViewerUrl":"https://pamap.putnam-fl.gov/PropertyAppraiserPublicMap/","appraiserUrl":"https://apps.putnam-fl.com/pa/property/?type=api&parcel=09-13-28-0000-0180-0000"},"geometry":{"type":"Polygon","coordinates":[[[-81.487373,29.37647],[-81.473979,29.376985],[-81.474051,29.380406],[-81.480288,29.380278],[-81.487642,29.380098],[-81.487373,29.37647]]]}},{"type":"Feature","id":"12107:10-13-28-0000-0010-0020","properties":{"id":"12107:10-13-28-0000-0010-0020","parcelId":"10-13-28-0000-0010-0020","countyFips":"12107","countyName":"Putnam","state":"Florida","marketIds":["North-Central Florida"],"situsAddress":"00 Unassigned Location RE","situsCity":null,"situsZip":null,"jurisdictionCode":"Unincorporated Putnam County","ownerName":"DELANEY ADAM EDGAR + KAITLIN H/W","ownerName2":null,"propertyName":null,"zoningCode":null,"zoningDistrict":null,"jurisdictionPrefix":null,"dorCode":"09900","acreage":10.39,"centroid":[-81.455856,29.379328],"lastSale":{"date":"2024-07-01","price":20000.0,"qualified":"05"},"tax":{"marketValue":35520.0,"assessedValue":35520.0,"taxableValue":35520.0,"taxes":null},"mailingAddress":{"line1":"581 CLIFTON RD","line2":null,"city":"CRESCENT CITY","state":"FL","zip":"32112"},"incomeTract":null,"incomeBlockGroup":null,"nearestRoad":null,"flu":null,"opportunityZone":null,"oz2Eligibility":null,"source":"fl-putnam-parcels-pa-12107","gisViewerUrl":"https://pamap.putnam-fl.gov/PropertyAppraiserPublicMap/","appraiserUrl":"https://apps.putnam-fl.com/pa/property/?type=api&parcel=10-13-28-0000-0010-0020"},"geometry":{"type":"Polygon","coordinates":[[[-81.456195,29.377788],[-81.45527,29.37806],[-81.455334,29.381121],[-81.456283,29.381738],[-81.456199,29.377934],[-81.456195,29.377788]]]}},{"type":"Feature","id":"12107:10-13-28-0000-0060-0010","properties":{"id":"12107:10-13-28-0000-0060-0010","parcelId":"10-13-28-0000-0060-0010","countyFips":"12107","countyName":"Putnam","state":"Florida","marketIds":["North-Central Florida"],"situsAddress":"536 CLIFTON RD CRESCENT CITY","situsCity":null,"situsZip":null,"jurisdictionCode":"Unincorporated Putnam County","ownerName":"NELSON SAMUEL GEORGE + RENEE A H/W LIFE ESTATE","ownerName2":null,"propertyName":null,"zoningCode":null,"zoningDistrict":null,"jurisdictionPrefix":null,"dorCode":"00200","acreage":10.28,"centroid":[-81.464932,29.382198],"lastSale":{"date":null,"price":null,"qualified":null},"tax":{"marketValue":452690.0,"assessedValue":66780.0,"taxableValue":41780.0,"taxes":null},"mailingAddress":{"line1":"PO BOX 173","line2":null,"city":"CRESCENT CITY","state":"FL","zip":"32112"},"incomeTract":null,"incomeBlockGroup":null,"nearestRoad":null,"flu":null,"opportunityZone":null,"oz2Eligibility":null,"source":"fl-putnam-parcels-pa-12107","gisViewerUrl":"https://pamap.putnam-fl.gov/PropertyAppraiserPublicMap/","appraiserUrl":"https://apps.putnam-fl.com/pa/property/?type=api&parcel=10-13-28-0000-0060-0010"},"geometry":{"type":"Polygon","coordinates":[[[-81.465604,29.380783],[-81.463998,29.380829],[-81.464,29.383157],[-81.465459,29.383105],[-81.4656,29.383117],[-81.465604,29.380783]]]}}]}