{"type":"FeatureCollection","name":"13155-0_18","features":[{"type":"Feature","id":"13155:0110   000400A","properties":{"id":"13155:0110   000400A","parcelId":"0110   000400A","countyFips":"13155","countyName":"Irwin","state":"Georgia","marketIds":["Valdosta"],"situsAddress":"330.0 BROXTON HWY","situsCity":null,"situsZip":null,"jurisdictionCode":null,"ownerName":"SELLERS STEPHEN PAUL","ownerName2":null,"propertyName":null,"zoningCode":"AU","zoningDistrict":null,"jurisdictionPrefix":null,"dorCode":"V","acreage":20.0,"centroid":[-82.999268,31.665313],"lastSale":{"date":null,"price":null,"qualified":null},"tax":{"marketValue":504340.0,"assessedValue":null,"taxableValue":null,"taxes":null},"mailingAddress":{"line1":null,"line2":"330 BROXTON HIGHWAY","city":"WRAY","state":"GA","zip":"31798"},"incomeTract":null,"incomeBlockGroup":null,"nearestRoad":null,"flu":null,"opportunityZone":null,"oz2Eligibility":null,"source":"ga-irwin-parcels-13155","appraiserUrl":"https://qpublic.schneidercorp.com/Application.aspx?App=IrwinCountyGA&Layer=Parcels&PageType=Report&KeyValue=0110%20%20%20000400A","gisViewerUrl":"https://www.arcgis.com/apps/mapviewer/index.html?url=https://www.sgrcmaps.com/alma/rest/services/Irwin/ParcelInformation/MapServer"},"geometry":{"type":"Polygon","coordinates":[[[-82.998475,31.666025],[-82.998488,31.666023],[-82.998796,31.665988],[-82.998807,31.666084],[-82.999059,31.666175],[-82.999159,31.666028],[-82.999365,31.666217],[-82.999833,31.666337],[-83.00164,31.664082],[-82.999777,31.662758],[-82.99855,31.662722],[-82.998475,31.666025]]]}},{"type":"Feature","id":"13155:0110   0007","properties":{"id":"13155:0110   0007","parcelId":"0110   0007","countyFips":"13155","countyName":"Irwin","state":"Georgia","marketIds":["Valdosta"],"situsAddress":"0.0 BROXTON HWY","situsCity":null,"situsZip":null,"jurisdictionCode":null,"ownerName":"SIRMANS SANDRA GRIFFIN","ownerName2":null,"propertyName":null,"zoningCode":"AU","zoningDistrict":null,"jurisdictionPrefix":null,"dorCode":"V","acreage":16.44,"centroid":[-82.999161,31.662534],"lastSale":{"date":null,"price":null,"qualified":null},"tax":{"marketValue":59000.0,"assessedValue":null,"taxableValue":null,"taxes":null},"mailingAddress":{"line1":null,"line2":"3678 WILD MEADOW CIRCLE","city":"VALDOSTA","state":"GA","zip":"31605"},"incomeTract":null,"incomeBlockGroup":null,"nearestRoad":null,"flu":null,"opportunityZone":null,"oz2Eligibility":null,"source":"ga-irwin-parcels-13155","appraiserUrl":"https://qpublic.schneidercorp.com/Application.aspx?App=IrwinCountyGA&Layer=Parcels&PageType=Report&KeyValue=0110%20%20%200007","gisViewerUrl":"https://www.arcgis.com/apps/mapviewer/index.html?url=https://www.sgrcmaps.com/alma/rest/services/Irwin/ParcelInformation/MapServer"},"geometry":{"type":"Polygon","coordinates":[[[-82.99855,31.662722],[-82.999749,31.662757],[-82.999777,31.662758],[-82.998569,31.6619],[-82.99855,31.662722]]]}}]}