{"type":"FeatureCollection","name":"13217--3_25","features":[{"type":"Feature","id":"13217:01190-00000-001-Y00","properties":{"id":"13217:01190-00000-001-Y00","parcelId":"01190-00000-001-Y00","countyFips":"13217","countyName":"Newton","state":"Georgia","marketIds":["Atlanta"],"situsAddress":"MILL POND RD","situsCity":null,"situsZip":"30055","jurisdictionCode":null,"ownerName":null,"ownerName2":null,"propertyName":null,"zoningCode":null,"zoningDistrict":null,"jurisdictionPrefix":null,"dorCode":"A5 -- Agricultural Large Tracks","acreage":147.93,"centroid":[-83.731143,33.489925],"lastSale":{"date":"2018-12-21","price":964200.0,"qualified":null},"tax":{"marketValue":null,"assessedValue":null,"taxableValue":null,"taxes":null},"mailingAddress":{"line1":"54 BROWN FARM RD","line2":null,"city":"CARTERSVILLE","state":"GA","zip":"30120"},"incomeTract":null,"incomeBlockGroup":null,"nearestRoad":null,"flu":{"code":"Low Density Rural Residential","label":"Low Density Rural Residential","jurisdiction":"NEWTON","source":"negrc-newton-ca-454"},"opportunityZone":null,"oz2Eligibility":null,"source":"ga-newton-uofmd-parcels","appraiserUrl":"https://qpublic.schneidercorp.com/Application.aspx?App=NewtonCountyGA&Layer=Parcels&PageType=Report&KeyValue=01190-00000-001-Y00"},"geometry":{"type":"Polygon","coordinates":[[[-83.73391,33.483391],[-83.733625,33.483626],[-83.726772,33.489276],[-83.726802,33.489675],[-83.72814,33.491082],[-83.728363,33.491408],[-83.728654,33.491951],[-83.729477,33.493677],[-83.729618,33.493876],[-83.730104,33.493641],[-83.73753,33.491007],[-83.736996,33.488539],[-83.734874,33.48787],[-83.73391,33.483391]]]}},{"type":"Feature","id":"13217:01300-00000-011-B00","properties":{"id":"13217:01300-00000-011-B00","parcelId":"01300-00000-011-B00","countyFips":"13217","countyName":"Newton","state":"Georgia","marketIds":["Atlanta"],"situsAddress":"MILL POND RD","situsCity":null,"situsZip":"30056","jurisdictionCode":null,"ownerName":null,"ownerName2":null,"propertyName":null,"zoningCode":null,"zoningDistrict":null,"jurisdictionPrefix":null,"dorCode":"V5 -- Conservation Use Large Tracks","acreage":144.18,"centroid":[-83.716347,33.494033],"lastSale":{"date":"2003-05-07","price":null,"qualified":null},"tax":{"marketValue":null,"assessedValue":null,"taxableValue":null,"taxes":null},"mailingAddress":{"line1":"1285 MILL POND RD","line2":null,"city":"NEWBORN","state":"GA","zip":"30056"},"incomeTract":null,"incomeBlockGroup":null,"nearestRoad":null,"flu":{"code":"Low Density Rural Residential","label":"Low Density Rural Residential","jurisdiction":"NEWTON","source":"negrc-newton-ca-454"},"opportunityZone":null,"oz2Eligibility":null,"source":"ga-newton-uofmd-parcels","appraiserUrl":"https://qpublic.schneidercorp.com/Application.aspx?App=NewtonCountyGA&Layer=Parcels&PageType=Report&KeyValue=01300-00000-011-B00"},"geometry":{"type":"Polygon","coordinates":[[[-83.725806,33.495581],[-83.725954,33.495519],[-83.72454,33.494325],[-83.724039,33.493872],[-83.722775,33.492446],[-83.723162,33.492057],[-83.720495,33.490705],[-83.717412,33.488217],[-83.717359,33.488268],[-83.717369,33.488298],[-83.717323,33.488461],[-83.717115,33.488612],[-83.716673,33.488843],[-83.716301,33.489007],[-83.715319,33.489338],[-83.715041,33.489453],[-83.714009,33.489724],[-83.71358,33.489987],[-83.713452,33.490034],[-83.713319,33.490033],[-83.713192,33.489997],[-83.71302,33.48989],[-83.712804,33.489832],[-83.712509,33.489875],[-83.712122,33.490085],[-83.711495,33.490299],[-83.711112,33.490491],[-83.711032,33.490579],[-83.710897,33.490825],[-83.710607,33.491559],[-83.710543,33.491691],[-83.710436,33.491842],[-83.710197,33.492066],[-83.710037,33.492174],[-83.709668,33.492489],[-83.709494,33.492581],[-83.711731,33.494714],[-83.713438,33.496284],[-83.714875,33.495128],[-83.715568,33.494712],[-83.715871,33.494994],[-83.715892,33.495037],[-83.715599,33.495553],[-83.71553,33.495769],[-83.715522,33.495919],[-83.715549,33.49619],[-83.715595,33.496315],[-83.715712,33.496486],[-83.715937,33.496721],[-83.716125,33.496823],[-83.716343,33.496866],[-83.71672,33.49685],[-83.71688,33.496913],[-83.717526,33.49757],[-83.718404,33.498358],[-83.718709,33.498575],[-83.719054,33.498738],[-83.719139,33.498796],[-83.71961,33.499257],[-83.719743,33.499176],[-83.719336,33.498764],[-83.719152,33.498627],[-83.7188,33.498461],[-83.718609,33.498336],[-83.717651,33.497482],[-83.716986,33.496808],[-83.716874,33.496747],[-83.716747,33.496714],[-83.716353,33.496729],[-83.716189,33.496696],[-83.716048,33.496619],[-83.715844,33.496404],[-83.715748,33.496264],[-83.71571,33.496161],[-83.715686,33.495914],[-83.715693,33.495787],[-83.715751,33.495603],[-83.716038,33.495116],[-83.716056,33.49503],[-83.716006,33.494915],[-83.715703,33.494633],[-83.717424,33.4936],[-83.721143,33.493666],[-83.722652,33.492537],[-83.723912,33.493968],[-83.72442,33.49442],[-83.725806,33.495581]]]}},{"type":"Feature","id":"13217:01190-00000-001-X00","properties":{"id":"13217:01190-00000-001-X00","parcelId":"01190-00000-001-X00","countyFips":"13217","countyName":"Newton","state":"Georgia","marketIds":["Atlanta"],"situsAddress":"HWY 11","situsCity":null,"situsZip":"30055","jurisdictionCode":null,"ownerName":null,"ownerName2":null,"propertyName":null,"zoningCode":null,"zoningDistrict":null,"jurisdictionPrefix":null,"dorCode":"A5 -- Agricultural Large Tracks","acreage":129.75,"centroid":[-83.740594,33.483427],"lastSale":{"date":"2018-11-15","price":null,"qualified":null},"tax":{"marketValue":null,"assessedValue":null,"taxableValue":null,"taxes":null},"mailingAddress":{"line1":"54 BROWN FARM RD","line2":null,"city":"CARTERSVILLE","state":"GA","zip":"30120"},"incomeTract":null,"incomeBlockGroup":null,"nearestRoad":null,"flu":{"code":"Low Density Rural Residential","label":"Low Density Rural Residential","jurisdiction":"NEWTON","source":"negrc-newton-ca-454"},"opportunityZone":null,"oz2Eligibility":null,"source":"ga-newton-uofmd-parcels","appraiserUrl":"https://qpublic.schneidercorp.com/Application.aspx?App=NewtonCountyGA&Layer=Parcels&PageType=Report&KeyValue=01190-00000-001-X00"},"geometry":{"type":"Polygon","coordinates":[[[-83.736955,33.485004],[-83.737109,33.484981],[-83.737159,33.48486],[-83.737628,33.484626],[-83.73787,33.484581],[-83.73808,33.484682],[-83.738198,33.484702],[-83.738427,33.485014],[-83.738709,33.48524],[-83.739935,33.485797],[-83.740655,33.485175],[-83.742364,33.484809],[-83.743103,33.484952],[-83.743274,33.484267],[-83.743468,33.483649],[-83.743646,33.483218],[-83.743933,33.48266],[-83.744213,33.482196],[-83.744474,33.481827],[-83.745783,33.480224],[-83.742208,33.476696],[-83.740253,33.47816],[-83.73621,33.481494],[-83.736955,33.485004]]]}},{"type":"Feature","id":"13217:01390-00000-027-C00","properties":{"id":"13217:01390-00000-027-C00","parcelId":"01390-00000-027-C00","countyFips":"13217","countyName":"Newton","state":"Georgia","marketIds":["Atlanta"],"situsAddress":"STEVE POLK RD","situsCity":null,"situsZip":"30056","jurisdictionCode":null,"ownerName":null,"ownerName2":null,"propertyName":null,"zoningCode":null,"zoningDistrict":null,"jurisdictionPrefix":null,"dorCode":"V5 -- Conservation Use Large Tracks","acreage":126.55,"centroid":[-83.692332,33.499854],"lastSale":{"date":null,"price":null,"qualified":null},"tax":{"marketValue":null,"assessedValue":null,"taxableValue":null,"taxes":null},"mailingAddress":{"line1":"128 STEVE POLK RD","line2":null,"city":"NEWBORN","state":"GA","zip":"30056"},"incomeTract":null,"incomeBlockGroup":null,"nearestRoad":null,"flu":{"code":"Low Density Rural Residential","label":"Low Density Rural Residential","jurisdiction":"NEWTON","source":"negrc-newton-ca-454"},"opportunityZone":null,"oz2Eligibility":null,"source":"ga-newton-uofmd-parcels","appraiserUrl":"https://qpublic.schneidercorp.com/Application.aspx?App=NewtonCountyGA&Layer=Parcels&PageType=Report&KeyValue=01390-00000-027-C00"},"geometry":{"type":"Polygon","coordinates":[[[-83.694596,33.504083],[-83.69456,33.503744],[-83.695013,33.503589],[-83.694784,33.503003],[-83.695649,33.502974],[-83.695552,33.500508],[-83.695512,33.498261],[-83.695554,33.497501],[-83.695662,33.496829],[-83.695725,33.496564],[-83.693987,33.496883],[-83.693775,33.496894],[-83.693458,33.496844],[-83.693185,33.496743],[-83.692285,33.496327],[-83.690814,33.49557],[-83.690333,33.495382],[-83.689538,33.494973],[-83.688163,33.496829],[-83.687029,33.498404],[-83.68673,33.498762],[-83.686382,33.499311],[-83.685937,33.499938],[-83.692506,33.500107],[-83.692567,33.500602],[-83.692429,33.501131],[-83.692468,33.501385],[-83.692379,33.501544],[-83.692276,33.501631],[-83.692219,33.501777],[-83.692218,33.501944],[-83.692177,33.502091],[-83.692105,33.502184],[-83.692089,33.50233],[-83.692151,33.50257],[-83.692222,33.502651],[-83.692243,33.502747],[-83.694596,33.504083]]]}},{"type":"Feature","id":"13217:01310-00000-002-000","properties":{"id":"13217:01310-00000-002-000","parcelId":"01310-00000-002-000","countyFips":"13217","countyName":"Newton","state":"Georgia","marketIds":["Atlanta"],"situsAddress":"HENDERSON RD","situsCity":"Mansfield","situsZip":"30055","jurisdictionCode":null,"ownerName":null,"ownerName2":null,"propertyName":null,"zoningCode":null,"zoningDistrict":null,"jurisdictionPrefix":null,"dorCode":"V5 -- Conservation Use Large Tracks","acreage":115.98,"centroid":[-83.723547,33.485469],"lastSale":{"date":"2003-01-22","price":null,"qualified":null},"tax":{"marketValue":null,"assessedValue":null,"taxableValue":null,"taxes":null},"mailingAddress":{"line1":"165 HENDERSON ROAD","line2":null,"city":"MANSFIELD","state":"GA","zip":"30055"},"incomeTract":null,"incomeBlockGroup":null,"nearestRoad":null,"flu":{"code":"Low Density Rural Residential","label":"Low Density Rural Residential","jurisdiction":"NEWTON","source":"negrc-newton-ca-454"},"opportunityZone":null,"oz2Eligibility":null,"source":"ga-newton-uofmd-parcels","appraiserUrl":"https://qpublic.schneidercorp.com/Application.aspx?App=NewtonCountyGA&Layer=Parcels&PageType=Report&KeyValue=01310-00000-002-000"},"geometry":{"type":"MultiPolygon","coordinates":[[[[-83.720835,33.483948],[-83.719465,33.485688],[-83.720792,33.486356],[-83.721316,33.486601],[-83.723992,33.48776],[-83.72553,33.48839],[-83.725857,33.488032],[-83.72605,33.487776],[-83.726381,33.487107],[-83.726594,33.486566],[-83.726872,33.486106],[-83.727068,33.485821],[-83.727174,33.485595],[-83.727374,33.485244],[-83.727526,33.485019],[-83.727923,33.484526],[-83.728124,33.484227],[-83.726757,33.483094],[-83.721633,33.482331],[-83.718451,33.483158],[-83.716746,33.484673],[-83.719226,33.485592],[-83.719503,33.48524],[-83.718242,33.484679],[-83.719237,33.483202],[-83.720835,33.483948]]],[[[-83.728063,33.484598],[-83.727663,33.48509],[-83.727325,33.48565],[-83.727215,33.48588],[-83.726944,33.4863],[-83.728915,33.487509],[-83.730499,33.486203],[-83.728241,33.484332],[-83.728063,33.484598]]]]}},{"type":"Feature","id":"13217:01390-00000-027-000","properties":{"id":"13217:01390-00000-027-000","parcelId":"01390-00000-027-000","countyFips":"13217","countyName":"Newton","state":"Georgia","marketIds":["Atlanta"],"situsAddress":"STEVE POLK RD","situsCity":"Newborn","situsZip":"30056","jurisdictionCode":null,"ownerName":null,"ownerName2":null,"propertyName":null,"zoningCode":null,"zoningDistrict":null,"jurisdictionPrefix":null,"dorCode":"V5 -- Conservation Use Large Tracks","acreage":107.35,"centroid":[-83.693336,33.493925],"lastSale":{"date":"2017-04-25","price":null,"qualified":null},"tax":{"marketValue":null,"assessedValue":null,"taxableValue":null,"taxes":null},"mailingAddress":{"line1":"128 STEVE POLK RD","line2":null,"city":"NEWBORN","state":"GA","zip":"30056"},"incomeTract":null,"incomeBlockGroup":null,"nearestRoad":null,"flu":{"code":"Low Density Rural Residential","label":"Low Density Rural Residential","jurisdiction":"NEWTON","source":"negrc-newton-ca-454"},"opportunityZone":null,"oz2Eligibility":null,"source":"ga-newton-uofmd-parcels","appraiserUrl":"https://qpublic.schneidercorp.com/Application.aspx?App=NewtonCountyGA&Layer=Parcels&PageType=Report&KeyValue=01390-00000-027-000"},"geometry":{"type":"Polygon","coordinates":[[[-83.691809,33.49418],[-83.691327,33.494842],[-83.691258,33.495077],[-83.691302,33.495407],[-83.691297,33.495663],[-83.692366,33.496208],[-83.693257,33.496619],[-83.693514,33.496714],[-83.69378,33.496756],[-83.693964,33.496747],[-83.695759,33.496418],[-83.695793,33.496269],[-83.696056,33.49557],[-83.696205,33.495322],[-83.6964,33.495114],[-83.696571,33.495029],[-83.697161,33.494906],[-83.697284,33.494847],[-83.697348,33.494789],[-83.697381,33.494724],[-83.697386,33.494484],[-83.695457,33.492858],[-83.695368,33.492468],[-83.695249,33.492257],[-83.695118,33.492101],[-83.694063,33.491274],[-83.693705,33.490889],[-83.693553,33.490696],[-83.69337,33.490247],[-83.693078,33.48967],[-83.69285,33.489504],[-83.692339,33.489054],[-83.692155,33.488789],[-83.692131,33.488696],[-83.686801,33.493434],[-83.689455,33.494824],[-83.689483,33.494785],[-83.69041,33.49526],[-83.690894,33.49545],[-83.691232,33.49563],[-83.691202,33.495105],[-83.691282,33.494776],[-83.691361,33.494692],[-83.690986,33.494503],[-83.691376,33.493991],[-83.691809,33.49418]]]}},{"type":"Feature","id":"13217:01190-00000-001-J00","properties":{"id":"13217:01190-00000-001-J00","parcelId":"01190-00000-001-J00","countyFips":"13217","countyName":"Newton","state":"Georgia","marketIds":["Atlanta"],"situsAddress":"HWY 11","situsCity":"Newborn","situsZip":"30056","jurisdictionCode":null,"ownerName":null,"ownerName2":null,"propertyName":null,"zoningCode":null,"zoningDistrict":null,"jurisdictionPrefix":null,"dorCode":"V5 -- Conservation Use Large Tracks","acreage":92.44,"centroid":[-83.734346,33.495559],"lastSale":{"date":"2017-01-12","price":416000.0,"qualified":null},"tax":{"marketValue":null,"assessedValue":null,"taxableValue":null,"taxes":null},"mailingAddress":{"line1":"2189 MONROE JERSEY RD","line2":null,"city":"MONROE","state":"GA","zip":"30655"},"incomeTract":null,"incomeBlockGroup":null,"nearestRoad":null,"flu":{"code":"Low Density Rural Residential","label":"Low Density Rural Residential","jurisdiction":"NEWTON","source":"negrc-newton-ca-454"},"opportunityZone":null,"oz2Eligibility":null,"source":"ga-newton-uofmd-parcels","appraiserUrl":"https://qpublic.schneidercorp.com/Application.aspx?App=NewtonCountyGA&Layer=Parcels&PageType=Report&KeyValue=01190-00000-001-J00"},"geometry":{"type":"MultiPolygon","coordinates":[[[[-83.735576,33.497963],[-83.73571,33.497981],[-83.735824,33.497723],[-83.736164,33.497097],[-83.737711,33.494682],[-83.740551,33.490109],[-83.739119,33.490593],[-83.730177,33.493764],[-83.729709,33.493991],[-83.731042,33.495468],[-83.731472,33.496123],[-83.731722,33.496422],[-83.731898,33.496554],[-83.732945,33.496916],[-83.735573,33.497995],[-83.735576,33.497963]]],[[[-83.735697,33.498046],[-83.735701,33.498012],[-83.735573,33.497995],[-83.735697,33.498046]]]]}},{"type":"Feature","id":"13217:01310-00000-001-000","properties":{"id":"13217:01310-00000-001-000","parcelId":"01310-00000-001-000","countyFips":"13217","countyName":"Newton","state":"Georgia","marketIds":["Atlanta"],"situsAddress":"HENDERSON RD","situsCity":"Mansfield","situsZip":"30055","jurisdictionCode":null,"ownerName":null,"ownerName2":null,"propertyName":null,"zoningCode":null,"zoningDistrict":null,"jurisdictionPrefix":null,"dorCode":"V5 -- Conservation Use Large Tracks","acreage":72.57,"centroid":[-83.729583,33.483124],"lastSale":{"date":"2003-01-22","price":null,"qualified":null},"tax":{"marketValue":null,"assessedValue":null,"taxableValue":null,"taxes":null},"mailingAddress":{"line1":"255 HENDERSON RD","line2":null,"city":"MANSFIELD","state":"GA","zip":"30055"},"incomeTract":null,"incomeBlockGroup":null,"nearestRoad":null,"flu":{"code":"Low Density Rural Residential","label":"Low Density Rural Residential","jurisdiction":"NEWTON","source":"negrc-newton-ca-454"},"opportunityZone":null,"oz2Eligibility":null,"source":"ga-newton-uofmd-parcels","appraiserUrl":"https://qpublic.schneidercorp.com/Application.aspx?App=NewtonCountyGA&Layer=Parcels&PageType=Report&KeyValue=01310-00000-001-000"},"geometry":{"type":"MultiPolygon","coordinates":[[[[-83.730681,33.4812],[-83.730615,33.481316],[-83.730392,33.481647],[-83.729454,33.482622],[-83.729059,33.482968],[-83.728637,33.483184],[-83.728511,33.483269],[-83.728433,33.483361],[-83.728305,33.483595],[-83.728315,33.484093],[-83.728281,33.484273],[-83.728241,33.484332],[-83.730499,33.486203],[-83.733625,33.483626],[-83.730697,33.481174],[-83.730681,33.4812]]],[[[-83.729469,33.480339],[-83.728691,33.480496],[-83.721633,33.482331],[-83.726757,33.483094],[-83.728124,33.484227],[-83.728158,33.483934],[-83.728135,33.483715],[-83.728142,33.483563],[-83.728291,33.483291],[-83.728391,33.483175],[-83.728539,33.483073],[-83.72895,33.482864],[-83.729331,33.482531],[-83.730256,33.48157],[-83.730573,33.481077],[-83.729582,33.480316],[-83.729469,33.480339]]]]}},{"type":"Feature","id":"13217:01310-00000-010-000","properties":{"id":"13217:01310-00000-010-000","parcelId":"01310-00000-010-000","countyFips":"13217","countyName":"Newton","state":"Georgia","marketIds":["Atlanta"],"situsAddress":"HWY 11","situsCity":"Mansfield","situsZip":"30055","jurisdictionCode":null,"ownerName":null,"ownerName2":null,"propertyName":null,"zoningCode":null,"zoningDistrict":null,"jurisdictionPrefix":null,"dorCode":"E1 -- Exempt Property Improvements","acreage":68.1,"centroid":[-83.746708,33.476266],"lastSale":{"date":null,"price":null,"qualified":null},"tax":{"marketValue":null,"assessedValue":null,"taxableValue":null,"taxes":null},"mailingAddress":{"line1":"1 MARTIN LUTHER KING JR","line2":null,"city":"ATLANTA","state":"GA","zip":"30334"},"incomeTract":null,"incomeBlockGroup":null,"nearestRoad":null,"flu":{"code":"Low Density Rural Residential","label":"Low Density Rural Residential","jurisdiction":"NEWTON","source":"negrc-newton-ca-454"},"opportunityZone":null,"oz2Eligibility":null,"source":"ga-newton-uofmd-parcels","appraiserUrl":"https://qpublic.schneidercorp.com/Application.aspx?App=NewtonCountyGA&Layer=Parcels&PageType=Report&KeyValue=01310-00000-010-000"},"geometry":{"type":"Polygon","coordinates":[[[-83.746966,33.473006],[-83.745173,33.474475],[-83.742329,33.476605],[-83.745921,33.480056],[-83.747835,33.477713],[-83.746578,33.476544],[-83.747308,33.475875],[-83.748477,33.476908],[-83.749786,33.475214],[-83.746966,33.473006]]]}},{"type":"Feature","id":"13217:01190-00000-001-S00","properties":{"id":"13217:01190-00000-001-S00","parcelId":"01190-00000-001-S00","countyFips":"13217","countyName":"Newton","state":"Georgia","marketIds":["Atlanta"],"situsAddress":"HWY 11","situsCity":null,"situsZip":"30055","jurisdictionCode":null,"ownerName":null,"ownerName2":null,"propertyName":null,"zoningCode":null,"zoningDistrict":null,"jurisdictionPrefix":null,"dorCode":"V5 -- Conservation Use Large Tracks","acreage":59.63,"centroid":[-83.746399,33.496352],"lastSale":{"date":"2018-08-17","price":630000.0,"qualified":null},"tax":{"marketValue":null,"assessedValue":null,"taxableValue":null,"taxes":null},"mailingAddress":{"line1":"2189 MONROE JERSEY RD","line2":null,"city":"MONROE","state":"GA","zip":"30655"},"incomeTract":null,"incomeBlockGroup":null,"nearestRoad":null,"flu":{"code":"Low Density Rural Residential","label":"Low Density Rural Residential","jurisdiction":"NEWTON","source":"negrc-newton-ca-454"},"opportunityZone":null,"oz2Eligibility":null,"source":"ga-newton-uofmd-parcels","appraiserUrl":"https://qpublic.schneidercorp.com/Application.aspx?App=NewtonCountyGA&Layer=Parcels&PageType=Report&KeyValue=01190-00000-001-S00"},"geometry":{"type":"Polygon","coordinates":[[[-83.740857,33.500278],[-83.741215,33.500287],[-83.742218,33.500311],[-83.742974,33.499621],[-83.746773,33.498177],[-83.750248,33.499332],[-83.750644,33.498986],[-83.750568,33.498908],[-83.750475,33.498876],[-83.750303,33.498741],[-83.750217,33.498725],[-83.750155,33.498637],[-83.749762,33.498259],[-83.749645,33.498196],[-83.749337,33.498092],[-83.749245,33.498019],[-83.748999,33.497956],[-83.748616,33.497939],[-83.748381,33.49799],[-83.748191,33.497922],[-83.747956,33.497932],[-83.747888,33.497865],[-83.747815,33.49772],[-83.747754,33.497662],[-83.747699,33.497497],[-83.747533,33.497393],[-83.747447,33.497238],[-83.74738,33.497191],[-83.747275,33.497041],[-83.747245,33.496958],[-83.74719,33.496895],[-83.747147,33.49673],[-83.746932,33.496517],[-83.746656,33.496149],[-83.74654,33.496061],[-83.746528,33.495906],[-83.746547,33.495823],[-83.746523,33.495735],[-83.746468,33.495647],[-83.746456,33.495575],[-83.746531,33.495368],[-83.746686,33.495079],[-83.74665,33.494888],[-83.746694,33.494816],[-83.746762,33.494754],[-83.74709,33.494574],[-83.747238,33.494518],[-83.747337,33.494409],[-83.74761,33.494183],[-83.747715,33.494162],[-83.747777,33.494106],[-83.747901,33.493941],[-83.747914,33.493848],[-83.74789,33.493646],[-83.747841,33.493558],[-83.747675,33.493464],[-83.747577,33.493438],[-83.747447,33.493443],[-83.747342,33.493474],[-83.747231,33.493525],[-83.747156,33.493592],[-83.747119,33.493711],[-83.746964,33.493824],[-83.746772,33.493932],[-83.746537,33.493998],[-83.746438,33.494075],[-83.746389,33.494013],[-83.746347,33.493853],[-83.746224,33.493635],[-83.7462,33.493511],[-83.746133,33.493387],[-83.746133,33.493314],[-83.746029,33.493138],[-83.745975,33.492957],[-83.745932,33.49288],[-83.745883,33.492812],[-83.745673,33.492729],[-83.745624,33.492667],[-83.745656,33.49258],[-83.74566,33.492485],[-83.745634,33.492397],[-83.745582,33.492317],[-83.7455,33.492247],[-83.745402,33.4922],[-83.745072,33.492131],[-83.744786,33.492003],[-83.744591,33.491985],[-83.744404,33.491831],[-83.744372,33.491745],[-83.74426,33.491599],[-83.744125,33.491465],[-83.743828,33.491076],[-83.743781,33.49095],[-83.74359,33.490789],[-83.743493,33.490617],[-83.743396,33.490539],[-83.743273,33.490493],[-83.743147,33.490484],[-83.743025,33.490509],[-83.742914,33.490568],[-83.742834,33.490654],[-83.742795,33.490741],[-83.742787,33.490834],[-83.742812,33.490955],[-83.742872,33.491104],[-83.742961,33.491214],[-83.743124,33.491329],[-83.743152,33.491399],[-83.743277,33.491588],[-83.743305,33.491667],[-83.743533,33.491883],[-83.743678,33.492095],[-83.743892,33.492359],[-83.744158,33.492536],[-83.74433,33.492611],[-83.744405,33.492616],[-83.744489,33.492647],[-83.744859,33.492804],[-83.744895,33.493016],[-83.744937,33.493093],[-83.745085,33.49328],[-83.745165,33.493337],[-83.745318,33.493524],[-83.74533,33.493591],[-83.74555,33.493995],[-83.745593,33.494104],[-83.74544,33.494156],[-83.745319,33.49425],[-83.745243,33.494372],[-83.745223,33.494513],[-83.74527,33.494664],[-83.745383,33.494788],[-83.745544,33.494865],[-83.745725,33.494885],[-83.745632,33.494957],[-83.745532,33.495174],[-83.745519,33.495267],[-83.745525,33.495365],[-83.745617,33.495494],[-83.745635,33.495562],[-83.745653,33.495639],[-83.74564,33.495727],[-83.745769,33.49596],[-83.745762,33.496182],[-83.745712,33.496244],[-83.745632,33.496244],[-83.745459,33.496176],[-83.745065,33.496118],[-83.744935,33.496123],[-83.744695,33.496096],[-83.74451,33.495997],[-83.744289,33.495769],[-83.74408,33.495696],[-83.743771,33.495716],[-83.743653,33.495803],[-83.743412,33.495921],[-83.743054,33.495946],[-83.742937,33.495971],[-83.742838,33.496043],[-83.742319,33.496026],[-83.742128,33.495953],[-83.741925,33.495937],[-83.741814,33.495869],[-83.741685,33.495739],[-83.741346,33.495624],[-83.741143,33.495603],[-83.740675,33.495472],[-83.740477,33.495441],[-83.739842,33.495392],[-83.739738,33.495283],[-83.739627,33.495127],[-83.739285,33.494527],[-83.739162,33.494438],[-83.73902,33.494381],[-83.738724,33.494308],[-83.738471,33.494384],[-83.738282,33.494332],[-83.737769,33.495137],[-83.738134,33.495143],[-83.738307,33.495071],[-83.738597,33.495021],[-83.738702,33.495021],[-83.739192,33.495731],[-83.739328,33.495835],[-83.739506,33.496021],[-83.739592,33.496048],[-83.739765,33.496058],[-83.739882,33.496033],[-83.740147,33.496075],[-83.740394,33.496061],[-83.740739,33.496176],[-83.740961,33.496228],[-83.741134,33.496244],[-83.741189,33.496332],[-83.741447,33.496524],[-83.741552,33.496556],[-83.741922,33.496588],[-83.742168,33.496666],[-83.742366,33.496677],[-83.742507,33.496714],[-83.742674,33.496725],[-83.743304,33.496577],[-83.743403,33.496588],[-83.743514,33.496573],[-83.743798,33.496465],[-83.743878,33.496481],[-83.743971,33.496507],[-83.744075,33.496632],[-83.744137,33.496663],[-83.744334,33.496705],[-83.744562,33.496721],[-83.744771,33.496784],[-83.745068,33.496795],[-83.7454,33.496874],[-83.7459,33.496922],[-83.746042,33.496969],[-83.746319,33.497011],[-83.746411,33.497105],[-83.746533,33.497431],[-83.746471,33.497431],[-83.746213,33.497357],[-83.745935,33.497377],[-83.745805,33.497361],[-83.745564,33.497428],[-83.745466,33.497427],[-83.745274,33.497468],[-83.7452,33.49753],[-83.745131,33.497638],[-83.745032,33.497674],[-83.744841,33.497787],[-83.744636,33.497962],[-83.744395,33.498075],[-83.744296,33.498095],[-83.744203,33.498152],[-83.743788,33.498533],[-83.743596,33.498656],[-83.743132,33.498877],[-83.74278,33.498995],[-83.742501,33.499206],[-83.742254,33.499345],[-83.742024,33.499597],[-83.741968,33.499695],[-83.741894,33.49971],[-83.741734,33.499705],[-83.741444,33.499662],[-83.741272,33.499553],[-83.741173,33.499527],[-83.741124,33.499475],[-83.740982,33.499418],[-83.740811,33.499071],[-83.740756,33.499009],[-83.740658,33.498957],[-83.740442,33.49892],[-83.740318,33.498935],[-83.740046,33.499042],[-83.739978,33.49912],[-83.739916,33.499254],[-83.739915,33.499414],[-83.739952,33.499487],[-83.740099,33.499704],[-83.740221,33.499803],[-83.740437,33.499829],[-83.740499,33.499892],[-83.740634,33.49998],[-83.740757,33.500017],[-83.740837,33.50011],[-83.74096,33.500136],[-83.740948,33.500183],[-83.740857,33.500278]]]}},{"type":"Feature","id":"13217:01190-00000-001-I00","properties":{"id":"13217:01190-00000-001-I00","parcelId":"01190-00000-001-I00","countyFips":"13217","countyName":"Newton","state":"Georgia","marketIds":["Atlanta"],"situsAddress":"HWY 11","situsCity":"Mansfield","situsZip":"30055","jurisdictionCode":null,"ownerName":null,"ownerName2":null,"propertyName":null,"zoningCode":null,"zoningDistrict":null,"jurisdictionPrefix":null,"dorCode":"A5 -- Agricultural Large Tracks","acreage":48.65,"centroid":[-83.73943,33.486398],"lastSale":{"date":"2018-11-15","price":null,"qualified":null},"tax":{"marketValue":null,"assessedValue":null,"taxableValue":null,"taxes":null},"mailingAddress":{"line1":"54 BROWN FARM RD","line2":null,"city":"CARTERSVILLE","state":"GA","zip":"30120"},"incomeTract":null,"incomeBlockGroup":null,"nearestRoad":null,"flu":{"code":"Low Density Rural Residential","label":"Low Density Rural Residential","jurisdiction":"NEWTON","source":"negrc-newton-ca-454"},"opportunityZone":null,"oz2Eligibility":null,"source":"ga-newton-uofmd-parcels","appraiserUrl":"https://qpublic.schneidercorp.com/Application.aspx?App=NewtonCountyGA&Layer=Parcels&PageType=Report&KeyValue=01190-00000-001-I00"},"geometry":{"type":"Polygon","coordinates":[[[-83.737204,33.486174],[-83.738181,33.490776],[-83.739218,33.49041],[-83.73858,33.489153],[-83.740089,33.488615],[-83.741521,33.488666],[-83.74214,33.487647],[-83.742388,33.487147],[-83.742657,33.486436],[-83.743103,33.484952],[-83.742364,33.484809],[-83.740655,33.485175],[-83.739935,33.485797],[-83.738709,33.48524],[-83.738427,33.485014],[-83.738198,33.484702],[-83.73808,33.484682],[-83.737868,33.484581],[-83.738137,33.485201],[-83.737926,33.485594],[-83.737804,33.485586],[-83.73771,33.485651],[-83.737692,33.48573],[-83.737731,33.485804],[-83.737204,33.486174]]]}},{"type":"Feature","id":"13217:01400-00000-002-000","properties":{"id":"13217:01400-00000-002-000","parcelId":"01400-00000-002-000","countyFips":"13217","countyName":"Newton","state":"Georgia","marketIds":["Atlanta"],"situsAddress":"MILL POND RD","situsCity":"Newborn","situsZip":"30056","jurisdictionCode":null,"ownerName":null,"ownerName2":null,"propertyName":null,"zoningCode":null,"zoningDistrict":null,"jurisdictionPrefix":null,"dorCode":"V5 -- Conservation Use Large Tracks","acreage":47.0,"centroid":[-83.712537,33.487018],"lastSale":{"date":"2017-05-08","price":null,"qualified":null},"tax":{"marketValue":null,"assessedValue":null,"taxableValue":null,"taxes":null},"mailingAddress":{"line1":"PO BOX 917","line2":null,"city":"CONYERS","state":"GA","zip":"30012"},"incomeTract":null,"incomeBlockGroup":null,"nearestRoad":null,"flu":{"code":"Low Density Rural Residential","label":"Low Density Rural Residential","jurisdiction":"NEWTON","source":"negrc-newton-ca-454"},"opportunityZone":null,"oz2Eligibility":null,"source":"ga-newton-uofmd-parcels","appraiserUrl":"https://qpublic.schneidercorp.com/Application.aspx?App=NewtonCountyGA&Layer=Parcels&PageType=Report&KeyValue=01400-00000-002-000"},"geometry":{"type":"Polygon","coordinates":[[[-83.716623,33.484782],[-83.716588,33.484771],[-83.714483,33.484189],[-83.706274,33.489509],[-83.708715,33.491838],[-83.716623,33.484782]]]}},{"type":"Feature","id":"13217:01190-00000-001-Z00","properties":{"id":"13217:01190-00000-001-Z00","parcelId":"01190-00000-001-Z00","countyFips":"13217","countyName":"Newton","state":"Georgia","marketIds":["Atlanta"],"situsAddress":"MILL POND RD","situsCity":null,"situsZip":"30055","jurisdictionCode":null,"ownerName":null,"ownerName2":null,"propertyName":null,"zoningCode":null,"zoningDistrict":null,"jurisdictionPrefix":null,"dorCode":"A5 -- Agricultural Large Tracks","acreage":44.9,"centroid":[-83.736283,33.48718],"lastSale":{"date":"2018-12-21","price":964200.0,"qualified":null},"tax":{"marketValue":null,"assessedValue":null,"taxableValue":null,"taxes":null},"mailingAddress":{"line1":"54 BROWN FARM RD","line2":null,"city":"CARTERSVILLE","state":"GA","zip":"30120"},"incomeTract":null,"incomeBlockGroup":null,"nearestRoad":null,"flu":{"code":"Low Density Rural Residential","label":"Low Density Rural Residential","jurisdiction":"NEWTON","source":"negrc-newton-ca-454"},"opportunityZone":null,"oz2Eligibility":null,"source":"ga-newton-uofmd-parcels","appraiserUrl":"https://qpublic.schneidercorp.com/Application.aspx?App=NewtonCountyGA&Layer=Parcels&PageType=Report&KeyValue=01190-00000-001-Z00"},"geometry":{"type":"Polygon","coordinates":[[[-83.73391,33.483391],[-83.734874,33.48787],[-83.736996,33.488539],[-83.73753,33.491007],[-83.738181,33.490776],[-83.73621,33.481494],[-83.73391,33.483391]]]}},{"type":"Feature","id":"13217:01190-00000-001-G00","properties":{"id":"13217:01190-00000-001-G00","parcelId":"01190-00000-001-G00","countyFips":"13217","countyName":"Newton","state":"Georgia","marketIds":["Atlanta"],"situsAddress":"HWY 11","situsCity":"Mansfield","situsZip":"30055","jurisdictionCode":null,"ownerName":null,"ownerName2":null,"propertyName":null,"zoningCode":null,"zoningDistrict":null,"jurisdictionPrefix":null,"dorCode":"A5 -- Agricultural Large Tracks","acreage":29.92,"centroid":[-83.733266,33.498137],"lastSale":{"date":"2021-03-10","price":null,"qualified":null},"tax":{"marketValue":null,"assessedValue":null,"taxableValue":null,"taxes":null},"mailingAddress":{"line1":"1320 MILL POND RD","line2":null,"city":"NEWBORN","state":"GA","zip":"30056"},"incomeTract":null,"incomeBlockGroup":null,"nearestRoad":null,"flu":{"code":"Low Density Rural Residential","label":"Low Density Rural Residential","jurisdiction":"NEWTON","source":"negrc-newton-ca-454"},"opportunityZone":null,"oz2Eligibility":null,"source":"ga-newton-uofmd-parcels","appraiserUrl":"https://qpublic.schneidercorp.com/Application.aspx?App=NewtonCountyGA&Layer=Parcels&PageType=Report&KeyValue=01190-00000-001-G00"},"geometry":{"type":"Polygon","coordinates":[[[-83.735567,33.498145],[-83.733631,33.497351],[-83.732878,33.497042],[-83.731809,33.496672],[-83.730171,33.499562],[-83.735538,33.500052],[-83.735567,33.498145]]]}},{"type":"Feature","id":"13217:01310-00000-003-000","properties":{"id":"13217:01310-00000-003-000","parcelId":"01310-00000-003-000","countyFips":"13217","countyName":"Newton","state":"Georgia","marketIds":["Atlanta"],"situsAddress":"HENDERSON RD","situsCity":"Mansfield","situsZip":"30055","jurisdictionCode":null,"ownerName":null,"ownerName2":null,"propertyName":null,"zoningCode":null,"zoningDistrict":null,"jurisdictionPrefix":null,"dorCode":"V5 -- Conservation Use Large Tracks","acreage":26.26,"centroid":[-83.732475,33.480991],"lastSale":{"date":"2017-05-25","price":null,"qualified":null},"tax":{"marketValue":null,"assessedValue":null,"taxableValue":null,"taxes":null},"mailingAddress":{"line1":"808 MONTICELLO RD","line2":null,"city":"EATONTON","state":"GA","zip":"31024"},"incomeTract":null,"incomeBlockGroup":null,"nearestRoad":null,"flu":{"code":"Low Density Rural Residential","label":"Low Density Rural Residential","jurisdiction":"NEWTON","source":"negrc-newton-ca-454"},"opportunityZone":null,"oz2Eligibility":null,"source":"ga-newton-uofmd-parcels","appraiserUrl":"https://qpublic.schneidercorp.com/Application.aspx?App=NewtonCountyGA&Layer=Parcels&PageType=Report&KeyValue=01310-00000-003-000"},"geometry":{"type":"Polygon","coordinates":[[[-83.735604,33.481994],[-83.735546,33.48195],[-83.732604,33.479706],[-83.731616,33.479905],[-83.731567,33.480057],[-83.731512,33.480139],[-83.731091,33.48057],[-83.730904,33.480799],[-83.73068,33.48116],[-83.733625,33.483626],[-83.735604,33.481994]]]}},{"type":"Feature","id":"13217:01180-00000-032-000","properties":{"id":"13217:01180-00000-032-000","parcelId":"01180-00000-032-000","countyFips":"13217","countyName":"Newton","state":"Georgia","marketIds":["Atlanta"],"situsAddress":"HAMILTON RD","situsCity":"Mansfield","situsZip":"30055","jurisdictionCode":null,"ownerName":null,"ownerName2":null,"propertyName":null,"zoningCode":null,"zoningDistrict":null,"jurisdictionPrefix":null,"dorCode":"A4 -- Agricultural Small Tracks","acreage":22.86,"centroid":[-83.749806,33.499956],"lastSale":{"date":"1992-11-17","price":50000.0,"qualified":null},"tax":{"marketValue":null,"assessedValue":null,"taxableValue":null,"taxes":null},"mailingAddress":{"line1":"205 HAMILTON RD","line2":null,"city":"MANSFIELD","state":"GA","zip":"30055"},"incomeTract":null,"incomeBlockGroup":null,"nearestRoad":null,"flu":{"code":"Low Density Rural Residential","label":"Low Density Rural Residential","jurisdiction":"NEWTON","source":"negrc-newton-ca-454"},"opportunityZone":null,"oz2Eligibility":null,"source":"ga-newton-uofmd-parcels","appraiserUrl":"https://qpublic.schneidercorp.com/Application.aspx?App=NewtonCountyGA&Layer=Parcels&PageType=Report&KeyValue=01180-00000-032-000"},"geometry":{"type":"Polygon","coordinates":[[[-83.747429,33.500388],[-83.747914,33.500788],[-83.748386,33.501177],[-83.748664,33.500997],[-83.748798,33.500944],[-83.748499,33.499958],[-83.749172,33.499821],[-83.749438,33.500837],[-83.749745,33.500857],[-83.749893,33.500885],[-83.750186,33.499887],[-83.750898,33.499603],[-83.751966,33.500172],[-83.754161,33.497945],[-83.752952,33.496968],[-83.750248,33.499332],[-83.748348,33.4987],[-83.747429,33.500388]]]}},{"type":"Feature","id":"13217:01390-00000-011-A00","properties":{"id":"13217:01390-00000-011-A00","parcelId":"01390-00000-011-A00","countyFips":"13217","countyName":"Newton","state":"Georgia","marketIds":["Atlanta"],"situsAddress":"COCHRAN LN","situsCity":"Newborn","situsZip":"30056","jurisdictionCode":null,"ownerName":null,"ownerName2":null,"propertyName":null,"zoningCode":null,"zoningDistrict":null,"jurisdictionPrefix":null,"dorCode":"V4 -- Conservation Use Small Tracks","acreage":22.74,"centroid":[-83.711793,33.496643],"lastSale":{"date":null,"price":null,"qualified":null},"tax":{"marketValue":null,"assessedValue":null,"taxableValue":null,"taxes":null},"mailingAddress":{"line1":"P O BOX 43","line2":null,"city":"NEWBORN","state":"GA","zip":"30056"},"incomeTract":null,"incomeBlockGroup":null,"nearestRoad":null,"flu":{"code":"Low Density Rural Residential","label":"Low Density Rural Residential","jurisdiction":"NEWTON","source":"negrc-newton-ca-454"},"opportunityZone":null,"oz2Eligibility":null,"source":"ga-newton-uofmd-parcels","appraiserUrl":"https://qpublic.schneidercorp.com/Application.aspx?App=NewtonCountyGA&Layer=Parcels&PageType=Report&KeyValue=01390-00000-011-A00"},"geometry":{"type":"Polygon","coordinates":[[[-83.709461,33.495933],[-83.711563,33.498741],[-83.714416,33.497183],[-83.711731,33.494714],[-83.709461,33.495933]]]}},{"type":"Feature","id":"13217:0139A-00000-029-000","properties":{"id":"13217:0139A-00000-029-000","parcelId":"0139A-00000-029-000","countyFips":"13217","countyName":"Newton","state":"Georgia","marketIds":["Atlanta"],"situsAddress":"PITTS CHAPEL RD","situsCity":"Newborn","situsZip":"30056","jurisdictionCode":null,"ownerName":null,"ownerName2":null,"propertyName":null,"zoningCode":null,"zoningDistrict":null,"jurisdictionPrefix":null,"dorCode":"R4 -- Residential Small Tracks","acreage":12.88,"centroid":[-83.697364,33.495725],"lastSale":{"date":"2007-05-29","price":128600.0,"qualified":null},"tax":{"marketValue":null,"assessedValue":null,"taxableValue":null,"taxes":null},"mailingAddress":{"line1":"8252 PLANTATION TRC","line2":null,"city":"COVINGTON","state":"GA","zip":"30014"},"incomeTract":null,"incomeBlockGroup":null,"nearestRoad":null,"flu":{"code":"Low Density Rural Residential","label":"Low Density Rural Residential","jurisdiction":"NEWTON","source":"negrc-newton-ca-454"},"opportunityZone":null,"oz2Eligibility":null,"source":"ga-newton-uofmd-parcels","appraiserUrl":"https://qpublic.schneidercorp.com/Application.aspx?App=NewtonCountyGA&Layer=Parcels&PageType=Report&KeyValue=0139A-00000-029-000"},"geometry":{"type":"Polygon","coordinates":[[[-83.697544,33.494756],[-83.697487,33.494865],[-83.697387,33.494956],[-83.697225,33.495034],[-83.696637,33.495156],[-83.69651,33.495219],[-83.696344,33.495396],[-83.696198,33.495652],[-83.69716,33.497102],[-83.697733,33.497814],[-83.698988,33.498044],[-83.698964,33.495814],[-83.697552,33.494623],[-83.697544,33.494756]]]}},{"type":"Feature","id":"13217:01310-00000-006-000","properties":{"id":"13217:01310-00000-006-000","parcelId":"01310-00000-006-000","countyFips":"13217","countyName":"Newton","state":"Georgia","marketIds":["Atlanta"],"situsAddress":"HENDERSON RD","situsCity":"Mansfield","situsZip":"30055","jurisdictionCode":null,"ownerName":null,"ownerName2":null,"propertyName":null,"zoningCode":null,"zoningDistrict":null,"jurisdictionPrefix":null,"dorCode":"V4 -- Conservation Use Small Tracks","acreage":12.61,"centroid":[-83.726743,33.487738],"lastSale":{"date":"1999-01-22","price":3000.0,"qualified":null},"tax":{"marketValue":null,"assessedValue":null,"taxableValue":null,"taxes":null},"mailingAddress":{"line1":"60 HENDERSON RD","line2":null,"city":"MANSFIELD","state":"GA","zip":"30055"},"incomeTract":null,"incomeBlockGroup":null,"nearestRoad":null,"flu":{"code":"Low Density Rural Residential","label":"Low Density Rural Residential","jurisdiction":"NEWTON","source":"negrc-newton-ca-454"},"opportunityZone":null,"oz2Eligibility":null,"source":"ga-newton-uofmd-parcels","appraiserUrl":"https://qpublic.schneidercorp.com/Application.aspx?App=NewtonCountyGA&Layer=Parcels&PageType=Report&KeyValue=01310-00000-006-000"},"geometry":{"type":"Polygon","coordinates":[[[-83.72688,33.486412],[-83.726744,33.486622],[-83.726536,33.487153],[-83.726195,33.487841],[-83.725992,33.48811],[-83.725655,33.488479],[-83.726802,33.489675],[-83.726772,33.489276],[-83.728915,33.487509],[-83.726944,33.4863],[-83.72688,33.486412]]]}},{"type":"Feature","id":"13217:0139A-00000-039-000","properties":{"id":"13217:0139A-00000-039-000","parcelId":"0139A-00000-039-000","countyFips":"13217","countyName":"Newton","state":"Georgia","marketIds":["Atlanta"],"situsAddress":"CHRISTOPHER CT","situsCity":"Newborn","situsZip":"30056","jurisdictionCode":null,"ownerName":null,"ownerName2":null,"propertyName":null,"zoningCode":null,"zoningDistrict":null,"jurisdictionPrefix":null,"dorCode":"R3 -- Residential Lots","acreage":10.05,"centroid":[-83.699478,33.499147],"lastSale":{"date":"2019-04-26","price":null,"qualified":null},"tax":{"marketValue":null,"assessedValue":null,"taxableValue":null,"taxes":null},"mailingAddress":{"line1":"65 CHRISTOPHER CT","line2":null,"city":"NEWBORN","state":"GA","zip":"30056"},"incomeTract":null,"incomeBlockGroup":null,"nearestRoad":null,"flu":{"code":"Low Density Rural Residential","label":"Low Density Rural Residential","jurisdiction":"NEWTON","source":"negrc-newton-ca-454"},"opportunityZone":null,"oz2Eligibility":null,"source":"ga-newton-uofmd-parcels","appraiserUrl":"https://qpublic.schneidercorp.com/Application.aspx?App=NewtonCountyGA&Layer=Parcels&PageType=Report&KeyValue=0139A-00000-039-000"},"geometry":{"type":"Polygon","coordinates":[[[-83.699352,33.500475],[-83.699355,33.500475],[-83.69948,33.500484],[-83.700705,33.497755],[-83.69897,33.496343],[-83.699007,33.499352],[-83.699352,33.500475]]]}},{"type":"Feature","id":"13217:01310-00000-004-000","properties":{"id":"13217:01310-00000-004-000","parcelId":"01310-00000-004-000","countyFips":"13217","countyName":"Newton","state":"Georgia","marketIds":["Atlanta"],"situsAddress":"HENDERSON RD","situsCity":"Mansfield","situsZip":"30055","jurisdictionCode":null,"ownerName":null,"ownerName2":null,"propertyName":null,"zoningCode":null,"zoningDistrict":null,"jurisdictionPrefix":null,"dorCode":"E1 -- Exempt Property Improvements","acreage":10.0,"centroid":[-83.73721,33.479808],"lastSale":{"date":"1993-01-22","price":null,"qualified":null},"tax":{"marketValue":null,"assessedValue":null,"taxableValue":null,"taxes":null},"mailingAddress":{"line1":"1 MARTIN LUTHER KING JR","line2":null,"city":"ATLANTA","state":"GA","zip":"30334"},"incomeTract":null,"incomeBlockGroup":null,"nearestRoad":null,"flu":{"code":"Low Density Rural Residential","label":"Low Density Rural Residential","jurisdiction":"NEWTON","source":"negrc-newton-ca-454"},"opportunityZone":null,"oz2Eligibility":null,"source":"ga-newton-uofmd-parcels","appraiserUrl":"https://qpublic.schneidercorp.com/Application.aspx?App=NewtonCountyGA&Layer=Parcels&PageType=Report&KeyValue=01310-00000-004-000"},"geometry":{"type":"Polygon","coordinates":[[[-83.736829,33.480887],[-83.736887,33.480936],[-83.740253,33.47816],[-83.73487,33.479248],[-83.736829,33.480887]]]}},{"type":"Feature","id":"13217:01390-00000-011-000","properties":{"id":"13217:01390-00000-011-000","parcelId":"01390-00000-011-000","countyFips":"13217","countyName":"Newton","state":"Georgia","marketIds":["Atlanta"],"situsAddress":"DAVIS RD","situsCity":"Newborn","situsZip":"30056","jurisdictionCode":null,"ownerName":null,"ownerName2":null,"propertyName":null,"zoningCode":null,"zoningDistrict":null,"jurisdictionPrefix":null,"dorCode":"V4 -- Conservation Use Small Tracks","acreage":8.23,"centroid":[-83.708621,33.497619],"lastSale":{"date":"1988-06-10","price":24900.0,"qualified":null},"tax":{"marketValue":null,"assessedValue":null,"taxableValue":null,"taxes":null},"mailingAddress":{"line1":"425 GUILFORD PL","line2":null,"city":"MCDONOUGH","state":"GA","zip":"30253"},"incomeTract":null,"incomeBlockGroup":null,"nearestRoad":null,"flu":{"code":"Low Density Rural Residential","label":"Low Density Rural Residential","jurisdiction":"NEWTON","source":"negrc-newton-ca-454"},"opportunityZone":null,"oz2Eligibility":null,"source":"ga-newton-uofmd-parcels","appraiserUrl":"https://qpublic.schneidercorp.com/Application.aspx?App=NewtonCountyGA&Layer=Parcels&PageType=Report&KeyValue=01390-00000-011-000"},"geometry":{"type":"Polygon","coordinates":[[[-83.711144,33.498151],[-83.709461,33.495933],[-83.706099,33.497755],[-83.708018,33.499306],[-83.708119,33.499111],[-83.708143,33.498995],[-83.708231,33.498908],[-83.708677,33.498591],[-83.708873,33.498327],[-83.708966,33.498313],[-83.708993,33.498297],[-83.708981,33.498292],[-83.709168,33.498215],[-83.709386,33.498042],[-83.709425,33.498054],[-83.709458,33.498027],[-83.709751,33.497966],[-83.709851,33.497979],[-83.709942,33.498039],[-83.710016,33.498034],[-83.710262,33.497961],[-83.710254,33.497951],[-83.710267,33.497961],[-83.710324,33.497928],[-83.710316,33.497915],[-83.710327,33.497925],[-83.710319,33.497914],[-83.710405,33.497881],[-83.710456,33.497895],[-83.710499,33.497948],[-83.710547,33.497959],[-83.710784,33.497944],[-83.71083,33.497974],[-83.710847,33.498018],[-83.710975,33.498069],[-83.711086,33.498153],[-83.711144,33.498151]]]}},{"type":"Feature","id":"13217:0139A-00000-020-000","properties":{"id":"13217:0139A-00000-020-000","parcelId":"0139A-00000-020-000","countyFips":"13217","countyName":"Newton","state":"Georgia","marketIds":["Atlanta"],"situsAddress":"LINE DR","situsCity":"Newborn","situsZip":"30056","jurisdictionCode":null,"ownerName":null,"ownerName2":null,"propertyName":null,"zoningCode":null,"zoningDistrict":null,"jurisdictionPrefix":null,"dorCode":"R3 -- Residential Lots","acreage":6.57,"centroid":[-83.697799,33.498756],"lastSale":{"date":"2012-12-06","price":245000.0,"qualified":null},"tax":{"marketValue":null,"assessedValue":null,"taxableValue":null,"taxes":null},"mailingAddress":{"line1":"70 LINE DR","line2":null,"city":"NEWBORN","state":"GA","zip":"30056"},"incomeTract":null,"incomeBlockGroup":null,"nearestRoad":null,"flu":{"code":"Low Density Rural Residential","label":"Low Density Rural Residential","jurisdiction":"NEWTON","source":"negrc-newton-ca-454"},"opportunityZone":null,"oz2Eligibility":null,"source":"ga-newton-uofmd-parcels","appraiserUrl":"https://qpublic.schneidercorp.com/Application.aspx?App=NewtonCountyGA&Layer=Parcels&PageType=Report&KeyValue=0139A-00000-020-000"},"geometry":{"type":"Polygon","coordinates":[[[-83.697532,33.499527],[-83.697545,33.499529],[-83.698064,33.499618],[-83.698924,33.499307],[-83.698907,33.49809],[-83.697747,33.497895],[-83.697808,33.498606],[-83.697643,33.499434],[-83.697566,33.49942],[-83.697671,33.498876],[-83.697626,33.49849],[-83.696767,33.498535],[-83.696765,33.498737],[-83.696673,33.499281],[-83.697532,33.499527]]]}},{"type":"Feature","id":"13217:0139A-00000-040-000","properties":{"id":"13217:0139A-00000-040-000","parcelId":"0139A-00000-040-000","countyFips":"13217","countyName":"Newton","state":"Georgia","marketIds":["Atlanta"],"situsAddress":"CHRISTOPHER CT","situsCity":"Newborn","situsZip":"30056","jurisdictionCode":null,"ownerName":null,"ownerName2":null,"propertyName":null,"zoningCode":null,"zoningDistrict":null,"jurisdictionPrefix":null,"dorCode":"R3 -- Residential Lots","acreage":5.4,"centroid":[-83.700212,33.499617],"lastSale":{"date":"2020-11-10","price":null,"qualified":null},"tax":{"marketValue":null,"assessedValue":null,"taxableValue":null,"taxes":null},"mailingAddress":{"line1":"60 CHRISTOPHER COURT","line2":null,"city":"NEWBORN","state":"GA","zip":"30056"},"incomeTract":null,"incomeBlockGroup":null,"nearestRoad":null,"flu":{"code":"Low Density Rural Residential","label":"Low Density Rural Residential","jurisdiction":"NEWTON","source":"negrc-newton-ca-454"},"opportunityZone":null,"oz2Eligibility":null,"source":"ga-newton-uofmd-parcels","appraiserUrl":"https://qpublic.schneidercorp.com/Application.aspx?App=NewtonCountyGA&Layer=Parcels&PageType=Report&KeyValue=0139A-00000-040-000"},"geometry":{"type":"Polygon","coordinates":[[[-83.69948,33.500484],[-83.699484,33.500485],[-83.699575,33.500558],[-83.700516,33.49999],[-83.701511,33.498433],[-83.700705,33.497755],[-83.69948,33.500484]]]}},{"type":"Feature","id":"13217:01390-00000-079-000","properties":{"id":"13217:01390-00000-079-000","parcelId":"01390-00000-079-000","countyFips":"13217","countyName":"Newton","state":"Georgia","marketIds":["Atlanta"],"situsAddress":"BOXWOOD LN","situsCity":"Newborn","situsZip":"30056","jurisdictionCode":null,"ownerName":null,"ownerName2":null,"propertyName":null,"zoningCode":null,"zoningDistrict":null,"jurisdictionPrefix":null,"dorCode":"R4 -- Residential Small Tracks","acreage":5.33,"centroid":[-83.706931,33.499372],"lastSale":{"date":"2003-05-05","price":175000.0,"qualified":null},"tax":{"marketValue":null,"assessedValue":null,"taxableValue":null,"taxes":null},"mailingAddress":{"line1":"221 BOXWOOD LANE","line2":null,"city":"NEWBORN","state":"GA","zip":"30056"},"incomeTract":null,"incomeBlockGroup":null,"nearestRoad":null,"flu":{"code":"Low Density Rural Residential","label":"Low Density Rural Residential","jurisdiction":"NEWTON","source":"negrc-newton-ca-454"},"opportunityZone":null,"oz2Eligibility":null,"source":"ga-newton-uofmd-parcels","appraiserUrl":"https://qpublic.schneidercorp.com/Application.aspx?App=NewtonCountyGA&Layer=Parcels&PageType=Report&KeyValue=01390-00000-079-000"},"geometry":{"type":"Polygon","coordinates":[[[-83.705919,33.498395],[-83.705032,33.499163],[-83.706099,33.500034],[-83.706214,33.5],[-83.706361,33.499716],[-83.706437,33.49967],[-83.706546,33.499643],[-83.70692,33.499614],[-83.707098,33.499535],[-83.707115,33.499506],[-83.707342,33.499487],[-83.707743,33.49938],[-83.707854,33.499379],[-83.707881,33.499366],[-83.707876,33.499352],[-83.707952,33.499347],[-83.708018,33.499306],[-83.706871,33.498387],[-83.706405,33.498786],[-83.705919,33.498395]]]}},{"type":"Feature","id":"13217:01310-00000-005-000","properties":{"id":"13217:01310-00000-005-000","parcelId":"01310-00000-005-000","countyFips":"13217","countyName":"Newton","state":"Georgia","marketIds":["Atlanta"],"situsAddress":"JAMES BENTON RD","situsCity":"Newborn","situsZip":"30056","jurisdictionCode":null,"ownerName":null,"ownerName2":null,"propertyName":null,"zoningCode":null,"zoningDistrict":null,"jurisdictionPrefix":null,"dorCode":"R4 -- Residential Small Tracks","acreage":5.0,"centroid":[-83.716603,33.484138],"lastSale":{"date":"2008-11-07","price":null,"qualified":null},"tax":{"marketValue":null,"assessedValue":null,"taxableValue":null,"taxes":null},"mailingAddress":{"line1":"80 SILVER LAKE DR","line2":null,"city":"MANSFIELD","state":"GA","zip":"30055"},"incomeTract":null,"incomeBlockGroup":null,"nearestRoad":null,"flu":{"code":"Low Density Rural Residential","label":"Low Density Rural Residential","jurisdiction":"NEWTON","source":"negrc-newton-ca-454"},"opportunityZone":null,"oz2Eligibility":null,"source":"ga-newton-uofmd-parcels","appraiserUrl":"https://qpublic.schneidercorp.com/Application.aspx?App=NewtonCountyGA&Layer=Parcels&PageType=Report&KeyValue=01310-00000-005-000"},"geometry":{"type":"Polygon","coordinates":[[[-83.715528,33.484333],[-83.716641,33.484641],[-83.716746,33.484673],[-83.718451,33.483158],[-83.715651,33.483885],[-83.715528,33.484333]]]}},{"type":"Feature","id":"13217:01310-00000-007-000","properties":{"id":"13217:01310-00000-007-000","parcelId":"01310-00000-007-000","countyFips":"13217","countyName":"Newton","state":"Georgia","marketIds":["Atlanta"],"situsAddress":"JAMES BENTON RD","situsCity":"Newborn","situsZip":"30056","jurisdictionCode":null,"ownerName":null,"ownerName2":null,"propertyName":null,"zoningCode":null,"zoningDistrict":null,"jurisdictionPrefix":null,"dorCode":"R4 -- Residential Small Tracks","acreage":5.0,"centroid":[-83.719405,33.484854],"lastSale":{"date":"1995-12-05","price":7500.0,"qualified":null},"tax":{"marketValue":null,"assessedValue":null,"taxableValue":null,"taxes":null},"mailingAddress":{"line1":"PO BOX 342","line2":null,"city":"MANSFIELD","state":"GA","zip":"30055"},"incomeTract":null,"incomeBlockGroup":null,"nearestRoad":null,"flu":{"code":"Low Density Rural Residential","label":"Low Density Rural Residential","jurisdiction":"NEWTON","source":"negrc-newton-ca-454"},"opportunityZone":null,"oz2Eligibility":null,"source":"ga-newton-uofmd-parcels","appraiserUrl":"https://qpublic.schneidercorp.com/Application.aspx?App=NewtonCountyGA&Layer=Parcels&PageType=Report&KeyValue=01310-00000-007-000"},"geometry":{"type":"Polygon","coordinates":[[[-83.719226,33.485592],[-83.719327,33.485629],[-83.719465,33.485688],[-83.720835,33.483948],[-83.719237,33.483202],[-83.718242,33.484679],[-83.719503,33.48524],[-83.719226,33.485592]]]}}]}