{"type":"FeatureCollection","name":"12055-5_0","features":[{"type":"Feature","id":"12055:C343928A0000300000","properties":{"id":"12055:C343928A0000300000","parcelId":"C343928A0000300000","countyFips":"12055","countyName":"Highlands","state":"Florida","marketIds":["Heartland"],"situsAddress":"926 JOHN PEARCE GRD","situsCity":"VENUS","situsZip":"33960","jurisdictionCode":"Highlands","ownerName":"PFLH LLC","ownerName2":null,"propertyName":null,"zoningCode":"AU","zoningDistrict":"Highlands:AU","jurisdictionPrefix":null,"dorCode":"66","acreage":140.87,"centroid":[-81.509774,27.040915],"lastSale":{"date":"2022-11-17","price":100.0,"qualified":null},"tax":{"marketValue":null,"assessedValue":1726347.0,"taxableValue":209578.0,"taxes":null},"mailingAddress":{"line1":"33 S SIXTH ST STE 4100","line2":null,"city":"MINNEAPOLIS","state":"MN","zip":"55402"},"incomeTract":null,"incomeBlockGroup":null,"nearestRoad":null,"flu":{"code":"AG","label":"AG","jurisdiction":"Highlands","source":"highlands-flum"},"opportunityZone":null,"oz2Eligibility":null,"source":"fl-highlands-pao-12055"},"geometry":{"type":"Polygon","coordinates":[[[-81.506232,27.0395],[-81.506363,27.043757],[-81.506401,27.043827],[-81.506466,27.04385],[-81.511107,27.044036],[-81.511253,27.048099],[-81.512133,27.048145],[-81.51232,27.048112],[-81.513454,27.047283],[-81.513513,27.047214],[-81.513531,27.047128],[-81.513277,27.041036],[-81.513246,27.040989],[-81.51319,27.04097],[-81.510959,27.040904],[-81.510902,27.040885],[-81.510876,27.040851],[-81.510706,27.036244],[-81.508749,27.036114],[-81.508611,27.036155],[-81.508415,27.036316],[-81.508194,27.036428],[-81.507948,27.03648],[-81.507779,27.03648],[-81.507613,27.036451],[-81.507456,27.036395],[-81.506844,27.036003],[-81.506122,27.035954],[-81.506232,27.0395]]]}},{"type":"Feature","id":"12055:C223928A0000200000","properties":{"id":"12055:C223928A0000200000","parcelId":"C223928A0000200000","countyFips":"12055","countyName":"Highlands","state":"Florida","marketIds":["Heartland"],"situsAddress":"55 ELLIE LN","situsCity":"VENUS","situsZip":"33960","jurisdictionCode":"Highlands","ownerName":"B+M IMPORTS AND EXPORTS LLC","ownerName2":null,"propertyName":null,"zoningCode":"AU","zoningDistrict":"Highlands:AU","jurisdictionPrefix":null,"dorCode":"63","acreage":111.16,"centroid":[-81.505541,27.064269],"lastSale":{"date":"2024-03-19","price":2000000.0,"qualified":null},"tax":{"marketValue":null,"assessedValue":942925.0,"taxableValue":163436.0,"taxes":null},"mailingAddress":{"line1":"55 ELLIE LANE","line2":null,"city":"VENUS","state":"FL","zip":"33960"},"incomeTract":null,"incomeBlockGroup":null,"nearestRoad":null,"flu":{"code":"AG","label":"AG","jurisdiction":"Highlands","source":"highlands-flum"},"opportunityZone":null,"oz2Eligibility":null,"source":"fl-highlands-pao-12055"},"geometry":{"type":"Polygon","coordinates":[[[-81.506103,27.065242],[-81.513372,27.065619],[-81.513381,27.062977],[-81.497404,27.062447],[-81.497446,27.065059],[-81.506103,27.065242]]]}},{"type":"Feature","id":"12055:C333928A0000200000","properties":{"id":"12055:C333928A0000200000","parcelId":"C333928A0000200000","countyFips":"12055","countyName":"Highlands","state":"Florida","marketIds":["Heartland"],"situsAddress":"1065 JOHN PEARCE GRD","situsCity":"VENUS","situsZip":"33960","jurisdictionCode":"Highlands","ownerName":"BESSER HOLDING LLC","ownerName2":null,"propertyName":null,"zoningCode":"AU","zoningDistrict":"Highlands:AU","jurisdictionPrefix":null,"dorCode":"63","acreage":109.94,"centroid":[-81.518846,27.037112],"lastSale":{"date":"2014-05-01","price":320000.0,"qualified":null},"tax":{"marketValue":null,"assessedValue":805180.0,"taxableValue":27516.0,"taxes":null},"mailingAddress":{"line1":"311 EAST 38TH ST PH B","line2":null,"city":"NEW YORK","state":"NY","zip":"10016"},"incomeTract":null,"incomeBlockGroup":null,"nearestRoad":null,"flu":{"code":"AG","label":"AG","jurisdiction":"Highlands","source":"highlands-flum"},"opportunityZone":null,"oz2Eligibility":null,"source":"fl-highlands-pao-12055"},"geometry":{"type":"Polygon","coordinates":[[[-81.516295,27.040892],[-81.521623,27.040931],[-81.521397,27.033333],[-81.51607,27.033293],[-81.516295,27.040892]]]}},{"type":"Feature","id":"12055:C153928A0000100000","properties":{"id":"12055:C153928A0000100000","parcelId":"C153928A0000100000","countyFips":"12055","countyName":"Highlands","state":"Florida","marketIds":["Heartland"],"situsAddress":"320 GRIGSBY RD","situsCity":"VENUS","situsZip":"33960","jurisdictionCode":"Highlands","ownerName":"GOMEZ ROBERTO TTEE","ownerName2":"ROBERTO GOMEZ REV TR","propertyName":null,"zoningCode":"AU","zoningDistrict":"Highlands:AU","jurisdictionPrefix":null,"dorCode":"63","acreage":103.48,"centroid":[-81.508112,27.088414],"lastSale":{"date":"2024-11-18","price":100.0,"qualified":null},"tax":{"marketValue":null,"assessedValue":760558.0,"taxableValue":29280.0,"taxes":null},"mailingAddress":{"line1":"192 W 34TH ST","line2":null,"city":"HIALEAH","state":"FL","zip":"33012"},"incomeTract":null,"incomeBlockGroup":null,"nearestRoad":null,"flu":{"code":"AG","label":"AG","jurisdiction":"Highlands","source":"highlands-flum"},"opportunityZone":null,"oz2Eligibility":null,"source":"fl-highlands-pao-12055"},"geometry":{"type":"Polygon","coordinates":[[[-81.505945,27.084462],[-81.50575,27.084455],[-81.505609,27.090638],[-81.507532,27.090675],[-81.507506,27.091823],[-81.513294,27.091932],[-81.513309,27.086642],[-81.505953,27.086681],[-81.505945,27.084462]]]}},{"type":"Feature","id":"12055:C273928A0000500000","properties":{"id":"12055:C273928A0000500000","parcelId":"C273928A0000500000","countyFips":"12055","countyName":"Highlands","state":"Florida","marketIds":["Heartland"],"situsAddress":"975 JOHN PEARCE GRD","situsCity":"VENUS","situsZip":"33960","jurisdictionCode":"Highlands","ownerName":"ALEXANDER LOUIS A JR TRUST +","ownerName2":"TARAFA AIDA TRUST","propertyName":null,"zoningCode":"AU","zoningDistrict":"Highlands:AU","jurisdictionPrefix":null,"dorCode":"63","acreage":99.94,"centroid":[-81.511082,27.051967],"lastSale":{"date":"2012-12-28","price":100.0,"qualified":null},"tax":{"marketValue":null,"assessedValue":738596.0,"taxableValue":29440.0,"taxes":null},"mailingAddress":{"line1":"1911 S BAYSHORE DR","line2":null,"city":"MIAMI","state":"FL","zip":"33133"},"incomeTract":null,"incomeBlockGroup":null,"nearestRoad":null,"flu":{"code":"AG","label":"AG","jurisdiction":"Highlands","source":"highlands-flum"},"opportunityZone":null,"oz2Eligibility":null,"source":"fl-highlands-pao-12055"},"geometry":{"type":"Polygon","coordinates":[[[-81.508468,27.05549],[-81.513537,27.055696],[-81.513696,27.048467],[-81.508628,27.048216],[-81.508468,27.05549]]]}},{"type":"Feature","id":"12055:C223928A0000100000","properties":{"id":"12055:C223928A0000100000","parcelId":"C223928A0000100000","countyFips":"12055","countyName":"Highlands","state":"Florida","marketIds":["Heartland"],"situsAddress":"500 LOTT GRADE","situsCity":"VENUS","situsZip":"33960","jurisdictionCode":"Highlands","ownerName":"BESSER HOLDING LLC","ownerName2":null,"propertyName":null,"zoningCode":"AU","zoningDistrict":"Highlands:AU","jurisdictionPrefix":null,"dorCode":"63","acreage":97.02,"centroid":[-81.509626,27.073636],"lastSale":{"date":"2025-11-24","price":100.0,"qualified":null},"tax":{"marketValue":null,"assessedValue":677790.0,"taxableValue":25440.0,"taxes":null},"mailingAddress":{"line1":"311 EAST 38TH ST PH B","line2":null,"city":"NEW YORK","state":"NY","zip":"10016"},"incomeTract":null,"incomeBlockGroup":null,"nearestRoad":null,"flu":{"code":"AG","label":"AG","jurisdiction":"Highlands","source":"highlands-flum"},"opportunityZone":null,"oz2Eligibility":null,"source":"fl-highlands-pao-12055"},"geometry":{"type":"Polygon","coordinates":[[[-81.509635,27.077289],[-81.513342,27.077453],[-81.513357,27.070206],[-81.505895,27.069819],[-81.505924,27.077124],[-81.506031,27.077129],[-81.506011,27.07202],[-81.509615,27.07218],[-81.509635,27.077289]]]}},{"type":"Feature","id":"12055:C273928A0000100000","properties":{"id":"12055:C273928A0000100000","parcelId":"C273928A0000100000","countyFips":"12055","countyName":"Highlands","state":"Florida","marketIds":["Heartland"],"situsAddress":"925 JOHN PEARCE GRD","situsCity":"VENUS","situsZip":"33960","jurisdictionCode":"Highlands","ownerName":"GUTIERREZ JOSE M RIVERA","ownerName2":null,"propertyName":null,"zoningCode":"AU","zoningDistrict":"Highlands:AU","jurisdictionPrefix":null,"dorCode":"63","acreage":96.66,"centroid":[-81.502895,27.051552],"lastSale":{"date":"2025-09-16","price":1142400.0,"qualified":null},"tax":{"marketValue":null,"assessedValue":713530.0,"taxableValue":20049.0,"taxes":null},"mailingAddress":{"line1":"3212 52ND AVE DR W","line2":null,"city":"BRADENTON","state":"FL","zip":"34207"},"incomeTract":null,"incomeBlockGroup":null,"nearestRoad":null,"flu":{"code":"AG","label":"AG","jurisdiction":"Highlands","source":"highlands-flum"},"opportunityZone":null,"oz2Eligibility":null,"source":"fl-highlands-pao-12055"},"geometry":{"type":"Polygon","coordinates":[[[-81.497227,27.051481],[-81.497285,27.055035],[-81.505933,27.055387],[-81.506094,27.04809],[-81.505383,27.048055],[-81.505449,27.051267],[-81.497227,27.051481]]]}},{"type":"Feature","id":"12055:C153928A0000400000","properties":{"id":"12055:C153928A0000400000","parcelId":"C153928A0000400000","countyFips":"12055","countyName":"Highlands","state":"Florida","marketIds":["Heartland"],"situsAddress":null,"situsCity":null,"situsZip":"33960","jurisdictionCode":"Highlands","ownerName":"JOE LOTT FAMILY LLLP","ownerName2":null,"propertyName":null,"zoningCode":"AU","zoningDistrict":"Highlands:AU","jurisdictionPrefix":null,"dorCode":"63","acreage":65.79,"centroid":[-81.50262,27.079226],"lastSale":{"date":"2011-06-16","price":100.0,"qualified":null},"tax":{"marketValue":null,"assessedValue":482292.0,"taxableValue":19002.0,"taxes":null},"mailingAddress":{"line1":"P O BOX 418","line2":null,"city":"VENUS","state":"FL","zip":"33960"},"incomeTract":null,"incomeBlockGroup":null,"nearestRoad":null,"flu":{"code":"AG","label":"AG","jurisdiction":"Highlands","source":"highlands-flum"},"opportunityZone":null,"oz2Eligibility":null,"source":"fl-highlands-pao-12055"},"geometry":{"type":"Polygon","coordinates":[[[-81.503464,27.079684],[-81.505853,27.080129],[-81.505932,27.080144],[-81.505924,27.077124],[-81.497636,27.076975],[-81.497686,27.080134],[-81.501991,27.080118],[-81.502471,27.079499],[-81.503464,27.079684]]]}},{"type":"Feature","id":"12055:C333928A0000300000","properties":{"id":"12055:C333928A0000300000","parcelId":"C333928A0000300000","countyFips":"12055","countyName":"Highlands","state":"Florida","marketIds":["Heartland"],"situsAddress":"1061 JOHN PEARCE GRD","situsCity":"VENUS","situsZip":"33960","jurisdictionCode":"Highlands","ownerName":"ORDILLE ROBERT M + ELIZABETH","ownerName2":null,"propertyName":null,"zoningCode":"AU","zoningDistrict":"Highlands:AU","jurisdictionPrefix":null,"dorCode":"63","acreage":55.02,"centroid":[-81.514626,27.037841],"lastSale":{"date":"2018-05-31","price":405000.0,"qualified":null},"tax":{"marketValue":null,"assessedValue":706118.0,"taxableValue":319780.0,"taxes":null},"mailingAddress":{"line1":"1913 FLOWER DR","line2":null,"city":"PALM BEACH GARDENS","state":"FL","zip":"33410"},"incomeTract":null,"incomeBlockGroup":null,"nearestRoad":null,"flu":{"code":"AG","label":"AG","jurisdiction":"Highlands","source":"highlands-flum"},"opportunityZone":null,"oz2Eligibility":null,"source":"fl-highlands-pao-12055"},"geometry":{"type":"Polygon","coordinates":[[[-81.513731,27.040873],[-81.516295,27.040892],[-81.51607,27.033293],[-81.513405,27.033273],[-81.513629,27.040872],[-81.513731,27.040873]]]}},{"type":"Feature","id":"12055:C343928A0000400000","properties":{"id":"12055:C343928A0000400000","parcelId":"C343928A0000400000","countyFips":"12055","countyName":"Highlands","state":"Florida","marketIds":["Heartland"],"situsAddress":"1050 JOHN PEARCE GRD","situsCity":"VENUS","situsZip":"33960","jurisdictionCode":"Highlands","ownerName":"AR LAND HOLDINGS LLC","ownerName2":null,"propertyName":null,"zoningCode":"AU","zoningDistrict":"Highlands:AU","jurisdictionPrefix":null,"dorCode":"63","acreage":54.79,"centroid":[-81.512433,27.037812],"lastSale":{"date":"2023-01-30","price":488000.0,"qualified":null},"tax":{"marketValue":null,"assessedValue":402886.0,"taxableValue":12988.0,"taxes":null},"mailingAddress":{"line1":"6307 LA COSTA DR UNIT C","line2":null,"city":"BOCA RATON","state":"FL","zip":"33433"},"incomeTract":null,"incomeBlockGroup":null,"nearestRoad":null,"flu":{"code":"AG","label":"AG","jurisdiction":"Highlands","source":"highlands-flum"},"opportunityZone":null,"oz2Eligibility":null,"source":"fl-highlands-pao-12055"},"geometry":{"type":"Polygon","coordinates":[[[-81.513424,27.04087],[-81.513629,27.040872],[-81.513405,27.033273],[-81.510716,27.033247],[-81.510992,27.040796],[-81.513424,27.04087]]]}},{"type":"Feature","id":"12055:C273928A0000600000","properties":{"id":"12055:C273928A0000600000","parcelId":"C273928A0000600000","countyFips":"12055","countyName":"Highlands","state":"Florida","marketIds":["Heartland"],"situsAddress":null,"situsCity":null,"situsZip":null,"jurisdictionCode":null,"ownerName":"LIRA JOSE LUIS SR +","ownerName2":"LIRA JOSE LUIS JR","propertyName":null,"zoningCode":null,"zoningDistrict":null,"jurisdictionPrefix":null,"dorCode":"63","acreage":50.22,"centroid":[-81.507281,27.051796],"lastSale":{"date":"2024-09-27","price":414400.0,"qualified":null},"tax":{"marketValue":null,"assessedValue":369068.0,"taxableValue":14917.0,"taxes":null},"mailingAddress":{"line1":"113 TYRON AVE NW","line2":null,"city":"LAKE PLACID","state":"FL","zip":"33852"},"incomeTract":null,"incomeBlockGroup":null,"nearestRoad":null,"flu":null,"opportunityZone":null,"oz2Eligibility":null,"source":"fl-highlands-pao-12055"},"geometry":{"type":"Polygon","coordinates":[[[-81.505933,27.055387],[-81.508468,27.05549],[-81.508628,27.048216],[-81.506094,27.04809],[-81.505933,27.055387]]]}},{"type":"Feature","id":"12055:C223928A0000110000","properties":{"id":"12055:C223928A0000110000","parcelId":"C223928A0000110000","countyFips":"12055","countyName":"Highlands","state":"Florida","marketIds":["Heartland"],"situsAddress":"524 LOTT GRADE","situsCity":"VENUS","situsZip":"33960","jurisdictionCode":"Highlands","ownerName":"BEUTHIEN DAVID L","ownerName2":null,"propertyName":null,"zoningCode":"AU","zoningDistrict":"Highlands:AU","jurisdictionPrefix":null,"dorCode":"63","acreage":50.0,"centroid":[-81.507823,27.074655],"lastSale":{"date":"2010-06-04","price":null,"qualified":null},"tax":{"marketValue":null,"assessedValue":369040.0,"taxableValue":14958.0,"taxes":null},"mailingAddress":{"line1":"13858 YORK CT","line2":null,"city":"WELLINGTON","state":"FL","zip":"33414"},"incomeTract":null,"incomeBlockGroup":null,"nearestRoad":null,"flu":{"code":"AG","label":"AG","jurisdiction":"Highlands","source":"highlands-flum"},"opportunityZone":null,"oz2Eligibility":null,"source":"fl-highlands-pao-12055"},"geometry":{"type":"Polygon","coordinates":[[[-81.506031,27.077129],[-81.509635,27.077289],[-81.509615,27.07218],[-81.506011,27.07202],[-81.506031,27.077129]]]}},{"type":"Feature","id":"12055:C273928A0000300000","properties":{"id":"12055:C273928A0000300000","parcelId":"C273928A0000300000","countyFips":"12055","countyName":"Highlands","state":"Florida","marketIds":["Heartland"],"situsAddress":"815 JOHN PEARCE GRD","situsCity":"VENUS","situsZip":"33960","jurisdictionCode":"Highlands","ownerName":"GUTIERREZ JOSE M RIVERA","ownerName2":null,"propertyName":null,"zoningCode":"AU","zoningDistrict":"Highlands:AU","jurisdictionPrefix":null,"dorCode":"63","acreage":40.0,"centroid":[-81.503235,27.049635],"lastSale":{"date":"2025-09-16","price":1142400.0,"qualified":null},"tax":{"marketValue":null,"assessedValue":294400.0,"taxableValue":11180.0,"taxes":null},"mailingAddress":{"line1":"3212 52ND AVE DR W","line2":null,"city":"BRADENTON","state":"FL","zip":"34207"},"incomeTract":null,"incomeBlockGroup":null,"nearestRoad":null,"flu":{"code":"AG","label":"AG","jurisdiction":"Highlands","source":"highlands-flum"},"opportunityZone":null,"oz2Eligibility":null,"source":"fl-highlands-pao-12055"},"geometry":{"type":"Polygon","coordinates":[[[-81.501018,27.047838],[-81.501091,27.05138],[-81.505449,27.051267],[-81.505383,27.048055],[-81.501018,27.047838]]]}},{"type":"Feature","id":"12055:C15392802000900000","properties":{"id":"12055:C15392802000900000","parcelId":"C15392802000900000","countyFips":"12055","countyName":"Highlands","state":"Florida","marketIds":["Heartland"],"situsAddress":"56 MAGNESS RD","situsCity":"VENUS","situsZip":"33960","jurisdictionCode":null,"ownerName":"BLUE TANGO LTD NO 43 J 48","ownerName2":null,"propertyName":null,"zoningCode":null,"zoningDistrict":null,"jurisdictionPrefix":null,"dorCode":"63","acreage":20.96,"centroid":[-81.511977,27.081269],"lastSale":{"date":"2009-03-23","price":100.0,"qualified":null},"tax":{"marketValue":null,"assessedValue":155104.0,"taxableValue":6188.0,"taxes":null},"mailingAddress":{"line1":"C/O SHANY NIR","line2":"2860 CENTER PORT CIR","city":"POMPANO BEACH","state":"FL","zip":"33064"},"incomeTract":null,"incomeBlockGroup":null,"nearestRoad":null,"flu":null,"opportunityZone":null,"oz2Eligibility":null,"source":"fl-highlands-pao-12055"},"geometry":{"type":"Polygon","coordinates":[[[-81.511423,27.080999],[-81.511426,27.081608],[-81.511483,27.082292],[-81.511431,27.083034],[-81.513321,27.083028],[-81.513336,27.078957],[-81.511416,27.078963],[-81.511423,27.080999]]]}},{"type":"Feature","id":"12055:C343928A0000500000","properties":{"id":"12055:C343928A0000500000","parcelId":"C343928A0000500000","countyFips":"12055","countyName":"Highlands","state":"Florida","marketIds":["Heartland"],"situsAddress":null,"situsCity":null,"situsZip":null,"jurisdictionCode":null,"ownerName":"PFLH LLC","ownerName2":null,"propertyName":null,"zoningCode":null,"zoningDistrict":null,"jurisdictionPrefix":null,"dorCode":"66","acreage":20.9,"centroid":[-81.504556,27.03774],"lastSale":{"date":"2022-11-17","price":100.0,"qualified":null},"tax":{"marketValue":null,"assessedValue":259160.0,"taxableValue":31350.0,"taxes":null},"mailingAddress":{"line1":"33 S SIXTH ST STE 4100","line2":null,"city":"MINNEAPOLIS","state":"MN","zip":"55402"},"incomeTract":null,"incomeBlockGroup":null,"nearestRoad":null,"flu":null,"opportunityZone":null,"oz2Eligibility":null,"source":"fl-highlands-pao-12055"},"geometry":{"type":"Polygon","coordinates":[[[-81.503422,27.035961],[-81.503572,27.039588],[-81.505691,27.039518],[-81.50554,27.035891],[-81.503422,27.035961]]]}},{"type":"Feature","id":"12055:C15392802001700000","properties":{"id":"12055:C15392802001700000","parcelId":"C15392802001700000","countyFips":"12055","countyName":"Highlands","state":"Florida","marketIds":["Heartland"],"situsAddress":"55 MAGNESS RD","situsCity":"VENUS","situsZip":"33960","jurisdictionCode":null,"ownerName":"NS LOTS LLC","ownerName2":null,"propertyName":null,"zoningCode":null,"zoningDistrict":null,"jurisdictionPrefix":null,"dorCode":"63","acreage":20.32,"centroid":[-81.510649,27.081273],"lastSale":{"date":"2009-03-23","price":100.0,"qualified":null},"tax":{"marketValue":null,"assessedValue":150368.0,"taxableValue":5971.0,"taxes":null},"mailingAddress":{"line1":"2860 CENTER PORT CIR","line2":null,"city":"POMPANO BEACH","state":"FL","zip":"33064"},"incomeTract":null,"incomeBlockGroup":null,"nearestRoad":null,"flu":null,"opportunityZone":null,"oz2Eligibility":null,"source":"fl-highlands-pao-12055"},"geometry":{"type":"Polygon","coordinates":[[[-81.509595,27.081004],[-81.509602,27.08304],[-81.511431,27.083034],[-81.511483,27.082292],[-81.511426,27.081608],[-81.511416,27.078963],[-81.509587,27.078969],[-81.509595,27.081004]]]}},{"type":"Feature","id":"12055:C083928A0000100000","properties":{"id":"12055:C083928A0000100000","parcelId":"C083928A0000100000","countyFips":"12055","countyName":"Highlands","state":"Florida","marketIds":["Heartland"],"situsAddress":"101 GRIGSBY RD","situsCity":"VENUS","situsZip":"33960","jurisdictionCode":null,"ownerName":"CUTRALE CITRUS JUICES USA INC","ownerName2":null,"propertyName":null,"zoningCode":null,"zoningDistrict":null,"jurisdictionPrefix":null,"dorCode":"63","acreage":18.26,"centroid":[-81.509541,27.091905],"lastSale":{"date":"2014-09-29","price":null,"qualified":null},"tax":{"marketValue":null,"assessedValue":135124.0,"taxableValue":5478.0,"taxes":null},"mailingAddress":{"line1":"602 MCKEAN ST","line2":null,"city":"AUBURNDALE","state":"FL","zip":"33828"},"incomeTract":null,"incomeBlockGroup":null,"nearestRoad":null,"flu":null,"opportunityZone":null,"oz2Eligibility":null,"source":"fl-highlands-pao-12055"},"geometry":{"type":"Polygon","coordinates":[[[-81.530203,27.092201],[-81.530505,27.092201],[-81.530511,27.092064],[-81.514087,27.091906],[-81.513294,27.091932],[-81.497869,27.091641],[-81.48162,27.091491],[-81.481608,27.091629],[-81.497866,27.091778],[-81.513295,27.092069],[-81.514089,27.092044],[-81.530203,27.092201]]]}},{"type":"Feature","id":"12055:C15392801000000030","properties":{"id":"12055:C15392801000000030","parcelId":"C15392801000000030","countyFips":"12055","countyName":"Highlands","state":"Florida","marketIds":["Heartland"],"situsAddress":"131 PERCHERON TRL","situsCity":"VENUS","situsZip":"33960","jurisdictionCode":"Highlands","ownerName":"LTL REAL ESTATE HOLDING LLC","ownerName2":null,"propertyName":null,"zoningCode":"AU","zoningDistrict":"Highlands:AU","jurisdictionPrefix":null,"dorCode":"63","acreage":15.82,"centroid":[-81.502653,27.089266],"lastSale":{"date":"2025-04-30","price":1683500.0,"qualified":null},"tax":{"marketValue":null,"assessedValue":113868.0,"taxableValue":3506.0,"taxes":null},"mailingAddress":{"line1":"PO BOX 2738","line2":null,"city":"LAKE PLAICD","state":"FL","zip":"33862"},"incomeTract":null,"incomeBlockGroup":null,"nearestRoad":null,"flu":{"code":"AG","label":"AG","jurisdiction":"Highlands","source":"highlands-flum"},"opportunityZone":null,"oz2Eligibility":null,"source":"fl-highlands-pao-12055"},"geometry":{"type":"Polygon","coordinates":[[[-81.501712,27.090758],[-81.503642,27.090794],[-81.503593,27.087744],[-81.501665,27.087768],[-81.501712,27.090758]]]}},{"type":"Feature","id":"12055:C15392802001100000","properties":{"id":"12055:C15392802001100000","parcelId":"C15392802001100000","countyFips":"12055","countyName":"Highlands","state":"Florida","marketIds":["Heartland"],"situsAddress":"70 MAGNESS RD","situsCity":"VENUS","situsZip":"33960","jurisdictionCode":null,"ownerName":"M MORGAN LLC","ownerName2":null,"propertyName":null,"zoningCode":null,"zoningDistrict":null,"jurisdictionPrefix":null,"dorCode":"63","acreage":13.39,"centroid":[-81.511704,27.078331],"lastSale":{"date":"2009-03-23","price":100.0,"qualified":null},"tax":{"marketValue":null,"assessedValue":94286.0,"taxableValue":3660.0,"taxes":null},"mailingAddress":{"line1":"C/O DOTHAN LANDS","line2":"110 W 26TH ST APT 4B","city":"NEW YORK","state":"NY","zip":"10001"},"incomeTract":null,"incomeBlockGroup":null,"nearestRoad":null,"flu":null,"opportunityZone":null,"oz2Eligibility":null,"source":"fl-highlands-pao-12055"},"geometry":{"type":"Polygon","coordinates":[[[-81.511416,27.078963],[-81.513336,27.078957],[-81.513342,27.077453],[-81.510211,27.077314],[-81.510217,27.078967],[-81.511416,27.078963]]]}},{"type":"Feature","id":"12055:C15392801000000210","properties":{"id":"12055:C15392801000000210","parcelId":"C15392801000000210","countyFips":"12055","countyName":"Highlands","state":"Florida","marketIds":["Heartland"],"situsAddress":"141 LIPIZZANER TRL","situsCity":"VENUS","situsZip":"33960","jurisdictionCode":"Highlands","ownerName":"LTL REAL ESTATE HOLDING LLC","ownerName2":null,"propertyName":null,"zoningCode":"AU","zoningDistrict":"Highlands:AU","jurisdictionPrefix":null,"dorCode":"63","acreage":13.31,"centroid":[-81.504423,27.080969],"lastSale":{"date":"2025-04-30","price":1683500.0,"qualified":null},"tax":{"marketValue":null,"assessedValue":98174.0,"taxableValue":3738.0,"taxes":null},"mailingAddress":{"line1":"PO BOX 2738","line2":null,"city":"LAKE PLACID","state":"FL","zip":"33862"},"incomeTract":null,"incomeBlockGroup":null,"nearestRoad":null,"flu":{"code":"AG","label":"AG","jurisdiction":"Highlands","source":"highlands-flum"},"opportunityZone":null,"oz2Eligibility":null,"source":"fl-highlands-pao-12055"},"geometry":{"type":"Polygon","coordinates":[[[-81.503486,27.081046],[-81.503501,27.082009],[-81.505809,27.081979],[-81.505853,27.080129],[-81.503464,27.079684],[-81.503486,27.081046]]]}},{"type":"Feature","id":"12055:C15392801000000230","properties":{"id":"12055:C15392801000000230","parcelId":"C15392801000000230","countyFips":"12055","countyName":"Highlands","state":"Florida","marketIds":["Heartland"],"situsAddress":"151 LUSITANO TRL","situsCity":"VENUS","situsZip":"33960","jurisdictionCode":"Highlands","ownerName":"LTL REAL ESTATE HOLDING LLC","ownerName2":null,"propertyName":null,"zoningCode":"AU","zoningDistrict":"Highlands:AU","jurisdictionPrefix":null,"dorCode":"63","acreage":11.78,"centroid":[-81.501776,27.080262],"lastSale":{"date":"2025-04-30","price":1683500.0,"qualified":null},"tax":{"marketValue":null,"assessedValue":86532.0,"taxableValue":2926.0,"taxes":null},"mailingAddress":{"line1":"PO BOX 2738","line2":null,"city":"LAKE PLACID","state":"FL","zip":"33862"},"incomeTract":null,"incomeBlockGroup":null,"nearestRoad":null,"flu":{"code":"AG","label":"AG","jurisdiction":"Highlands","source":"highlands-flum"},"opportunityZone":null,"oz2Eligibility":null,"source":"fl-highlands-pao-12055"},"geometry":{"type":"Polygon","coordinates":[[[-81.499614,27.080127],[-81.49963,27.081095],[-81.503486,27.081046],[-81.503464,27.079684],[-81.502471,27.079499],[-81.501991,27.080118],[-81.499614,27.080127]]]}},{"type":"Feature","id":"12055:C15392801000000170","properties":{"id":"12055:C15392801000000170","parcelId":"C15392801000000170","countyFips":"12055","countyName":"Highlands","state":"Florida","marketIds":["Heartland"],"situsAddress":"131 LIPIZZANER TRL","situsCity":"VENUS","situsZip":"33960","jurisdictionCode":"Highlands","ownerName":"LTL REAL ESTATE HOLDING LLC","ownerName2":null,"propertyName":null,"zoningCode":"AU","zoningDistrict":"Highlands:AU","jurisdictionPrefix":null,"dorCode":"63","acreage":11.78,"centroid":[-81.504651,27.08295],"lastSale":{"date":"2025-04-30","price":1683500.0,"qualified":null},"tax":{"marketValue":null,"assessedValue":87172.0,"taxableValue":3534.0,"taxes":null},"mailingAddress":{"line1":"PO BOX 2738","line2":null,"city":"LAKE PLACID","state":"FL","zip":"33862"},"incomeTract":null,"incomeBlockGroup":null,"nearestRoad":null,"flu":{"code":"AG","label":"AG","jurisdiction":"Highlands","source":"highlands-flum"},"opportunityZone":null,"oz2Eligibility":null,"source":"fl-highlands-pao-12055"},"geometry":{"type":"Polygon","coordinates":[[[-81.503501,27.082009],[-81.503532,27.08392],[-81.505763,27.083892],[-81.505809,27.081979],[-81.503501,27.082009]]]}},{"type":"Feature","id":"12055:C15392802001200000","properties":{"id":"12055:C15392802001200000","parcelId":"C15392802001200000","countyFips":"12055","countyName":"Highlands","state":"Florida","marketIds":["Heartland"],"situsAddress":"76 MAGNESS RD","situsCity":"VENUS","situsZip":"33960","jurisdictionCode":null,"ownerName":"ELKANA RAHAMIM + HEIDI TRS","ownerName2":null,"propertyName":null,"zoningCode":null,"zoningDistrict":null,"jurisdictionPrefix":null,"dorCode":"63","acreage":11.42,"centroid":[-81.509105,27.078286],"lastSale":{"date":"2009-03-23","price":100.0,"qualified":null},"tax":{"marketValue":null,"assessedValue":84508.0,"taxableValue":3426.0,"taxes":null},"mailingAddress":{"line1":"11925 CANTAN CIRCLE","line2":null,"city":"PARKLAND","state":"FL","zip":"33076"},"incomeTract":null,"incomeBlockGroup":null,"nearestRoad":null,"flu":null,"opportunityZone":null,"oz2Eligibility":null,"source":"fl-highlands-pao-12055"},"geometry":{"type":"Polygon","coordinates":[[[-81.509587,27.078969],[-81.510217,27.078967],[-81.510211,27.077314],[-81.507752,27.077205],[-81.507759,27.078975],[-81.509587,27.078969]]]}},{"type":"Feature","id":"12055:C15392801000000130","properties":{"id":"12055:C15392801000000130","parcelId":"C15392801000000130","countyFips":"12055","countyName":"Highlands","state":"Florida","marketIds":["Heartland"],"situsAddress":"121 LIPIZZANER TRL","situsCity":"VENUS","situsZip":"33960","jurisdictionCode":"Highlands","ownerName":"LTL REAL ESTATE HOLDING LLC","ownerName2":null,"propertyName":null,"zoningCode":"AU","zoningDistrict":"Highlands:AU","jurisdictionPrefix":null,"dorCode":"63","acreage":11.39,"centroid":[-81.504644,27.084862],"lastSale":{"date":"2025-04-30","price":1683500.0,"qualified":null},"tax":{"marketValue":null,"assessedValue":84286.0,"taxableValue":3417.0,"taxes":null},"mailingAddress":{"line1":"PO BOX 2738","line2":null,"city":"LAKE PLACID","state":"FL","zip":"33862"},"incomeTract":null,"incomeBlockGroup":null,"nearestRoad":null,"flu":{"code":"AG","label":"AG","jurisdiction":"Highlands","source":"highlands-flum"},"opportunityZone":null,"oz2Eligibility":null,"source":"fl-highlands-pao-12055"},"geometry":{"type":"Polygon","coordinates":[[[-81.503532,27.08392],[-81.503562,27.085832],[-81.505719,27.085804],[-81.505763,27.083892],[-81.503532,27.08392]]]}},{"type":"Feature","id":"12055:C15392801000000020","properties":{"id":"12055:C15392801000000020","parcelId":"C15392801000000020","countyFips":"12055","countyName":"Highlands","state":"Florida","marketIds":["Heartland"],"situsAddress":"250 GRIGSBY RD","situsCity":"VENUS","situsZip":"33960","jurisdictionCode":"Highlands","ownerName":"LTL REAL ESTATE HOLDING LLC","ownerName2":null,"propertyName":null,"zoningCode":"AU","zoningDistrict":"Highlands:AU","jurisdictionPrefix":null,"dorCode":"63","acreage":11.35,"centroid":[-81.504624,27.090705],"lastSale":{"date":"2025-04-30","price":1683500.0,"qualified":null},"tax":{"marketValue":null,"assessedValue":79510.0,"taxableValue":3134.0,"taxes":null},"mailingAddress":{"line1":"PO BOX 2738","line2":null,"city":"LAKE PLACID","state":"FL","zip":"33862"},"incomeTract":null,"incomeBlockGroup":null,"nearestRoad":null,"flu":{"code":"AG","label":"AG","jurisdiction":"Highlands","source":"highlands-flum"},"opportunityZone":null,"oz2Eligibility":null,"source":"fl-highlands-pao-12055"},"geometry":{"type":"Polygon","coordinates":[[[-81.505632,27.08963],[-81.503623,27.089655],[-81.503657,27.09175],[-81.505582,27.091786],[-81.505632,27.08963]]]}},{"type":"Feature","id":"12055:C183928A0000200000","properties":{"id":"12055:C183928A0000200000","parcelId":"C183928A0000200000","countyFips":"12055","countyName":"Highlands","state":"Florida","marketIds":["Heartland"],"situsAddress":null,"situsCity":null,"situsZip":"33960","jurisdictionCode":null,"ownerName":"LLANO RANCHES LP","ownerName2":null,"propertyName":null,"zoningCode":null,"zoningDistrict":null,"jurisdictionPrefix":null,"dorCode":"99","acreage":11.04,"centroid":[-81.562239,27.082446],"lastSale":{"date":"2024-03-01","price":null,"qualified":null},"tax":{"marketValue":null,"assessedValue":829.0,"taxableValue":829.0,"taxes":null},"mailingAddress":{"line1":"1509 GRAHAM DAIRY ROAD","line2":null,"city":"VENUS","state":"FL","zip":"33960"},"incomeTract":null,"incomeBlockGroup":null,"nearestRoad":null,"flu":null,"opportunityZone":null,"oz2Eligibility":null,"source":"fl-highlands-pao-12055"},"geometry":{"type":"Polygon","coordinates":[[[-81.562283,27.09308],[-81.562398,27.093087],[-81.562279,27.070209],[-81.562023,27.07021],[-81.562212,27.085645],[-81.562283,27.09308]]]}},{"type":"Feature","id":"12055:C15392801000000090","properties":{"id":"12055:C15392801000000090","parcelId":"C15392801000000090","countyFips":"12055","countyName":"Highlands","state":"Florida","marketIds":["Heartland"],"situsAddress":"115 LIPIZZANER TRL","situsCity":"VENUS","situsZip":"33960","jurisdictionCode":"Highlands","ownerName":"LTL REAL ESTATE HOLDING LLC","ownerName2":null,"propertyName":null,"zoningCode":"AU","zoningDistrict":"Highlands:AU","jurisdictionPrefix":null,"dorCode":"63","acreage":11.0,"centroid":[-81.504637,27.086774],"lastSale":{"date":"2025-04-30","price":1683500.0,"qualified":null},"tax":{"marketValue":null,"assessedValue":81400.0,"taxableValue":3247.0,"taxes":null},"mailingAddress":{"line1":"PO BOX 2738","line2":null,"city":"LAKE PLACID","state":"FL","zip":"33862"},"incomeTract":null,"incomeBlockGroup":null,"nearestRoad":null,"flu":{"code":"AG","label":"AG","jurisdiction":"Highlands","source":"highlands-flum"},"opportunityZone":null,"oz2Eligibility":null,"source":"fl-highlands-pao-12055"},"geometry":{"type":"Polygon","coordinates":[[[-81.503562,27.085832],[-81.503593,27.087744],[-81.505675,27.087717],[-81.505719,27.085804],[-81.503562,27.085832]]]}},{"type":"Feature","id":"12055:C15392801000000060","properties":{"id":"12055:C15392801000000060","parcelId":"C15392801000000060","countyFips":"12055","countyName":"Highlands","state":"Florida","marketIds":["Heartland"],"situsAddress":"101 LIPIZZANER TRL","situsCity":"VENUS","situsZip":"33960","jurisdictionCode":"Highlands","ownerName":"LTL REAL ESTATE HOLDING LLC","ownerName2":null,"propertyName":null,"zoningCode":"AU","zoningDistrict":"Highlands:AU","jurisdictionPrefix":null,"dorCode":"63","acreage":10.62,"centroid":[-81.504631,27.088687],"lastSale":{"date":"2025-04-30","price":1683500.0,"qualified":null},"tax":{"marketValue":null,"assessedValue":78588.0,"taxableValue":3086.0,"taxes":null},"mailingAddress":{"line1":"PO BOX 2738","line2":null,"city":"LAKE PLAICD","state":"FL","zip":"33862"},"incomeTract":null,"incomeBlockGroup":null,"nearestRoad":null,"flu":{"code":"AG","label":"AG","jurisdiction":"Highlands","source":"highlands-flum"},"opportunityZone":null,"oz2Eligibility":null,"source":"fl-highlands-pao-12055"},"geometry":{"type":"Polygon","coordinates":[[[-81.503593,27.087744],[-81.503623,27.089655],[-81.505632,27.08963],[-81.505675,27.087717],[-81.503593,27.087744]]]}},{"type":"Feature","id":"12055:C15392801000000040","properties":{"id":"12055:C15392801000000040","parcelId":"C15392801000000040","countyFips":"12055","countyName":"Highlands","state":"Florida","marketIds":["Heartland"],"situsAddress":"111 PERCHERON TRL","situsCity":"VENUS","situsZip":"33960","jurisdictionCode":"Highlands","ownerName":"LTL REAL ESTATE HOLDING LLC","ownerName2":null,"propertyName":null,"zoningCode":"AU","zoningDistrict":"Highlands:AU","jurisdictionPrefix":null,"dorCode":"63","acreage":10.49,"centroid":[-81.500747,27.090694],"lastSale":{"date":"2025-04-30","price":1683500.0,"qualified":null},"tax":{"marketValue":null,"assessedValue":75386.0,"taxableValue":2327.0,"taxes":null},"mailingAddress":{"line1":"PO BOX 2738","line2":null,"city":"LAKE PLACID","state":"FL","zip":"33862"},"incomeTract":null,"incomeBlockGroup":null,"nearestRoad":null,"flu":{"code":"AG","label":"AG","jurisdiction":"Highlands","source":"highlands-flum"},"opportunityZone":null,"oz2Eligibility":null,"source":"fl-highlands-pao-12055"},"geometry":{"type":"Polygon","coordinates":[[[-81.499798,27.091677],[-81.501727,27.091714],[-81.501695,27.08968],[-81.499767,27.089705],[-81.499798,27.091677]]]}},{"type":"Feature","id":"12055:C15392802000400000","properties":{"id":"12055:C15392802000400000","parcelId":"C15392802000400000","countyFips":"12055","countyName":"Highlands","state":"Florida","marketIds":["Heartland"],"situsAddress":"28 MAGNESS RD","situsCity":"VENUS","situsZip":"33960","jurisdictionCode":null,"ownerName":"WILCO 188 INC","ownerName2":null,"propertyName":null,"zoningCode":null,"zoningDistrict":null,"jurisdictionPrefix":null,"dorCode":"63","acreage":10.43,"centroid":[-81.506556,27.084362],"lastSale":{"date":null,"price":null,"qualified":null},"tax":{"marketValue":null,"assessedValue":77182.0,"taxableValue":3129.0,"taxes":null},"mailingAddress":{"line1":"2860 CENTRAL PORT CIR","line2":null,"city":"POMPANO BEACH","state":"FL","zip":"33064"},"incomeTract":null,"incomeBlockGroup":null,"nearestRoad":null,"flu":null,"opportunityZone":null,"oz2Eligibility":null,"source":"fl-highlands-pao-12055"},"geometry":{"type":"Polygon","coordinates":[[[-81.505945,27.084462],[-81.505945,27.084467],[-81.505949,27.085633],[-81.507781,27.085083],[-81.507775,27.083261],[-81.505941,27.083267],[-81.505945,27.084462]]]}},{"type":"Feature","id":"12055:C15392802000800000","properties":{"id":"12055:C15392802000800000","parcelId":"C15392802000800000","countyFips":"12055","countyName":"Highlands","state":"Florida","marketIds":["Heartland"],"situsAddress":"50 MAGNESS RD","situsCity":"VENUS","situsZip":"33960","jurisdictionCode":null,"ownerName":"WILCO 188 INC","ownerName2":null,"propertyName":null,"zoningCode":null,"zoningDistrict":null,"jurisdictionPrefix":null,"dorCode":"63","acreage":10.42,"centroid":[-81.512376,27.08405],"lastSale":{"date":null,"price":null,"qualified":null},"tax":{"marketValue":null,"assessedValue":77108.0,"taxableValue":3126.0,"taxes":null},"mailingAddress":{"line1":"2860 CENTRAL PORT CIR","line2":null,"city":"POMPANO BEACH","state":"FL","zip":"33064"},"incomeTract":null,"incomeBlockGroup":null,"nearestRoad":null,"flu":null,"opportunityZone":null,"oz2Eligibility":null,"source":"fl-highlands-pao-12055"},"geometry":{"type":"Polygon","coordinates":[[[-81.511438,27.085072],[-81.513314,27.085066],[-81.513321,27.083028],[-81.511431,27.083034],[-81.511438,27.085072]]]}},{"type":"Feature","id":"12055:C15392802000700000","properties":{"id":"12055:C15392802000700000","parcelId":"C15392802000700000","countyFips":"12055","countyName":"Highlands","state":"Florida","marketIds":["Heartland"],"situsAddress":"44 MAGNESS RD","situsCity":"VENUS","situsZip":"33960","jurisdictionCode":null,"ownerName":"WILCO 188 INC","ownerName2":null,"propertyName":null,"zoningCode":null,"zoningDistrict":null,"jurisdictionPrefix":null,"dorCode":"63","acreage":10.27,"centroid":[-81.512114,27.085859],"lastSale":{"date":null,"price":null,"qualified":null},"tax":{"marketValue":null,"assessedValue":75998.0,"taxableValue":3081.0,"taxes":null},"mailingAddress":{"line1":"2860 CENTRAL PORT CIR","line2":null,"city":"POMPANO BEACH","state":"FL","zip":"33064"},"incomeTract":null,"incomeBlockGroup":null,"nearestRoad":null,"flu":null,"opportunityZone":null,"oz2Eligibility":null,"source":"fl-highlands-pao-12055"},"geometry":{"type":"Polygon","coordinates":[[[-81.510918,27.085073],[-81.510914,27.086655],[-81.513309,27.086642],[-81.513314,27.085066],[-81.510918,27.085073]]]}},{"type":"Feature","id":"12055:C15392802000100000","properties":{"id":"12055:C15392802000100000","parcelId":"C15392802000100000","countyFips":"12055","countyName":"Highlands","state":"Florida","marketIds":["Heartland"],"situsAddress":"130 MAGNESS RD","situsCity":"VENUS","situsZip":"33960","jurisdictionCode":null,"ownerName":"KTK BUCKING BULLS LLC","ownerName2":null,"propertyName":null,"zoningCode":null,"zoningDistrict":null,"jurisdictionPrefix":null,"dorCode":"99","acreage":10.17,"centroid":[-81.506842,27.078188],"lastSale":{"date":"2024-12-12","price":125000.0,"qualified":null},"tax":{"marketValue":null,"assessedValue":92226.0,"taxableValue":92226.0,"taxes":null},"mailingAddress":{"line1":"18225 BEAR CLAN ROAD","line2":null,"city":"OKEECHOBEE","state":"FL","zip":"34974"},"incomeTract":null,"incomeBlockGroup":null,"nearestRoad":null,"flu":null,"opportunityZone":null,"oz2Eligibility":null,"source":"fl-highlands-pao-12055"},"geometry":{"type":"Polygon","coordinates":[[[-81.505924,27.077124],[-81.50593,27.079214],[-81.50776,27.079208],[-81.507752,27.077205],[-81.505924,27.077124]]]}},{"type":"Feature","id":"12055:C15392802001500000","properties":{"id":"12055:C15392802001500000","parcelId":"C15392802001500000","countyFips":"12055","countyName":"Highlands","state":"Florida","marketIds":["Heartland"],"situsAddress":"29 MAGNESS RD","situsCity":"VENUS","situsZip":"33960","jurisdictionCode":null,"ownerName":"S + H LAND DEVELOPMENT LLC","ownerName2":null,"propertyName":null,"zoningCode":null,"zoningDistrict":null,"jurisdictionPrefix":null,"dorCode":"63","acreage":10.12,"centroid":[-81.50867,27.084265],"lastSale":{"date":"2016-02-16","price":100.0,"qualified":null},"tax":{"marketValue":null,"assessedValue":74888.0,"taxableValue":3036.0,"taxes":null},"mailingAddress":{"line1":"2860 CENTRAL PORT CIR","line2":null,"city":"POMPANO BEACH","state":"FL","zip":"33064"},"incomeTract":null,"incomeBlockGroup":null,"nearestRoad":null,"flu":null,"opportunityZone":null,"oz2Eligibility":null,"source":"fl-highlands-pao-12055"},"geometry":{"type":"Polygon","coordinates":[[[-81.508582,27.08508],[-81.50961,27.085077],[-81.509602,27.08304],[-81.507774,27.083046],[-81.507781,27.085083],[-81.508582,27.08508]]]}},{"type":"Feature","id":"12055:C15392802001600000","properties":{"id":"12055:C15392802001600000","parcelId":"C15392802001600000","countyFips":"12055","countyName":"Highlands","state":"Florida","marketIds":["Heartland"],"situsAddress":"49 MAGNESS RD","situsCity":"VENUS","situsZip":"33960","jurisdictionCode":null,"ownerName":"DINAR MICHAEL","ownerName2":null,"propertyName":null,"zoningCode":null,"zoningDistrict":null,"jurisdictionPrefix":null,"dorCode":"63","acreage":10.12,"centroid":[-81.5106,27.084259],"lastSale":{"date":"2009-03-23","price":100.0,"qualified":null},"tax":{"marketValue":null,"assessedValue":74888.0,"taxableValue":3036.0,"taxes":null},"mailingAddress":{"line1":"BERLIN ELIYAHU","line2":"#8 APT 30","city":"TELAVIV","state":null,"zip":"69584"},"incomeTract":null,"incomeBlockGroup":null,"nearestRoad":null,"flu":null,"opportunityZone":null,"oz2Eligibility":null,"source":"fl-highlands-pao-12055"},"geometry":{"type":"Polygon","coordinates":[[[-81.510918,27.085073],[-81.511438,27.085072],[-81.511431,27.083034],[-81.509602,27.08304],[-81.50961,27.085077],[-81.510918,27.085073]]]}},{"type":"Feature","id":"12055:C15392802001300000","properties":{"id":"12055:C15392802001300000","parcelId":"C15392802001300000","countyFips":"12055","countyName":"Highlands","state":"Florida","marketIds":["Heartland"],"situsAddress":"13 MAGNESS RD","situsCity":"VENUS","situsZip":"33960","jurisdictionCode":null,"ownerName":"AMIR HANAN + HELFER TEL","ownerName2":null,"propertyName":null,"zoningCode":null,"zoningDistrict":null,"jurisdictionPrefix":null,"dorCode":"63","acreage":10.11,"centroid":[-81.508677,27.079989],"lastSale":{"date":"2009-03-23","price":100.0,"qualified":null},"tax":{"marketValue":null,"assessedValue":74814.0,"taxableValue":3033.0,"taxes":null},"mailingAddress":{"line1":"C/O SIMHON","line2":"2801 NE 183RD ST APT 801 WEST","city":"AVENTURA","state":"FL","zip":"33160"},"incomeTract":null,"incomeBlockGroup":null,"nearestRoad":null,"flu":null,"opportunityZone":null,"oz2Eligibility":null,"source":"fl-highlands-pao-12055"},"geometry":{"type":"Polygon","coordinates":[[[-81.507766,27.08101],[-81.509595,27.081004],[-81.509587,27.078969],[-81.507759,27.078975],[-81.507766,27.08101]]]}},{"type":"Feature","id":"12055:C15392802001400000","properties":{"id":"12055:C15392802001400000","parcelId":"C15392802001400000","countyFips":"12055","countyName":"Highlands","state":"Florida","marketIds":["Heartland"],"situsAddress":"21 MAGNESS RD","situsCity":"VENUS","situsZip":"33960","jurisdictionCode":null,"ownerName":"DANIELA STARKMAN HOROVITZ","ownerName2":null,"propertyName":null,"zoningCode":null,"zoningDistrict":null,"jurisdictionPrefix":null,"dorCode":"63","acreage":10.11,"centroid":[-81.508684,27.082025],"lastSale":{"date":null,"price":null,"qualified":null},"tax":{"marketValue":null,"assessedValue":74814.0,"taxableValue":3033.0,"taxes":null},"mailingAddress":{"line1":"BURLA 48","line2":null,"city":"TEL AVIV","state":null,"zip":"69364"},"incomeTract":null,"incomeBlockGroup":null,"nearestRoad":null,"flu":null,"opportunityZone":null,"oz2Eligibility":null,"source":"fl-highlands-pao-12055"},"geometry":{"type":"Polygon","coordinates":[[[-81.507774,27.083046],[-81.509602,27.08304],[-81.509595,27.081004],[-81.507766,27.08101],[-81.507774,27.083046]]]}},{"type":"Feature","id":"12055:C15392802000300000","properties":{"id":"12055:C15392802000300000","parcelId":"C15392802000300000","countyFips":"12055","countyName":"Highlands","state":"Florida","marketIds":["Heartland"],"situsAddress":"20 MAGNESS RD","situsCity":"VENUS","situsZip":"33960","jurisdictionCode":null,"ownerName":"WILCO 188 INC","ownerName2":null,"propertyName":null,"zoningCode":null,"zoningDistrict":null,"jurisdictionPrefix":null,"dorCode":"63","acreage":10.1,"centroid":[-81.506672,27.082453],"lastSale":{"date":null,"price":null,"qualified":null},"tax":{"marketValue":null,"assessedValue":74420.0,"taxableValue":3016.0,"taxes":null},"mailingAddress":{"line1":"2860 CENTRAL PORT CIR","line2":null,"city":"POMPANO BEACH","state":"FL","zip":"33064"},"incomeTract":null,"incomeBlockGroup":null,"nearestRoad":null,"flu":null,"opportunityZone":null,"oz2Eligibility":null,"source":"fl-highlands-pao-12055"},"geometry":{"type":"Polygon","coordinates":[[[-81.505941,27.083267],[-81.505942,27.083267],[-81.507775,27.083261],[-81.507767,27.081232],[-81.505935,27.081237],[-81.505941,27.083267]]]}},{"type":"Feature","id":"12055:C15392801000000220","properties":{"id":"12055:C15392801000000220","parcelId":"C15392801000000220","countyFips":"12055","countyName":"Highlands","state":"Florida","marketIds":["Heartland"],"situsAddress":"141 LUSITANO TRL","situsCity":"VENUS","situsZip":"33960","jurisdictionCode":"Highlands","ownerName":"LTL REAL ESTATE HOLDING LLC","ownerName2":null,"propertyName":null,"zoningCode":"AU","zoningDistrict":"Highlands:AU","jurisdictionPrefix":null,"dorCode":"63","acreage":10.08,"centroid":[-81.501565,27.081552],"lastSale":{"date":"2025-04-30","price":1683500.0,"qualified":null},"tax":{"marketValue":null,"assessedValue":69152.0,"taxableValue":2336.0,"taxes":null},"mailingAddress":{"line1":"PO BOX 2738","line2":null,"city":"LAKE PLAICD","state":"FL","zip":"33862"},"incomeTract":null,"incomeBlockGroup":null,"nearestRoad":null,"flu":{"code":"AG","label":"AG","jurisdiction":"Highlands","source":"highlands-flum"},"opportunityZone":null,"oz2Eligibility":null,"source":"fl-highlands-pao-12055"},"geometry":{"type":"Polygon","coordinates":[[[-81.49963,27.081095],[-81.499645,27.082058],[-81.503501,27.082009],[-81.503486,27.081046],[-81.49963,27.081095]]]}},{"type":"Feature","id":"12055:C15392802000200000","properties":{"id":"12055:C15392802000200000","parcelId":"C15392802000200000","countyFips":"12055","countyName":"Highlands","state":"Florida","marketIds":["Heartland"],"situsAddress":"12 MAGNESS RD","situsCity":"VENUS","situsZip":"33960","jurisdictionCode":null,"ownerName":"WILCO 188 INC","ownerName2":null,"propertyName":null,"zoningCode":null,"zoningDistrict":null,"jurisdictionPrefix":null,"dorCode":"63","acreage":10.06,"centroid":[-81.506665,27.080207],"lastSale":{"date":null,"price":null,"qualified":null},"tax":{"marketValue":null,"assessedValue":70732.0,"taxableValue":2776.0,"taxes":null},"mailingAddress":{"line1":"2860 CENTRAL PORT CIR","line2":null,"city":"POMPANO BEACH","state":"FL","zip":"33064"},"incomeTract":null,"incomeBlockGroup":null,"nearestRoad":null,"flu":null,"opportunityZone":null,"oz2Eligibility":null,"source":"fl-highlands-pao-12055"},"geometry":{"type":"Polygon","coordinates":[[[-81.505932,27.080144],[-81.505935,27.081237],[-81.507767,27.081232],[-81.50776,27.079208],[-81.50593,27.079214],[-81.505932,27.080144]]]}},{"type":"Feature","id":"12055:C15392802000600000","properties":{"id":"12055:C15392802000600000","parcelId":"C15392802000600000","countyFips":"12055","countyName":"Highlands","state":"Florida","marketIds":["Heartland"],"situsAddress":"38 MAGNESS RD","situsCity":"VENUS","situsZip":"33960","jurisdictionCode":null,"ownerName":"WILCO 188 INC","ownerName2":null,"propertyName":null,"zoningCode":null,"zoningDistrict":null,"jurisdictionPrefix":null,"dorCode":"63","acreage":10.05,"centroid":[-81.509748,27.085869],"lastSale":{"date":null,"price":null,"qualified":null},"tax":{"marketValue":null,"assessedValue":74370.0,"taxableValue":3015.0,"taxes":null},"mailingAddress":{"line1":"2860 CENTRAL PORT CIR","line2":null,"city":"POMPANO BEACH","state":"FL","zip":"33064"},"incomeTract":null,"incomeBlockGroup":null,"nearestRoad":null,"flu":null,"opportunityZone":null,"oz2Eligibility":null,"source":"fl-highlands-pao-12055"},"geometry":{"type":"Polygon","coordinates":[[[-81.508582,27.08508],[-81.508577,27.086667],[-81.510914,27.086655],[-81.510918,27.085073],[-81.508582,27.08508]]]}},{"type":"Feature","id":"12055:C15392801000000180","properties":{"id":"12055:C15392801000000180","parcelId":"C15392801000000180","countyFips":"12055","countyName":"Highlands","state":"Florida","marketIds":["Heartland"],"situsAddress":"130 LIPIZZANER TRL","situsCity":"VENUS","situsZip":"33960","jurisdictionCode":"Highlands","ownerName":"LTL REAL ESTATE HOLDING LLC","ownerName2":null,"propertyName":null,"zoningCode":"AU","zoningDistrict":"Highlands:AU","jurisdictionPrefix":null,"dorCode":"63","acreage":10.01,"centroid":[-81.502553,27.082977],"lastSale":{"date":"2025-04-30","price":1683500.0,"qualified":null},"tax":{"marketValue":null,"assessedValue":73434.0,"taxableValue":2975.0,"taxes":null},"mailingAddress":{"line1":"PO BOX 2738","line2":null,"city":"LAKE PLACID","state":"FL","zip":"33862"},"incomeTract":null,"incomeBlockGroup":null,"nearestRoad":null,"flu":{"code":"AG","label":"AG","jurisdiction":"Highlands","source":"highlands-flum"},"opportunityZone":null,"oz2Eligibility":null,"source":"fl-highlands-pao-12055"},"geometry":{"type":"Polygon","coordinates":[[[-81.501573,27.082033],[-81.501604,27.083945],[-81.503532,27.08392],[-81.503501,27.082009],[-81.501573,27.082033]]]}},{"type":"Feature","id":"12055:C15392801000000190","properties":{"id":"12055:C15392801000000190","parcelId":"C15392801000000190","countyFips":"12055","countyName":"Highlands","state":"Florida","marketIds":["Heartland"],"situsAddress":"131 LUSITANO TRL","situsCity":"VENUS","situsZip":"33960","jurisdictionCode":"Highlands","ownerName":"LTL REAL ESTATE HOLDING LLC","ownerName2":null,"propertyName":null,"zoningCode":"AU","zoningDistrict":"Highlands:AU","jurisdictionPrefix":null,"dorCode":"63","acreage":10.01,"centroid":[-81.500624,27.083002],"lastSale":{"date":"2025-04-30","price":1683500.0,"qualified":null},"tax":{"marketValue":null,"assessedValue":72474.0,"taxableValue":2796.0,"taxes":null},"mailingAddress":{"line1":"PO BOX 2738","line2":null,"city":"LAKE PLACID","state":"FL","zip":"33862"},"incomeTract":null,"incomeBlockGroup":null,"nearestRoad":null,"flu":{"code":"AG","label":"AG","jurisdiction":"Highlands","source":"highlands-flum"},"opportunityZone":null,"oz2Eligibility":null,"source":"fl-highlands-pao-12055"},"geometry":{"type":"Polygon","coordinates":[[[-81.499645,27.082058],[-81.499675,27.08397],[-81.501604,27.083945],[-81.501573,27.082033],[-81.499645,27.082058]]]}},{"type":"Feature","id":"12055:C15392801000000140","properties":{"id":"12055:C15392801000000140","parcelId":"C15392801000000140","countyFips":"12055","countyName":"Highlands","state":"Florida","marketIds":["Heartland"],"situsAddress":"120 LIPIZZANER TRL","situsCity":"VENUS","situsZip":"33960","jurisdictionCode":"Highlands","ownerName":"LTL REAL ESTATE HOLDING LLC","ownerName2":null,"propertyName":null,"zoningCode":"AU","zoningDistrict":"Highlands:AU","jurisdictionPrefix":null,"dorCode":"63","acreage":10.01,"centroid":[-81.502583,27.084888],"lastSale":{"date":"2025-04-30","price":1683500.0,"qualified":null},"tax":{"marketValue":null,"assessedValue":73434.0,"taxableValue":2975.0,"taxes":null},"mailingAddress":{"line1":"PO BOX 2738","line2":null,"city":"LAKE PLAICD","state":"FL","zip":"33862"},"incomeTract":null,"incomeBlockGroup":null,"nearestRoad":null,"flu":{"code":"AG","label":"AG","jurisdiction":"Highlands","source":"highlands-flum"},"opportunityZone":null,"oz2Eligibility":null,"source":"fl-highlands-pao-12055"},"geometry":{"type":"Polygon","coordinates":[[[-81.501604,27.083945],[-81.501634,27.085857],[-81.503562,27.085832],[-81.503532,27.08392],[-81.501604,27.083945]]]}},{"type":"Feature","id":"12055:C15392801000000150","properties":{"id":"12055:C15392801000000150","parcelId":"C15392801000000150","countyFips":"12055","countyName":"Highlands","state":"Florida","marketIds":["Heartland"],"situsAddress":"121 LUSITANO TRL","situsCity":"VENUS","situsZip":"33960","jurisdictionCode":"Highlands","ownerName":"LTL REAL ESTATE HOLDING LLC","ownerName2":null,"propertyName":null,"zoningCode":"AU","zoningDistrict":"Highlands:AU","jurisdictionPrefix":null,"dorCode":"63","acreage":10.01,"centroid":[-81.500655,27.084913],"lastSale":{"date":"2025-04-30","price":1683500.0,"qualified":null},"tax":{"marketValue":null,"assessedValue":71834.0,"taxableValue":2905.0,"taxes":null},"mailingAddress":{"line1":"PO BOX 2738","line2":null,"city":"LAKE PLACID","state":"FL","zip":"33862"},"incomeTract":null,"incomeBlockGroup":null,"nearestRoad":null,"flu":{"code":"AG","label":"AG","jurisdiction":"Highlands","source":"highlands-flum"},"opportunityZone":null,"oz2Eligibility":null,"source":"fl-highlands-pao-12055"},"geometry":{"type":"Polygon","coordinates":[[[-81.499675,27.08397],[-81.499706,27.085881],[-81.501634,27.085857],[-81.501604,27.083945],[-81.499675,27.08397]]]}},{"type":"Feature","id":"12055:C15392801000000100","properties":{"id":"12055:C15392801000000100","parcelId":"C15392801000000100","countyFips":"12055","countyName":"Highlands","state":"Florida","marketIds":["Heartland"],"situsAddress":"116 LIPIZZANER TRL","situsCity":"VENUS","situsZip":"33960","jurisdictionCode":"Highlands","ownerName":"LTL REAL ESTATE HOLDING LLC","ownerName2":null,"propertyName":null,"zoningCode":"AU","zoningDistrict":"Highlands:AU","jurisdictionPrefix":null,"dorCode":"63","acreage":10.01,"centroid":[-81.502613,27.0868],"lastSale":{"date":"2025-04-30","price":1683500.0,"qualified":null},"tax":{"marketValue":null,"assessedValue":74074.0,"taxableValue":3003.0,"taxes":null},"mailingAddress":{"line1":"PO BOX 2738","line2":null,"city":"LAKE PLACID","state":"FL","zip":"33862"},"incomeTract":null,"incomeBlockGroup":null,"nearestRoad":null,"flu":{"code":"AG","label":"AG","jurisdiction":"Highlands","source":"highlands-flum"},"opportunityZone":null,"oz2Eligibility":null,"source":"fl-highlands-pao-12055"},"geometry":{"type":"Polygon","coordinates":[[[-81.501634,27.085857],[-81.501665,27.087768],[-81.503593,27.087744],[-81.503562,27.085832],[-81.501634,27.085857]]]}},{"type":"Feature","id":"12055:C15392801000000110","properties":{"id":"12055:C15392801000000110","parcelId":"C15392801000000110","countyFips":"12055","countyName":"Highlands","state":"Florida","marketIds":["Heartland"],"situsAddress":"101 LUSITANO TRL","situsCity":"VENUS","situsZip":"33960","jurisdictionCode":"Highlands","ownerName":"LTL REAL ESTATE HOLDING LLC","ownerName2":null,"propertyName":null,"zoningCode":"AU","zoningDistrict":"Highlands:AU","jurisdictionPrefix":null,"dorCode":"63","acreage":10.01,"centroid":[-81.500685,27.086825],"lastSale":{"date":"2025-04-30","price":1683500.0,"qualified":null},"tax":{"marketValue":null,"assessedValue":74074.0,"taxableValue":3003.0,"taxes":null},"mailingAddress":{"line1":"PO BOX 2738","line2":null,"city":"LAKE PLACID","state":"FL","zip":"33862"},"incomeTract":null,"incomeBlockGroup":null,"nearestRoad":null,"flu":{"code":"AG","label":"AG","jurisdiction":"Highlands","source":"highlands-flum"},"opportunityZone":null,"oz2Eligibility":null,"source":"fl-highlands-pao-12055"},"geometry":{"type":"Polygon","coordinates":[[[-81.499706,27.085881],[-81.499736,27.087793],[-81.501665,27.087768],[-81.501634,27.085857],[-81.499706,27.085881]]]}},{"type":"Feature","id":"12055:C15392801000000070","properties":{"id":"12055:C15392801000000070","parcelId":"C15392801000000070","countyFips":"12055","countyName":"Highlands","state":"Florida","marketIds":["Heartland"],"situsAddress":"121 PERCHERON TRL","situsCity":"VENUS","situsZip":"33960","jurisdictionCode":"Highlands","ownerName":"LTL REAL ESTATE HOLDING LLC","ownerName2":null,"propertyName":null,"zoningCode":"AU","zoningDistrict":"Highlands:AU","jurisdictionPrefix":null,"dorCode":"63","acreage":10.01,"centroid":[-81.500716,27.088736],"lastSale":{"date":"2025-04-30","price":1683500.0,"qualified":null},"tax":{"marketValue":null,"assessedValue":74074.0,"taxableValue":2978.0,"taxes":null},"mailingAddress":{"line1":"PO BOX 2738","line2":null,"city":"LAKE PLACID","state":"FL","zip":"33862"},"incomeTract":null,"incomeBlockGroup":null,"nearestRoad":null,"flu":{"code":"AG","label":"AG","jurisdiction":"Highlands","source":"highlands-flum"},"opportunityZone":null,"oz2Eligibility":null,"source":"fl-highlands-pao-12055"},"geometry":{"type":"Polygon","coordinates":[[[-81.499736,27.087793],[-81.499767,27.089705],[-81.501695,27.08968],[-81.501665,27.087768],[-81.499736,27.087793]]]}},{"type":"Feature","id":"12055:C15392802000500000","properties":{"id":"12055:C15392802000500000","parcelId":"C15392802000500000","countyFips":"12055","countyName":"Highlands","state":"Florida","marketIds":["Heartland"],"situsAddress":"32 MGANESS RD","situsCity":"VENUS","situsZip":"33960","jurisdictionCode":null,"ownerName":"WILCO 188 INC","ownerName2":null,"propertyName":null,"zoningCode":null,"zoningDistrict":null,"jurisdictionPrefix":null,"dorCode":"63","acreage":9.99,"centroid":[-81.507132,27.085806],"lastSale":{"date":null,"price":null,"qualified":null},"tax":{"marketValue":null,"assessedValue":73926.0,"taxableValue":2997.0,"taxes":null},"mailingAddress":{"line1":"2860 CENTRAL PORT CIR","line2":null,"city":"POMPANO BEACH","state":"FL","zip":"33064"},"incomeTract":null,"incomeBlockGroup":null,"nearestRoad":null,"flu":null,"opportunityZone":null,"oz2Eligibility":null,"source":"fl-highlands-pao-12055"},"geometry":{"type":"Polygon","coordinates":[[[-81.505949,27.085633],[-81.505949,27.08569],[-81.505953,27.086681],[-81.508577,27.086667],[-81.508582,27.08508],[-81.507781,27.085083],[-81.505949,27.085633]]]}},{"type":"Feature","id":"12055:C333928A0000100000","properties":{"id":"12055:C333928A0000100000","parcelId":"C333928A0000100000","countyFips":"12055","countyName":"Highlands","state":"Florida","marketIds":["Heartland"],"situsAddress":null,"situsCity":null,"situsZip":"33960","jurisdictionCode":null,"ownerName":"AR LAND HOLDINGS LLC","ownerName2":null,"propertyName":null,"zoningCode":null,"zoningDistrict":null,"jurisdictionPrefix":null,"dorCode":"63","acreage":6.34,"centroid":[-81.513713,27.04467],"lastSale":{"date":"2023-01-30","price":488000.0,"qualified":null},"tax":{"marketValue":null,"assessedValue":46916.0,"taxableValue":1902.0,"taxes":null},"mailingAddress":{"line1":"6307 LA COSTA DR UNIT C","line2":null,"city":"BOCA RATON","state":"FL","zip":"33433"},"incomeTract":null,"incomeBlockGroup":null,"nearestRoad":null,"flu":null,"opportunityZone":null,"oz2Eligibility":null,"source":"fl-highlands-pao-12055"},"geometry":{"type":"Polygon","coordinates":[[[-81.513696,27.048467],[-81.514003,27.048469],[-81.513731,27.040873],[-81.513424,27.04087],[-81.513696,27.048467]]]}},{"type":"Feature","id":"12055:C153928A0000300000","properties":{"id":"12055:C153928A0000300000","parcelId":"C153928A0000300000","countyFips":"12055","countyName":"Highlands","state":"Florida","marketIds":["Heartland"],"situsAddress":"270 GRIGSBY RD","situsCity":"VENUS","situsZip":"33960","jurisdictionCode":null,"ownerName":"GOMEZ ROBERT","ownerName2":null,"propertyName":null,"zoningCode":null,"zoningDistrict":null,"jurisdictionPrefix":null,"dorCode":"63","acreage":6.0,"centroid":[-81.506557,27.091231],"lastSale":{"date":"2013-12-19","price":null,"qualified":null},"tax":{"marketValue":null,"assessedValue":41840.0,"taxableValue":1481.0,"taxes":null},"mailingAddress":{"line1":"192 W 34TH ST","line2":null,"city":"HIALEAH","state":"FL","zip":"33012"},"incomeTract":null,"incomeBlockGroup":null,"nearestRoad":null,"flu":null,"opportunityZone":null,"oz2Eligibility":null,"source":"fl-highlands-pao-12055"},"geometry":{"type":"Polygon","coordinates":[[[-81.505582,27.091786],[-81.507506,27.091823],[-81.507532,27.090675],[-81.505609,27.090638],[-81.505582,27.091786]]]}},{"type":"Feature","id":"12055:C22392801000002520","properties":{"id":"12055:C22392801000002520","parcelId":"C22392801000002520","countyFips":"12055","countyName":"Highlands","state":"Florida","marketIds":["Heartland"],"situsAddress":"2009 MAINE COON ST","situsCity":"VENUS","situsZip":"33960","jurisdictionCode":"Highlands","ownerName":"GRANI PROPERTIES LLC","ownerName2":null,"propertyName":null,"zoningCode":"AU","zoningDistrict":"Highlands:AU","jurisdictionPrefix":null,"dorCode":"99","acreage":5.2,"centroid":[-81.500147,27.070613],"lastSale":{"date":"2014-08-08","price":100.0,"qualified":null},"tax":{"marketValue":null,"assessedValue":31140.0,"taxableValue":16718.0,"taxes":null},"mailingAddress":{"line1":"1724 WATERCREST WAY","line2":"UNIT F","city":"YOUNG HARRIS","state":"GA","zip":"30582"},"incomeTract":null,"incomeBlockGroup":null,"nearestRoad":null,"flu":{"code":"AG","label":"AG","jurisdiction":"Highlands","source":"highlands-flum"},"opportunityZone":null,"oz2Eligibility":null,"source":"fl-highlands-pao-12055"},"geometry":{"type":"Polygon","coordinates":[[[-81.499636,27.071518],[-81.500681,27.071539],[-81.50066,27.069709],[-81.499613,27.069687],[-81.499636,27.071518]]]}},{"type":"Feature","id":"12055:C22392801000002510","properties":{"id":"12055:C22392801000002510","parcelId":"C22392801000002510","countyFips":"12055","countyName":"Highlands","state":"Florida","marketIds":["Heartland"],"situsAddress":"2013 MAINE COON ST","situsCity":"VENUS","situsZip":"33960","jurisdictionCode":"Highlands","ownerName":"NORMAN WINSTON A + PHILLIPPA M","ownerName2":null,"propertyName":null,"zoningCode":"AU","zoningDistrict":"Highlands:AU","jurisdictionPrefix":null,"dorCode":"53","acreage":5.2,"centroid":[-81.501193,27.070635],"lastSale":{"date":"2005-04-14","price":85000.0,"qualified":null},"tax":{"marketValue":null,"assessedValue":45630.0,"taxableValue":2459.0,"taxes":null},"mailingAddress":{"line1":"4285 55TH ST","line2":null,"city":"VERO BEACH","state":"FL","zip":"32967"},"incomeTract":null,"incomeBlockGroup":null,"nearestRoad":null,"flu":{"code":"AG","label":"AG","jurisdiction":"Highlands","source":"highlands-flum"},"opportunityZone":null,"oz2Eligibility":null,"source":"fl-highlands-pao-12055"},"geometry":{"type":"Polygon","coordinates":[[[-81.500681,27.071539],[-81.501725,27.071561],[-81.501707,27.069731],[-81.50066,27.069709],[-81.500681,27.071539]]]}},{"type":"Feature","id":"12055:C22392801000002500","properties":{"id":"12055:C22392801000002500","parcelId":"C22392801000002500","countyFips":"12055","countyName":"Highlands","state":"Florida","marketIds":["Heartland"],"situsAddress":"2017 MAINE COON ST","situsCity":"VENUS","situsZip":"33960","jurisdictionCode":"Highlands","ownerName":"SARWAR GOLAM","ownerName2":null,"propertyName":null,"zoningCode":"AU","zoningDistrict":"Highlands:AU","jurisdictionPrefix":null,"dorCode":"99","acreage":5.19,"centroid":[-81.502239,27.070657],"lastSale":{"date":"2021-03-23","price":34900.0,"qualified":null},"tax":{"marketValue":null,"assessedValue":29280.0,"taxableValue":21433.0,"taxes":null},"mailingAddress":{"line1":"15708 S BROADWAY ST","line2":null,"city":"GLENPOOL","state":"OK","zip":"74033"},"incomeTract":null,"incomeBlockGroup":null,"nearestRoad":null,"flu":{"code":"AG","label":"AG","jurisdiction":"Highlands","source":"highlands-flum"},"opportunityZone":null,"oz2Eligibility":null,"source":"fl-highlands-pao-12055"},"geometry":{"type":"Polygon","coordinates":[[[-81.501725,27.071561],[-81.502769,27.071582],[-81.502754,27.069753],[-81.501707,27.069731],[-81.501725,27.071561]]]}},{"type":"Feature","id":"12055:C22392801000002490","properties":{"id":"12055:C22392801000002490","parcelId":"C22392801000002490","countyFips":"12055","countyName":"Highlands","state":"Florida","marketIds":["Heartland"],"situsAddress":"2021 MAINE COON ST","situsCity":"VENUS","situsZip":"33960","jurisdictionCode":"Highlands","ownerName":"GOBER MEL","ownerName2":null,"propertyName":null,"zoningCode":"AU","zoningDistrict":"Highlands:AU","jurisdictionPrefix":null,"dorCode":"53","acreage":5.19,"centroid":[-81.503284,27.070678],"lastSale":{"date":"2005-05-05","price":95000.0,"qualified":null},"tax":{"marketValue":null,"assessedValue":45630.0,"taxableValue":2459.0,"taxes":null},"mailingAddress":{"line1":"3072 OLD STILL LN","line2":null,"city":"WESTON","state":"FL","zip":"33331"},"incomeTract":null,"incomeBlockGroup":null,"nearestRoad":null,"flu":{"code":"AG","label":"AG","jurisdiction":"Highlands","source":"highlands-flum"},"opportunityZone":null,"oz2Eligibility":null,"source":"fl-highlands-pao-12055"},"geometry":{"type":"Polygon","coordinates":[[[-81.502769,27.071582],[-81.503813,27.071603],[-81.503801,27.069775],[-81.502754,27.069753],[-81.502769,27.071582]]]}},{"type":"Feature","id":"12055:C22392801000002480","properties":{"id":"12055:C22392801000002480","parcelId":"C22392801000002480","countyFips":"12055","countyName":"Highlands","state":"Florida","marketIds":["Heartland"],"situsAddress":"2025 MAINE COON ST","situsCity":"VENUS","situsZip":"33960","jurisdictionCode":"Highlands","ownerName":"SELBST ARLENE TRUSTEE","ownerName2":null,"propertyName":null,"zoningCode":"AU","zoningDistrict":"Highlands:AU","jurisdictionPrefix":null,"dorCode":"53","acreage":5.19,"centroid":[-81.50433,27.0707],"lastSale":{"date":"2022-02-01","price":100.0,"qualified":null},"tax":{"marketValue":null,"assessedValue":45630.0,"taxableValue":2459.0,"taxes":null},"mailingAddress":{"line1":"1227 MANOR DR S","line2":null,"city":"WESTON","state":"FL","zip":"33326"},"incomeTract":null,"incomeBlockGroup":null,"nearestRoad":null,"flu":{"code":"AG","label":"AG","jurisdiction":"Highlands","source":"highlands-flum"},"opportunityZone":null,"oz2Eligibility":null,"source":"fl-highlands-pao-12055"},"geometry":{"type":"Polygon","coordinates":[[[-81.503813,27.071603],[-81.504858,27.071624],[-81.504848,27.069797],[-81.503801,27.069775],[-81.503813,27.071603]]]}},{"type":"Feature","id":"12055:C22392801000002470","properties":{"id":"12055:C22392801000002470","parcelId":"C22392801000002470","countyFips":"12055","countyName":"Highlands","state":"Florida","marketIds":["Heartland"],"situsAddress":"2029 MAINE COON ST","situsCity":"VENUS","situsZip":"33960","jurisdictionCode":"Highlands","ownerName":"ESTAVIEN JOSEPH","ownerName2":null,"propertyName":null,"zoningCode":"AU","zoningDistrict":"Highlands:AU","jurisdictionPrefix":null,"dorCode":"53","acreage":5.19,"centroid":[-81.505376,27.070722],"lastSale":{"date":"2005-07-25","price":110000.0,"qualified":null},"tax":{"marketValue":null,"assessedValue":45630.0,"taxableValue":2459.0,"taxes":null},"mailingAddress":{"line1":"1750 NW 111 ST","line2":null,"city":"MIAMI","state":"FL","zip":"33167"},"incomeTract":null,"incomeBlockGroup":null,"nearestRoad":null,"flu":{"code":"AG","label":"AG","jurisdiction":"Highlands","source":"highlands-flum"},"opportunityZone":null,"oz2Eligibility":null,"source":"fl-highlands-pao-12055"},"geometry":{"type":"Polygon","coordinates":[[[-81.504858,27.071624],[-81.505902,27.071646],[-81.505895,27.069819],[-81.504848,27.069797],[-81.504858,27.071624]]]}},{"type":"Feature","id":"12055:C22392801000002410","properties":{"id":"12055:C22392801000002410","parcelId":"C22392801000002410","countyFips":"12055","countyName":"Highlands","state":"Florida","marketIds":["Heartland"],"situsAddress":"2008 MAINE COON ST","situsCity":"VENUS","situsZip":"33960","jurisdictionCode":"Highlands","ownerName":"NGUYEN BAC VAN + TRINH TU TRUSTEES","ownerName2":null,"propertyName":null,"zoningCode":"AU","zoningDistrict":"Highlands:AU","jurisdictionPrefix":null,"dorCode":"53","acreage":5.18,"centroid":[-81.50017,27.072444],"lastSale":{"date":"2019-05-07","price":100.0,"qualified":null},"tax":{"marketValue":null,"assessedValue":42620.0,"taxableValue":2280.0,"taxes":null},"mailingAddress":{"line1":"5020 MALLARDS PLACE","line2":null,"city":"COCONUT CREEK","state":"FL","zip":"33073"},"incomeTract":null,"incomeBlockGroup":null,"nearestRoad":null,"flu":{"code":"AG","label":"AG","jurisdiction":"Highlands","source":"highlands-flum"},"opportunityZone":null,"oz2Eligibility":null,"source":"fl-highlands-pao-12055"},"geometry":{"type":"Polygon","coordinates":[[[-81.49966,27.073349],[-81.500702,27.07337],[-81.500681,27.071539],[-81.499636,27.071518],[-81.49966,27.073349]]]}},{"type":"Feature","id":"12055:C22392801000002420","properties":{"id":"12055:C22392801000002420","parcelId":"C22392801000002420","countyFips":"12055","countyName":"Highlands","state":"Florida","marketIds":["Heartland"],"situsAddress":"2012 MAINE COON ST","situsCity":"VENUS","situsZip":"33960","jurisdictionCode":"Highlands","ownerName":"DO JANNE","ownerName2":null,"propertyName":null,"zoningCode":"AU","zoningDistrict":"Highlands:AU","jurisdictionPrefix":null,"dorCode":"99","acreage":5.18,"centroid":[-81.501213,27.072465],"lastSale":{"date":"2019-05-01","price":100.0,"qualified":null},"tax":{"marketValue":null,"assessedValue":31080.0,"taxableValue":16686.0,"taxes":null},"mailingAddress":{"line1":"7000 MONUMENT AVE","line2":null,"city":"RICHMOND","state":"VA","zip":"23226"},"incomeTract":null,"incomeBlockGroup":null,"nearestRoad":null,"flu":{"code":"AG","label":"AG","jurisdiction":"Highlands","source":"highlands-flum"},"opportunityZone":null,"oz2Eligibility":null,"source":"fl-highlands-pao-12055"},"geometry":{"type":"Polygon","coordinates":[[[-81.500702,27.07337],[-81.501743,27.07339],[-81.501725,27.071561],[-81.500681,27.071539],[-81.500702,27.07337]]]}},{"type":"Feature","id":"12055:C22392801000002430","properties":{"id":"12055:C22392801000002430","parcelId":"C22392801000002430","countyFips":"12055","countyName":"Highlands","state":"Florida","marketIds":["Heartland"],"situsAddress":"2016 MAINE COON ST","situsCity":"VENUS","situsZip":"33960","jurisdictionCode":"Highlands","ownerName":"DO JANNE","ownerName2":null,"propertyName":null,"zoningCode":"AU","zoningDistrict":"Highlands:AU","jurisdictionPrefix":null,"dorCode":"99","acreage":5.18,"centroid":[-81.502256,27.072486],"lastSale":{"date":"2019-05-01","price":100.0,"qualified":null},"tax":{"marketValue":null,"assessedValue":31080.0,"taxableValue":16686.0,"taxes":null},"mailingAddress":{"line1":"7000 MONUMENT AVE","line2":null,"city":"RICHMOND","state":"VA","zip":"23226"},"incomeTract":null,"incomeBlockGroup":null,"nearestRoad":null,"flu":{"code":"AG","label":"AG","jurisdiction":"Highlands","source":"highlands-flum"},"opportunityZone":null,"oz2Eligibility":null,"source":"fl-highlands-pao-12055"},"geometry":{"type":"Polygon","coordinates":[[[-81.501743,27.07339],[-81.502785,27.073411],[-81.502769,27.071582],[-81.501725,27.071561],[-81.501743,27.07339]]]}},{"type":"Feature","id":"12055:C22392801000002440","properties":{"id":"12055:C22392801000002440","parcelId":"C22392801000002440","countyFips":"12055","countyName":"Highlands","state":"Florida","marketIds":["Heartland"],"situsAddress":"2020 MAINE COON ST","situsCity":"VENUS","situsZip":"33960","jurisdictionCode":"Highlands","ownerName":"DINH DANG","ownerName2":null,"propertyName":null,"zoningCode":"AU","zoningDistrict":"Highlands:AU","jurisdictionPrefix":null,"dorCode":"53","acreage":5.18,"centroid":[-81.503298,27.072507],"lastSale":{"date":"2005-03-23","price":125000.0,"qualified":null},"tax":{"marketValue":null,"assessedValue":43020.0,"taxableValue":2303.0,"taxes":null},"mailingAddress":{"line1":"7135 CHESAPEAKE CIR","line2":null,"city":"BOYNTON BEACH","state":"FL","zip":"33436"},"incomeTract":null,"incomeBlockGroup":null,"nearestRoad":null,"flu":{"code":"AG","label":"AG","jurisdiction":"Highlands","source":"highlands-flum"},"opportunityZone":null,"oz2Eligibility":null,"source":"fl-highlands-pao-12055"},"geometry":{"type":"Polygon","coordinates":[[[-81.502785,27.073411],[-81.503826,27.073431],[-81.503813,27.071603],[-81.502769,27.071582],[-81.502785,27.073411]]]}},{"type":"Feature","id":"12055:C22392801000002450","properties":{"id":"12055:C22392801000002450","parcelId":"C22392801000002450","countyFips":"12055","countyName":"Highlands","state":"Florida","marketIds":["Heartland"],"situsAddress":"2024 MAINE COON ST","situsCity":"VENUS","situsZip":"33960","jurisdictionCode":"Highlands","ownerName":"CHOWDHURY SUZZADUL + DEOGRACIA","ownerName2":null,"propertyName":null,"zoningCode":"AU","zoningDistrict":"Highlands:AU","jurisdictionPrefix":null,"dorCode":"99","acreage":5.18,"centroid":[-81.504341,27.072527],"lastSale":{"date":"2005-07-12","price":135000.0,"qualified":null},"tax":{"marketValue":null,"assessedValue":29880.0,"taxableValue":16041.0,"taxes":null},"mailingAddress":{"line1":"97 GRANITE ST #1","line2":null,"city":"WORCESTER","state":"MA","zip":"01604"},"incomeTract":null,"incomeBlockGroup":null,"nearestRoad":null,"flu":{"code":"AG","label":"AG","jurisdiction":"Highlands","source":"highlands-flum"},"opportunityZone":null,"oz2Eligibility":null,"source":"fl-highlands-pao-12055"},"geometry":{"type":"Polygon","coordinates":[[[-81.503826,27.073431],[-81.504868,27.073452],[-81.504858,27.071624],[-81.503813,27.071603],[-81.503826,27.073431]]]}},{"type":"Feature","id":"12055:C22392801000002360","properties":{"id":"12055:C22392801000002360","parcelId":"C22392801000002360","countyFips":"12055","countyName":"Highlands","state":"Florida","marketIds":["Heartland"],"situsAddress":"3009 MUNCHKIN ST","situsCity":"VENUS","situsZip":"33960","jurisdictionCode":"Highlands","ownerName":"PIETRZAK CHESTER + ELAINE","ownerName2":null,"propertyName":null,"zoningCode":"AU","zoningDistrict":"Highlands:AU","jurisdictionPrefix":null,"dorCode":"53","acreage":5.17,"centroid":[-81.500192,27.074275],"lastSale":{"date":"2005-09-26","price":135000.0,"qualified":null},"tax":{"marketValue":null,"assessedValue":43330.0,"taxableValue":2321.0,"taxes":null},"mailingAddress":{"line1":"2318 PALM DEER DR","line2":null,"city":"LOXAHATCHEE","state":"FL","zip":"33470"},"incomeTract":null,"incomeBlockGroup":null,"nearestRoad":null,"flu":{"code":"AG","label":"AG","jurisdiction":"Highlands","source":"highlands-flum"},"opportunityZone":null,"oz2Eligibility":null,"source":"fl-highlands-pao-12055"},"geometry":{"type":"Polygon","coordinates":[[[-81.499684,27.075181],[-81.500723,27.0752],[-81.500702,27.07337],[-81.49966,27.073349],[-81.499684,27.075181]]]}},{"type":"Feature","id":"12055:C22392801000002350","properties":{"id":"12055:C22392801000002350","parcelId":"C22392801000002350","countyFips":"12055","countyName":"Highlands","state":"Florida","marketIds":["Heartland"],"situsAddress":"3013 MUNCHKIN ST","situsCity":"VENUS","situsZip":"33960","jurisdictionCode":"Highlands","ownerName":"LE TRAM THI-ANH","ownerName2":null,"propertyName":null,"zoningCode":"AU","zoningDistrict":"Highlands:AU","jurisdictionPrefix":null,"dorCode":"99","acreage":5.17,"centroid":[-81.501232,27.074295],"lastSale":{"date":"2009-11-10","price":100.0,"qualified":null},"tax":{"marketValue":null,"assessedValue":29880.0,"taxableValue":16041.0,"taxes":null},"mailingAddress":{"line1":"930 SPRING OAK CIR","line2":null,"city":"ORLANDO","state":"FL","zip":"32828"},"incomeTract":null,"incomeBlockGroup":null,"nearestRoad":null,"flu":{"code":"AG","label":"AG","jurisdiction":"Highlands","source":"highlands-flum"},"opportunityZone":null,"oz2Eligibility":null,"source":"fl-highlands-pao-12055"},"geometry":{"type":"Polygon","coordinates":[[[-81.500723,27.0752],[-81.501761,27.07522],[-81.501743,27.07339],[-81.500702,27.07337],[-81.500723,27.0752]]]}},{"type":"Feature","id":"12055:C22392801000002340","properties":{"id":"12055:C22392801000002340","parcelId":"C22392801000002340","countyFips":"12055","countyName":"Highlands","state":"Florida","marketIds":["Heartland"],"situsAddress":"3017 MUNCHKIN ST","situsCity":"VENUS","situsZip":"33960","jurisdictionCode":"Highlands","ownerName":"LOTT JOSEPH W + CLARICE S","ownerName2":null,"propertyName":null,"zoningCode":"AU","zoningDistrict":"Highlands:AU","jurisdictionPrefix":null,"dorCode":"53","acreage":5.17,"centroid":[-81.502272,27.074315],"lastSale":{"date":"2017-06-15","price":12500.0,"qualified":null},"tax":{"marketValue":null,"assessedValue":43570.0,"taxableValue":2335.0,"taxes":null},"mailingAddress":{"line1":"P O BOX 418","line2":null,"city":"VENUS","state":"FL","zip":"33960"},"incomeTract":null,"incomeBlockGroup":null,"nearestRoad":null,"flu":{"code":"AG","label":"AG","jurisdiction":"Highlands","source":"highlands-flum"},"opportunityZone":null,"oz2Eligibility":null,"source":"fl-highlands-pao-12055"},"geometry":{"type":"Polygon","coordinates":[[[-81.501761,27.07522],[-81.5028,27.07524],[-81.502785,27.073411],[-81.501743,27.07339],[-81.501761,27.07522]]]}},{"type":"Feature","id":"12055:C22392801000002460","properties":{"id":"12055:C22392801000002460","parcelId":"C22392801000002460","countyFips":"12055","countyName":"Highlands","state":"Florida","marketIds":["Heartland"],"situsAddress":"2028 MAINE COON ST","situsCity":"VENUS","situsZip":"33960","jurisdictionCode":"Highlands","ownerName":"HAZERA PETER + ROYCEANNE D","ownerName2":null,"propertyName":null,"zoningCode":"AU","zoningDistrict":"Highlands:AU","jurisdictionPrefix":null,"dorCode":"53","acreage":5.17,"centroid":[-81.505384,27.072548],"lastSale":{"date":"2005-08-30","price":130000.0,"qualified":null},"tax":{"marketValue":null,"assessedValue":38562.0,"taxableValue":1586.0,"taxes":null},"mailingAddress":{"line1":"5102 BELMORE PARKWAY APT 1802","line2":null,"city":"TAMPA","state":"FL","zip":"33624"},"incomeTract":null,"incomeBlockGroup":null,"nearestRoad":null,"flu":{"code":"AG","label":"AG","jurisdiction":"Highlands","source":"highlands-flum"},"opportunityZone":null,"oz2Eligibility":null,"source":"fl-highlands-pao-12055"},"geometry":{"type":"Polygon","coordinates":[[[-81.504868,27.073452],[-81.505909,27.073472],[-81.505902,27.071646],[-81.504858,27.071624],[-81.504868,27.073452]]]}},{"type":"Feature","id":"12055:C22392801000002330","properties":{"id":"12055:C22392801000002330","parcelId":"C22392801000002330","countyFips":"12055","countyName":"Highlands","state":"Florida","marketIds":["Heartland"],"situsAddress":"3021 MUNCHKIN ST","situsCity":"VENUS","situsZip":"33960","jurisdictionCode":"Highlands","ownerName":"LOTT JOSEPH W + CLARICE S","ownerName2":null,"propertyName":null,"zoningCode":"AU","zoningDistrict":"Highlands:AU","jurisdictionPrefix":null,"dorCode":"53","acreage":5.16,"centroid":[-81.503312,27.074335],"lastSale":{"date":"2014-05-12","price":25000.0,"qualified":null},"tax":{"marketValue":null,"assessedValue":43400.0,"taxableValue":2326.0,"taxes":null},"mailingAddress":{"line1":"P O BOX 418","line2":null,"city":"VENUS","state":"FL","zip":"33960"},"incomeTract":null,"incomeBlockGroup":null,"nearestRoad":null,"flu":{"code":"AG","label":"AG","jurisdiction":"Highlands","source":"highlands-flum"},"opportunityZone":null,"oz2Eligibility":null,"source":"fl-highlands-pao-12055"},"geometry":{"type":"Polygon","coordinates":[[[-81.5028,27.07524],[-81.503839,27.075259],[-81.503826,27.073431],[-81.502785,27.073411],[-81.5028,27.07524]]]}},{"type":"Feature","id":"12055:C22392801000002320","properties":{"id":"12055:C22392801000002320","parcelId":"C22392801000002320","countyFips":"12055","countyName":"Highlands","state":"Florida","marketIds":["Heartland"],"situsAddress":"3025 MUNCHKIN ST","situsCity":"VENUS","situsZip":"33960","jurisdictionCode":"Highlands","ownerName":"LOTT JOSEPH W + CLARICE S","ownerName2":null,"propertyName":null,"zoningCode":"AU","zoningDistrict":"Highlands:AU","jurisdictionPrefix":null,"dorCode":"53","acreage":5.16,"centroid":[-81.504353,27.074355],"lastSale":{"date":"2014-05-12","price":25000.0,"qualified":null},"tax":{"marketValue":null,"assessedValue":43240.0,"taxableValue":2317.0,"taxes":null},"mailingAddress":{"line1":"P O BOX 418","line2":null,"city":"VENUS","state":"FL","zip":"33960"},"incomeTract":null,"incomeBlockGroup":null,"nearestRoad":null,"flu":{"code":"AG","label":"AG","jurisdiction":"Highlands","source":"highlands-flum"},"opportunityZone":null,"oz2Eligibility":null,"source":"fl-highlands-pao-12055"},"geometry":{"type":"Polygon","coordinates":[[[-81.503839,27.075259],[-81.504878,27.075279],[-81.504868,27.073452],[-81.503826,27.073431],[-81.503839,27.075259]]]}},{"type":"Feature","id":"12055:C22392801000002310","properties":{"id":"12055:C22392801000002310","parcelId":"C22392801000002310","countyFips":"12055","countyName":"Highlands","state":"Florida","marketIds":["Heartland"],"situsAddress":"3029 MUNCHKIN ST","situsCity":"VENUS","situsZip":"33960","jurisdictionCode":"Highlands","ownerName":"TIEN FAN JU","ownerName2":null,"propertyName":null,"zoningCode":"AU","zoningDistrict":"Highlands:AU","jurisdictionPrefix":null,"dorCode":"99","acreage":5.16,"centroid":[-81.505393,27.074375],"lastSale":{"date":"2010-01-06","price":11500.0,"qualified":null},"tax":{"marketValue":null,"assessedValue":29880.0,"taxableValue":16041.0,"taxes":null},"mailingAddress":{"line1":"1240 N CONCORD AVE","line2":null,"city":"CHANDLER","state":"AZ","zip":"85225"},"incomeTract":null,"incomeBlockGroup":null,"nearestRoad":null,"flu":{"code":"AG","label":"AG","jurisdiction":"Highlands","source":"highlands-flum"},"opportunityZone":null,"oz2Eligibility":null,"source":"fl-highlands-pao-12055"},"geometry":{"type":"Polygon","coordinates":[[[-81.504878,27.075279],[-81.505916,27.075298],[-81.505909,27.073472],[-81.504868,27.073452],[-81.504878,27.075279]]]}},{"type":"Feature","id":"12055:C22392801000002250","properties":{"id":"12055:C22392801000002250","parcelId":"C22392801000002250","countyFips":"12055","countyName":"Highlands","state":"Florida","marketIds":["Heartland"],"situsAddress":"3008 MUNCHKIN ST","situsCity":"VENUS","situsZip":"33960","jurisdictionCode":"Highlands","ownerName":"LOTT JOSEPH W + CLARICE S","ownerName2":null,"propertyName":null,"zoningCode":"AU","zoningDistrict":"Highlands:AU","jurisdictionPrefix":null,"dorCode":"53","acreage":5.16,"centroid":[-81.500215,27.076106],"lastSale":{"date":"2015-10-15","price":50000.0,"qualified":null},"tax":{"marketValue":null,"assessedValue":46440.0,"taxableValue":2503.0,"taxes":null},"mailingAddress":{"line1":"P O BOX 418","line2":null,"city":"VENUS","state":"FL","zip":"33960"},"incomeTract":null,"incomeBlockGroup":null,"nearestRoad":null,"flu":{"code":"AG","label":"AG","jurisdiction":"Highlands","source":"highlands-flum"},"opportunityZone":null,"oz2Eligibility":null,"source":"fl-highlands-pao-12055"},"geometry":{"type":"Polygon","coordinates":[[[-81.499708,27.077012],[-81.500744,27.077031],[-81.500723,27.0752],[-81.499684,27.075181],[-81.499708,27.077012]]]}},{"type":"Feature","id":"12055:C22392801000002260","properties":{"id":"12055:C22392801000002260","parcelId":"C22392801000002260","countyFips":"12055","countyName":"Highlands","state":"Florida","marketIds":["Heartland"],"situsAddress":"3012 MUNCHKIN ST","situsCity":"VENUS","situsZip":"33960","jurisdictionCode":"Highlands","ownerName":"TONG THUY PHUONG","ownerName2":null,"propertyName":null,"zoningCode":"AU","zoningDistrict":"Highlands:AU","jurisdictionPrefix":null,"dorCode":"53","acreage":5.16,"centroid":[-81.501252,27.076125],"lastSale":{"date":"2005-04-04","price":105000.0,"qualified":null},"tax":{"marketValue":null,"assessedValue":46440.0,"taxableValue":2503.0,"taxes":null},"mailingAddress":{"line1":"1999 PARKSIDE AVE","line2":null,"city":"MARGATE","state":"FL","zip":"33063"},"incomeTract":null,"incomeBlockGroup":null,"nearestRoad":null,"flu":{"code":"AG","label":"AG","jurisdiction":"Highlands","source":"highlands-flum"},"opportunityZone":null,"oz2Eligibility":null,"source":"fl-highlands-pao-12055"},"geometry":{"type":"Polygon","coordinates":[[[-81.500744,27.077031],[-81.50178,27.07705],[-81.501761,27.07522],[-81.500723,27.0752],[-81.500744,27.077031]]]}},{"type":"Feature","id":"12055:C22392801000002300","properties":{"id":"12055:C22392801000002300","parcelId":"C22392801000002300","countyFips":"12055","countyName":"Highlands","state":"Florida","marketIds":["Heartland"],"situsAddress":"3028 MUNCHKIN ST","situsCity":"VENUS","situsZip":"33960","jurisdictionCode":"Highlands","ownerName":"LOTT JOSEPH W + CLARICE S","ownerName2":null,"propertyName":null,"zoningCode":"AU","zoningDistrict":"Highlands:AU","jurisdictionPrefix":null,"dorCode":"53","acreage":5.15,"centroid":[-81.505402,27.076202],"lastSale":{"date":"2015-10-15","price":50000.0,"qualified":null},"tax":{"marketValue":null,"assessedValue":43710.0,"taxableValue":2345.0,"taxes":null},"mailingAddress":{"line1":"P O BOX 418","line2":null,"city":"VENUS","state":"FL","zip":"33960"},"incomeTract":null,"incomeBlockGroup":null,"nearestRoad":null,"flu":{"code":"AG","label":"AG","jurisdiction":"Highlands","source":"highlands-flum"},"opportunityZone":null,"oz2Eligibility":null,"source":"fl-highlands-pao-12055"},"geometry":{"type":"Polygon","coordinates":[[[-81.504888,27.077106],[-81.505924,27.077124],[-81.505916,27.075298],[-81.504878,27.075279],[-81.504888,27.077106]]]}},{"type":"Feature","id":"12055:C22392801000002270","properties":{"id":"12055:C22392801000002270","parcelId":"C22392801000002270","countyFips":"12055","countyName":"Highlands","state":"Florida","marketIds":["Heartland"],"situsAddress":"3016 MUNCHKIN ST","situsCity":"VENUS","situsZip":"33960","jurisdictionCode":"Highlands","ownerName":"RAMRUP CALLOWATIE TRUST","ownerName2":null,"propertyName":null,"zoningCode":"AU","zoningDistrict":"Highlands:AU","jurisdictionPrefix":null,"dorCode":"99","acreage":5.15,"centroid":[-81.502289,27.076145],"lastSale":{"date":"2023-09-21","price":100.0,"qualified":null},"tax":{"marketValue":null,"assessedValue":29820.0,"taxableValue":16008.0,"taxes":null},"mailingAddress":{"line1":"3970 OAKS CLUBHOUSE DR #308","line2":null,"city":"POMPANO BEACH","state":"FL","zip":"33069"},"incomeTract":null,"incomeBlockGroup":null,"nearestRoad":null,"flu":{"code":"AG","label":"AG","jurisdiction":"Highlands","source":"highlands-flum"},"opportunityZone":null,"oz2Eligibility":null,"source":"fl-highlands-pao-12055"},"geometry":{"type":"Polygon","coordinates":[[[-81.50178,27.07705],[-81.502816,27.077068],[-81.5028,27.07524],[-81.501761,27.07522],[-81.50178,27.07705]]]}},{"type":"Feature","id":"12055:C22392801000002280","properties":{"id":"12055:C22392801000002280","parcelId":"C22392801000002280","countyFips":"12055","countyName":"Highlands","state":"Florida","marketIds":["Heartland"],"situsAddress":"3020 MUNCHKIN ST","situsCity":"VENUS","situsZip":"33960","jurisdictionCode":"Highlands","ownerName":"LOTT JOSEPH W + CLARICE S","ownerName2":null,"propertyName":null,"zoningCode":"AU","zoningDistrict":"Highlands:AU","jurisdictionPrefix":null,"dorCode":"53","acreage":5.15,"centroid":[-81.503327,27.076163],"lastSale":{"date":"2014-08-06","price":8600.0,"qualified":null},"tax":{"marketValue":null,"assessedValue":46350.0,"taxableValue":2498.0,"taxes":null},"mailingAddress":{"line1":"P O BOX 418","line2":null,"city":"VENUS","state":"FL","zip":"33960"},"incomeTract":null,"incomeBlockGroup":null,"nearestRoad":null,"flu":{"code":"AG","label":"AG","jurisdiction":"Highlands","source":"highlands-flum"},"opportunityZone":null,"oz2Eligibility":null,"source":"fl-highlands-pao-12055"},"geometry":{"type":"Polygon","coordinates":[[[-81.502816,27.077068],[-81.503852,27.077087],[-81.503839,27.075259],[-81.5028,27.07524],[-81.502816,27.077068]]]}},{"type":"Feature","id":"12055:C22392801000002290","properties":{"id":"12055:C22392801000002290","parcelId":"C22392801000002290","countyFips":"12055","countyName":"Highlands","state":"Florida","marketIds":["Heartland"],"situsAddress":"3024 MUNCHKIN ST","situsCity":"VENUS","situsZip":"33960","jurisdictionCode":"Highlands","ownerName":"LOTT JOSEPH W + CLARICE S","ownerName2":null,"propertyName":null,"zoningCode":"AU","zoningDistrict":"Highlands:AU","jurisdictionPrefix":null,"dorCode":"53","acreage":5.15,"centroid":[-81.504364,27.076183],"lastSale":{"date":"2015-10-15","price":50000.0,"qualified":null},"tax":{"marketValue":null,"assessedValue":46350.0,"taxableValue":2498.0,"taxes":null},"mailingAddress":{"line1":"P O BOX 418","line2":null,"city":"VENUS","state":"FL","zip":"33960"},"incomeTract":null,"incomeBlockGroup":null,"nearestRoad":null,"flu":{"code":"AG","label":"AG","jurisdiction":"Highlands","source":"highlands-flum"},"opportunityZone":null,"oz2Eligibility":null,"source":"fl-highlands-pao-12055"},"geometry":{"type":"Polygon","coordinates":[[[-81.503852,27.077087],[-81.504888,27.077106],[-81.504878,27.075279],[-81.503839,27.075259],[-81.503852,27.077087]]]}},{"type":"Feature","id":"12055:C15392801000000010","properties":{"id":"12055:C15392801000000010","parcelId":"C15392801000000010","countyFips":"12055","countyName":"Highlands","state":"Florida","marketIds":["Heartland"],"situsAddress":"240 GRIGSBY RD","situsCity":"VENUS","situsZip":"33960","jurisdictionCode":null,"ownerName":"LTL REAL ESTATE HOLDING LLC","ownerName2":null,"propertyName":null,"zoningCode":null,"zoningDistrict":null,"jurisdictionPrefix":null,"dorCode":"63","acreage":5.01,"centroid":[-81.502685,27.091254],"lastSale":{"date":"2025-04-30","price":1683500.0,"qualified":null},"tax":{"marketValue":null,"assessedValue":37414.0,"taxableValue":3163.0,"taxes":null},"mailingAddress":{"line1":"PO BOX 2738","line2":null,"city":"LAKE PLACID","state":"FL","zip":"33862"},"incomeTract":null,"incomeBlockGroup":null,"nearestRoad":null,"flu":null,"opportunityZone":null,"oz2Eligibility":null,"source":"fl-highlands-pao-12055"},"geometry":{"type":"Polygon","coordinates":[[[-81.501727,27.091714],[-81.503657,27.09175],[-81.503642,27.090794],[-81.501712,27.090758],[-81.501727,27.091714]]]}}]}