{"type":"FeatureCollection","name":"37105-16_34","features":[{"type":"Feature","id":"37105:060454070500","properties":{"id":"37105:060454070500","parcelId":"060454070500","countyFips":"37105","countyName":"Lee","state":"North Carolina","marketIds":["Raleigh-Durham"],"situsAddress":"3254 BUCKHORN RD","situsCity":null,"situsZip":null,"jurisdictionCode":null,"ownerName":"LETT, MATTHEW W","ownerName2":null,"propertyName":null,"zoningCode":null,"zoningDistrict":null,"jurisdictionPrefix":null,"dorCode":null,"acreage":127.02,"centroid":[-78.983225,35.521661],"lastSale":{"date":null,"price":null,"qualified":null},"tax":{"marketValue":654900.0,"assessedValue":523800.0,"taxableValue":null,"taxes":null},"mailingAddress":{"line1":null,"line2":null,"city":null,"state":null,"zip":null},"incomeTract":null,"incomeBlockGroup":null,"nearestRoad":null,"flu":null,"opportunityZone":null,"oz2Eligibility":null,"source":"nc-onemap-37105"},"geometry":{"type":"Polygon","coordinates":[[[-78.97265,35.52368],[-78.97481,35.52247],[-78.97571,35.52309],[-78.98735,35.51813],[-78.98748,35.51838],[-78.98851,35.51778],[-78.99004,35.51894],[-78.99103,35.51934],[-78.99092,35.52196],[-78.99165,35.52254],[-78.9902,35.52257],[-78.98518,35.52229],[-78.97566,35.52467],[-78.97448,35.52536],[-78.9727,35.52372],[-78.97265,35.52368]]]}},{"type":"Feature","id":"37105:060464003900","properties":{"id":"37105:060464003900","parcelId":"060464003900","countyFips":"37105","countyName":"Lee","state":"North Carolina","marketIds":["Raleigh-Durham"],"situsAddress":"0 BUCKHORN RD","situsCity":null,"situsZip":null,"jurisdictionCode":null,"ownerName":"HUNT, CARSON SCOTT","ownerName2":null,"propertyName":null,"zoningCode":null,"zoningDistrict":null,"jurisdictionPrefix":null,"dorCode":null,"acreage":71.868,"centroid":[-78.975313,35.521423],"lastSale":{"date":null,"price":null,"qualified":null},"tax":{"marketValue":249500.0,"assessedValue":249100.0,"taxableValue":null,"taxes":null},"mailingAddress":{"line1":null,"line2":null,"city":null,"state":null,"zip":null},"incomeTract":null,"incomeBlockGroup":null,"nearestRoad":null,"flu":null,"opportunityZone":null,"oz2Eligibility":null,"source":"nc-onemap-37105"},"geometry":{"type":"Polygon","coordinates":[[[-78.97753,35.51884],[-78.98247,35.51662],[-78.98436,35.51937],[-78.97571,35.52309],[-78.97481,35.52247],[-78.97265,35.52368],[-78.97176,35.52262],[-78.97221,35.5223],[-78.97279,35.52253],[-78.97355,35.52243],[-78.97343,35.52231],[-78.97361,35.52212],[-78.97376,35.52214],[-78.97372,35.52195],[-78.97422,35.52175],[-78.9748,35.52177],[-78.97559,35.52157],[-78.97646,35.52059],[-78.97751,35.51888],[-78.97753,35.51884]]]}},{"type":"Feature","id":"37105:060435587300","properties":{"id":"37105:060435587300","parcelId":"060435587300","countyFips":"37105","countyName":"Lee","state":"North Carolina","marketIds":["Raleigh-Durham"],"situsAddress":"0 BUCKHORN RD","situsCity":null,"situsZip":null,"jurisdictionCode":null,"ownerName":"LETT, MATTHEW W","ownerName2":null,"propertyName":null,"zoningCode":null,"zoningDistrict":null,"jurisdictionPrefix":null,"dorCode":null,"acreage":53.343,"centroid":[-78.988555,35.524941],"lastSale":{"date":null,"price":null,"qualified":null},"tax":{"marketValue":194200.0,"assessedValue":194200.0,"taxableValue":null,"taxes":null},"mailingAddress":{"line1":null,"line2":null,"city":null,"state":null,"zip":null},"incomeTract":null,"incomeBlockGroup":null,"nearestRoad":null,"flu":null,"opportunityZone":null,"oz2Eligibility":null,"source":"nc-onemap-37105"},"geometry":{"type":"Polygon","coordinates":[[[-78.9903,35.52428],[-78.99047,35.52607],[-78.98852,35.52721],[-78.98853,35.52642],[-78.98495,35.52646],[-78.98518,35.52229],[-78.9902,35.52257],[-78.99029,35.52423],[-78.9903,35.52428]]]}},{"type":"Feature","id":"37105:060430708400","properties":{"id":"37105:060430708400","parcelId":"060430708400","countyFips":"37105","countyName":"Lee","state":"North Carolina","marketIds":["Raleigh-Durham"],"situsAddress":"2998 BUCKHORN RD","situsCity":null,"situsZip":null,"jurisdictionCode":null,"ownerName":"YARBOROUGH, RONALD V","ownerName2":null,"propertyName":null,"zoningCode":null,"zoningDistrict":null,"jurisdictionPrefix":null,"dorCode":null,"acreage":46.8995,"centroid":[-78.987182,35.508682],"lastSale":{"date":null,"price":null,"qualified":null},"tax":{"marketValue":336800.0,"assessedValue":301000.0,"taxableValue":null,"taxes":null},"mailingAddress":{"line1":null,"line2":null,"city":null,"state":null,"zip":null},"incomeTract":null,"incomeBlockGroup":null,"nearestRoad":null,"flu":null,"opportunityZone":null,"oz2Eligibility":null,"source":"nc-onemap-37105"},"geometry":{"type":"Polygon","coordinates":[[[-78.98833,35.50725],[-78.98921,35.50791],[-78.9913,35.50844],[-78.99013,35.51092],[-78.98961,35.5106],[-78.9888,35.51038],[-78.98788,35.51051],[-78.98683,35.51047],[-78.98629,35.5097],[-78.98578,35.50933],[-78.98468,35.50928],[-78.98416,35.5081],[-78.98375,35.50758],[-78.98496,35.50637],[-78.98563,35.50648],[-78.98642,35.50705],[-78.98834,35.50722],[-78.98833,35.50725]]]}},{"type":"Feature","id":"37105:060414083600","properties":{"id":"37105:060414083600","parcelId":"060414083600","countyFips":"37105","countyName":"Lee","state":"North Carolina","marketIds":["Raleigh-Durham"],"situsAddress":"0 BUCKHORN RD","situsCity":null,"situsZip":null,"jurisdictionCode":null,"ownerName":"RD LEE FARMS INC","ownerName2":null,"propertyName":null,"zoningCode":null,"zoningDistrict":null,"jurisdictionPrefix":null,"dorCode":null,"acreage":44.2926,"centroid":[-78.997119,35.521862],"lastSale":{"date":null,"price":null,"qualified":null},"tax":{"marketValue":229400.0,"assessedValue":229400.0,"taxableValue":null,"taxes":null},"mailingAddress":{"line1":null,"line2":null,"city":null,"state":null,"zip":null},"incomeTract":null,"incomeBlockGroup":null,"nearestRoad":null,"flu":null,"opportunityZone":null,"oz2Eligibility":null,"source":"nc-onemap-37105"},"geometry":{"type":"Polygon","coordinates":[[[-78.99941,35.52332],[-78.99967,35.52367],[-78.99965,35.52402],[-79.00043,35.52464],[-78.99948,35.5257],[-78.99567,35.52285],[-78.99258,35.52155],[-78.99305,35.52131],[-78.99314,35.52097],[-78.99349,35.52049],[-78.99449,35.52008],[-78.99472,35.51975],[-78.99583,35.52004],[-78.99629,35.52038],[-78.99664,35.52035],[-78.99702,35.52058],[-78.9971,35.52075],[-78.99702,35.52083],[-78.99728,35.52113],[-78.99791,35.52122],[-78.99812,35.52158],[-78.99838,35.52162],[-78.99837,35.52187],[-78.99884,35.52248],[-78.99887,35.52281],[-78.99936,35.52306],[-78.99941,35.52323],[-78.99941,35.52332]]]}},{"type":"Feature","id":"37105:060317335900","properties":{"id":"37105:060317335900","parcelId":"060317335900","countyFips":"37105","countyName":"Lee","state":"North Carolina","marketIds":["Raleigh-Durham"],"situsAddress":"0 BUCKHORN RD","situsCity":null,"situsZip":null,"jurisdictionCode":null,"ownerName":"MILLER, RHONDA ANN","ownerName2":null,"propertyName":null,"zoningCode":null,"zoningDistrict":null,"jurisdictionPrefix":null,"dorCode":null,"acreage":39.5062,"centroid":[-78.996041,35.503104],"lastSale":{"date":null,"price":null,"qualified":null},"tax":{"marketValue":199000.0,"assessedValue":199000.0,"taxableValue":null,"taxes":null},"mailingAddress":{"line1":null,"line2":null,"city":null,"state":null,"zip":null},"incomeTract":null,"incomeBlockGroup":null,"nearestRoad":null,"flu":null,"opportunityZone":null,"oz2Eligibility":null,"source":"nc-onemap-37105"},"geometry":{"type":"Polygon","coordinates":[[[-78.99577,35.50479],[-78.99606,35.50439],[-78.99665,35.50463],[-78.99707,35.50405],[-78.99649,35.50382],[-78.99662,35.50363],[-78.99439,35.50156],[-78.99385,35.50142],[-78.99225,35.49908],[-78.99374,35.4976],[-78.9984,35.50344],[-78.99843,35.50489],[-78.99776,35.50508],[-78.9971,35.50507],[-78.99577,35.50479]]]}},{"type":"Feature","id":"37105:060307811900","properties":{"id":"37105:060307811900","parcelId":"060307811900","countyFips":"37105","countyName":"Lee","state":"North Carolina","marketIds":["Raleigh-Durham"],"situsAddress":"0 BUCKHORN RD","situsCity":null,"situsZip":null,"jurisdictionCode":null,"ownerName":"THOMAS, HENRY LOGAN (HEIRS)","ownerName2":null,"propertyName":null,"zoningCode":null,"zoningDistrict":null,"jurisdictionPrefix":null,"dorCode":null,"acreage":39.06,"centroid":[-78.99668,35.50059],"lastSale":{"date":null,"price":null,"qualified":null},"tax":{"marketValue":180900.0,"assessedValue":180900.0,"taxableValue":null,"taxes":null},"mailingAddress":{"line1":null,"line2":null,"city":null,"state":null,"zip":null},"incomeTract":null,"incomeBlockGroup":null,"nearestRoad":null,"flu":null,"opportunityZone":null,"oz2Eligibility":null,"source":"nc-onemap-37105"},"geometry":{"type":"Polygon","coordinates":[[[-78.99433,35.497],[-78.99471,35.49663],[-79.00047,35.50398],[-78.99843,35.50489],[-78.9984,35.50344],[-78.99374,35.4976],[-78.99433,35.497]]]}},{"type":"Feature","id":"37105:060319976900","properties":{"id":"37105:060319976900","parcelId":"060319976900","countyFips":"37105","countyName":"Lee","state":"North Carolina","marketIds":["Raleigh-Durham"],"situsAddress":"0 BUCKHORN RD","situsCity":null,"situsZip":null,"jurisdictionCode":null,"ownerName":"CARTER, RANDOLPH E","ownerName2":null,"propertyName":null,"zoningCode":null,"zoningDistrict":null,"jurisdictionPrefix":null,"dorCode":null,"acreage":34.7543,"centroid":[-78.993199,35.507289],"lastSale":{"date":null,"price":null,"qualified":null},"tax":{"marketValue":168000.0,"assessedValue":168000.0,"taxableValue":null,"taxes":null},"mailingAddress":{"line1":null,"line2":null,"city":null,"state":null,"zip":null},"incomeTract":null,"incomeBlockGroup":null,"nearestRoad":null,"flu":null,"opportunityZone":null,"oz2Eligibility":null,"source":"nc-onemap-37105"},"geometry":{"type":"Polygon","coordinates":[[[-78.99485,35.50846],[-78.99407,35.51014],[-78.99147,35.50855],[-78.99206,35.50719],[-78.99244,35.50722],[-78.99302,35.50704],[-78.99291,35.50668],[-78.99305,35.50576],[-78.99386,35.50529],[-78.99426,35.50656],[-78.99485,35.50846]],[[-78.99146,35.50506],[-78.99351,35.50529],[-78.99241,35.50613],[-78.9917,35.50754],[-78.98933,35.50737],[-78.9894,35.50618],[-78.99012,35.50616],[-78.9914,35.50579],[-78.99135,35.50504],[-78.99146,35.50506]]]}},{"type":"Feature","id":"37105:060501922200","properties":{"id":"37105:060501922200","parcelId":"060501922200","countyFips":"37105","countyName":"Lee","state":"North Carolina","marketIds":["Raleigh-Durham"],"situsAddress":"359 ATTIE LEE LN","situsCity":null,"situsZip":null,"jurisdictionCode":null,"ownerName":"WILLETT, TROY S","ownerName2":null,"propertyName":null,"zoningCode":null,"zoningDistrict":null,"jurisdictionPrefix":null,"dorCode":null,"acreage":31.9531,"centroid":[-78.99758,35.539515],"lastSale":{"date":null,"price":null,"qualified":null},"tax":{"marketValue":693500.0,"assessedValue":170300.0,"taxableValue":null,"taxes":null},"mailingAddress":{"line1":null,"line2":null,"city":null,"state":null,"zip":null},"incomeTract":null,"incomeBlockGroup":null,"nearestRoad":null,"flu":null,"opportunityZone":null,"oz2Eligibility":null,"source":"nc-onemap-37105"},"geometry":{"type":"Polygon","coordinates":[[[-78.99676,35.54005],[-78.9954,35.53947],[-78.99518,35.53692],[-78.99896,35.53679],[-78.99942,35.53817],[-78.99776,35.53847],[-78.99924,35.54151],[-78.99898,35.54158],[-78.99739,35.54123],[-78.99671,35.54096],[-78.99676,35.54005]]]}},{"type":"Feature","id":"37105:060419752000","properties":{"id":"37105:060419752000","parcelId":"060419752000","countyFips":"37105","countyName":"Lee","state":"North Carolina","marketIds":["Raleigh-Durham"],"situsAddress":"0 DOYLE COX RD","situsCity":null,"situsZip":null,"jurisdictionCode":null,"ownerName":"TAYLOR, HOWARD PINCHBACK & JULIE HAYDEN","ownerName2":null,"propertyName":null,"zoningCode":null,"zoningDistrict":null,"jurisdictionPrefix":null,"dorCode":null,"acreage":31.8985,"centroid":[-78.994188,35.536498],"lastSale":{"date":null,"price":null,"qualified":null},"tax":{"marketValue":173700.0,"assessedValue":173700.0,"taxableValue":null,"taxes":null},"mailingAddress":{"line1":null,"line2":null,"city":null,"state":null,"zip":null},"incomeTract":null,"incomeBlockGroup":null,"nearestRoad":null,"flu":null,"opportunityZone":null,"oz2Eligibility":null,"source":"nc-onemap-37105"},"geometry":{"type":"Polygon","coordinates":[[[-78.99307,35.5324],[-78.99489,35.53228],[-78.9954,35.53947],[-78.99498,35.53973],[-78.9935,35.53871],[-78.99329,35.5364],[-78.99307,35.5324]]]}},{"type":"Feature","id":"37105:060328704100","properties":{"id":"37105:060328704100","parcelId":"060328704100","countyFips":"37105","countyName":"Lee","state":"North Carolina","marketIds":["Raleigh-Durham"],"situsAddress":"158 DANIELS CREEK RD","situsCity":null,"situsZip":null,"jurisdictionCode":null,"ownerName":"RB LAND LLC","ownerName2":null,"propertyName":null,"zoningCode":null,"zoningDistrict":null,"jurisdictionPrefix":null,"dorCode":null,"acreage":31.4786,"centroid":[-78.990957,35.503357],"lastSale":{"date":null,"price":null,"qualified":null},"tax":{"marketValue":161500.0,"assessedValue":158600.0,"taxableValue":null,"taxes":null},"mailingAddress":{"line1":null,"line2":null,"city":null,"state":null,"zip":null},"incomeTract":null,"incomeBlockGroup":null,"nearestRoad":null,"flu":null,"opportunityZone":null,"oz2Eligibility":null,"source":"nc-onemap-37105"},"geometry":{"type":"Polygon","coordinates":[[[-78.99277,35.50426],[-78.99338,35.50509],[-78.99045,35.50483],[-78.98943,35.50464],[-78.98912,35.50305],[-78.98882,35.50263],[-78.99143,35.49991],[-78.99226,35.50245],[-78.99277,35.50426]]]}},{"type":"Feature","id":"37105:969499569100","properties":{"id":"37105:969499569100","parcelId":"969499569100","countyFips":"37105","countyName":"Lee","state":"North Carolina","marketIds":["Raleigh-Durham"],"situsAddress":"0 DOYLE COX RD","situsCity":null,"situsZip":null,"jurisdictionCode":null,"ownerName":"CHALMERS, CHARLIE","ownerName2":null,"propertyName":null,"zoningCode":null,"zoningDistrict":null,"jurisdictionPrefix":null,"dorCode":null,"acreage":30.0911,"centroid":[-78.999336,35.534257],"lastSale":{"date":null,"price":null,"qualified":null},"tax":{"marketValue":163800.0,"assessedValue":163800.0,"taxableValue":null,"taxes":null},"mailingAddress":{"line1":null,"line2":null,"city":null,"state":null,"zip":null},"incomeTract":null,"incomeBlockGroup":null,"nearestRoad":null,"flu":null,"opportunityZone":null,"oz2Eligibility":null,"source":"nc-onemap-37105"},"geometry":{"type":"Polygon","coordinates":[[[-78.99806,35.5341],[-78.99824,35.53388],[-78.99805,35.53379],[-78.99796,35.53352],[-78.99812,35.53346],[-78.99807,35.53292],[-79.00005,35.53287],[-79.00144,35.53221],[-79.00131,35.53392],[-79.00236,35.53388],[-79.00242,35.53573],[-78.99878,35.5363],[-78.99872,35.53609],[-78.99886,35.5357],[-78.99853,35.53533],[-78.99841,35.53441],[-78.99806,35.5341]]]}},{"type":"Feature","id":"37105:060511459100","properties":{"id":"37105:060511459100","parcelId":"060511459100","countyFips":"37105","countyName":"Lee","state":"North Carolina","marketIds":["Raleigh-Durham"],"situsAddress":"0 DOYLE COX RD","situsCity":null,"situsZip":null,"jurisdictionCode":null,"ownerName":"DUKE ENERGY PROGRESS INC","ownerName2":null,"propertyName":null,"zoningCode":null,"zoningDistrict":null,"jurisdictionPrefix":null,"dorCode":null,"acreage":28.3758,"centroid":[-78.998529,35.540431],"lastSale":{"date":null,"price":null,"qualified":null},"tax":{"marketValue":66700.0,"assessedValue":66700.0,"taxableValue":null,"taxes":null},"mailingAddress":{"line1":null,"line2":null,"city":null,"state":null,"zip":null},"incomeTract":null,"incomeBlockGroup":null,"nearestRoad":null,"flu":null,"opportunityZone":null,"oz2Eligibility":null,"source":"nc-onemap-37105"},"geometry":{"type":"Polygon","coordinates":[[[-78.99966,35.54187],[-78.99834,35.54175],[-78.99567,35.54097],[-78.99333,35.53988],[-78.99281,35.53981],[-78.99224,35.53953],[-78.99159,35.53905],[-78.99138,35.53872],[-78.99134,35.53819],[-78.99148,35.53789],[-78.99139,35.53734],[-78.99205,35.53747],[-78.99267,35.53715],[-78.99256,35.53782],[-78.99349,35.53871],[-78.99498,35.53973],[-78.99543,35.53945],[-78.99676,35.54005],[-78.99671,35.54096],[-78.99739,35.54123],[-78.99898,35.54158],[-78.99949,35.54145],[-78.99945,35.5413],[-79.00049,35.54153],[-79.00152,35.5415],[-79.00227,35.54147],[-79.00267,35.54129],[-79.00467,35.54094],[-79.00467,35.5411],[-79.00683,35.54142],[-79.00682,35.54172],[-79.0049,35.54169],[-79.00475,35.54164],[-79.00468,35.54128],[-79.00448,35.54124],[-79.00447,35.54159],[-79.00423,35.54166],[-79.00284,35.54157],[-79.00182,35.54181],[-78.99987,35.54188],[-78.99966,35.54187]]]}},{"type":"Feature","id":"37105:060473785700","properties":{"id":"37105:060473785700","parcelId":"060473785700","countyFips":"37105","countyName":"Lee","state":"North Carolina","marketIds":["Raleigh-Durham"],"situsAddress":"0 BUCKHORN RD","situsCity":null,"situsZip":null,"jurisdictionCode":null,"ownerName":"KITCHENS, JOHNNY U","ownerName2":null,"propertyName":null,"zoningCode":null,"zoningDistrict":null,"jurisdictionPrefix":null,"dorCode":null,"acreage":26.9518,"centroid":[-78.974421,35.520267],"lastSale":{"date":null,"price":null,"qualified":null},"tax":{"marketValue":165700.0,"assessedValue":148700.0,"taxableValue":null,"taxes":null},"mailingAddress":{"line1":null,"line2":null,"city":null,"state":null,"zip":null},"incomeTract":null,"incomeBlockGroup":null,"nearestRoad":null,"flu":null,"opportunityZone":null,"oz2Eligibility":null,"source":"nc-onemap-37105"},"geometry":{"type":"Polygon","coordinates":[[[-78.97405,35.52186],[-78.97391,35.5216],[-78.97473,35.52125],[-78.97442,35.51955],[-78.97054,35.52128],[-78.97033,35.52103],[-78.9738,35.51879],[-78.97448,35.5177],[-78.97498,35.51823],[-78.97599,35.51832],[-78.97753,35.51884],[-78.97646,35.52059],[-78.97566,35.52151],[-78.97522,35.52171],[-78.97422,35.52175],[-78.97405,35.52186]]]}},{"type":"Feature","id":"37105:060402565800","properties":{"id":"37105:060402565800","parcelId":"060402565800","countyFips":"37105","countyName":"Lee","state":"North Carolina","marketIds":["Raleigh-Durham"],"situsAddress":"0 BUCKHORN RD","situsCity":null,"situsZip":null,"jurisdictionCode":null,"ownerName":"SAWYER, HAROLD RANDOLPH","ownerName2":null,"propertyName":null,"zoningCode":null,"zoningDistrict":null,"jurisdictionPrefix":null,"dorCode":null,"acreage":25.0684,"centroid":[-78.99761,35.515783],"lastSale":{"date":null,"price":null,"qualified":null},"tax":{"marketValue":89400.0,"assessedValue":89400.0,"taxableValue":null,"taxes":null},"mailingAddress":{"line1":null,"line2":null,"city":null,"state":null,"zip":null},"incomeTract":null,"incomeBlockGroup":null,"nearestRoad":null,"flu":null,"opportunityZone":null,"oz2Eligibility":null,"source":"nc-onemap-37105"},"geometry":{"type":"Polygon","coordinates":[[[-79.00044,35.51676],[-78.99952,35.51664],[-78.9988,35.51698],[-78.99845,35.51697],[-78.9974,35.51732],[-78.99586,35.51748],[-78.99522,35.51802],[-78.99584,35.51722],[-78.99652,35.51664],[-78.99663,35.51519],[-78.99706,35.51436],[-78.99724,35.51383],[-78.99719,35.51326],[-78.99763,35.51236],[-78.99848,35.51407],[-78.99948,35.51542],[-79.00044,35.51676]]]}},{"type":"Feature","id":"37105:060426363900","properties":{"id":"37105:060426363900","parcelId":"060426363900","countyFips":"37105","countyName":"Lee","state":"North Carolina","marketIds":["Raleigh-Durham"],"situsAddress":"0 DOYLE COX RD","situsCity":null,"situsZip":null,"jurisdictionCode":null,"ownerName":"WILLETT, TROY","ownerName2":null,"propertyName":null,"zoningCode":null,"zoningDistrict":null,"jurisdictionPrefix":null,"dorCode":null,"acreage":24.9853,"centroid":[-78.990967,35.52703],"lastSale":{"date":null,"price":null,"qualified":null},"tax":{"marketValue":170700.0,"assessedValue":170700.0,"taxableValue":null,"taxes":null},"mailingAddress":{"line1":null,"line2":null,"city":null,"state":null,"zip":null},"incomeTract":null,"incomeBlockGroup":null,"nearestRoad":null,"flu":null,"opportunityZone":null,"oz2Eligibility":null,"source":"nc-onemap-37105"},"geometry":{"type":"Polygon","coordinates":[[[-78.98909,35.52685],[-78.99047,35.52607],[-78.99465,35.52616],[-78.99453,35.52788],[-78.98854,35.52801],[-78.98852,35.52721],[-78.98909,35.52685]]]}},{"type":"Feature","id":"37105:060427844900","properties":{"id":"37105:060427844900","parcelId":"060427844900","countyFips":"37105","countyName":"Lee","state":"North Carolina","marketIds":["Raleigh-Durham"],"situsAddress":"0 DOYLE COX RD","situsCity":null,"situsZip":null,"jurisdictionCode":null,"ownerName":"KELLY, CHARLES FRANKLIN","ownerName2":null,"propertyName":null,"zoningCode":null,"zoningDistrict":null,"jurisdictionPrefix":null,"dorCode":null,"acreage":23.5812,"centroid":[-78.990352,35.528768],"lastSale":{"date":null,"price":null,"qualified":null},"tax":{"marketValue":141700.0,"assessedValue":141700.0,"taxableValue":null,"taxes":null},"mailingAddress":{"line1":null,"line2":null,"city":null,"state":null,"zip":null},"incomeTract":null,"incomeBlockGroup":null,"nearestRoad":null,"flu":null,"opportunityZone":null,"oz2Eligibility":null,"source":"nc-onemap-37105"},"geometry":{"type":"Polygon","coordinates":[[[-78.99065,35.52795],[-78.99242,35.52792],[-78.99232,35.53034],[-78.98846,35.53043],[-78.98854,35.52801],[-78.98972,35.52796],[-78.99065,35.52795]]]}},{"type":"Feature","id":"37105:060408606300","properties":{"id":"37105:060408606300","parcelId":"060408606300","countyFips":"37105","countyName":"Lee","state":"North Carolina","marketIds":["Raleigh-Durham"],"situsAddress":"0 DOYLE COX RD","situsCity":null,"situsZip":null,"jurisdictionCode":null,"ownerName":"WILLETT, TROY","ownerName2":null,"propertyName":null,"zoningCode":null,"zoningDistrict":null,"jurisdictionPrefix":null,"dorCode":null,"acreage":23.508,"centroid":[-78.997173,35.530251],"lastSale":{"date":null,"price":null,"qualified":null},"tax":{"marketValue":216800.0,"assessedValue":216800.0,"taxableValue":null,"taxes":null},"mailingAddress":{"line1":null,"line2":null,"city":null,"state":null,"zip":null},"incomeTract":null,"incomeBlockGroup":null,"nearestRoad":null,"flu":null,"opportunityZone":null,"oz2Eligibility":null,"source":"nc-onemap-37105"},"geometry":{"type":"Polygon","coordinates":[[[-78.99672,35.53222],[-78.99655,35.53062],[-78.99478,35.53096],[-78.99442,35.53033],[-78.99662,35.53013],[-78.99678,35.52876],[-78.99724,35.52871],[-78.99837,35.52876],[-78.99839,35.53007],[-78.99912,35.53007],[-78.99991,35.53213],[-78.99672,35.53222]]]}},{"type":"Feature","id":"37105:060413940600","properties":{"id":"37105:060413940600","parcelId":"060413940600","countyFips":"37105","countyName":"Lee","state":"North Carolina","marketIds":["Raleigh-Durham"],"situsAddress":"0 BUCKHORN RD","situsCity":null,"situsZip":null,"jurisdictionCode":null,"ownerName":"LONG, DONNA HEATH","ownerName2":null,"propertyName":null,"zoningCode":null,"zoningDistrict":null,"jurisdictionPrefix":null,"dorCode":null,"acreage":23.3836,"centroid":[-78.994091,35.517864],"lastSale":{"date":null,"price":null,"qualified":null},"tax":{"marketValue":195100.0,"assessedValue":195100.0,"taxableValue":null,"taxes":null},"mailingAddress":{"line1":null,"line2":null,"city":null,"state":null,"zip":null},"incomeTract":null,"incomeBlockGroup":null,"nearestRoad":null,"flu":null,"opportunityZone":null,"oz2Eligibility":null,"source":"nc-onemap-37105"},"geometry":{"type":"MultiPolygon","coordinates":[[[[-78.99108,35.51807],[-78.99441,35.51628],[-78.9962,35.51701],[-78.99584,35.51722],[-78.99524,35.51791],[-78.99483,35.51939],[-78.99104,35.51917],[-78.99108,35.51807]]],[[[-78.99519,35.51732],[-78.99489,35.51716],[-78.99448,35.51728],[-78.99447,35.51778],[-78.99484,35.51791],[-78.99525,35.5175],[-78.99519,35.51732]]]]}},{"type":"Feature","id":"37105:060429159000","properties":{"id":"37105:060429159000","parcelId":"060429159000","countyFips":"37105","countyName":"Lee","state":"North Carolina","marketIds":["Raleigh-Durham"],"situsAddress":"0 DOYLE COX RD","situsCity":null,"situsZip":null,"jurisdictionCode":null,"ownerName":"TAYLOR, HOWARD PINCHBACK & JULIE HAYDEN","ownerName2":null,"propertyName":null,"zoningCode":null,"zoningDistrict":null,"jurisdictionPrefix":null,"dorCode":null,"acreage":23.1257,"centroid":[-78.991939,35.535666],"lastSale":{"date":null,"price":null,"qualified":null},"tax":{"marketValue":128000.0,"assessedValue":128000.0,"taxableValue":null,"taxes":null},"mailingAddress":{"line1":null,"line2":null,"city":null,"state":null,"zip":null},"incomeTract":null,"incomeBlockGroup":null,"nearestRoad":null,"flu":null,"opportunityZone":null,"oz2Eligibility":null,"source":"nc-onemap-37105"},"geometry":{"type":"Polygon","coordinates":[[[-78.99256,35.53782],[-78.99267,35.53715],[-78.99205,35.53747],[-78.99139,35.53734],[-78.99147,35.5364],[-78.99114,35.53587],[-78.99197,35.53563],[-78.99159,35.53393],[-78.99096,35.53279],[-78.99091,35.53248],[-78.99307,35.5324],[-78.99349,35.53871],[-78.99256,35.53782]]]}},{"type":"Feature","id":"37105:060428034500","properties":{"id":"37105:060428034500","parcelId":"060428034500","countyFips":"37105","countyName":"Lee","state":"North Carolina","marketIds":["Raleigh-Durham"],"situsAddress":"0 DOYLE COX RD","situsCity":null,"situsZip":null,"jurisdictionCode":null,"ownerName":"TAYLOR, HOWARD PINCHBACK & JULIE HAYDEN","ownerName2":null,"propertyName":null,"zoningCode":null,"zoningDistrict":null,"jurisdictionPrefix":null,"dorCode":null,"acreage":22.3591,"centroid":[-78.993316,35.530448],"lastSale":{"date":null,"price":null,"qualified":null},"tax":{"marketValue":200800.0,"assessedValue":200800.0,"taxableValue":null,"taxes":null},"mailingAddress":{"line1":null,"line2":null,"city":null,"state":null,"zip":null},"incomeTract":null,"incomeBlockGroup":null,"nearestRoad":null,"flu":null,"opportunityZone":null,"oz2Eligibility":null,"source":"nc-onemap-37105"},"geometry":{"type":"Polygon","coordinates":[[[-78.99416,35.52921],[-78.99425,35.52913],[-78.99421,35.53037],[-78.99459,35.53102],[-78.99489,35.53228],[-78.99091,35.53248],[-78.99059,35.53043],[-78.99269,35.53033],[-78.99312,35.52979],[-78.99375,35.52944],[-78.99416,35.52921]]]}},{"type":"Feature","id":"37105:060402029400","properties":{"id":"37105:060402029400","parcelId":"060402029400","countyFips":"37105","countyName":"Lee","state":"North Carolina","marketIds":["Raleigh-Durham"],"situsAddress":"0 BUCKHORN RD","situsCity":null,"situsZip":null,"jurisdictionCode":null,"ownerName":"HOWARD, JOHNNY (ESTATE)","ownerName2":null,"propertyName":null,"zoningCode":null,"zoningDistrict":null,"jurisdictionPrefix":null,"dorCode":null,"acreage":21.9893,"centroid":[-78.999027,35.513259],"lastSale":{"date":null,"price":null,"qualified":null},"tax":{"marketValue":187800.0,"assessedValue":187800.0,"taxableValue":null,"taxes":null},"mailingAddress":{"line1":null,"line2":null,"city":null,"state":null,"zip":null},"incomeTract":null,"incomeBlockGroup":null,"nearestRoad":null,"flu":null,"opportunityZone":null,"oz2Eligibility":null,"source":"nc-onemap-37105"},"geometry":{"type":"Polygon","coordinates":[[[-79.00191,35.51705],[-79.00044,35.51676],[-78.99848,35.51407],[-78.99763,35.51236],[-78.99764,35.51205],[-78.99779,35.51202],[-78.99748,35.51018],[-78.99868,35.50955],[-78.99867,35.51211],[-79.00155,35.51644],[-79.00191,35.51705]]]}},{"type":"Feature","id":"37105:060422486900","properties":{"id":"37105:060422486900","parcelId":"060422486900","countyFips":"37105","countyName":"Lee","state":"North Carolina","marketIds":["Raleigh-Durham"],"situsAddress":"3129 BUCKHORN RD","situsCity":null,"situsZip":null,"jurisdictionCode":null,"ownerName":"BLACKMAN, REBECCA ANN C","ownerName2":null,"propertyName":null,"zoningCode":null,"zoningDistrict":null,"jurisdictionPrefix":null,"dorCode":null,"acreage":21.8635,"centroid":[-78.990514,35.516191],"lastSale":{"date":null,"price":null,"qualified":null},"tax":{"marketValue":398000.0,"assessedValue":202600.0,"taxableValue":null,"taxes":null},"mailingAddress":{"line1":null,"line2":null,"city":null,"state":null,"zip":null},"incomeTract":null,"incomeBlockGroup":null,"nearestRoad":null,"flu":null,"opportunityZone":null,"oz2Eligibility":null,"source":"nc-onemap-37105"},"geometry":{"type":"Polygon","coordinates":[[[-78.99025,35.51634],[-78.98978,35.51602],[-78.98995,35.51528],[-78.98876,35.51462],[-78.98903,35.51404],[-78.99441,35.51628],[-78.99108,35.51807],[-78.99078,35.5178],[-78.99066,35.51693],[-78.99044,35.51653],[-78.99025,35.51634]]]}},{"type":"Feature","id":"37105:060400213600","properties":{"id":"37105:060400213600","parcelId":"060400213600","countyFips":"37105","countyName":"Lee","state":"North Carolina","marketIds":["Raleigh-Durham"],"situsAddress":"2571 BUCKHORN RD","situsCity":null,"situsZip":null,"jurisdictionCode":null,"ownerName":"CURRIN, RONALD M","ownerName2":null,"propertyName":null,"zoningCode":null,"zoningDistrict":null,"jurisdictionPrefix":null,"dorCode":null,"acreage":21.13,"centroid":[-78.999018,35.508465],"lastSale":{"date":null,"price":null,"qualified":null},"tax":{"marketValue":184400.0,"assessedValue":128000.0,"taxableValue":null,"taxes":null},"mailingAddress":{"line1":null,"line2":null,"city":null,"state":null,"zip":null},"incomeTract":null,"incomeBlockGroup":null,"nearestRoad":null,"flu":null,"opportunityZone":null,"oz2Eligibility":null,"source":"nc-onemap-37105"},"geometry":{"type":"Polygon","coordinates":[[[-78.99794,35.50624],[-79.00035,35.50625],[-79.0006,35.51138],[-78.99867,35.51151],[-78.99868,35.50917],[-78.99787,35.50624],[-78.99794,35.50624]]]}},{"type":"Feature","id":"37105:060412447700","properties":{"id":"37105:060412447700","parcelId":"060412447700","countyFips":"37105","countyName":"Lee","state":"North Carolina","marketIds":["Raleigh-Durham"],"situsAddress":"0 BUCKHORN RD","situsCity":null,"situsZip":null,"jurisdictionCode":null,"ownerName":"HUNT, MICHELLE LETT","ownerName2":null,"propertyName":null,"zoningCode":null,"zoningDistrict":null,"jurisdictionPrefix":null,"dorCode":null,"acreage":20.5284,"centroid":[-78.995388,35.515482],"lastSale":{"date":null,"price":null,"qualified":null},"tax":{"marketValue":105700.0,"assessedValue":105700.0,"taxableValue":null,"taxes":null},"mailingAddress":{"line1":null,"line2":null,"city":null,"state":null,"zip":null},"incomeTract":null,"incomeBlockGroup":null,"nearestRoad":null,"flu":null,"opportunityZone":null,"oz2Eligibility":null,"source":"nc-onemap-37105"},"geometry":{"type":"Polygon","coordinates":[[[-78.99695,35.51453],[-78.9966,35.51533],[-78.99652,35.51664],[-78.9962,35.51701],[-78.99249,35.51548],[-78.99357,35.5139],[-78.99695,35.51453]]]}},{"type":"Feature","id":"37105:060309862800","properties":{"id":"37105:060309862800","parcelId":"060309862800","countyFips":"37105","countyName":"Lee","state":"North Carolina","marketIds":["Raleigh-Durham"],"situsAddress":"2575 BUCKHORN RD","situsCity":null,"situsZip":null,"jurisdictionCode":null,"ownerName":"RICHMOND, PHILLIP PAUL","ownerName2":null,"propertyName":null,"zoningCode":null,"zoningDistrict":null,"jurisdictionPrefix":null,"dorCode":null,"acreage":19.36,"centroid":[-78.997081,35.507636],"lastSale":{"date":null,"price":null,"qualified":null},"tax":{"marketValue":222400.0,"assessedValue":149500.0,"taxableValue":null,"taxes":null},"mailingAddress":{"line1":null,"line2":null,"city":null,"state":null,"zip":null},"incomeTract":null,"incomeBlockGroup":null,"nearestRoad":null,"flu":null,"opportunityZone":null,"oz2Eligibility":null,"source":"nc-onemap-37105"},"geometry":{"type":"Polygon","coordinates":[[[-78.99486,35.50624],[-78.9973,35.50624],[-78.99755,35.50526],[-78.99799,35.50521],[-78.99787,35.50624],[-78.99868,35.50917],[-78.99868,35.50955],[-78.99748,35.51018],[-78.99726,35.50935],[-78.99738,35.50925],[-78.99656,35.50843],[-78.99648,35.50785],[-78.99578,35.5071],[-78.99527,35.50684],[-78.99486,35.50624]]]}},{"type":"Feature","id":"37105:060443435400","properties":{"id":"37105:060443435400","parcelId":"060443435400","countyFips":"37105","countyName":"Lee","state":"North Carolina","marketIds":["Raleigh-Durham"],"situsAddress":"0 BUCKHORN RD","situsCity":null,"situsZip":null,"jurisdictionCode":null,"ownerName":"LETT, TERRY LEE","ownerName2":null,"propertyName":null,"zoningCode":null,"zoningDistrict":null,"jurisdictionPrefix":null,"dorCode":null,"acreage":19.19,"centroid":[-78.985448,35.517574],"lastSale":{"date":null,"price":null,"qualified":null},"tax":{"marketValue":135600.0,"assessedValue":135400.0,"taxableValue":null,"taxes":null},"mailingAddress":{"line1":null,"line2":null,"city":null,"state":null,"zip":null},"incomeTract":null,"incomeBlockGroup":null,"nearestRoad":null,"flu":null,"opportunityZone":null,"oz2Eligibility":null,"source":"nc-onemap-37105"},"geometry":{"type":"Polygon","coordinates":[[[-78.98247,35.51662],[-78.98624,35.51695],[-78.98682,35.5168],[-78.98735,35.51813],[-78.98436,35.51937],[-78.98247,35.51662]]]}},{"type":"Feature","id":"37105:060410891000","properties":{"id":"37105:060410891000","parcelId":"060410891000","countyFips":"37105","countyName":"Lee","state":"North Carolina","marketIds":["Raleigh-Durham"],"situsAddress":"0 BUCKHORN RD","situsCity":null,"situsZip":null,"jurisdictionCode":null,"ownerName":"BYRD, JOHNNY RAY","ownerName2":null,"propertyName":null,"zoningCode":null,"zoningDistrict":null,"jurisdictionPrefix":null,"dorCode":null,"acreage":18.88,"centroid":[-78.994318,35.511145],"lastSale":{"date":null,"price":null,"qualified":null},"tax":{"marketValue":118000.0,"assessedValue":118000.0,"taxableValue":null,"taxes":null},"mailingAddress":{"line1":null,"line2":null,"city":null,"state":null,"zip":null},"incomeTract":null,"incomeBlockGroup":null,"nearestRoad":null,"flu":null,"opportunityZone":null,"oz2Eligibility":null,"source":"nc-onemap-37105"},"geometry":{"type":"Polygon","coordinates":[[[-78.99232,35.51077],[-78.99249,35.51036],[-78.99109,35.50945],[-78.99147,35.50855],[-78.99407,35.51014],[-78.99463,35.51035],[-78.99508,35.51098],[-78.99541,35.5119],[-78.99651,35.51288],[-78.99725,35.5133],[-78.99718,35.51391],[-78.99232,35.51077]]]}},{"type":"Feature","id":"37105:060484164900","properties":{"id":"37105:060484164900","parcelId":"060484164900","countyFips":"37105","countyName":"Lee","state":"North Carolina","marketIds":["Raleigh-Durham"],"situsAddress":"0 BUCKHORN RD","situsCity":null,"situsZip":null,"jurisdictionCode":null,"ownerName":"KITCHENS, JOHNNY U","ownerName2":null,"propertyName":null,"zoningCode":null,"zoningDistrict":null,"jurisdictionPrefix":null,"dorCode":null,"acreage":17.225,"centroid":[-78.973034,35.521915],"lastSale":{"date":null,"price":null,"qualified":null},"tax":{"marketValue":114800.0,"assessedValue":114800.0,"taxableValue":null,"taxes":null},"mailingAddress":{"line1":null,"line2":null,"city":null,"state":null,"zip":null},"incomeTract":null,"incomeBlockGroup":null,"nearestRoad":null,"flu":null,"opportunityZone":null,"oz2Eligibility":null,"source":"nc-onemap-37105"},"geometry":{"type":"Polygon","coordinates":[[[-78.97148,35.52236],[-78.97054,35.52128],[-78.97442,35.51955],[-78.97473,35.52125],[-78.97391,35.5216],[-78.97405,35.52186],[-78.97372,35.52195],[-78.97376,35.52214],[-78.97361,35.52212],[-78.97343,35.52231],[-78.97355,35.52243],[-78.97279,35.52253],[-78.97221,35.5223],[-78.97176,35.52262],[-78.97155,35.52242],[-78.97148,35.52236]]]}},{"type":"Feature","id":"37105:060422406300","properties":{"id":"37105:060422406300","parcelId":"060422406300","countyFips":"37105","countyName":"Lee","state":"North Carolina","marketIds":["Raleigh-Durham"],"situsAddress":"3095 BUCKHORN RD","situsCity":null,"situsZip":null,"jurisdictionCode":null,"ownerName":"HUNT, MICHELLE LETT","ownerName2":null,"propertyName":null,"zoningCode":null,"zoningDistrict":null,"jurisdictionPrefix":null,"dorCode":null,"acreage":15.9822,"centroid":[-78.99162,35.514004],"lastSale":{"date":null,"price":null,"qualified":null},"tax":{"marketValue":201500.0,"assessedValue":142400.0,"taxableValue":null,"taxes":null},"mailingAddress":{"line1":null,"line2":null,"city":null,"state":null,"zip":null},"incomeTract":null,"incomeBlockGroup":null,"nearestRoad":null,"flu":null,"opportunityZone":null,"oz2Eligibility":null,"source":"nc-onemap-37105"},"geometry":{"type":"Polygon","coordinates":[[[-78.98903,35.51404],[-78.98948,35.51309],[-78.99353,35.51351],[-78.99357,35.5139],[-78.99249,35.51548],[-78.98903,35.51404]]]}},{"type":"Feature","id":"37105:060442276400","properties":{"id":"37105:060442276400","parcelId":"060442276400","countyFips":"37105","countyName":"Lee","state":"North Carolina","marketIds":["Raleigh-Durham"],"situsAddress":"3204 BUCKHORN RD","situsCity":null,"situsZip":null,"jurisdictionCode":null,"ownerName":"CUNICO, HERNAN","ownerName2":null,"propertyName":null,"zoningCode":null,"zoningDistrict":null,"jurisdictionPrefix":null,"dorCode":null,"acreage":14.87,"centroid":[-78.986133,35.51608],"lastSale":{"date":null,"price":null,"qualified":null},"tax":{"marketValue":176500.0,"assessedValue":114800.0,"taxableValue":null,"taxes":null},"mailingAddress":{"line1":null,"line2":null,"city":null,"state":null,"zip":null},"incomeTract":null,"incomeBlockGroup":null,"nearestRoad":null,"flu":null,"opportunityZone":null,"oz2Eligibility":null,"source":"nc-onemap-37105"},"geometry":{"type":"Polygon","coordinates":[[[-78.98247,35.51662],[-78.98538,35.51531],[-78.98502,35.51479],[-78.98658,35.51541],[-78.98808,35.51561],[-78.98782,35.51661],[-78.98679,35.51662],[-78.98682,35.5168],[-78.98624,35.51695],[-78.98247,35.51662]]]}},{"type":"Feature","id":"37105:060417361500","properties":{"id":"37105:060417361500","parcelId":"060417361500","countyFips":"37105","countyName":"Lee","state":"North Carolina","marketIds":["Raleigh-Durham"],"situsAddress":"0 DOYLE COX RD","situsCity":null,"situsZip":null,"jurisdictionCode":null,"ownerName":"KELLY, CHARLES FRANKLIN","ownerName2":null,"propertyName":null,"zoningCode":null,"zoningDistrict":null,"jurisdictionPrefix":null,"dorCode":null,"acreage":14.6046,"centroid":[-78.994877,35.527969],"lastSale":{"date":null,"price":null,"qualified":null},"tax":{"marketValue":127000.0,"assessedValue":127000.0,"taxableValue":null,"taxes":null},"mailingAddress":{"line1":null,"line2":null,"city":null,"state":null,"zip":null},"incomeTract":null,"incomeBlockGroup":null,"nearestRoad":null,"flu":null,"opportunityZone":null,"oz2Eligibility":null,"source":"nc-onemap-37105"},"geometry":{"type":"Polygon","coordinates":[[[-78.99447,35.529],[-78.9945,35.52844],[-78.99485,35.52845],[-78.99488,35.52788],[-78.99453,35.52788],[-78.99465,35.52616],[-78.99584,35.5262],[-78.99564,35.52873],[-78.99453,35.52898],[-78.99447,35.529]],[[-78.9955,35.52891],[-78.99678,35.52876],[-78.99662,35.53013],[-78.99442,35.53033],[-78.99446,35.52919],[-78.99542,35.52892],[-78.9955,35.52891]]]}},{"type":"Feature","id":"37105:060339731200","properties":{"id":"37105:060339731200","parcelId":"060339731200","countyFips":"37105","countyName":"Lee","state":"North Carolina","marketIds":["Raleigh-Durham"],"situsAddress":"0 BUCKHORN RD","situsCity":null,"situsZip":null,"jurisdictionCode":null,"ownerName":"ROLLING HILLS FARMS","ownerName2":null,"propertyName":null,"zoningCode":null,"zoningDistrict":null,"jurisdictionPrefix":null,"dorCode":null,"acreage":14.5214,"centroid":[-78.988173,35.506935],"lastSale":{"date":null,"price":null,"qualified":null},"tax":{"marketValue":113400.0,"assessedValue":113400.0,"taxableValue":null,"taxes":null},"mailingAddress":{"line1":null,"line2":null,"city":null,"state":null,"zip":null},"incomeTract":null,"incomeBlockGroup":null,"nearestRoad":null,"flu":null,"opportunityZone":null,"oz2Eligibility":null,"source":"nc-onemap-37105"},"geometry":{"type":"Polygon","coordinates":[[[-78.98899,35.5062],[-78.9894,35.50618],[-78.98933,35.50737],[-78.9917,35.50754],[-78.9913,35.50844],[-78.98921,35.50791],[-78.9883,35.50733],[-78.98822,35.50715],[-78.98642,35.50705],[-78.98563,35.50648],[-78.98496,35.50637],[-78.98532,35.50601],[-78.98747,35.50612],[-78.98899,35.5062]]]}},{"type":"Feature","id":"37105:060400950200","properties":{"id":"37105:060400950200","parcelId":"060400950200","countyFips":"37105","countyName":"Lee","state":"North Carolina","marketIds":["Raleigh-Durham"],"situsAddress":"0 BUCKHORN RD","situsCity":null,"situsZip":null,"jurisdictionCode":null,"ownerName":"RIDGLEY, JEREMY CHAD","ownerName2":null,"propertyName":null,"zoningCode":null,"zoningDistrict":null,"jurisdictionPrefix":null,"dorCode":null,"acreage":13.859,"centroid":[-78.996427,35.508698],"lastSale":{"date":null,"price":null,"qualified":null},"tax":{"marketValue":90700.0,"assessedValue":90700.0,"taxableValue":null,"taxes":null},"mailingAddress":{"line1":null,"line2":null,"city":null,"state":null,"zip":null},"incomeTract":null,"incomeBlockGroup":null,"nearestRoad":null,"flu":null,"opportunityZone":null,"oz2Eligibility":null,"source":"nc-onemap-37105"},"geometry":{"type":"Polygon","coordinates":[[[-78.99779,35.51202],[-78.99764,35.51205],[-78.99763,35.51236],[-78.99399,35.50521],[-78.9953,35.50568],[-78.99485,35.50623],[-78.99527,35.50684],[-78.99578,35.5071],[-78.99648,35.50785],[-78.99656,35.50843],[-78.99738,35.50925],[-78.99726,35.50935],[-78.99762,35.51071],[-78.99779,35.51202]]]}},{"type":"Feature","id":"37105:060410165200","properties":{"id":"37105:060410165200","parcelId":"060410165200","countyFips":"37105","countyName":"Lee","state":"North Carolina","marketIds":["Raleigh-Durham"],"situsAddress":"0 BUCKHORN RD","situsCity":null,"situsZip":null,"jurisdictionCode":null,"ownerName":"CARTER, RANDOLPH E","ownerName2":null,"propertyName":null,"zoningCode":null,"zoningDistrict":null,"jurisdictionPrefix":null,"dorCode":null,"acreage":12.2262,"centroid":[-78.995335,35.508548],"lastSale":{"date":null,"price":null,"qualified":null},"tax":{"marketValue":93000.0,"assessedValue":93000.0,"taxableValue":null,"taxes":null},"mailingAddress":{"line1":null,"line2":null,"city":null,"state":null,"zip":null},"incomeTract":null,"incomeBlockGroup":null,"nearestRoad":null,"flu":null,"opportunityZone":null,"oz2Eligibility":null,"source":"nc-onemap-37105"},"geometry":{"type":"Polygon","coordinates":[[[-78.99386,35.50529],[-78.99399,35.50521],[-78.99763,35.51236],[-78.99734,35.51295],[-78.99493,35.50892],[-78.99426,35.50656],[-78.99386,35.50529]]]}},{"type":"Feature","id":"37105:060453406400","properties":{"id":"37105:060453406400","parcelId":"060453406400","countyFips":"37105","countyName":"Lee","state":"North Carolina","marketIds":["Raleigh-Durham"],"situsAddress":"0 BUCKHORN RD","situsCity":null,"situsZip":null,"jurisdictionCode":null,"ownerName":"SBA TOWERS III, LLC","ownerName2":null,"propertyName":null,"zoningCode":null,"zoningDistrict":null,"jurisdictionPrefix":null,"dorCode":null,"acreage":12.1145,"centroid":[-78.980618,35.515685],"lastSale":{"date":null,"price":null,"qualified":null},"tax":{"marketValue":12100.0,"assessedValue":12100.0,"taxableValue":null,"taxes":null},"mailingAddress":{"line1":null,"line2":null,"city":null,"state":null,"zip":null},"incomeTract":null,"incomeBlockGroup":null,"nearestRoad":null,"flu":null,"opportunityZone":null,"oz2Eligibility":null,"source":"nc-onemap-37105"},"geometry":{"type":"Polygon","coordinates":[[[-78.97429,35.5175],[-78.97448,35.51706],[-78.97606,35.51603],[-78.97615,35.51576],[-78.97595,35.51537],[-78.97607,35.51525],[-78.97632,35.51575],[-78.97621,35.51611],[-78.97458,35.51716],[-78.97445,35.51754],[-78.97509,35.51806],[-78.97754,35.51844],[-78.98486,35.51532],[-78.98432,35.51462],[-78.985,35.51392],[-78.98682,35.51317],[-78.98898,35.5137],[-78.98885,35.51397],[-78.98778,35.51359],[-78.98724,35.51374],[-78.98714,35.5135],[-78.98635,35.51351],[-78.98616,35.51372],[-78.98446,35.51456],[-78.98502,35.51479],[-78.98538,35.51531],[-78.97753,35.51884],[-78.97599,35.51832],[-78.97498,35.51823],[-78.97448,35.5177],[-78.97429,35.5175]]]}},{"type":"Feature","id":"37105:060421365000","properties":{"id":"37105:060421365000","parcelId":"060421365000","countyFips":"37105","countyName":"Lee","state":"North Carolina","marketIds":["Raleigh-Durham"],"situsAddress":"3013 BUCKHORN RD","situsCity":null,"situsZip":null,"jurisdictionCode":null,"ownerName":"BYRD, JOHNNY RAY","ownerName2":null,"propertyName":null,"zoningCode":null,"zoningDistrict":null,"jurisdictionPrefix":null,"dorCode":null,"acreage":11.8371,"centroid":[-78.993432,35.513552],"lastSale":{"date":null,"price":null,"qualified":null},"tax":{"marketValue":624200.0,"assessedValue":105900.0,"taxableValue":null,"taxes":null},"mailingAddress":{"line1":null,"line2":null,"city":null,"state":null,"zip":null},"incomeTract":null,"incomeBlockGroup":null,"nearestRoad":null,"flu":null,"opportunityZone":null,"oz2Eligibility":null,"source":"nc-onemap-37105"},"geometry":{"type":"Polygon","coordinates":[[[-78.98948,35.51309],[-78.99003,35.51187],[-78.99703,35.51441],[-78.99695,35.51453],[-78.99357,35.5139],[-78.99353,35.51351],[-78.98948,35.51309]]]}},{"type":"Feature","id":"37105:060411928000","properties":{"id":"37105:060411928000","parcelId":"060411928000","countyFips":"37105","countyName":"Lee","state":"North Carolina","marketIds":["Raleigh-Durham"],"situsAddress":"0 BUCKHORN RD","situsCity":null,"situsZip":null,"jurisdictionCode":null,"ownerName":"ROBINSON, MAMIE C","ownerName2":null,"propertyName":null,"zoningCode":null,"zoningDistrict":null,"jurisdictionPrefix":null,"dorCode":null,"acreage":11.657,"centroid":[-78.993917,35.512177],"lastSale":{"date":null,"price":null,"qualified":null},"tax":{"marketValue":84000.0,"assessedValue":84000.0,"taxableValue":null,"taxes":null},"mailingAddress":{"line1":null,"line2":null,"city":null,"state":null,"zip":null},"incomeTract":null,"incomeBlockGroup":null,"nearestRoad":null,"flu":null,"opportunityZone":null,"oz2Eligibility":null,"source":"nc-onemap-37105"},"geometry":{"type":"Polygon","coordinates":[[[-78.99091,35.50986],[-78.99718,35.51391],[-78.99707,35.51417],[-78.99051,35.51077],[-78.99091,35.50986]]]}},{"type":"Feature","id":"37105:060425447000","properties":{"id":"37105:060425447000","parcelId":"060425447000","countyFips":"37105","countyName":"Lee","state":"North Carolina","marketIds":["Raleigh-Durham"],"situsAddress":"460 FALLS CREEK RD","situsCity":null,"situsZip":null,"jurisdictionCode":null,"ownerName":"THOMAS, PHILIP ANTHONY","ownerName2":null,"propertyName":null,"zoningCode":null,"zoningDistrict":null,"jurisdictionPrefix":null,"dorCode":null,"acreage":11.5037,"centroid":[-78.991636,35.523632],"lastSale":{"date":null,"price":null,"qualified":null},"tax":{"marketValue":72600.0,"assessedValue":57500.0,"taxableValue":null,"taxes":null},"mailingAddress":{"line1":null,"line2":null,"city":null,"state":null,"zip":null},"incomeTract":null,"incomeBlockGroup":null,"nearestRoad":null,"flu":null,"opportunityZone":null,"oz2Eligibility":null,"source":"nc-onemap-37105"},"geometry":{"type":"Polygon","coordinates":[[[-78.99029,35.52423],[-78.9902,35.52257],[-78.99165,35.52254],[-78.99302,35.52302],[-78.99377,35.52437],[-78.99193,35.52421],[-78.99161,35.52396],[-78.99062,35.52416],[-78.99029,35.52423]]]}},{"type":"Feature","id":"37105:060421143100","properties":{"id":"37105:060421143100","parcelId":"060421143100","countyFips":"37105","countyName":"Lee","state":"North Carolina","marketIds":["Raleigh-Durham"],"situsAddress":"3005 BUCKHORN RD","situsCity":null,"situsZip":null,"jurisdictionCode":null,"ownerName":"MARTIN, ELIJAH","ownerName2":null,"propertyName":null,"zoningCode":null,"zoningDistrict":null,"jurisdictionPrefix":null,"dorCode":null,"acreage":11.32,"centroid":[-78.99366,35.512805],"lastSale":{"date":null,"price":null,"qualified":null},"tax":{"marketValue":399000.0,"assessedValue":91900.0,"taxableValue":null,"taxes":null},"mailingAddress":{"line1":null,"line2":null,"city":null,"state":null,"zip":null},"incomeTract":null,"incomeBlockGroup":null,"nearestRoad":null,"flu":null,"opportunityZone":null,"oz2Eligibility":null,"source":"nc-onemap-37105"},"geometry":{"type":"Polygon","coordinates":[[[-78.99003,35.51187],[-78.99051,35.51077],[-78.99707,35.51417],[-78.99703,35.51441],[-78.99003,35.51187]]]}},{"type":"Feature","id":"37105:060432916600","properties":{"id":"37105:060432916600","parcelId":"060432916600","countyFips":"37105","countyName":"Lee","state":"North Carolina","marketIds":["Raleigh-Durham"],"situsAddress":"0 BUCKHORN RD","situsCity":null,"situsZip":null,"jurisdictionCode":null,"ownerName":"LORD, GERALD H","ownerName2":null,"propertyName":null,"zoningCode":null,"zoningDistrict":null,"jurisdictionPrefix":null,"dorCode":null,"acreage":11.2406,"centroid":[-78.987458,35.514319],"lastSale":{"date":null,"price":null,"qualified":null},"tax":{"marketValue":75000.0,"assessedValue":75000.0,"taxableValue":null,"taxes":null},"mailingAddress":{"line1":null,"line2":null,"city":null,"state":null,"zip":null},"incomeTract":null,"incomeBlockGroup":null,"nearestRoad":null,"flu":null,"opportunityZone":null,"oz2Eligibility":null,"source":"nc-onemap-37105"},"geometry":{"type":"Polygon","coordinates":[[[-78.98885,35.51397],[-78.98868,35.51432],[-78.98751,35.51395],[-78.98709,35.51483],[-78.98826,35.51522],[-78.98808,35.51561],[-78.98658,35.51541],[-78.98446,35.51456],[-78.98645,35.51348],[-78.98714,35.5135],[-78.98724,35.51374],[-78.98778,35.51359],[-78.98884,35.51397],[-78.98885,35.51397]]]}},{"type":"Feature","id":"37105:060410380700","properties":{"id":"37105:060410380700","parcelId":"060410380700","countyFips":"37105","countyName":"Lee","state":"North Carolina","marketIds":["Raleigh-Durham"],"situsAddress":"0 BUCKHORN RD","situsCity":null,"situsZip":null,"jurisdictionCode":null,"ownerName":"CARTER, RANDOLPH E","ownerName2":null,"propertyName":null,"zoningCode":null,"zoningDistrict":null,"jurisdictionPrefix":null,"dorCode":null,"acreage":11.1991,"centroid":[-78.995557,35.511093],"lastSale":{"date":null,"price":null,"qualified":null},"tax":{"marketValue":31400.0,"assessedValue":31400.0,"taxableValue":null,"taxes":null},"mailingAddress":{"line1":null,"line2":null,"city":null,"state":null,"zip":null},"incomeTract":null,"incomeBlockGroup":null,"nearestRoad":null,"flu":null,"opportunityZone":null,"oz2Eligibility":null,"source":"nc-onemap-37105"},"geometry":{"type":"Polygon","coordinates":[[[-78.99734,35.51295],[-78.99719,35.51326],[-78.99651,35.51288],[-78.99541,35.5119],[-78.99508,35.51098],[-78.99463,35.51035],[-78.99407,35.51014],[-78.99485,35.50846],[-78.99493,35.50892],[-78.99734,35.51295]]]}},{"type":"Feature","id":"37105:060425591400","properties":{"id":"37105:060425591400","parcelId":"060425591400","countyFips":"37105","countyName":"Lee","state":"North Carolina","marketIds":["Raleigh-Durham"],"situsAddress":"461 FALLS CREEK RD","situsCity":null,"situsZip":null,"jurisdictionCode":null,"ownerName":"RHODES, MARK W","ownerName2":null,"propertyName":null,"zoningCode":null,"zoningDistrict":null,"jurisdictionPrefix":null,"dorCode":null,"acreage":10.2147,"centroid":[-78.991779,35.524531],"lastSale":{"date":null,"price":null,"qualified":null},"tax":{"marketValue":145400.0,"assessedValue":80700.0,"taxableValue":null,"taxes":null},"mailingAddress":{"line1":null,"line2":null,"city":null,"state":null,"zip":null},"incomeTract":null,"incomeBlockGroup":null,"nearestRoad":null,"flu":null,"opportunityZone":null,"oz2Eligibility":null,"source":"nc-onemap-37105"},"geometry":{"type":"Polygon","coordinates":[[[-78.99062,35.52416],[-78.99161,35.52396],[-78.99193,35.52421],[-78.99377,35.52437],[-78.99376,35.52472],[-78.99047,35.52607],[-78.99029,35.52423],[-78.99062,35.52416]]]}},{"type":"Feature","id":"37105:060404648600","properties":{"id":"37105:060404648600","parcelId":"060404648600","countyFips":"37105","countyName":"Lee","state":"North Carolina","marketIds":["Raleigh-Durham"],"situsAddress":"3616 BUCKHORN DR","situsCity":null,"situsZip":null,"jurisdictionCode":null,"ownerName":"RANDOLPH, TROY","ownerName2":null,"propertyName":null,"zoningCode":null,"zoningDistrict":null,"jurisdictionPrefix":null,"dorCode":null,"acreage":10.2078,"centroid":[-78.997209,35.520889],"lastSale":{"date":null,"price":null,"qualified":null},"tax":{"marketValue":96700.0,"assessedValue":46000.0,"taxableValue":null,"taxes":null},"mailingAddress":{"line1":null,"line2":null,"city":null,"state":null,"zip":null},"incomeTract":null,"incomeBlockGroup":null,"nearestRoad":null,"flu":null,"opportunityZone":null,"oz2Eligibility":null,"source":"nc-onemap-37105"},"geometry":{"type":"Polygon","coordinates":[[[-78.99472,35.51975],[-78.99469,35.51955],[-78.99596,35.51959],[-78.9967,35.51976],[-79.00003,35.52172],[-78.99894,35.52288],[-78.99884,35.52248],[-78.99837,35.52187],[-78.9983,35.52154],[-78.99812,35.52158],[-78.99791,35.52122],[-78.99728,35.52113],[-78.99702,35.52083],[-78.9971,35.52075],[-78.99702,35.52058],[-78.99664,35.52035],[-78.99629,35.52038],[-78.99583,35.52004],[-78.99472,35.51975]]]}},{"type":"Feature","id":"37105:060327215600","properties":{"id":"37105:060327215600","parcelId":"060327215600","countyFips":"37105","countyName":"Lee","state":"North Carolina","marketIds":["Raleigh-Durham"],"situsAddress":"0 DANIELS CREEK RD","situsCity":null,"situsZip":null,"jurisdictionCode":null,"ownerName":"BUCHANAN, WILLIAM HARVEY","ownerName2":null,"propertyName":null,"zoningCode":null,"zoningDistrict":null,"jurisdictionPrefix":null,"dorCode":null,"acreage":10.1481,"centroid":[-78.992447,35.500715],"lastSale":{"date":null,"price":null,"qualified":null},"tax":{"marketValue":52000.0,"assessedValue":52000.0,"taxableValue":null,"taxes":null},"mailingAddress":{"line1":null,"line2":null,"city":null,"state":null,"zip":null},"incomeTract":null,"incomeBlockGroup":null,"nearestRoad":null,"flu":null,"opportunityZone":null,"oz2Eligibility":null,"source":"nc-onemap-37105"},"geometry":{"type":"Polygon","coordinates":[[[-78.99143,35.49991],[-78.99225,35.49908],[-78.99385,35.50142],[-78.99226,35.50245],[-78.99143,35.49991]]]}},{"type":"Feature","id":"37105:060415918900","properties":{"id":"37105:060415918900","parcelId":"060415918900","countyFips":"37105","countyName":"Lee","state":"North Carolina","marketIds":["Raleigh-Durham"],"situsAddress":"458 FALLS CREEK RD","situsCity":null,"situsZip":null,"jurisdictionCode":null,"ownerName":"WELCH, ASHLY M","ownerName2":null,"propertyName":null,"zoningCode":null,"zoningDistrict":null,"jurisdictionPrefix":null,"dorCode":null,"acreage":10.108,"centroid":[-78.992974,35.522754],"lastSale":{"date":null,"price":null,"qualified":null},"tax":{"marketValue":70300.0,"assessedValue":55200.0,"taxableValue":null,"taxes":null},"mailingAddress":{"line1":null,"line2":null,"city":null,"state":null,"zip":null},"incomeTract":null,"incomeBlockGroup":null,"nearestRoad":null,"flu":null,"opportunityZone":null,"oz2Eligibility":null,"source":"nc-onemap-37105"},"geometry":{"type":"Polygon","coordinates":[[[-78.99165,35.52254],[-78.9914,35.52157],[-78.99258,35.52155],[-78.9938,35.52208],[-78.9946,35.52415],[-78.99377,35.52437],[-78.99302,35.52302],[-78.99165,35.52254]]]}},{"type":"Feature","id":"37105:060500815400","properties":{"id":"37105:060500815400","parcelId":"060500815400","countyFips":"37105","countyName":"Lee","state":"North Carolina","marketIds":["Raleigh-Durham"],"situsAddress":"0 ATTIE LEE LN","situsCity":null,"situsZip":null,"jurisdictionCode":null,"ownerName":"WILLETT, TROY S","ownerName2":null,"propertyName":null,"zoningCode":null,"zoningDistrict":null,"jurisdictionPrefix":null,"dorCode":null,"acreage":10.0429,"centroid":[-78.997544,35.53611],"lastSale":{"date":null,"price":null,"qualified":null},"tax":{"marketValue":74100.0,"assessedValue":74100.0,"taxableValue":null,"taxes":null},"mailingAddress":{"line1":null,"line2":null,"city":null,"state":null,"zip":null},"incomeTract":null,"incomeBlockGroup":null,"nearestRoad":null,"flu":null,"opportunityZone":null,"oz2Eligibility":null,"source":"nc-onemap-37105"},"geometry":{"type":"Polygon","coordinates":[[[-78.99854,35.53571],[-78.99886,35.5357],[-78.99872,35.53609],[-78.99896,35.53679],[-78.99518,35.53692],[-78.9951,35.53582],[-78.99745,35.53574],[-78.99854,35.53571]]]}},{"type":"Feature","id":"37105:060415194600","properties":{"id":"37105:060415194600","parcelId":"060415194600","countyFips":"37105","countyName":"Lee","state":"North Carolina","marketIds":["Raleigh-Durham"],"situsAddress":"289 FALLS CREEK RD","situsCity":null,"situsZip":null,"jurisdictionCode":null,"ownerName":"FRANK, TIMOTHY CHARLES","ownerName2":null,"propertyName":null,"zoningCode":null,"zoningDistrict":null,"jurisdictionPrefix":null,"dorCode":null,"acreage":10.0251,"centroid":[-78.995906,35.525132],"lastSale":{"date":null,"price":null,"qualified":null},"tax":{"marketValue":387700.0,"assessedValue":88700.0,"taxableValue":null,"taxes":null},"mailingAddress":{"line1":null,"line2":null,"city":null,"state":null,"zip":null},"incomeTract":null,"incomeBlockGroup":null,"nearestRoad":null,"flu":null,"opportunityZone":null,"oz2Eligibility":null,"source":"nc-onemap-37105"},"geometry":{"type":"Polygon","coordinates":[[[-78.99461,35.52518],[-78.99686,35.5237],[-78.99778,35.52443],[-78.99568,35.52619],[-78.9946,35.52616],[-78.99461,35.52518]]]}},{"type":"Feature","id":"37105:060415359300","properties":{"id":"37105:060415359300","parcelId":"060415359300","countyFips":"37105","countyName":"Lee","state":"North Carolina","marketIds":["Raleigh-Durham"],"situsAddress":"328 FALLS CREEK RD","situsCity":null,"situsZip":null,"jurisdictionCode":null,"ownerName":"KNIGHT, ROY NEIL IV","ownerName2":null,"propertyName":null,"zoningCode":null,"zoningDistrict":null,"jurisdictionPrefix":null,"dorCode":null,"acreage":9.996,"centroid":[-78.995108,35.523592],"lastSale":{"date":null,"price":null,"qualified":null},"tax":{"marketValue":93900.0,"assessedValue":60000.0,"taxableValue":null,"taxes":null},"mailingAddress":{"line1":null,"line2":null,"city":null,"state":null,"zip":null},"incomeTract":null,"incomeBlockGroup":null,"nearestRoad":null,"flu":null,"opportunityZone":null,"oz2Eligibility":null,"source":"nc-onemap-37105"},"geometry":{"type":"Polygon","coordinates":[[[-78.9946,35.52415],[-78.9938,35.52208],[-78.99567,35.52285],[-78.99686,35.5237],[-78.99461,35.52518],[-78.9946,35.52415]]]}},{"type":"Feature","id":"37105:060406528500","properties":{"id":"37105:060406528500","parcelId":"060406528500","countyFips":"37105","countyName":"Lee","state":"North Carolina","marketIds":["Raleigh-Durham"],"situsAddress":"141 FALLS CREEK RD","situsCity":null,"situsZip":null,"jurisdictionCode":null,"ownerName":"STOUGHTON, RICHARD P","ownerName2":null,"propertyName":null,"zoningCode":null,"zoningDistrict":null,"jurisdictionPrefix":null,"dorCode":null,"acreage":9.9222,"centroid":[-78.998204,35.525788],"lastSale":{"date":null,"price":null,"qualified":null},"tax":{"marketValue":114000.0,"assessedValue":95800.0,"taxableValue":null,"taxes":null},"mailingAddress":{"line1":null,"line2":null,"city":null,"state":null,"zip":null},"incomeTract":null,"incomeBlockGroup":null,"nearestRoad":null,"flu":null,"opportunityZone":null,"oz2Eligibility":null,"source":"nc-onemap-37105"},"geometry":{"type":"Polygon","coordinates":[[[-78.99869,35.5263],[-78.99568,35.52619],[-78.99778,35.52443],[-78.99948,35.5257],[-78.99939,35.52632],[-78.99869,35.5263]]]}},{"type":"Feature","id":"37105:060417936700","properties":{"id":"37105:060417936700","parcelId":"060417936700","countyFips":"37105","countyName":"Lee","state":"North Carolina","marketIds":["Raleigh-Durham"],"situsAddress":"756 DOYLE COX RD","situsCity":null,"situsZip":null,"jurisdictionCode":null,"ownerName":"COX, ROY S","ownerName2":null,"propertyName":null,"zoningCode":null,"zoningDistrict":null,"jurisdictionPrefix":null,"dorCode":null,"acreage":9.8898,"centroid":[-78.993656,35.529019],"lastSale":{"date":null,"price":null,"qualified":null},"tax":{"marketValue":71700.0,"assessedValue":71700.0,"taxableValue":null,"taxes":null},"mailingAddress":{"line1":null,"line2":null,"city":null,"state":null,"zip":null},"incomeTract":null,"incomeBlockGroup":null,"nearestRoad":null,"flu":null,"opportunityZone":null,"oz2Eligibility":null,"source":"nc-onemap-37105"},"geometry":{"type":"Polygon","coordinates":[[[-78.99232,35.53034],[-78.99242,35.52792],[-78.99488,35.52788],[-78.99485,35.52845],[-78.9945,35.52844],[-78.99447,35.529],[-78.99312,35.52979],[-78.99269,35.53033],[-78.99232,35.53034]]]}},{"type":"Feature","id":"37105:060416816100","properties":{"id":"37105:060416816100","parcelId":"060416816100","countyFips":"37105","countyName":"Lee","state":"North Carolina","marketIds":["Raleigh-Durham"],"situsAddress":"435 FALLS CREEK RD","situsCity":null,"situsZip":null,"jurisdictionCode":null,"ownerName":"SIMPSON, TERRANCE AUBURN","ownerName2":null,"propertyName":null,"zoningCode":null,"zoningDistrict":null,"jurisdictionPrefix":null,"dorCode":null,"acreage":9.7502,"centroid":[-78.993497,35.524973],"lastSale":{"date":null,"price":null,"qualified":null},"tax":{"marketValue":161700.0,"assessedValue":82500.0,"taxableValue":null,"taxes":null},"mailingAddress":{"line1":null,"line2":null,"city":null,"state":null,"zip":null},"incomeTract":null,"incomeBlockGroup":null,"nearestRoad":null,"flu":null,"opportunityZone":null,"oz2Eligibility":null,"source":"nc-onemap-37105"},"geometry":{"type":"Polygon","coordinates":[[[-78.99377,35.52437],[-78.9946,35.52415],[-78.9946,35.52616],[-78.99047,35.52607],[-78.99376,35.52472],[-78.99378,35.52437],[-78.99377,35.52437]]]}},{"type":"Feature","id":"37105:060440928000","properties":{"id":"37105:060440928000","parcelId":"060440928000","countyFips":"37105","countyName":"Lee","state":"North Carolina","marketIds":["Raleigh-Durham"],"situsAddress":"0 BUCKHORN RD","situsCity":null,"situsZip":null,"jurisdictionCode":null,"ownerName":"ROLLING HILLS FARMS","ownerName2":null,"propertyName":null,"zoningCode":null,"zoningDistrict":null,"jurisdictionPrefix":null,"dorCode":null,"acreage":9.083,"centroid":[-78.983424,35.509197],"lastSale":{"date":null,"price":null,"qualified":null},"tax":{"marketValue":60400.0,"assessedValue":60400.0,"taxableValue":null,"taxes":null},"mailingAddress":{"line1":null,"line2":null,"city":null,"state":null,"zip":null},"incomeTract":null,"incomeBlockGroup":null,"nearestRoad":null,"flu":null,"opportunityZone":null,"oz2Eligibility":null,"source":"nc-onemap-37105"},"geometry":{"type":"Polygon","coordinates":[[[-78.98416,35.5081],[-78.98436,35.50983],[-78.98407,35.50989],[-78.98334,35.51038],[-78.98285,35.50974],[-78.98253,35.51],[-78.98211,35.50923],[-78.9835,35.50783],[-78.9839,35.50777],[-78.98416,35.5081]]]}},{"type":"Feature","id":"37105:060327080500","properties":{"id":"37105:060327080500","parcelId":"060327080500","countyFips":"37105","countyName":"Lee","state":"North Carolina","marketIds":["Raleigh-Durham"],"situsAddress":"0 BUCKHORN RD","situsCity":null,"situsZip":null,"jurisdictionCode":null,"ownerName":"PATTERSON, JODY M","ownerName2":null,"propertyName":null,"zoningCode":null,"zoningDistrict":null,"jurisdictionPrefix":null,"dorCode":null,"acreage":8.55,"centroid":[-78.993412,35.50386],"lastSale":{"date":null,"price":null,"qualified":null},"tax":{"marketValue":90500.0,"assessedValue":90500.0,"taxableValue":null,"taxes":null},"mailingAddress":{"line1":null,"line2":null,"city":null,"state":null,"zip":null},"incomeTract":null,"incomeBlockGroup":null,"nearestRoad":null,"flu":null,"opportunityZone":null,"oz2Eligibility":null,"source":"nc-onemap-37105"},"geometry":{"type":"Polygon","coordinates":[[[-78.99338,35.50509],[-78.99277,35.50426],[-78.99226,35.50245],[-78.99366,35.50154],[-78.99418,35.50326],[-78.99305,35.5035],[-78.9935,35.50458],[-78.99418,35.5049],[-78.99373,35.50516],[-78.99338,35.50509]]]}},{"type":"Feature","id":"37105:060416085800","properties":{"id":"37105:060416085800","parcelId":"060416085800","countyFips":"37105","countyName":"Lee","state":"North Carolina","marketIds":["Raleigh-Durham"],"situsAddress":"0 DOYLE COX RD","situsCity":null,"situsZip":null,"jurisdictionCode":null,"ownerName":"VMAX PROPERTIES LLC","ownerName2":null,"propertyName":null,"zoningCode":null,"zoningDistrict":null,"jurisdictionPrefix":null,"dorCode":null,"acreage":8.44,"centroid":[-78.996457,35.527435],"lastSale":{"date":null,"price":null,"qualified":null},"tax":{"marketValue":97200.0,"assessedValue":94400.0,"taxableValue":null,"taxes":null},"mailingAddress":{"line1":null,"line2":null,"city":null,"state":null,"zip":null},"incomeTract":null,"incomeBlockGroup":null,"nearestRoad":null,"flu":null,"opportunityZone":null,"oz2Eligibility":null,"source":"nc-onemap-37105"},"geometry":{"type":"Polygon","coordinates":[[[-78.99584,35.5262],[-78.99726,35.52625],[-78.99709,35.52856],[-78.99564,35.52873],[-78.99584,35.5262]]]}},{"type":"Feature","id":"37105:060424542400","properties":{"id":"37105:060424542400","parcelId":"060424542400","countyFips":"37105","countyName":"Lee","state":"North Carolina","marketIds":["Raleigh-Durham"],"situsAddress":"3334 BUCKHORN RD","situsCity":null,"situsZip":null,"jurisdictionCode":null,"ownerName":"HUNT, MICHELLE LETT","ownerName2":null,"propertyName":null,"zoningCode":null,"zoningDistrict":null,"jurisdictionPrefix":null,"dorCode":null,"acreage":7.98,"centroid":[-78.99171,35.520981],"lastSale":{"date":null,"price":null,"qualified":null},"tax":{"marketValue":434600.0,"assessedValue":80600.0,"taxableValue":null,"taxes":null},"mailingAddress":{"line1":null,"line2":null,"city":null,"state":null,"zip":null},"incomeTract":null,"incomeBlockGroup":null,"nearestRoad":null,"flu":null,"opportunityZone":null,"oz2Eligibility":null,"source":"nc-onemap-37105"},"geometry":{"type":"Polygon","coordinates":[[[-78.99092,35.52196],[-78.99103,35.51934],[-78.99232,35.51945],[-78.99218,35.52045],[-78.99247,35.52156],[-78.9914,35.52157],[-78.99165,35.52254],[-78.99092,35.52196]]]}},{"type":"Feature","id":"37105:060501112600","properties":{"id":"37105:060501112600","parcelId":"060501112600","countyFips":"37105","countyName":"Lee","state":"North Carolina","marketIds":["Raleigh-Durham"],"situsAddress":"3860 DOYLE COX RD","situsCity":null,"situsZip":null,"jurisdictionCode":null,"ownerName":"BYRD, EDDIE","ownerName2":null,"propertyName":null,"zoningCode":null,"zoningDistrict":null,"jurisdictionPrefix":null,"dorCode":null,"acreage":7.547,"centroid":[-78.999794,35.539532],"lastSale":{"date":null,"price":null,"qualified":null},"tax":{"marketValue":50300.0,"assessedValue":37000.0,"taxableValue":null,"taxes":null},"mailingAddress":{"line1":null,"line2":null,"city":null,"state":null,"zip":null},"incomeTract":null,"incomeBlockGroup":null,"nearestRoad":null,"flu":null,"opportunityZone":null,"oz2Eligibility":null,"source":"nc-onemap-37105"},"geometry":{"type":"Polygon","coordinates":[[[-78.99981,35.5382],[-79.00086,35.54152],[-79.00008,35.54144],[-78.99874,35.5383],[-78.99948,35.5382],[-78.99981,35.5382]]]}},{"type":"Feature","id":"37105:060501334200","properties":{"id":"37105:060501334200","parcelId":"060501334200","countyFips":"37105","countyName":"Lee","state":"North Carolina","marketIds":["Raleigh-Durham"],"situsAddress":"0 DOYLE COX RD","situsCity":null,"situsZip":null,"jurisdictionCode":null,"ownerName":"BOYD, MAMMIE C(HEIRS)","ownerName2":null,"propertyName":null,"zoningCode":null,"zoningDistrict":null,"jurisdictionPrefix":null,"dorCode":null,"acreage":7.2698,"centroid":[-78.999177,35.540357],"lastSale":{"date":null,"price":null,"qualified":null},"tax":{"marketValue":48200.0,"assessedValue":48200.0,"taxableValue":null,"taxes":null},"mailingAddress":{"line1":null,"line2":null,"city":null,"state":null,"zip":null},"incomeTract":null,"incomeBlockGroup":null,"nearestRoad":null,"flu":null,"opportunityZone":null,"oz2Eligibility":null,"source":"nc-onemap-37105"},"geometry":{"type":"Polygon","coordinates":[[[-79.00008,35.54144],[-78.99945,35.5413],[-78.99949,35.54145],[-78.99924,35.54151],[-78.99776,35.53847],[-78.99874,35.5383],[-78.99948,35.54003],[-79.00008,35.54144]]]}},{"type":"Feature","id":"37105:060328994000","properties":{"id":"37105:060328994000","parcelId":"060328994000","countyFips":"37105","countyName":"Lee","state":"North Carolina","marketIds":["Raleigh-Durham"],"situsAddress":"0 DANIELS CREEK RD","situsCity":null,"situsZip":null,"jurisdictionCode":null,"ownerName":"CARTER, RANDOLPH E","ownerName2":null,"propertyName":null,"zoningCode":null,"zoningDistrict":null,"jurisdictionPrefix":null,"dorCode":null,"acreage":6.8392,"centroid":[-78.989975,35.505693],"lastSale":{"date":null,"price":null,"qualified":null},"tax":{"marketValue":72600.0,"assessedValue":72600.0,"taxableValue":null,"taxes":null},"mailingAddress":{"line1":null,"line2":null,"city":null,"state":null,"zip":null},"incomeTract":null,"incomeBlockGroup":null,"nearestRoad":null,"flu":null,"opportunityZone":null,"oz2Eligibility":null,"source":"nc-onemap-37105"},"geometry":{"type":"Polygon","coordinates":[[[-78.98899,35.5062],[-78.98898,35.50477],[-78.99135,35.50504],[-78.9914,35.50579],[-78.99012,35.50616],[-78.98901,35.5062],[-78.98899,35.5062]]]}},{"type":"Feature","id":"37105:060423932300","properties":{"id":"37105:060423932300","parcelId":"060423932300","countyFips":"37105","countyName":"Lee","state":"North Carolina","marketIds":["Raleigh-Durham"],"situsAddress":"3283 BUCKHORN RD","situsCity":null,"situsZip":null,"jurisdictionCode":null,"ownerName":"JONES, KRYSTAL SHIRID","ownerName2":null,"propertyName":null,"zoningCode":null,"zoningDistrict":null,"jurisdictionPrefix":null,"dorCode":null,"acreage":6.69,"centroid":[-78.990175,35.517504],"lastSale":{"date":null,"price":null,"qualified":null},"tax":{"marketValue":307700.0,"assessedValue":86800.0,"taxableValue":null,"taxes":null},"mailingAddress":{"line1":null,"line2":null,"city":null,"state":null,"zip":null},"incomeTract":null,"incomeBlockGroup":null,"nearestRoad":null,"flu":null,"opportunityZone":null,"oz2Eligibility":null,"source":"nc-onemap-37105"},"geometry":{"type":"Polygon","coordinates":[[[-78.9902,35.5172],[-78.99009,35.51679],[-78.98892,35.51718],[-78.98867,35.51662],[-78.99025,35.51634],[-78.99044,35.51653],[-78.99066,35.51693],[-78.99078,35.5178],[-78.99108,35.51807],[-78.99104,35.51917],[-78.9903,35.5189],[-78.98953,35.51833],[-78.99032,35.51769],[-78.9902,35.5172]]]}},{"type":"Feature","id":"37105:060440253500","properties":{"id":"37105:060440253500","parcelId":"060440253500","countyFips":"37105","countyName":"Lee","state":"North Carolina","marketIds":["Raleigh-Durham"],"situsAddress":"0 BUCKHORN RD","situsCity":null,"situsZip":null,"jurisdictionCode":null,"ownerName":"ROLLING HILLS FARMS","ownerName2":null,"propertyName":null,"zoningCode":null,"zoningDistrict":null,"jurisdictionPrefix":null,"dorCode":null,"acreage":6.1244,"centroid":[-78.986239,35.510147],"lastSale":{"date":null,"price":null,"qualified":null},"tax":{"marketValue":61100.0,"assessedValue":58400.0,"taxableValue":null,"taxes":null},"mailingAddress":{"line1":null,"line2":null,"city":null,"state":null,"zip":null},"incomeTract":null,"incomeBlockGroup":null,"nearestRoad":null,"flu":null,"opportunityZone":null,"oz2Eligibility":null,"source":"nc-onemap-37105"},"geometry":{"type":"Polygon","coordinates":[[[-78.98436,35.5093],[-78.98578,35.50933],[-78.98629,35.5097],[-78.98683,35.51047],[-78.98763,35.5105],[-78.98762,35.51062],[-78.98701,35.51082],[-78.98627,35.51075],[-78.98436,35.50983],[-78.98436,35.5093]]]}},{"type":"Feature","id":"37105:060406689900","properties":{"id":"37105:060406689900","parcelId":"060406689900","countyFips":"37105","countyName":"Lee","state":"North Carolina","marketIds":["Raleigh-Durham"],"situsAddress":"0 DOYLE COX RD","situsCity":null,"situsZip":null,"jurisdictionCode":null,"ownerName":"ATCHISON, JOHN STEVEN","ownerName2":null,"propertyName":null,"zoningCode":null,"zoningDistrict":null,"jurisdictionPrefix":null,"dorCode":null,"acreage":5.48,"centroid":[-78.997544,35.527656],"lastSale":{"date":null,"price":null,"qualified":null},"tax":{"marketValue":64800.0,"assessedValue":64800.0,"taxableValue":null,"taxes":null},"mailingAddress":{"line1":null,"line2":null,"city":null,"state":null,"zip":null},"incomeTract":null,"incomeBlockGroup":null,"nearestRoad":null,"flu":null,"opportunityZone":null,"oz2Eligibility":null,"source":"nc-onemap-37105"},"geometry":{"type":"Polygon","coordinates":[[[-78.99709,35.52856],[-78.99726,35.52625],[-78.99816,35.52628],[-78.99811,35.52863],[-78.9971,35.52856],[-78.99709,35.52856]]]}},{"type":"Feature","id":"37105:060424032200","properties":{"id":"37105:060424032200","parcelId":"060424032200","countyFips":"37105","countyName":"Lee","state":"North Carolina","marketIds":["Raleigh-Durham"],"situsAddress":"0 BUCKHORN RD","situsCity":null,"situsZip":null,"jurisdictionCode":null,"ownerName":"HUNT, WILLIAM SCOTT","ownerName2":null,"propertyName":null,"zoningCode":null,"zoningDistrict":null,"jurisdictionPrefix":null,"dorCode":null,"acreage":5.34,"centroid":[-78.993227,35.520104],"lastSale":{"date":null,"price":null,"qualified":null},"tax":{"marketValue":44700.0,"assessedValue":44700.0,"taxableValue":null,"taxes":null},"mailingAddress":{"line1":null,"line2":null,"city":null,"state":null,"zip":null},"incomeTract":null,"incomeBlockGroup":null,"nearestRoad":null,"flu":null,"opportunityZone":null,"oz2Eligibility":null,"source":"nc-onemap-37105"},"geometry":{"type":"Polygon","coordinates":[[[-78.99232,35.51945],[-78.99247,35.51946],[-78.99239,35.52007],[-78.99367,35.52014],[-78.99376,35.51953],[-78.99469,35.51955],[-78.99473,35.51972],[-78.99449,35.52008],[-78.99345,35.52053],[-78.99301,35.52136],[-78.99247,35.52156],[-78.99218,35.52045],[-78.99232,35.51945],[-78.99232,35.51945]]]}},{"type":"Feature","id":"37105:060403429600","properties":{"id":"37105:060403429600","parcelId":"060403429600","countyFips":"37105","countyName":"Lee","state":"North Carolina","marketIds":["Raleigh-Durham"],"situsAddress":"0 ROUND FISH DR","situsCity":null,"situsZip":null,"jurisdictionCode":null,"ownerName":"SHREVE, MARK ANTHONY","ownerName2":null,"propertyName":null,"zoningCode":null,"zoningDistrict":null,"jurisdictionPrefix":null,"dorCode":null,"acreage":5.1777,"centroid":[-78.998286,35.517454],"lastSale":{"date":null,"price":null,"qualified":null},"tax":{"marketValue":44300.0,"assessedValue":44300.0,"taxableValue":null,"taxes":null},"mailingAddress":{"line1":null,"line2":null,"city":null,"state":null,"zip":null},"incomeTract":null,"incomeBlockGroup":null,"nearestRoad":null,"flu":null,"opportunityZone":null,"oz2Eligibility":null,"source":"nc-onemap-37105"},"geometry":{"type":"Polygon","coordinates":[[[-78.99714,35.5175],[-78.99705,35.51737],[-78.99845,35.51697],[-78.9988,35.51698],[-78.99959,35.51663],[-78.99923,35.51797],[-78.99837,35.51798],[-78.99766,35.51823],[-78.99714,35.5175]]]}},{"type":"Feature","id":"37105:060413047400","properties":{"id":"37105:060413047400","parcelId":"060413047400","countyFips":"37105","countyName":"Lee","state":"North Carolina","marketIds":["Raleigh-Durham"],"situsAddress":"558 ROUND FISH DR","situsCity":null,"situsZip":null,"jurisdictionCode":null,"ownerName":"SHREVE, MARK","ownerName2":null,"propertyName":null,"zoningCode":null,"zoningDistrict":null,"jurisdictionPrefix":null,"dorCode":null,"acreage":5.1134,"centroid":[-78.996493,35.517909],"lastSale":{"date":null,"price":null,"qualified":null},"tax":{"marketValue":354300.0,"assessedValue":59800.0,"taxableValue":null,"taxes":null},"mailingAddress":{"line1":null,"line2":null,"city":null,"state":null,"zip":null},"incomeTract":null,"incomeBlockGroup":null,"nearestRoad":null,"flu":null,"opportunityZone":null,"oz2Eligibility":null,"source":"nc-onemap-37105"},"geometry":{"type":"Polygon","coordinates":[[[-78.99766,35.51823],[-78.99729,35.5186],[-78.99518,35.51826],[-78.99527,35.51792],[-78.99586,35.51748],[-78.99705,35.51737],[-78.99714,35.5175],[-78.99766,35.51823]]]}},{"type":"Feature","id":"37105:060408866500","properties":{"id":"37105:060408866500","parcelId":"060408866500","countyFips":"37105","countyName":"Lee","state":"North Carolina","marketIds":["Raleigh-Durham"],"situsAddress":"141 ATTIE LEE LN","situsCity":null,"situsZip":null,"jurisdictionCode":null,"ownerName":"WILLETT, TROY S","ownerName2":null,"propertyName":null,"zoningCode":null,"zoningDistrict":null,"jurisdictionPrefix":null,"dorCode":null,"acreage":5.0844,"centroid":[-78.996079,35.530993],"lastSale":{"date":null,"price":null,"qualified":null},"tax":{"marketValue":30900.0,"assessedValue":17500.0,"taxableValue":null,"taxes":null},"mailingAddress":{"line1":null,"line2":null,"city":null,"state":null,"zip":null},"incomeTract":null,"incomeBlockGroup":null,"nearestRoad":null,"flu":null,"opportunityZone":null,"oz2Eligibility":null,"source":"nc-onemap-37105"},"geometry":{"type":"Polygon","coordinates":[[[-78.99657,35.53241],[-78.99643,35.53107],[-78.99468,35.53141],[-78.99421,35.53037],[-78.99425,35.52909],[-78.99447,35.529],[-78.99442,35.53033],[-78.99478,35.53096],[-78.99655,35.53062],[-78.99672,35.53222],[-78.99991,35.53213],[-78.99996,35.53231],[-78.99657,35.53241]]]}},{"type":"Feature","id":"37105:060409936000","properties":{"id":"37105:060409936000","parcelId":"060409936000","countyFips":"37105","countyName":"Lee","state":"North Carolina","marketIds":["Raleigh-Durham"],"situsAddress":"291 ATTIE LEE LN","situsCity":null,"situsZip":null,"jurisdictionCode":null,"ownerName":"WILLETT, TROY S","ownerName2":null,"propertyName":null,"zoningCode":null,"zoningDistrict":null,"jurisdictionPrefix":null,"dorCode":null,"acreage":5.0192,"centroid":[-78.996422,35.534208],"lastSale":{"date":null,"price":null,"qualified":null},"tax":{"marketValue":34000.0,"assessedValue":22000.0,"taxableValue":null,"taxes":null},"mailingAddress":{"line1":null,"line2":null,"city":null,"state":null,"zip":null},"incomeTract":null,"incomeBlockGroup":null,"nearestRoad":null,"flu":null,"opportunityZone":null,"oz2Eligibility":null,"source":"nc-onemap-37105"},"geometry":{"type":"Polygon","coordinates":[[[-78.99745,35.53574],[-78.99632,35.53359],[-78.99497,35.53365],[-78.99495,35.53331],[-78.9963,35.53325],[-78.99854,35.53571],[-78.99745,35.53574]]]}},{"type":"Feature","id":"37105:060408778400","properties":{"id":"37105:060408778400","parcelId":"060408778400","countyFips":"37105","countyName":"Lee","state":"North Carolina","marketIds":["Raleigh-Durham"],"situsAddress":"151 ATTIE LEE LN","situsCity":null,"situsZip":null,"jurisdictionCode":null,"ownerName":"WILLETT, TROY S","ownerName2":null,"propertyName":null,"zoningCode":null,"zoningDistrict":null,"jurisdictionPrefix":null,"dorCode":null,"acreage":5.0067,"centroid":[-78.996898,35.531985],"lastSale":{"date":null,"price":null,"qualified":null},"tax":{"marketValue":32000.0,"assessedValue":17500.0,"taxableValue":null,"taxes":null},"mailingAddress":{"line1":null,"line2":null,"city":null,"state":null,"zip":null},"incomeTract":null,"incomeBlockGroup":null,"nearestRoad":null,"flu":null,"opportunityZone":null,"oz2Eligibility":null,"source":"nc-onemap-37105"},"geometry":{"type":"Polygon","coordinates":[[[-78.99643,35.53273],[-78.99631,35.53151],[-78.99478,35.53181],[-78.99468,35.53141],[-78.99643,35.53107],[-78.99657,35.53241],[-78.99996,35.53231],[-79.00002,35.53263],[-78.99643,35.53273]]]}},{"type":"Feature","id":"37105:060419351900","properties":{"id":"37105:060419351900","parcelId":"060419351900","countyFips":"37105","countyName":"Lee","state":"North Carolina","marketIds":["Raleigh-Durham"],"situsAddress":"341 ATTIE LEE LN","situsCity":null,"situsZip":null,"jurisdictionCode":null,"ownerName":"WILLETT, TROY S","ownerName2":null,"propertyName":null,"zoningCode":null,"zoningDistrict":null,"jurisdictionPrefix":null,"dorCode":null,"acreage":5.0064,"centroid":[-78.995595,35.534885],"lastSale":{"date":null,"price":null,"qualified":null},"tax":{"marketValue":57600.0,"assessedValue":44000.0,"taxableValue":null,"taxes":null},"mailingAddress":{"line1":null,"line2":null,"city":null,"state":null,"zip":null},"incomeTract":null,"incomeBlockGroup":null,"nearestRoad":null,"flu":null,"opportunityZone":null,"oz2Eligibility":null,"source":"nc-onemap-37105"},"geometry":{"type":"Polygon","coordinates":[[[-78.99499,35.53399],[-78.99609,35.53395],[-78.9962,35.53578],[-78.9951,35.53582],[-78.99499,35.53399]]]}}]}