{"type":"FeatureCollection","name":"37173--4_33","features":[{"type":"Feature","id":"37173:563500075909","properties":{"id":"37173:563500075909","parcelId":"563500075909","countyFips":"37173","countyName":"Swain","state":"North Carolina","marketIds":["Asheville"],"situsAddress":"0 HWY 129","situsCity":null,"situsZip":null,"jurisdictionCode":null,"ownerName":"DICK HOLDINGS LLC","ownerName2":null,"propertyName":null,"zoningCode":null,"zoningDistrict":null,"jurisdictionPrefix":null,"dorCode":null,"acreage":149.37,"centroid":[-83.937817,35.457751],"lastSale":{"date":null,"price":null,"qualified":null},"tax":{"marketValue":295160.0,"assessedValue":295160.0,"taxableValue":null,"taxes":null},"mailingAddress":{"line1":"P O BOX 541789","line2":null,"city":"MERRITT ISLAND","state":"FL","zip":"32954"},"incomeTract":null,"incomeBlockGroup":null,"nearestRoad":null,"flu":null,"opportunityZone":null,"oz2Eligibility":null,"source":"nc-swain-parcels-37173","appraiserUrl":"https://www.bttaxpayerportal.com/ITSPublicSW/AppraisalCard.aspx?id=563500075909","gisViewerUrl":"https://maps.swaincountync.gov/gis/"},"geometry":{"type":"Polygon","coordinates":[[[-83.93771,35.453858],[-83.930174,35.456193],[-83.927407,35.45705],[-83.940451,35.462981],[-83.939584,35.461968],[-83.93986,35.460977],[-83.940108,35.460241],[-83.939736,35.459199],[-83.939822,35.458826],[-83.939028,35.458009],[-83.939402,35.456161],[-83.939369,35.455482],[-83.939041,35.454152],[-83.937743,35.453422],[-83.93771,35.453858]]]}},{"type":"Feature","id":"37173:563600311047","properties":{"id":"37173:563600311047","parcelId":"563600311047","countyFips":"37173","countyName":"Swain","state":"North Carolina","marketIds":["Asheville"],"situsAddress":"0 SHULER LAKE RD","situsCity":null,"situsZip":null,"jurisdictionCode":null,"ownerName":"DICK HOLDINGS LLC","ownerName2":null,"propertyName":null,"zoningCode":null,"zoningDistrict":null,"jurisdictionPrefix":null,"dorCode":null,"acreage":21.161,"centroid":[-83.926817,35.464585],"lastSale":{"date":null,"price":null,"qualified":null},"tax":{"marketValue":123240.0,"assessedValue":123240.0,"taxableValue":null,"taxes":null},"mailingAddress":{"line1":"P O BOX 541789","line2":null,"city":"MERRITT ISLAND","state":"FL","zip":"32954"},"incomeTract":null,"incomeBlockGroup":null,"nearestRoad":null,"flu":null,"opportunityZone":null,"oz2Eligibility":null,"source":"nc-swain-parcels-37173","appraiserUrl":"https://www.bttaxpayerportal.com/ITSPublicSW/AppraisalCard.aspx?id=563600311047","gisViewerUrl":"https://maps.swaincountync.gov/gis/"},"geometry":{"type":"MultiPolygon","coordinates":[[[[-83.928235,35.46749],[-83.93076,35.466201],[-83.929314,35.464994],[-83.929243,35.465032],[-83.928992,35.465065],[-83.928913,35.465027],[-83.928951,35.465333],[-83.92907,35.465349],[-83.929068,35.465118],[-83.92932,35.465273],[-83.929301,35.465476],[-83.929477,35.46572],[-83.929644,35.465795],[-83.930084,35.466344],[-83.929657,35.46654],[-83.92931,35.466636],[-83.92926,35.466304],[-83.928986,35.465881],[-83.928766,35.46596],[-83.928379,35.465903],[-83.92835,35.465823],[-83.928327,35.465637],[-83.928019,35.46565],[-83.927836,35.4657],[-83.927533,35.465606],[-83.927621,35.465542],[-83.927496,35.465504],[-83.927323,35.465288],[-83.927357,35.465207],[-83.927123,35.46516],[-83.927108,35.465057],[-83.926702,35.464973],[-83.926832,35.46487],[-83.926732,35.464843],[-83.926754,35.464724],[-83.926908,35.464648],[-83.927089,35.46461],[-83.927196,35.464533],[-83.927174,35.464228],[-83.926951,35.4644],[-83.926933,35.464151],[-83.926767,35.463952],[-83.926367,35.46399],[-83.926116,35.463804],[-83.925925,35.463794],[-83.925848,35.463762],[-83.925818,35.463698],[-83.925845,35.463638],[-83.925915,35.46358],[-83.925845,35.463458],[-83.925662,35.46345],[-83.925168,35.463567],[-83.924752,35.46325],[-83.924296,35.463087],[-83.923878,35.462732],[-83.922884,35.462467],[-83.92292,35.462566],[-83.922564,35.462573],[-83.922532,35.462467],[-83.922335,35.462054],[-83.922177,35.462138],[-83.922073,35.462247],[-83.921993,35.462367],[-83.921955,35.462472],[-83.925512,35.463955],[-83.926695,35.465933],[-83.928235,35.46749]]],[[[-83.928774,35.464401],[-83.928878,35.464464],[-83.929117,35.464794],[-83.929235,35.464913],[-83.93029,35.464543],[-83.930021,35.464259],[-83.929751,35.464108],[-83.92913,35.464081],[-83.928774,35.464401]]]]}},{"type":"Feature","id":"37173:563600517965","properties":{"id":"37173:563600517965","parcelId":"563600517965","countyFips":"37173","countyName":"Swain","state":"North Carolina","marketIds":["Asheville"],"situsAddress":"17548 HWY 28 NORTH","situsCity":null,"situsZip":null,"jurisdictionCode":null,"ownerName":"CROSS ROADS OF TIME LLC","ownerName2":null,"propertyName":null,"zoningCode":null,"zoningDistrict":null,"jurisdictionPrefix":null,"dorCode":null,"acreage":12.08,"centroid":[-83.919802,35.468486],"lastSale":{"date":null,"price":null,"qualified":null},"tax":{"marketValue":282820.0,"assessedValue":1038480.0,"taxableValue":null,"taxes":null},"mailingAddress":{"line1":"17548 TAPOCO RD","line2":null,"city":"ROBBINSVILLE","state":"NC","zip":"28771"},"incomeTract":null,"incomeBlockGroup":null,"nearestRoad":null,"flu":null,"opportunityZone":null,"oz2Eligibility":null,"source":"nc-swain-parcels-37173","appraiserUrl":"https://www.bttaxpayerportal.com/ITSPublicSW/AppraisalCard.aspx?id=563600517965","gisViewerUrl":"https://maps.swaincountync.gov/gis/"},"geometry":{"type":"Polygon","coordinates":[[[-83.919659,35.470014],[-83.920177,35.470046],[-83.920772,35.470071],[-83.920957,35.469937],[-83.921191,35.469878],[-83.921319,35.469877],[-83.921432,35.469933],[-83.92154,35.469936],[-83.921613,35.469908],[-83.921689,35.469762],[-83.921276,35.469018],[-83.920184,35.468522],[-83.920106,35.468459],[-83.920031,35.468365],[-83.919977,35.468208],[-83.919927,35.467492],[-83.919918,35.467004],[-83.919945,35.466765],[-83.91994,35.466575],[-83.919924,35.466456],[-83.919792,35.466061],[-83.919781,35.465821],[-83.919233,35.465743],[-83.919266,35.465925],[-83.919273,35.467244],[-83.919443,35.467521],[-83.919478,35.467829],[-83.919095,35.4686],[-83.918549,35.468374],[-83.918359,35.46841],[-83.918072,35.468524],[-83.917876,35.468646],[-83.917733,35.468948],[-83.918302,35.469476],[-83.918683,35.469675],[-83.918903,35.469875],[-83.919398,35.46977],[-83.919649,35.469788],[-83.919659,35.470014]]]}},{"type":"Feature","id":"37173:563600598888","properties":{"id":"37173:563600598888","parcelId":"563600598888","countyFips":"37173","countyName":"Swain","state":"North Carolina","marketIds":["Asheville"],"situsAddress":"HWY 28 N","situsCity":null,"situsZip":null,"jurisdictionCode":null,"ownerName":"DICK HOLDINGS LLC","ownerName2":null,"propertyName":null,"zoningCode":null,"zoningDistrict":null,"jurisdictionPrefix":null,"dorCode":null,"acreage":52.33,"centroid":[-83.91671,35.463828],"lastSale":{"date":null,"price":null,"qualified":null},"tax":{"marketValue":194880.0,"assessedValue":194880.0,"taxableValue":null,"taxes":null},"mailingAddress":{"line1":"P O BOX 541789","line2":null,"city":"MERRITT ISLAND","state":"FL","zip":"32954"},"incomeTract":null,"incomeBlockGroup":null,"nearestRoad":null,"flu":null,"opportunityZone":null,"oz2Eligibility":null,"source":"nc-swain-parcels-37173","appraiserUrl":"https://www.bttaxpayerportal.com/ITSPublicSW/AppraisalCard.aspx?id=563600598888","gisViewerUrl":"https://maps.swaincountync.gov/gis/"},"geometry":{"type":"Polygon","coordinates":[[[-83.904936,35.46656],[-83.905009,35.466619],[-83.905362,35.466719],[-83.906196,35.467131],[-83.906696,35.467282],[-83.906851,35.467387],[-83.90694,35.467528],[-83.907113,35.467671],[-83.907273,35.467753],[-83.907459,35.467771],[-83.908247,35.467663],[-83.908911,35.467611],[-83.909343,35.467638],[-83.909622,35.467702],[-83.909885,35.467801],[-83.910316,35.46804],[-83.910707,35.468336],[-83.910912,35.468366],[-83.911095,35.46831],[-83.911212,35.468194],[-83.911247,35.468079],[-83.911257,35.46762],[-83.91134,35.467485],[-83.911403,35.467434],[-83.91146,35.467417],[-83.911631,35.467388],[-83.91179,35.467387],[-83.912157,35.467482],[-83.912455,35.467495],[-83.912675,35.467463],[-83.913164,35.467333],[-83.91347,35.467306],[-83.913826,35.46734],[-83.914268,35.467468],[-83.914405,35.467461],[-83.914531,35.467417],[-83.91493,35.467154],[-83.915563,35.466639],[-83.917214,35.465589],[-83.917486,35.465443],[-83.917593,35.465366],[-83.917739,35.46518],[-83.918013,35.464349],[-83.918129,35.464219],[-83.918296,35.464133],[-83.9185,35.464105],[-83.918701,35.464145],[-83.919439,35.464664],[-83.919518,35.464773],[-83.919561,35.464921],[-83.91956,35.465447],[-83.919614,35.465521],[-83.919818,35.465603],[-83.919917,35.465406],[-83.920082,35.465234],[-83.920311,35.465101],[-83.920674,35.464988],[-83.920771,35.464906],[-83.920821,35.46481],[-83.920793,35.464744],[-83.920609,35.464585],[-83.92047,35.464417],[-83.920271,35.464015],[-83.9199,35.463474],[-83.919841,35.463354],[-83.919804,35.463203],[-83.919813,35.463083],[-83.91985,35.462995],[-83.91992,35.462908],[-83.920288,35.462597],[-83.920544,35.462448],[-83.920757,35.462372],[-83.920863,35.46237],[-83.921068,35.462414],[-83.92123,35.462376],[-83.92136,35.462216],[-83.921454,35.462058],[-83.921521,35.461897],[-83.92158,35.461619],[-83.921566,35.461432],[-83.921627,35.461312],[-83.922028,35.461089],[-83.922815,35.460459],[-83.922872,35.460373],[-83.922865,35.460279],[-83.922797,35.460198],[-83.922653,35.460159],[-83.922451,35.460072],[-83.922314,35.459997],[-83.922056,35.459811],[-83.921988,35.459736],[-83.921895,35.459555],[-83.921877,35.459396],[-83.921929,35.459204],[-83.922482,35.458261],[-83.921867,35.458279],[-83.921807,35.458337],[-83.921659,35.458412],[-83.921611,35.458478],[-83.921573,35.458579],[-83.921437,35.458732],[-83.921418,35.458781],[-83.921423,35.458845],[-83.921292,35.45896],[-83.921219,35.459094],[-83.921124,35.459175],[-83.921098,35.459238],[-83.921094,35.459411],[-83.920982,35.459912],[-83.920926,35.460074],[-83.920851,35.460196],[-83.920627,35.460294],[-83.920358,35.460321],[-83.92033,35.460356],[-83.920321,35.46046],[-83.920272,35.460586],[-83.920132,35.460697],[-83.919842,35.460875],[-83.919826,35.461],[-83.919773,35.4611],[-83.919786,35.46116],[-83.919888,35.46125],[-83.919882,35.461304],[-83.919857,35.461337],[-83.919446,35.461502],[-83.919234,35.461716],[-83.919076,35.461725],[-83.918811,35.461791],[-83.918477,35.461912],[-83.918361,35.461987],[-83.918337,35.462042],[-83.91824,35.46216],[-83.918103,35.462221],[-83.917996,35.462223],[-83.917776,35.462163],[-83.917584,35.462159],[-83.917249,35.462285],[-83.917158,35.462365],[-83.91704,35.462417],[-83.916858,35.46254],[-83.916798,35.462636],[-83.916638,35.462796],[-83.916571,35.462896],[-83.916185,35.463614],[-83.916039,35.463729],[-83.915965,35.464105],[-83.915867,35.464227],[-83.915535,35.464598],[-83.915408,35.46479],[-83.915313,35.464869],[-83.915172,35.465057],[-83.915076,35.465147],[-83.914622,35.465456],[-83.91397,35.466034],[-83.913905,35.46619],[-83.913552,35.466441],[-83.912931,35.466588],[-83.912203,35.466725],[-83.911629,35.466784],[-83.911275,35.466863],[-83.910966,35.466976],[-83.910954,35.467786],[-83.910739,35.467708],[-83.91054,35.467609],[-83.909935,35.467447],[-83.909118,35.467401],[-83.907885,35.467423],[-83.907268,35.467369],[-83.905881,35.46673],[-83.905202,35.466507],[-83.904936,35.46656]]]}},{"type":"Feature","id":"37173:563600611209","properties":{"id":"37173:563600611209","parcelId":"563600611209","countyFips":"37173","countyName":"Swain","state":"North Carolina","marketIds":["Asheville"],"situsAddress":"0 DEALS GAP RD","situsCity":null,"situsZip":null,"jurisdictionCode":null,"ownerName":"DICK HOLDINGS LLC","ownerName2":null,"propertyName":null,"zoningCode":null,"zoningDistrict":null,"jurisdictionPrefix":null,"dorCode":null,"acreage":6.86,"centroid":[-83.918383,35.467716],"lastSale":{"date":null,"price":null,"qualified":null},"tax":{"marketValue":63460.0,"assessedValue":63460.0,"taxableValue":null,"taxes":null},"mailingAddress":{"line1":"P O BOX 541789","line2":null,"city":"MERRITT ISLAND","state":"FL","zip":"32954"},"incomeTract":null,"incomeBlockGroup":null,"nearestRoad":null,"flu":null,"opportunityZone":null,"oz2Eligibility":null,"source":"nc-swain-parcels-37173","appraiserUrl":"https://www.bttaxpayerportal.com/ITSPublicSW/AppraisalCard.aspx?id=563600611209","gisViewerUrl":"https://maps.swaincountync.gov/gis/"},"geometry":{"type":"Polygon","coordinates":[[[-83.91832,35.466937],[-83.918273,35.467046],[-83.918217,35.467175],[-83.917873,35.467637],[-83.9181,35.467756],[-83.917968,35.46791],[-83.917751,35.467809],[-83.917556,35.46806],[-83.917579,35.46823],[-83.917673,35.468517],[-83.917822,35.468775],[-83.917876,35.468646],[-83.918072,35.468524],[-83.918359,35.46841],[-83.918549,35.468374],[-83.919095,35.4686],[-83.919478,35.467829],[-83.919443,35.467521],[-83.919273,35.467244],[-83.919266,35.465925],[-83.919035,35.466295],[-83.91884,35.466528],[-83.91832,35.466937]]]}},{"type":"Feature","id":"37173:563600616929","properties":{"id":"37173:563600616929","parcelId":"563600616929","countyFips":"37173","countyName":"Swain","state":"North Carolina","marketIds":["Asheville"],"situsAddress":"0 DEALS GAP RD","situsCity":null,"situsZip":null,"jurisdictionCode":null,"ownerName":"MAIN THOMAS ARTHUR","ownerName2":null,"propertyName":null,"zoningCode":null,"zoningDistrict":null,"jurisdictionPrefix":null,"dorCode":null,"acreage":5.51,"centroid":[-83.916821,35.469335],"lastSale":{"date":null,"price":null,"qualified":null},"tax":{"marketValue":45850.0,"assessedValue":45850.0,"taxableValue":null,"taxes":null},"mailingAddress":{"line1":"983 VOYAGEURS AVE","line2":null,"city":"ORANGE CITY","state":"FL","zip":"32763"},"incomeTract":null,"incomeBlockGroup":null,"nearestRoad":null,"flu":null,"opportunityZone":null,"oz2Eligibility":null,"source":"nc-swain-parcels-37173","appraiserUrl":"https://www.bttaxpayerportal.com/ITSPublicSW/AppraisalCard.aspx?id=563600616929","gisViewerUrl":"https://maps.swaincountync.gov/gis/"},"geometry":{"type":"Polygon","coordinates":[[[-83.916348,35.46984],[-83.916392,35.469899],[-83.916478,35.470013],[-83.916573,35.470082],[-83.916753,35.47008],[-83.917001,35.470046],[-83.917076,35.470056],[-83.917291,35.470135],[-83.917404,35.470146],[-83.917643,35.470051],[-83.917718,35.469965],[-83.917711,35.469228],[-83.917751,35.469165],[-83.91792,35.469119],[-83.917789,35.468988],[-83.917273,35.468638],[-83.91722,35.468558],[-83.916859,35.468753],[-83.916606,35.468501],[-83.916578,35.468233],[-83.915884,35.468255],[-83.915847,35.468314],[-83.915604,35.468492],[-83.915498,35.46872],[-83.916433,35.46893],[-83.916384,35.469276],[-83.916491,35.469443],[-83.916695,35.469621],[-83.916714,35.469725],[-83.916686,35.469784],[-83.916348,35.46984]]]}},{"type":"Feature","id":"37173:563600725070","properties":{"id":"37173:563600725070","parcelId":"563600725070","countyFips":"37173","countyName":"Swain","state":"North Carolina","marketIds":["Asheville"],"situsAddress":"0 CHEOAH OVERLOOK","situsCity":null,"situsZip":null,"jurisdictionCode":null,"ownerName":"CASHION JANET LIVING TRUST","ownerName2":null,"propertyName":null,"zoningCode":null,"zoningDistrict":null,"jurisdictionPrefix":null,"dorCode":null,"acreage":7.75,"centroid":[-83.913717,35.469525],"lastSale":{"date":null,"price":null,"qualified":null},"tax":{"marketValue":69210.0,"assessedValue":69210.0,"taxableValue":null,"taxes":null},"mailingAddress":{"line1":"2908 HAMPTON COVE WAY SE","line2":null,"city":"HAMPTON COVE","state":"AL","zip":"35763"},"incomeTract":null,"incomeBlockGroup":null,"nearestRoad":null,"flu":null,"opportunityZone":null,"oz2Eligibility":null,"source":"nc-swain-parcels-37173","appraiserUrl":"https://www.bttaxpayerportal.com/ITSPublicSW/AppraisalCard.aspx?id=563600725070","gisViewerUrl":"https://maps.swaincountync.gov/gis/"},"geometry":{"type":"Polygon","coordinates":[[[-83.914005,35.468368],[-83.913926,35.468378],[-83.913554,35.468499],[-83.913108,35.468571],[-83.912275,35.468916],[-83.911839,35.468957],[-83.912159,35.469232],[-83.912495,35.46936],[-83.912827,35.469535],[-83.913119,35.469597],[-83.913414,35.469879],[-83.913596,35.470193],[-83.91393,35.470381],[-83.914344,35.470454],[-83.914448,35.470507],[-83.914478,35.470369],[-83.914448,35.470052],[-83.914497,35.469683],[-83.914553,35.469603],[-83.914777,35.46963],[-83.914907,35.469683],[-83.915072,35.469701],[-83.914005,35.468368]]]}},{"type":"Feature","id":"37173:563600821843","properties":{"id":"37173:563600821843","parcelId":"563600821843","countyFips":"37173","countyName":"Swain","state":"North Carolina","marketIds":["Asheville"],"situsAddress":"1180 CHEOAH OVERLOOK","situsCity":null,"situsZip":null,"jurisdictionCode":null,"ownerName":"RUPP JEFF &","ownerName2":"RUPP MELANIE","propertyName":null,"zoningCode":null,"zoningDistrict":null,"jurisdictionPrefix":null,"dorCode":null,"acreage":7.08,"centroid":[-83.91141,35.471892],"lastSale":{"date":null,"price":null,"qualified":null},"tax":{"marketValue":56440.0,"assessedValue":200740.0,"taxableValue":null,"taxes":null},"mailingAddress":{"line1":"7127 DARTMOUTH AVE N","line2":null,"city":"ST PETERSBURG","state":"FL","zip":"33710"},"incomeTract":null,"incomeBlockGroup":null,"nearestRoad":null,"flu":null,"opportunityZone":null,"oz2Eligibility":null,"source":"nc-swain-parcels-37173","appraiserUrl":"https://www.bttaxpayerportal.com/ITSPublicSW/AppraisalCard.aspx?id=563600821843","gisViewerUrl":"https://maps.swaincountync.gov/gis/"},"geometry":{"type":"Polygon","coordinates":[[[-83.911464,35.470625],[-83.911362,35.470703],[-83.91139,35.470839],[-83.911302,35.470992],[-83.911251,35.471144],[-83.91124,35.471243],[-83.911148,35.47146],[-83.91114,35.471533],[-83.910822,35.471644],[-83.910751,35.4717],[-83.910709,35.47182],[-83.910751,35.47195],[-83.910691,35.472017],[-83.910578,35.472076],[-83.910542,35.47214],[-83.910659,35.472328],[-83.910764,35.472442],[-83.910728,35.472557],[-83.910623,35.472608],[-83.910694,35.472728],[-83.910767,35.47315],[-83.910841,35.473132],[-83.911097,35.472795],[-83.911315,35.472601],[-83.911983,35.472074],[-83.912155,35.471865],[-83.912244,35.47182],[-83.912462,35.471856],[-83.912767,35.471942],[-83.912905,35.471918],[-83.91301,35.471831],[-83.913154,35.471492],[-83.913236,35.47141],[-83.911464,35.470625]]]}},{"type":"Feature","id":"37173:563600825856","properties":{"id":"37173:563600825856","parcelId":"563600825856","countyFips":"37173","countyName":"Swain","state":"North Carolina","marketIds":["Asheville"],"situsAddress":"1444 CHEOAH OVERLOOK","situsCity":null,"situsZip":null,"jurisdictionCode":null,"ownerName":"KAUFHOLZ EDWARD V JR &","ownerName2":"KAUFHOLZ BETH R","propertyName":null,"zoningCode":null,"zoningDistrict":null,"jurisdictionPrefix":null,"dorCode":null,"acreage":13.54,"centroid":[-83.909943,35.471624],"lastSale":{"date":null,"price":null,"qualified":null},"tax":{"marketValue":78720.0,"assessedValue":445150.0,"taxableValue":null,"taxes":null},"mailingAddress":{"line1":"1444 CHEOAH OVERLOOK","line2":null,"city":"ROBBINSVILLE","state":"NC","zip":"28771"},"incomeTract":null,"incomeBlockGroup":null,"nearestRoad":null,"flu":null,"opportunityZone":null,"oz2Eligibility":null,"source":"nc-swain-parcels-37173","appraiserUrl":"https://www.bttaxpayerportal.com/ITSPublicSW/AppraisalCard.aspx?id=563600825856","gisViewerUrl":"https://maps.swaincountync.gov/gis/"},"geometry":{"type":"Polygon","coordinates":[[[-83.907855,35.471203],[-83.907858,35.471229],[-83.907953,35.471298],[-83.908258,35.471345],[-83.908417,35.471427],[-83.908436,35.471457],[-83.908393,35.471626],[-83.908426,35.471715],[-83.908749,35.471949],[-83.908867,35.472197],[-83.908957,35.472258],[-83.909239,35.472342],[-83.909528,35.472461],[-83.909774,35.472477],[-83.90987,35.472511],[-83.910102,35.47273],[-83.910239,35.47297],[-83.910639,35.473132],[-83.910767,35.47315],[-83.910694,35.472728],[-83.910623,35.472608],[-83.910728,35.472557],[-83.910764,35.472442],[-83.910659,35.472328],[-83.910542,35.47214],[-83.910578,35.472076],[-83.910691,35.472017],[-83.910751,35.47195],[-83.910709,35.47182],[-83.910751,35.4717],[-83.910822,35.471644],[-83.91114,35.471533],[-83.911148,35.47146],[-83.91124,35.471243],[-83.911251,35.471144],[-83.911302,35.470992],[-83.91139,35.470839],[-83.911362,35.470703],[-83.911464,35.470625],[-83.910614,35.470248],[-83.910463,35.470387],[-83.91032,35.470387],[-83.910175,35.470332],[-83.909992,35.47036],[-83.909767,35.470451],[-83.909353,35.470663],[-83.909085,35.470758],[-83.908554,35.470789],[-83.907969,35.471158],[-83.907855,35.471203]]]}},{"type":"Feature","id":"37173:563600916951","properties":{"id":"37173:563600916951","parcelId":"563600916951","countyFips":"37173","countyName":"Swain","state":"North Carolina","marketIds":["Asheville"],"situsAddress":"0 HWY 129 N","situsCity":null,"situsZip":null,"jurisdictionCode":null,"ownerName":"NEWTON BILL & TERRY W","ownerName2":null,"propertyName":null,"zoningCode":null,"zoningDistrict":null,"jurisdictionPrefix":null,"dorCode":null,"acreage":11.84,"centroid":[-83.906303,35.469458],"lastSale":{"date":null,"price":null,"qualified":null},"tax":{"marketValue":70640.0,"assessedValue":70640.0,"taxableValue":null,"taxes":null},"mailingAddress":{"line1":"11795 DANCLIFF TRCE","line2":null,"city":"ALPHARETTA","state":"GA","zip":"30009"},"incomeTract":null,"incomeBlockGroup":null,"nearestRoad":null,"flu":null,"opportunityZone":null,"oz2Eligibility":null,"source":"nc-swain-parcels-37173","appraiserUrl":"https://www.bttaxpayerportal.com/ITSPublicSW/AppraisalCard.aspx?id=563600916951","gisViewerUrl":"https://maps.swaincountync.gov/gis/"},"geometry":{"type":"Polygon","coordinates":[[[-83.90636,35.470132],[-83.906424,35.470178],[-83.906524,35.470248],[-83.906782,35.470309],[-83.9069,35.470395],[-83.90701,35.470589],[-83.907257,35.470681],[-83.908053,35.467856],[-83.907413,35.467938],[-83.907237,35.467916],[-83.90707,35.467854],[-83.906991,35.46789],[-83.906188,35.468502],[-83.906064,35.468518],[-83.90585,35.468718],[-83.905608,35.469149],[-83.905577,35.469261],[-83.905557,35.46942],[-83.905636,35.469627],[-83.905605,35.469786],[-83.905538,35.469913],[-83.905165,35.470211],[-83.905381,35.470228],[-83.905623,35.470209],[-83.905846,35.470245],[-83.906206,35.470136],[-83.90636,35.470132]]]}},{"type":"Feature","id":"37173:563600921229","properties":{"id":"37173:563600921229","parcelId":"563600921229","countyFips":"37173","countyName":"Swain","state":"North Carolina","marketIds":["Asheville"],"situsAddress":"1530 CHEOAH OVERLOOK RD","situsCity":null,"situsZip":null,"jurisdictionCode":null,"ownerName":"KINZY SCOTT TRUSTEE SCOTT A KI","ownerName2":"JUDITH D KINZY TRUSTTE JUDITH","propertyName":null,"zoningCode":null,"zoningDistrict":null,"jurisdictionPrefix":null,"dorCode":null,"acreage":8.25,"centroid":[-83.908631,35.470572],"lastSale":{"date":null,"price":null,"qualified":null},"tax":{"marketValue":57470.0,"assessedValue":392150.0,"taxableValue":null,"taxes":null},"mailingAddress":{"line1":"4211 HIAWATHA DRIVE","line2":null,"city":"KNOXVILLE","state":"TN","zip":"37919"},"incomeTract":null,"incomeBlockGroup":null,"nearestRoad":null,"flu":null,"opportunityZone":null,"oz2Eligibility":null,"source":"nc-swain-parcels-37173","appraiserUrl":"https://www.bttaxpayerportal.com/ITSPublicSW/AppraisalCard.aspx?id=563600921229","gisViewerUrl":"https://maps.swaincountync.gov/gis/"},"geometry":{"type":"Polygon","coordinates":[[[-83.907257,35.470681],[-83.90727,35.470682],[-83.907407,35.470687],[-83.907778,35.470516],[-83.907844,35.47052],[-83.907947,35.470595],[-83.908,35.470692],[-83.908019,35.470792],[-83.907844,35.471113],[-83.907855,35.471203],[-83.907969,35.471158],[-83.908554,35.470789],[-83.909085,35.470758],[-83.909353,35.470663],[-83.909767,35.470451],[-83.909992,35.47036],[-83.910175,35.470332],[-83.91032,35.470387],[-83.910463,35.470387],[-83.910614,35.470248],[-83.907731,35.468997],[-83.907257,35.470681]]]}},{"type":"Feature","id":"37173:564600011593","properties":{"id":"37173:564600011593","parcelId":"564600011593","countyFips":"37173","countyName":"Swain","state":"North Carolina","marketIds":["Asheville"],"situsAddress":"1820 CHEOAH OVERLOOK","situsCity":null,"situsZip":null,"jurisdictionCode":null,"ownerName":"JENKINS RANDY N","ownerName2":null,"propertyName":null,"zoningCode":null,"zoningDistrict":null,"jurisdictionPrefix":null,"dorCode":null,"acreage":17.5,"centroid":[-83.905134,35.468785],"lastSale":{"date":null,"price":null,"qualified":null},"tax":{"marketValue":92340.0,"assessedValue":612300.0,"taxableValue":null,"taxes":null},"mailingAddress":{"line1":"2244 NW 185TH WAY","line2":null,"city":"PEMBROKE PINES","state":"FL","zip":"33029"},"incomeTract":null,"incomeBlockGroup":null,"nearestRoad":null,"flu":null,"opportunityZone":null,"oz2Eligibility":null,"source":"nc-swain-parcels-37173","appraiserUrl":"https://www.bttaxpayerportal.com/ITSPublicSW/AppraisalCard.aspx?id=564600011593","gisViewerUrl":"https://maps.swaincountync.gov/gis/"},"geometry":{"type":"Polygon","coordinates":[[[-83.902606,35.46916],[-83.903144,35.469016],[-83.903354,35.468988],[-83.903442,35.469024],[-83.903555,35.469247],[-83.903996,35.46945],[-83.904145,35.469442],[-83.904349,35.469398],[-83.904449,35.469412],[-83.904578,35.469482],[-83.904701,35.469593],[-83.904938,35.46991],[-83.905015,35.470052],[-83.905165,35.470211],[-83.905538,35.469913],[-83.905605,35.469786],[-83.905636,35.469627],[-83.905557,35.46942],[-83.905577,35.469261],[-83.905608,35.469149],[-83.90585,35.468718],[-83.906064,35.468518],[-83.906188,35.468502],[-83.906991,35.46789],[-83.90707,35.467854],[-83.906774,35.467626],[-83.906701,35.467497],[-83.906598,35.467426],[-83.906106,35.467278],[-83.905277,35.466873],[-83.904931,35.466759],[-83.904788,35.466653],[-83.902606,35.46916]]]}}]}