{"type":"FeatureCollection","name":"37083-20_38","features":[{"type":"Feature","id":"37083:0704487","properties":{"id":"37083:0704487","parcelId":"0704487","countyFips":"37083","countyName":"Halifax","state":"North Carolina","marketIds":["Raleigh-Durham"],"situsAddress":"EASTERN SHORES RD","situsCity":null,"situsZip":null,"jurisdictionCode":null,"ownerName":"DOMINION-VIRGINIA POWER,","ownerName2":null,"propertyName":null,"zoningCode":null,"zoningDistrict":null,"jurisdictionPrefix":null,"dorCode":null,"acreage":38.36,"centroid":[-77.845241,36.501777],"lastSale":{"date":null,"price":null,"qualified":null},"tax":{"marketValue":null,"assessedValue":184100.0,"taxableValue":null,"taxes":null},"mailingAddress":{"line1":"P O BOX 26666","line2":null,"city":"RICHMOND","state":"VA","zip":"23261"},"incomeTract":null,"incomeBlockGroup":null,"nearestRoad":null,"flu":null,"opportunityZone":null,"oz2Eligibility":null,"source":"nc-halifax-parcels-37083","appraiserUrl":"https://lrcpwa.ncptscloud.com/halifax/parcel-detail/0704487","gisViewerUrl":"https://qpublic.schneidercorp.com/Application.aspx?AppID=872&LayerID=16488&PageTypeID=1&PageID=7289"},"geometry":{"type":"Polygon","coordinates":[[[-77.845641,36.503739],[-77.84611,36.503316],[-77.847094,36.503025],[-77.847084,36.502811],[-77.846474,36.502838],[-77.846922,36.502115],[-77.846466,36.501576],[-77.84616,36.500749],[-77.845766,36.500553],[-77.845763,36.499847],[-77.845426,36.499299],[-77.845706,36.499342],[-77.845837,36.499019],[-77.844242,36.498871],[-77.843984,36.498885],[-77.843645,36.501921],[-77.844359,36.501813],[-77.844983,36.502556],[-77.844818,36.502993],[-77.844274,36.503052],[-77.843694,36.502876],[-77.843136,36.502868],[-77.843966,36.503338],[-77.844439,36.503524],[-77.845035,36.503509],[-77.845641,36.503739]]]}},{"type":"Feature","id":"37083:0704402","properties":{"id":"37083:0704402","parcelId":"0704402","countyFips":"37083","countyName":"Halifax","state":"North Carolina","marketIds":["Raleigh-Durham"],"situsAddress":"FERNCLIFF RD","situsCity":null,"situsZip":null,"jurisdictionCode":null,"ownerName":"FERNCLIFF PROPERTY OWNERS ASSOCIATION IN","ownerName2":null,"propertyName":null,"zoningCode":null,"zoningDistrict":null,"jurisdictionPrefix":null,"dorCode":null,"acreage":16.0,"centroid":[-77.896303,36.503875],"lastSale":{"date":"1988-10-28","price":null,"qualified":null},"tax":{"marketValue":null,"assessedValue":69000.0,"taxableValue":69000.0,"taxes":null},"mailingAddress":{"line1":"P O BOX 295","line2":null,"city":"LITTLETON","state":"NC","zip":"27850"},"incomeTract":null,"incomeBlockGroup":null,"nearestRoad":null,"flu":null,"opportunityZone":null,"oz2Eligibility":null,"source":"nc-halifax-parcels-37083","appraiserUrl":"https://lrcpwa.ncptscloud.com/halifax/parcel-detail/0704402","gisViewerUrl":"https://qpublic.schneidercorp.com/Application.aspx?AppID=872&LayerID=16488&PageTypeID=1&PageID=7289"},"geometry":{"type":"MultiPolygon","coordinates":[[[[-77.898854,36.498404],[-77.899122,36.498484],[-77.899429,36.498515],[-77.899515,36.498349],[-77.899136,36.498134],[-77.898906,36.498071],[-77.898854,36.498404]]],[[[-77.901201,36.495568],[-77.901145,36.495572],[-77.900905,36.495638],[-77.900791,36.495701],[-77.900651,36.495823],[-77.900515,36.496027],[-77.900287,36.496489],[-77.900174,36.496877],[-77.900071,36.497581],[-77.899999,36.497821],[-77.899853,36.498143],[-77.899393,36.499019],[-77.899288,36.499265],[-77.899238,36.49948],[-77.899069,36.50064],[-77.898982,36.500989],[-77.898791,36.501446],[-77.898526,36.501876],[-77.898297,36.502291],[-77.899067,36.502278],[-77.899132,36.50065],[-77.899318,36.500163],[-77.899904,36.498447],[-77.900459,36.49626],[-77.901337,36.495569],[-77.901201,36.495568]]],[[[-77.897354,36.502392],[-77.897309,36.502406],[-77.897145,36.502486],[-77.896938,36.502634],[-77.896327,36.503291],[-77.896053,36.503547],[-77.895779,36.503751],[-77.895296,36.504039],[-77.895084,36.504188],[-77.894609,36.504654],[-77.894522,36.504793],[-77.894364,36.505261],[-77.894285,36.505659],[-77.894243,36.505963],[-77.894254,36.506012],[-77.894653,36.505657],[-77.895392,36.505194],[-77.895651,36.505001],[-77.896139,36.504531],[-77.896346,36.504358],[-77.897104,36.503892],[-77.897242,36.50379],[-77.897463,36.503603],[-77.897622,36.503434],[-77.897817,36.503169],[-77.897933,36.502965],[-77.898016,36.502718],[-77.898088,36.502327],[-77.898067,36.502283],[-77.897981,36.502261],[-77.897354,36.502392]]]]}},{"type":"Feature","id":"37083:0702669","properties":{"id":"37083:0702669","parcelId":"0702669","countyFips":"37083","countyName":"Halifax","state":"North Carolina","marketIds":["Raleigh-Durham"],"situsAddress":"WEAVERS CHAPEL RD","situsCity":null,"situsZip":null,"jurisdictionCode":null,"ownerName":"SHEARIN, GEORGE WADE HEIRS","ownerName2":null,"propertyName":null,"zoningCode":null,"zoningDistrict":null,"jurisdictionPrefix":null,"dorCode":null,"acreage":50.6,"centroid":[-77.882587,36.502247],"lastSale":{"date":"2022-02-14","price":900000.0,"qualified":null},"tax":{"marketValue":null,"assessedValue":2952800.0,"taxableValue":2952800.0,"taxes":null},"mailingAddress":{"line1":"7 DENNIS DR","line2":null,"city":"LITTLETON","state":"NC","zip":"27850"},"incomeTract":null,"incomeBlockGroup":null,"nearestRoad":null,"flu":null,"opportunityZone":null,"oz2Eligibility":null,"source":"nc-halifax-parcels-37083","appraiserUrl":"https://lrcpwa.ncptscloud.com/halifax/parcel-detail/0702669","gisViewerUrl":"https://qpublic.schneidercorp.com/Application.aspx?AppID=872&LayerID=16488&PageTypeID=1&PageID=7289"},"geometry":{"type":"Polygon","coordinates":[[[-77.881488,36.501456],[-77.881048,36.501613],[-77.880921,36.501898],[-77.881128,36.502113],[-77.881388,36.502314],[-77.881751,36.502401],[-77.881933,36.502532],[-77.881356,36.502905],[-77.881307,36.503118],[-77.880861,36.503239],[-77.881104,36.503553],[-77.881137,36.503939],[-77.881401,36.504289],[-77.881512,36.504612],[-77.881564,36.504973],[-77.881683,36.505086],[-77.881921,36.505087],[-77.88231,36.50451],[-77.882657,36.504325],[-77.882979,36.504215],[-77.883192,36.504045],[-77.883165,36.503674],[-77.882861,36.503395],[-77.882662,36.503325],[-77.882443,36.503018],[-77.882506,36.502784],[-77.882491,36.502473],[-77.882986,36.502209],[-77.883492,36.502282],[-77.883737,36.502031],[-77.883836,36.501782],[-77.884062,36.501431],[-77.884195,36.501266],[-77.884608,36.501314],[-77.88478,36.50159],[-77.884563,36.502301],[-77.884415,36.502606],[-77.884375,36.502929],[-77.884675,36.503194],[-77.884886,36.503204],[-77.885187,36.503277],[-77.88538,36.503349],[-77.885598,36.503493],[-77.885896,36.503406],[-77.886608,36.499797],[-77.885442,36.498747],[-77.883364,36.498766],[-77.882906,36.499417],[-77.881245,36.499581],[-77.88103,36.499689],[-77.880474,36.499844],[-77.880382,36.50031],[-77.879907,36.500312],[-77.879709,36.500611],[-77.879864,36.500867],[-77.880434,36.500976],[-77.880981,36.500724],[-77.88151,36.500736],[-77.881791,36.500638],[-77.882113,36.501238],[-77.881488,36.501456]]]}},{"type":"Feature","id":"37083:0702673","properties":{"id":"37083:0702673","parcelId":"0702673","countyFips":"37083","countyName":"Halifax","state":"North Carolina","marketIds":["Raleigh-Durham"],"situsAddress":"WEAVERS CHAPEL RD","situsCity":null,"situsZip":null,"jurisdictionCode":null,"ownerName":"SHEARIN, HENRY D JR","ownerName2":null,"propertyName":null,"zoningCode":null,"zoningDistrict":null,"jurisdictionPrefix":null,"dorCode":null,"acreage":37.775,"centroid":[-77.88755,36.503935],"lastSale":{"date":"2004-02-09","price":null,"qualified":null},"tax":{"marketValue":null,"assessedValue":1774100.0,"taxableValue":1774100.0,"taxes":null},"mailingAddress":{"line1":"2685 WEAVERS CHAPEL RD","line2":null,"city":"LITTLETON","state":"NC","zip":"27850"},"incomeTract":null,"incomeBlockGroup":null,"nearestRoad":null,"flu":null,"opportunityZone":null,"oz2Eligibility":null,"source":"nc-halifax-parcels-37083","appraiserUrl":"https://lrcpwa.ncptscloud.com/halifax/parcel-detail/0702673","gisViewerUrl":"https://qpublic.schneidercorp.com/Application.aspx?AppID=872&LayerID=16488&PageTypeID=1&PageID=7289"},"geometry":{"type":"Polygon","coordinates":[[[-77.885598,36.503493],[-77.885665,36.503555],[-77.885339,36.503707],[-77.885147,36.503897],[-77.885056,36.504257],[-77.88502,36.504787],[-77.885131,36.50492],[-77.885128,36.505116],[-77.885532,36.505447],[-77.885922,36.505213],[-77.886237,36.505229],[-77.886686,36.505365],[-77.887259,36.505656],[-77.887963,36.505661],[-77.888263,36.505772],[-77.888864,36.505391],[-77.889014,36.505191],[-77.889281,36.505093],[-77.889511,36.504656],[-77.889097,36.504484],[-77.888676,36.504488],[-77.888167,36.504414],[-77.887993,36.50428],[-77.888203,36.50422],[-77.888393,36.503965],[-77.888825,36.50376],[-77.888862,36.503626],[-77.889215,36.50365],[-77.889371,36.503512],[-77.889589,36.50345],[-77.88976,36.503483],[-77.889225,36.502989],[-77.88986,36.502745],[-77.88809,36.501144],[-77.88723,36.501578],[-77.886981,36.501188],[-77.887803,36.500882],[-77.886608,36.499797],[-77.885896,36.503406],[-77.885598,36.503493]]]}}]}