{"type":"FeatureCollection","name":"12011-8_-5","features":[{"type":"Feature","id":"12011:503516000010","properties":{"id":"12011:503516000010","parcelId":"503516000010","countyFips":"12011","countyName":"Broward","state":"Florida","marketIds":["South Florida"],"situsAddress":null,"situsCity":null,"situsZip":null,"jurisdictionCode":null,"ownerName":null,"ownerName2":null,"propertyName":null,"zoningCode":null,"zoningDistrict":null,"jurisdictionPrefix":null,"dorCode":null,"acreage":95.0003,"centroid":[-80.842046,25.991985],"lastSale":{"date":null,"price":null,"qualified":null},"tax":{"marketValue":null,"assessedValue":null,"taxableValue":null,"taxes":null},"mailingAddress":{"line1":null,"line2":null,"city":null,"state":null,"zip":null},"incomeTract":null,"incomeBlockGroup":null,"nearestRoad":null,"flu":null,"opportunityZone":null,"oz2Eligibility":null,"source":"fl-broward-bcpa-jan26-16","appraiserUrl":"https://bcpa.net/RecInfo.asp?URL_Folio=503516000010","gisViewerUrl":"https://gisweb-adapters.bcpa.net/arcgis/rest/services/BCPA_EXTERNAL_JAN26/MapServer/16","dataGaps":["BCPA MapServer/16 is folio and geometry only. The FDOR CO_NO=16 join was not applied."]},"geometry":{"type":"Polygon","coordinates":[[[-80.840426,25.991935],[-80.844397,25.992946],[-80.872596,26.000082],[-80.872795,26.00009],[-80.872958,26.000028],[-80.87294,25.999437],[-80.87284,25.999396],[-80.866956,25.99792],[-80.840011,25.991088],[-80.839804,25.990926],[-80.839719,25.99082],[-80.839679,25.990721],[-80.839032,25.987679],[-80.835801,25.979282],[-80.83496,25.979279],[-80.838269,25.98788],[-80.838907,25.990884],[-80.838987,25.991099],[-80.839086,25.991258],[-80.839278,25.99147],[-80.839615,25.991715],[-80.840426,25.991935]]]}},{"type":"Feature","id":"12011:513533000010","properties":{"id":"12011:513533000010","parcelId":"513533000010","countyFips":"12011","countyName":"Broward","state":"Florida","marketIds":["South Florida"],"situsAddress":null,"situsCity":null,"situsZip":null,"jurisdictionCode":null,"ownerName":null,"ownerName2":null,"propertyName":null,"zoningCode":null,"zoningDistrict":null,"jurisdictionPrefix":null,"dorCode":null,"acreage":42.6371,"centroid":[-80.839302,25.983948],"lastSale":{"date":null,"price":null,"qualified":null},"tax":{"marketValue":null,"assessedValue":null,"taxableValue":null,"taxes":null},"mailingAddress":{"line1":null,"line2":null,"city":null,"state":null,"zip":null},"incomeTract":null,"incomeBlockGroup":null,"nearestRoad":null,"flu":null,"opportunityZone":null,"oz2Eligibility":null,"source":"fl-broward-bcpa-jan26-16","appraiserUrl":"https://bcpa.net/RecInfo.asp?URL_Folio=513533000010","gisViewerUrl":"https://gisweb-adapters.bcpa.net/arcgis/rest/services/BCPA_EXTERNAL_JAN26/MapServer/16","dataGaps":["BCPA MapServer/16 is folio and geometry only. The FDOR CO_NO=16 join was not applied."]},"geometry":{"type":"Polygon","coordinates":[[[-80.836801,25.979315],[-80.83991,25.987473],[-80.840371,25.989647],[-80.840125,25.979357],[-80.836801,25.979315]]]}}]}