{"type":"FeatureCollection","name":"37045-6_34","features":[{"type":"Feature","id":"37045:63832","properties":{"id":"37045:63832","parcelId":"63832","countyFips":"37045","countyName":"Cleveland","state":"North Carolina","marketIds":["Charlotte"],"situsAddress":"EASTRIDGE DR","situsCity":null,"situsZip":null,"jurisdictionCode":null,"ownerName":"JOLLEY SUSAN WARLICK","ownerName2":null,"propertyName":null,"zoningCode":null,"zoningDistrict":null,"jurisdictionPrefix":null,"dorCode":null,"acreage":48.0976,"centroid":[-81.498818,35.502965],"lastSale":{"date":null,"price":null,"qualified":null},"tax":{"marketValue":206525.0,"assessedValue":206525.0,"taxableValue":null,"taxes":null},"mailingAddress":{"line1":null,"line2":null,"city":null,"state":null,"zip":null},"incomeTract":null,"incomeBlockGroup":null,"nearestRoad":null,"flu":null,"opportunityZone":null,"oz2Eligibility":null,"source":"nc-onemap-37045"},"geometry":{"type":"Polygon","coordinates":[[[-81.49878,35.49941],[-81.50091,35.50286],[-81.50374,35.50436],[-81.49915,35.50605],[-81.49806,35.50622],[-81.49796,35.50541],[-81.49755,35.50488],[-81.49813,35.50291],[-81.49826,35.502],[-81.49813,35.50143],[-81.49751,35.5004],[-81.49764,35.49965],[-81.49878,35.49941]]]}}]}