{"type":"FeatureCollection","name":"12093-9_2","features":[{"type":"Feature","id":"12093:1-16-34-36-0A00-00001-0030","properties":{"id":"12093:1-16-34-36-0A00-00001-0030","parcelId":"1-16-34-36-0A00-00001-0030","countyFips":"12093","countyName":"Okeechobee","state":"Florida","marketIds":["Vero Beach"],"situsAddress":"NE 304TH","situsCity":"OKEECHOBEE","situsZip":"34972","jurisdictionCode":"Okeechobee County","ownerName":"MELVIN FAMILY FARM LLC: SPRING 2022","ownerName2":null,"propertyName":null,"zoningCode":"A","zoningDistrict":null,"jurisdictionPrefix":null,"dorCode":"061","acreage":43.16,"centroid":[-80.731237,27.525512],"lastSale":{"date":null,"price":null,"qualified":null},"tax":{"marketValue":745554.0,"assessedValue":46141.0,"taxableValue":46141.0,"taxes":null},"mailingAddress":{"line1":"4216 DEWITT AVE","line2":null,"city":"MATTOON","state":"IL","zip":"61938"},"incomeTract":null,"incomeBlockGroup":null,"nearestRoad":null,"flu":{"code":"AGRICULTURE","label":"AGRICULTURE","jurisdiction":"Okeechobee County","source":"okeechobee-county-flu"},"opportunityZone":null,"oz2Eligibility":null,"source":"fl-okeechobee-tyler-12093","gisViewerUrl":"https://www.okeechobeegis.com/gis/","appraiserUrl":"https://www.okeechobeepa.com/gis/?pin=11634360A00000010030"},"geometry":{"type":"Polygon","coordinates":[[[-80.728139,27.526734],[-80.734314,27.526868],[-80.734344,27.524289],[-80.728152,27.524156],[-80.728139,27.526734]]]}},{"type":"Feature","id":"12093:1-16-34-36-0A00-00001-0040","properties":{"id":"12093:1-16-34-36-0A00-00001-0040","parcelId":"1-16-34-36-0A00-00001-0040","countyFips":"12093","countyName":"Okeechobee","state":"Florida","marketIds":["Vero Beach"],"situsAddress":"NE 304TH","situsCity":"OKEECHOBEE","situsZip":"34972","jurisdictionCode":"Okeechobee County","ownerName":"MELVIN FAMILY FARM LLC: SPRING 2022","ownerName2":null,"propertyName":null,"zoningCode":"A","zoningDistrict":null,"jurisdictionPrefix":null,"dorCode":"061","acreage":40.01,"centroid":[-80.731258,27.523031],"lastSale":{"date":null,"price":null,"qualified":null},"tax":{"marketValue":663760.0,"assessedValue":15456.0,"taxableValue":15456.0,"taxes":null},"mailingAddress":{"line1":"4216 DEWITT AVE","line2":null,"city":"MATTOON","state":"IL","zip":"61938"},"incomeTract":null,"incomeBlockGroup":null,"nearestRoad":null,"flu":{"code":"AGRICULTURE","label":"AGRICULTURE","jurisdiction":"Okeechobee County","source":"okeechobee-county-flu"},"opportunityZone":null,"oz2Eligibility":null,"source":"fl-okeechobee-tyler-12093","gisViewerUrl":"https://www.okeechobeegis.com/gis/","appraiserUrl":"https://www.okeechobeepa.com/gis/?pin=11634360A00000010040"},"geometry":{"type":"Polygon","coordinates":[[[-80.728152,27.524156],[-80.734344,27.524289],[-80.734373,27.521907],[-80.728164,27.52177],[-80.728152,27.524156]]]}},{"type":"Feature","id":"12093:1-16-34-36-0A00-00001-0050","properties":{"id":"12093:1-16-34-36-0A00-00001-0050","parcelId":"1-16-34-36-0A00-00001-0050","countyFips":"12093","countyName":"Okeechobee","state":"Florida","marketIds":["Vero Beach"],"situsAddress":"NE 304TH","situsCity":"OKEECHOBEE","situsZip":"34972","jurisdictionCode":"Okeechobee County","ownerName":"MELVIN FAMILY FARM LLC: SPRING 2022","ownerName2":null,"propertyName":null,"zoningCode":"A","zoningDistrict":null,"jurisdictionPrefix":null,"dorCode":"061","acreage":40.01,"centroid":[-80.731279,27.52065],"lastSale":{"date":null,"price":null,"qualified":null},"tax":{"marketValue":605625.0,"assessedValue":10143.0,"taxableValue":10143.0,"taxes":null},"mailingAddress":{"line1":"4216 DEWITT AVE","line2":null,"city":"MATTOON","state":"IL","zip":"61938"},"incomeTract":null,"incomeBlockGroup":null,"nearestRoad":null,"flu":{"code":"AGRICULTURE","label":"AGRICULTURE","jurisdiction":"Okeechobee County","source":"okeechobee-county-flu"},"opportunityZone":null,"oz2Eligibility":null,"source":"fl-okeechobee-tyler-12093","gisViewerUrl":"https://www.okeechobeegis.com/gis/","appraiserUrl":"https://www.okeechobeepa.com/gis/?pin=11634360A00000010050"},"geometry":{"type":"Polygon","coordinates":[[[-80.728164,27.52177],[-80.734373,27.521907],[-80.734401,27.519499],[-80.728176,27.519424],[-80.728164,27.52177]]]}},{"type":"Feature","id":"12093:1-16-34-36-0A00-00001-0000","properties":{"id":"12093:1-16-34-36-0A00-00001-0000","parcelId":"1-16-34-36-0A00-00001-0000","countyFips":"12093","countyName":"Okeechobee","state":"Florida","marketIds":["Vero Beach"],"situsAddress":"NE 304TH","situsCity":"OKEECHOBEE","situsZip":"34972","jurisdictionCode":"Okeechobee County","ownerName":"MELVIN FAMILY FARM LLC: SPRING 2022","ownerName2":null,"propertyName":null,"zoningCode":"A","zoningDistrict":null,"jurisdictionPrefix":null,"dorCode":"061","acreage":69.76,"centroid":[-80.732381,27.51664],"lastSale":{"date":null,"price":null,"qualified":null},"tax":{"marketValue":1151040.0,"assessedValue":19184.0,"taxableValue":19184.0,"taxes":null},"mailingAddress":{"line1":"4216 DEWITT AVE","line2":null,"city":"MATTOON","state":"IL","zip":"61938"},"incomeTract":null,"incomeBlockGroup":null,"nearestRoad":null,"flu":{"code":"AGRICULTURE","label":"AGRICULTURE","jurisdiction":"Okeechobee County","source":"okeechobee-county-flu"},"opportunityZone":null,"oz2Eligibility":null,"source":"fl-okeechobee-tyler-12093","gisViewerUrl":"https://www.okeechobeegis.com/gis/","appraiserUrl":"https://www.okeechobeepa.com/gis/?pin=11634360A00000010000"},"geometry":{"type":"Polygon","coordinates":[[[-80.728176,27.519424],[-80.734401,27.519499],[-80.734443,27.51597],[-80.733945,27.515631],[-80.733753,27.515388],[-80.733754,27.515286],[-80.728198,27.515284],[-80.728176,27.519424]]]}},{"type":"Feature","id":"12093:1-16-34-36-0A00-00001-0020","properties":{"id":"12093:1-16-34-36-0A00-00001-0020","parcelId":"1-16-34-36-0A00-00001-0020","countyFips":"12093","countyName":"Okeechobee","state":"Florida","marketIds":["Vero Beach"],"situsAddress":"NE 304TH","situsCity":"OKEECHOBEE","situsZip":"34972","jurisdictionCode":"Okeechobee County","ownerName":"MELVIN FAMILY FARM LLC: SPRING 2022","ownerName2":null,"propertyName":null,"zoningCode":"A","zoningDistrict":null,"jurisdictionPrefix":null,"dorCode":"061","acreage":49.19,"centroid":[-80.731214,27.528275],"lastSale":{"date":null,"price":null,"qualified":null},"tax":{"marketValue":811967.0,"assessedValue":13859.0,"taxableValue":13859.0,"taxes":null},"mailingAddress":{"line1":"4216 DEWITT AVE","line2":null,"city":"MATTOON","state":"IL","zip":"61938"},"incomeTract":null,"incomeBlockGroup":null,"nearestRoad":null,"flu":{"code":"AGRICULTURE","label":"AGRICULTURE","jurisdiction":"Okeechobee County","source":"okeechobee-county-flu"},"opportunityZone":null,"oz2Eligibility":null,"source":"fl-okeechobee-tyler-12093","gisViewerUrl":"https://www.okeechobeegis.com/gis/","appraiserUrl":"https://www.okeechobeepa.com/gis/?pin=11634360A00000010020"},"geometry":{"type":"Polygon","coordinates":[[[-80.734314,27.526868],[-80.728139,27.526734],[-80.728123,27.529698],[-80.734279,27.529802],[-80.734314,27.526868]]]}},{"type":"Feature","id":"12093:1-16-34-36-0A00-00001-0010","properties":{"id":"12093:1-16-34-36-0A00-00001-0010","parcelId":"1-16-34-36-0A00-00001-0010","countyFips":"12093","countyName":"Okeechobee","state":"Florida","marketIds":["Vero Beach"],"situsAddress":"NE 304TH","situsCity":"OKEECHOBEE","situsZip":"34972","jurisdictionCode":"Okeechobee County","ownerName":"MELVIN FAMILY FARM LLC: SPRING 2022","ownerName2":null,"propertyName":null,"zoningCode":"A","zoningDistrict":null,"jurisdictionPrefix":null,"dorCode":"069","acreage":75.64,"centroid":[-80.734657,27.5196],"lastSale":{"date":null,"price":null,"qualified":null},"tax":{"marketValue":1110720.0,"assessedValue":61828.0,"taxableValue":61828.0,"taxes":null},"mailingAddress":{"line1":"4216 DEWITT AVE","line2":null,"city":"MATTOON","state":"IL","zip":"61938"},"incomeTract":null,"incomeBlockGroup":null,"nearestRoad":null,"flu":{"code":"AGRICULTURE","label":"AGRICULTURE","jurisdiction":"Okeechobee County","source":"okeechobee-county-flu"},"opportunityZone":null,"oz2Eligibility":null,"source":"fl-okeechobee-tyler-12093","gisViewerUrl":"https://www.okeechobeegis.com/gis/","appraiserUrl":"https://www.okeechobeepa.com/gis/?pin=11634360A00000010010"},"geometry":{"type":"Polygon","coordinates":[[[-80.734279,27.529802],[-80.736125,27.529833],[-80.736297,27.515287],[-80.733754,27.515286],[-80.733753,27.515388],[-80.733945,27.515631],[-80.734443,27.51597],[-80.734279,27.529802]]]}},{"type":"Feature","id":"12093:1-20-34-36-0A00-00001-A000","properties":{"id":"12093:1-20-34-36-0A00-00001-A000","parcelId":"1-20-34-36-0A00-00001-A000","countyFips":"12093","countyName":"Okeechobee","state":"Florida","marketIds":["Vero Beach"],"situsAddress":"7660 NE 304TH","situsCity":"OKEECHOBEE","situsZip":"34972","jurisdictionCode":"Okeechobee County","ownerName":"SAND HILL ROCK LLC","ownerName2":null,"propertyName":null,"zoningCode":"A","zoningDistrict":null,"jurisdictionPrefix":null,"dorCode":"061","acreage":62.36,"centroid":[-80.748536,27.511634],"lastSale":{"date":null,"price":null,"qualified":null},"tax":{"marketValue":274901.0,"assessedValue":158174.0,"taxableValue":158174.0,"taxes":null},"mailingAddress":{"line1":"P O BOX 13896","line2":null,"city":"FT PIERCE","state":"FL","zip":"34979"},"incomeTract":null,"incomeBlockGroup":null,"nearestRoad":null,"flu":{"code":"AGRICULTURE","label":"AGRICULTURE","jurisdiction":"Okeechobee County","source":"okeechobee-county-flu"},"opportunityZone":null,"oz2Eligibility":null,"source":"fl-okeechobee-tyler-12093","gisViewerUrl":"https://www.okeechobeegis.com/gis/","appraiserUrl":"https://www.okeechobeepa.com/gis/?pin=12034360A0000001A000"},"geometry":{"type":"Polygon","coordinates":[[[-80.744428,27.515092],[-80.749716,27.515119],[-80.749632,27.51023],[-80.752685,27.510233],[-80.752673,27.508213],[-80.749437,27.508149],[-80.749438,27.510195],[-80.74925,27.510352],[-80.749304,27.511183],[-80.748535,27.511259],[-80.747499,27.51239],[-80.747211,27.512795],[-80.745681,27.512705],[-80.744699,27.511665],[-80.744387,27.511685],[-80.744428,27.515092]]]}},{"type":"Feature","id":"12093:1-24-34-36-0A00-00001-A000","properties":{"id":"12093:1-24-34-36-0A00-00001-A000","parcelId":"1-24-34-36-0A00-00001-A000","countyFips":"12093","countyName":"Okeechobee","state":"Florida","marketIds":["Vero Beach"],"situsAddress":"NE 224TH","situsCity":"OKEECHOBEE","situsZip":"34972","jurisdictionCode":"Okeechobee County","ownerName":"J&J RANCH LLC","ownerName2":null,"propertyName":null,"zoningCode":"A","zoningDistrict":null,"jurisdictionPrefix":null,"dorCode":"066","acreage":97.7,"centroid":[-80.679961,27.501779],"lastSale":{"date":"2024-02-01","price":697800.0,"qualified":"01"},"tax":{"marketValue":1296456.0,"assessedValue":13731.0,"taxableValue":13731.0,"taxes":null},"mailingAddress":{"line1":"13506 SUMMERPORT VILLAGE","line2":"PKWY #397","city":"WINDERMERE","state":"FL","zip":"34786"},"incomeTract":null,"incomeBlockGroup":null,"nearestRoad":null,"flu":{"code":"AGRICULTURE","label":"AGRICULTURE","jurisdiction":"Okeechobee County","source":"okeechobee-county-flu"},"opportunityZone":null,"oz2Eligibility":null,"source":"fl-okeechobee-tyler-12093","gisViewerUrl":"https://www.okeechobeegis.com/gis/","appraiserUrl":"https://www.okeechobeepa.com/gis/?pin=12434360A0000001A000"},"geometry":{"type":"Polygon","coordinates":[[[-80.679664,27.500346],[-80.679664,27.500348],[-80.679669,27.509172],[-80.679756,27.514618],[-80.685781,27.51467],[-80.685777,27.509223],[-80.680622,27.50918],[-80.680589,27.508609],[-80.679977,27.508601],[-80.679972,27.500349],[-80.679664,27.500346]]]}},{"type":"Feature","id":"12093:1-13-34-36-0A00-00002-0000","properties":{"id":"12093:1-13-34-36-0A00-00002-0000","parcelId":"1-13-34-36-0A00-00002-0000","countyFips":"12093","countyName":"Okeechobee","state":"Florida","marketIds":["Vero Beach"],"situsAddress":"NE 304TH","situsCity":"OKEECHOBEE","situsZip":"34972","jurisdictionCode":"Okeechobee County","ownerName":"GRASSY ISLAND OWNERS ASSOC INC","ownerName2":null,"propertyName":null,"zoningCode":"A","zoningDistrict":null,"jurisdictionPrefix":null,"dorCode":"061","acreage":84.67,"centroid":[-80.712086,27.512048],"lastSale":{"date":null,"price":null,"qualified":null},"tax":{"marketValue":1490192.0,"assessedValue":25401.0,"taxableValue":25401.0,"taxes":null},"mailingAddress":{"line1":"C/O BLUE GOOSE GROWERS LLC","line2":"1900 N OLD DIXIE HWY","city":"FT PIERCE","state":"FL","zip":"34946"},"incomeTract":null,"incomeBlockGroup":null,"nearestRoad":null,"flu":{"code":"AGRICULTURE","label":"AGRICULTURE","jurisdiction":"Okeechobee County","source":"okeechobee-county-flu"},"opportunityZone":null,"oz2Eligibility":null,"source":"fl-okeechobee-tyler-12093","gisViewerUrl":"https://www.okeechobeegis.com/gis/","appraiserUrl":"https://www.okeechobeepa.com/gis/?pin=11334360A00000020000"},"geometry":{"type":"Polygon","coordinates":[[[-80.679749,27.515592],[-80.680165,27.515596],[-80.680165,27.515322],[-80.696051,27.515497],[-80.711828,27.515459],[-80.711828,27.515514],[-80.713385,27.515536],[-80.713419,27.51471],[-80.713359,27.514616],[-80.713252,27.514549],[-80.712961,27.514505],[-80.712407,27.513633],[-80.712354,27.513451],[-80.712391,27.508702],[-80.712452,27.505899],[-80.712446,27.504736],[-80.712466,27.504113],[-80.71246,27.502523],[-80.712478,27.501241],[-80.712367,27.495006],[-80.71242,27.49479],[-80.712428,27.494642],[-80.71236,27.494417],[-80.712452,27.493134],[-80.712387,27.486145],[-80.712333,27.484286],[-80.712303,27.479322],[-80.715782,27.478102],[-80.720744,27.478136],[-80.720748,27.477819],[-80.715716,27.477786],[-80.711822,27.47915],[-80.711993,27.500792],[-80.711831,27.515115],[-80.696053,27.515153],[-80.679751,27.514973],[-80.679749,27.515592]]]}},{"type":"Feature","id":"12093:1-22-34-36-0A00-00002-0000","properties":{"id":"12093:1-22-34-36-0A00-00002-0000","parcelId":"1-22-34-36-0A00-00002-0000","countyFips":"12093","countyName":"Okeechobee","state":"Florida","marketIds":["Vero Beach"],"situsAddress":"NE 278ND","situsCity":"OKEECHOBEE","situsZip":"34972","jurisdictionCode":"Okeechobee County","ownerName":"GRASSY ISLAND OWNERS ASSOC INC","ownerName2":null,"propertyName":null,"zoningCode":"A","zoningDistrict":null,"jurisdictionPrefix":null,"dorCode":"061","acreage":32.31,"centroid":[-80.728366,27.500956],"lastSale":{"date":null,"price":null,"qualified":null},"tax":{"marketValue":604197.0,"assessedValue":9693.0,"taxableValue":9693.0,"taxes":null},"mailingAddress":{"line1":"C/O BLUE GOOSE GROWERS LLC","line2":"1900 N OLD DIXIE HWY","city":"FT PIERCE","state":"FL","zip":"34946"},"incomeTract":null,"incomeBlockGroup":null,"nearestRoad":null,"flu":{"code":"AGRICULTURE","label":"AGRICULTURE","jurisdiction":"Okeechobee County","source":"okeechobee-county-flu"},"opportunityZone":null,"oz2Eligibility":null,"source":"fl-okeechobee-tyler-12093","gisViewerUrl":"https://www.okeechobeegis.com/gis/","appraiserUrl":"https://www.okeechobeepa.com/gis/?pin=12234360A00000020000"},"geometry":{"type":"Polygon","coordinates":[[[-80.728366,27.500956],[-80.728041,27.512776],[-80.727971,27.515747],[-80.728195,27.51575],[-80.728257,27.512779],[-80.728582,27.500959],[-80.744381,27.500894],[-80.760789,27.500864],[-80.774887,27.501042],[-80.774861,27.500849],[-80.760784,27.500672],[-80.744381,27.500701],[-80.728371,27.500764],[-80.728366,27.500956]]]}}]}