{"type":"FeatureCollection","name":"37003-6_36","features":[{"type":"Feature","id":"37003:3832190365","properties":{"id":"37003:3832190365","parcelId":"3832190365","countyFips":"37003","countyName":"Alexander","state":"North Carolina","marketIds":["Charlotte"],"situsAddress":"BOONE GAP LN","situsCity":null,"situsZip":null,"jurisdictionCode":null,"ownerName":"BUMGARNER GREGORY P &","ownerName2":"BUMGARNER RICHARD A","propertyName":null,"zoningCode":null,"zoningDistrict":null,"jurisdictionPrefix":null,"dorCode":null,"acreage":5.53,"centroid":[-81.261935,36.007809],"lastSale":{"date":"2026-08-03","price":null,"qualified":null},"tax":{"marketValue":37384.0,"assessedValue":4056.0,"taxableValue":null,"taxes":null},"mailingAddress":{"line1":"215 MT OLIVE CHURCH ROAD","line2":null,"city":"TAYLORSVILLE","state":"NC","zip":"28681"},"incomeTract":null,"incomeBlockGroup":null,"nearestRoad":null,"flu":null,"opportunityZone":null,"oz2Eligibility":null,"source":"nc-alexander-parcels-37003","appraiserUrl":"https://maps.alexandercountync.gov/PRC/0006061.html","gisViewerUrl":"https://maps.alexandercountync.gov/maps/"},"geometry":{"type":"Polygon","coordinates":[[[-81.260857,36.008264],[-81.262827,36.008319],[-81.26318,36.007334],[-81.260877,36.00732],[-81.260857,36.008264]]]}},{"type":"Feature","id":"37003:3833302823","properties":{"id":"37003:3833302823","parcelId":"3833302823","countyFips":"37003","countyName":"Alexander","state":"North Carolina","marketIds":["Charlotte"],"situsAddress":"BOONE GAP LN","situsCity":null,"situsZip":null,"jurisdictionCode":null,"ownerName":"WATTS LOWELL B &","ownerName2":"WATTS REBECCA B","propertyName":null,"zoningCode":null,"zoningDistrict":null,"jurisdictionPrefix":null,"dorCode":null,"acreage":7.21,"centroid":[-81.255037,36.011656],"lastSale":{"date":"2001-01-01","price":null,"qualified":null},"tax":{"marketValue":164875.0,"assessedValue":164875.0,"taxableValue":null,"taxes":null},"mailingAddress":{"line1":"167 BOONE GAP LN","line2":null,"city":"TAYLORSVILLE","state":"NC","zip":"28681"},"incomeTract":null,"incomeBlockGroup":null,"nearestRoad":null,"flu":null,"opportunityZone":null,"oz2Eligibility":null,"source":"nc-alexander-parcels-37003","appraiserUrl":"https://maps.alexandercountync.gov/PRC/0065514.html","gisViewerUrl":"https://maps.alexandercountync.gov/maps/"},"geometry":{"type":"Polygon","coordinates":[[[-81.252874,36.012909],[-81.252964,36.01322],[-81.256124,36.011903],[-81.255937,36.011313],[-81.255818,36.011151],[-81.255665,36.011065],[-81.255533,36.010951],[-81.255383,36.010739],[-81.252874,36.012909]]]}},{"type":"Feature","id":"37003:3833322736","properties":{"id":"37003:3833322736","parcelId":"3833322736","countyFips":"37003","countyName":"Alexander","state":"North Carolina","marketIds":["Charlotte"],"situsAddress":"371 BOONE GAP LN","situsCity":null,"situsZip":null,"jurisdictionCode":null,"ownerName":"WOLFE TAMMY J &","ownerName2":"WOLFE CHARLES","propertyName":null,"zoningCode":null,"zoningDistrict":null,"jurisdictionPrefix":null,"dorCode":null,"acreage":6.55,"centroid":[-81.254855,36.017468],"lastSale":{"date":"2023-03-17","price":null,"qualified":null},"tax":{"marketValue":22869.0,"assessedValue":22869.0,"taxableValue":null,"taxes":null},"mailingAddress":{"line1":"PO BOX 208","line2":null,"city":"LENOIR","state":"NC","zip":"28645"},"incomeTract":null,"incomeBlockGroup":null,"nearestRoad":null,"flu":null,"opportunityZone":null,"oz2Eligibility":null,"source":"nc-alexander-parcels-37003","appraiserUrl":"https://maps.alexandercountync.gov/PRC/138023.html","gisViewerUrl":"https://maps.alexandercountync.gov/maps/"},"geometry":{"type":"Polygon","coordinates":[[[-81.25331,36.017865],[-81.253879,36.017917],[-81.254677,36.017781],[-81.255403,36.017749],[-81.256103,36.017484],[-81.256311,36.017324],[-81.255688,36.016494],[-81.253466,36.017131],[-81.25331,36.017865]]]}},{"type":"Feature","id":"37003:3822694060","properties":{"id":"37003:3822694060","parcelId":"3822694060","countyFips":"37003","countyName":"Alexander","state":"North Carolina","marketIds":["Charlotte"],"situsAddress":"ALL HEALING SPRINGS RD","situsCity":null,"situsZip":null,"jurisdictionCode":null,"ownerName":"PHILLIPS THOMAS %","ownerName2":"PHILLISP B","propertyName":null,"zoningCode":null,"zoningDistrict":null,"jurisdictionPrefix":null,"dorCode":null,"acreage":8.97,"centroid":[-81.277053,36.00736],"lastSale":{"date":"1919-01-01","price":null,"qualified":null},"tax":{"marketValue":29700.0,"assessedValue":29700.0,"taxableValue":null,"taxes":null},"mailingAddress":{"line1":"2361 22ND ST NE","line2":null,"city":"HICKORY","state":"NC","zip":"28601"},"incomeTract":null,"incomeBlockGroup":null,"nearestRoad":null,"flu":null,"opportunityZone":null,"oz2Eligibility":null,"source":"nc-alexander-parcels-37003","appraiserUrl":"https://maps.alexandercountync.gov/PRC/0006311.html","gisViewerUrl":"https://maps.alexandercountync.gov/maps/"},"geometry":{"type":"Polygon","coordinates":[[[-81.274994,36.006899],[-81.276117,36.008259],[-81.277685,36.007818],[-81.278644,36.008289],[-81.277823,36.005535],[-81.274994,36.006899]]]}},{"type":"Feature","id":"37003:3832288544","properties":{"id":"37003:3832288544","parcelId":"3832288544","countyFips":"37003","countyName":"Alexander","state":"North Carolina","marketIds":["Charlotte"],"situsAddress":"ROBINETTE RD","situsCity":null,"situsZip":null,"jurisdictionCode":null,"ownerName":"WALL THOMAS JOSEPH","ownerName2":null,"propertyName":null,"zoningCode":null,"zoningDistrict":null,"jurisdictionPrefix":null,"dorCode":null,"acreage":8.56,"centroid":[-81.25637,36.005909],"lastSale":{"date":"2012-08-10","price":null,"qualified":null},"tax":{"marketValue":40095.0,"assessedValue":40095.0,"taxableValue":null,"taxes":null},"mailingAddress":{"line1":"838 FIELDSTONE ROAD","line2":null,"city":"MOORESVILLE","state":"NC","zip":"28115"},"incomeTract":null,"incomeBlockGroup":null,"nearestRoad":null,"flu":null,"opportunityZone":null,"oz2Eligibility":null,"source":"nc-alexander-parcels-37003","appraiserUrl":"https://maps.alexandercountync.gov/PRC/0006447.html","gisViewerUrl":"https://maps.alexandercountync.gov/maps/"},"geometry":{"type":"Polygon","coordinates":[[[-81.25426,36.005553],[-81.255156,36.006327],[-81.256741,36.006416],[-81.256894,36.006373],[-81.257026,36.006263],[-81.25709,36.006178],[-81.257395,36.005931],[-81.257613,36.005695],[-81.257753,36.005512],[-81.253769,36.004842],[-81.25426,36.005553]]]}},{"type":"Feature","id":"37003:3832484614","properties":{"id":"37003:3832484614","parcelId":"3832484614","countyFips":"37003","countyName":"Alexander","state":"North Carolina","marketIds":["Charlotte"],"situsAddress":"3314 ROBINETTE RD","situsCity":null,"situsZip":null,"jurisdictionCode":null,"ownerName":"FORTNER CHRISTINE","ownerName2":null,"propertyName":null,"zoningCode":null,"zoningDistrict":null,"jurisdictionPrefix":null,"dorCode":null,"acreage":9.44,"centroid":[-81.250506,36.00605],"lastSale":{"date":"1990-07-01","price":15000.0,"qualified":null},"tax":{"marketValue":303730.0,"assessedValue":303730.0,"taxableValue":null,"taxes":null},"mailingAddress":{"line1":"3314 ROBINETTE RD","line2":null,"city":"TAYLORSVILLE","state":"NC","zip":"28681"},"incomeTract":null,"incomeBlockGroup":null,"nearestRoad":null,"flu":null,"opportunityZone":null,"oz2Eligibility":null,"source":"nc-alexander-parcels-37003","appraiserUrl":"https://maps.alexandercountync.gov/PRC/0006070.html","gisViewerUrl":"https://maps.alexandercountync.gov/maps/"},"geometry":{"type":"Polygon","coordinates":[[[-81.249138,36.005839],[-81.249262,36.00602],[-81.249912,36.006886],[-81.250326,36.007403],[-81.251891,36.006247],[-81.251551,36.005853],[-81.251264,36.005474],[-81.250706,36.004676],[-81.249138,36.005839]]]}},{"type":"Feature","id":"37003:3833102017","properties":{"id":"37003:3833102017","parcelId":"3833102017","countyFips":"37003","countyName":"Alexander","state":"North Carolina","marketIds":["Charlotte"],"situsAddress":"BOONE GAP LN","situsCity":null,"situsZip":null,"jurisdictionCode":null,"ownerName":"BUMGARNER GREGORY P &","ownerName2":"BUMGARNER RICHARD A","propertyName":null,"zoningCode":null,"zoningDistrict":null,"jurisdictionPrefix":null,"dorCode":null,"acreage":8.48,"centroid":[-81.261915,36.009779],"lastSale":{"date":"2026-08-03","price":null,"qualified":null},"tax":{"marketValue":18562.0,"assessedValue":2000.0,"taxableValue":null,"taxes":null},"mailingAddress":{"line1":"215 MT OLIVE CHURCH ROAD","line2":null,"city":"TAYLORSVILLE","state":"NC","zip":"28681"},"incomeTract":null,"incomeBlockGroup":null,"nearestRoad":null,"flu":null,"opportunityZone":null,"oz2Eligibility":null,"source":"nc-alexander-parcels-37003","appraiserUrl":"https://maps.alexandercountync.gov/PRC/0006059.html","gisViewerUrl":"https://maps.alexandercountync.gov/maps/"},"geometry":{"type":"Polygon","coordinates":[[[-81.260823,36.009894],[-81.260617,36.010531],[-81.26273,36.010325],[-81.262706,36.009871],[-81.262859,36.009575],[-81.262827,36.009224],[-81.260841,36.009036],[-81.260823,36.009894]]]}},{"type":"Feature","id":"37003:3832170170","properties":{"id":"37003:3832170170","parcelId":"3832170170","countyFips":"37003","countyName":"Alexander","state":"North Carolina","marketIds":["Charlotte"],"situsAddress":"ROBINETTE RD","situsCity":null,"situsZip":null,"jurisdictionCode":null,"ownerName":"LOUDERMILK DANIEL LANE &","ownerName2":"LOUDERMILK JEAN R","propertyName":null,"zoningCode":null,"zoningDistrict":null,"jurisdictionPrefix":null,"dorCode":null,"acreage":11.73,"centroid":[-81.261495,36.001637],"lastSale":{"date":"2013-03-19","price":null,"qualified":null},"tax":{"marketValue":38956.0,"assessedValue":4348.0,"taxableValue":null,"taxes":null},"mailingAddress":{"line1":"2427 ROBINETTE RD","line2":null,"city":"TAYLORSVILLE","state":"NC","zip":"28681"},"incomeTract":null,"incomeBlockGroup":null,"nearestRoad":null,"flu":null,"opportunityZone":null,"oz2Eligibility":null,"source":"nc-alexander-parcels-37003","appraiserUrl":"https://maps.alexandercountync.gov/PRC/0006235.html","gisViewerUrl":"https://maps.alexandercountync.gov/maps/"},"geometry":{"type":"Polygon","coordinates":[[[-81.260476,36.002056],[-81.260403,36.002681],[-81.260621,36.0027],[-81.260684,36.003088],[-81.261836,36.002967],[-81.262159,36.00167],[-81.26329,36.001867],[-81.263649,36.001671],[-81.261574,36.000148],[-81.260953,36.000113],[-81.261225,36.000309],[-81.261071,36.000373],[-81.260476,36.002056]]]}},{"type":"Feature","id":"37003:3833101654","properties":{"id":"37003:3833101654","parcelId":"3833101654","countyFips":"37003","countyName":"Alexander","state":"North Carolina","marketIds":["Charlotte"],"situsAddress":"371 BOONE GAP LN","situsCity":null,"situsZip":null,"jurisdictionCode":null,"ownerName":"BUMGARNER GREGORY P &","ownerName2":"BUMGARNER RICHARD A","propertyName":null,"zoningCode":null,"zoningDistrict":null,"jurisdictionPrefix":null,"dorCode":null,"acreage":10.6,"centroid":[-81.261804,36.011543],"lastSale":{"date":"2026-08-03","price":null,"qualified":null},"tax":{"marketValue":37125.0,"assessedValue":37125.0,"taxableValue":null,"taxes":null},"mailingAddress":{"line1":"215 MT OLIVE CHURCH ROAD","line2":null,"city":"TAYLORSVILLE","state":"NC","zip":"28681"},"incomeTract":null,"incomeBlockGroup":null,"nearestRoad":null,"flu":null,"opportunityZone":null,"oz2Eligibility":null,"source":"nc-alexander-parcels-37003","appraiserUrl":"https://maps.alexandercountync.gov/PRC/138025.html","gisViewerUrl":"https://maps.alexandercountync.gov/maps/"},"geometry":{"type":"Polygon","coordinates":[[[-81.260739,36.012259],[-81.262566,36.012338],[-81.26262,36.012264],[-81.262832,36.012258],[-81.26273,36.010325],[-81.260617,36.010531],[-81.260521,36.010829],[-81.260739,36.012259]]]}},{"type":"Feature","id":"37003:3833109762","properties":{"id":"37003:3833109762","parcelId":"3833109762","countyFips":"37003","countyName":"Alexander","state":"North Carolina","marketIds":["Charlotte"],"situsAddress":"371 BOONE GAP LN","situsCity":null,"situsZip":null,"jurisdictionCode":null,"ownerName":"WATTS LOWELL BRYAN","ownerName2":null,"propertyName":null,"zoningCode":null,"zoningDistrict":null,"jurisdictionPrefix":null,"dorCode":null,"acreage":11.83,"centroid":[-81.258482,36.011608],"lastSale":{"date":"2020-04-02","price":null,"qualified":null},"tax":{"marketValue":40689.0,"assessedValue":4768.0,"taxableValue":null,"taxes":null},"mailingAddress":{"line1":"167 BOONE GAP LN","line2":null,"city":"TAYLORSVILLE","state":"NC","zip":"28681"},"incomeTract":null,"incomeBlockGroup":null,"nearestRoad":null,"flu":null,"opportunityZone":null,"oz2Eligibility":null,"source":"nc-alexander-parcels-37003","appraiserUrl":"https://maps.alexandercountync.gov/PRC/138026.html","gisViewerUrl":"https://maps.alexandercountync.gov/maps/"},"geometry":{"type":"Polygon","coordinates":[[[-81.257256,36.011743],[-81.25729,36.01175],[-81.257537,36.011751],[-81.257553,36.012466],[-81.260739,36.012259],[-81.260521,36.010829],[-81.259521,36.011165],[-81.258368,36.011315],[-81.257553,36.011192],[-81.257256,36.011743]]]}},{"type":"Feature","id":"37003:3833321218","properties":{"id":"37003:3833321218","parcelId":"3833321218","countyFips":"37003","countyName":"Alexander","state":"North Carolina","marketIds":["Charlotte"],"situsAddress":"371 BOONE GAP LN","situsCity":null,"situsZip":null,"jurisdictionCode":null,"ownerName":"FUTUREGROUND VENTURES LLC &","ownerName2":"STERLING PROPERTY SOLUTIONS","propertyName":null,"zoningCode":null,"zoningDistrict":null,"jurisdictionPrefix":null,"dorCode":null,"acreage":11.09,"centroid":[-81.255377,36.015925],"lastSale":{"date":"2026-01-14","price":null,"qualified":null},"tax":{"marketValue":49450.0,"assessedValue":3996.0,"taxableValue":null,"taxes":null},"mailingAddress":{"line1":"1309 COFFFEEN AVE ST 1200","line2":null,"city":"SHERIDAN","state":"WY","zip":"82801"},"incomeTract":null,"incomeBlockGroup":null,"nearestRoad":null,"flu":null,"opportunityZone":null,"oz2Eligibility":null,"source":"nc-alexander-parcels-37003","appraiserUrl":"https://maps.alexandercountync.gov/PRC/138024.html","gisViewerUrl":"https://maps.alexandercountync.gov/maps/"},"geometry":{"type":"Polygon","coordinates":[[[-81.25361,36.015439],[-81.253736,36.015871],[-81.253466,36.017131],[-81.255688,36.016494],[-81.257125,36.015933],[-81.257021,36.015528],[-81.256992,36.015077],[-81.25361,36.015439]]]}},{"type":"Feature","id":"37003:3832181435","properties":{"id":"37003:3832181435","parcelId":"3832181435","countyFips":"37003","countyName":"Alexander","state":"North Carolina","marketIds":["Charlotte"],"situsAddress":"ROBINETTE RD","situsCity":null,"situsZip":null,"jurisdictionCode":null,"ownerName":"STEWART CHARLES P &","ownerName2":"STEWART LAURIE M","propertyName":null,"zoningCode":null,"zoningDistrict":null,"jurisdictionPrefix":null,"dorCode":null,"acreage":14.53,"centroid":[-81.260949,36.005443],"lastSale":{"date":"2016-05-02","price":36000.0,"qualified":null},"tax":{"marketValue":55397.0,"assessedValue":55397.0,"taxableValue":null,"taxes":null},"mailingAddress":{"line1":"396 6TH ST NW","line2":null,"city":"TAYLORSVILLE","state":"NC","zip":"28681"},"incomeTract":null,"incomeBlockGroup":null,"nearestRoad":null,"flu":null,"opportunityZone":null,"oz2Eligibility":null,"source":"nc-alexander-parcels-37003","appraiserUrl":"https://maps.alexandercountync.gov/PRC/0006164.html","gisViewerUrl":"https://maps.alexandercountync.gov/maps/"},"geometry":{"type":"Polygon","coordinates":[[[-81.257889,36.006095],[-81.258661,36.005765],[-81.259937,36.005735],[-81.260612,36.005636],[-81.26145,36.005684],[-81.262622,36.005653],[-81.263749,36.005844],[-81.264667,36.00616],[-81.264358,36.00459],[-81.25815,36.00517],[-81.257998,36.005485],[-81.257815,36.005746],[-81.257495,36.00609],[-81.257231,36.006297],[-81.257889,36.006095]]]}},{"type":"Feature","id":"37003:3832278070","properties":{"id":"37003:3832278070","parcelId":"3832278070","countyFips":"37003","countyName":"Alexander","state":"North Carolina","marketIds":["Charlotte"],"situsAddress":"ALL HEALING SPRINGS RD","situsCity":null,"situsZip":null,"jurisdictionCode":null,"ownerName":"WATTS EVA J","ownerName2":null,"propertyName":null,"zoningCode":null,"zoningDistrict":null,"jurisdictionPrefix":null,"dorCode":null,"acreage":14.66,"centroid":[-81.255826,36.001373],"lastSale":{"date":"1974-01-01","price":null,"qualified":null},"tax":{"marketValue":51975.0,"assessedValue":51975.0,"taxableValue":null,"taxes":null},"mailingAddress":{"line1":"145 EDD BURGESS RD","line2":null,"city":"TAYLORSVILLE","state":"NC","zip":"28681"},"incomeTract":null,"incomeBlockGroup":null,"nearestRoad":null,"flu":null,"opportunityZone":null,"oz2Eligibility":null,"source":"nc-alexander-parcels-37003","appraiserUrl":"https://maps.alexandercountync.gov/PRC/0006459.html","gisViewerUrl":"https://maps.alexandercountync.gov/maps/"},"geometry":{"type":"Polygon","coordinates":[[[-81.25647,36.001408],[-81.256312,36.000578],[-81.256232,36.000162],[-81.254552,36.000119],[-81.254618,36.002968],[-81.256773,36.003003],[-81.25647,36.001408]]]}},{"type":"Feature","id":"37003:3832390253","properties":{"id":"37003:3832390253","parcelId":"3832390253","countyFips":"37003","countyName":"Alexander","state":"North Carolina","marketIds":["Charlotte"],"situsAddress":"BOONE GAP LN","situsCity":null,"situsZip":null,"jurisdictionCode":null,"ownerName":"LEDFORD JERRY M &","ownerName2":"LEDFORD CAROLYN M","propertyName":null,"zoningCode":null,"zoningDistrict":null,"jurisdictionPrefix":null,"dorCode":null,"acreage":14.97,"centroid":[-81.256056,36.007735],"lastSale":{"date":"2019-01-28","price":null,"qualified":null},"tax":{"marketValue":51522.0,"assessedValue":51522.0,"taxableValue":null,"taxes":null},"mailingAddress":{"line1":"3231 7TH ST DR NE","line2":null,"city":"HICKORY","state":"NC","zip":"28601"},"incomeTract":null,"incomeBlockGroup":null,"nearestRoad":null,"flu":null,"opportunityZone":null,"oz2Eligibility":null,"source":"nc-alexander-parcels-37003","appraiserUrl":"https://maps.alexandercountync.gov/PRC/139549.html","gisViewerUrl":"https://maps.alexandercountync.gov/maps/"},"geometry":{"type":"Polygon","coordinates":[[[-81.252805,36.00818],[-81.254994,36.008856],[-81.255452,36.008684],[-81.255779,36.008536],[-81.256099,36.00836],[-81.25625,36.008227],[-81.256338,36.008131],[-81.256408,36.007997],[-81.256443,36.007867],[-81.256463,36.007673],[-81.256522,36.00753],[-81.256816,36.007131],[-81.257092,36.006831],[-81.257133,36.006753],[-81.257146,36.006673],[-81.255156,36.006327],[-81.252805,36.00818]]]}},{"type":"Feature","id":"37003:3833201174","properties":{"id":"37003:3833201174","parcelId":"3833201174","countyFips":"37003","countyName":"Alexander","state":"North Carolina","marketIds":["Charlotte"],"situsAddress":"BOONE GAP LN","situsCity":null,"situsZip":null,"jurisdictionCode":null,"ownerName":"HERMAN CAROL DEAN","ownerName2":null,"propertyName":null,"zoningCode":null,"zoningDistrict":null,"jurisdictionPrefix":null,"dorCode":null,"acreage":12.86,"centroid":[-81.25767,36.010418],"lastSale":{"date":"2018-12-11","price":null,"qualified":null},"tax":{"marketValue":46787.0,"assessedValue":46787.0,"taxableValue":null,"taxes":null},"mailingAddress":{"line1":"69 BOONE GAP LN","line2":null,"city":"TAYLORSVILLE","state":"NC","zip":"28681"},"incomeTract":null,"incomeBlockGroup":null,"nearestRoad":null,"flu":null,"opportunityZone":null,"oz2Eligibility":null,"source":"nc-alexander-parcels-37003","appraiserUrl":"https://maps.alexandercountync.gov/PRC/0017774.html","gisViewerUrl":"https://maps.alexandercountync.gov/maps/"},"geometry":{"type":"Polygon","coordinates":[[[-81.255817,36.010953],[-81.255827,36.010959],[-81.255991,36.011074],[-81.256698,36.011122],[-81.257096,36.010866],[-81.257553,36.011192],[-81.259442,36.010772],[-81.260521,36.010829],[-81.260823,36.009894],[-81.25961,36.010474],[-81.259406,36.010474],[-81.259133,36.010513],[-81.25877,36.01041],[-81.258254,36.01039],[-81.258159,36.010338],[-81.258045,36.010324],[-81.257905,36.010364],[-81.25779,36.010326],[-81.257499,36.010278],[-81.257447,36.010212],[-81.257297,36.01019],[-81.257254,36.010074],[-81.256934,36.009957],[-81.256656,36.00979],[-81.256482,36.0098],[-81.256279,36.009783],[-81.25607,36.009812],[-81.256009,36.010533],[-81.255817,36.010953]]]}},{"type":"Feature","id":"37003:3822786657","properties":{"id":"37003:3822786657","parcelId":"3822786657","countyFips":"37003","countyName":"Alexander","state":"North Carolina","marketIds":["Charlotte"],"situsAddress":"EVENING SHADE LN","situsCity":null,"situsZip":null,"jurisdictionCode":null,"ownerName":"POPE C DAVID JR &","ownerName2":"POPE GAIL B","propertyName":null,"zoningCode":null,"zoningDistrict":null,"jurisdictionPrefix":null,"dorCode":null,"acreage":16.57,"centroid":[-81.273265,36.005733],"lastSale":{"date":"2015-10-28","price":50000.0,"qualified":null},"tax":{"marketValue":49302.0,"assessedValue":6624.0,"taxableValue":null,"taxes":null},"mailingAddress":{"line1":"P O BOX 823","line2":null,"city":"STATESVILLE","state":"NC","zip":"28687"},"incomeTract":null,"incomeBlockGroup":null,"nearestRoad":null,"flu":null,"opportunityZone":null,"oz2Eligibility":null,"source":"nc-alexander-parcels-37003","appraiserUrl":"https://maps.alexandercountync.gov/PRC/138941.html","gisViewerUrl":"https://maps.alexandercountync.gov/maps/"},"geometry":{"type":"Polygon","coordinates":[[[-81.272338,36.003387],[-81.272328,36.008181],[-81.27513,36.005631],[-81.272338,36.003387]]]}},{"type":"Feature","id":"37003:3823303249","properties":{"id":"37003:3823303249","parcelId":"3823303249","countyFips":"37003","countyName":"Alexander","state":"North Carolina","marketIds":["Charlotte"],"situsAddress":"ALL HEALING SPRINGS RD","situsCity":null,"situsZip":null,"jurisdictionCode":null,"ownerName":"THOMPSON LISA","ownerName2":null,"propertyName":null,"zoningCode":null,"zoningDistrict":null,"jurisdictionPrefix":null,"dorCode":null,"acreage":19.6,"centroid":[-81.287776,36.010622],"lastSale":{"date":"2020-10-13","price":null,"qualified":null},"tax":{"marketValue":21532.0,"assessedValue":21532.0,"taxableValue":null,"taxes":null},"mailingAddress":{"line1":"109 WEDGEDALE AVE","line2":null,"city":"GREENSBORO","state":"NC","zip":"27403"},"incomeTract":null,"incomeBlockGroup":null,"nearestRoad":null,"flu":null,"opportunityZone":null,"oz2Eligibility":null,"source":"nc-alexander-parcels-37003","appraiserUrl":"https://maps.alexandercountync.gov/PRC/0006448.html","gisViewerUrl":"https://maps.alexandercountync.gov/maps/"},"geometry":{"type":"Polygon","coordinates":[[[-81.286492,36.010943],[-81.286492,36.010944],[-81.28654,36.011739],[-81.289313,36.011376],[-81.289588,36.010015],[-81.289565,36.009667],[-81.286441,36.009668],[-81.286492,36.010943]]]}},{"type":"Feature","id":"37003:3823735260","properties":{"id":"37003:3823735260","parcelId":"3823735260","countyFips":"37003","countyName":"Alexander","state":"North Carolina","marketIds":["Charlotte"],"situsAddress":"BOONE GAP LN","situsCity":null,"situsZip":null,"jurisdictionCode":null,"ownerName":"POPE C DAVID JR &","ownerName2":"POPE GAIL B","propertyName":null,"zoningCode":null,"zoningDistrict":null,"jurisdictionPrefix":null,"dorCode":null,"acreage":18.2,"centroid":[-81.272405,36.018534],"lastSale":{"date":"2016-12-21","price":null,"qualified":null},"tax":{"marketValue":27684.0,"assessedValue":5942.0,"taxableValue":null,"taxes":null},"mailingAddress":{"line1":"P O BOX 823","line2":null,"city":"STATESVILLE","state":"NC","zip":"28687"},"incomeTract":null,"incomeBlockGroup":null,"nearestRoad":null,"flu":null,"opportunityZone":null,"oz2Eligibility":null,"source":"nc-alexander-parcels-37003","appraiserUrl":"https://maps.alexandercountync.gov/PRC/139137.html","gisViewerUrl":"https://maps.alexandercountync.gov/maps/"},"geometry":{"type":"Polygon","coordinates":[[[-81.271751,36.018023],[-81.270289,36.01879],[-81.270489,36.019443],[-81.270818,36.019635],[-81.278073,36.017336],[-81.273012,36.017977],[-81.271751,36.018023]]]}},{"type":"Feature","id":"37003:3833305306","properties":{"id":"37003:3833305306","parcelId":"3833305306","countyFips":"37003","countyName":"Alexander","state":"North Carolina","marketIds":["Charlotte"],"situsAddress":"64 BOONE GAP LN","situsCity":null,"situsZip":null,"jurisdictionCode":null,"ownerName":"CLINE COREY DALE &","ownerName2":"CLINE MOLLY M","propertyName":null,"zoningCode":null,"zoningDistrict":null,"jurisdictionPrefix":null,"dorCode":null,"acreage":18.39,"centroid":[-81.254144,36.009942],"lastSale":{"date":"2010-08-05","price":150000.0,"qualified":null},"tax":{"marketValue":222752.0,"assessedValue":222752.0,"taxableValue":null,"taxes":null},"mailingAddress":{"line1":"64 BOONE GAP LANE","line2":null,"city":"TAYLORSVILLE","state":"NC","zip":"28681"},"incomeTract":null,"incomeBlockGroup":null,"nearestRoad":null,"flu":null,"opportunityZone":null,"oz2Eligibility":null,"source":"nc-alexander-parcels-37003","appraiserUrl":"https://maps.alexandercountync.gov/PRC/0066619.html","gisViewerUrl":"https://maps.alexandercountync.gov/maps/"},"geometry":{"type":"Polygon","coordinates":[[[-81.253374,36.009589],[-81.253178,36.009729],[-81.252871,36.009948],[-81.251923,36.009965],[-81.252358,36.011173],[-81.252874,36.012909],[-81.255383,36.010739],[-81.255301,36.01054],[-81.255248,36.010208],[-81.255261,36.010068],[-81.25536,36.009717],[-81.255288,36.009553],[-81.255199,36.009418],[-81.255041,36.009242],[-81.254859,36.009088],[-81.254454,36.009199],[-81.253911,36.009297],[-81.253612,36.009293],[-81.253237,36.009219],[-81.253374,36.009589]]]}},{"type":"Feature","id":"37003:3823637448","properties":{"id":"37003:3823637448","parcelId":"3823637448","countyFips":"37003","countyName":"Alexander","state":"North Carolina","marketIds":["Charlotte"],"situsAddress":"BOONE GAP LN","situsCity":null,"situsZip":null,"jurisdictionCode":null,"ownerName":"POPE C DAVID JR &","ownerName2":"POPE GAIL B","propertyName":null,"zoningCode":null,"zoningDistrict":null,"jurisdictionPrefix":null,"dorCode":null,"acreage":20.08,"centroid":[-81.276814,36.018824],"lastSale":{"date":"2016-12-21","price":null,"qualified":null},"tax":{"marketValue":33835.0,"assessedValue":8152.0,"taxableValue":null,"taxes":null},"mailingAddress":{"line1":"P O BOX 823","line2":null,"city":"STATESVILLE","state":"NC","zip":"28687"},"incomeTract":null,"incomeBlockGroup":null,"nearestRoad":null,"flu":null,"opportunityZone":null,"oz2Eligibility":null,"source":"nc-alexander-parcels-37003","appraiserUrl":"https://maps.alexandercountync.gov/PRC/139136.html","gisViewerUrl":"https://maps.alexandercountync.gov/maps/"},"geometry":{"type":"Polygon","coordinates":[[[-81.274646,36.018422],[-81.275331,36.020574],[-81.279205,36.018965],[-81.278073,36.017336],[-81.274646,36.018422]]]}},{"type":"Feature","id":"37003:3823738817","properties":{"id":"37003:3823738817","parcelId":"3823738817","countyFips":"37003","countyName":"Alexander","state":"North Carolina","marketIds":["Charlotte"],"situsAddress":"BOONE GAP LN","situsCity":null,"situsZip":null,"jurisdictionCode":null,"ownerName":"POPE C DAVID JR &","ownerName2":"POPE GAIL B","propertyName":null,"zoningCode":null,"zoningDistrict":null,"jurisdictionPrefix":null,"dorCode":null,"acreage":20.08,"centroid":[-81.273059,36.020407],"lastSale":{"date":"2020-08-31","price":24000.0,"qualified":null},"tax":{"marketValue":29779.0,"assessedValue":8032.0,"taxableValue":null,"taxes":null},"mailingAddress":{"line1":"P O BOX 823","line2":null,"city":"STATESVILLE","state":"NC","zip":"28687"},"incomeTract":null,"incomeBlockGroup":null,"nearestRoad":null,"flu":null,"opportunityZone":null,"oz2Eligibility":null,"source":"nc-alexander-parcels-37003","appraiserUrl":"https://maps.alexandercountync.gov/PRC/139135.html","gisViewerUrl":"https://maps.alexandercountync.gov/maps/"},"geometry":{"type":"Polygon","coordinates":[[[-81.270818,36.019635],[-81.271394,36.019972],[-81.271443,36.021595],[-81.271804,36.021476],[-81.274087,36.020849],[-81.274946,36.020734],[-81.275331,36.020574],[-81.274646,36.018422],[-81.270818,36.019635]]]}},{"type":"Feature","id":"37003:3832180858","properties":{"id":"37003:3832180858","parcelId":"3832180858","countyFips":"37003","countyName":"Alexander","state":"North Carolina","marketIds":["Charlotte"],"situsAddress":"ROBINETTE RD","situsCity":null,"situsZip":null,"jurisdictionCode":null,"ownerName":"DUBUQUE KEVIN J &","ownerName2":"DUBUQUE KANDI L","propertyName":null,"zoningCode":null,"zoningDistrict":null,"jurisdictionPrefix":null,"dorCode":null,"acreage":22.32,"centroid":[-81.261689,36.006255],"lastSale":{"date":"2022-04-05","price":50000.0,"qualified":null},"tax":{"marketValue":50963.0,"assessedValue":50963.0,"taxableValue":null,"taxes":null},"mailingAddress":{"line1":"3779 NEWHALL DRIVE","line2":null,"city":"CONOVER","state":"NC","zip":"28613"},"incomeTract":null,"incomeBlockGroup":null,"nearestRoad":null,"flu":null,"opportunityZone":null,"oz2Eligibility":null,"source":"nc-alexander-parcels-37003","appraiserUrl":"https://maps.alexandercountync.gov/PRC/0006216.html","gisViewerUrl":"https://maps.alexandercountync.gov/maps/"},"geometry":{"type":"Polygon","coordinates":[[[-81.26318,36.007334],[-81.264938,36.007573],[-81.264669,36.006161],[-81.263749,36.005844],[-81.262622,36.005653],[-81.26145,36.005684],[-81.260612,36.005636],[-81.259937,36.005735],[-81.258661,36.005765],[-81.257889,36.006095],[-81.260877,36.00732],[-81.26318,36.007334]]]}},{"type":"Feature","id":"37003:3832196752","properties":{"id":"37003:3832196752","parcelId":"3832196752","countyFips":"37003","countyName":"Alexander","state":"North Carolina","marketIds":["Charlotte"],"situsAddress":"ROBINETTE RD","situsCity":null,"situsZip":null,"jurisdictionCode":null,"ownerName":"ANDERSON WILLIAM THOMAS JR","ownerName2":null,"propertyName":null,"zoningCode":null,"zoningDistrict":null,"jurisdictionPrefix":null,"dorCode":null,"acreage":20.79,"centroid":[-81.258847,36.00861],"lastSale":{"date":"2022-11-10","price":77000.0,"qualified":null},"tax":{"marketValue":65288.0,"assessedValue":65288.0,"taxableValue":null,"taxes":null},"mailingAddress":{"line1":"201 EAGLE ROAD","line2":null,"city":"BELMONT","state":"NC","zip":"28012"},"incomeTract":null,"incomeBlockGroup":null,"nearestRoad":null,"flu":null,"opportunityZone":null,"oz2Eligibility":null,"source":"nc-alexander-parcels-37003","appraiserUrl":"https://maps.alexandercountync.gov/PRC/139672.html","gisViewerUrl":"https://maps.alexandercountync.gov/maps/"},"geometry":{"type":"Polygon","coordinates":[[[-81.259133,36.010513],[-81.259406,36.010474],[-81.25961,36.010474],[-81.260823,36.009894],[-81.260867,36.007807],[-81.258927,36.006982],[-81.257346,36.006707],[-81.257325,36.00681],[-81.257273,36.006907],[-81.257098,36.007086],[-81.256827,36.007435],[-81.258025,36.008123],[-81.258902,36.008852],[-81.258451,36.010404],[-81.25877,36.01041],[-81.259133,36.010513]]]}},{"type":"Feature","id":"37003:3833311641","properties":{"id":"37003:3833311641","parcelId":"3833311641","countyFips":"37003","countyName":"Alexander","state":"North Carolina","marketIds":["Charlotte"],"situsAddress":"BOONE GAP LN","situsCity":null,"situsZip":null,"jurisdictionCode":null,"ownerName":"JUHNKE MATTHIAS &","ownerName2":"JUHNKE SHAHRZAD","propertyName":null,"zoningCode":null,"zoningDistrict":null,"jurisdictionPrefix":null,"dorCode":null,"acreage":20.02,"centroid":[-81.255887,36.014073],"lastSale":{"date":"2025-05-01","price":135000.0,"qualified":null},"tax":{"marketValue":93500.0,"assessedValue":93500.0,"taxableValue":null,"taxes":null},"mailingAddress":{"line1":"616 BARCROFT LANE","line2":null,"city":"FORTMILL","state":"SC","zip":"29715"},"incomeTract":null,"incomeBlockGroup":null,"nearestRoad":null,"flu":null,"opportunityZone":null,"oz2Eligibility":null,"source":"nc-alexander-parcels-37003","appraiserUrl":"https://maps.alexandercountync.gov/PRC/139315.html","gisViewerUrl":"https://maps.alexandercountync.gov/maps/"},"geometry":{"type":"Polygon","coordinates":[[[-81.252964,36.01322],[-81.253302,36.014382],[-81.25361,36.015439],[-81.256992,36.015077],[-81.257069,36.014675],[-81.257056,36.014522],[-81.25696,36.014271],[-81.256865,36.0141],[-81.256637,36.013769],[-81.25646,36.013439],[-81.256403,36.013242],[-81.256325,36.012739],[-81.252964,36.01322]]]}},{"type":"Feature","id":"37003:3832277954","properties":{"id":"37003:3832277954","parcelId":"3832277954","countyFips":"37003","countyName":"Alexander","state":"North Carolina","marketIds":["Charlotte"],"situsAddress":"2408 ROBINETTE RD","situsCity":null,"situsZip":null,"jurisdictionCode":null,"ownerName":"LOUDERMILK DAVID WATSON","ownerName2":null,"propertyName":null,"zoningCode":null,"zoningDistrict":null,"jurisdictionPrefix":null,"dorCode":null,"acreage":28.14,"centroid":[-81.255983,36.003814],"lastSale":{"date":"1976-01-01","price":null,"qualified":null},"tax":{"marketValue":230269.0,"assessedValue":153316.0,"taxableValue":null,"taxes":null},"mailingAddress":{"line1":"2408 ROBINETTE RD","line2":null,"city":"TAYLORSVILLE","state":"NC","zip":"28681"},"incomeTract":null,"incomeBlockGroup":null,"nearestRoad":null,"flu":null,"opportunityZone":null,"oz2Eligibility":null,"source":"nc-alexander-parcels-37003","appraiserUrl":"https://maps.alexandercountync.gov/PRC/0006237.html","gisViewerUrl":"https://maps.alexandercountync.gov/maps/"},"geometry":{"type":"Polygon","coordinates":[[[-81.253769,36.004842],[-81.257753,36.005512],[-81.257861,36.005331],[-81.25813,36.004773],[-81.258811,36.003872],[-81.258907,36.003549],[-81.258955,36.003027],[-81.254618,36.002968],[-81.254595,36.003102],[-81.254093,36.003103],[-81.253915,36.002872],[-81.253308,36.002803],[-81.253065,36.003823],[-81.253769,36.004842]]]}},{"type":"Feature","id":"37003:3832388535","properties":{"id":"37003:3832388535","parcelId":"3832388535","countyFips":"37003","countyName":"Alexander","state":"North Carolina","marketIds":["Charlotte"],"situsAddress":"3174 ROBINETTE RD","situsCity":null,"situsZip":null,"jurisdictionCode":null,"ownerName":"LEDFORD JERRY M &","ownerName2":"LEDFORD CAROLYN M","propertyName":null,"zoningCode":null,"zoningDistrict":null,"jurisdictionPrefix":null,"dorCode":null,"acreage":25.13,"centroid":[-81.252221,36.005815],"lastSale":{"date":"1990-08-01","price":42000.0,"qualified":null},"tax":{"marketValue":162431.0,"assessedValue":64870.0,"taxableValue":null,"taxes":null},"mailingAddress":{"line1":"3231 7TH ST DR NE","line2":null,"city":"HICKORY","state":"NC","zip":"28601"},"incomeTract":null,"incomeBlockGroup":null,"nearestRoad":null,"flu":null,"opportunityZone":null,"oz2Eligibility":null,"source":"nc-alexander-parcels-37003","appraiserUrl":"https://maps.alexandercountync.gov/PRC/0006071.html","gisViewerUrl":"https://maps.alexandercountync.gov/maps/"},"geometry":{"type":"Polygon","coordinates":[[[-81.252805,36.00818],[-81.255156,36.006327],[-81.25426,36.005553],[-81.253065,36.003823],[-81.253308,36.002803],[-81.252031,36.003915],[-81.250706,36.004676],[-81.251264,36.005474],[-81.251551,36.005853],[-81.251891,36.006247],[-81.250326,36.007403],[-81.250849,36.008022],[-81.251663,36.007314],[-81.252805,36.00818]]]}},{"type":"Feature","id":"37003:3833004183","properties":{"id":"37003:3833004183","parcelId":"3833004183","countyFips":"37003","countyName":"Alexander","state":"North Carolina","marketIds":["Charlotte"],"situsAddress":"BOONE GAP LN","situsCity":null,"situsZip":null,"jurisdictionCode":null,"ownerName":"BUMGARNER GREGORY P &","ownerName2":"BUMGARNER RICHARD A","propertyName":null,"zoningCode":null,"zoningDistrict":null,"jurisdictionPrefix":null,"dorCode":null,"acreage":25.7,"centroid":[-81.263325,36.009583],"lastSale":{"date":"2026-08-03","price":null,"qualified":null},"tax":{"marketValue":62054.0,"assessedValue":9372.0,"taxableValue":null,"taxes":null},"mailingAddress":{"line1":"215 MT OLIVE CHURCH ROAD","line2":null,"city":"TAYLORSVILLE","state":"NC","zip":"28681"},"incomeTract":null,"incomeBlockGroup":null,"nearestRoad":null,"flu":null,"opportunityZone":null,"oz2Eligibility":null,"source":"nc-alexander-parcels-37003","appraiserUrl":"https://maps.alexandercountync.gov/PRC/0005925.html","gisViewerUrl":"https://maps.alexandercountync.gov/maps/"},"geometry":{"type":"Polygon","coordinates":[[[-81.26273,36.010325],[-81.262832,36.012258],[-81.265062,36.012193],[-81.264938,36.007573],[-81.26318,36.007334],[-81.262827,36.008319],[-81.262788,36.008797],[-81.262859,36.009575],[-81.262706,36.009871],[-81.26273,36.010325]]]}},{"type":"Feature","id":"37003:3823412233","properties":{"id":"37003:3823412233","parcelId":"3823412233","countyFips":"37003","countyName":"Alexander","state":"North Carolina","marketIds":["Charlotte"],"situsAddress":"ALL HEALING SPRINGS RD","situsCity":null,"situsZip":null,"jurisdictionCode":null,"ownerName":"POPE C DAVID JR &","ownerName2":"POPE GAIL B","propertyName":null,"zoningCode":null,"zoningDistrict":null,"jurisdictionPrefix":null,"dorCode":null,"acreage":31.72,"centroid":[-81.285315,36.012866],"lastSale":{"date":"2007-06-26","price":null,"qualified":null},"tax":{"marketValue":89341.0,"assessedValue":15252.0,"taxableValue":null,"taxes":null},"mailingAddress":{"line1":"P O BOX 823","line2":null,"city":"STATESVILLE","state":"NC","zip":"28687"},"incomeTract":null,"incomeBlockGroup":null,"nearestRoad":null,"flu":null,"opportunityZone":null,"oz2Eligibility":null,"source":"nc-alexander-parcels-37003","appraiserUrl":"https://maps.alexandercountync.gov/PRC/137369.html","gisViewerUrl":"https://maps.alexandercountync.gov/maps/"},"geometry":{"type":"Polygon","coordinates":[[[-81.283723,36.013896],[-81.28377,36.015058],[-81.286176,36.014777],[-81.286286,36.013957],[-81.286333,36.011773],[-81.28654,36.011739],[-81.286492,36.010943],[-81.283199,36.010788],[-81.283723,36.013896]]]}},{"type":"Feature","id":"37003:3832079803","properties":{"id":"37003:3832079803","parcelId":"3832079803","countyFips":"37003","countyName":"Alexander","state":"North Carolina","marketIds":["Charlotte"],"situsAddress":"2427 ROBINETTE RD","situsCity":null,"situsZip":null,"jurisdictionCode":null,"ownerName":"LOUDERMILK DANIEL LANE &","ownerName2":"LOUDERMILK JEAN R","propertyName":null,"zoningCode":null,"zoningDistrict":null,"jurisdictionPrefix":null,"dorCode":null,"acreage":37.0,"centroid":[-81.261133,36.00346],"lastSale":{"date":"2013-03-19","price":null,"qualified":null},"tax":{"marketValue":290542.0,"assessedValue":195757.0,"taxableValue":null,"taxes":null},"mailingAddress":{"line1":"2427 ROBINETTE RD","line2":null,"city":"TAYLORSVILLE","state":"NC","zip":"28681"},"incomeTract":null,"incomeBlockGroup":null,"nearestRoad":null,"flu":null,"opportunityZone":null,"oz2Eligibility":null,"source":"nc-alexander-parcels-37003","appraiserUrl":"https://maps.alexandercountync.gov/PRC/0006234.html","gisViewerUrl":"https://maps.alexandercountync.gov/maps/"},"geometry":{"type":"Polygon","coordinates":[[[-81.266108,36.003296],[-81.263649,36.001671],[-81.26329,36.001867],[-81.262159,36.00167],[-81.261836,36.002967],[-81.259138,36.00325],[-81.259094,36.003645],[-81.258987,36.003954],[-81.258513,36.004601],[-81.258315,36.00484],[-81.25815,36.00517],[-81.264358,36.00459],[-81.266108,36.003296]]]}},{"type":"Feature","id":"37003:3833117535","properties":{"id":"37003:3833117535","parcelId":"3833117535","countyFips":"37003","countyName":"Alexander","state":"North Carolina","marketIds":["Charlotte"],"situsAddress":"331 BOONE GAP LN","situsCity":null,"situsZip":null,"jurisdictionCode":null,"ownerName":"WATTS JIMMIE P & BOWMAN","ownerName2":"MICHELLE WATTS & OTHERS","propertyName":null,"zoningCode":null,"zoningDistrict":null,"jurisdictionPrefix":null,"dorCode":null,"acreage":36.53,"centroid":[-81.259976,36.014219],"lastSale":{"date":"2026-06-23","price":null,"qualified":null},"tax":{"marketValue":208344.0,"assessedValue":107957.0,"taxableValue":null,"taxes":null},"mailingAddress":{"line1":"331 BOONE GAP LANE","line2":null,"city":"TAYLORSVILLE","state":"NC","zip":"28681"},"incomeTract":null,"incomeBlockGroup":null,"nearestRoad":null,"flu":null,"opportunityZone":null,"oz2Eligibility":null,"source":"nc-alexander-parcels-37003","appraiserUrl":"https://maps.alexandercountync.gov/PRC/0067478.html","gisViewerUrl":"https://maps.alexandercountync.gov/maps/"},"geometry":{"type":"Polygon","coordinates":[[[-81.256769,36.013608],[-81.257245,36.013615],[-81.257685,36.014475],[-81.257719,36.015522],[-81.258068,36.016017],[-81.258695,36.015205],[-81.258953,36.015128],[-81.260986,36.015681],[-81.261607,36.015734],[-81.261984,36.015521],[-81.262073,36.015328],[-81.261959,36.015179],[-81.26192,36.014979],[-81.261944,36.014686],[-81.261895,36.014203],[-81.262092,36.013947],[-81.262102,36.013676],[-81.262041,36.013402],[-81.262019,36.01309],[-81.262566,36.012338],[-81.260739,36.012259],[-81.257553,36.012466],[-81.257563,36.012927],[-81.256592,36.013123],[-81.256641,36.01336],[-81.256769,36.013608]]]}},{"type":"Feature","id":"37003:3823526828","properties":{"id":"37003:3823526828","parcelId":"3823526828","countyFips":"37003","countyName":"Alexander","state":"North Carolina","marketIds":["Charlotte"],"situsAddress":"BOONE GAP LN","situsCity":null,"situsZip":null,"jurisdictionCode":null,"ownerName":"POPE C DAVID JR &","ownerName2":"POPE GAIL B","propertyName":null,"zoningCode":null,"zoningDistrict":null,"jurisdictionPrefix":null,"dorCode":null,"acreage":40.04,"centroid":[-81.280055,36.017917],"lastSale":{"date":"2017-06-09","price":null,"qualified":null},"tax":{"marketValue":80212.0,"assessedValue":14440.0,"taxableValue":null,"taxes":null},"mailingAddress":{"line1":"P O BOX 823","line2":null,"city":"STATESVILLE","state":"NC","zip":"28687"},"incomeTract":null,"incomeBlockGroup":null,"nearestRoad":null,"flu":null,"opportunityZone":null,"oz2Eligibility":null,"source":"nc-alexander-parcels-37003","appraiserUrl":"https://maps.alexandercountync.gov/PRC/139157.html","gisViewerUrl":"https://maps.alexandercountync.gov/maps/"},"geometry":{"type":"Polygon","coordinates":[[[-81.279205,36.018965],[-81.279889,36.018681],[-81.280892,36.018938],[-81.282217,36.018203],[-81.283385,36.018177],[-81.28377,36.015058],[-81.273012,36.017977],[-81.278073,36.017336],[-81.279205,36.018965]]]}},{"type":"Feature","id":"37003:3832378295","properties":{"id":"37003:3832378295","parcelId":"3832378295","countyFips":"37003","countyName":"Alexander","state":"North Carolina","marketIds":["Charlotte"],"situsAddress":"ROBINETTE RD","situsCity":null,"situsZip":null,"jurisdictionCode":null,"ownerName":"BROWN SHAWN D","ownerName2":null,"propertyName":null,"zoningCode":null,"zoningDistrict":null,"jurisdictionPrefix":null,"dorCode":null,"acreage":42.84,"centroid":[-81.251004,36.00234],"lastSale":{"date":"2021-07-01","price":null,"qualified":null},"tax":{"marketValue":258010.0,"assessedValue":127510.0,"taxableValue":null,"taxes":null},"mailingAddress":{"line1":"3458 ROBINETTE RD","line2":null,"city":"TAYLORSVILLE","state":"NC","zip":"28681"},"incomeTract":null,"incomeBlockGroup":null,"nearestRoad":null,"flu":null,"opportunityZone":null,"oz2Eligibility":null,"source":"nc-alexander-parcels-37003","appraiserUrl":"https://maps.alexandercountync.gov/PRC/0005908.html","gisViewerUrl":"https://maps.alexandercountync.gov/maps/"},"geometry":{"type":"Polygon","coordinates":[[[-81.248701,36.004558],[-81.24874,36.004619],[-81.248923,36.004907],[-81.248994,36.005071],[-81.24903,36.005272],[-81.249021,36.005604],[-81.24906,36.005723],[-81.249138,36.005839],[-81.250706,36.004676],[-81.252031,36.003915],[-81.253308,36.002803],[-81.251242,35.999117],[-81.249037,35.998841],[-81.248726,36.000453],[-81.248855,36.001603],[-81.250364,36.001753],[-81.250145,36.003206],[-81.248701,36.004558]]]}},{"type":"Feature","id":"37003:3822986255","properties":{"id":"37003:3822986255","parcelId":"3822986255","countyFips":"37003","countyName":"Alexander","state":"North Carolina","marketIds":["Charlotte"],"situsAddress":"ALL HEALING SPRINGS RD","situsCity":null,"situsZip":null,"jurisdictionCode":null,"ownerName":"PHILIP H & KAY P SCHULZ REV TR","ownerName2":null,"propertyName":null,"zoningCode":null,"zoningDistrict":null,"jurisdictionPrefix":null,"dorCode":null,"acreage":61.07,"centroid":[-81.264479,36.00186],"lastSale":{"date":"2018-06-04","price":null,"qualified":null},"tax":{"marketValue":182110.0,"assessedValue":25432.0,"taxableValue":null,"taxes":null},"mailingAddress":{"line1":"12104 ASHTON PARK DR","line2":null,"city":"GLEN ALLEN","state":"VA","zip":"23059"},"incomeTract":null,"incomeBlockGroup":null,"nearestRoad":null,"flu":null,"opportunityZone":null,"oz2Eligibility":null,"source":"nc-alexander-parcels-37003","appraiserUrl":"https://maps.alexandercountync.gov/PRC/139404.html","gisViewerUrl":"https://maps.alexandercountync.gov/maps/"},"geometry":{"type":"Polygon","coordinates":[[[-81.264938,36.007573],[-81.26978,36.007972],[-81.26672,36.000299],[-81.265874,36.000471],[-81.266033,36.000726],[-81.266102,36.001268],[-81.265476,36.002072],[-81.265351,36.002022],[-81.264918,36.00203],[-81.264882,36.000724],[-81.263824,36.001053],[-81.26344,36.001094],[-81.26325,36.001072],[-81.263045,36.001012],[-81.262832,36.000887],[-81.262361,36.000451],[-81.262166,36.000305],[-81.261864,36.000192],[-81.261574,36.000148],[-81.263649,36.001671],[-81.266108,36.003296],[-81.264358,36.00459],[-81.264938,36.007573]]]}},{"type":"Feature","id":"37003:3822886028","properties":{"id":"37003:3822886028","parcelId":"3822886028","countyFips":"37003","countyName":"Alexander","state":"North Carolina","marketIds":["Charlotte"],"situsAddress":"EVENING SHADE LN","situsCity":null,"situsZip":null,"jurisdictionCode":null,"ownerName":"POPE C DAVID JR &","ownerName2":"POPE GAIL B","propertyName":null,"zoningCode":null,"zoningDistrict":null,"jurisdictionPrefix":null,"dorCode":null,"acreage":67.26,"centroid":[-81.269982,36.003994],"lastSale":{"date":"2018-06-04","price":null,"qualified":null},"tax":{"marketValue":182110.0,"assessedValue":25432.0,"taxableValue":null,"taxes":null},"mailingAddress":{"line1":"P O BOX 823","line2":null,"city":"STATESVILLE","state":"NC","zip":"28687"},"incomeTract":null,"incomeBlockGroup":null,"nearestRoad":null,"flu":null,"opportunityZone":null,"oz2Eligibility":null,"source":"nc-alexander-parcels-37003","appraiserUrl":"https://maps.alexandercountync.gov/PRC/139405.html","gisViewerUrl":"https://maps.alexandercountync.gov/maps/"},"geometry":{"type":"Polygon","coordinates":[[[-81.26978,36.007972],[-81.272227,36.008172],[-81.272328,36.008181],[-81.272338,36.003387],[-81.268413,35.999923],[-81.26807,36.000024],[-81.26672,36.000299],[-81.26978,36.007972]]]}},{"type":"Feature","id":"37003:3823518016","properties":{"id":"37003:3823518016","parcelId":"3823518016","countyFips":"37003","countyName":"Alexander","state":"North Carolina","marketIds":["Charlotte"],"situsAddress":"ALL HEALING SPRINGS RD","situsCity":null,"situsZip":null,"jurisdictionCode":null,"ownerName":"POPE C DAVID JR &","ownerName2":"POPE GAIL B","propertyName":null,"zoningCode":null,"zoningDistrict":null,"jurisdictionPrefix":null,"dorCode":null,"acreage":70.46,"centroid":[-81.279985,36.011972],"lastSale":{"date":"1997-07-01","price":42500.0,"qualified":null},"tax":{"marketValue":149428.0,"assessedValue":28200.0,"taxableValue":null,"taxes":null},"mailingAddress":{"line1":"P O BOX 823","line2":null,"city":"STATESVILLE","state":"NC","zip":"28687"},"incomeTract":null,"incomeBlockGroup":null,"nearestRoad":null,"flu":null,"opportunityZone":null,"oz2Eligibility":null,"source":"nc-alexander-parcels-37003","appraiserUrl":"https://maps.alexandercountync.gov/PRC/0005996.html","gisViewerUrl":"https://maps.alexandercountync.gov/maps/"},"geometry":{"type":"Polygon","coordinates":[[[-81.275861,36.014039],[-81.283723,36.013896],[-81.283199,36.010788],[-81.281387,36.010719],[-81.275756,36.010418],[-81.275861,36.014039]]]}},{"type":"Feature","id":"37003:3822688092","properties":{"id":"37003:3822688092","parcelId":"3822688092","countyFips":"37003","countyName":"Alexander","state":"North Carolina","marketIds":["Charlotte"],"situsAddress":"ALL HEALING SPRINGS RD","situsCity":null,"situsZip":null,"jurisdictionCode":null,"ownerName":"BRAQUET RAY M &","ownerName2":"BRAQUET STEPHANIE","propertyName":null,"zoningCode":null,"zoningDistrict":null,"jurisdictionPrefix":null,"dorCode":null,"acreage":78.48,"centroid":[-81.274683,36.004533],"lastSale":{"date":"2016-09-12","price":null,"qualified":null},"tax":{"marketValue":235941.0,"assessedValue":34132.0,"taxableValue":null,"taxes":null},"mailingAddress":{"line1":"2245 MILLING RD","line2":null,"city":"MOCKSVILLE","state":"NC","zip":"27028"},"incomeTract":null,"incomeBlockGroup":null,"nearestRoad":null,"flu":null,"opportunityZone":null,"oz2Eligibility":null,"source":"nc-alexander-parcels-37003","appraiserUrl":"https://maps.alexandercountync.gov/PRC/0005993.html","gisViewerUrl":"https://maps.alexandercountync.gov/maps/"},"geometry":{"type":"Polygon","coordinates":[[[-81.27513,36.005631],[-81.275207,36.006072],[-81.274755,36.00638],[-81.274435,36.006912],[-81.274564,36.007106],[-81.277823,36.005535],[-81.277856,36.005635],[-81.281616,36.003887],[-81.269381,35.999395],[-81.268413,35.999923],[-81.272338,36.003387],[-81.27513,36.005631]]]}},{"type":"Feature","id":"37003:3822690922","properties":{"id":"37003:3822690922","parcelId":"3822690922","countyFips":"37003","countyName":"Alexander","state":"North Carolina","marketIds":["Charlotte"],"situsAddress":"ALL HEALING SPRINGS RD","situsCity":null,"situsZip":null,"jurisdictionCode":null,"ownerName":"POPE C DAVID JR &","ownerName2":"POPE GAIL B","propertyName":null,"zoningCode":null,"zoningDistrict":null,"jurisdictionPrefix":null,"dorCode":null,"acreage":89.29,"centroid":[-81.278276,36.00844],"lastSale":{"date":"2020-11-24","price":null,"qualified":null},"tax":{"marketValue":191156.0,"assessedValue":37192.0,"taxableValue":null,"taxes":null},"mailingAddress":{"line1":"P O BOX 823","line2":null,"city":"STATESVILLE","state":"NC","zip":"28687"},"incomeTract":null,"incomeBlockGroup":null,"nearestRoad":null,"flu":null,"opportunityZone":null,"oz2Eligibility":null,"source":"nc-alexander-parcels-37003","appraiserUrl":"https://maps.alexandercountync.gov/PRC/0006364.html","gisViewerUrl":"https://maps.alexandercountync.gov/maps/"},"geometry":{"type":"Polygon","coordinates":[[[-81.272328,36.008181],[-81.275243,36.010056],[-81.275756,36.010418],[-81.281387,36.010719],[-81.281383,36.010291],[-81.285044,36.006971],[-81.282451,36.004934],[-81.278644,36.008289],[-81.277685,36.007818],[-81.276117,36.008259],[-81.274994,36.006899],[-81.272328,36.008181]]]}},{"type":"Feature","id":"37003:3823720362","properties":{"id":"37003:3823720362","parcelId":"3823720362","countyFips":"37003","countyName":"Alexander","state":"North Carolina","marketIds":["Charlotte"],"situsAddress":"BOONE GAP LN","situsCity":null,"situsZip":null,"jurisdictionCode":null,"ownerName":"POPE C DAVID JR &","ownerName2":"POPE GAIL B","propertyName":null,"zoningCode":null,"zoningDistrict":null,"jurisdictionPrefix":null,"dorCode":null,"acreage":93.73,"centroid":[-81.273178,36.015871],"lastSale":{"date":"2016-12-21","price":null,"qualified":null},"tax":{"marketValue":128192.0,"assessedValue":32832.0,"taxableValue":null,"taxes":null},"mailingAddress":{"line1":"P O BOX 823","line2":null,"city":"STATESVILLE","state":"NC","zip":"28687"},"incomeTract":null,"incomeBlockGroup":null,"nearestRoad":null,"flu":null,"opportunityZone":null,"oz2Eligibility":null,"source":"nc-alexander-parcels-37003","appraiserUrl":"https://maps.alexandercountync.gov/PRC/0066158.html","gisViewerUrl":"https://maps.alexandercountync.gov/maps/"},"geometry":{"type":"Polygon","coordinates":[[[-81.266062,36.017688],[-81.266082,36.018228],[-81.273012,36.017977],[-81.28377,36.015058],[-81.283723,36.013896],[-81.272053,36.014091],[-81.272064,36.014181],[-81.270876,36.014233],[-81.270959,36.017487],[-81.266062,36.017688]]]}},{"type":"Feature","id":"37003:3823944394","properties":{"id":"37003:3823944394","parcelId":"3823944394","countyFips":"37003","countyName":"Alexander","state":"North Carolina","marketIds":["Charlotte"],"situsAddress":"BOONE GAP LN","situsCity":null,"situsZip":null,"jurisdictionCode":null,"ownerName":"THE FORESTLANDS CONSERVATION","ownerName2":"FOUNDATION","propertyName":null,"zoningCode":null,"zoningDistrict":null,"jurisdictionPrefix":null,"dorCode":null,"acreage":89.21,"centroid":[-81.268024,36.021953],"lastSale":{"date":"2025-11-07","price":320000.0,"qualified":null},"tax":{"marketValue":109969.0,"assessedValue":109969.0,"taxableValue":null,"taxes":null},"mailingAddress":{"line1":"13108 WHISPER CREEK DRIVE","line2":null,"city":"CHARLOTTE","state":"NC","zip":"28277"},"incomeTract":null,"incomeBlockGroup":null,"nearestRoad":null,"flu":null,"opportunityZone":null,"oz2Eligibility":null,"source":"nc-alexander-parcels-37003","appraiserUrl":"https://maps.alexandercountync.gov/PRC/0006428.html","gisViewerUrl":"https://maps.alexandercountync.gov/maps/"},"geometry":{"type":"Polygon","coordinates":[[[-81.270818,36.019635],[-81.270489,36.019443],[-81.270289,36.01879],[-81.271751,36.018023],[-81.266082,36.018228],[-81.266356,36.020489],[-81.263273,36.021787],[-81.263017,36.022968],[-81.263252,36.023385],[-81.264265,36.024675],[-81.265189,36.024401],[-81.266464,36.024096],[-81.267071,36.024279],[-81.267751,36.024296],[-81.268474,36.023816],[-81.269119,36.023564],[-81.270202,36.023049],[-81.270671,36.02256],[-81.271131,36.021961],[-81.271443,36.021595],[-81.271394,36.019972],[-81.270818,36.019635]]]}},{"type":"Feature","id":"37003:3823806294","properties":{"id":"37003:3823806294","parcelId":"3823806294","countyFips":"37003","countyName":"Alexander","state":"North Carolina","marketIds":["Charlotte"],"situsAddress":"ALL HEALING SPRINGS RD","situsCity":null,"situsZip":null,"jurisdictionCode":null,"ownerName":"POPE CLAUDE DAVID JR","ownerName2":null,"propertyName":null,"zoningCode":null,"zoningDistrict":null,"jurisdictionPrefix":null,"dorCode":null,"acreage":111.33,"centroid":[-81.270675,36.010421],"lastSale":{"date":"1974-01-01","price":null,"qualified":null},"tax":{"marketValue":215325.0,"assessedValue":42400.0,"taxableValue":null,"taxes":null},"mailingAddress":{"line1":"P O BOX 823","line2":null,"city":"STATESVILLE","state":"NC","zip":"28687"},"incomeTract":null,"incomeBlockGroup":null,"nearestRoad":null,"flu":null,"opportunityZone":null,"oz2Eligibility":null,"source":"nc-alexander-parcels-37003","appraiserUrl":"https://maps.alexandercountync.gov/PRC/0006314.html","gisViewerUrl":"https://maps.alexandercountync.gov/maps/"},"geometry":{"type":"Polygon","coordinates":[[[-81.265062,36.012193],[-81.26559,36.0122],[-81.27581,36.012323],[-81.275756,36.010418],[-81.275243,36.010056],[-81.272328,36.008181],[-81.264938,36.007573],[-81.265062,36.012193]]]}},{"type":"Feature","id":"37003:3823819875","properties":{"id":"37003:3823819875","parcelId":"3823819875","countyFips":"37003","countyName":"Alexander","state":"North Carolina","marketIds":["Charlotte"],"situsAddress":"ALL HEALING SPRINGS RD","situsCity":null,"situsZip":null,"jurisdictionCode":null,"ownerName":"POPE C DAVID JR &","ownerName2":"POPE GAIL B","propertyName":null,"zoningCode":null,"zoningDistrict":null,"jurisdictionPrefix":null,"dorCode":null,"acreage":100.17,"centroid":[-81.270307,36.01457],"lastSale":{"date":"1999-08-01","price":30000.0,"qualified":null},"tax":{"marketValue":204558.0,"assessedValue":40080.0,"taxableValue":null,"taxes":null},"mailingAddress":{"line1":"P O BOX 823","line2":null,"city":"STATESVILLE","state":"NC","zip":"28687"},"incomeTract":null,"incomeBlockGroup":null,"nearestRoad":null,"flu":null,"opportunityZone":null,"oz2Eligibility":null,"source":"nc-alexander-parcels-37003","appraiserUrl":"https://maps.alexandercountync.gov/PRC/0006376.html","gisViewerUrl":"https://maps.alexandercountync.gov/maps/"},"geometry":{"type":"Polygon","coordinates":[[[-81.265062,36.012193],[-81.265002,36.014841],[-81.265072,36.017738],[-81.270959,36.017487],[-81.270876,36.014233],[-81.272064,36.014181],[-81.272053,36.014091],[-81.275861,36.014039],[-81.27581,36.012323],[-81.265062,36.012193]]]}},{"type":"Feature","id":"37003:3833029703","properties":{"id":"37003:3833029703","parcelId":"3833029703","countyFips":"37003","countyName":"Alexander","state":"North Carolina","marketIds":["Charlotte"],"situsAddress":"635 BOONE GAP LN","situsCity":null,"situsZip":null,"jurisdictionCode":null,"ownerName":"ROGERS PRPTY MANAGEMENT CO LLC","ownerName2":null,"propertyName":null,"zoningCode":null,"zoningDistrict":null,"jurisdictionPrefix":null,"dorCode":null,"acreage":102.11,"centroid":[-81.261544,36.017444],"lastSale":{"date":"1999-01-01","price":null,"qualified":null},"tax":{"marketValue":200818.0,"assessedValue":200818.0,"taxableValue":null,"taxes":null},"mailingAddress":{"line1":"3646 WEST OX RD","line2":null,"city":"FAIRFAX","state":"VA","zip":"22033"},"incomeTract":null,"incomeBlockGroup":null,"nearestRoad":null,"flu":null,"opportunityZone":null,"oz2Eligibility":null,"source":"nc-alexander-parcels-37003","appraiserUrl":"https://maps.alexandercountync.gov/PRC/0006453.html","gisViewerUrl":"https://maps.alexandercountync.gov/maps/"},"geometry":{"type":"Polygon","coordinates":[[[-81.259541,36.019201],[-81.25953,36.019237],[-81.260211,36.019866],[-81.260565,36.020099],[-81.261043,36.02007],[-81.261268,36.019963],[-81.262294,36.019645],[-81.262611,36.019762],[-81.262788,36.019895],[-81.263145,36.020357],[-81.263353,36.02049],[-81.263797,36.020644],[-81.264057,36.020811],[-81.264272,36.021043],[-81.264424,36.021114],[-81.264578,36.021242],[-81.266356,36.020489],[-81.266082,36.018228],[-81.266062,36.017688],[-81.265072,36.017738],[-81.265002,36.014841],[-81.265062,36.012193],[-81.26262,36.012264],[-81.262019,36.01309],[-81.262041,36.013402],[-81.262102,36.013676],[-81.262092,36.013947],[-81.261895,36.014203],[-81.261944,36.014686],[-81.26192,36.014979],[-81.261959,36.015179],[-81.262073,36.015328],[-81.261984,36.015521],[-81.261607,36.015734],[-81.260986,36.015681],[-81.260104,36.015441],[-81.259256,36.015898],[-81.25775,36.016637],[-81.257854,36.01679],[-81.257952,36.016888],[-81.258238,36.017029],[-81.258414,36.017177],[-81.258423,36.017187],[-81.258338,36.017234],[-81.258378,36.01736],[-81.258881,36.017694],[-81.259101,36.017882],[-81.259264,36.018672],[-81.259393,36.018937],[-81.259483,36.019051],[-81.259541,36.019201]]]}},{"type":"Feature","id":"37003:3833236827","properties":{"id":"37003:3833236827","parcelId":"3833236827","countyFips":"37003","countyName":"Alexander","state":"North Carolina","marketIds":["Charlotte"],"situsAddress":"BOONE GAP LN","situsCity":null,"situsZip":null,"jurisdictionCode":null,"ownerName":"ROGERS THOMAS EARL","ownerName2":null,"propertyName":null,"zoningCode":null,"zoningDistrict":null,"jurisdictionPrefix":null,"dorCode":null,"acreage":114.81,"centroid":[-81.257804,36.019504],"lastSale":{"date":"2009-10-15","price":null,"qualified":null},"tax":{"marketValue":255124.0,"assessedValue":48805.0,"taxableValue":null,"taxes":null},"mailingAddress":{"line1":"3646 WEST OX RD","line2":null,"city":"FAIRFAX","state":"VA","zip":"22033"},"incomeTract":null,"incomeBlockGroup":null,"nearestRoad":null,"flu":null,"opportunityZone":null,"oz2Eligibility":null,"source":"nc-alexander-parcels-37003","appraiserUrl":"https://maps.alexandercountync.gov/PRC/0006356.html","gisViewerUrl":"https://maps.alexandercountync.gov/maps/"},"geometry":{"type":"Polygon","coordinates":[[[-81.250961,36.01985],[-81.251158,36.0202],[-81.251023,36.020838],[-81.251528,36.021186],[-81.252358,36.021705],[-81.254259,36.021995],[-81.255036,36.022299],[-81.256164,36.022626],[-81.256804,36.022927],[-81.25739,36.022757],[-81.259491,36.022681],[-81.260351,36.02276],[-81.261271,36.022261],[-81.262665,36.022041],[-81.264578,36.021242],[-81.264424,36.021114],[-81.264272,36.021043],[-81.264057,36.020811],[-81.263797,36.020644],[-81.263353,36.02049],[-81.263145,36.020357],[-81.262788,36.019895],[-81.262611,36.019762],[-81.262294,36.019645],[-81.261268,36.019963],[-81.261043,36.02007],[-81.260565,36.020099],[-81.260211,36.019866],[-81.25953,36.019237],[-81.259541,36.019201],[-81.259467,36.019188],[-81.259411,36.01906],[-81.259261,36.018933],[-81.259187,36.01868],[-81.25899,36.018475],[-81.258982,36.018533],[-81.257896,36.018213],[-81.257938,36.018145],[-81.257601,36.017941],[-81.257336,36.017556],[-81.257339,36.017434],[-81.257531,36.017255],[-81.257851,36.017073],[-81.257867,36.017044],[-81.257748,36.016948],[-81.257648,36.016834],[-81.257347,36.016382],[-81.256716,36.016702],[-81.256452,36.017215],[-81.256103,36.017484],[-81.255403,36.017749],[-81.254677,36.017781],[-81.253879,36.017917],[-81.25331,36.017865],[-81.252419,36.01853],[-81.251705,36.018813],[-81.251018,36.018938],[-81.25076,36.019133],[-81.25067,36.019331],[-81.250961,36.01985]]]}}]}