{"type":"FeatureCollection","name":"05035--31_33","features":[{"type":"Feature","id":"05035:100788000000","properties":{"id":"05035:100788000000","parcelId":"100788000000","countyFips":"05035","countyName":"Crittenden","state":"Arkansas","marketIds":["Memphis"],"situsAddress":"ST HWY 184","situsCity":"EARLE","situsZip":"72331","jurisdictionCode":null,"ownerName":"COLD CREEK FARM LLC","ownerName2":null,"propertyName":null,"zoningCode":null,"zoningDistrict":null,"jurisdictionPrefix":null,"dorCode":null,"acreage":101.0184,"centroid":[-90.500504,35.291452],"lastSale":{"date":null,"price":null,"qualified":null},"tax":{"marketValue":105775.0,"assessedValue":null,"taxableValue":null,"taxes":null},"mailingAddress":{"line1":null,"line2":null,"city":null,"state":null,"zip":null},"incomeTract":null,"incomeBlockGroup":null,"nearestRoad":null,"flu":null,"opportunityZone":null,"oz2Eligibility":null,"source":"ar-cadastre-05035"},"geometry":{"type":"Polygon","coordinates":[[[-90.49759,35.29216],[-90.49795,35.29167],[-90.49802,35.29087],[-90.4987,35.29011],[-90.50176,35.28709],[-90.50439,35.2849],[-90.5042,35.29566],[-90.50369,35.29552],[-90.50033,35.29384],[-90.49841,35.2927],[-90.49759,35.29216]]]}},{"type":"Feature","id":"05035:100679000000","properties":{"id":"05035:100679000000","parcelId":"100679000000","countyFips":"05035","countyName":"Crittenden","state":"Arkansas","marketIds":["Memphis"],"situsAddress":"ST HWY 184","situsCity":"EARLE","situsZip":"72331","jurisdictionCode":null,"ownerName":"RICHARDS AMY H & HUMPHRIES MARSHALL ACY JR","ownerName2":null,"propertyName":null,"zoningCode":null,"zoningDistrict":null,"jurisdictionPrefix":null,"dorCode":null,"acreage":80.2624,"centroid":[-90.50183,35.299388],"lastSale":{"date":null,"price":null,"qualified":null},"tax":{"marketValue":89230.0,"assessedValue":null,"taxableValue":null,"taxes":null},"mailingAddress":{"line1":null,"line2":null,"city":null,"state":null,"zip":null},"incomeTract":null,"incomeBlockGroup":null,"nearestRoad":null,"flu":null,"opportunityZone":null,"oz2Eligibility":null,"source":"ar-cadastre-05035"},"geometry":{"type":"Polygon","coordinates":[[[-90.49966,35.29578],[-90.50417,35.29585],[-90.50402,35.30298],[-90.49947,35.30294],[-90.49966,35.29578]]]}},{"type":"Feature","id":"05035:100968000000","properties":{"id":"05035:100968000000","parcelId":"100968000000","countyFips":"05035","countyName":"Crittenden","state":"Arkansas","marketIds":["Memphis"],"situsAddress":"HESTER PARKER RD","situsCity":"TYRONZA","situsZip":"72386","jurisdictionCode":null,"ownerName":"RATTON DIANA LYNN ET AL","ownerName2":null,"propertyName":null,"zoningCode":null,"zoningDistrict":null,"jurisdictionPrefix":null,"dorCode":null,"acreage":7.5076,"centroid":[-90.501385,35.440805],"lastSale":{"date":null,"price":null,"qualified":null},"tax":{"marketValue":2860.0,"assessedValue":null,"taxableValue":null,"taxes":null},"mailingAddress":{"line1":null,"line2":null,"city":null,"state":null,"zip":null},"incomeTract":null,"incomeBlockGroup":null,"nearestRoad":null,"flu":null,"opportunityZone":null,"oz2Eligibility":null,"source":"ar-cadastre-05035"},"geometry":{"type":"Polygon","coordinates":[[[-90.4998,35.44163],[-90.50102,35.44045],[-90.50237,35.43949],[-90.50235,35.44165],[-90.4998,35.44163]]]}}]}