{"type":"FeatureCollection","name":"orlando-12119-2_7","features":[{"type":"Feature","id":"12119:A02-002","properties":{"id":"12119:A02-002","parcelId":"A02-002","countyFips":"12119","countyName":"Sumter","state":"Florida","marketIds":["Orlando"],"situsAddress":null,"situsCity":"Lake Panasoffkee","situsZip":"33538","jurisdictionCode":null,"ownerName":"WESTROCK LLC","ownerName2":null,"propertyName":null,"zoningCode":"A10C","zoningDistrict":"140","jurisdictionPrefix":null,"dorCode":"060","acreage":120.6693,"acreageSource":"swfwmd-areano","centroid":[-82.271195,28.952917],"lastSale":{"date":null,"price":null,"qualified":null},"tax":{"marketValue":441190.0,"assessedValue":6250.0,"taxableValue":null,"taxes":null},"mailingAddress":{"line1":"1306 WEST KENNEDY BLVD","line2":null,"city":"TAMPA","state":"FL","zip":"33606"},"incomeTract":null,"incomeBlockGroup":null,"nearestRoad":null,"flu":{"code":"CON","label":"20.0","jurisdiction":"Sumter","source":"sumter-flu-5"},"opportunityZone":null,"oz2Eligibility":{"eligible":true,"rural":true,"tractGeoid":"12119911500","tractName":"Census Tract 9115","designation":"eligible-for-nomination","source":"rev-proc-2026-14"},"appraiserUrl":"https://app.sumterpa.com/gis/D_ShowDetail.html?KEY=A02-002&PIN=A02-002","source":"swfwmd-sumter-parcels-12119","dataGaps":["Acreage band is SWFWMD AREANO from 5.0 through 150.0. The ACRES field on that layer is empty and is not used. This replaces the Orlando DOH sample. Tampa's separate DOH Sumter tiles are unchanged.","Owner, mailing, situs, market value (PARVAL when PARVALTYPE is MARKET), assessed value (ASSD_TOT), and DOR use code come from the SWFWMD parcel mirror. Taxable value and a tax bill are not on that layer.","Qualified sales join on PIN from the property-appraiser 2026 sales layer. That layer has price and a qualified flag, not a sale date. The flag is stored and is not used to drop sales. A SWFWMD sale date is kept when the mirror has one.","Zoning and FLU are centroid joins to the county FLU_Zoning service when that host answers. The county GIS TLS handshake is flaky; a failure leaves zoning and FLU empty rather than failing the extract.","Sumter zoning and FLU codes are not in the Orange zoning or FLU knowledge base, so multifamily filters treat them as unknown.","The Georgia Sumter parcel service is not used. The appraiser link is PALINK on the SWFWMD feature."]},"geometry":{"type":"Polygon","coordinates":[[[-82.272649,28.945261],[-82.269736,28.94526],[-82.269699,28.960564],[-82.272694,28.960585],[-82.272649,28.945261]]]}},{"type":"Feature","id":"12119:A02-003","properties":{"id":"12119:A02-003","parcelId":"A02-003","countyFips":"12119","countyName":"Sumter","state":"Florida","marketIds":["Orlando"],"situsAddress":null,"situsCity":"Lake Panasoffkee","situsZip":"33538","jurisdictionCode":null,"ownerName":"WESTROCK LLC","ownerName2":null,"propertyName":null,"zoningCode":"A10C","zoningDistrict":"140","jurisdictionPrefix":null,"dorCode":"060","acreage":61.4208,"acreageSource":"swfwmd-areano","centroid":[-82.272967,28.959507],"lastSale":{"date":null,"price":null,"qualified":null},"tax":{"marketValue":244750.0,"assessedValue":5410.0,"taxableValue":null,"taxes":null},"mailingAddress":{"line1":"1306 WEST KENNEDY BLVD","line2":null,"city":"TAMPA","state":"FL","zip":"33606"},"incomeTract":null,"incomeBlockGroup":null,"nearestRoad":null,"flu":{"code":"AGR","label":"10.0","jurisdiction":"Sumter","source":"sumter-flu-5"},"opportunityZone":null,"oz2Eligibility":{"eligible":true,"rural":true,"tractGeoid":"12119911500","tractName":"Census Tract 9115","designation":"eligible-for-nomination","source":"rev-proc-2026-14"},"appraiserUrl":"https://app.sumterpa.com/gis/D_ShowDetail.html?KEY=A02-003&PIN=A02-003","source":"swfwmd-sumter-parcels-12119","dataGaps":["Acreage band is SWFWMD AREANO from 5.0 through 150.0. The ACRES field on that layer is empty and is not used. This replaces the Orlando DOH sample. Tampa's separate DOH Sumter tiles are unchanged.","Owner, mailing, situs, market value (PARVAL when PARVALTYPE is MARKET), assessed value (ASSD_TOT), and DOR use code come from the SWFWMD parcel mirror. Taxable value and a tax bill are not on that layer.","Qualified sales join on PIN from the property-appraiser 2026 sales layer. That layer has price and a qualified flag, not a sale date. The flag is stored and is not used to drop sales. A SWFWMD sale date is kept when the mirror has one.","Zoning and FLU are centroid joins to the county FLU_Zoning service when that host answers. The county GIS TLS handshake is flaky; a failure leaves zoning and FLU empty rather than failing the extract.","Sumter zoning and FLU codes are not in the Orange zoning or FLU knowledge base, so multifamily filters treat them as unknown.","The Georgia Sumter parcel service is not used. The appraiser link is PALINK on the SWFWMD feature."]},"geometry":{"type":"Polygon","coordinates":[[[-82.272694,28.960585],[-82.274732,28.960599],[-82.275592,28.960605],[-82.275054,28.958506],[-82.273864,28.955555],[-82.27384,28.945256],[-82.272649,28.945261],[-82.272694,28.960585]]]}},{"type":"Feature","id":"12119:A04-001","properties":{"id":"12119:A04-001","parcelId":"A04-001","countyFips":"12119","countyName":"Sumter","state":"Florida","marketIds":["Orlando"],"situsAddress":null,"situsCity":"Lake Panasoffkee","situsZip":"33538","jurisdictionCode":null,"ownerName":"DRAKE RANCH PARTNERSHIP","ownerName2":null,"propertyName":null,"zoningCode":"A10C","zoningDistrict":"140","jurisdictionPrefix":null,"dorCode":"060","acreage":114.233,"acreageSource":"swfwmd-areano","centroid":[-82.307358,28.956069],"lastSale":{"date":null,"price":null,"qualified":null},"tax":{"marketValue":456920.0,"assessedValue":3430.0,"taxableValue":null,"taxes":null},"mailingAddress":{"line1":"1224 SE FORT KING ST","line2":null,"city":"OCALA","state":"FL","zip":"34471"},"incomeTract":null,"incomeBlockGroup":null,"nearestRoad":null,"flu":{"code":"AGR","label":"10.0","jurisdiction":"Sumter","source":"sumter-flu-5"},"opportunityZone":null,"oz2Eligibility":{"eligible":true,"rural":true,"tractGeoid":"12119911500","tractName":"Census Tract 9115","designation":"eligible-for-nomination","source":"rev-proc-2026-14"},"appraiserUrl":"https://app.sumterpa.com/gis/D_ShowDetail.html?KEY=A04-001&PIN=A04-001","source":"swfwmd-sumter-parcels-12119","dataGaps":["Acreage band is SWFWMD AREANO from 5.0 through 150.0. The ACRES field on that layer is empty and is not used. This replaces the Orlando DOH sample. Tampa's separate DOH Sumter tiles are unchanged.","Owner, mailing, situs, market value (PARVAL when PARVALTYPE is MARKET), assessed value (ASSD_TOT), and DOR use code come from the SWFWMD parcel mirror. Taxable value and a tax bill are not on that layer.","Qualified sales join on PIN from the property-appraiser 2026 sales layer. That layer has price and a qualified flag, not a sale date. The flag is stored and is not used to drop sales. A SWFWMD sale date is kept when the mirror has one.","Zoning and FLU are centroid joins to the county FLU_Zoning service when that host answers. The county GIS TLS handshake is flaky; a failure leaves zoning and FLU empty rather than failing the extract.","Sumter zoning and FLU codes are not in the Orange zoning or FLU knowledge base, so multifamily filters treat them as unknown.","The Georgia Sumter parcel service is not used. The appraiser link is PALINK on the SWFWMD feature."]},"geometry":{"type":"Polygon","coordinates":[[[-82.303238,28.960655],[-82.311212,28.960642],[-82.311193,28.959903],[-82.311045,28.958756],[-82.310786,28.958276],[-82.310142,28.958079],[-82.309201,28.957501],[-82.308637,28.956898],[-82.308277,28.956364],[-82.308274,28.955636],[-82.307727,28.95517],[-82.306961,28.955035],[-82.30657,28.954596],[-82.306225,28.954171],[-82.305052,28.953378],[-82.304692,28.952898],[-82.304019,28.952419],[-82.303379,28.952448],[-82.303181,28.952494],[-82.303238,28.960655]]]}},{"type":"Feature","id":"12119:A10-001","properties":{"id":"12119:A10-001","parcelId":"A10-001","countyFips":"12119","countyName":"Sumter","state":"Florida","marketIds":["Orlando"],"situsAddress":null,"situsCity":"Lake Panasoffkee","situsZip":"33538","jurisdictionCode":null,"ownerName":"DRAKE RANCH PARTNERSHIP","ownerName2":null,"propertyName":null,"zoningCode":"A10C","zoningDistrict":"140","jurisdictionPrefix":null,"dorCode":"060","acreage":118.7063,"acreageSource":"swfwmd-areano","centroid":[-82.292263,28.937926],"lastSale":{"date":null,"price":null,"qualified":null},"tax":{"marketValue":381120.0,"assessedValue":4490.0,"taxableValue":null,"taxes":null},"mailingAddress":{"line1":"1224 SE FORT KING ST","line2":null,"city":"OCALA","state":"FL","zip":"34471"},"incomeTract":null,"incomeBlockGroup":null,"nearestRoad":null,"flu":{"code":"CON","label":"20.0","jurisdiction":"Sumter","source":"sumter-flu-5"},"opportunityZone":null,"oz2Eligibility":{"eligible":true,"rural":true,"tractGeoid":"12119911500","tractName":"Census Tract 9115","designation":"eligible-for-nomination","source":"rev-proc-2026-14"},"appraiserUrl":"https://app.sumterpa.com/gis/D_ShowDetail.html?KEY=A10-001&PIN=A10-001","source":"swfwmd-sumter-parcels-12119","dataGaps":["Acreage band is SWFWMD AREANO from 5.0 through 150.0. The ACRES field on that layer is empty and is not used. This replaces the Orlando DOH sample. Tampa's separate DOH Sumter tiles are unchanged.","Owner, mailing, situs, market value (PARVAL when PARVALTYPE is MARKET), assessed value (ASSD_TOT), and DOR use code come from the SWFWMD parcel mirror. Taxable value and a tax bill are not on that layer.","Qualified sales join on PIN from the property-appraiser 2026 sales layer. That layer has price and a qualified flag, not a sale date. The flag is stored and is not used to drop sales. A SWFWMD sale date is kept when the mirror has one.","Zoning and FLU are centroid joins to the county FLU_Zoning service when that host answers. The county GIS TLS handshake is flaky; a failure leaves zoning and FLU empty rather than failing the extract.","Sumter zoning and FLU codes are not in the Orange zoning or FLU knowledge base, so multifamily filters treat them as unknown.","The Georgia Sumter parcel service is not used. The appraiser link is PALINK on the SWFWMD feature."]},"geometry":{"type":"Polygon","coordinates":[[[-82.292903,28.942274],[-82.29298,28.942326],[-82.293206,28.941739],[-82.293194,28.941497],[-82.293765,28.941386],[-82.293947,28.941406],[-82.294094,28.940889],[-82.29457,28.940354],[-82.294566,28.93973],[-82.294764,28.939487],[-82.295324,28.938613],[-82.295215,28.938383],[-82.295018,28.938256],[-82.294473,28.938186],[-82.293535,28.937466],[-82.293208,28.937342],[-82.292584,28.93733],[-82.291279,28.936939],[-82.290017,28.935834],[-82.289492,28.934536],[-82.288967,28.933162],[-82.288355,28.931751],[-82.288266,28.93071],[-82.286437,28.930718],[-82.286421,28.937841],[-82.292903,28.942274]]]}},{"type":"Feature","id":"12119:A10-002","properties":{"id":"12119:A10-002","parcelId":"A10-002","countyFips":"12119","countyName":"Sumter","state":"Florida","marketIds":["Orlando"],"situsAddress":null,"situsCity":"Lake Panasoffkee","situsZip":"33538","jurisdictionCode":null,"ownerName":"DRAKE RANCH PARTNERSHIP","ownerName2":null,"propertyName":null,"zoningCode":"A10C","zoningDistrict":"140","jurisdictionPrefix":null,"dorCode":"060","acreage":95.1577,"acreageSource":"swfwmd-areano","centroid":[-82.290715,28.942703],"lastSale":{"date":null,"price":null,"qualified":null},"tax":{"marketValue":303930.0,"assessedValue":3290.0,"taxableValue":null,"taxes":null},"mailingAddress":{"line1":"1224 SE FORT KING ST","line2":null,"city":"OCALA","state":"FL","zip":"34471"},"incomeTract":null,"incomeBlockGroup":null,"nearestRoad":null,"flu":{"code":"AGR","label":"10.0","jurisdiction":"Sumter","source":"sumter-flu-5"},"opportunityZone":null,"oz2Eligibility":{"eligible":true,"rural":true,"tractGeoid":"12119911500","tractName":"Census Tract 9115","designation":"eligible-for-nomination","source":"rev-proc-2026-14"},"appraiserUrl":"https://app.sumterpa.com/gis/D_ShowDetail.html?KEY=A10-002&PIN=A10-002","source":"swfwmd-sumter-parcels-12119","dataGaps":["Acreage band is SWFWMD AREANO from 5.0 through 150.0. The ACRES field on that layer is empty and is not used. This replaces the Orlando DOH sample. Tampa's separate DOH Sumter tiles are unchanged.","Owner, mailing, situs, market value (PARVAL when PARVALTYPE is MARKET), assessed value (ASSD_TOT), and DOR use code come from the SWFWMD parcel mirror. Taxable value and a tax bill are not on that layer.","Qualified sales join on PIN from the property-appraiser 2026 sales layer. That layer has price and a qualified flag, not a sale date. The flag is stored and is not used to drop sales. A SWFWMD sale date is kept when the mirror has one.","Zoning and FLU are centroid joins to the county FLU_Zoning service when that host answers. The county GIS TLS handshake is flaky; a failure leaves zoning and FLU empty rather than failing the extract.","Sumter zoning and FLU codes are not in the Orange zoning or FLU knowledge base, so multifamily filters treat them as unknown.","The Georgia Sumter parcel service is not used. The appraiser link is PALINK on the SWFWMD feature."]},"geometry":{"type":"Polygon","coordinates":[[[-82.286421,28.937841],[-82.286405,28.945169],[-82.293926,28.945145],[-82.29392,28.943086],[-82.292903,28.942274],[-82.286421,28.937841]]]}},{"type":"Feature","id":"12119:A12-001","properties":{"id":"12119:A12-001","parcelId":"A12-001","countyFips":"12119","countyName":"Sumter","state":"Florida","marketIds":["Orlando"],"situsAddress":null,"situsCity":"Lake Panasoffkee","situsZip":"33538","jurisdictionCode":null,"ownerName":"DRAKE RANCH","ownerName2":null,"propertyName":null,"zoningCode":"A10C","zoningDistrict":"140","jurisdictionPrefix":null,"dorCode":"060","acreage":29.4923,"acreageSource":"swfwmd-areano","centroid":[-82.259515,28.941353],"lastSale":{"date":null,"price":null,"qualified":null},"tax":{"marketValue":120450.0,"assessedValue":3280.0,"taxableValue":null,"taxes":null},"mailingAddress":{"line1":"1224 SE FORT KING ST","line2":null,"city":"OCALA","state":"FL","zip":"34471"},"incomeTract":null,"incomeBlockGroup":null,"nearestRoad":null,"flu":{"code":"AGR","label":"10.0","jurisdiction":"Sumter","source":"sumter-flu-5"},"opportunityZone":null,"oz2Eligibility":{"eligible":true,"rural":true,"tractGeoid":"12119911500","tractName":"Census Tract 9115","designation":"eligible-for-nomination","source":"rev-proc-2026-14"},"appraiserUrl":"https://app.sumterpa.com/gis/D_ShowDetail.html?KEY=A12-001&PIN=A12-001","source":"swfwmd-sumter-parcels-12119","dataGaps":["Acreage band is SWFWMD AREANO from 5.0 through 150.0. The ACRES field on that layer is empty and is not used. This replaces the Orlando DOH sample. Tampa's separate DOH Sumter tiles are unchanged.","Owner, mailing, situs, market value (PARVAL when PARVALTYPE is MARKET), assessed value (ASSD_TOT), and DOR use code come from the SWFWMD parcel mirror. Taxable value and a tax bill are not on that layer.","Qualified sales join on PIN from the property-appraiser 2026 sales layer. That layer has price and a qualified flag, not a sale date. The flag is stored and is not used to drop sales. A SWFWMD sale date is kept when the mirror has one.","Zoning and FLU are centroid joins to the county FLU_Zoning service when that host answers. The county GIS TLS handshake is flaky; a failure leaves zoning and FLU empty rather than failing the extract.","Sumter zoning and FLU codes are not in the Orange zoning or FLU knowledge base, so multifamily filters treat them as unknown.","The Georgia Sumter parcel service is not used. The appraiser link is PALINK on the SWFWMD feature."]},"geometry":{"type":"Polygon","coordinates":[[[-82.25703,28.941266],[-82.258777,28.942558],[-82.260351,28.942876],[-82.260666,28.942698],[-82.260753,28.937365],[-82.25703,28.941266]]]}},{"type":"Feature","id":"12119:A12-003","properties":{"id":"12119:A12-003","parcelId":"A12-003","countyFips":"12119","countyName":"Sumter","state":"Florida","marketIds":["Orlando"],"situsAddress":null,"situsCity":"Lake Panasoffkee","situsZip":"33538","jurisdictionCode":null,"ownerName":"FARRIOR INVESTMENTS LTD","ownerName2":null,"propertyName":null,"zoningCode":"RR5C","zoningDistrict":"170","jurisdictionPrefix":null,"dorCode":"060","acreage":10.0312,"acreageSource":"swfwmd-areano","centroid":[-82.255293,28.94476],"lastSale":{"date":null,"price":null,"qualified":null},"tax":{"marketValue":90000.0,"assessedValue":300.0,"taxableValue":null,"taxes":null},"mailingAddress":{"line1":"1306 W KENNEDY BLVD","line2":null,"city":"TAMPA","state":"FL","zip":"33606"},"incomeTract":null,"incomeBlockGroup":null,"nearestRoad":null,"flu":{"code":"AGR","label":"10.0","jurisdiction":"Sumter","source":"sumter-flu-5"},"opportunityZone":null,"oz2Eligibility":{"eligible":true,"rural":true,"tractGeoid":"12119911500","tractName":"Census Tract 9115","designation":"eligible-for-nomination","source":"rev-proc-2026-14"},"appraiserUrl":"https://app.sumterpa.com/gis/D_ShowDetail.html?KEY=A12-003&PIN=A12-003","source":"swfwmd-sumter-parcels-12119","dataGaps":["Acreage band is SWFWMD AREANO from 5.0 through 150.0. The ACRES field on that layer is empty and is not used. This replaces the Orlando DOH sample. Tampa's separate DOH Sumter tiles are unchanged.","Owner, mailing, situs, market value (PARVAL when PARVALTYPE is MARKET), assessed value (ASSD_TOT), and DOR use code come from the SWFWMD parcel mirror. Taxable value and a tax bill are not on that layer.","Qualified sales join on PIN from the property-appraiser 2026 sales layer. That layer has price and a qualified flag, not a sale date. The flag is stored and is not used to drop sales. A SWFWMD sale date is kept when the mirror has one.","Zoning and FLU are centroid joins to the county FLU_Zoning service when that host answers. The county GIS TLS handshake is flaky; a failure leaves zoning and FLU empty rather than failing the extract.","Sumter zoning and FLU codes are not in the Orange zoning or FLU knowledge base, so multifamily filters treat them as unknown.","The Georgia Sumter parcel service is not used. The appraiser link is PALINK on the SWFWMD feature."]},"geometry":{"type":"Polygon","coordinates":[[[-82.255142,28.943244],[-82.253104,28.945377],[-82.256462,28.945356],[-82.256465,28.945062],[-82.255142,28.943244]]]}},{"type":"Feature","id":"12119:A12-006","properties":{"id":"12119:A12-006","parcelId":"A12-006","countyFips":"12119","countyName":"Sumter","state":"Florida","marketIds":["Orlando"],"situsAddress":null,"situsCity":"Lake Panasoffkee","situsZip":"33538","jurisdictionCode":null,"ownerName":"WESTROCK LLC","ownerName2":null,"propertyName":null,"zoningCode":"A10C","zoningDistrict":"140","jurisdictionPrefix":null,"dorCode":"060","acreage":69.9578,"acreageSource":"swfwmd-areano","centroid":[-82.259714,28.943847],"lastSale":{"date":null,"price":null,"qualified":null},"tax":{"marketValue":252110.0,"assessedValue":5430.0,"taxableValue":null,"taxes":null},"mailingAddress":{"line1":"1306 WEST KENNEDY BLVD","line2":null,"city":"TAMPA","state":"FL","zip":"33606"},"incomeTract":null,"incomeBlockGroup":null,"nearestRoad":null,"flu":{"code":"CON","label":"20.0","jurisdiction":"Sumter","source":"sumter-flu-5"},"opportunityZone":null,"oz2Eligibility":{"eligible":true,"rural":true,"tractGeoid":"12119911500","tractName":"Census Tract 9115","designation":"eligible-for-nomination","source":"rev-proc-2026-14"},"appraiserUrl":"https://app.sumterpa.com/gis/D_ShowDetail.html?KEY=A12-006&PIN=A12-006","source":"swfwmd-sumter-parcels-12119","dataGaps":["Acreage band is SWFWMD AREANO from 5.0 through 150.0. The ACRES field on that layer is empty and is not used. This replaces the Orlando DOH sample. Tampa's separate DOH Sumter tiles are unchanged.","Owner, mailing, situs, market value (PARVAL when PARVALTYPE is MARKET), assessed value (ASSD_TOT), and DOR use code come from the SWFWMD parcel mirror. Taxable value and a tax bill are not on that layer.","Qualified sales join on PIN from the property-appraiser 2026 sales layer. That layer has price and a qualified flag, not a sale date. The flag is stored and is not used to drop sales. A SWFWMD sale date is kept when the mirror has one.","Zoning and FLU are centroid joins to the county FLU_Zoning service when that host answers. The county GIS TLS handshake is flaky; a failure leaves zoning and FLU empty rather than failing the extract.","Sumter zoning and FLU codes are not in the Orange zoning or FLU knowledge base, so multifamily filters treat them as unknown.","The Georgia Sumter parcel service is not used. The appraiser link is PALINK on the SWFWMD feature."]},"geometry":{"type":"Polygon","coordinates":[[[-82.255142,28.943244],[-82.256463,28.945059],[-82.256462,28.945356],[-82.267436,28.945289],[-82.266686,28.944155],[-82.258777,28.942558],[-82.25703,28.941266],[-82.255142,28.943244]]]}},{"type":"Feature","id":"12119:A13-002","properties":{"id":"12119:A13-002","parcelId":"A13-002","countyFips":"12119","countyName":"Sumter","state":"Florida","marketIds":["Orlando"],"situsAddress":null,"situsCity":"Lake Panasoffkee","situsZip":"33538","jurisdictionCode":null,"ownerName":"DRAKE RANCH PARTNERSHIP","ownerName2":null,"propertyName":null,"zoningCode":"A10C","zoningDistrict":"140","jurisdictionPrefix":null,"dorCode":"060","acreage":17.7726,"acreageSource":"swfwmd-areano","centroid":[-82.269165,28.930353],"lastSale":{"date":null,"price":null,"qualified":null},"tax":{"marketValue":52810.0,"assessedValue":710.0,"taxableValue":null,"taxes":null},"mailingAddress":{"line1":"1224 SE FORT KING ST","line2":null,"city":"OCALA","state":"FL","zip":"34471"},"incomeTract":null,"incomeBlockGroup":null,"nearestRoad":null,"flu":{"code":"CON","label":"20.0","jurisdiction":"Sumter","source":"sumter-flu-5"},"opportunityZone":null,"oz2Eligibility":{"eligible":true,"rural":true,"tractGeoid":"12119911500","tractName":"Census Tract 9115","designation":"eligible-for-nomination","source":"rev-proc-2026-14"},"appraiserUrl":"https://app.sumterpa.com/gis/D_ShowDetail.html?KEY=A13-002&PIN=A13-002","source":"swfwmd-sumter-parcels-12119","dataGaps":["Acreage band is SWFWMD AREANO from 5.0 through 150.0. The ACRES field on that layer is empty and is not used. This replaces the Orlando DOH sample. Tampa's separate DOH Sumter tiles are unchanged.","Owner, mailing, situs, market value (PARVAL when PARVALTYPE is MARKET), assessed value (ASSD_TOT), and DOR use code come from the SWFWMD parcel mirror. Taxable value and a tax bill are not on that layer.","Qualified sales join on PIN from the property-appraiser 2026 sales layer. That layer has price and a qualified flag, not a sale date. The flag is stored and is not used to drop sales. A SWFWMD sale date is kept when the mirror has one.","Zoning and FLU are centroid joins to the county FLU_Zoning service when that host answers. The county GIS TLS handshake is flaky; a failure leaves zoning and FLU empty rather than failing the extract.","Sumter zoning and FLU codes are not in the Orange zoning or FLU knowledge base, so multifamily filters treat them as unknown.","The Georgia Sumter parcel service is not used. The appraiser link is PALINK on the SWFWMD feature."]},"geometry":{"type":"Polygon","coordinates":[[[-82.270039,28.931016],[-82.270036,28.927644],[-82.266538,28.931304],[-82.270048,28.931446],[-82.270039,28.931016]]]}},{"type":"Feature","id":"12119:A13-006","properties":{"id":"12119:A13-006","parcelId":"A13-006","countyFips":"12119","countyName":"Sumter","state":"Florida","marketIds":["Orlando"],"situsAddress":null,"situsCity":"Lake Panasoffkee","situsZip":"33538","jurisdictionCode":null,"ownerName":"SWFWMD","ownerName2":null,"propertyName":null,"zoningCode":"A10C","zoningDistrict":"140","jurisdictionPrefix":null,"dorCode":"080","acreage":77.2941,"acreageSource":"swfwmd-areano","centroid":[-82.266839,28.917633],"lastSale":{"date":null,"price":null,"qualified":null},"tax":{"marketValue":102660.0,"assessedValue":102660.0,"taxableValue":null,"taxes":null},"mailingAddress":{"line1":"2379 BROAD ST","line2":null,"city":"BROOKSVILLE","state":"FL","zip":"34604"},"incomeTract":null,"incomeBlockGroup":null,"nearestRoad":null,"flu":{"code":"CON","label":"20.0","jurisdiction":"Sumter","source":"sumter-flu-5"},"opportunityZone":null,"oz2Eligibility":{"eligible":true,"rural":true,"tractGeoid":"12119911500","tractName":"Census Tract 9115","designation":"eligible-for-nomination","source":"rev-proc-2026-14"},"appraiserUrl":"https://app.sumterpa.com/gis/D_ShowDetail.html?KEY=A13-006&PIN=A13-006","source":"swfwmd-sumter-parcels-12119","dataGaps":["Acreage band is SWFWMD AREANO from 5.0 through 150.0. The ACRES field on that layer is empty and is not used. This replaces the Orlando DOH sample. Tampa's separate DOH Sumter tiles are unchanged.","Owner, mailing, situs, market value (PARVAL when PARVALTYPE is MARKET), assessed value (ASSD_TOT), and DOR use code come from the SWFWMD parcel mirror. Taxable value and a tax bill are not on that layer.","Qualified sales join on PIN from the property-appraiser 2026 sales layer. That layer has price and a qualified flag, not a sale date. The flag is stored and is not used to drop sales. A SWFWMD sale date is kept when the mirror has one.","Zoning and FLU are centroid joins to the county FLU_Zoning service when that host answers. The county GIS TLS handshake is flaky; a failure leaves zoning and FLU empty rather than failing the extract.","Sumter zoning and FLU codes are not in the Orange zoning or FLU knowledge base, so multifamily filters treat them as unknown.","The Georgia Sumter parcel service is not used. The appraiser link is PALINK on the SWFWMD feature."]},"geometry":{"type":"Polygon","coordinates":[[[-82.26943,28.9161],[-82.262378,28.916124],[-82.262405,28.919885],[-82.27,28.919953],[-82.269983,28.916101],[-82.26943,28.9161]]]}},{"type":"Feature","id":"12119:A14-002","properties":{"id":"12119:A14-002","parcelId":"A14-002","countyFips":"12119","countyName":"Sumter","state":"Florida","marketIds":["Orlando"],"situsAddress":null,"situsCity":"Lake Panasoffkee","situsZip":"33538","jurisdictionCode":null,"ownerName":"SWFWMD","ownerName2":null,"propertyName":null,"zoningCode":"A10C","zoningDistrict":"140","jurisdictionPrefix":null,"dorCode":"080","acreage":85.0337,"acreageSource":"swfwmd-areano","centroid":[-82.273286,28.917678],"lastSale":{"date":null,"price":null,"qualified":null},"tax":{"marketValue":112940.0,"assessedValue":112940.0,"taxableValue":null,"taxes":null},"mailingAddress":{"line1":"2379 BROAD ST","line2":null,"city":"BROOKSVILLE","state":"FL","zip":"34604"},"incomeTract":null,"incomeBlockGroup":null,"nearestRoad":null,"flu":{"code":"CON","label":"20.0","jurisdiction":"Sumter","source":"sumter-flu-5"},"opportunityZone":null,"oz2Eligibility":{"eligible":true,"rural":true,"tractGeoid":"12119911500","tractName":"Census Tract 9115","designation":"eligible-for-nomination","source":"rev-proc-2026-14"},"appraiserUrl":"https://app.sumterpa.com/gis/D_ShowDetail.html?KEY=A14-002&PIN=A14-002","source":"swfwmd-sumter-parcels-12119","dataGaps":["Acreage band is SWFWMD AREANO from 5.0 through 150.0. The ACRES field on that layer is empty and is not used. This replaces the Orlando DOH sample. Tampa's separate DOH Sumter tiles are unchanged.","Owner, mailing, situs, market value (PARVAL when PARVALTYPE is MARKET), assessed value (ASSD_TOT), and DOR use code come from the SWFWMD parcel mirror. Taxable value and a tax bill are not on that layer.","Qualified sales join on PIN from the property-appraiser 2026 sales layer. That layer has price and a qualified flag, not a sale date. The flag is stored and is not used to drop sales. A SWFWMD sale date is kept when the mirror has one.","Zoning and FLU are centroid joins to the county FLU_Zoning service when that host answers. The county GIS TLS handshake is flaky; a failure leaves zoning and FLU empty rather than failing the extract.","Sumter zoning and FLU codes are not in the Orange zoning or FLU knowledge base, so multifamily filters treat them as unknown.","The Georgia Sumter parcel service is not used. The appraiser link is PALINK on the SWFWMD feature."]},"geometry":{"type":"Polygon","coordinates":[[[-82.269983,28.916106],[-82.269984,28.916195],[-82.27,28.919953],[-82.278234,28.920008],[-82.278229,28.91613],[-82.269983,28.916106]]]}},{"type":"Feature","id":"12119:A15-001","properties":{"id":"12119:A15-001","parcelId":"A15-001","countyFips":"12119","countyName":"Sumter","state":"Florida","marketIds":["Orlando"],"situsAddress":null,"situsCity":"Lake Panasoffkee","situsZip":"33538","jurisdictionCode":null,"ownerName":"DRAKE RANCH PARTNERSHIP","ownerName2":null,"propertyName":null,"zoningCode":"A10C","zoningDistrict":"140","jurisdictionPrefix":null,"dorCode":"060","acreage":15.5873,"acreageSource":"swfwmd-areano","centroid":[-82.287543,28.928843],"lastSale":{"date":null,"price":null,"qualified":null},"tax":{"marketValue":106010.0,"assessedValue":470.0,"taxableValue":null,"taxes":null},"mailingAddress":{"line1":"1224 SE FORT KING ST","line2":null,"city":"OCALA","state":"FL","zip":"34471"},"incomeTract":null,"incomeBlockGroup":null,"nearestRoad":null,"flu":{"code":"CON","label":"20.0","jurisdiction":"Sumter","source":"sumter-flu-5"},"opportunityZone":null,"oz2Eligibility":{"eligible":true,"rural":true,"tractGeoid":"12119911500","tractName":"Census Tract 9115","designation":"eligible-for-nomination","source":"rev-proc-2026-14"},"appraiserUrl":"https://app.sumterpa.com/gis/D_ShowDetail.html?KEY=A15-001&PIN=A15-001","source":"swfwmd-sumter-parcels-12119","dataGaps":["Acreage band is SWFWMD AREANO from 5.0 through 150.0. The ACRES field on that layer is empty and is not used. This replaces the Orlando DOH sample. Tampa's separate DOH Sumter tiles are unchanged.","Owner, mailing, situs, market value (PARVAL when PARVALTYPE is MARKET), assessed value (ASSD_TOT), and DOR use code come from the SWFWMD parcel mirror. Taxable value and a tax bill are not on that layer.","Qualified sales join on PIN from the property-appraiser 2026 sales layer. That layer has price and a qualified flag, not a sale date. The flag is stored and is not used to drop sales. A SWFWMD sale date is kept when the mirror has one.","Zoning and FLU are centroid joins to the county FLU_Zoning service when that host answers. The county GIS TLS handshake is flaky; a failure leaves zoning and FLU empty rather than failing the extract.","Sumter zoning and FLU codes are not in the Orange zoning or FLU knowledge base, so multifamily filters treat them as unknown.","The Georgia Sumter parcel service is not used. The appraiser link is PALINK on the SWFWMD feature."]},"geometry":{"type":"Polygon","coordinates":[[[-82.286446,28.927113],[-82.286437,28.930718],[-82.288266,28.93071],[-82.288349,28.929573],[-82.288304,28.928962],[-82.28765,28.927741],[-82.287347,28.927084],[-82.286446,28.927113]]]}},{"type":"Feature","id":"12119:A25-001","properties":{"id":"12119:A25-001","parcelId":"A25-001","countyFips":"12119","countyName":"Sumter","state":"Florida","marketIds":["Orlando"],"situsAddress":null,"situsCity":"Lake Panasoffkee","situsZip":"33538","jurisdictionCode":null,"ownerName":"TIITF/GFWFC CARLTON HALFMOON R","ownerName2":null,"propertyName":null,"zoningCode":"A10C","zoningDistrict":"140","jurisdictionPrefix":null,"dorCode":"082","acreage":49.6466,"acreageSource":"swfwmd-areano","centroid":[-82.255385,28.899225],"lastSale":{"date":null,"price":null,"qualified":null},"tax":{"marketValue":223430.0,"assessedValue":223430.0,"taxableValue":null,"taxes":null},"mailingAddress":{"line1":"C/O DNR DOUGLAS BLDG","line2":null,"city":"TALLAHASSEE","state":"FL","zip":"32399"},"incomeTract":null,"incomeBlockGroup":null,"nearestRoad":null,"flu":{"code":"CON","label":"20.0","jurisdiction":"Sumter","source":"sumter-flu-5"},"opportunityZone":null,"oz2Eligibility":{"eligible":true,"rural":true,"tractGeoid":"12119911500","tractName":"Census Tract 9115","designation":"eligible-for-nomination","source":"rev-proc-2026-14"},"appraiserUrl":"https://app.sumterpa.com/gis/D_ShowDetail.html?KEY=A25-001&PIN=A25-001","source":"swfwmd-sumter-parcels-12119","dataGaps":["Acreage band is SWFWMD AREANO from 5.0 through 150.0. The ACRES field on that layer is empty and is not used. This replaces the Orlando DOH sample. Tampa's separate DOH Sumter tiles are unchanged.","Owner, mailing, situs, market value (PARVAL when PARVALTYPE is MARKET), assessed value (ASSD_TOT), and DOR use code come from the SWFWMD parcel mirror. Taxable value and a tax bill are not on that layer.","Qualified sales join on PIN from the property-appraiser 2026 sales layer. That layer has price and a qualified flag, not a sale date. The flag is stored and is not used to drop sales. A SWFWMD sale date is kept when the mirror has one.","Zoning and FLU are centroid joins to the county FLU_Zoning service when that host answers. The county GIS TLS handshake is flaky; a failure leaves zoning and FLU empty rather than failing the extract.","Sumter zoning and FLU codes are not in the Orange zoning or FLU knowledge base, so multifamily filters treat them as unknown.","The Georgia Sumter parcel service is not used. The appraiser link is PALINK on the SWFWMD feature."]},"geometry":{"type":"Polygon","coordinates":[[[-82.252601,28.898008],[-82.252644,28.901912],[-82.259502,28.901878],[-82.257389,28.900001],[-82.256829,28.899143],[-82.256362,28.898537],[-82.255943,28.898285],[-82.25478,28.898205],[-82.254318,28.898139],[-82.253478,28.898146],[-82.252601,28.898008]]]}},{"type":"Feature","id":"12119:A26-001","properties":{"id":"12119:A26-001","parcelId":"A26-001","countyFips":"12119","countyName":"Sumter","state":"Florida","marketIds":["Orlando"],"situsAddress":null,"situsCity":"Lake Panasoffkee","situsZip":"33538","jurisdictionCode":null,"ownerName":"SWFWMD","ownerName2":null,"propertyName":null,"zoningCode":"A10C","zoningDistrict":"140","jurisdictionPrefix":null,"dorCode":"080","acreage":66.2736,"acreageSource":"swfwmd-areano","centroid":[-82.272693,28.898464],"lastSale":{"date":null,"price":null,"qualified":null},"tax":{"marketValue":88020.0,"assessedValue":88020.0,"taxableValue":null,"taxes":null},"mailingAddress":{"line1":"2379 BROAD ST","line2":null,"city":"BROOKSVILLE","state":"FL","zip":"34604"},"incomeTract":null,"incomeBlockGroup":null,"nearestRoad":null,"flu":{"code":"CON","label":"20.0","jurisdiction":"Sumter","source":"sumter-flu-5"},"opportunityZone":null,"oz2Eligibility":{"eligible":true,"rural":true,"tractGeoid":"12119911500","tractName":"Census Tract 9115","designation":"eligible-for-nomination","source":"rev-proc-2026-14"},"appraiserUrl":"https://app.sumterpa.com/gis/D_ShowDetail.html?KEY=A26-001&PIN=A26-001","source":"swfwmd-sumter-parcels-12119","dataGaps":["Acreage band is SWFWMD AREANO from 5.0 through 150.0. The ACRES field on that layer is empty and is not used. This replaces the Orlando DOH sample. Tampa's separate DOH Sumter tiles are unchanged.","Owner, mailing, situs, market value (PARVAL when PARVALTYPE is MARKET), assessed value (ASSD_TOT), and DOR use code come from the SWFWMD parcel mirror. Taxable value and a tax bill are not on that layer.","Qualified sales join on PIN from the property-appraiser 2026 sales layer. That layer has price and a qualified flag, not a sale date. The flag is stored and is not used to drop sales. A SWFWMD sale date is kept when the mirror has one.","Zoning and FLU are centroid joins to the county FLU_Zoning service when that host answers. The county GIS TLS handshake is flaky; a failure leaves zoning and FLU empty rather than failing the extract.","Sumter zoning and FLU codes are not in the Orange zoning or FLU knowledge base, so multifamily filters treat them as unknown.","The Georgia Sumter parcel service is not used. The appraiser link is PALINK on the SWFWMD feature."]},"geometry":{"type":"Polygon","coordinates":[[[-82.275666,28.901825],[-82.275672,28.901825],[-82.275805,28.901421],[-82.274367,28.900122],[-82.273963,28.899719],[-82.273816,28.899374],[-82.273164,28.898832],[-82.273432,28.898191],[-82.273385,28.897559],[-82.273093,28.897225],[-82.272554,28.897028],[-82.272252,28.89697],[-82.271488,28.896528],[-82.270928,28.896529],[-82.270311,28.896293],[-82.269838,28.895771],[-82.269353,28.895309],[-82.269392,28.901827],[-82.275666,28.901825]]]}},{"type":"Feature","id":"12119:A36-001","properties":{"id":"12119:A36-001","parcelId":"A36-001","countyFips":"12119","countyName":"Sumter","state":"Florida","marketIds":["Orlando"],"situsAddress":null,"situsCity":"Lake Panasoffkee","situsZip":"33538","jurisdictionCode":null,"ownerName":"SWFWMD","ownerName2":null,"propertyName":null,"zoningCode":"A10C","zoningDistrict":"140","jurisdictionPrefix":null,"dorCode":"080","acreage":34.6293,"acreageSource":"swfwmd-areano","centroid":[-82.254806,28.884831],"lastSale":{"date":null,"price":null,"qualified":null},"tax":{"marketValue":46000.0,"assessedValue":46000.0,"taxableValue":null,"taxes":null},"mailingAddress":{"line1":"2379 BROAD ST","line2":null,"city":"BROOKSVILLE","state":"FL","zip":"34604"},"incomeTract":null,"incomeBlockGroup":null,"nearestRoad":null,"flu":{"code":"CON","label":"20.0","jurisdiction":"Sumter","source":"sumter-flu-5"},"opportunityZone":null,"oz2Eligibility":{"eligible":true,"rural":true,"tractGeoid":"12119911500","tractName":"Census Tract 9115","designation":"eligible-for-nomination","source":"rev-proc-2026-14"},"appraiserUrl":"https://app.sumterpa.com/gis/D_ShowDetail.html?KEY=A36-001&PIN=A36-001","source":"swfwmd-sumter-parcels-12119","dataGaps":["Acreage band is SWFWMD AREANO from 5.0 through 150.0. The ACRES field on that layer is empty and is not used. This replaces the Orlando DOH sample. Tampa's separate DOH Sumter tiles are unchanged.","Owner, mailing, situs, market value (PARVAL when PARVALTYPE is MARKET), assessed value (ASSD_TOT), and DOR use code come from the SWFWMD parcel mirror. Taxable value and a tax bill are not on that layer.","Qualified sales join on PIN from the property-appraiser 2026 sales layer. That layer has price and a qualified flag, not a sale date. The flag is stored and is not used to drop sales. A SWFWMD sale date is kept when the mirror has one.","Zoning and FLU are centroid joins to the county FLU_Zoning service when that host answers. The county GIS TLS handshake is flaky; a failure leaves zoning and FLU empty rather than failing the extract.","Sumter zoning and FLU codes are not in the Orange zoning or FLU knowledge base, so multifamily filters treat them as unknown.","The Georgia Sumter parcel service is not used. The appraiser link is PALINK on the SWFWMD feature."]},"geometry":{"type":"Polygon","coordinates":[[[-82.252426,28.882835],[-82.252484,28.887147],[-82.258661,28.887114],[-82.257858,28.886707],[-82.257417,28.886637],[-82.256513,28.885915],[-82.255609,28.884964],[-82.254946,28.884401],[-82.254343,28.883961],[-82.253661,28.883715],[-82.253319,28.883398],[-82.252818,28.883187],[-82.252426,28.882817],[-82.252426,28.882835]]]}},{"type":"Feature","id":"12119:B06-004","properties":{"id":"12119:B06-004","parcelId":"B06-004","countyFips":"12119","countyName":"Sumter","state":"Florida","marketIds":["Orlando"],"situsAddress":null,"situsCity":"Lake Panasoffkee","situsZip":"33538","jurisdictionCode":null,"ownerName":"SEVEN SPRINGS FOUNDATION INC","ownerName2":null,"propertyName":null,"zoningCode":"A10C","zoningDistrict":"140","jurisdictionPrefix":null,"dorCode":"070","acreage":43.9783,"acreageSource":"swfwmd-areano","centroid":[-82.25028,28.94686],"lastSale":{"date":null,"price":null,"qualified":null},"tax":{"marketValue":215500.0,"assessedValue":215500.0,"taxableValue":null,"taxes":null},"mailingAddress":{"line1":"9120 RIDGELAND DR","line2":null,"city":"CUTLER BAY","state":"FL","zip":"33157"},"incomeTract":null,"incomeBlockGroup":null,"nearestRoad":null,"flu":{"code":"AGR","label":"10.0","jurisdiction":"Sumter","source":"sumter-flu-5"},"opportunityZone":null,"oz2Eligibility":{"eligible":true,"rural":true,"tractGeoid":"12119911500","tractName":"Census Tract 9115","designation":"eligible-for-nomination","source":"rev-proc-2026-14"},"appraiserUrl":"https://app.sumterpa.com/gis/D_ShowDetail.html?KEY=B06-004&PIN=B06-004","source":"swfwmd-sumter-parcels-12119","dataGaps":["Acreage band is SWFWMD AREANO from 5.0 through 150.0. The ACRES field on that layer is empty and is not used. This replaces the Orlando DOH sample. Tampa's separate DOH Sumter tiles are unchanged.","Owner, mailing, situs, market value (PARVAL when PARVALTYPE is MARKET), assessed value (ASSD_TOT), and DOR use code come from the SWFWMD parcel mirror. Taxable value and a tax bill are not on that layer.","Qualified sales join on PIN from the property-appraiser 2026 sales layer. That layer has price and a qualified flag, not a sale date. The flag is stored and is not used to drop sales. A SWFWMD sale date is kept when the mirror has one.","Zoning and FLU are centroid joins to the county FLU_Zoning service when that host answers. The county GIS TLS handshake is flaky; a failure leaves zoning and FLU empty rather than failing the extract.","Sumter zoning and FLU codes are not in the Orange zoning or FLU knowledge base, so multifamily filters treat them as unknown.","The Georgia Sumter parcel service is not used. The appraiser link is PALINK on the SWFWMD feature."]},"geometry":{"type":"Polygon","coordinates":[[[-82.248466,28.945291],[-82.248466,28.945908],[-82.248469,28.948924],[-82.252984,28.948903],[-82.253015,28.945275],[-82.248466,28.945291]]]}}]}