{"type":"FeatureCollection","name":"47109--23_31","features":[{"type":"Feature","id":"47109:055167    00200","properties":{"id":"47109:055167    00200","parcelId":"055167    00200","countyFips":"47109","countyName":"McNairy","state":"Tennessee","marketIds":["Memphis"],"situsAddress":"STATE LINE","situsCity":null,"situsZip":null,"jurisdictionCode":null,"ownerName":"JONES M L","ownerName2":"C/O CHARLES JONES","propertyName":null,"zoningCode":null,"zoningDistrict":null,"jurisdictionPrefix":null,"dorCode":null,"acreage":147.8985,"centroid":[-88.683499,34.998249],"lastSale":{"date":"1990-07-13","price":null,"qualified":null,"vintage":"2023"},"tax":{"marketValue":73000.0,"assessedValue":null,"taxableValue":null,"taxes":null,"vintage":"2023"},"mailingAddress":{"line1":null,"line2":null,"city":null,"state":null,"zip":null},"incomeTract":null,"incomeBlockGroup":null,"nearestRoad":null,"flu":null,"opportunityZone":null,"oz2Eligibility":null,"source":"tn-oir-public-use-47109","appraiserUrl":"https://assessment.cot.tn.gov/TPAD/Parcel/GIS?gislink=055167%20%20%20%2000200"},"geometry":{"type":"Polygon","coordinates":[[[-88.682128,35.003723],[-88.687566,35.003698],[-88.687389,34.996474],[-88.688996,34.996424],[-88.68892,34.995105],[-88.679905,34.995279],[-88.679948,34.996573],[-88.678977,34.996585],[-88.679112,34.999355],[-88.682048,34.999274],[-88.682128,35.003723]]]}},{"type":"Feature","id":"47109:055170    00500","properties":{"id":"47109:055170    00500","parcelId":"055170    00500","countyFips":"47109","countyName":"McNairy","state":"Tennessee","marketIds":["Memphis"],"situsAddress":"AVERY LN","situsCity":null,"situsZip":null,"jurisdictionCode":null,"ownerName":"JOHNSON MATHEW B JR","ownerName2":"ETUX DENA B","propertyName":null,"zoningCode":null,"zoningDistrict":null,"jurisdictionPrefix":null,"dorCode":null,"acreage":127.8872,"centroid":[-88.524637,34.999581],"lastSale":{"date":"2005-03-14","price":7140.0,"qualified":null,"vintage":"2023"},"tax":{"marketValue":154600.0,"assessedValue":null,"taxableValue":null,"taxes":null,"vintage":"2023"},"mailingAddress":{"line1":null,"line2":null,"city":null,"state":null,"zip":null},"incomeTract":null,"incomeBlockGroup":null,"nearestRoad":null,"flu":null,"opportunityZone":null,"oz2Eligibility":null,"source":"tn-oir-public-use-47109","appraiserUrl":"https://assessment.cot.tn.gov/TPAD/Parcel/GIS?gislink=055170%20%20%20%2000500"},"geometry":{"type":"Polygon","coordinates":[[[-88.526665,35.003762],[-88.530584,35.003794],[-88.528799,34.998821],[-88.528125,34.995749],[-88.519261,34.995542],[-88.519562,34.996468],[-88.523085,34.996477],[-88.523088,35.000673],[-88.524114,35.000791],[-88.52309,35.003734],[-88.526665,35.003762]]]}},{"type":"Feature","id":"47109:055170    00100","properties":{"id":"47109:055170    00100","parcelId":"055170    00100","countyFips":"47109","countyName":"McNairy","state":"Tennessee","marketIds":["Memphis"],"situsAddress":"TRAMHAM RD","situsCity":null,"situsZip":null,"jurisdictionCode":null,"ownerName":"LANGLEY FAMILY COMMUNITY PROPERTY TRUST","ownerName2":null,"propertyName":null,"zoningCode":null,"zoningDistrict":null,"jurisdictionPrefix":null,"dorCode":null,"acreage":110.6203,"centroid":[-88.569383,34.999765],"lastSale":{"date":"2013-10-10","price":418175.0,"qualified":null,"vintage":"2023"},"tax":{"marketValue":631700.0,"assessedValue":null,"taxableValue":null,"taxes":null,"vintage":"2023"},"mailingAddress":{"line1":null,"line2":null,"city":null,"state":null,"zip":null},"incomeTract":null,"incomeBlockGroup":null,"nearestRoad":null,"flu":null,"opportunityZone":null,"oz2Eligibility":null,"source":"tn-oir-public-use-47109","appraiserUrl":"https://assessment.cot.tn.gov/TPAD/Parcel/GIS?gislink=055170%20%20%20%2000100"},"geometry":{"type":"MultiPolygon","coordinates":[[[[-88.568582,34.996651],[-88.568634,34.99672],[-88.568685,34.996802],[-88.568731,34.99689],[-88.568766,34.996973],[-88.568795,34.99706],[-88.568815,34.997146],[-88.568829,34.997233],[-88.568835,34.997323],[-88.56883,34.997565],[-88.56881,34.997824],[-88.568777,34.998079],[-88.568711,34.998462],[-88.568696,34.998608],[-88.568688,34.998754],[-88.568687,34.998901],[-88.568695,34.999063],[-88.56871,34.999209],[-88.568752,34.999502],[-88.568763,34.999628],[-88.568767,34.999755],[-88.568763,34.999944],[-88.568745,35.00013],[-88.568717,35.00031],[-88.56866,35.000563],[-88.568644,35.000721],[-88.568645,35.00083],[-88.568657,35.000947],[-88.568678,35.001054],[-88.568713,35.001168],[-88.568749,35.001259],[-88.568793,35.00135],[-88.568845,35.001438],[-88.568907,35.001526],[-88.568973,35.001607],[-88.569042,35.001681],[-88.569129,35.001762],[-88.569231,35.00185],[-88.569393,35.001974],[-88.569574,35.002097],[-88.569707,35.002177],[-88.570048,35.002369],[-88.570319,35.002538],[-88.570541,35.002689],[-88.570748,35.002843],[-88.571085,35.001914],[-88.570635,35.001228],[-88.57088,35.000715],[-88.571038,35.000571],[-88.576115,35.000267],[-88.576199,34.99661],[-88.569009,34.996639],[-88.568577,34.996646],[-88.568582,34.996651]]],[[[-88.5669,34.997269],[-88.567301,34.997537],[-88.566719,34.998064],[-88.567586,34.999954],[-88.567433,35.000076],[-88.567422,35.001997],[-88.567365,35.003986],[-88.56874,35.003969],[-88.570143,35.002529],[-88.569933,35.002402],[-88.56961,35.002221],[-88.569443,35.002117],[-88.569327,35.002037],[-88.569226,35.00196],[-88.569118,35.001873],[-88.569016,35.001782],[-88.568936,35.001704],[-88.568867,35.001627],[-88.568801,35.001542],[-88.568744,35.001457],[-88.568692,35.001366],[-88.568648,35.001273],[-88.568612,35.00118],[-88.568585,35.00109],[-88.568562,35.000983],[-88.568548,35.000886],[-88.568543,35.000786],[-88.568545,35.000689],[-88.568563,35.00054],[-88.568614,35.000314],[-88.568643,35.000141],[-88.568661,34.999966],[-88.568667,34.999791],[-88.568664,34.999661],[-88.568654,34.999526],[-88.568611,34.999218],[-88.568595,34.99907],[-88.568587,34.998918],[-88.568587,34.998753],[-88.568595,34.998618],[-88.568608,34.998486],[-88.568688,34.998003],[-88.568709,34.997831],[-88.568725,34.99765],[-88.568734,34.997464],[-88.568735,34.997308],[-88.568723,34.997196],[-88.5687,34.997088],[-88.568661,34.996974],[-88.568607,34.996859],[-88.568537,34.996747],[-88.568504,34.996702],[-88.56847,34.996665],[-88.566833,34.996474],[-88.566532,34.996454],[-88.5669,34.997269]]]]}},{"type":"Feature","id":"47109:055170    00409","properties":{"id":"47109:055170    00409","parcelId":"055170    00409","countyFips":"47109","countyName":"McNairy","state":"Tennessee","marketIds":["Memphis"],"situsAddress":"GIN RD S","situsCity":null,"situsZip":null,"jurisdictionCode":null,"ownerName":"CIRCLE R FARMS LLC","ownerName2":null,"propertyName":null,"zoningCode":null,"zoningDistrict":null,"jurisdictionPrefix":null,"dorCode":null,"acreage":109.7535,"centroid":[-88.553129,34.999479],"lastSale":{"date":"2022-08-31","price":125000.0,"qualified":null,"vintage":"2023"},"tax":{"marketValue":137200.0,"assessedValue":null,"taxableValue":null,"taxes":null,"vintage":"2023"},"mailingAddress":{"line1":null,"line2":null,"city":null,"state":null,"zip":null},"incomeTract":null,"incomeBlockGroup":null,"nearestRoad":null,"flu":null,"opportunityZone":null,"oz2Eligibility":null,"source":"tn-oir-public-use-47109","appraiserUrl":"https://assessment.cot.tn.gov/TPAD/Parcel/GIS?gislink=055170%20%20%20%2000409"},"geometry":{"type":"Polygon","coordinates":[[[-88.554185,35.00293],[-88.558483,35.002962],[-88.558492,35.002011],[-88.559454,34.996436],[-88.551247,34.996511],[-88.551265,34.997489],[-88.551274,34.997594],[-88.55134,34.998087],[-88.55138,34.998503],[-88.551403,34.998881],[-88.551402,34.998989],[-88.551392,34.999101],[-88.551362,34.999263],[-88.551314,34.999422],[-88.550674,35.001081],[-88.554154,35.000952],[-88.554366,35.000932],[-88.554185,35.00293]]]}},{"type":"Feature","id":"47109:055161    07900","properties":{"id":"47109:055161    07900","parcelId":"055161    07900","countyFips":"47109","countyName":"McNairy","state":"Tennessee","marketIds":["Memphis"],"situsAddress":"WENASOGA RD 1800","situsCity":null,"situsZip":null,"jurisdictionCode":null,"ownerName":"CHENAULT KAREN ETVIR DONNY","ownerName2":null,"propertyName":null,"zoningCode":null,"zoningDistrict":null,"jurisdictionPrefix":null,"dorCode":null,"acreage":95.694,"centroid":[-88.627311,34.998093],"lastSale":{"date":"2022-08-12","price":240000.0,"qualified":null,"vintage":"2023"},"tax":{"marketValue":208500.0,"assessedValue":null,"taxableValue":null,"taxes":null,"vintage":"2023"},"mailingAddress":{"line1":null,"line2":null,"city":null,"state":null,"zip":null},"incomeTract":null,"incomeBlockGroup":null,"nearestRoad":null,"flu":null,"opportunityZone":null,"oz2Eligibility":null,"source":"tn-oir-public-use-47109","appraiserUrl":"https://assessment.cot.tn.gov/TPAD/Parcel/GIS?gislink=055161%20%20%20%2007900"},"geometry":{"type":"Polygon","coordinates":[[[-88.623742,35.004053],[-88.625487,35.004639],[-88.625461,35.003842],[-88.628178,35.003861],[-88.628108,34.996405],[-88.628762,34.996405],[-88.628668,34.996273],[-88.628567,34.996143],[-88.628461,34.996017],[-88.62835,34.995894],[-88.628233,34.995774],[-88.62811,34.995658],[-88.627983,34.995546],[-88.62785,34.995438],[-88.623699,34.995449],[-88.623742,35.004053]]]}},{"type":"Feature","id":"47109:055169    00600","properties":{"id":"47109:055169    00600","parcelId":"055169    00600","countyFips":"47109","countyName":"McNairy","state":"Tennessee","marketIds":["Memphis"],"situsAddress":"GAY THOMPSON RD","situsCity":null,"situsZip":null,"jurisdictionCode":null,"ownerName":"HINTON PATRICK WAYNE","ownerName2":null,"propertyName":null,"zoningCode":null,"zoningDistrict":null,"jurisdictionPrefix":null,"dorCode":null,"acreage":81.904,"centroid":[-88.580339,34.999014],"lastSale":{"date":"2014-05-01","price":10000.0,"qualified":null,"vintage":"2023"},"tax":{"marketValue":44900.0,"assessedValue":null,"taxableValue":null,"taxes":null,"vintage":"2023"},"mailingAddress":{"line1":null,"line2":null,"city":null,"state":null,"zip":null},"incomeTract":null,"incomeBlockGroup":null,"nearestRoad":null,"flu":null,"opportunityZone":null,"oz2Eligibility":null,"source":"tn-oir-public-use-47109","appraiserUrl":"https://assessment.cot.tn.gov/TPAD/Parcel/GIS?gislink=055169%20%20%20%2000600"},"geometry":{"type":"Polygon","coordinates":[[[-88.576115,35.000267],[-88.576915,35.000271],[-88.582704,35.000232],[-88.585117,35.000191],[-88.584984,34.996515],[-88.576199,34.99661],[-88.576115,35.000267]]]}},{"type":"Feature","id":"47109:055170    00300","properties":{"id":"47109:055170    00300","parcelId":"055170    00300","countyFips":"47109","countyName":"McNairy","state":"Tennessee","marketIds":["Memphis"],"situsAddress":"TRAMHAM RD","situsCity":null,"situsZip":null,"jurisdictionCode":null,"ownerName":"SWEAT THOMAS  L/E","ownerName2":null,"propertyName":null,"zoningCode":null,"zoningDistrict":null,"jurisdictionPrefix":null,"dorCode":null,"acreage":80.559,"centroid":[-88.562834,34.999702],"lastSale":{"date":"2003-04-07","price":null,"qualified":null,"vintage":"2023"},"tax":{"marketValue":36200.0,"assessedValue":null,"taxableValue":null,"taxes":null,"vintage":"2023"},"mailingAddress":{"line1":null,"line2":null,"city":null,"state":null,"zip":null},"incomeTract":null,"incomeBlockGroup":null,"nearestRoad":null,"flu":null,"opportunityZone":null,"oz2Eligibility":null,"source":"tn-oir-public-use-47109","appraiserUrl":"https://assessment.cot.tn.gov/TPAD/Parcel/GIS?gislink=055170%20%20%20%2000300"},"geometry":{"type":"Polygon","coordinates":[[[-88.562777,35.001974],[-88.567422,35.001997],[-88.567433,35.000076],[-88.563554,34.999876],[-88.563136,34.996326],[-88.561049,34.996567],[-88.559432,34.996563],[-88.558492,35.002011],[-88.562211,35.001927],[-88.562777,35.001974]]]}},{"type":"Feature","id":"47109:055162    02100","properties":{"id":"47109:055162    02100","parcelId":"055162    02100","countyFips":"47109","countyName":"McNairy","state":"Tennessee","marketIds":["Memphis"],"situsAddress":"OLD REED SCHOOL HSE RD","situsCity":null,"situsZip":null,"jurisdictionCode":null,"ownerName":"BALDWIN GREG AND KARLA","ownerName2":"BALDWIN BURNS","propertyName":null,"zoningCode":null,"zoningDistrict":null,"jurisdictionPrefix":null,"dorCode":null,"acreage":77.3557,"centroid":[-88.673652,34.999301],"lastSale":{"date":"2018-06-20","price":null,"qualified":null,"vintage":"2023"},"tax":{"marketValue":49000.0,"assessedValue":null,"taxableValue":null,"taxes":null,"vintage":"2023"},"mailingAddress":{"line1":null,"line2":null,"city":null,"state":null,"zip":null},"incomeTract":null,"incomeBlockGroup":null,"nearestRoad":null,"flu":null,"opportunityZone":null,"oz2Eligibility":null,"source":"tn-oir-public-use-47109","appraiserUrl":"https://assessment.cot.tn.gov/TPAD/Parcel/GIS?gislink=055162%20%20%20%2002100"},"geometry":{"type":"MultiPolygon","coordinates":[[[[-88.668887,35.002814],[-88.669443,35.003121],[-88.669427,35.002765],[-88.673326,35.002736],[-88.673325,34.999515],[-88.679112,34.999355],[-88.678977,34.996585],[-88.679562,34.996578],[-88.679553,34.995286],[-88.677825,34.995319],[-88.677858,34.996598],[-88.673345,34.996651],[-88.673349,34.998638],[-88.672301,34.998653],[-88.672315,35.000272],[-88.669223,35.000314],[-88.66903,35.000857],[-88.668875,35.001356],[-88.668887,35.002814]]],[[[-88.668872,35.001025],[-88.668989,35.000673],[-88.669119,35.000315],[-88.668867,35.000319],[-88.668872,35.001025]]]]}},{"type":"Feature","id":"47109:055166    00100","properties":{"id":"47109:055166    00100","parcelId":"055166    00100","countyFips":"47109","countyName":"McNairy","state":"Tennessee","marketIds":["Memphis"],"situsAddress":"ESSARY SPRINGS RD E OF","situsCity":null,"situsZip":null,"jurisdictionCode":null,"ownerName":"WILLIAMS FAYETTE C JR TRUS","ownerName2":"% WILLIAMS BAILEY","propertyName":null,"zoningCode":null,"zoningDistrict":null,"jurisdictionPrefix":null,"dorCode":null,"acreage":76.8733,"centroid":[-88.734993,34.995507],"lastSale":{"date":"1992-12-31","price":null,"qualified":null,"vintage":"2023"},"tax":{"marketValue":28100.0,"assessedValue":null,"taxableValue":null,"taxes":null,"vintage":"2023"},"mailingAddress":{"line1":null,"line2":null,"city":null,"state":null,"zip":null},"incomeTract":null,"incomeBlockGroup":null,"nearestRoad":null,"flu":null,"opportunityZone":null,"oz2Eligibility":null,"source":"tn-oir-public-use-47109","appraiserUrl":"https://assessment.cot.tn.gov/TPAD/Parcel/GIS?gislink=055166%20%20%20%2000100"},"geometry":{"type":"Polygon","coordinates":[[[-88.726416,34.996425],[-88.74359,34.996381],[-88.743541,34.994574],[-88.726425,34.994648],[-88.726416,34.996425]]]}},{"type":"Feature","id":"47109:055168    00400","properties":{"id":"47109:055168    00400","parcelId":"055168    00400","countyFips":"47109","countyName":"McNairy","state":"Tennessee","marketIds":["Memphis"],"situsAddress":"WENASOGA RD 2500","situsCity":null,"situsZip":null,"jurisdictionCode":null,"ownerName":"BRASFIELD JAMES R","ownerName2":"ETUX MARTHA","propertyName":null,"zoningCode":null,"zoningDistrict":null,"jurisdictionPrefix":null,"dorCode":null,"acreage":60.9528,"centroid":[-88.615866,34.999285],"lastSale":{"date":"1994-08-18","price":27000.0,"qualified":null,"vintage":"2023"},"tax":{"marketValue":55100.0,"assessedValue":null,"taxableValue":null,"taxes":null,"vintage":"2023"},"mailingAddress":{"line1":null,"line2":null,"city":null,"state":null,"zip":null},"incomeTract":null,"incomeBlockGroup":null,"nearestRoad":null,"flu":null,"opportunityZone":null,"oz2Eligibility":null,"source":"tn-oir-public-use-47109","appraiserUrl":"https://assessment.cot.tn.gov/TPAD/Parcel/GIS?gislink=055168%20%20%20%2000400"},"geometry":{"type":"Polygon","coordinates":[[[-88.613696,35.000612],[-88.613634,35.000662],[-88.616387,35.001586],[-88.616359,35.000412],[-88.620416,35.00036],[-88.620414,34.996401],[-88.619818,34.996401],[-88.619802,34.995459],[-88.617106,34.995466],[-88.617108,34.996494],[-88.617104,34.996599],[-88.615355,34.996608],[-88.615263,35.000443],[-88.615156,35.000498],[-88.615019,35.000508],[-88.61475,35.000457],[-88.614546,35.000408],[-88.614424,35.000393],[-88.61434,35.000389],[-88.614244,35.00041],[-88.61412,35.000526],[-88.614008,35.00057],[-88.613893,35.000598],[-88.613811,35.000588],[-88.613696,35.000612]]]}},{"type":"Feature","id":"47109:055161    08000","properties":{"id":"47109:055161    08000","parcelId":"055161    08000","countyFips":"47109","countyName":"McNairy","state":"Tennessee","marketIds":["Memphis"],"situsAddress":"WENASOGA RD 2500","situsCity":null,"situsZip":null,"jurisdictionCode":null,"ownerName":"BRASFIELD JAMES","ownerName2":"ETUX MARTHA","propertyName":null,"zoningCode":null,"zoningDistrict":null,"jurisdictionPrefix":null,"dorCode":null,"acreage":60.8451,"centroid":[-88.621347,34.998968],"lastSale":{"date":"1990-08-15","price":32000.0,"qualified":null,"vintage":"2023"},"tax":{"marketValue":238300.0,"assessedValue":null,"taxableValue":null,"taxes":null,"vintage":"2023"},"mailingAddress":{"line1":null,"line2":null,"city":null,"state":null,"zip":null},"incomeTract":null,"incomeBlockGroup":null,"nearestRoad":null,"flu":null,"opportunityZone":null,"oz2Eligibility":null,"source":"tn-oir-public-use-47109","appraiserUrl":"https://assessment.cot.tn.gov/TPAD/Parcel/GIS?gislink=055161%20%20%20%2008000"},"geometry":{"type":"Polygon","coordinates":[[[-88.619818,34.996401],[-88.620414,34.996401],[-88.620416,35.00036],[-88.621449,35.000346],[-88.621435,35.003279],[-88.623742,35.004053],[-88.623699,34.995449],[-88.619802,34.995459],[-88.619818,34.996401]]]}},{"type":"Feature","id":"47109:055161    07802","properties":{"id":"47109:055161    07802","parcelId":"055161    07802","countyFips":"47109","countyName":"McNairy","state":"Tennessee","marketIds":["Memphis"],"situsAddress":"WENASOGA RD","situsCity":null,"situsZip":null,"jurisdictionCode":null,"ownerName":"WALLACE KENNETH R","ownerName2":"ETUX PATRICIA","propertyName":null,"zoningCode":null,"zoningDistrict":null,"jurisdictionPrefix":null,"dorCode":null,"acreage":60.0406,"centroid":[-88.647296,34.999296],"lastSale":{"date":"1993-07-29","price":17325.0,"qualified":null,"vintage":"2023"},"tax":{"marketValue":23200.0,"assessedValue":null,"taxableValue":null,"taxes":null,"vintage":"2023"},"mailingAddress":{"line1":null,"line2":null,"city":null,"state":null,"zip":null},"incomeTract":null,"incomeBlockGroup":null,"nearestRoad":null,"flu":null,"opportunityZone":null,"oz2Eligibility":null,"source":"tn-oir-public-use-47109","appraiserUrl":"https://assessment.cot.tn.gov/TPAD/Parcel/GIS?gislink=055161%20%20%20%2007802"},"geometry":{"type":"Polygon","coordinates":[[[-88.645116,34.995548],[-88.645259,34.996177],[-88.645391,34.996889],[-88.645446,34.997147],[-88.645501,34.997367],[-88.645758,34.998305],[-88.645899,34.998318],[-88.645981,34.998334],[-88.646072,34.998363],[-88.646162,34.998405],[-88.646238,34.998454],[-88.646308,34.998514],[-88.646407,34.998614],[-88.646493,34.998715],[-88.646562,34.998806],[-88.646628,34.998908],[-88.6474,35.000224],[-88.647506,35.000387],[-88.647621,35.000542],[-88.647753,35.000705],[-88.647897,35.000863],[-88.649053,35.002033],[-88.649147,35.00214],[-88.649235,35.002253],[-88.649323,35.002388],[-88.649682,35.003001],[-88.649725,35.00309],[-88.649766,35.003187],[-88.649798,35.003279],[-88.649824,35.003374],[-88.650405,34.995573],[-88.646816,34.995556],[-88.646812,34.9953],[-88.645064,34.995319],[-88.645116,34.995548]]]}},{"type":"Feature","id":"47109:055168    00103","properties":{"id":"47109:055168    00103","parcelId":"055168    00103","countyFips":"47109","countyName":"McNairy","state":"Tennessee","marketIds":["Memphis"],"situsAddress":"WENASOGA RD 1389","situsCity":null,"situsZip":null,"jurisdictionCode":null,"ownerName":"LPT PROPERTIES LLC","ownerName2":null,"propertyName":null,"zoningCode":null,"zoningDistrict":null,"jurisdictionPrefix":null,"dorCode":null,"acreage":57.7717,"centroid":[-88.639602,34.999971],"lastSale":{"date":"2012-01-05","price":null,"qualified":null,"vintage":"2023"},"tax":{"marketValue":140900.0,"assessedValue":null,"taxableValue":null,"taxes":null,"vintage":"2023"},"mailingAddress":{"line1":null,"line2":null,"city":null,"state":null,"zip":null},"incomeTract":null,"incomeBlockGroup":null,"nearestRoad":null,"flu":null,"opportunityZone":null,"oz2Eligibility":null,"source":"tn-oir-public-use-47109","appraiserUrl":"https://assessment.cot.tn.gov/TPAD/Parcel/GIS?gislink=055168%20%20%20%2000103"},"geometry":{"type":"Polygon","coordinates":[[[-88.638943,35.000275],[-88.638944,35.000341],[-88.639809,35.000607],[-88.63996,35.000643],[-88.640112,35.000666],[-88.640243,35.000676],[-88.640371,35.000677],[-88.640498,35.00067],[-88.640622,35.000655],[-88.64075,35.000632],[-88.640875,35.000599],[-88.640997,35.000559],[-88.641109,35.000513],[-88.640959,34.999893],[-88.639991,34.99994],[-88.639388,34.997978],[-88.641741,34.997772],[-88.642995,34.99938],[-88.643185,34.999239],[-88.643367,34.999092],[-88.643509,34.998969],[-88.643711,34.99878],[-88.643798,34.998707],[-88.643923,34.998615],[-88.644056,34.998533],[-88.644162,34.998478],[-88.644275,34.998427],[-88.644388,34.998384],[-88.644505,34.998347],[-88.644628,34.998316],[-88.644749,34.998291],[-88.644876,34.998273],[-88.645,34.998262],[-88.644908,34.997349],[-88.645366,34.997242],[-88.645297,34.996925],[-88.645158,34.996179],[-88.644957,34.99532],[-88.644671,34.995324],[-88.644668,34.995545],[-88.638065,34.995513],[-88.638033,34.996547],[-88.638045,34.998847],[-88.638927,34.999238],[-88.638943,35.000275]]]}},{"type":"Feature","id":"47109:055171    01003","properties":{"id":"47109:055171    01003","parcelId":"055171    01003","countyFips":"47109","countyName":"McNairy","state":"Tennessee","marketIds":["Memphis"],"situsAddress":"STICINE RD","situsCity":null,"situsZip":null,"jurisdictionCode":null,"ownerName":"HENRY ROBERT WAYNE ETUX MARGARET TRUSTEE","ownerName2":"AND WAYNE HENRY II ETUX RHONDA","propertyName":null,"zoningCode":null,"zoningDistrict":null,"jurisdictionPrefix":null,"dorCode":null,"acreage":43.3842,"centroid":[-88.509867,34.998091],"lastSale":{"date":"2016-02-18","price":null,"qualified":null,"vintage":"2023"},"tax":{"marketValue":28200.0,"assessedValue":null,"taxableValue":null,"taxes":null,"vintage":"2023"},"mailingAddress":{"line1":null,"line2":null,"city":null,"state":null,"zip":null},"incomeTract":null,"incomeBlockGroup":null,"nearestRoad":null,"flu":null,"opportunityZone":null,"oz2Eligibility":null,"source":"tn-oir-public-use-47109","appraiserUrl":"https://assessment.cot.tn.gov/TPAD/Parcel/GIS?gislink=055171%20%20%20%2001003"},"geometry":{"type":"Polygon","coordinates":[[[-88.506936,34.999882],[-88.511138,34.999829],[-88.511192,34.999739],[-88.511251,34.999657],[-88.51132,34.999574],[-88.511389,34.999502],[-88.511474,34.999425],[-88.512222,34.998801],[-88.512389,34.99864],[-88.512545,34.998463],[-88.51266,34.998311],[-88.512761,34.998157],[-88.513351,34.997137],[-88.513455,34.996983],[-88.513563,34.996845],[-88.512842,34.996696],[-88.512909,34.996352],[-88.512654,34.996344],[-88.508118,34.996251],[-88.508089,34.996407],[-88.508066,34.996497],[-88.508039,34.996665],[-88.508011,34.996872],[-88.508002,34.997016],[-88.507895,34.997331],[-88.507858,34.997425],[-88.507819,34.997563],[-88.5078,34.99769],[-88.507769,34.997814],[-88.507731,34.997932],[-88.507602,34.998451],[-88.50747,34.99894],[-88.507372,34.999258],[-88.507292,34.999439],[-88.50716,34.99964],[-88.507066,34.999765],[-88.506936,34.999882]]]}},{"type":"Feature","id":"47109:055166    00200","properties":{"id":"47109:055166    00200","parcelId":"055166    00200","countyFips":"47109","countyName":"McNairy","state":"Tennessee","marketIds":["Memphis"],"situsAddress":"STATE LINE","situsCity":null,"situsZip":null,"jurisdictionCode":null,"ownerName":"PITTMAN W H","ownerName2":null,"propertyName":null,"zoningCode":null,"zoningDistrict":null,"jurisdictionPrefix":null,"dorCode":null,"acreage":35.1818,"centroid":[-88.721306,34.995554],"lastSale":{"date":"1976-01-26","price":null,"qualified":null,"vintage":"2023"},"tax":{"marketValue":44800.0,"assessedValue":null,"taxableValue":null,"taxes":null,"vintage":"2023"},"mailingAddress":{"line1":null,"line2":null,"city":null,"state":null,"zip":null},"incomeTract":null,"incomeBlockGroup":null,"nearestRoad":null,"flu":null,"opportunityZone":null,"oz2Eligibility":null,"source":"tn-oir-public-use-47109","appraiserUrl":"https://assessment.cot.tn.gov/TPAD/Parcel/GIS?gislink=055166%20%20%20%2000200"},"geometry":{"type":"Polygon","coordinates":[[[-88.717321,34.996448],[-88.725303,34.996428],[-88.72526,34.994653],[-88.717341,34.994687],[-88.717321,34.996448]]]}},{"type":"Feature","id":"47109:055169    00300","properties":{"id":"47109:055169    00300","parcelId":"055169    00300","countyFips":"47109","countyName":"McNairy","state":"Tennessee","marketIds":["Memphis"],"situsAddress":"S OF SOUTHERN RR","situsCity":null,"situsZip":null,"jurisdictionCode":null,"ownerName":"BRIGGS WILLIAM A","ownerName2":"ETUX PEGGY E","propertyName":null,"zoningCode":null,"zoningDistrict":null,"jurisdictionPrefix":null,"dorCode":null,"acreage":33.8869,"centroid":[-88.608951,34.996564],"lastSale":{"date":"2007-07-31","price":96000.0,"qualified":null,"vintage":"2023"},"tax":{"marketValue":27400.0,"assessedValue":null,"taxableValue":null,"taxes":null,"vintage":"2023"},"mailingAddress":{"line1":null,"line2":null,"city":null,"state":null,"zip":null},"incomeTract":null,"incomeBlockGroup":null,"nearestRoad":null,"flu":null,"opportunityZone":null,"oz2Eligibility":null,"source":"tn-oir-public-use-47109","appraiserUrl":"https://assessment.cot.tn.gov/TPAD/Parcel/GIS?gislink=055169%20%20%20%2000300"},"geometry":{"type":"Polygon","coordinates":[[[-88.607589,34.998633],[-88.611555,34.999964],[-88.611614,34.995481],[-88.609839,34.995437],[-88.609866,34.996403],[-88.608216,34.996435],[-88.607854,34.996101],[-88.607834,34.995387],[-88.607564,34.995381],[-88.607578,34.996417],[-88.607589,34.998633]]]}},{"type":"Feature","id":"47109:055168    00102","properties":{"id":"47109:055168    00102","parcelId":"055168    00102","countyFips":"47109","countyName":"McNairy","state":"Tennessee","marketIds":["Memphis"],"situsAddress":"WENASOGA RD W OF","situsCity":null,"situsZip":null,"jurisdictionCode":null,"ownerName":"TUSCUMBIA RIVER BOTTOM FARMS LLP","ownerName2":null,"propertyName":null,"zoningCode":null,"zoningDistrict":null,"jurisdictionPrefix":null,"dorCode":null,"acreage":33.3576,"centroid":[-88.657181,34.99675],"lastSale":{"date":"2018-02-05","price":null,"qualified":null,"vintage":"2023"},"tax":{"marketValue":22000.0,"assessedValue":null,"taxableValue":null,"taxes":null,"vintage":"2023"},"mailingAddress":{"line1":null,"line2":null,"city":null,"state":null,"zip":null},"incomeTract":null,"incomeBlockGroup":null,"nearestRoad":null,"flu":null,"opportunityZone":null,"oz2Eligibility":null,"source":"tn-oir-public-use-47109","appraiserUrl":"https://assessment.cot.tn.gov/TPAD/Parcel/GIS?gislink=055168%20%20%20%2000102"},"geometry":{"type":"Polygon","coordinates":[[[-88.655643,34.995803],[-88.655708,34.999973],[-88.661733,34.995626],[-88.65564,34.995598],[-88.655643,34.995803]]]}},{"type":"Feature","id":"47109:055171    00102","properties":{"id":"47109:055171    00102","parcelId":"055171    00102","countyFips":"47109","countyName":"McNairy","state":"Tennessee","marketIds":["Memphis"],"situsAddress":"HWY 45  S","situsCity":null,"situsZip":null,"jurisdictionCode":null,"ownerName":"HOPKINS ANTHONY ETUX NANCY","ownerName2":null,"propertyName":null,"zoningCode":null,"zoningDistrict":null,"jurisdictionPrefix":null,"dorCode":null,"acreage":31.3919,"centroid":[-88.520882,34.998478],"lastSale":{"date":"2015-06-15","price":89125.0,"qualified":null,"vintage":"2023"},"tax":{"marketValue":24700.0,"assessedValue":null,"taxableValue":null,"taxes":null,"vintage":"2023"},"mailingAddress":{"line1":null,"line2":null,"city":null,"state":null,"zip":null},"incomeTract":null,"incomeBlockGroup":null,"nearestRoad":null,"flu":null,"opportunityZone":null,"oz2Eligibility":null,"source":"tn-oir-public-use-47109","appraiserUrl":"https://assessment.cot.tn.gov/TPAD/Parcel/GIS?gislink=055171%20%20%20%2000102"},"geometry":{"type":"Polygon","coordinates":[[[-88.519566,34.996479],[-88.520081,34.9991],[-88.520329,34.99976],[-88.520464,35.000385],[-88.523088,35.000678],[-88.523085,34.996477],[-88.519562,34.996468],[-88.519566,34.996479]]]}},{"type":"Feature","id":"47109:055170    00103","properties":{"id":"47109:055170    00103","parcelId":"055170    00103","countyFips":"47109","countyName":"McNairy","state":"Tennessee","marketIds":["Memphis"],"situsAddress":"TRAMHAM RD","situsCity":null,"situsZip":null,"jurisdictionCode":null,"ownerName":"MCQUEEN MARVIN E ETUX LEAH S","ownerName2":null,"propertyName":null,"zoningCode":null,"zoningDistrict":null,"jurisdictionPrefix":null,"dorCode":null,"acreage":30.8036,"centroid":[-88.565867,34.997838],"lastSale":{"date":"2014-08-22","price":65580.0,"qualified":null,"vintage":"2023"},"tax":{"marketValue":15800.0,"assessedValue":null,"taxableValue":null,"taxes":null,"vintage":"2023"},"mailingAddress":{"line1":null,"line2":null,"city":null,"state":null,"zip":null},"incomeTract":null,"incomeBlockGroup":null,"nearestRoad":null,"flu":null,"opportunityZone":null,"oz2Eligibility":null,"source":"tn-oir-public-use-47109","appraiserUrl":"https://assessment.cot.tn.gov/TPAD/Parcel/GIS?gislink=055170%20%20%20%2000103"},"geometry":{"type":"Polygon","coordinates":[[[-88.563554,34.999876],[-88.567433,35.000076],[-88.567586,34.999954],[-88.566719,34.998064],[-88.567301,34.997537],[-88.5669,34.997269],[-88.566532,34.996454],[-88.564908,34.996406],[-88.564598,34.996415],[-88.563136,34.996326],[-88.563554,34.999876]],[[-88.566564,34.998876],[-88.565894,34.999344],[-88.56517,34.998707],[-88.565899,34.998197],[-88.566564,34.998876]]]}},{"type":"Feature","id":"47109:055168    00200","properties":{"id":"47109:055168    00200","parcelId":"055168    00200","countyFips":"47109","countyName":"McNairy","state":"Tennessee","marketIds":["Memphis"],"situsAddress":"WENASOGA RD 1800","situsCity":null,"situsZip":null,"jurisdictionCode":null,"ownerName":"MARK AUSTIN LLC","ownerName2":null,"propertyName":null,"zoningCode":null,"zoningDistrict":null,"jurisdictionPrefix":null,"dorCode":null,"acreage":30.089,"centroid":[-88.634652,34.998185],"lastSale":{"date":"2022-08-31","price":113794.0,"qualified":null,"vintage":"2023"},"tax":{"marketValue":16400.0,"assessedValue":null,"taxableValue":null,"taxes":null,"vintage":"2023"},"mailingAddress":{"line1":null,"line2":null,"city":null,"state":null,"zip":null},"incomeTract":null,"incomeBlockGroup":null,"nearestRoad":null,"flu":null,"opportunityZone":null,"oz2Eligibility":null,"source":"tn-oir-public-use-47109","appraiserUrl":"https://assessment.cot.tn.gov/TPAD/Parcel/GIS?gislink=055168%20%20%20%2000200"},"geometry":{"type":"Polygon","coordinates":[[[-88.632839,34.996999],[-88.633155,34.997189],[-88.63352,34.997426],[-88.633803,34.997621],[-88.634205,34.997915],[-88.634364,34.998024],[-88.634588,34.998159],[-88.634823,34.99828],[-88.634969,34.998347],[-88.635106,34.998404],[-88.635245,34.998456],[-88.635397,34.998507],[-88.635622,34.998572],[-88.636536,34.998804],[-88.63669,34.998854],[-88.636842,34.998919],[-88.636928,34.997913],[-88.638041,34.997974],[-88.638033,34.996551],[-88.63296,34.996542],[-88.632884,34.995473],[-88.627985,34.995439],[-88.628118,34.995545],[-88.628245,34.995656],[-88.628365,34.995771],[-88.62848,34.99589],[-88.628588,34.996014],[-88.62869,34.996141],[-88.628785,34.996272],[-88.628873,34.996405],[-88.629106,34.996817],[-88.629144,34.996872],[-88.629189,34.996926],[-88.629264,34.996999],[-88.629351,34.997063],[-88.629446,34.997118],[-88.629549,34.997162],[-88.630116,34.995772],[-88.631507,34.996141],[-88.631523,34.996407],[-88.632016,34.996407],[-88.632819,34.996393],[-88.632839,34.996999]]]}},{"type":"Feature","id":"47109:055171    00205","properties":{"id":"47109:055171    00205","parcelId":"055171    00205","countyFips":"47109","countyName":"McNairy","state":"Tennessee","marketIds":["Memphis"],"situsAddress":"OLD HWY 45 S","situsCity":null,"situsZip":null,"jurisdictionCode":null,"ownerName":"SHARP ERIC E ETUX DENISE LYNN","ownerName2":null,"propertyName":null,"zoningCode":null,"zoningDistrict":null,"jurisdictionPrefix":null,"dorCode":null,"acreage":23.2035,"centroid":[-88.516033,34.999597],"lastSale":{"date":"2022-04-07","price":67000.0,"qualified":null,"vintage":"2023"},"tax":{"marketValue":19200.0,"assessedValue":null,"taxableValue":null,"taxes":null,"vintage":"2023"},"mailingAddress":{"line1":null,"line2":null,"city":null,"state":null,"zip":null},"incomeTract":null,"incomeBlockGroup":null,"nearestRoad":null,"flu":null,"opportunityZone":null,"oz2Eligibility":null,"source":"tn-oir-public-use-47109","appraiserUrl":"https://assessment.cot.tn.gov/TPAD/Parcel/GIS?gislink=055171%20%20%20%2000205"},"geometry":{"type":"Polygon","coordinates":[[[-88.514667,35.000571],[-88.514754,35.000802],[-88.514882,35.001119],[-88.518659,35.000898],[-88.518659,34.999174],[-88.518371,34.99887],[-88.518244,34.998593],[-88.517834,34.998143],[-88.516302,34.998168],[-88.516329,34.99894],[-88.515033,34.99904],[-88.515075,34.999334],[-88.514363,34.999388],[-88.514424,34.999711],[-88.514502,35.000037],[-88.515163,34.999924],[-88.515308,35.000441],[-88.514667,35.000571]]]}},{"type":"Feature","id":"47109:055170    00700","properties":{"id":"47109:055170    00700","parcelId":"055170    00700","countyFips":"47109","countyName":"McNairy","state":"Tennessee","marketIds":["Memphis"],"situsAddress":"GIN RD S","situsCity":null,"situsZip":null,"jurisdictionCode":null,"ownerName":"L&B KING FAMILY HOLDINGS LLC","ownerName2":null,"propertyName":null,"zoningCode":null,"zoningDistrict":null,"jurisdictionPrefix":null,"dorCode":null,"acreage":22.663,"centroid":[-88.544885,34.996019],"lastSale":{"date":"2012-12-19","price":21658.0,"qualified":null,"vintage":"2023"},"tax":{"marketValue":9600.0,"assessedValue":null,"taxableValue":null,"taxes":null,"vintage":"2023"},"mailingAddress":{"line1":null,"line2":null,"city":null,"state":null,"zip":null},"incomeTract":null,"incomeBlockGroup":null,"nearestRoad":null,"flu":null,"opportunityZone":null,"oz2Eligibility":null,"source":"tn-oir-public-use-47109","appraiserUrl":"https://assessment.cot.tn.gov/TPAD/Parcel/GIS?gislink=055170%20%20%20%2000700"},"geometry":{"type":"Polygon","coordinates":[[[-88.540463,34.996519],[-88.549323,34.99654],[-88.54931,34.995455],[-88.540445,34.995561],[-88.540463,34.996519]]]}},{"type":"Feature","id":"47109:055170    00600","properties":{"id":"47109:055170    00600","parcelId":"055170    00600","countyFips":"47109","countyName":"McNairy","state":"Tennessee","marketIds":["Memphis"],"situsAddress":"GIN RD S","situsCity":null,"situsZip":null,"jurisdictionCode":null,"ownerName":"ADAMS W R EST","ownerName2":"C/O DWIGHT CUMMINGS","propertyName":null,"zoningCode":null,"zoningDistrict":null,"jurisdictionPrefix":null,"dorCode":null,"acreage":22.0159,"centroid":[-88.537836,34.996032],"lastSale":{"date":null,"price":null,"qualified":null},"tax":{"marketValue":36800.0,"assessedValue":null,"taxableValue":null,"taxes":null,"vintage":"2023"},"mailingAddress":{"line1":null,"line2":null,"city":null,"state":null,"zip":null},"incomeTract":null,"incomeBlockGroup":null,"nearestRoad":null,"flu":null,"opportunityZone":null,"oz2Eligibility":null,"source":"tn-oir-public-use-47109","appraiserUrl":"https://assessment.cot.tn.gov/TPAD/Parcel/GIS?gislink=055170%20%20%20%2000600"},"geometry":{"type":"MultiPolygon","coordinates":[[[[-88.531787,34.996499],[-88.540299,34.996519],[-88.540289,34.996346],[-88.540269,34.996141],[-88.540198,34.995763],[-88.540168,34.995563],[-88.53184,34.995391],[-88.531787,34.996499]]],[[[-88.540269,34.995566],[-88.540297,34.995752],[-88.540368,34.996131],[-88.540389,34.99634],[-88.540399,34.996519],[-88.540463,34.996519],[-88.540445,34.995561],[-88.540269,34.995562],[-88.540269,34.995566]]]]}},{"type":"Feature","id":"47109:055171    01001","properties":{"id":"47109:055171    01001","parcelId":"055171    01001","countyFips":"47109","countyName":"McNairy","state":"Tennessee","marketIds":["Memphis"],"situsAddress":"STATE LINE RD","situsCity":null,"situsZip":null,"jurisdictionCode":null,"ownerName":"HENRY ROBERT WAYNE ETUX MARGARET TRUSTEE","ownerName2":"WAYNE HENRY II ETUX RHONDA","propertyName":null,"zoningCode":null,"zoningDistrict":null,"jurisdictionPrefix":null,"dorCode":null,"acreage":20.7974,"centroid":[-88.507382,34.99792],"lastSale":{"date":"2016-02-18","price":null,"qualified":null,"vintage":"2023"},"tax":{"marketValue":28400.0,"assessedValue":null,"taxableValue":null,"taxes":null,"vintage":"2023"},"mailingAddress":{"line1":null,"line2":null,"city":null,"state":null,"zip":null},"incomeTract":null,"incomeBlockGroup":null,"nearestRoad":null,"flu":null,"opportunityZone":null,"oz2Eligibility":null,"source":"tn-oir-public-use-47109","appraiserUrl":"https://assessment.cot.tn.gov/TPAD/Parcel/GIS?gislink=055171%20%20%20%2001001"},"geometry":{"type":"Polygon","coordinates":[[[-88.505402,34.998936],[-88.505418,34.999902],[-88.506936,34.999882],[-88.507066,34.999765],[-88.50716,34.99964],[-88.507292,34.999439],[-88.507372,34.999258],[-88.50747,34.99894],[-88.507602,34.998451],[-88.507731,34.997932],[-88.507769,34.997814],[-88.5078,34.99769],[-88.507819,34.997563],[-88.507858,34.997425],[-88.507895,34.997331],[-88.508002,34.997016],[-88.508011,34.996872],[-88.508039,34.996665],[-88.508066,34.996497],[-88.508089,34.996407],[-88.508118,34.996251],[-88.507499,34.996243],[-88.505382,34.99624],[-88.505402,34.998936]]]}},{"type":"Feature","id":"47109:055170    00200","properties":{"id":"47109:055170    00200","parcelId":"055170    00200","countyFips":"47109","countyName":"McNairy","state":"Tennessee","marketIds":["Memphis"],"situsAddress":"TRAMHAM RD","situsCity":null,"situsZip":null,"jurisdictionCode":null,"ownerName":"FAULKNER LURENE","ownerName2":null,"propertyName":null,"zoningCode":null,"zoningDistrict":null,"jurisdictionPrefix":null,"dorCode":null,"acreage":17.4134,"centroid":[-88.572294,34.996034],"lastSale":{"date":"1979-08-09","price":null,"qualified":null,"vintage":"2023"},"tax":{"marketValue":44700.0,"assessedValue":null,"taxableValue":null,"taxes":null,"vintage":"2023"},"mailingAddress":{"line1":null,"line2":null,"city":null,"state":null,"zip":null},"incomeTract":null,"incomeBlockGroup":null,"nearestRoad":null,"flu":null,"opportunityZone":null,"oz2Eligibility":null,"source":"tn-oir-public-use-47109","appraiserUrl":"https://assessment.cot.tn.gov/TPAD/Parcel/GIS?gislink=055170%20%20%20%2000200"},"geometry":{"type":"Polygon","coordinates":[[[-88.569009,34.996639],[-88.576199,34.99661],[-88.5762,34.995636],[-88.570974,34.995675],[-88.569087,34.995609],[-88.569009,34.996639]]]}},{"type":"Feature","id":"47109:055170    00401","properties":{"id":"47109:055170    00401","parcelId":"055170    00401","countyFips":"47109","countyName":"McNairy","state":"Tennessee","marketIds":["Memphis"],"situsAddress":"GIN RD S","situsCity":null,"situsZip":null,"jurisdictionCode":null,"ownerName":"CIRCLE R FARMS LLC","ownerName2":null,"propertyName":null,"zoningCode":null,"zoningDistrict":null,"jurisdictionPrefix":null,"dorCode":null,"acreage":16.0236,"centroid":[-88.550401,34.999285],"lastSale":{"date":"2017-06-29","price":2417.0,"qualified":null,"vintage":"2023"},"tax":{"marketValue":6300.0,"assessedValue":null,"taxableValue":null,"taxes":null,"vintage":"2023"},"mailingAddress":{"line1":null,"line2":null,"city":null,"state":null,"zip":null},"incomeTract":null,"incomeBlockGroup":null,"nearestRoad":null,"flu":null,"opportunityZone":null,"oz2Eligibility":null,"source":"tn-oir-public-use-47109","appraiserUrl":"https://assessment.cot.tn.gov/TPAD/Parcel/GIS?gislink=055170%20%20%20%2000401"},"geometry":{"type":"Polygon","coordinates":[[[-88.549393,35.002084],[-88.549396,35.002317],[-88.550097,35.002313],[-88.550148,35.002171],[-88.551222,34.999386],[-88.551259,34.999267],[-88.551284,34.999149],[-88.551299,34.999026],[-88.551304,34.998895],[-88.551303,34.998878],[-88.550628,34.998753],[-88.550352,34.998021],[-88.550301,34.997591],[-88.549679,34.997636],[-88.549426,34.99654],[-88.549323,34.99654],[-88.549393,35.002084]]]}},{"type":"Feature","id":"47109:055169    00701","properties":{"id":"47109:055169    00701","parcelId":"055169    00701","countyFips":"47109","countyName":"McNairy","state":"Tennessee","marketIds":["Memphis"],"situsAddress":"GAY THOMPSON RD","situsCity":null,"situsZip":null,"jurisdictionCode":null,"ownerName":"HINTON PATRICK WAYNE","ownerName2":null,"propertyName":null,"zoningCode":null,"zoningDistrict":null,"jurisdictionPrefix":null,"dorCode":null,"acreage":15.003,"centroid":[-88.583379,34.996206],"lastSale":{"date":"2014-05-01","price":10000.0,"qualified":null,"vintage":"2023"},"tax":{"marketValue":8800.0,"assessedValue":null,"taxableValue":null,"taxes":null,"vintage":"2023"},"mailingAddress":{"line1":null,"line2":null,"city":null,"state":null,"zip":null},"incomeTract":null,"incomeBlockGroup":null,"nearestRoad":null,"flu":null,"opportunityZone":null,"oz2Eligibility":null,"source":"tn-oir-public-use-47109","appraiserUrl":"https://assessment.cot.tn.gov/TPAD/Parcel/GIS?gislink=055169%20%20%20%2000701"},"geometry":{"type":"Polygon","coordinates":[[[-88.578757,34.996583],[-88.584984,34.996515],[-88.58496,34.996444],[-88.584944,34.996377],[-88.584932,34.996309],[-88.584926,34.996236],[-88.584939,34.995569],[-88.578587,34.995617],[-88.578757,34.996583]]]}},{"type":"Feature","id":"47109:055169    00104","properties":{"id":"47109:055169    00104","parcelId":"055169    00104","countyFips":"47109","countyName":"McNairy","state":"Tennessee","marketIds":["Memphis"],"situsAddress":"S OF SOUTHERN RR","situsCity":null,"situsZip":null,"jurisdictionCode":null,"ownerName":"JOHNSON CHRISTIAN RAGAN","ownerName2":null,"propertyName":null,"zoningCode":null,"zoningDistrict":null,"jurisdictionPrefix":null,"dorCode":null,"acreage":13.5487,"centroid":[-88.612327,34.997635],"lastSale":{"date":"2014-05-23","price":10000.0,"qualified":null,"vintage":"2023"},"tax":{"marketValue":16500.0,"assessedValue":null,"taxableValue":null,"taxes":null,"vintage":"2023"},"mailingAddress":{"line1":null,"line2":null,"city":null,"state":null,"zip":null},"incomeTract":null,"incomeBlockGroup":null,"nearestRoad":null,"flu":null,"opportunityZone":null,"oz2Eligibility":null,"source":"tn-oir-public-use-47109","appraiserUrl":"https://assessment.cot.tn.gov/TPAD/Parcel/GIS?gislink=055169%20%20%20%2000104"},"geometry":{"type":"Polygon","coordinates":[[[-88.611555,34.999964],[-88.612786,35.000377],[-88.612836,34.996267],[-88.612847,34.995782],[-88.61161,34.995787],[-88.611555,34.999964]]]}},{"type":"Feature","id":"47109:055167    00700","properties":{"id":"47109:055167    00700","parcelId":"055167    00700","countyFips":"47109","countyName":"McNairy","state":"Tennessee","marketIds":["Memphis"],"situsAddress":"OLD REED SCHOOL HSE RD 1053","situsCity":null,"situsZip":null,"jurisdictionCode":null,"ownerName":"YORK BRUCE C","ownerName2":null,"propertyName":null,"zoningCode":null,"zoningDistrict":null,"jurisdictionPrefix":null,"dorCode":null,"acreage":13.544,"centroid":[-88.669861,34.999438],"lastSale":{"date":"2022-07-20","price":null,"qualified":null,"vintage":"2023"},"tax":{"marketValue":128900.0,"assessedValue":null,"taxableValue":null,"taxes":null,"vintage":"2023"},"mailingAddress":{"line1":null,"line2":null,"city":null,"state":null,"zip":null},"incomeTract":null,"incomeBlockGroup":null,"nearestRoad":null,"flu":null,"opportunityZone":null,"oz2Eligibility":null,"source":"tn-oir-public-use-47109","appraiserUrl":"https://assessment.cot.tn.gov/TPAD/Parcel/GIS?gislink=055167%20%20%20%2000700"},"geometry":{"type":"MultiPolygon","coordinates":[[[[-88.669338,34.998711],[-88.6694,34.999035],[-88.669422,34.999182],[-88.669437,34.999379],[-88.669436,34.999545],[-88.669422,34.999654],[-88.669396,34.999767],[-88.669312,35.000051],[-88.669223,35.000314],[-88.672315,35.000272],[-88.672301,34.998653],[-88.669335,34.998696],[-88.669338,34.998711]]],[[[-88.66886,34.999463],[-88.668867,35.000319],[-88.669119,35.000315],[-88.669211,35.000043],[-88.669288,34.999787],[-88.66932,34.999657],[-88.669336,34.999537],[-88.669337,34.99938],[-88.669322,34.999188],[-88.669301,34.999047],[-88.669257,34.998834],[-88.669235,34.998697],[-88.668853,34.998703],[-88.66886,34.999463]]]]}},{"type":"Feature","id":"47109:055171    01300","properties":{"id":"47109:055171    01300","parcelId":"055171    01300","countyFips":"47109","countyName":"McNairy","state":"Tennessee","marketIds":["Memphis"],"situsAddress":"STATE LINE RD 71","situsCity":null,"situsZip":null,"jurisdictionCode":null,"ownerName":"ALLEN ANDREW ETUX SALLY","ownerName2":null,"propertyName":null,"zoningCode":null,"zoningDistrict":null,"jurisdictionPrefix":null,"dorCode":null,"acreage":13.4108,"centroid":[-88.500588,34.997793],"lastSale":{"date":"2017-01-11","price":null,"qualified":null,"vintage":"2023"},"tax":{"marketValue":170800.0,"assessedValue":null,"taxableValue":null,"taxes":null,"vintage":"2023"},"mailingAddress":{"line1":null,"line2":null,"city":null,"state":null,"zip":null},"incomeTract":null,"incomeBlockGroup":null,"nearestRoad":null,"flu":null,"opportunityZone":null,"oz2Eligibility":null,"source":"tn-oir-public-use-47109","appraiserUrl":"https://assessment.cot.tn.gov/TPAD/Parcel/GIS?gislink=055171%20%20%20%2001300"},"geometry":{"type":"Polygon","coordinates":[[[-88.499633,34.997713],[-88.499648,34.999919],[-88.500887,34.999918],[-88.500929,34.997644],[-88.501945,34.997656],[-88.501966,34.996235],[-88.500317,34.99622],[-88.500333,34.997418],[-88.499632,34.99741],[-88.499633,34.997713]]]}},{"type":"Feature","id":"47109:055171    00500","properties":{"id":"47109:055171    00500","parcelId":"055171    00500","countyFips":"47109","countyName":"McNairy","state":"Tennessee","marketIds":["Memphis"],"situsAddress":"OLD HWY 45 S","situsCity":null,"situsZip":null,"jurisdictionCode":null,"ownerName":"REDMON TRACY HOPKINS","ownerName2":null,"propertyName":null,"zoningCode":null,"zoningDistrict":null,"jurisdictionPrefix":null,"dorCode":null,"acreage":13.1014,"centroid":[-88.514958,34.997988],"lastSale":{"date":"2013-04-02","price":null,"qualified":null,"vintage":"2023"},"tax":{"marketValue":39900.0,"assessedValue":null,"taxableValue":null,"taxes":null,"vintage":"2023"},"mailingAddress":{"line1":null,"line2":null,"city":null,"state":null,"zip":null},"incomeTract":null,"incomeBlockGroup":null,"nearestRoad":null,"flu":null,"opportunityZone":null,"oz2Eligibility":null,"source":"tn-oir-public-use-47109","appraiserUrl":"https://assessment.cot.tn.gov/TPAD/Parcel/GIS?gislink=055171%20%20%20%2000500"},"geometry":{"type":"Polygon","coordinates":[[[-88.514293,34.996384],[-88.514275,34.998376],[-88.514288,34.998722],[-88.514322,34.999094],[-88.516329,34.99894],[-88.516241,34.996415],[-88.514293,34.996384]]]}},{"type":"Feature","id":"47109:055167    00500","properties":{"id":"47109:055167    00500","parcelId":"055167    00500","countyFips":"47109","countyName":"McNairy","state":"Tennessee","marketIds":["Memphis"],"situsAddress":"OLD REED SCHOOL HSE RD 1171","situsCity":null,"situsZip":null,"jurisdictionCode":null,"ownerName":"FOSTER GARY L/E","ownerName2":"C/O CHARLES W JONES","propertyName":null,"zoningCode":null,"zoningDistrict":null,"jurisdictionPrefix":null,"dorCode":null,"acreage":13.0482,"centroid":[-88.670338,34.997402],"lastSale":{"date":"2014-08-25","price":null,"qualified":null,"vintage":"2023"},"tax":{"marketValue":41400.0,"assessedValue":null,"taxableValue":null,"taxes":null,"vintage":"2023"},"mailingAddress":{"line1":null,"line2":null,"city":null,"state":null,"zip":null},"incomeTract":null,"incomeBlockGroup":null,"nearestRoad":null,"flu":null,"opportunityZone":null,"oz2Eligibility":null,"source":"tn-oir-public-use-47109","appraiserUrl":"https://assessment.cot.tn.gov/TPAD/Parcel/GIS?gislink=055167%20%20%20%2000500"},"geometry":{"type":"Polygon","coordinates":[[[-88.671197,34.996668],[-88.671139,34.996673],[-88.671079,34.996686],[-88.670818,34.99677],[-88.67055,34.99687],[-88.670273,34.996991],[-88.670025,34.997115],[-88.669784,34.997251],[-88.669676,34.997329],[-88.669576,34.997424],[-88.669486,34.997535],[-88.669414,34.997655],[-88.66936,34.99778],[-88.669325,34.997911],[-88.669315,34.997979],[-88.669308,34.998071],[-88.669303,34.998286],[-88.669312,34.998491],[-88.669335,34.998696],[-88.672301,34.998653],[-88.672285,34.99675],[-88.67202,34.996711],[-88.67175,34.996683],[-88.671478,34.996669],[-88.671197,34.996668]]]}},{"type":"Feature","id":"47109:055169    00100","properties":{"id":"47109:055169    00100","parcelId":"055169    00100","countyFips":"47109","countyName":"McNairy","state":"Tennessee","marketIds":["Memphis"],"situsAddress":"S OF SOUTHERN R R","situsCity":null,"situsZip":null,"jurisdictionCode":null,"ownerName":"SKELTON GAIL L/E","ownerName2":null,"propertyName":null,"zoningCode":null,"zoningDistrict":null,"jurisdictionPrefix":null,"dorCode":null,"acreage":13.018,"centroid":[-88.614549,34.999879],"lastSale":{"date":"2013-11-14","price":6000.0,"qualified":null,"vintage":"2023"},"tax":{"marketValue":16000.0,"assessedValue":null,"taxableValue":null,"taxes":null,"vintage":"2023"},"mailingAddress":{"line1":null,"line2":null,"city":null,"state":null,"zip":null},"incomeTract":null,"incomeBlockGroup":null,"nearestRoad":null,"flu":null,"opportunityZone":null,"oz2Eligibility":null,"source":"tn-oir-public-use-47109","appraiserUrl":"https://assessment.cot.tn.gov/TPAD/Parcel/GIS?gislink=055169%20%20%20%2000100"},"geometry":{"type":"Polygon","coordinates":[[[-88.614024,34.996615],[-88.613893,35.000598],[-88.614008,35.00057],[-88.61412,35.000526],[-88.614244,35.00041],[-88.61434,35.000389],[-88.614424,35.000393],[-88.614546,35.000408],[-88.61475,35.000457],[-88.615019,35.000508],[-88.615156,35.000498],[-88.615263,35.000443],[-88.615355,34.996608],[-88.614024,34.996615]]]}},{"type":"Feature","id":"47109:055171    01302","properties":{"id":"47109:055171    01302","parcelId":"055171    01302","countyFips":"47109","countyName":"McNairy","state":"Tennessee","marketIds":["Memphis"],"situsAddress":"STATE LINE RD 63","situsCity":null,"situsZip":null,"jurisdictionCode":null,"ownerName":"MCCLAMROCH CHADWICK BRYAN ETUX","ownerName2":"JESSICA LEIGH","propertyName":null,"zoningCode":null,"zoningDistrict":null,"jurisdictionPrefix":null,"dorCode":null,"acreage":12.683,"centroid":[-88.503289,34.998401],"lastSale":{"date":"2005-05-18","price":null,"qualified":null,"vintage":"2023"},"tax":{"marketValue":70900.0,"assessedValue":null,"taxableValue":null,"taxes":null,"vintage":"2023"},"mailingAddress":{"line1":null,"line2":null,"city":null,"state":null,"zip":null},"incomeTract":null,"incomeBlockGroup":null,"nearestRoad":null,"flu":null,"opportunityZone":null,"oz2Eligibility":null,"source":"tn-oir-public-use-47109","appraiserUrl":"https://assessment.cot.tn.gov/TPAD/Parcel/GIS?gislink=055171%20%20%20%2001302"},"geometry":{"type":"Polygon","coordinates":[[[-88.501449,34.999658],[-88.501199,34.999927],[-88.50326,34.999914],[-88.503316,34.999661],[-88.503382,34.999475],[-88.503499,34.999207],[-88.503652,34.9989],[-88.504021,34.998221],[-88.504128,34.997998],[-88.504248,34.997681],[-88.504396,34.997232],[-88.504581,34.996504],[-88.504667,34.996239],[-88.503308,34.996234],[-88.503292,34.997672],[-88.501881,34.999192],[-88.501627,34.999108],[-88.501449,34.999658]]]}},{"type":"Feature","id":"47109:055169    00103","properties":{"id":"47109:055169    00103","parcelId":"055169    00103","countyFips":"47109","countyName":"McNairy","state":"Tennessee","marketIds":["Memphis"],"situsAddress":"S OF SOUTHERN RR","situsCity":null,"situsZip":null,"jurisdictionCode":null,"ownerName":"TALLEY BETTY","ownerName2":null,"propertyName":null,"zoningCode":null,"zoningDistrict":null,"jurisdictionPrefix":null,"dorCode":null,"acreage":12.3437,"centroid":[-88.613589,34.998981],"lastSale":{"date":"2006-11-13","price":5240.0,"qualified":null,"vintage":"2023"},"tax":{"marketValue":15500.0,"assessedValue":null,"taxableValue":null,"taxes":null,"vintage":"2023"},"mailingAddress":{"line1":null,"line2":null,"city":null,"state":null,"zip":null},"incomeTract":null,"incomeBlockGroup":null,"nearestRoad":null,"flu":null,"opportunityZone":null,"oz2Eligibility":null,"source":"tn-oir-public-use-47109","appraiserUrl":"https://assessment.cot.tn.gov/TPAD/Parcel/GIS?gislink=055169%20%20%20%2000103"},"geometry":{"type":"Polygon","coordinates":[[[-88.612786,35.000377],[-88.613634,35.000662],[-88.613696,35.000612],[-88.613811,35.000588],[-88.613893,35.000598],[-88.614029,34.99647],[-88.614029,34.996272],[-88.612836,34.996267],[-88.612786,35.000377]]]}},{"type":"Feature","id":"47109:055171    01304","properties":{"id":"47109:055171    01304","parcelId":"055171    01304","countyFips":"47109","countyName":"McNairy","state":"Tennessee","marketIds":["Memphis"],"situsAddress":"STATE LINE RD","situsCity":null,"situsZip":null,"jurisdictionCode":null,"ownerName":"WALDEN WILBERT BRADLEY","ownerName2":null,"propertyName":null,"zoningCode":null,"zoningDistrict":null,"jurisdictionPrefix":null,"dorCode":null,"acreage":12.2469,"centroid":[-88.501848,34.998324],"lastSale":{"date":"2022-03-16","price":null,"qualified":null,"vintage":"2023"},"tax":{"marketValue":25200.0,"assessedValue":null,"taxableValue":null,"taxes":null,"vintage":"2023"},"mailingAddress":{"line1":null,"line2":null,"city":null,"state":null,"zip":null},"incomeTract":null,"incomeBlockGroup":null,"nearestRoad":null,"flu":null,"opportunityZone":null,"oz2Eligibility":null,"source":"tn-oir-public-use-47109","appraiserUrl":"https://assessment.cot.tn.gov/TPAD/Parcel/GIS?gislink=055171%20%20%20%2001304"},"geometry":{"type":"Polygon","coordinates":[[[-88.500887,34.999918],[-88.501199,34.999927],[-88.501449,34.999658],[-88.501627,34.999108],[-88.501881,34.999192],[-88.503292,34.997672],[-88.503308,34.996234],[-88.501966,34.996235],[-88.501945,34.997656],[-88.500929,34.997644],[-88.500887,34.999918]]]}},{"type":"Feature","id":"47109:055167    00303","properties":{"id":"47109:055167    00303","parcelId":"055167    00303","countyFips":"47109","countyName":"McNairy","state":"Tennessee","marketIds":["Memphis"],"situsAddress":"OLD REED SCHOOL HSE RD 1559","situsCity":null,"situsZip":null,"jurisdictionCode":null,"ownerName":"LAMBERT ETHAN DALE","ownerName2":null,"propertyName":null,"zoningCode":null,"zoningDistrict":null,"jurisdictionPrefix":null,"dorCode":null,"acreage":11.7862,"centroid":[-88.674687,34.996053],"lastSale":{"date":"2016-09-27","price":null,"qualified":null,"vintage":"2023"},"tax":{"marketValue":67900.0,"assessedValue":null,"taxableValue":null,"taxes":null,"vintage":"2023"},"mailingAddress":{"line1":null,"line2":null,"city":null,"state":null,"zip":null},"incomeTract":null,"incomeBlockGroup":null,"nearestRoad":null,"flu":null,"opportunityZone":null,"oz2Eligibility":null,"source":"tn-oir-public-use-47109","appraiserUrl":"https://assessment.cot.tn.gov/TPAD/Parcel/GIS?gislink=055167%20%20%20%2000303"},"geometry":{"type":"Polygon","coordinates":[[[-88.674502,34.99562],[-88.67441,34.995765],[-88.674312,34.995895],[-88.674194,34.996026],[-88.674069,34.996146],[-88.673942,34.996251],[-88.6738,34.996353],[-88.673345,34.996628],[-88.673345,34.996651],[-88.677858,34.996598],[-88.677825,34.995319],[-88.674642,34.99538],[-88.674502,34.99562]]]}},{"type":"Feature","id":"47109:055167    00400","properties":{"id":"47109:055167    00400","parcelId":"055167    00400","countyFips":"47109","countyName":"McNairy","state":"Tennessee","marketIds":["Memphis"],"situsAddress":"OLD REED SCHOOL HSE RD 1451","situsCity":null,"situsZip":null,"jurisdictionCode":null,"ownerName":"REED MICHAEL B ETUX DONNA S","ownerName2":null,"propertyName":null,"zoningCode":null,"zoningDistrict":null,"jurisdictionPrefix":null,"dorCode":null,"acreage":11.7613,"centroid":[-88.672017,34.996518],"lastSale":{"date":"2013-05-28","price":1000.0,"qualified":null,"vintage":"2023"},"tax":{"marketValue":36700.0,"assessedValue":null,"taxableValue":null,"taxes":null,"vintage":"2023"},"mailingAddress":{"line1":null,"line2":null,"city":null,"state":null,"zip":null},"incomeTract":null,"incomeBlockGroup":null,"nearestRoad":null,"flu":null,"opportunityZone":null,"oz2Eligibility":null,"source":"tn-oir-public-use-47109","appraiserUrl":"https://assessment.cot.tn.gov/TPAD/Parcel/GIS?gislink=055167%20%20%20%2000400"},"geometry":{"type":"MultiPolygon","coordinates":[[[[-88.671203,34.996586],[-88.671371,34.996585],[-88.671542,34.996589],[-88.67171,34.996598],[-88.671868,34.996611],[-88.672168,34.996647],[-88.672557,34.996713],[-88.672657,34.996724],[-88.672767,34.996732],[-88.672868,34.996732],[-88.672949,34.996722],[-88.673036,34.996699],[-88.673116,34.996663],[-88.673345,34.996527],[-88.673343,34.995405],[-88.671156,34.995446],[-88.671175,34.996503],[-88.670534,34.996516],[-88.670805,34.996685],[-88.671058,34.996605],[-88.671131,34.996591],[-88.671203,34.996586]]],[[[-88.672301,34.998653],[-88.673349,34.998638],[-88.673345,34.996628],[-88.673179,34.996728],[-88.673116,34.996759],[-88.673024,34.996791],[-88.67292,34.996811],[-88.672811,34.996815],[-88.672631,34.996805],[-88.67249,34.996787],[-88.672285,34.99675],[-88.672301,34.998653]]]]}},{"type":"Feature","id":"47109:055171    00201","properties":{"id":"47109:055171    00201","parcelId":"055171    00201","countyFips":"47109","countyName":"McNairy","state":"Tennessee","marketIds":["Memphis"],"situsAddress":"HWY 45 S","situsCity":null,"situsZip":null,"jurisdictionCode":null,"ownerName":"HOPKINS VICKIE LYNN","ownerName2":"C/O VIKKI L HOLT","propertyName":null,"zoningCode":null,"zoningDistrict":null,"jurisdictionPrefix":null,"dorCode":null,"acreage":11.2997,"centroid":[-88.517866,34.997796],"lastSale":{"date":"1990-01-30","price":13500.0,"qualified":null,"vintage":"2023"},"tax":{"marketValue":7800.0,"assessedValue":null,"taxableValue":null,"taxes":null,"vintage":"2023"},"mailingAddress":{"line1":null,"line2":null,"city":null,"state":null,"zip":null},"incomeTract":null,"incomeBlockGroup":null,"nearestRoad":null,"flu":null,"opportunityZone":null,"oz2Eligibility":null,"source":"tn-oir-public-use-47109","appraiserUrl":"https://assessment.cot.tn.gov/TPAD/Parcel/GIS?gislink=055171%20%20%20%2000201"},"geometry":{"type":"Polygon","coordinates":[[[-88.516302,34.998168],[-88.517834,34.998143],[-88.518244,34.998593],[-88.518371,34.99887],[-88.518659,34.999174],[-88.518658,34.996556],[-88.51862,34.996453],[-88.516241,34.996415],[-88.516302,34.998168]]]}},{"type":"Feature","id":"47109:055171    01303","properties":{"id":"47109:055171    01303","parcelId":"055171    01303","countyFips":"47109","countyName":"McNairy","state":"Tennessee","marketIds":["Memphis"],"situsAddress":"STATE LINE RD","situsCity":null,"situsZip":null,"jurisdictionCode":null,"ownerName":"ALLEN ANDREW ETUX SALLY","ownerName2":null,"propertyName":null,"zoningCode":null,"zoningDistrict":null,"jurisdictionPrefix":null,"dorCode":null,"acreage":10.9747,"centroid":[-88.504198,34.9985],"lastSale":{"date":"2017-12-22","price":5000.0,"qualified":null,"vintage":"2023"},"tax":{"marketValue":24200.0,"assessedValue":null,"taxableValue":null,"taxes":null,"vintage":"2023"},"mailingAddress":{"line1":null,"line2":null,"city":null,"state":null,"zip":null},"incomeTract":null,"incomeBlockGroup":null,"nearestRoad":null,"flu":null,"opportunityZone":null,"oz2Eligibility":null,"source":"tn-oir-public-use-47109","appraiserUrl":"https://assessment.cot.tn.gov/TPAD/Parcel/GIS?gislink=055171%20%20%20%2001303"},"geometry":{"type":"Polygon","coordinates":[[[-88.503499,34.999207],[-88.503382,34.999475],[-88.503316,34.999661],[-88.50326,34.999914],[-88.503345,34.999916],[-88.504715,34.99991],[-88.504692,34.999518],[-88.504683,34.998945],[-88.505402,34.998936],[-88.505382,34.99624],[-88.504667,34.996239],[-88.504581,34.996504],[-88.504396,34.997232],[-88.504248,34.997681],[-88.504128,34.997998],[-88.504021,34.998221],[-88.503652,34.9989],[-88.503499,34.999207]]]}},{"type":"Feature","id":"47109:055168    00301","properties":{"id":"47109:055168    00301","parcelId":"055168    00301","countyFips":"47109","countyName":"McNairy","state":"Tennessee","marketIds":["Memphis"],"situsAddress":"WENASOGA RD 2163","situsCity":null,"situsZip":null,"jurisdictionCode":null,"ownerName":"BROZOWSKI KENNETH J ETUX","ownerName2":"DIANE","propertyName":null,"zoningCode":null,"zoningDistrict":null,"jurisdictionPrefix":null,"dorCode":null,"acreage":9.7108,"centroid":[-88.635832,34.995924],"lastSale":{"date":"2017-07-14","price":null,"qualified":null,"vintage":"2023"},"tax":{"marketValue":57900.0,"assessedValue":null,"taxableValue":null,"taxes":null,"vintage":"2023"},"mailingAddress":{"line1":null,"line2":null,"city":null,"state":null,"zip":null},"incomeTract":null,"incomeBlockGroup":null,"nearestRoad":null,"flu":null,"opportunityZone":null,"oz2Eligibility":null,"source":"tn-oir-public-use-47109","appraiserUrl":"https://assessment.cot.tn.gov/TPAD/Parcel/GIS?gislink=055168%20%20%20%2000301"},"geometry":{"type":"Polygon","coordinates":[[[-88.634363,34.995527],[-88.634337,34.996545],[-88.638033,34.996551],[-88.638065,34.995513],[-88.634364,34.995485],[-88.634363,34.995527]]]}},{"type":"Feature","id":"47109:055170    00201","properties":{"id":"47109:055170    00201","parcelId":"055170    00201","countyFips":"47109","countyName":"McNairy","state":"Tennessee","marketIds":["Memphis"],"situsAddress":"TRAMHAM RD 1442","situsCity":null,"situsZip":null,"jurisdictionCode":null,"ownerName":"LANGLEY FAMILY COMMUNITY PROPERTY TRUST","ownerName2":"& MARVIN MCQUEEN","propertyName":null,"zoningCode":null,"zoningDistrict":null,"jurisdictionPrefix":null,"dorCode":null,"acreage":9.6166,"centroid":[-88.565077,34.996167],"lastSale":{"date":"2013-09-30","price":null,"qualified":null,"vintage":"2023"},"tax":{"marketValue":23400.0,"assessedValue":null,"taxableValue":null,"taxes":null,"vintage":"2023"},"mailingAddress":{"line1":null,"line2":null,"city":null,"state":null,"zip":null},"incomeTract":null,"incomeBlockGroup":null,"nearestRoad":null,"flu":null,"opportunityZone":null,"oz2Eligibility":null,"source":"tn-oir-public-use-47109","appraiserUrl":"https://assessment.cot.tn.gov/TPAD/Parcel/GIS?gislink=055170%20%20%20%2000201"},"geometry":{"type":"Polygon","coordinates":[[[-88.566532,34.996454],[-88.566833,34.996474],[-88.566814,34.996019],[-88.566471,34.996025],[-88.566375,34.996016],[-88.566278,34.995998],[-88.566209,34.996424],[-88.565152,34.995981],[-88.565647,34.99561],[-88.561072,34.995624],[-88.561049,34.996567],[-88.563136,34.996326],[-88.564598,34.996415],[-88.564908,34.996406],[-88.566532,34.996454]]]}},{"type":"Feature","id":"47109:055171    01000","properties":{"id":"47109:055171    01000","parcelId":"055171    01000","countyFips":"47109","countyName":"McNairy","state":"Tennessee","marketIds":["Memphis"],"situsAddress":"HWY 45","situsCity":null,"situsZip":null,"jurisdictionCode":null,"ownerName":"HENRY ROBERT WAYNE ETUX MARGARET TRUSTEE","ownerName2":"AND WAYNE HENRY II","propertyName":null,"zoningCode":null,"zoningDistrict":null,"jurisdictionPrefix":null,"dorCode":null,"acreage":9.2036,"centroid":[-88.512946,34.999191],"lastSale":{"date":"2016-02-18","price":null,"qualified":null,"vintage":"2023"},"tax":{"marketValue":43900.0,"assessedValue":null,"taxableValue":null,"taxes":null,"vintage":"2023"},"mailingAddress":{"line1":null,"line2":null,"city":null,"state":null,"zip":null},"incomeTract":null,"incomeBlockGroup":null,"nearestRoad":null,"flu":null,"opportunityZone":null,"oz2Eligibility":null,"source":"tn-oir-public-use-47109","appraiserUrl":"https://assessment.cot.tn.gov/TPAD/Parcel/GIS?gislink=055171%20%20%20%2001000"},"geometry":{"type":"Polygon","coordinates":[[[-88.513939,34.999983],[-88.514319,34.99999],[-88.51427,34.999783],[-88.514227,34.999572],[-88.51419,34.999359],[-88.51416,34.999146],[-88.514137,34.998932],[-88.514121,34.998724],[-88.514111,34.998509],[-88.514108,34.998298],[-88.512786,34.998296],[-88.512694,34.998425],[-88.512594,34.998551],[-88.512487,34.99867],[-88.512371,34.998787],[-88.512229,34.998914],[-88.511536,34.999491],[-88.511441,34.99958],[-88.511367,34.999662],[-88.511299,34.999751],[-88.511243,34.999839],[-88.511193,34.999934],[-88.513939,34.999983]]]}},{"type":"Feature","id":"47109:055168    00106","properties":{"id":"47109:055168    00106","parcelId":"055168    00106","countyFips":"47109","countyName":"McNairy","state":"Tennessee","marketIds":["Memphis"],"situsAddress":"WENASOGA RD 1563","situsCity":null,"situsZip":null,"jurisdictionCode":null,"ownerName":"RAGAN CHRIS ETUX PHYLLIS","ownerName2":null,"propertyName":null,"zoningCode":null,"zoningDistrict":null,"jurisdictionPrefix":null,"dorCode":null,"acreage":8.71,"centroid":[-88.641996,34.999221],"lastSale":{"date":"1994-08-25","price":8500.0,"qualified":null,"vintage":"2023"},"tax":{"marketValue":213600.0,"assessedValue":null,"taxableValue":null,"taxes":null,"vintage":"2023"},"mailingAddress":{"line1":null,"line2":null,"city":null,"state":null,"zip":null},"incomeTract":null,"incomeBlockGroup":null,"nearestRoad":null,"flu":null,"opportunityZone":null,"oz2Eligibility":null,"source":"tn-oir-public-use-47109","appraiserUrl":"https://assessment.cot.tn.gov/TPAD/Parcel/GIS?gislink=055168%20%20%20%2000106"},"geometry":{"type":"Polygon","coordinates":[[[-88.640415,34.998683],[-88.641385,35.000361],[-88.642624,34.999625],[-88.642815,34.999504],[-88.642995,34.99938],[-88.641741,34.997772],[-88.640415,34.998683]]]}},{"type":"Feature","id":"47109:055169    00501","properties":{"id":"47109:055169    00501","parcelId":"055169    00501","countyFips":"47109","countyName":"McNairy","state":"Tennessee","marketIds":["Memphis"],"situsAddress":"S OF SOUTHERN RR","situsCity":null,"situsZip":null,"jurisdictionCode":null,"ownerName":"BRIGGS WILLIAM A.","ownerName2":null,"propertyName":null,"zoningCode":null,"zoningDistrict":null,"jurisdictionPrefix":null,"dorCode":null,"acreage":8.5124,"centroid":[-88.600781,34.995826],"lastSale":{"date":"2008-06-30","price":11100.0,"qualified":null,"vintage":"2023"},"tax":{"marketValue":16200.0,"assessedValue":null,"taxableValue":null,"taxes":null,"vintage":"2023"},"mailingAddress":{"line1":null,"line2":null,"city":null,"state":null,"zip":null},"incomeTract":null,"incomeBlockGroup":null,"nearestRoad":null,"flu":null,"opportunityZone":null,"oz2Eligibility":null,"source":"tn-oir-public-use-47109","appraiserUrl":"https://assessment.cot.tn.gov/TPAD/Parcel/GIS?gislink=055169%20%20%20%2000501"},"geometry":{"type":"Polygon","coordinates":[[[-88.600826,34.996362],[-88.602346,34.996374],[-88.602315,34.995251],[-88.597638,34.995319],[-88.600826,34.996362]]]}},{"type":"Feature","id":"47109:055171    00700","properties":{"id":"47109:055171    00700","parcelId":"055171    00700","countyFips":"47109","countyName":"McNairy","state":"Tennessee","marketIds":["Memphis"],"situsAddress":"OLD HWY 45 S","situsCity":null,"situsZip":null,"jurisdictionCode":null,"ownerName":"REDMON TRACY HOPKINS","ownerName2":null,"propertyName":null,"zoningCode":null,"zoningDistrict":null,"jurisdictionPrefix":null,"dorCode":null,"acreage":7.2197,"centroid":[-88.51582,34.995935],"lastSale":{"date":"2013-04-02","price":null,"qualified":null,"vintage":"2023"},"tax":{"marketValue":22600.0,"assessedValue":null,"taxableValue":null,"taxes":null,"vintage":"2023"},"mailingAddress":{"line1":null,"line2":null,"city":null,"state":null,"zip":null},"incomeTract":null,"incomeBlockGroup":null,"nearestRoad":null,"flu":null,"opportunityZone":null,"oz2Eligibility":null,"source":"tn-oir-public-use-47109","appraiserUrl":"https://assessment.cot.tn.gov/TPAD/Parcel/GIS?gislink=055171%20%20%20%2000700"},"geometry":{"type":"Polygon","coordinates":[[[-88.514303,34.995426],[-88.514293,34.996384],[-88.51734,34.996433],[-88.517345,34.995497],[-88.514303,34.995426]]]}},{"type":"Feature","id":"47109:055168    00107","properties":{"id":"47109:055168    00107","parcelId":"055168    00107","countyFips":"47109","countyName":"McNairy","state":"Tennessee","marketIds":["Memphis"],"situsAddress":"WENASOGA RD 1571","situsCity":null,"situsZip":null,"jurisdictionCode":null,"ownerName":"RAGAN CHRIS","ownerName2":"ETUX PHYLLIS","propertyName":null,"zoningCode":null,"zoningDistrict":null,"jurisdictionPrefix":null,"dorCode":null,"acreage":6.3987,"centroid":[-88.640811,34.999568],"lastSale":{"date":"2018-08-29","price":6000.0,"qualified":null,"vintage":"2023"},"tax":{"marketValue":91400.0,"assessedValue":null,"taxableValue":null,"taxes":null,"vintage":"2023"},"mailingAddress":{"line1":null,"line2":null,"city":null,"state":null,"zip":null},"incomeTract":null,"incomeBlockGroup":null,"nearestRoad":null,"flu":null,"opportunityZone":null,"oz2Eligibility":null,"source":"tn-oir-public-use-47109","appraiserUrl":"https://assessment.cot.tn.gov/TPAD/Parcel/GIS?gislink=055168%20%20%20%2000107"},"geometry":{"type":"Polygon","coordinates":[[[-88.641107,35.000507],[-88.641109,35.000513],[-88.641201,35.000467],[-88.641385,35.000361],[-88.640415,34.998683],[-88.641741,34.997772],[-88.639388,34.997978],[-88.639991,34.99994],[-88.640959,34.999893],[-88.641107,35.000507]]]}},{"type":"Feature","id":"47109:055169    00700","properties":{"id":"47109:055169    00700","parcelId":"055169    00700","countyFips":"47109","countyName":"McNairy","state":"Tennessee","marketIds":["Memphis"],"situsAddress":"GAY THOMPSON RD E OF","situsCity":null,"situsZip":null,"jurisdictionCode":null,"ownerName":"HINTON LOWELL LEE JR","ownerName2":null,"propertyName":null,"zoningCode":null,"zoningDistrict":null,"jurisdictionPrefix":null,"dorCode":null,"acreage":6.0074,"centroid":[-88.577436,34.996111],"lastSale":{"date":"2018-07-10","price":null,"qualified":null,"vintage":"2023"},"tax":{"marketValue":7800.0,"assessedValue":null,"taxableValue":null,"taxes":null,"vintage":"2023"},"mailingAddress":{"line1":null,"line2":null,"city":null,"state":null,"zip":null},"incomeTract":null,"incomeBlockGroup":null,"nearestRoad":null,"flu":null,"opportunityZone":null,"oz2Eligibility":null,"source":"tn-oir-public-use-47109","appraiserUrl":"https://assessment.cot.tn.gov/TPAD/Parcel/GIS?gislink=055169%20%20%20%2000700"},"geometry":{"type":"Polygon","coordinates":[[[-88.576199,34.99661],[-88.578757,34.996583],[-88.578587,34.995617],[-88.5762,34.995636],[-88.576199,34.99661]]]}},{"type":"Feature","id":"47109:055171    00800","properties":{"id":"47109:055171    00800","parcelId":"055171    00800","countyFips":"47109","countyName":"McNairy","state":"Tennessee","marketIds":["Memphis"],"situsAddress":"STATELINE RD","situsCity":null,"situsZip":null,"jurisdictionCode":null,"ownerName":"ESSARY KELLY RAE","ownerName2":null,"propertyName":null,"zoningCode":null,"zoningDistrict":null,"jurisdictionPrefix":null,"dorCode":null,"acreage":5.7595,"centroid":[-88.513152,34.99583],"lastSale":{"date":"2014-10-31","price":25000.0,"qualified":null,"vintage":"2023"},"tax":{"marketValue":20200.0,"assessedValue":null,"taxableValue":null,"taxes":null,"vintage":"2023"},"mailingAddress":{"line1":null,"line2":null,"city":null,"state":null,"zip":null},"incomeTract":null,"incomeBlockGroup":null,"nearestRoad":null,"flu":null,"opportunityZone":null,"oz2Eligibility":null,"source":"tn-oir-public-use-47109","appraiserUrl":"https://assessment.cot.tn.gov/TPAD/Parcel/GIS?gislink=055171%20%20%20%2000800"},"geometry":{"type":"Polygon","coordinates":[[[-88.512403,34.996256],[-88.512747,34.996264],[-88.512993,34.996273],[-88.514127,34.996339],[-88.514141,34.99495],[-88.512502,34.9949],[-88.512403,34.996256]]]}},{"type":"Feature","id":"47109:055168    00202","properties":{"id":"47109:055168    00202","parcelId":"055168    00202","countyFips":"47109","countyName":"McNairy","state":"Tennessee","marketIds":["Memphis"],"situsAddress":"WENASOGA RD 2285","situsCity":null,"situsZip":null,"jurisdictionCode":null,"ownerName":"DAVIS ROBERT LEWIS","ownerName2":"ETUX PATRICIA JO","propertyName":null,"zoningCode":null,"zoningDistrict":null,"jurisdictionPrefix":null,"dorCode":null,"acreage":5.0768,"centroid":[-88.630215,34.996878],"lastSale":{"date":"2013-02-20","price":null,"qualified":null,"vintage":"2023"},"tax":{"marketValue":65500.0,"assessedValue":null,"taxableValue":null,"taxes":null,"vintage":"2023"},"mailingAddress":{"line1":null,"line2":null,"city":null,"state":null,"zip":null},"incomeTract":null,"incomeBlockGroup":null,"nearestRoad":null,"flu":null,"opportunityZone":null,"oz2Eligibility":null,"source":"tn-oir-public-use-47109","appraiserUrl":"https://assessment.cot.tn.gov/TPAD/Parcel/GIS?gislink=055168%20%20%20%2000202"},"geometry":{"type":"Polygon","coordinates":[[[-88.629857,34.996406],[-88.629549,34.997162],[-88.629592,34.997177],[-88.629726,34.99721],[-88.62986,34.997225],[-88.630015,34.997224],[-88.630194,34.99721],[-88.630394,34.99718],[-88.631557,34.996952],[-88.631507,34.996141],[-88.630116,34.995772],[-88.629857,34.996406]]]}},{"type":"Feature","id":"47109:055166    00201","properties":{"id":"47109:055166    00201","parcelId":"055166    00201","countyFips":"47109","countyName":"McNairy","state":"Tennessee","marketIds":["Memphis"],"situsAddress":"STATE LINE","situsCity":null,"situsZip":null,"jurisdictionCode":null,"ownerName":"GREEN STUART B","ownerName2":null,"propertyName":null,"zoningCode":null,"zoningDistrict":null,"jurisdictionPrefix":null,"dorCode":null,"acreage":5.0603,"centroid":[-88.725851,34.995539],"lastSale":{"date":"2002-08-23","price":10000.0,"qualified":null,"vintage":"2023"},"tax":{"marketValue":6300.0,"assessedValue":null,"taxableValue":null,"taxes":null,"vintage":"2023"},"mailingAddress":{"line1":null,"line2":null,"city":null,"state":null,"zip":null},"incomeTract":null,"incomeBlockGroup":null,"nearestRoad":null,"flu":null,"opportunityZone":null,"oz2Eligibility":null,"source":"tn-oir-public-use-47109","appraiserUrl":"https://assessment.cot.tn.gov/TPAD/Parcel/GIS?gislink=055166%20%20%20%2000201"},"geometry":{"type":"Polygon","coordinates":[[[-88.725303,34.996428],[-88.726416,34.996425],[-88.726425,34.994648],[-88.72526,34.994653],[-88.725303,34.996428]]]}}]}