{"type":"FeatureCollection","name":"12049-3_2","features":[{"type":"Feature","id":"12049:19-33-23-0000-02420-0000","properties":{"id":"12049:19-33-23-0000-02420-0000","parcelId":"19-33-23-0000-02420-0000","countyFips":"12049","countyName":"Hardee","state":"Florida","marketIds":["Tampa"],"situsAddress":null,"situsCity":"BOWLING GREEN","situsZip":"33834","jurisdictionCode":null,"ownerName":"IMC PHOSPHATES COMPANY","ownerName2":null,"propertyName":null,"zoningCode":null,"zoningDistrict":null,"jurisdictionPrefix":null,"dorCode":"092","acreage":141.25,"centroid":[-82.04523,27.600548],"lastSale":{"date":null,"price":null,"qualified":null},"tax":{"marketValue":141250.0,"assessedValue":141250.0,"taxableValue":141250.0,"taxes":null},"mailingAddress":{"line1":"13830 CIRCA CROSSSING DR","line2":null,"city":"LITHIA","state":"FL","zip":"33547"},"incomeTract":null,"incomeBlockGroup":null,"nearestRoad":null,"flu":null,"opportunityZone":null,"oz2Eligibility":null,"source":"fl-doh-ehwaters-12049"},"geometry":{"type":"Polygon","coordinates":[[[-82.03807,27.60215],[-82.03808,27.59853],[-82.05239,27.59893],[-82.05238,27.60258],[-82.03807,27.60215]]]}},{"type":"Feature","id":"12049:05-33-23-0000-02510-0000","properties":{"id":"12049:05-33-23-0000-02510-0000","parcelId":"05-33-23-0000-02510-0000","countyFips":"12049","countyName":"Hardee","state":"Florida","marketIds":["Tampa"],"situsAddress":null,"situsCity":"BOWLING GREEN","situsZip":"33834","jurisdictionCode":null,"ownerName":"IMC-AGRICO COMPANY","ownerName2":null,"propertyName":null,"zoningCode":null,"zoningDistrict":null,"jurisdictionPrefix":null,"dorCode":"092","acreage":134.0,"centroid":[-82.0336,27.64346],"lastSale":{"date":null,"price":null,"qualified":null},"tax":{"marketValue":209000.0,"assessedValue":209000.0,"taxableValue":209000.0,"taxes":null},"mailingAddress":{"line1":"C/O MOSAIC FERTILIZER, LLC","line2":"13830 CIRCA CROSSING DRIVE","city":"LITHIA","state":"FL","zip":"33547"},"incomeTract":null,"incomeBlockGroup":null,"nearestRoad":null,"flu":null,"opportunityZone":null,"oz2Eligibility":null,"source":"fl-doh-ehwaters-12049"},"geometry":{"type":"Polygon","coordinates":[[[-82.02957,27.64622],[-82.0296,27.64068],[-82.03764,27.64072],[-82.03759,27.64622],[-82.02957,27.64622]]]}},{"type":"Feature","id":"12049:19-34-23-0000-07510-0000","properties":{"id":"12049:19-34-23-0000-07510-0000","parcelId":"19-34-23-0000-07510-0000","countyFips":"12049","countyName":"Hardee","state":"Florida","marketIds":["Tampa"],"situsAddress":"1081 OWEN ROBERTS RD","situsCity":"ONA","situsZip":"33865","jurisdictionCode":null,"ownerName":"PARKS DARYL J & WILLENE","ownerName2":null,"propertyName":null,"zoningCode":null,"zoningDistrict":null,"jurisdictionPrefix":null,"dorCode":"061","acreage":120.0,"centroid":[-82.041773,27.504286],"lastSale":{"date":null,"price":null,"qualified":null},"tax":{"marketValue":460020.0,"assessedValue":133007.0,"taxableValue":108007.0,"taxes":null},"mailingAddress":{"line1":"1081 OWEN ROBERTS RD","line2":null,"city":"ONA","state":"FL","zip":"33865"},"incomeTract":null,"incomeBlockGroup":null,"nearestRoad":null,"flu":null,"opportunityZone":null,"oz2Eligibility":null,"source":"fl-doh-ehwaters-12049"},"geometry":{"type":"Polygon","coordinates":[[[-82.03764,27.50735],[-82.0377,27.50371],[-82.04178,27.50376],[-82.04183,27.50011],[-82.04591,27.50017],[-82.04582,27.50748],[-82.04173,27.50742],[-82.03764,27.50735]]]}},{"type":"Feature","id":"12049:16-34-23-0000-10040-0000","properties":{"id":"12049:16-34-23-0000-10040-0000","parcelId":"16-34-23-0000-10040-0000","countyFips":"12049","countyName":"Hardee","state":"Florida","marketIds":["Tampa"],"situsAddress":"SIDNEY ROBERTS RD","situsCity":"ONA","situsZip":"33865","jurisdictionCode":null,"ownerName":"IMC-AGRICO COMPANY","ownerName2":null,"propertyName":null,"zoningCode":null,"zoningDistrict":null,"jurisdictionPrefix":null,"dorCode":"063","acreage":100.0,"centroid":[-82.018814,27.522526],"lastSale":{"date":null,"price":null,"qualified":null},"tax":{"marketValue":416000.0,"assessedValue":4394.0,"taxableValue":4394.0,"taxes":null},"mailingAddress":{"line1":"C/O MOSAIC FERTILIZER, LLC","line2":"13830 CIRCA CROSSING DRIVE","city":"LITHIA","state":"FL","zip":"33547"},"incomeTract":null,"incomeBlockGroup":null,"nearestRoad":null,"flu":null,"opportunityZone":null,"oz2Eligibility":null,"source":"fl-doh-ehwaters-12049"},"geometry":{"type":"Polygon","coordinates":[[[-82.01742,27.52892],[-82.01906,27.52586],[-82.01811,27.52587],[-82.01812,27.52421],[-82.01573,27.52251],[-82.01707,27.52174],[-82.01935,27.51819],[-82.02087,27.51454],[-82.02126,27.51454],[-82.02115,27.52888],[-82.01742,27.52892]]]}},{"type":"Feature","id":"12049:18-34-23-0000-08110-0000","properties":{"id":"12049:18-34-23-0000-08110-0000","parcelId":"18-34-23-0000-08110-0000","countyFips":"12049","countyName":"Hardee","state":"Florida","marketIds":["Tampa"],"situsAddress":null,"situsCity":"ONA","situsZip":"33865","jurisdictionCode":null,"ownerName":"IMC PHOSPHATES COMPANY","ownerName2":null,"propertyName":null,"zoningCode":null,"zoningDistrict":null,"jurisdictionPrefix":null,"dorCode":"092","acreage":80.0,"centroid":[-82.041645,27.516542],"lastSale":{"date":null,"price":null,"qualified":null},"tax":{"marketValue":86640.0,"assessedValue":86640.0,"taxableValue":86640.0,"taxes":null},"mailingAddress":{"line1":"13830 CIRCA CROSSSING DR","line2":null,"city":"LITHIA","state":"FL","zip":"33547"},"incomeTract":null,"incomeBlockGroup":null,"nearestRoad":null,"flu":null,"opportunityZone":null,"oz2Eligibility":null,"source":"fl-doh-ehwaters-12049"},"geometry":{"type":"Polygon","coordinates":[[[-82.0375,27.5183],[-82.03754,27.51465],[-82.04572,27.51478],[-82.04582,27.51844],[-82.0375,27.5183]]]}},{"type":"Feature","id":"12049:19-34-23-0000-02430-0000","properties":{"id":"12049:19-34-23-0000-02430-0000","parcelId":"19-34-23-0000-02430-0000","countyFips":"12049","countyName":"Hardee","state":"Florida","marketIds":["Tampa"],"situsAddress":null,"situsCity":"ONA","situsZip":"33865","jurisdictionCode":null,"ownerName":"FP ONE CORP & FP TWO CORP  C/O","ownerName2":null,"propertyName":null,"zoningCode":null,"zoningDistrict":null,"jurisdictionPrefix":null,"dorCode":"092","acreage":80.0,"centroid":[-82.05041,27.51303],"lastSale":{"date":null,"price":null,"qualified":null},"tax":{"marketValue":238675.0,"assessedValue":238675.0,"taxableValue":238675.0,"taxes":null},"mailingAddress":{"line1":"GEN MOTORS MGMT INVES CORP","line2":"767 5TH AVE   ATTN J P PEYTON","city":"NEW YORK","state":"NY","zip":"10153"},"incomeTract":null,"incomeBlockGroup":null,"nearestRoad":null,"flu":null,"opportunityZone":null,"oz2Eligibility":null,"source":"fl-doh-ehwaters-12049"},"geometry":{"type":"Polygon","coordinates":[[[-82.04572,27.51478],[-82.04577,27.51113],[-82.05509,27.51128],[-82.05506,27.51493],[-82.04572,27.51478]]]}},{"type":"Feature","id":"12049:21-33-23-0000-02510-0000","properties":{"id":"12049:21-33-23-0000-02510-0000","parcelId":"21-33-23-0000-02510-0000","countyFips":"12049","countyName":"Hardee","state":"Florida","marketIds":["Tampa"],"situsAddress":"ST RD 62","situsCity":"BOWLING GREEN","situsZip":"33834","jurisdictionCode":null,"ownerName":"CF INDUSTRIES INC","ownerName2":null,"propertyName":null,"zoningCode":null,"zoningDistrict":null,"jurisdictionPrefix":null,"dorCode":"061","acreage":79.64,"centroid":[-82.019815,27.591212],"lastSale":{"date":null,"price":null,"qualified":null},"tax":{"marketValue":398200.0,"assessedValue":110147.0,"taxableValue":110147.0,"taxes":null},"mailingAddress":{"line1":"PO DRAWER L","line2":null,"city":"PLANT CITY","state":"FL","zip":"33564"},"incomeTract":null,"incomeBlockGroup":null,"nearestRoad":null,"flu":null,"opportunityZone":null,"oz2Eligibility":null,"source":"fl-doh-ehwaters-12049"},"geometry":{"type":"Polygon","coordinates":[[[-82.01778,27.59482],[-82.01778,27.58759],[-82.02185,27.5876],[-82.02185,27.59484],[-82.01778,27.59482]]]}},{"type":"Feature","id":"12049:20-33-23-0000-07510-0000","properties":{"id":"12049:20-33-23-0000-07510-0000","parcelId":"20-33-23-0000-07510-0000","countyFips":"12049","countyName":"Hardee","state":"Florida","marketIds":["Tampa"],"situsAddress":"ST RD 62","situsCity":"BOWLING GREEN","situsZip":"33834","jurisdictionCode":null,"ownerName":"CF INDUSTRIES INC","ownerName2":null,"propertyName":null,"zoningCode":null,"zoningDistrict":null,"jurisdictionPrefix":null,"dorCode":"063","acreage":79.48,"centroid":[-82.02388,27.59123],"lastSale":{"date":null,"price":null,"qualified":null},"tax":{"marketValue":397400.0,"assessedValue":16830.0,"taxableValue":16830.0,"taxes":null},"mailingAddress":{"line1":"PO DRAWER L","line2":null,"city":"PLANT CITY","state":"FL","zip":"33564"},"incomeTract":null,"incomeBlockGroup":null,"nearestRoad":null,"flu":null,"opportunityZone":null,"oz2Eligibility":null,"source":"fl-doh-ehwaters-12049"},"geometry":{"type":"Polygon","coordinates":[[[-82.02185,27.59484],[-82.02185,27.5876],[-82.02591,27.58762],[-82.02591,27.59486],[-82.02185,27.59484]]]}},{"type":"Feature","id":"12049:18-33-23-0000-03260-0000","properties":{"id":"12049:18-33-23-0000-03260-0000","parcelId":"18-33-23-0000-03260-0000","countyFips":"12049","countyName":"Hardee","state":"Florida","marketIds":["Tampa"],"situsAddress":null,"situsCity":"BOWLING GREEN","situsZip":"33834","jurisdictionCode":null,"ownerName":"IMC PHOSPHATES COMPANY","ownerName2":null,"propertyName":null,"zoningCode":null,"zoningDistrict":null,"jurisdictionPrefix":null,"dorCode":"092","acreage":69.0,"centroid":[-82.045208,27.603278],"lastSale":{"date":null,"price":null,"qualified":null},"tax":{"marketValue":105185.0,"assessedValue":105185.0,"taxableValue":105185.0,"taxes":null},"mailingAddress":{"line1":"13830 CIRCA CROSSSING DR","line2":null,"city":"LITHIA","state":"FL","zip":"33547"},"incomeTract":null,"incomeBlockGroup":null,"nearestRoad":null,"flu":null,"opportunityZone":null,"oz2Eligibility":null,"source":"fl-doh-ehwaters-12049"},"geometry":{"type":"Polygon","coordinates":[[[-82.03804,27.60397],[-82.03807,27.60215],[-82.05238,27.60258],[-82.05234,27.60441],[-82.03804,27.60397]]]}},{"type":"Feature","id":"12049:06-33-23-0000-00500-0000","properties":{"id":"12049:06-33-23-0000-00500-0000","parcelId":"06-33-23-0000-00500-0000","countyFips":"12049","countyName":"Hardee","state":"Florida","marketIds":["Tampa"],"situsAddress":null,"situsCity":"BOWLING GREEN","situsZip":"33834","jurisdictionCode":null,"ownerName":"IMC PHOSPHATES COMPANY","ownerName2":null,"propertyName":null,"zoningCode":null,"zoningDistrict":null,"jurisdictionPrefix":null,"dorCode":"092","acreage":60.0,"centroid":[-82.039537,27.635415],"lastSale":{"date":null,"price":null,"qualified":null},"tax":{"marketValue":150000.0,"assessedValue":150000.0,"taxableValue":150000.0,"taxes":null},"mailingAddress":{"line1":"13830 CIRCA CROSSSING DR","line2":null,"city":"LITHIA","state":"FL","zip":"33547"},"incomeTract":null,"incomeBlockGroup":null,"nearestRoad":null,"flu":null,"opportunityZone":null,"oz2Eligibility":null,"source":"fl-doh-ehwaters-12049"},"geometry":{"type":"Polygon","coordinates":[[[-82.03766,27.63841],[-82.03771,27.63242],[-82.04142,27.63242],[-82.04136,27.63841],[-82.03766,27.63841]]]}},{"type":"Feature","id":"12049:19-34-23-0000-10030-0000","properties":{"id":"12049:19-34-23-0000-10030-0000","parcelId":"19-34-23-0000-10030-0000","countyFips":"12049","countyName":"Hardee","state":"Florida","marketIds":["Tampa"],"situsAddress":"OWEN ROBERTS RD","situsCity":"ONA","situsZip":"33865","jurisdictionCode":null,"ownerName":"IMC PHOSPHATES COMPANY","ownerName2":null,"propertyName":null,"zoningCode":null,"zoningDistrict":null,"jurisdictionPrefix":null,"dorCode":"061","acreage":40.0,"centroid":[-82.039125,27.50131],"lastSale":{"date":null,"price":null,"qualified":null},"tax":{"marketValue":140000.0,"assessedValue":5960.0,"taxableValue":5960.0,"taxes":null},"mailingAddress":{"line1":"13830 CIRCA CROSSSING DR","line2":null,"city":"LITHIA","state":"FL","zip":"33547"},"incomeTract":null,"incomeBlockGroup":null,"nearestRoad":null,"flu":null,"opportunityZone":null,"oz2Eligibility":null,"source":"fl-doh-ehwaters-12049"},"geometry":{"type":"Polygon","coordinates":[[[-82.03784,27.50007],[-82.04183,27.50011],[-82.04178,27.50376],[-82.0377,27.50371],[-82.03776,27.50014],[-82.03784,27.50007],[-82.03784,27.50007]]]}},{"type":"Feature","id":"12049:09-34-23-0000-10010-0000","properties":{"id":"12049:09-34-23-0000-10010-0000","parcelId":"09-34-23-0000-10010-0000","countyFips":"12049","countyName":"Hardee","state":"Florida","marketIds":["Tampa"],"situsAddress":"SIDNEY ROBERTS RD","situsCity":"WAUCHULA","situsZip":"33873","jurisdictionCode":null,"ownerName":"IMC PHOSPHATES COMPANY","ownerName2":null,"propertyName":null,"zoningCode":null,"zoningDistrict":null,"jurisdictionPrefix":null,"dorCode":"066","acreage":39.58,"centroid":[-82.014463,27.531033],"lastSale":{"date":null,"price":null,"qualified":null},"tax":{"marketValue":277435.0,"assessedValue":62724.0,"taxableValue":62724.0,"taxes":null},"mailingAddress":{"line1":"13830 CIRCA CROSSSING DR","line2":null,"city":"LITHIA","state":"FL","zip":"33547"},"incomeTract":null,"incomeBlockGroup":null,"nearestRoad":null,"flu":null,"opportunityZone":null,"oz2Eligibility":null,"source":"fl-doh-ehwaters-12049"},"geometry":{"type":"Polygon","coordinates":[[[-82.01155,27.52899],[-82.01528,27.52894],[-82.01565,27.5311],[-82.01594,27.53157],[-82.01615,27.53274],[-82.01221,27.53286],[-82.01155,27.52899]]]}},{"type":"Feature","id":"12049:19-33-23-0000-02450-0000","properties":{"id":"12049:19-33-23-0000-02450-0000","parcelId":"19-33-23-0000-02450-0000","countyFips":"12049","countyName":"Hardee","state":"Florida","marketIds":["Tampa"],"situsAddress":"ST RD 62","situsCity":"BOWLING GREEN","situsZip":"33834","jurisdictionCode":null,"ownerName":"IMC PHOSPHATES COMPANY","ownerName2":null,"propertyName":null,"zoningCode":null,"zoningDistrict":null,"jurisdictionPrefix":null,"dorCode":"092","acreage":20.75,"centroid":[-82.053465,27.600787],"lastSale":{"date":null,"price":null,"qualified":null},"tax":{"marketValue":103750.0,"assessedValue":103750.0,"taxableValue":103750.0,"taxes":null},"mailingAddress":{"line1":"13830 CIRCA CROSSSING DR","line2":null,"city":"LITHIA","state":"FL","zip":"33547"},"incomeTract":null,"incomeBlockGroup":null,"nearestRoad":null,"flu":null,"opportunityZone":null,"oz2Eligibility":null,"source":"fl-doh-ehwaters-12049"},"geometry":{"type":"Polygon","coordinates":[[[-82.05238,27.60258],[-82.05239,27.59893],[-82.05455,27.59899],[-82.05454,27.60265],[-82.05238,27.60258]]]}},{"type":"Feature","id":"12049:21-34-23-0000-00500-0000","properties":{"id":"12049:21-34-23-0000-00500-0000","parcelId":"21-34-23-0000-00500-0000","countyFips":"12049","countyName":"Hardee","state":"Florida","marketIds":["Tampa"],"situsAddress":"720 SIDNEY ROBERTS RD","situsCity":"ONA","situsZip":"33865","jurisdictionCode":null,"ownerName":"SMITH DANIEL H & LINDA M","ownerName2":null,"propertyName":null,"zoningCode":null,"zoningDistrict":null,"jurisdictionPrefix":null,"dorCode":"061","acreage":20.0,"centroid":[-82.011125,27.502875],"lastSale":{"date":null,"price":null,"qualified":null},"tax":{"marketValue":381504.0,"assessedValue":319471.0,"taxableValue":294471.0,"taxes":null},"mailingAddress":{"line1":"P O BOX 432","line2":null,"city":"WAUCHULA","state":"FL","zip":"33873"},"incomeTract":null,"incomeBlockGroup":null,"nearestRoad":null,"flu":null,"opportunityZone":null,"oz2Eligibility":null,"source":"fl-doh-ehwaters-12049"},"geometry":{"type":"Polygon","coordinates":[[[-82.00904,27.50327],[-82.00986,27.50134],[-82.01321,27.50248],[-82.01239,27.50441],[-82.00904,27.50327]]]}},{"type":"Feature","id":"12049:21-34-23-0000-00700-0000","properties":{"id":"12049:21-34-23-0000-00700-0000","parcelId":"21-34-23-0000-00700-0000","countyFips":"12049","countyName":"Hardee","state":"Florida","marketIds":["Tampa"],"situsAddress":"SIDNEY ROBERTS RD","situsCity":"ONA","situsZip":"33865","jurisdictionCode":null,"ownerName":"SMITH DONALD E","ownerName2":null,"propertyName":null,"zoningCode":null,"zoningDistrict":null,"jurisdictionPrefix":null,"dorCode":"061","acreage":20.0,"centroid":[-82.01564,27.507297],"lastSale":{"date":null,"price":null,"qualified":null},"tax":{"marketValue":148952.0,"assessedValue":97452.0,"taxableValue":97452.0,"taxes":null},"mailingAddress":{"line1":"PO BOX 415","line2":null,"city":"WAUCHULA","state":"FL","zip":"33873"},"incomeTract":null,"incomeBlockGroup":null,"nearestRoad":null,"flu":null,"opportunityZone":null,"oz2Eligibility":null,"source":"fl-doh-ehwaters-12049"},"geometry":{"type":"Polygon","coordinates":[[[-82.01829,27.50921],[-82.01151,27.50691],[-82.01158,27.50675],[-82.01605,27.50827],[-82.01705,27.50593],[-82.01936,27.50671],[-82.01829,27.50921]]]}},{"type":"Feature","id":"12049:18-33-23-0000-03250-0000","properties":{"id":"12049:18-33-23-0000-03250-0000","parcelId":"18-33-23-0000-03250-0000","countyFips":"12049","countyName":"Hardee","state":"Florida","marketIds":["Tampa"],"situsAddress":null,"situsCity":"BOWLING GREEN","situsZip":"33834","jurisdictionCode":null,"ownerName":"IMC PHOSPHATES COMPANY","ownerName2":null,"propertyName":null,"zoningCode":null,"zoningDistrict":null,"jurisdictionPrefix":null,"dorCode":"092","acreage":11.0,"centroid":[-82.05344,27.60353],"lastSale":{"date":null,"price":null,"qualified":null},"tax":{"marketValue":55000.0,"assessedValue":55000.0,"taxableValue":55000.0,"taxes":null},"mailingAddress":{"line1":"13830 CIRCA CROSSSING DR","line2":null,"city":"LITHIA","state":"FL","zip":"33547"},"incomeTract":null,"incomeBlockGroup":null,"nearestRoad":null,"flu":null,"opportunityZone":null,"oz2Eligibility":null,"source":"fl-doh-ehwaters-12049"},"geometry":{"type":"Polygon","coordinates":[[[-82.05234,27.60441],[-82.05238,27.60258],[-82.05454,27.60265],[-82.0545,27.60448],[-82.05234,27.60441]]]}},{"type":"Feature","id":"12049:21-33-23-0000-10010-0000","properties":{"id":"12049:21-33-23-0000-10010-0000","parcelId":"21-33-23-0000-10010-0000","countyFips":"12049","countyName":"Hardee","state":"Florida","marketIds":["Tampa"],"situsAddress":"ST RD 62","situsCity":"BOWLING GREEN","situsZip":"33834","jurisdictionCode":null,"ownerName":"WATERS WD WR & DJ TR","ownerName2":null,"propertyName":null,"zoningCode":null,"zoningDistrict":null,"jurisdictionPrefix":null,"dorCode":"099","acreage":5.39,"centroid":[-82.01167,27.594842],"lastSale":{"date":null,"price":null,"qualified":null},"tax":{"marketValue":2695.0,"assessedValue":2695.0,"taxableValue":2695.0,"taxes":null},"mailingAddress":{"line1":"C/O DONNIE WATERS","line2":"5994 RICH RD","city":"BOWLING GREEN","state":"FL","zip":"33834"},"incomeTract":null,"incomeBlockGroup":null,"nearestRoad":null,"flu":null,"opportunityZone":null,"oz2Eligibility":null,"source":"fl-doh-ehwaters-12049"},"geometry":{"type":"Polygon","coordinates":[[[-82.00556,27.59485],[-82.00556,27.59477],[-82.01778,27.59482],[-82.01778,27.59493],[-82.00556,27.59485]]]}}]}