{"type":"FeatureCollection","name":"01095--15_30","features":[{"type":"Feature","id":"01095:0304170000002000","properties":{"id":"01095:0304170000002000","parcelId":"0304170000002000","countyFips":"01095","countyName":"Marshall","state":"Alabama","marketIds":["Huntsville"],"situsAddress":"MCCUTCHEN ROAD","situsCity":null,"situsZip":null,"jurisdictionCode":null,"ownerName":"HOLLINGSHEAD MATERIALS LLC","ownerName2":null,"propertyName":null,"zoningCode":null,"zoningDistrict":null,"jurisdictionPrefix":null,"dorCode":null,"acreage":84.0,"centroid":[-86.55473,34.517067],"lastSale":{"date":"2025-07-10","price":null,"qualified":null},"tax":{"marketValue":762800.0,"assessedValue":85180.0,"taxableValue":null,"taxes":3202.55},"mailingAddress":{"line1":"1000 HOLLINGSHEAD CIR","line2":null,"city":"MURFREESBORO","state":"TN","zip":"37129"},"incomeTract":null,"incomeBlockGroup":null,"nearestRoad":null,"flu":null,"opportunityZone":null,"oz2Eligibility":null,"source":"al-marshall-public-37"},"geometry":{"type":"MultiPolygon","coordinates":[[[[-86.556049,34.518591],[-86.556659,34.518615],[-86.557289,34.514929],[-86.551818,34.514781],[-86.551837,34.51842],[-86.556049,34.518591]]],[[[-86.551837,34.51842],[-86.547879,34.51826],[-86.547882,34.521884],[-86.551855,34.52207],[-86.551837,34.51842]]]]}},{"type":"Feature","id":"01095:0304200000001000","properties":{"id":"01095:0304200000001000","parcelId":"0304200000001000","countyFips":"01095","countyName":"Marshall","state":"Alabama","marketIds":["Huntsville"],"situsAddress":"107 SIMMONS DRIVE","situsCity":null,"situsZip":null,"jurisdictionCode":null,"ownerName":"HOLLINGSHEAD MATERIALS LLC","ownerName2":null,"propertyName":null,"zoningCode":null,"zoningDistrict":null,"jurisdictionPrefix":null,"dorCode":null,"acreage":80.0,"centroid":[-86.548811,34.505875],"lastSale":{"date":"2025-07-10","price":null,"qualified":null},"tax":{"marketValue":207900.0,"assessedValue":4000.0,"taxableValue":null,"taxes":158.0},"mailingAddress":{"line1":"1000 HOLLINGSHEAD CIR","line2":null,"city":"MURFREESBORO","state":"TN","zip":"37129"},"incomeTract":null,"incomeBlockGroup":null,"nearestRoad":null,"flu":null,"opportunityZone":null,"oz2Eligibility":null,"source":"al-marshall-public-37"},"geometry":{"type":"Polygon","coordinates":[[[-86.543502,34.507111],[-86.552264,34.507427],[-86.552358,34.50743],[-86.552347,34.503757],[-86.543586,34.503651],[-86.543502,34.507111]]]}},{"type":"Feature","id":"01095:0305160000005000","properties":{"id":"01095:0305160000005000","parcelId":"0305160000005000","countyFips":"01095","countyName":"Marshall","state":"Alabama","marketIds":["Huntsville"],"situsAddress":"MCCUTCHEN RD","situsCity":null,"situsZip":null,"jurisdictionCode":null,"ownerName":"HOLLINGSHEAD MATERIALS LLC","ownerName2":null,"propertyName":null,"zoningCode":null,"zoningDistrict":null,"jurisdictionPrefix":null,"dorCode":null,"acreage":72.0,"centroid":[-86.541244,34.514496],"lastSale":{"date":"2025-07-10","price":null,"qualified":null},"tax":{"marketValue":393300.0,"assessedValue":5040.0,"taxableValue":null,"taxes":196.2},"mailingAddress":{"line1":"1000 HOLLINGSHEAD CIR","line2":null,"city":"MURFREESBORO","state":"TN","zip":"37129"},"incomeTract":null,"incomeBlockGroup":null,"nearestRoad":null,"flu":null,"opportunityZone":null,"oz2Eligibility":null,"source":"al-marshall-public-37"},"geometry":{"type":"Polygon","coordinates":[[[-86.538685,34.510609],[-86.538701,34.513445],[-86.541869,34.518917],[-86.543473,34.518872],[-86.543494,34.510637],[-86.538685,34.510609]]]}},{"type":"Feature","id":"01095:0303080000003000","properties":{"id":"01095:0303080000003000","parcelId":"0303080000003000","countyFips":"01095","countyName":"Marshall","state":"Alabama","marketIds":["Huntsville"],"situsAddress":"CAVE SPRING RIDGE","situsCity":null,"situsZip":null,"jurisdictionCode":null,"ownerName":"HILL, JOHN E","ownerName2":null,"propertyName":null,"zoningCode":null,"zoningDistrict":null,"jurisdictionPrefix":null,"dorCode":null,"acreage":70.0,"centroid":[-86.553549,34.526108],"lastSale":{"date":"2004-03-24","price":null,"qualified":null},"tax":{"marketValue":31250.0,"assessedValue":3120.0,"taxableValue":null,"taxes":121.0},"mailingAddress":{"line1":"2 WESTMINSTER CLOSE DRIVE NW","line2":null,"city":"ATLANTA","state":"GA","zip":"30327"},"incomeTract":null,"incomeBlockGroup":null,"nearestRoad":null,"flu":null,"opportunityZone":null,"oz2Eligibility":null,"source":"al-marshall-public-37"},"geometry":{"type":"Polygon","coordinates":[[[-86.551855,34.52207],[-86.551675,34.530071],[-86.554629,34.530023],[-86.556035,34.522266],[-86.551855,34.52207]]]}},{"type":"Feature","id":"01095:0305160000001000","properties":{"id":"01095:0305160000001000","parcelId":"0305160000001000","countyFips":"01095","countyName":"Marshall","state":"Alabama","marketIds":["Huntsville"],"situsAddress":"MCCUTCHEN ROAD","situsCity":null,"situsZip":null,"jurisdictionCode":null,"ownerName":"T V A","ownerName2":null,"propertyName":null,"zoningCode":null,"zoningDistrict":null,"jurisdictionPrefix":null,"dorCode":null,"acreage":52.0,"centroid":[-86.538687,34.513642],"lastSale":{"date":null,"price":null,"qualified":null},"tax":{"marketValue":348300.0,"assessedValue":14860.0,"taxableValue":null,"taxes":0.0},"mailingAddress":{"line1":null,"line2":null,"city":null,"state":null,"zip":null},"incomeTract":null,"incomeBlockGroup":null,"nearestRoad":null,"flu":null,"opportunityZone":null,"oz2Eligibility":null,"source":"al-marshall-public-37"},"geometry":{"type":"Polygon","coordinates":[[[-86.542386,34.521654],[-86.543466,34.521677],[-86.538701,34.513445],[-86.538664,34.507083],[-86.537626,34.507077],[-86.536974,34.509186],[-86.536894,34.509548],[-86.53684,34.509915],[-86.536809,34.51047],[-86.536839,34.511025],[-86.536928,34.511574],[-86.537076,34.51211],[-86.537282,34.512627],[-86.537449,34.512958],[-86.537743,34.513429],[-86.538087,34.513866],[-86.541349,34.519655],[-86.541839,34.520715],[-86.5421,34.521192],[-86.542386,34.521654]]]}},{"type":"Feature","id":"01095:0304200000006001","properties":{"id":"01095:0304200000006001","parcelId":"0304200000006001","countyFips":"01095","countyName":"Marshall","state":"Alabama","marketIds":["Huntsville"],"situsAddress":"GREENBRIAR COVE ROAD","situsCity":null,"situsZip":null,"jurisdictionCode":null,"ownerName":"MCDOWELL, SHERRY S","ownerName2":null,"propertyName":null,"zoningCode":null,"zoningDistrict":null,"jurisdictionPrefix":null,"dorCode":null,"acreage":51.0,"centroid":[-86.549982,34.50211],"lastSale":{"date":"2005-06-30","price":null,"qualified":null},"tax":{"marketValue":66300.0,"assessedValue":4380.0,"taxableValue":null,"taxes":169.35},"mailingAddress":{"line1":"11 WEST END LANE","line2":null,"city":"SEBASTIAN","state":"FL","zip":"32958"},"incomeTract":null,"incomeBlockGroup":null,"nearestRoad":null,"flu":null,"opportunityZone":null,"oz2Eligibility":null,"source":"al-marshall-public-37"},"geometry":{"type":"Polygon","coordinates":[[[-86.545757,34.503677],[-86.552253,34.503755],[-86.552347,34.503757],[-86.552369,34.501565],[-86.550675,34.501536],[-86.550661,34.500267],[-86.545812,34.500215],[-86.545757,34.503677]]]}},{"type":"Feature","id":"01095:0304170000003000","properties":{"id":"01095:0304170000003000","parcelId":"0304170000003000","countyFips":"01095","countyName":"Marshall","state":"Alabama","marketIds":["Huntsville"],"situsAddress":null,"situsCity":null,"situsZip":null,"jurisdictionCode":null,"ownerName":"HILL, JOHN E","ownerName2":null,"propertyName":null,"zoningCode":null,"zoningDistrict":null,"jurisdictionPrefix":null,"dorCode":null,"acreage":42.0,"centroid":[-86.554096,34.520343],"lastSale":{"date":"2004-03-24","price":null,"qualified":null},"tax":{"marketValue":18858.0,"assessedValue":1880.0,"taxableValue":null,"taxes":74.7},"mailingAddress":{"line1":"2 WESTMINSTER CLOSE DRIVE NW","line2":null,"city":"ATLANTA","state":"GA","zip":"30327"},"incomeTract":null,"incomeBlockGroup":null,"nearestRoad":null,"flu":null,"opportunityZone":null,"oz2Eligibility":null,"source":"al-marshall-public-37"},"geometry":{"type":"Polygon","coordinates":[[[-86.551855,34.52207],[-86.556035,34.522266],[-86.556659,34.518615],[-86.551837,34.51842],[-86.551855,34.52207]]]}},{"type":"Feature","id":"01095:0305160000006000","properties":{"id":"01095:0305160000006000","parcelId":"0305160000006000","countyFips":"01095","countyName":"Marshall","state":"Alabama","marketIds":["Huntsville"],"situsAddress":"MCCUTCHEN ROAD","situsCity":null,"situsZip":null,"jurisdictionCode":null,"ownerName":"BELL MORRIS RICHARD AND BELL ROBERT SHEP","ownerName2":null,"propertyName":null,"zoningCode":null,"zoningDistrict":null,"jurisdictionPrefix":null,"dorCode":null,"acreage":40.0,"centroid":[-86.541086,34.50886],"lastSale":{"date":"2025-03-25","price":null,"qualified":null},"tax":{"marketValue":62400.0,"assessedValue":6240.0,"taxableValue":null,"taxes":238.0},"mailingAddress":{"line1":"78 SILVER CIR","line2":null,"city":"JACKSONVILLE","state":"AL","zip":"36265"},"incomeTract":null,"incomeBlockGroup":null,"nearestRoad":null,"flu":null,"opportunityZone":null,"oz2Eligibility":null,"source":"al-marshall-public-37"},"geometry":{"type":"Polygon","coordinates":[[[-86.538664,34.507083],[-86.538685,34.510609],[-86.543494,34.510637],[-86.543502,34.507111],[-86.538664,34.507083]]]}},{"type":"Feature","id":"01095:0304200000002000","properties":{"id":"01095:0304200000002000","parcelId":"0304200000002000","countyFips":"01095","countyName":"Marshall","state":"Alabama","marketIds":["Huntsville"],"situsAddress":"1300 BETTINGER MOUNTAIN ROAD","situsCity":null,"situsZip":null,"jurisdictionCode":null,"ownerName":"ANDERSON JANET","ownerName2":null,"propertyName":null,"zoningCode":null,"zoningDistrict":null,"jurisdictionPrefix":null,"dorCode":null,"acreage":39.0,"centroid":[-86.555118,34.505861],"lastSale":{"date":"2024-08-30","price":null,"qualified":null},"tax":{"marketValue":17511.0,"assessedValue":1760.0,"taxableValue":null,"taxes":69.9},"mailingAddress":{"line1":"1300 BETTINGER MOUNTAIN RD","line2":null,"city":"UNION GROVE","state":"AL","zip":"35175"},"incomeTract":null,"incomeBlockGroup":null,"nearestRoad":null,"flu":null,"opportunityZone":null,"oz2Eligibility":null,"source":"al-marshall-public-37"},"geometry":{"type":"Polygon","coordinates":[[[-86.552358,34.50743],[-86.555983,34.507561],[-86.556856,34.507592],[-86.556844,34.506079],[-86.555682,34.504812],[-86.555759,34.503797],[-86.552347,34.503757],[-86.552358,34.50743]]]}},{"type":"Feature","id":"01095:0303080000001000","properties":{"id":"01095:0303080000001000","parcelId":"0303080000001000","countyFips":"01095","countyName":"Marshall","state":"Alabama","marketIds":["Huntsville"],"situsAddress":null,"situsCity":null,"situsZip":null,"jurisdictionCode":null,"ownerName":"T V A","ownerName2":null,"propertyName":null,"zoningCode":null,"zoningDistrict":null,"jurisdictionPrefix":null,"dorCode":null,"acreage":32.0,"centroid":[-86.547989,34.530892],"lastSale":{"date":null,"price":null,"qualified":null},"tax":{"marketValue":250000.0,"assessedValue":10960.0,"taxableValue":null,"taxes":0.0},"mailingAddress":{"line1":null,"line2":null,"city":null,"state":null,"zip":null},"incomeTract":null,"incomeBlockGroup":null,"nearestRoad":null,"flu":null,"opportunityZone":null,"oz2Eligibility":null,"source":"al-marshall-public-37"},"geometry":{"type":"Polygon","coordinates":[[[-86.543466,34.521677],[-86.543445,34.521962],[-86.543371,34.522938],[-86.546822,34.529582],[-86.547273,34.530512],[-86.547604,34.531116],[-86.548142,34.531999],[-86.54873,34.532849],[-86.549366,34.533664],[-86.550049,34.53444],[-86.550254,34.534928],[-86.551732,34.537386],[-86.552263,34.537374],[-86.550183,34.533419],[-86.547128,34.529541],[-86.543466,34.521677]]]}},{"type":"Feature","id":"01095:0304200000006000","properties":{"id":"01095:0304200000006000","parcelId":"0304200000006000","countyFips":"01095","countyName":"Marshall","state":"Alabama","marketIds":["Huntsville"],"situsAddress":"GREENBRIAR COVE ROAD","situsCity":null,"situsZip":null,"jurisdictionCode":null,"ownerName":"SHEPPARD GREG","ownerName2":null,"propertyName":null,"zoningCode":null,"zoningDistrict":null,"jurisdictionPrefix":null,"dorCode":null,"acreage":20.0,"centroid":[-86.544706,34.501934],"lastSale":{"date":"2020-01-03","price":null,"qualified":null},"tax":{"marketValue":62500.0,"assessedValue":4560.0,"taxableValue":null,"taxes":173.0},"mailingAddress":{"line1":"250 BETTINGER MOUNTAIN ROAD","line2":null,"city":"UNION GROVE","state":"AL","zip":"35175"},"incomeTract":null,"incomeBlockGroup":null,"nearestRoad":null,"flu":null,"opportunityZone":null,"oz2Eligibility":null,"source":"al-marshall-public-37"},"geometry":{"type":"Polygon","coordinates":[[[-86.54367,34.500192],[-86.543586,34.503651],[-86.545757,34.503677],[-86.545812,34.500215],[-86.54367,34.500192]]]}},{"type":"Feature","id":"01095:0303090000001000","properties":{"id":"01095:0303090000001000","parcelId":"0303090000001000","countyFips":"01095","countyName":"Marshall","state":"Alabama","marketIds":["Huntsville"],"situsAddress":null,"situsCity":null,"situsZip":null,"jurisdictionCode":null,"ownerName":"T V A","ownerName2":null,"propertyName":null,"zoningCode":null,"zoningDistrict":null,"jurisdictionPrefix":null,"dorCode":null,"acreage":19.0,"centroid":[-86.542956,34.522134],"lastSale":{"date":null,"price":null,"qualified":null},"tax":{"marketValue":163000.0,"assessedValue":9020.0,"taxableValue":null,"taxes":0.0},"mailingAddress":{"line1":null,"line2":null,"city":null,"state":null,"zip":null},"incomeTract":null,"incomeBlockGroup":null,"nearestRoad":null,"flu":null,"opportunityZone":null,"oz2Eligibility":null,"source":"al-marshall-public-37"},"geometry":{"type":"Polygon","coordinates":[[[-86.542386,34.521654],[-86.542537,34.521877],[-86.543022,34.522526],[-86.543371,34.522938],[-86.543466,34.521677],[-86.542386,34.521654]]]}},{"type":"Feature","id":"01095:0304200000005000","properties":{"id":"01095:0304200000005000","parcelId":"0304200000005000","countyFips":"01095","countyName":"Marshall","state":"Alabama","marketIds":["Huntsville"],"situsAddress":"BETTINGER MOUNTAIN ROAD","situsCity":null,"situsZip":null,"jurisdictionCode":null,"ownerName":"ANDERSON JANET","ownerName2":null,"propertyName":null,"zoningCode":null,"zoningDistrict":null,"jurisdictionPrefix":null,"dorCode":null,"acreage":16.64,"centroid":[-86.55333,34.501618],"lastSale":{"date":"2024-08-30","price":null,"qualified":null},"tax":{"marketValue":7411.0,"assessedValue":740.0,"taxableValue":null,"taxes":28.41},"mailingAddress":{"line1":"1300 BETTINGER MOUNTAIN RD","line2":null,"city":"UNION GROVE","state":"AL","zip":"35175"},"incomeTract":null,"incomeBlockGroup":null,"nearestRoad":null,"flu":null,"opportunityZone":null,"oz2Eligibility":null,"source":"al-marshall-public-37"},"geometry":{"type":"Polygon","coordinates":[[[-86.552369,34.501565],[-86.55237,34.501596],[-86.552347,34.503757],[-86.554954,34.503788],[-86.554964,34.501631],[-86.554146,34.501359],[-86.553776,34.501194],[-86.553497,34.501019],[-86.553144,34.500727],[-86.552986,34.500619],[-86.55304,34.501157],[-86.552368,34.501003],[-86.552369,34.501565]]]}},{"type":"Feature","id":"01095:0304200000003000","properties":{"id":"01095:0304200000003000","parcelId":"0304200000003000","countyFips":"01095","countyName":"Marshall","state":"Alabama","marketIds":["Huntsville"],"situsAddress":"BETTINGER MOUNTAIN ROAD","situsCity":null,"situsZip":null,"jurisdictionCode":null,"ownerName":"ANDERSON JANET","ownerName2":null,"propertyName":null,"zoningCode":null,"zoningDistrict":null,"jurisdictionPrefix":null,"dorCode":null,"acreage":15.0,"centroid":[-86.55796,34.505251],"lastSale":{"date":"2024-08-30","price":null,"qualified":null},"tax":{"marketValue":5693.0,"assessedValue":560.0,"taxableValue":null,"taxes":21.75},"mailingAddress":{"line1":"1300 BETTINGER MOUNTAIN RD","line2":null,"city":"UNION GROVE","state":"AL","zip":"35175"},"incomeTract":null,"incomeBlockGroup":null,"nearestRoad":null,"flu":null,"opportunityZone":null,"oz2Eligibility":null,"source":"al-marshall-public-37"},"geometry":{"type":"Polygon","coordinates":[[[-86.556844,34.506079],[-86.556856,34.507592],[-86.558532,34.507653],[-86.559218,34.503638],[-86.5582,34.503616],[-86.558202,34.504111],[-86.557907,34.504104],[-86.557919,34.505219],[-86.556844,34.506079]]]}},{"type":"Feature","id":"01095:0304200000005001","properties":{"id":"01095:0304200000005001","parcelId":"0304200000005001","countyFips":"01095","countyName":"Marshall","state":"Alabama","marketIds":["Huntsville"],"situsAddress":"1300 BETTINGER MOUNTAIN ROAD","situsCity":null,"situsZip":null,"jurisdictionCode":null,"ownerName":"ANDERSON JANET","ownerName2":null,"propertyName":null,"zoningCode":null,"zoningDistrict":null,"jurisdictionPrefix":null,"dorCode":null,"acreage":11.0,"centroid":[-86.555759,34.502877],"lastSale":{"date":"2024-08-30","price":null,"qualified":null},"tax":{"marketValue":6930.0,"assessedValue":700.0,"taxableValue":null,"taxes":27.35},"mailingAddress":{"line1":"1300 BETTINGER MOUNTAIN RD","line2":null,"city":"UNION GROVE","state":"AL","zip":"35175"},"incomeTract":null,"incomeBlockGroup":null,"nearestRoad":null,"flu":null,"opportunityZone":null,"oz2Eligibility":null,"source":"al-marshall-public-37"},"geometry":{"type":"Polygon","coordinates":[[[-86.555759,34.503797],[-86.555961,34.5038],[-86.556728,34.50381],[-86.556816,34.502579],[-86.555636,34.501891],[-86.555252,34.501724],[-86.554964,34.501631],[-86.554954,34.503788],[-86.555759,34.503797]]]}},{"type":"Feature","id":"01095:0304200000004001","properties":{"id":"01095:0304200000004001","parcelId":"0304200000004001","countyFips":"01095","countyName":"Marshall","state":"Alabama","marketIds":["Huntsville"],"situsAddress":"BETTINGER MOUNTAIN ROAD","situsCity":null,"situsZip":null,"jurisdictionCode":null,"ownerName":"ANDERSON JANET","ownerName2":null,"propertyName":null,"zoningCode":null,"zoningDistrict":null,"jurisdictionPrefix":null,"dorCode":null,"acreage":11.0,"centroid":[-86.557631,34.502691],"lastSale":{"date":"2024-08-30","price":null,"qualified":null},"tax":{"marketValue":4939.0,"assessedValue":500.0,"taxableValue":null,"taxes":19.85},"mailingAddress":{"line1":"1300 BETTINGER MOUNTAIN RD","line2":null,"city":"UNION GROVE","state":"AL","zip":"35175"},"incomeTract":null,"incomeBlockGroup":null,"nearestRoad":null,"flu":null,"opportunityZone":null,"oz2Eligibility":null,"source":"al-marshall-public-37"},"geometry":{"type":"Polygon","coordinates":[[[-86.557907,34.504104],[-86.558202,34.504111],[-86.558184,34.500318],[-86.556799,34.500313],[-86.556816,34.502579],[-86.557451,34.502947],[-86.557793,34.503336],[-86.557895,34.503823],[-86.557907,34.504104]]]}},{"type":"Feature","id":"01095:0304200000002001","properties":{"id":"01095:0304200000002001","parcelId":"0304200000002001","countyFips":"01095","countyName":"Marshall","state":"Alabama","marketIds":["Huntsville"],"situsAddress":"1300 BETTINGER MOUNTAIN ROAD","situsCity":null,"situsZip":null,"jurisdictionCode":null,"ownerName":"WALKER ROBERT AND ANDERSON JANET","ownerName2":null,"propertyName":null,"zoningCode":null,"zoningDistrict":null,"jurisdictionPrefix":null,"dorCode":null,"acreage":10.7,"centroid":[-86.556786,34.504095],"lastSale":{"date":"2008-10-31","price":null,"qualified":null},"tax":{"marketValue":477611.0,"assessedValue":47780.0,"taxableValue":null,"taxes":1739.72},"mailingAddress":{"line1":"1300 BETTINGER MOUNTAIN RD","line2":null,"city":"UNION GROVE","state":"AL","zip":"35175"},"incomeTract":null,"incomeBlockGroup":null,"nearestRoad":null,"flu":null,"opportunityZone":null,"oz2Eligibility":null,"source":"al-marshall-public-37"},"geometry":{"type":"Polygon","coordinates":[[[-86.555753,34.503883],[-86.555682,34.504812],[-86.556844,34.506079],[-86.557919,34.505219],[-86.557899,34.503916],[-86.557004,34.503906],[-86.557451,34.502947],[-86.556816,34.502579],[-86.556728,34.50381],[-86.555759,34.503797],[-86.555753,34.503883]]]}},{"type":"Feature","id":"01095:0304200000004002","properties":{"id":"01095:0304200000004002","parcelId":"0304200000004002","countyFips":"01095","countyName":"Marshall","state":"Alabama","marketIds":["Huntsville"],"situsAddress":"BETTINGER MOUNTAIN ROAD","situsCity":null,"situsZip":null,"jurisdictionCode":null,"ownerName":"ANDERSON JANET","ownerName2":null,"propertyName":null,"zoningCode":null,"zoningDistrict":null,"jurisdictionPrefix":null,"dorCode":null,"acreage":10.5,"centroid":[-86.558847,34.501974],"lastSale":{"date":"2024-08-30","price":null,"qualified":null},"tax":{"marketValue":53300.0,"assessedValue":5340.0,"taxableValue":null,"taxes":200.9},"mailingAddress":{"line1":"1300 BETTINGER MOUNTAIN RD","line2":null,"city":"UNION GROVE","state":"AL","zip":"35175"},"incomeTract":null,"incomeBlockGroup":null,"nearestRoad":null,"flu":null,"opportunityZone":null,"oz2Eligibility":null,"source":"al-marshall-public-37"},"geometry":{"type":"Polygon","coordinates":[[[-86.5582,34.503616],[-86.559218,34.503638],[-86.559784,34.500323],[-86.558184,34.500318],[-86.5582,34.503616]]]}},{"type":"Feature","id":"01095:0304200000005003","properties":{"id":"01095:0304200000005003","parcelId":"0304200000005003","countyFips":"01095","countyName":"Marshall","state":"Alabama","marketIds":["Huntsville"],"situsAddress":"1177 BETTINGER MOUNTAIN ROAD","situsCity":null,"situsZip":null,"jurisdictionCode":null,"ownerName":"PANNELL TIMMOTHY MICHAEL LIFE ESTATE AND","ownerName2":null,"propertyName":null,"zoningCode":null,"zoningDistrict":null,"jurisdictionPrefix":null,"dorCode":null,"acreage":9.0,"centroid":[-86.554348,34.501169],"lastSale":{"date":"2024-03-01","price":null,"qualified":null},"tax":{"marketValue":107900.0,"assessedValue":12000.0,"taxableValue":null,"taxes":397.0},"mailingAddress":{"line1":"2615 HIGHWAY 31 S LOT 8","line2":null,"city":"DECATUR","state":"AL","zip":"35603"},"incomeTract":null,"incomeBlockGroup":null,"nearestRoad":null,"flu":null,"opportunityZone":null,"oz2Eligibility":null,"source":"al-marshall-public-37"},"geometry":{"type":"Polygon","coordinates":[[[-86.554964,34.501631],[-86.555008,34.501644],[-86.555371,34.50177],[-86.555636,34.501891],[-86.556816,34.502579],[-86.556799,34.500313],[-86.552366,34.500299],[-86.552366,34.500358],[-86.552737,34.500494],[-86.553038,34.500649],[-86.553497,34.501019],[-86.553776,34.501194],[-86.554146,34.501359],[-86.554964,34.501631]]]}}]}