{"type":"FeatureCollection","name":"12085-11_1","features":[{"type":"Feature","id":"12085:133741000000001400","properties":{"id":"12085:133741000000001400","parcelId":"133741000000001400","countyFips":"12085","countyName":"Martin","state":"Florida","marketIds":["Vero Beach"],"situsAddress":"4199 NE OCEAN BLVD","situsCity":"Jensen Beach","situsZip":"34957","jurisdictionCode":"Unincorporated Martin","ownerName":"MARTIN COUNTY","ownerName2":null,"propertyName":null,"zoningCode":"PS","zoningDistrict":null,"jurisdictionPrefix":null,"dorCode":"686.0","acreage":43.89,"centroid":[-80.199872,27.253802],"lastSale":{"date":null,"price":null,"qualified":null},"tax":{"marketValue":null,"assessedValue":null,"taxableValue":null,"taxes":null},"mailingAddress":{"line1":"REAL PROPERTY DIVISION/PWD","line2":null,"city":"STUART","state":"FL","zip":"34996"},"incomeTract":null,"incomeBlockGroup":null,"nearestRoad":null,"flu":{"code":"CONSERVATION","label":"CONSERVATION","jurisdiction":"Unincorporated Martin","source":"martin-unincorporated-flu"},"opportunityZone":null,"oz2Eligibility":null,"source":"fl-martin-geoweb-12085","appraiserUrl":"https://geoweb.martin.fl.us/info/pi.html?pcn=133741000000001400"},"geometry":{"type":"MultiPolygon","coordinates":[[[[-80.196308,27.255539],[-80.197113,27.255548],[-80.197375,27.25555],[-80.197438,27.255534],[-80.197509,27.255463],[-80.197511,27.255367],[-80.196811,27.253938],[-80.195774,27.25203],[-80.194559,27.252018],[-80.19477,27.252467],[-80.195518,27.253928],[-80.195886,27.254723],[-80.196308,27.255539]]],[[[-80.197859,27.255351],[-80.197866,27.255363],[-80.197978,27.255474],[-80.198123,27.255516],[-80.203602,27.255571],[-80.203605,27.254799],[-80.203443,27.254963],[-80.203307,27.255014],[-80.203192,27.254953],[-80.203016,27.254896],[-80.202807,27.254905],[-80.202764,27.254944],[-80.20276,27.25499],[-80.202728,27.254991],[-80.202658,27.254976],[-80.202655,27.254935],[-80.202608,27.254908],[-80.202377,27.254865],[-80.202226,27.254887],[-80.202125,27.254865],[-80.20203,27.254885],[-80.201937,27.254833],[-80.201823,27.254803],[-80.201813,27.254756],[-80.201774,27.254741],[-80.201699,27.254852],[-80.201655,27.254844],[-80.201522,27.254722],[-80.201337,27.254729],[-80.201263,27.254693],[-80.201198,27.254581],[-80.201113,27.254578],[-80.201008,27.254445],[-80.200841,27.254345],[-80.200704,27.254283],[-80.200615,27.254265],[-80.200545,27.254205],[-80.200436,27.254167],[-80.200362,27.254071],[-80.200237,27.253956],[-80.200165,27.253919],[-80.200009,27.253905],[-80.199912,27.253806],[-80.199876,27.253706],[-80.199754,27.253617],[-80.199664,27.253513],[-80.199593,27.253512],[-80.199475,27.253417],[-80.19936,27.253375],[-80.199232,27.253202],[-80.199185,27.253181],[-80.199196,27.253081],[-80.199057,27.25298],[-80.199022,27.252926],[-80.198866,27.252848],[-80.198823,27.252714],[-80.198725,27.252641],[-80.198713,27.252563],[-80.198673,27.252483],[-80.198626,27.25245],[-80.198402,27.252434],[-80.198325,27.252384],[-80.198314,27.252348],[-80.198336,27.252289],[-80.198378,27.252258],[-80.198381,27.252197],[-80.198332,27.25213],[-80.198322,27.252056],[-80.19614,27.252034],[-80.197108,27.253817],[-80.197859,27.255351]]]]}},{"type":"Feature","id":"12085:133741003000000010","properties":{"id":"12085:133741003000000010","parcelId":"133741003000000010","countyFips":"12085","countyName":"Martin","state":"Florida","marketIds":["Vero Beach"],"situsAddress":"4500 NE OCEAN BLVD","situsCity":"Jensen Beach","situsZip":"34957","jurisdictionCode":"Unincorporated Martin","ownerName":"JENSEN BEACH CLUB CONDOMINIUM ASSOCIATION INC","ownerName2":null,"propertyName":null,"zoningCode":"PUD-R","zoningDistrict":null,"jurisdictionPrefix":null,"dorCode":"109.0","acreage":26.08,"centroid":[-80.20082,27.25705],"lastSale":{"date":null,"price":null,"qualified":null},"tax":{"marketValue":null,"assessedValue":null,"taxableValue":null,"taxes":null},"mailingAddress":{"line1":"10 SE CENTRAL PARKWAY #400","line2":null,"city":"STUART","state":"FL","zip":"34994"},"incomeTract":null,"incomeBlockGroup":null,"nearestRoad":null,"flu":{"code":"COMM. LIMITED","label":"COMM. LIMITED","jurisdiction":"Unincorporated Martin","source":"martin-unincorporated-flu"},"opportunityZone":null,"oz2Eligibility":null,"source":"fl-martin-geoweb-12085","appraiserUrl":"https://geoweb.martin.fl.us/info/pi.html?pcn=133741003000000010"},"geometry":{"type":"Polygon","coordinates":[[[-80.199539,27.256931],[-80.199535,27.258411],[-80.199534,27.258799],[-80.199776,27.259299],[-80.202802,27.259321],[-80.203012,27.258951],[-80.203027,27.257536],[-80.202589,27.257074],[-80.202128,27.256931],[-80.201435,27.255987],[-80.200924,27.255982],[-80.200926,27.255817],[-80.200496,27.255812],[-80.200483,27.256775],[-80.199601,27.256765],[-80.199603,27.255968],[-80.200309,27.255975],[-80.200311,27.25581],[-80.199542,27.255802],[-80.199539,27.256931]]]}},{"type":"Feature","id":"12085:163741011000000020","properties":{"id":"12085:163741011000000020","parcelId":"163741011000000020","countyFips":"12085","countyName":"Martin","state":"Florida","marketIds":["Vero Beach"],"situsAddress":null,"situsCity":null,"situsZip":null,"jurisdictionCode":"Unincorporated Martin","ownerName":"SUGARHILL HOMEOWNERS ASSOC INC","ownerName2":null,"propertyName":null,"zoningCode":"R-2","zoningDistrict":null,"jurisdictionPrefix":null,"dorCode":"979.0","acreage":22.65,"centroid":[-80.240772,27.255512],"lastSale":{"date":null,"price":null,"qualified":null},"tax":{"marketValue":null,"assessedValue":null,"taxableValue":null,"taxes":null},"mailingAddress":{"line1":"PO BOX 443","line2":null,"city":"JENSEN BEACH","state":"FL","zip":"34958"},"incomeTract":null,"incomeBlockGroup":null,"nearestRoad":null,"flu":{"code":"ESTATE DENSITY 2UPA","label":"ESTATE DENSITY 2UPA","jurisdiction":"Unincorporated Martin","source":"martin-unincorporated-flu"},"opportunityZone":null,"oz2Eligibility":null,"source":"fl-martin-geoweb-12085","appraiserUrl":"https://geoweb.martin.fl.us/info/pi.html?pcn=163741011000000020"},"geometry":{"type":"Polygon","coordinates":[[[-80.240291,27.255961],[-80.244381,27.256032],[-80.244407,27.252818],[-80.244109,27.252925],[-80.244,27.252911],[-80.243854,27.252815],[-80.243747,27.252704],[-80.243642,27.252648],[-80.24358,27.252524],[-80.243408,27.252287],[-80.243325,27.252214],[-80.24326,27.252192],[-80.243105,27.252187],[-80.243018,27.252215],[-80.24289,27.252308],[-80.242728,27.252513],[-80.242658,27.252634],[-80.242671,27.252676],[-80.242653,27.252724],[-80.242523,27.252873],[-80.242478,27.252885],[-80.242436,27.252927],[-80.242434,27.252976],[-80.242643,27.253203],[-80.242692,27.253207],[-80.242736,27.25326],[-80.242726,27.253285],[-80.242747,27.253319],[-80.242907,27.253317],[-80.242922,27.253278],[-80.242902,27.253243],[-80.242665,27.252947],[-80.242684,27.252857],[-80.242806,27.252661],[-80.243055,27.252362],[-80.243165,27.252343],[-80.243256,27.252372],[-80.243316,27.252418],[-80.243426,27.252803],[-80.243887,27.2531],[-80.243947,27.2531],[-80.243997,27.253065],[-80.244061,27.253072],[-80.244123,27.253161],[-80.244149,27.253232],[-80.244148,27.253392],[-80.244112,27.253445],[-80.244014,27.253517],[-80.244164,27.254163],[-80.243686,27.254159],[-80.243596,27.253747],[-80.243549,27.25361],[-80.243443,27.253456],[-80.243342,27.253371],[-80.243297,27.253338],[-80.243224,27.253346],[-80.242994,27.253575],[-80.242991,27.253693],[-80.243029,27.253945],[-80.242997,27.254175],[-80.242873,27.254532],[-80.242867,27.254564],[-80.242903,27.254592],[-80.242891,27.254631],[-80.242828,27.254639],[-80.242814,27.254736],[-80.242917,27.254982],[-80.242989,27.255056],[-80.243037,27.255145],[-80.243032,27.255347],[-80.243199,27.255449],[-80.243254,27.255535],[-80.243251,27.255597],[-80.243225,27.255632],[-80.243148,27.255656],[-80.242815,27.2557],[-80.242069,27.255658],[-80.241911,27.255665],[-80.241743,27.2557],[-80.241604,27.255644],[-80.241383,27.255651],[-80.241292,27.255575],[-80.241297,27.255489],[-80.241217,27.255363],[-80.241199,27.255092],[-80.241121,27.254725],[-80.240898,27.254204],[-80.240609,27.253766],[-80.240238,27.253116],[-80.239984,27.252901],[-80.239838,27.252828],[-80.239907,27.252685],[-80.238304,27.252374],[-80.238293,27.253658],[-80.240308,27.253675],[-80.240291,27.255961]]]}},{"type":"Feature","id":"12085:153741003001000205","properties":{"id":"12085:153741003001000205","parcelId":"153741003001000205","countyFips":"12085","countyName":"Martin","state":"Florida","marketIds":["Vero Beach"],"situsAddress":"3830 NE INDIAN RIVER DR","situsCity":"Jensen Beach","situsZip":"34957","jurisdictionCode":"Unincorporated Martin","ownerName":"JENSEN BEACH MHP LLC","ownerName2":null,"propertyName":null,"zoningCode":"RS-5","zoningDistrict":null,"jurisdictionPrefix":null,"dorCode":"728.0","acreage":13.25,"centroid":[-80.230678,27.251743],"lastSale":{"date":null,"price":null,"qualified":null},"tax":{"marketValue":null,"assessedValue":null,"taxableValue":null,"taxes":null},"mailingAddress":{"line1":"1701 SKEES RD #1","line2":null,"city":"WEST PALM BEACH","state":"FL","zip":"33411"},"incomeTract":null,"incomeBlockGroup":null,"nearestRoad":null,"flu":{"code":"LOW DENSITY","label":"Ord. 757, CPA 06-19","jurisdiction":"Unincorporated Martin","source":"martin-unincorporated-flu"},"opportunityZone":null,"oz2Eligibility":null,"source":"fl-martin-geoweb-12085","appraiserUrl":"https://geoweb.martin.fl.us/info/pi.html?pcn=153741003001000205"},"geometry":{"type":"MultiPolygon","coordinates":[[[[-80.229723,27.251081],[-80.230018,27.252074],[-80.230167,27.252574],[-80.232222,27.252587],[-80.232223,27.251079],[-80.229718,27.251065],[-80.229723,27.251081]]],[[[-80.229347,27.252043],[-80.229396,27.252173],[-80.229544,27.252564],[-80.229846,27.252567],[-80.229611,27.251774],[-80.229245,27.251772],[-80.229347,27.252043]]],[[[-80.228543,27.252039],[-80.2286,27.252167],[-80.228715,27.252422],[-80.229397,27.252433],[-80.229147,27.251771],[-80.228445,27.251766],[-80.228543,27.252039]]],[[[-80.228273,27.251293],[-80.228307,27.251382],[-80.228421,27.251671],[-80.229583,27.25168],[-80.2294,27.251066],[-80.22819,27.251059],[-80.228273,27.251293]]]]}},{"type":"Feature","id":"12085:153741020000000108","properties":{"id":"12085:153741020000000108","parcelId":"153741020000000108","countyFips":"12085","countyName":"Martin","state":"Florida","marketIds":["Vero Beach"],"situsAddress":"3735 NE SKYLINE DR","situsCity":"Jensen Beach","situsZip":"34957","jurisdictionCode":"Unincorporated Martin","ownerName":"JENSEN BEACH LAND LLC","ownerName2":null,"propertyName":null,"zoningCode":"MH-P","zoningDistrict":null,"jurisdictionPrefix":null,"dorCode":"990.0","acreage":11.77,"centroid":[-80.231491,27.250174],"lastSale":{"date":null,"price":null,"qualified":null},"tax":{"marketValue":null,"assessedValue":null,"taxableValue":null,"taxes":null},"mailingAddress":{"line1":"295 MADISON AVE 2ND FLR","line2":null,"city":"NEW YORK","state":"NY","zip":"10017"},"incomeTract":null,"incomeBlockGroup":null,"nearestRoad":null,"flu":{"code":"MOBILE HOME","label":"MOBILE HOME","jurisdiction":"Unincorporated Martin","source":"martin-unincorporated-flu"},"opportunityZone":null,"oz2Eligibility":null,"source":"fl-martin-geoweb-12085","appraiserUrl":"https://geoweb.martin.fl.us/info/pi.html?pcn=153741020000000108"},"geometry":{"type":"Polygon","coordinates":[[[-80.229718,27.251065],[-80.232223,27.251079],[-80.232231,27.250313],[-80.232491,27.250316],[-80.232389,27.250178],[-80.231998,27.250175],[-80.231707,27.249764],[-80.231458,27.249347],[-80.229202,27.249328],[-80.229718,27.251065]]]}},{"type":"Feature","id":"12085:143741001000000010","properties":{"id":"12085:143741001000000010","parcelId":"143741001000000010","countyFips":"12085","countyName":"Martin","state":"Florida","marketIds":["Vero Beach"],"situsAddress":"3422 NE CAUSEWAY BLVD","situsCity":"Jensen Beach","situsZip":"34957","jurisdictionCode":"Unincorporated Martin","ownerName":"FAIRWINDS COVE RECREATION ASSOCIATION INC FAIRWINDS COVE III CONDOMINIUM ASSOCIATION INC","ownerName2":null,"propertyName":null,"zoningCode":"HR-2A","zoningDistrict":null,"jurisdictionPrefix":null,"dorCode":"109.0","acreage":11.39,"centroid":[-80.205394,27.254558],"lastSale":{"date":null,"price":null,"qualified":null},"tax":{"marketValue":null,"assessedValue":null,"taxableValue":null,"taxes":null},"mailingAddress":{"line1":"1111 SE FEDERAL HWY STE 400","line2":null,"city":"STUART","state":"FL","zip":"34994"},"incomeTract":null,"incomeBlockGroup":null,"nearestRoad":null,"flu":{"code":"HIGH DENSITY","label":"HIGH DENSITY","jurisdiction":"Unincorporated Martin","source":"martin-unincorporated-flu"},"opportunityZone":null,"oz2Eligibility":null,"source":"fl-martin-geoweb-12085","appraiserUrl":"https://geoweb.martin.fl.us/info/pi.html?pcn=143741001000000010"},"geometry":{"type":"Polygon","coordinates":[[[-80.203602,27.255571],[-80.203766,27.255573],[-80.205922,27.255597],[-80.205923,27.255542],[-80.206138,27.255545],[-80.206138,27.255572],[-80.206486,27.255576],[-80.206491,27.255246],[-80.206143,27.255242],[-80.206139,27.255503],[-80.205924,27.255501],[-80.205934,27.254736],[-80.206393,27.254741],[-80.206394,27.254667],[-80.206425,27.254668],[-80.206439,27.253696],[-80.206408,27.253695],[-80.206409,27.253594],[-80.206297,27.253602],[-80.206198,27.253639],[-80.205933,27.253654],[-80.205745,27.253726],[-80.205326,27.253839],[-80.205165,27.253874],[-80.205086,27.25387],[-80.204996,27.253914],[-80.204714,27.253997],[-80.204462,27.254136],[-80.204259,27.254182],[-80.20406,27.254302],[-80.204022,27.254352],[-80.203974,27.254365],[-80.20394,27.254423],[-80.203918,27.254582],[-80.203605,27.254799],[-80.203602,27.255571]]]}},{"type":"Feature","id":"12085:163741000000004008","properties":{"id":"12085:163741000000004008","parcelId":"163741000000004008","countyFips":"12085","countyName":"Martin","state":"Florida","marketIds":["Vero Beach"],"situsAddress":null,"situsCity":null,"situsZip":null,"jurisdictionCode":"Unincorporated Martin","ownerName":"STATE OF FLORIDA","ownerName2":null,"propertyName":null,"zoningCode":"R-2","zoningDistrict":null,"jurisdictionPrefix":null,"dorCode":"987.0","acreage":9.6,"centroid":[-80.237842,27.257223],"lastSale":{"date":null,"price":null,"qualified":null},"tax":{"marketValue":null,"assessedValue":null,"taxableValue":null,"taxes":null},"mailingAddress":{"line1":"3900 COMMONWEALTH BLVD MAIL STATION 108","line2":null,"city":"TALLAHASSEE","state":"FL","zip":"32399"},"incomeTract":null,"incomeBlockGroup":null,"nearestRoad":null,"flu":{"code":"LOW DENSITY","label":"LOW DENSITY","jurisdiction":"Unincorporated Martin","source":"martin-unincorporated-flu"},"opportunityZone":null,"oz2Eligibility":null,"source":"fl-martin-geoweb-12085","appraiserUrl":"https://geoweb.martin.fl.us/info/pi.html?pcn=163741000000004008"},"geometry":{"type":"Polygon","coordinates":[[[-80.238281,27.257727],[-80.240279,27.257766],[-80.240286,27.256815],[-80.236694,27.256785],[-80.236694,27.256894],[-80.236331,27.256887],[-80.236327,27.25769],[-80.238281,27.257727]]]}},{"type":"Feature","id":"12085:163741011000000018","properties":{"id":"12085:163741011000000018","parcelId":"163741011000000018","countyFips":"12085","countyName":"Martin","state":"Florida","marketIds":["Vero Beach"],"situsAddress":null,"situsCity":null,"situsZip":null,"jurisdictionCode":"Unincorporated Martin","ownerName":"SUGARHILL HOMEOWNERS ASSOC INC","ownerName2":null,"propertyName":null,"zoningCode":"R-2","zoningDistrict":null,"jurisdictionPrefix":null,"dorCode":"109.0","acreage":9.51,"centroid":[-80.24245,27.251186],"lastSale":{"date":null,"price":null,"qualified":null},"tax":{"marketValue":null,"assessedValue":null,"taxableValue":null,"taxes":null},"mailingAddress":{"line1":"PO BOX 443","line2":null,"city":"JENSEN BEACH","state":"FL","zip":"34958"},"incomeTract":null,"incomeBlockGroup":null,"nearestRoad":null,"flu":{"code":"ESTATE DENSITY 2UPA","label":"ESTATE DENSITY 2UPA","jurisdiction":"Unincorporated Martin","source":"martin-unincorporated-flu"},"opportunityZone":null,"oz2Eligibility":null,"source":"fl-martin-geoweb-12085","appraiserUrl":"https://geoweb.martin.fl.us/info/pi.html?pcn=163741011000000018"},"geometry":{"type":"Polygon","coordinates":[[[-80.240073,27.247202],[-80.240093,27.247202],[-80.240288,27.247243],[-80.240452,27.247346],[-80.240555,27.247478],[-80.240605,27.247652],[-80.240599,27.24818],[-80.240571,27.248443],[-80.240517,27.248665],[-80.240271,27.249421],[-80.240209,27.249447],[-80.240062,27.249413],[-80.239933,27.249414],[-80.23949,27.249518],[-80.239051,27.249576],[-80.238999,27.249567],[-80.238963,27.249509],[-80.238949,27.248692],[-80.238796,27.248691],[-80.238813,27.249965],[-80.238785,27.250128],[-80.238687,27.250404],[-80.238632,27.250424],[-80.237069,27.250411],[-80.237007,27.250357],[-80.236923,27.250341],[-80.23686,27.250358],[-80.236812,27.250396],[-80.236785,27.250448],[-80.236786,27.250514],[-80.236839,27.250586],[-80.23693,27.250616],[-80.237013,27.250597],[-80.237068,27.250548],[-80.238632,27.250567],[-80.238677,27.250617],[-80.238671,27.250921],[-80.238749,27.251204],[-80.23889,27.251432],[-80.239107,27.251636],[-80.239315,27.251756],[-80.239754,27.25193],[-80.239964,27.251956],[-80.240474,27.251939],[-80.240594,27.251969],[-80.240712,27.252041],[-80.240775,27.252114],[-80.240877,27.252291],[-80.241057,27.252787],[-80.241159,27.25297],[-80.241282,27.253111],[-80.241793,27.253575],[-80.241879,27.253701],[-80.241917,27.253825],[-80.242082,27.254982],[-80.242032,27.255043],[-80.242025,27.255119],[-80.242051,27.255173],[-80.242101,27.255212],[-80.242218,27.255224],[-80.242299,27.255174],[-80.242329,27.255083],[-80.242301,27.255012],[-80.242235,27.254965],[-80.242089,27.253944],[-80.242096,27.253905],[-80.242148,27.253869],[-80.242658,27.253807],[-80.242791,27.25375],[-80.242979,27.253543],[-80.24346,27.253161],[-80.243495,27.25309],[-80.243477,27.253005],[-80.243425,27.252956],[-80.243363,27.252936],[-80.243298,27.25294],[-80.243241,27.252969],[-80.24319,27.253053],[-80.24322,27.253155],[-80.242871,27.253445],[-80.242738,27.253605],[-80.242678,27.253652],[-80.242604,27.253677],[-80.24212,27.253733],[-80.242065,27.25372],[-80.241905,27.253481],[-80.241392,27.253015],[-80.241284,27.252889],[-80.2412,27.252736],[-80.241006,27.25221],[-80.240887,27.25202],[-80.240787,27.251916],[-80.24067,27.251847],[-80.240517,27.251804],[-80.239953,27.251818],[-80.239743,27.251783],[-80.239271,27.251574],[-80.239128,27.251469],[-80.239002,27.251335],[-80.238867,27.251089],[-80.238819,27.250821],[-80.238865,27.250353],[-80.238961,27.25003],[-80.23897,27.249767],[-80.239025,27.249719],[-80.239522,27.249653],[-80.239943,27.249552],[-80.240036,27.249549],[-80.240141,27.249576],[-80.240266,27.249669],[-80.240607,27.250172],[-80.240733,27.250309],[-80.24087,27.250404],[-80.241025,27.250473],[-80.241188,27.250512],[-80.24139,27.250528],[-80.241489,27.250572],[-80.24185,27.251057],[-80.242013,27.251199],[-80.2422,27.251276],[-80.242396,27.251299],[-80.242777,27.251258],[-80.243046,27.251184],[-80.243091,27.251187],[-80.24361,27.251628],[-80.24361,27.251696],[-80.243645,27.251755],[-80.243698,27.251788],[-80.243762,27.251799],[-80.243833,27.251782],[-80.243893,27.25173],[-80.243913,27.251657],[-80.24389,27.251589],[-80.243814,27.251534],[-80.243717,27.25153],[-80.243309,27.251176],[-80.243279,27.251091],[-80.243299,27.251041],[-80.24346,27.250885],[-80.24357,27.250727],[-80.243637,27.250578],[-80.243742,27.250217],[-80.243821,27.250083],[-80.244068,27.249758],[-80.244086,27.24966],[-80.244045,27.249592],[-80.243969,27.249554],[-80.243882,27.249559],[-80.243807,27.249613],[-80.243782,27.249697],[-80.243824,27.249793],[-80.243822,27.249832],[-80.243602,27.250159],[-80.243455,27.250622],[-80.243328,27.250812],[-80.243172,27.250952],[-80.242959,27.251066],[-80.242701,27.251129],[-80.242332,27.25116],[-80.242215,27.251137],[-80.242098,27.251084],[-80.241977,27.250979],[-80.241666,27.250542],[-80.241581,27.250462],[-80.241434,27.250396],[-80.241212,27.250376],[-80.241077,27.250343],[-80.240951,27.250288],[-80.240841,27.250211],[-80.240737,27.250097],[-80.240401,27.249601],[-80.240396,27.249551],[-80.240675,27.248666],[-80.240726,27.248444],[-80.240753,27.248181],[-80.240755,27.247611],[-80.240711,27.247455],[-80.240635,27.247329],[-80.240524,27.247218],[-80.240397,27.247139],[-80.240213,27.247078],[-80.239998,27.247063],[-80.239948,27.247015],[-80.239879,27.246994],[-80.239778,27.247016],[-80.239716,27.247091],[-80.239726,27.247193],[-80.239814,27.247261],[-80.239901,27.247264],[-80.239996,27.247201],[-80.240073,27.247202]]]}},{"type":"Feature","id":"12085:133741000000001213","properties":{"id":"12085:133741000000001213","parcelId":"133741000000001213","countyFips":"12085","countyName":"Martin","state":"Florida","marketIds":["Vero Beach"],"situsAddress":"4351 NE OCEAN BLVD","situsCity":"Jensen Beach","situsZip":"34957","jurisdictionCode":"Unincorporated Martin","ownerName":"STATE OF FLORIDA","ownerName2":null,"propertyName":null,"zoningCode":"PR","zoningDistrict":null,"jurisdictionPrefix":null,"dorCode":"987.0","acreage":8.96,"centroid":[-80.19772,27.257095],"lastSale":{"date":null,"price":null,"qualified":null},"tax":{"marketValue":null,"assessedValue":null,"taxableValue":null,"taxes":null},"mailingAddress":{"line1":"3900 COMMONWEALTH BLVD MAIL STATION 108","line2":null,"city":"TALLAHASSEE","state":"FL","zip":"32399"},"incomeTract":null,"incomeBlockGroup":null,"nearestRoad":null,"flu":{"code":"RECREATIONAL","label":"RECREATIONAL","jurisdiction":"Unincorporated Martin","source":"martin-unincorporated-flu"},"opportunityZone":null,"oz2Eligibility":null,"source":"fl-martin-geoweb-12085","appraiserUrl":"https://geoweb.martin.fl.us/info/pi.html?pcn=133741000000001213"},"geometry":{"type":"Polygon","coordinates":[[[-80.198404,27.258444],[-80.198462,27.258445],[-80.199008,27.25845],[-80.197753,27.255873],[-80.197658,27.255787],[-80.197538,27.255747],[-80.196426,27.255733],[-80.196746,27.256257],[-80.19746,27.257776],[-80.197749,27.258438],[-80.198404,27.258444]]]}},{"type":"Feature","id":"12085:153741004006000506","properties":{"id":"12085:153741004006000506","parcelId":"153741004006000506","countyFips":"12085","countyName":"Martin","state":"Florida","marketIds":["Vero Beach"],"situsAddress":"3900 NE SKYLINE DR","situsCity":"Jensen Beach","situsZip":"34957","jurisdictionCode":"Unincorporated Martin","ownerName":"JENSEN BEACH COMMUNITY CHURCH","ownerName2":null,"propertyName":null,"zoningCode":"R-2","zoningDistrict":null,"jurisdictionPrefix":null,"dorCode":"671.0","acreage":6.9,"centroid":[-80.234123,27.252578],"lastSale":{"date":null,"price":null,"qualified":null},"tax":{"marketValue":null,"assessedValue":null,"taxableValue":null,"taxes":null},"mailingAddress":{"line1":"3900 NE SKYLINE DR","line2":null,"city":"JENSEN BEACH","state":"FL","zip":"34957"},"incomeTract":null,"incomeBlockGroup":null,"nearestRoad":null,"flu":{"code":"LOW DENSITY","label":"LOW DENSITY","jurisdiction":"Unincorporated Martin","source":"martin-unincorporated-flu"},"opportunityZone":null,"oz2Eligibility":null,"source":"fl-martin-geoweb-12085","appraiserUrl":"https://geoweb.martin.fl.us/info/pi.html?pcn=153741004006000506"},"geometry":{"type":"Polygon","coordinates":[[[-80.233593,27.25188],[-80.233606,27.251976],[-80.233616,27.252356],[-80.233552,27.252868],[-80.233909,27.25287],[-80.233907,27.253384],[-80.235397,27.253393],[-80.235406,27.251893],[-80.233593,27.25188]]]}},{"type":"Feature","id":"12085:143741003000000013","properties":{"id":"12085:143741003000000013","parcelId":"143741003000000013","countyFips":"12085","countyName":"Martin","state":"Florida","marketIds":["Vero Beach"],"situsAddress":"4015 NE BREAKWATER DR","situsCity":"Jensen Beach","situsZip":"34957","jurisdictionCode":"Unincorporated Martin","ownerName":"INDIAN RIVER POINT HOMEOWNERS ASSOCIATION","ownerName2":null,"propertyName":null,"zoningCode":"PUD-R","zoningDistrict":null,"jurisdictionPrefix":null,"dorCode":"109.0","acreage":6.1,"centroid":[-80.207612,27.255395],"lastSale":{"date":null,"price":null,"qualified":null},"tax":{"marketValue":null,"assessedValue":null,"taxableValue":null,"taxes":null},"mailingAddress":{"line1":"3250 NE CANDICE AVE #3","line2":null,"city":"JENSEN BEACH","state":"FL","zip":"34957"},"incomeTract":null,"incomeBlockGroup":null,"nearestRoad":null,"flu":{"code":"MEDIUM DENSITY","label":"MEDIUM DENSITY","jurisdiction":"Unincorporated Martin","source":"martin-unincorporated-flu"},"opportunityZone":null,"oz2Eligibility":null,"source":"fl-martin-geoweb-12085","appraiserUrl":"https://geoweb.martin.fl.us/info/pi.html?pcn=143741003000000013"},"geometry":{"type":"MultiPolygon","coordinates":[[[[-80.20738,27.255614],[-80.207381,27.255614],[-80.208588,27.255626],[-80.209226,27.255602],[-80.209239,27.254371],[-80.210465,27.253131],[-80.208601,27.253126],[-80.208585,27.253138],[-80.207384,27.254456],[-80.20738,27.255614]],[[-80.208593,27.253964],[-80.208592,27.254157],[-80.208592,27.254322],[-80.208426,27.254322],[-80.208426,27.254267],[-80.208364,27.254266],[-80.208364,27.25446],[-80.208425,27.25446],[-80.208425,27.254405],[-80.208591,27.254405],[-80.20859,27.254772],[-80.20766,27.254766],[-80.207661,27.254711],[-80.207599,27.254711],[-80.207599,27.254904],[-80.20766,27.254904],[-80.20766,27.254849],[-80.20859,27.254854],[-80.208589,27.255069],[-80.208506,27.255239],[-80.208376,27.255239],[-80.208375,27.255294],[-80.208428,27.255294],[-80.208427,27.255487],[-80.20775,27.255481],[-80.207751,27.255345],[-80.207597,27.255344],[-80.207598,27.255041],[-80.207428,27.25504],[-80.20743,27.254485],[-80.208143,27.254489],[-80.208145,27.254052],[-80.208205,27.253994],[-80.208275,27.253966],[-80.208593,27.253964]],[[-80.209957,27.253577],[-80.209873,27.253661],[-80.209185,27.25436],[-80.209181,27.255499],[-80.20868,27.255498],[-80.208672,27.255199],[-80.208931,27.2552],[-80.208931,27.255269],[-80.208992,27.255269],[-80.208993,27.255112],[-80.208758,27.255112],[-80.208759,27.25482],[-80.208932,27.254821],[-80.208932,27.25487],[-80.208993,27.25487],[-80.208994,27.254689],[-80.208933,27.254689],[-80.208932,27.254738],[-80.20876,27.254738],[-80.208761,27.254361],[-80.208934,27.254361],[-80.208933,27.25454],[-80.208995,27.25454],[-80.208996,27.254296],[-80.209369,27.253917],[-80.209196,27.253781],[-80.209458,27.253514],[-80.209518,27.253561],[-80.209643,27.253435],[-80.209756,27.253524],[-80.209815,27.253465],[-80.209957,27.253577]],[[-80.208051,27.254087],[-80.207889,27.253969],[-80.208509,27.253291],[-80.209196,27.253376],[-80.20917,27.253542],[-80.208551,27.25354],[-80.208051,27.254087]],[[-80.208487,27.253727],[-80.208581,27.253625],[-80.209088,27.253626],[-80.209086,27.254039],[-80.208744,27.254032],[-80.208704,27.253939],[-80.208665,27.253902],[-80.208613,27.253883],[-80.208481,27.253882],[-80.208487,27.253727]],[[-80.208762,27.254113],[-80.208963,27.254114],[-80.208987,27.254125],[-80.208991,27.254153],[-80.208869,27.254279],[-80.208761,27.254278],[-80.208762,27.254113]]],[[[-80.20809,27.255291],[-80.20819,27.255292],[-80.208192,27.255053],[-80.207752,27.25505],[-80.207751,27.255288],[-80.20809,27.255291]]]]}},{"type":"Feature","id":"12085:133741000000001204","properties":{"id":"12085:133741000000001204","parcelId":"133741000000001204","countyFips":"12085","countyName":"Martin","state":"Florida","marketIds":["Vero Beach"],"situsAddress":"4240 NE OCEAN BLVD","situsCity":"Jensen Beach","situsZip":"34957","jurisdictionCode":"Unincorporated Martin","ownerName":"SHAKED INVESTMENTS LLC","ownerName2":null,"propertyName":null,"zoningCode":"HB-1","zoningDistrict":null,"jurisdictionPrefix":null,"dorCode":"716.0","acreage":6.0,"centroid":[-80.198636,27.256419],"lastSale":{"date":null,"price":null,"qualified":null},"tax":{"marketValue":null,"assessedValue":null,"taxableValue":null,"taxes":null},"mailingAddress":{"line1":"225 GOLDEN BEACH DR","line2":null,"city":"GOLDEN BEACH","state":"FL","zip":"33160"},"incomeTract":null,"incomeBlockGroup":null,"nearestRoad":null,"flu":{"code":"COMM. LIMITED","label":"COMM. LIMITED","jurisdiction":"Unincorporated Martin","source":"martin-unincorporated-flu"},"opportunityZone":null,"oz2Eligibility":null,"source":"fl-martin-geoweb-12085","appraiserUrl":"https://geoweb.martin.fl.us/info/pi.html?pcn=133741000000001204"},"geometry":{"type":"Polygon","coordinates":[[[-80.198308,27.255789],[-80.198284,27.255788],[-80.198217,27.255811],[-80.19817,27.255865],[-80.198156,27.25591],[-80.198165,27.255981],[-80.199345,27.25841],[-80.199535,27.258411],[-80.199542,27.255802],[-80.198308,27.255789]]]}},{"type":"Feature","id":"12085:143741012000000010","properties":{"id":"12085:143741012000000010","parcelId":"143741012000000010","countyFips":"12085","countyName":"Martin","state":"Florida","marketIds":["Vero Beach"],"situsAddress":"4150 NE MOON RIVER CIR","situsCity":"Jensen Beach","situsZip":"34957","jurisdictionCode":"Unincorporated Martin","ownerName":"MOON RIVER VILLAS HOMEOWNERS ASSOC INC","ownerName2":null,"propertyName":null,"zoningCode":"HR-2A","zoningDistrict":null,"jurisdictionPrefix":null,"dorCode":"949.0","acreage":5.85,"centroid":[-80.207254,27.254371],"lastSale":{"date":null,"price":null,"qualified":null},"tax":{"marketValue":null,"assessedValue":null,"taxableValue":null,"taxes":null},"mailingAddress":{"line1":"10 SE CENTRAL PARKWAY #400","line2":null,"city":"STUART","state":"FL","zip":"34994"},"incomeTract":null,"incomeBlockGroup":null,"nearestRoad":null,"flu":{"code":"HIGH DENSITY","label":"HIGH DENSITY","jurisdiction":"Unincorporated Martin","source":"martin-unincorporated-flu"},"opportunityZone":null,"oz2Eligibility":null,"source":"fl-martin-geoweb-12085","appraiserUrl":"https://geoweb.martin.fl.us/info/pi.html?pcn=143741012000000010"},"geometry":{"type":"Polygon","coordinates":[[[-80.205922,27.255597],[-80.20738,27.255614],[-80.207384,27.254456],[-80.208585,27.253138],[-80.208244,27.253128],[-80.207933,27.253168],[-80.20641,27.253566],[-80.206408,27.253695],[-80.206439,27.253696],[-80.206425,27.254668],[-80.206394,27.254667],[-80.206393,27.254741],[-80.205934,27.254736],[-80.205924,27.255501],[-80.206139,27.255503],[-80.206143,27.255242],[-80.206491,27.255246],[-80.206486,27.255576],[-80.206138,27.255572],[-80.206138,27.255545],[-80.205923,27.255542],[-80.205922,27.255597]],[[-80.206625,27.255536],[-80.206523,27.255535],[-80.206524,27.255356],[-80.206626,27.255357],[-80.206625,27.255536]],[[-80.206859,27.255355],[-80.206955,27.255355],[-80.20705,27.255356],[-80.207049,27.255526],[-80.206858,27.255525],[-80.206859,27.255355]],[[-80.207096,27.255356],[-80.207191,27.255357],[-80.207287,27.255357],[-80.207286,27.255528],[-80.207095,27.255527],[-80.207096,27.255356]],[[-80.206656,27.255208],[-80.206454,27.255207],[-80.206456,27.255025],[-80.206657,27.255026],[-80.206656,27.255208]],[[-80.206165,27.255064],[-80.206063,27.255063],[-80.205962,27.255062],[-80.205963,27.254882],[-80.206166,27.254883],[-80.206165,27.255064]],[[-80.20621,27.254884],[-80.206312,27.254884],[-80.206413,27.254885],[-80.206412,27.255065],[-80.206209,27.255064],[-80.20621,27.254884]],[[-80.207118,27.254826],[-80.207119,27.254736],[-80.20732,27.254736],[-80.20732,27.254918],[-80.207118,27.254917],[-80.207118,27.254826]],[[-80.206715,27.254828],[-80.206614,27.254827],[-80.206512,27.254827],[-80.206513,27.254647],[-80.206716,27.254648],[-80.206715,27.254828]],[[-80.20675,27.254648],[-80.206852,27.254649],[-80.206953,27.254649],[-80.206952,27.254829],[-80.206749,27.254828],[-80.20675,27.254648]],[[-80.207119,27.254615],[-80.207119,27.254524],[-80.207321,27.254524],[-80.20732,27.254706],[-80.207119,27.254705],[-80.207119,27.254615]],[[-80.207093,27.254981],[-80.207194,27.254981],[-80.207296,27.254982],[-80.207294,27.255162],[-80.207091,27.255161],[-80.207093,27.254981]],[[-80.207057,27.255161],[-80.206956,27.25516],[-80.206854,27.255159],[-80.206856,27.254979],[-80.207059,27.25498],[-80.207057,27.255161]],[[-80.206742,27.254453],[-80.20664,27.254452],[-80.206538,27.254452],[-80.20654,27.254272],[-80.206743,27.254273],[-80.206742,27.254453]],[[-80.206777,27.254273],[-80.206878,27.254274],[-80.20698,27.254274],[-80.206979,27.254454],[-80.206775,27.254453],[-80.206777,27.254273]],[[-80.207014,27.254189],[-80.207116,27.254189],[-80.207217,27.25419],[-80.207216,27.25437],[-80.207013,27.254369],[-80.207014,27.254189]],[[-80.207273,27.254226],[-80.2074,27.254086],[-80.207479,27.254144],[-80.207351,27.254283],[-80.207273,27.254226]],[[-80.206823,27.254199],[-80.206732,27.254185],[-80.206726,27.254218],[-80.206635,27.254203],[-80.206628,27.254236],[-80.206526,27.25422],[-80.20656,27.254047],[-80.206651,27.254061],[-80.206658,27.254028],[-80.206749,27.254043],[-80.206755,27.25401],[-80.206846,27.254024],[-80.206852,27.253992],[-80.206943,27.254006],[-80.20695,27.253974],[-80.207052,27.25399],[-80.207018,27.254163],[-80.206927,27.254149],[-80.206921,27.254181],[-80.206829,27.254167],[-80.206823,27.254199]],[[-80.207067,27.254126],[-80.207076,27.25395],[-80.207168,27.253954],[-80.20717,27.253921],[-80.207262,27.253924],[-80.207264,27.253891],[-80.207356,27.253895],[-80.207358,27.253862],[-80.20745,27.253866],[-80.207451,27.253833],[-80.207544,27.253836],[-80.207545,27.253803],[-80.207679,27.253808],[-80.207673,27.253931],[-80.207642,27.253957],[-80.20764,27.253983],[-80.207548,27.253979],[-80.207546,27.254012],[-80.207454,27.254009],[-80.207452,27.254042],[-80.20736,27.254038],[-80.207359,27.254071],[-80.207266,27.254068],[-80.207265,27.2541],[-80.207172,27.254097],[-80.207171,27.25413],[-80.207067,27.254126]],[[-80.206469,27.25389],[-80.206454,27.25371],[-80.206555,27.253703],[-80.206571,27.253883],[-80.206469,27.25389]],[[-80.206586,27.253677],[-80.20668,27.253662],[-80.206774,27.253647],[-80.206808,27.253825],[-80.20662,27.253854],[-80.206586,27.253677]],[[-80.206807,27.253641],[-80.206905,27.253617],[-80.207003,27.253593],[-80.207056,27.253766],[-80.20686,27.253815],[-80.206807,27.253641]],[[-80.207035,27.253585],[-80.207133,27.25356],[-80.20723,27.253535],[-80.207286,27.253708],[-80.207091,27.253758],[-80.207035,27.253585]],[[-80.207259,27.25351],[-80.207355,27.253483],[-80.207452,27.253456],[-80.207512,27.253628],[-80.207318,27.253682],[-80.207259,27.25351]],[[-80.207502,27.253445],[-80.207601,27.253425],[-80.2077,27.253404],[-80.207746,27.253579],[-80.207548,27.253621],[-80.207502,27.253445]],[[-80.207733,27.253397],[-80.207832,27.253376],[-80.207931,27.253356],[-80.207977,27.253531],[-80.207779,27.253572],[-80.207733,27.253397]]]}},{"type":"Feature","id":"12085:133741001000000010","properties":{"id":"12085:133741001000000010","parcelId":"133741001000000010","countyFips":"12085","countyName":"Martin","state":"Florida","marketIds":["Vero Beach"],"situsAddress":"3792 NE OCEAN BLVD","situsCity":"Jensen Beach","situsZip":"34957","jurisdictionCode":"Unincorporated Martin","ownerName":"GREEN TURTLE COVE CONDOMINIUM APARTMENTS ASSOCIATION INC","ownerName2":null,"propertyName":null,"zoningCode":"HR-2A","zoningDistrict":null,"jurisdictionPrefix":null,"dorCode":"974.0","acreage":5.74,"centroid":[-80.19723,27.251388],"lastSale":{"date":null,"price":null,"qualified":null},"tax":{"marketValue":null,"assessedValue":null,"taxableValue":null,"taxes":null},"mailingAddress":{"line1":"10 SE CENTRAL PARKWAY #400","line2":null,"city":"STUART","state":"FL","zip":"34994"},"incomeTract":null,"incomeBlockGroup":null,"nearestRoad":null,"flu":{"code":"HIGH DENSITY","label":"HIGH DENSITY","jurisdiction":"Unincorporated Martin","source":"martin-unincorporated-flu"},"opportunityZone":null,"oz2Eligibility":null,"source":"fl-martin-geoweb-12085","appraiserUrl":"https://geoweb.martin.fl.us/info/pi.html?pcn=133741001000000010"},"geometry":{"type":"Polygon","coordinates":[[[-80.19614,27.252034],[-80.198322,27.252056],[-80.198301,27.251995],[-80.198228,27.25195],[-80.198102,27.251741],[-80.197927,27.251504],[-80.197903,27.251422],[-80.197929,27.251377],[-80.197917,27.251201],[-80.197771,27.251075],[-80.197768,27.250851],[-80.197726,27.250781],[-80.195913,27.250763],[-80.195944,27.250818],[-80.196313,27.250822],[-80.196417,27.251006],[-80.19612,27.251134],[-80.196558,27.251922],[-80.196076,27.251918],[-80.19614,27.252034]]]}},{"type":"Feature","id":"12085:163741001000001000","properties":{"id":"12085:163741001000001000","parcelId":"163741001000001000","countyFips":"12085","countyName":"Martin","state":"Florida","marketIds":["Vero Beach"],"situsAddress":"4140 NE SAVANNAH RD","situsCity":"Jensen Beach","situsZip":"34957","jurisdictionCode":"Unincorporated Martin","ownerName":"VICKERS WILLIAM R VICKERS JEAN A","ownerName2":null,"propertyName":null,"zoningCode":"R-2","zoningDistrict":null,"jurisdictionPrefix":null,"dorCode":"101.0","acreage":5.49,"centroid":[-80.237693,27.255239],"lastSale":{"date":null,"price":null,"qualified":null},"tax":{"marketValue":null,"assessedValue":null,"taxableValue":null,"taxes":null},"mailingAddress":{"line1":"4140 NE SAVANNAH RD","line2":null,"city":"JENSEN BEACH","state":"FL","zip":"34957"},"incomeTract":null,"incomeBlockGroup":null,"nearestRoad":null,"flu":{"code":"LOW DENSITY","label":"LOW DENSITY","jurisdiction":"Unincorporated Martin","source":"martin-unincorporated-flu"},"opportunityZone":null,"oz2Eligibility":null,"source":"fl-martin-geoweb-12085","appraiserUrl":"https://geoweb.martin.fl.us/info/pi.html?pcn=163741001000001000"},"geometry":{"type":"Polygon","coordinates":[[[-80.236955,27.255468],[-80.240295,27.255491],[-80.240299,27.254947],[-80.236271,27.254919],[-80.23627,27.255188],[-80.236881,27.255192],[-80.236878,27.255468],[-80.236955,27.255468]]]}}]}