{"type":"FeatureCollection","name":"01029--12_25","features":[{"type":"Feature","id":"01029:18-26-02-10-0-000-002.000","properties":{"id":"01029:18-26-02-10-0-000-002.000","parcelId":"18-26-02-10-0-000-002.000","countyFips":"01029","countyName":"Cleburne","state":"Alabama","marketIds":["Birmingham"],"situsAddress":null,"situsCity":null,"situsZip":null,"jurisdictionCode":null,"ownerName":null,"ownerName2":null,"propertyName":null,"zoningCode":null,"zoningDistrict":null,"jurisdictionPrefix":null,"dorCode":null,"acreage":80.2535,"centroid":[-85.7852,33.476709],"lastSale":{"date":null,"price":null,"qualified":null},"tax":{"marketValue":null,"assessedValue":null,"taxableValue":null,"taxes":null},"mailingAddress":{"line1":null,"line2":null,"city":null,"state":null,"zip":null},"incomeTract":null,"incomeBlockGroup":null,"nearestRoad":null,"flu":null,"opportunityZone":null,"oz2Eligibility":null,"source":"al-cleburne-parcels-01029","appraiserUrl":"https://cleburne.capturecama.com/mapparceldetail/18-26-02-10-0-000-002.000","gisViewerUrl":"https://cleburne.capturecama.com/parcelviewer/"},"geometry":{"type":"Polygon","coordinates":[[[-85.782848,33.480336],[-85.787217,33.480306],[-85.787545,33.473107],[-85.78319,33.473088],[-85.782848,33.480336]]]}},{"type":"Feature","id":"01029:18-26-03-06-0-000-005.000","properties":{"id":"01029:18-26-03-06-0-000-005.000","parcelId":"18-26-03-06-0-000-005.000","countyFips":"01029","countyName":"Cleburne","state":"Alabama","marketIds":["Birmingham"],"situsAddress":null,"situsCity":null,"situsZip":null,"jurisdictionCode":null,"ownerName":null,"ownerName2":null,"propertyName":null,"zoningCode":null,"zoningDistrict":null,"jurisdictionPrefix":null,"dorCode":null,"acreage":78.5365,"centroid":[-85.838387,33.48563],"lastSale":{"date":null,"price":null,"qualified":null},"tax":{"marketValue":null,"assessedValue":null,"taxableValue":null,"taxes":null},"mailingAddress":{"line1":null,"line2":null,"city":null,"state":null,"zip":null},"incomeTract":null,"incomeBlockGroup":null,"nearestRoad":null,"flu":null,"opportunityZone":null,"oz2Eligibility":null,"source":"al-cleburne-parcels-01029","appraiserUrl":"https://cleburne.capturecama.com/mapparceldetail/18-26-03-06-0-000-005.000","gisViewerUrl":"https://cleburne.capturecama.com/parcelviewer/"},"geometry":{"type":"Polygon","coordinates":[[[-85.833983,33.487406],[-85.842709,33.4874],[-85.842762,33.483856],[-85.834093,33.483859],[-85.833983,33.487406]]]}},{"type":"Feature","id":"01029:18-26-03-06-0-000-007.000","properties":{"id":"01029:18-26-03-06-0-000-007.000","parcelId":"18-26-03-06-0-000-007.000","countyFips":"01029","countyName":"Cleburne","state":"Alabama","marketIds":["Birmingham"],"situsAddress":null,"situsCity":null,"situsZip":null,"jurisdictionCode":null,"ownerName":null,"ownerName2":null,"propertyName":null,"zoningCode":null,"zoningDistrict":null,"jurisdictionPrefix":null,"dorCode":null,"acreage":19.2737,"centroid":[-85.850327,33.48563],"lastSale":{"date":null,"price":null,"qualified":null},"tax":{"marketValue":null,"assessedValue":null,"taxableValue":null,"taxes":null},"mailingAddress":{"line1":null,"line2":null,"city":null,"state":null,"zip":null},"incomeTract":null,"incomeBlockGroup":null,"nearestRoad":null,"flu":null,"opportunityZone":null,"oz2Eligibility":null,"source":"al-cleburne-parcels-01029","appraiserUrl":"https://cleburne.capturecama.com/mapparceldetail/18-26-03-06-0-000-007.000","gisViewerUrl":"https://cleburne.capturecama.com/parcelviewer/"},"geometry":{"type":"Polygon","coordinates":[[[-85.851395,33.487409],[-85.851395,33.483863],[-85.849284,33.483854],[-85.849234,33.487393],[-85.851395,33.487409]]]}},{"type":"Feature","id":"01029:18-26-03-06-0-000-006.000","properties":{"id":"01029:18-26-03-06-0-000-006.000","parcelId":"18-26-03-06-0-000-006.000","countyFips":"01029","countyName":"Cleburne","state":"Alabama","marketIds":["Birmingham"],"situsAddress":null,"situsCity":null,"situsZip":null,"jurisdictionCode":null,"ownerName":null,"ownerName2":null,"propertyName":null,"zoningCode":null,"zoningDistrict":null,"jurisdictionPrefix":null,"dorCode":null,"acreage":10.1405,"centroid":[-85.848175,33.484762],"lastSale":{"date":null,"price":null,"qualified":null},"tax":{"marketValue":null,"assessedValue":null,"taxableValue":null,"taxes":null},"mailingAddress":{"line1":null,"line2":null,"city":null,"state":null,"zip":null},"incomeTract":null,"incomeBlockGroup":null,"nearestRoad":null,"flu":null,"opportunityZone":null,"oz2Eligibility":null,"source":"al-cleburne-parcels-01029","appraiserUrl":"https://cleburne.capturecama.com/mapparceldetail/18-26-03-06-0-000-006.000","gisViewerUrl":"https://cleburne.capturecama.com/parcelviewer/"},"geometry":{"type":"Polygon","coordinates":[[[-85.847065,33.485688],[-85.849259,33.485652],[-85.849284,33.483854],[-85.847092,33.483855],[-85.847065,33.485688]]]}},{"type":"Feature","id":"01029:18-26-03-07-0-000-002.000","properties":{"id":"01029:18-26-03-07-0-000-002.000","parcelId":"18-26-03-07-0-000-002.000","countyFips":"01029","countyName":"Cleburne","state":"Alabama","marketIds":["Birmingham"],"situsAddress":null,"situsCity":null,"situsZip":null,"jurisdictionCode":null,"ownerName":null,"ownerName2":null,"propertyName":null,"zoningCode":null,"zoningDistrict":null,"jurisdictionPrefix":null,"dorCode":null,"acreage":39.5136,"centroid":[-85.840735,33.478417],"lastSale":{"date":null,"price":null,"qualified":null},"tax":{"marketValue":null,"assessedValue":null,"taxableValue":null,"taxes":null},"mailingAddress":{"line1":null,"line2":null,"city":null,"state":null,"zip":null},"incomeTract":null,"incomeBlockGroup":null,"nearestRoad":null,"flu":null,"opportunityZone":null,"oz2Eligibility":null,"source":"al-cleburne-parcels-01029","appraiserUrl":"https://cleburne.capturecama.com/mapparceldetail/18-26-03-07-0-000-002.000","gisViewerUrl":"https://cleburne.capturecama.com/parcelviewer/"},"geometry":{"type":"Polygon","coordinates":[[[-85.838528,33.480219],[-85.842852,33.480214],[-85.842929,33.47661],[-85.838632,33.476624],[-85.838528,33.480219]]]}},{"type":"Feature","id":"01029:18-26-03-08-0-000-002.002","properties":{"id":"01029:18-26-03-08-0-000-002.002","parcelId":"18-26-03-08-0-000-002.002","countyFips":"01029","countyName":"Cleburne","state":"Alabama","marketIds":["Birmingham"],"situsAddress":null,"situsCity":null,"situsZip":null,"jurisdictionCode":null,"ownerName":null,"ownerName2":null,"propertyName":null,"zoningCode":null,"zoningDistrict":null,"jurisdictionPrefix":null,"dorCode":null,"acreage":19.5428,"centroid":[-85.823795,33.477457],"lastSale":{"date":null,"price":null,"qualified":null},"tax":{"marketValue":null,"assessedValue":null,"taxableValue":null,"taxes":null},"mailingAddress":{"line1":null,"line2":null,"city":null,"state":null,"zip":null},"incomeTract":null,"incomeBlockGroup":null,"nearestRoad":null,"flu":null,"opportunityZone":null,"oz2Eligibility":null,"source":"al-cleburne-parcels-01029","appraiserUrl":"https://cleburne.capturecama.com/mapparceldetail/18-26-03-08-0-000-002.002","gisViewerUrl":"https://cleburne.capturecama.com/parcelviewer/"},"geometry":{"type":"Polygon","coordinates":[[[-85.825869,33.478382],[-85.825913,33.476564],[-85.82173,33.476521],[-85.821669,33.478362],[-85.825869,33.478382]]]}},{"type":"Feature","id":"01029:18-26-03-08-0-000-002.000","properties":{"id":"01029:18-26-03-08-0-000-002.000","parcelId":"18-26-03-08-0-000-002.000","countyFips":"01029","countyName":"Cleburne","state":"Alabama","marketIds":["Birmingham"],"situsAddress":null,"situsCity":null,"situsZip":null,"jurisdictionCode":null,"ownerName":null,"ownerName2":null,"propertyName":null,"zoningCode":null,"zoningDistrict":null,"jurisdictionPrefix":null,"dorCode":null,"acreage":19.4889,"centroid":[-85.823736,33.479281],"lastSale":{"date":null,"price":null,"qualified":null},"tax":{"marketValue":null,"assessedValue":null,"taxableValue":null,"taxes":null},"mailingAddress":{"line1":null,"line2":null,"city":null,"state":null,"zip":null},"incomeTract":null,"incomeBlockGroup":null,"nearestRoad":null,"flu":null,"opportunityZone":null,"oz2Eligibility":null,"source":"al-cleburne-parcels-01029","appraiserUrl":"https://cleburne.capturecama.com/mapparceldetail/18-26-03-08-0-000-002.000","gisViewerUrl":"https://cleburne.capturecama.com/parcelviewer/"},"geometry":{"type":"Polygon","coordinates":[[[-85.821596,33.480192],[-85.825812,33.480189],[-85.825869,33.478382],[-85.821669,33.478362],[-85.821596,33.480192]]]}},{"type":"Feature","id":"01029:18-26-03-08-0-000-002.001","properties":{"id":"01029:18-26-03-08-0-000-002.001","parcelId":"18-26-03-08-0-000-002.001","countyFips":"01029","countyName":"Cleburne","state":"Alabama","marketIds":["Birmingham"],"situsAddress":null,"situsCity":null,"situsZip":null,"jurisdictionCode":null,"ownerName":null,"ownerName2":null,"propertyName":null,"zoningCode":null,"zoningDistrict":null,"jurisdictionPrefix":null,"dorCode":null,"acreage":40.2367,"centroid":[-85.823636,33.482057],"lastSale":{"date":null,"price":null,"qualified":null},"tax":{"marketValue":null,"assessedValue":null,"taxableValue":null,"taxes":null},"mailingAddress":{"line1":null,"line2":null,"city":null,"state":null,"zip":null},"incomeTract":null,"incomeBlockGroup":null,"nearestRoad":null,"flu":null,"opportunityZone":null,"oz2Eligibility":null,"source":"al-cleburne-parcels-01029","appraiserUrl":"https://cleburne.capturecama.com/mapparceldetail/18-26-03-08-0-000-002.001","gisViewerUrl":"https://cleburne.capturecama.com/parcelviewer/"},"geometry":{"type":"Polygon","coordinates":[[[-85.821444,33.483936],[-85.825693,33.48391],[-85.825812,33.480189],[-85.821596,33.480192],[-85.821444,33.483936]]]}},{"type":"Feature","id":"01029:18-19-08-34-0-000-006.000","properties":{"id":"01029:18-19-08-34-0-000-006.000","parcelId":"18-19-08-34-0-000-006.000","countyFips":"01029","countyName":"Cleburne","state":"Alabama","marketIds":["Birmingham"],"situsAddress":null,"situsCity":null,"situsZip":null,"jurisdictionCode":null,"ownerName":null,"ownerName2":null,"propertyName":null,"zoningCode":null,"zoningDistrict":null,"jurisdictionPrefix":null,"dorCode":null,"acreage":20.5839,"centroid":[-85.788397,33.499313],"lastSale":{"date":null,"price":null,"qualified":null},"tax":{"marketValue":null,"assessedValue":null,"taxableValue":null,"taxes":null},"mailingAddress":{"line1":null,"line2":null,"city":null,"state":null,"zip":null},"incomeTract":null,"incomeBlockGroup":null,"nearestRoad":null,"flu":null,"opportunityZone":null,"oz2Eligibility":null,"source":"al-cleburne-parcels-01029","appraiserUrl":"https://cleburne.capturecama.com/mapparceldetail/18-19-08-34-0-000-006.000","gisViewerUrl":"https://cleburne.capturecama.com/parcelviewer/"},"geometry":{"type":"Polygon","coordinates":[[[-85.790556,33.500238],[-85.790659,33.498398],[-85.786237,33.498401],[-85.786137,33.500217],[-85.790556,33.500238]]]}},{"type":"Feature","id":"01029:18-19-09-32-0-000-005.005","properties":{"id":"01029:18-19-09-32-0-000-005.005","parcelId":"18-19-09-32-0-000-005.005","countyFips":"01029","countyName":"Cleburne","state":"Alabama","marketIds":["Birmingham"],"situsAddress":null,"situsCity":null,"situsZip":null,"jurisdictionCode":null,"ownerName":null,"ownerName2":null,"propertyName":null,"zoningCode":null,"zoningDistrict":null,"jurisdictionPrefix":null,"dorCode":null,"acreage":20.8407,"centroid":[-85.822965,33.49944],"lastSale":{"date":null,"price":null,"qualified":null},"tax":{"marketValue":null,"assessedValue":null,"taxableValue":null,"taxes":null},"mailingAddress":{"line1":null,"line2":null,"city":null,"state":null,"zip":null},"incomeTract":null,"incomeBlockGroup":null,"nearestRoad":null,"flu":null,"opportunityZone":null,"oz2Eligibility":null,"source":"al-cleburne-parcels-01029","appraiserUrl":"https://cleburne.capturecama.com/mapparceldetail/18-19-09-32-0-000-005.005","gisViewerUrl":"https://cleburne.capturecama.com/parcelviewer/"},"geometry":{"type":"Polygon","coordinates":[[[-85.820803,33.500217],[-85.822988,33.50022],[-85.825032,33.500227],[-85.82508,33.498231],[-85.820922,33.498306],[-85.820803,33.500217]]]}},{"type":"Feature","id":"01029:18-26-01-02-0-000-001.000","properties":{"id":"01029:18-26-01-02-0-000-001.000","parcelId":"18-26-01-02-0-000-001.000","countyFips":"01029","countyName":"Cleburne","state":"Alabama","marketIds":["Birmingham"],"situsAddress":null,"situsCity":null,"situsZip":null,"jurisdictionCode":null,"ownerName":null,"ownerName2":null,"propertyName":null,"zoningCode":null,"zoningDistrict":null,"jurisdictionPrefix":null,"dorCode":null,"acreage":18.9003,"centroid":[-85.781405,33.487148],"lastSale":{"date":null,"price":null,"qualified":null},"tax":{"marketValue":null,"assessedValue":null,"taxableValue":null,"taxes":null},"mailingAddress":{"line1":null,"line2":null,"city":null,"state":null,"zip":null},"incomeTract":null,"incomeBlockGroup":null,"nearestRoad":null,"flu":null,"opportunityZone":null,"oz2Eligibility":null,"source":"al-cleburne-parcels-01029","appraiserUrl":"https://cleburne.capturecama.com/mapparceldetail/18-26-01-02-0-000-001.000","gisViewerUrl":"https://cleburne.capturecama.com/parcelviewer/"},"geometry":{"type":"Polygon","coordinates":[[[-85.782406,33.489864],[-85.782677,33.48395],[-85.781436,33.483958],[-85.781497,33.484449],[-85.78158,33.484884],[-85.781581,33.485061],[-85.781514,33.48539],[-85.781216,33.486399],[-85.781136,33.486833],[-85.781105,33.487085],[-85.781116,33.487823],[-85.7811,33.487949],[-85.78107,33.488049],[-85.780971,33.488209],[-85.780369,33.488693],[-85.780748,33.488809],[-85.78107,33.488972],[-85.781972,33.489668],[-85.782138,33.489763],[-85.782406,33.489864]]]}},{"type":"Feature","id":"01029:18-26-03-08-0-000-003.000","properties":{"id":"01029:18-26-03-08-0-000-003.000","parcelId":"18-26-03-08-0-000-003.000","countyFips":"01029","countyName":"Cleburne","state":"Alabama","marketIds":["Birmingham"],"situsAddress":null,"situsCity":null,"situsZip":null,"jurisdictionCode":null,"ownerName":null,"ownerName2":null,"propertyName":null,"zoningCode":null,"zoningDistrict":null,"jurisdictionPrefix":null,"dorCode":null,"acreage":132.6259,"centroid":[-85.832284,33.480376],"lastSale":{"date":null,"price":null,"qualified":null},"tax":{"marketValue":null,"assessedValue":null,"taxableValue":null,"taxes":null},"mailingAddress":{"line1":null,"line2":null,"city":null,"state":null,"zip":null},"incomeTract":null,"incomeBlockGroup":null,"nearestRoad":null,"flu":null,"opportunityZone":null,"oz2Eligibility":null,"source":"al-cleburne-parcels-01029","appraiserUrl":"https://cleburne.capturecama.com/mapparceldetail/18-26-03-08-0-000-003.000","gisViewerUrl":"https://cleburne.capturecama.com/parcelviewer/"},"geometry":{"type":"Polygon","coordinates":[[[-85.825693,33.48391],[-85.830915,33.483878],[-85.831073,33.483616],[-85.831752,33.483252],[-85.832055,33.48287],[-85.832247,33.482555],[-85.832447,33.482153],[-85.832593,33.48163],[-85.832601,33.48139],[-85.832782,33.480657],[-85.833017,33.480186],[-85.833181,33.479911],[-85.833215,33.479807],[-85.833244,33.479634],[-85.833229,33.479379],[-85.833241,33.47924],[-85.833527,33.478903],[-85.833665,33.47852],[-85.833725,33.4782],[-85.833831,33.477932],[-85.834273,33.477757],[-85.834304,33.476714],[-85.825913,33.476564],[-85.825693,33.48391]]]}},{"type":"Feature","id":"01029:18-26-02-09-0-000-001.000","properties":{"id":"01029:18-26-02-09-0-000-001.000","parcelId":"18-26-02-09-0-000-001.000","countyFips":"01029","countyName":"Cleburne","state":"Alabama","marketIds":["Birmingham"],"situsAddress":null,"situsCity":null,"situsZip":null,"jurisdictionCode":null,"ownerName":null,"ownerName2":null,"propertyName":null,"zoningCode":null,"zoningDistrict":null,"jurisdictionPrefix":null,"dorCode":null,"acreage":135.6203,"centroid":[-85.807973,33.474192],"lastSale":{"date":null,"price":null,"qualified":null},"tax":{"marketValue":null,"assessedValue":null,"taxableValue":null,"taxes":null},"mailingAddress":{"line1":null,"line2":null,"city":null,"state":null,"zip":null},"incomeTract":null,"incomeBlockGroup":null,"nearestRoad":null,"flu":null,"opportunityZone":null,"oz2Eligibility":null,"source":"al-cleburne-parcels-01029","appraiserUrl":"https://cleburne.capturecama.com/mapparceldetail/18-26-02-09-0-000-001.000","gisViewerUrl":"https://cleburne.capturecama.com/parcelviewer/"},"geometry":{"type":"Polygon","coordinates":[[[-85.808041,33.477064],[-85.808078,33.476991],[-85.808242,33.476577],[-85.808545,33.475596],[-85.808617,33.475454],[-85.808742,33.475347],[-85.808835,33.475297],[-85.808948,33.475268],[-85.809159,33.47526],[-85.809381,33.475326],[-85.810046,33.475694],[-85.810112,33.475714],[-85.810278,33.475716],[-85.810489,33.475671],[-85.810747,33.475581],[-85.810984,33.475462],[-85.811293,33.475257],[-85.811593,33.47498],[-85.811922,33.474631],[-85.812107,33.474411],[-85.81225,33.474205],[-85.812628,33.473584],[-85.81291,33.473044],[-85.813152,33.472088],[-85.813157,33.471852],[-85.813083,33.471203],[-85.813052,33.471022],[-85.812903,33.470492],[-85.812788,33.469483],[-85.800723,33.469482],[-85.80056,33.472699],[-85.801186,33.47275],[-85.80157,33.472748],[-85.801913,33.472725],[-85.802607,33.472599],[-85.80304,33.472468],[-85.803393,33.472324],[-85.804779,33.471634],[-85.805042,33.471594],[-85.805283,33.471562],[-85.805767,33.471558],[-85.805967,33.471606],[-85.806084,33.471658],[-85.806343,33.471853],[-85.806431,33.471968],[-85.806504,33.472123],[-85.80709,33.473553],[-85.807283,33.473945],[-85.807368,33.474182],[-85.80738,33.474264],[-85.80736,33.474485],[-85.80728,33.47482],[-85.807144,33.475259],[-85.807093,33.475525],[-85.807003,33.477075],[-85.807002,33.477251],[-85.807026,33.477372],[-85.807048,33.477428],[-85.807125,33.47752],[-85.807203,33.477539],[-85.807279,33.477533],[-85.807497,33.477442],[-85.807814,33.477265],[-85.808041,33.477064]]]}},{"type":"Feature","id":"01029:18-26-02-10-0-000-004.000","properties":{"id":"01029:18-26-02-10-0-000-004.000","parcelId":"18-26-02-10-0-000-004.000","countyFips":"01029","countyName":"Cleburne","state":"Alabama","marketIds":["Birmingham"],"situsAddress":null,"situsCity":null,"situsZip":null,"jurisdictionCode":null,"ownerName":null,"ownerName2":null,"propertyName":null,"zoningCode":null,"zoningDistrict":null,"jurisdictionPrefix":null,"dorCode":null,"acreage":129.646,"centroid":[-85.79894,33.471327],"lastSale":{"date":null,"price":null,"qualified":null},"tax":{"marketValue":null,"assessedValue":null,"taxableValue":null,"taxes":null},"mailingAddress":{"line1":null,"line2":null,"city":null,"state":null,"zip":null},"incomeTract":null,"incomeBlockGroup":null,"nearestRoad":null,"flu":null,"opportunityZone":null,"oz2Eligibility":null,"source":"al-cleburne-parcels-01029","appraiserUrl":"https://cleburne.capturecama.com/mapparceldetail/18-26-02-10-0-000-004.000","gisViewerUrl":"https://cleburne.capturecama.com/parcelviewer/"},"geometry":{"type":"Polygon","coordinates":[[[-85.792939,33.480287],[-85.792935,33.480192],[-85.792908,33.479975],[-85.792888,33.479919],[-85.792798,33.479797],[-85.792195,33.479399],[-85.792072,33.479284],[-85.791941,33.479084],[-85.79189,33.478958],[-85.791856,33.478716],[-85.791901,33.478492],[-85.792011,33.478273],[-85.792115,33.47815],[-85.792323,33.47799],[-85.795106,33.476235],[-85.795213,33.476161],[-85.795504,33.475889],[-85.795608,33.475769],[-85.795695,33.475621],[-85.796327,33.474305],[-85.796594,33.47381],[-85.797067,33.473013],[-85.797225,33.47275],[-85.797339,33.472602],[-85.79761,33.472382],[-85.797993,33.472231],[-85.798148,33.472202],[-85.798419,33.472193],[-85.798792,33.472252],[-85.800038,33.472592],[-85.80056,33.472699],[-85.800649,33.470939],[-85.799954,33.470923],[-85.800011,33.469779],[-85.800708,33.46978],[-85.800723,33.469482],[-85.79205,33.469475],[-85.791628,33.478184],[-85.791476,33.480838],[-85.791485,33.481443],[-85.79155,33.48164],[-85.792206,33.482463],[-85.79248,33.482675],[-85.792571,33.482725],[-85.792701,33.48277],[-85.79292,33.482804],[-85.793064,33.482793],[-85.79323,33.482732],[-85.79329,33.482697],[-85.793394,33.482587],[-85.793465,33.482424],[-85.793549,33.481894],[-85.793539,33.481763],[-85.793482,33.481626],[-85.793182,33.48125],[-85.793053,33.48103],[-85.792981,33.480786],[-85.792939,33.480287]]]}},{"type":"Feature","id":"01029:18-26-02-10-0-000-001.000","properties":{"id":"01029:18-26-02-10-0-000-001.000","parcelId":"18-26-02-10-0-000-001.000","countyFips":"01029","countyName":"Cleburne","state":"Alabama","marketIds":["Birmingham"],"situsAddress":null,"situsCity":null,"situsZip":null,"jurisdictionCode":null,"ownerName":null,"ownerName2":null,"propertyName":null,"zoningCode":null,"zoningDistrict":null,"jurisdictionPrefix":null,"dorCode":null,"acreage":35.1461,"centroid":[-85.785811,33.482413],"lastSale":{"date":null,"price":null,"qualified":null},"tax":{"marketValue":null,"assessedValue":null,"taxableValue":null,"taxes":null},"mailingAddress":{"line1":null,"line2":null,"city":null,"state":null,"zip":null},"incomeTract":null,"incomeBlockGroup":null,"nearestRoad":null,"flu":null,"opportunityZone":null,"oz2Eligibility":null,"source":"al-cleburne-parcels-01029","appraiserUrl":"https://cleburne.capturecama.com/mapparceldetail/18-26-02-10-0-000-001.000","gisViewerUrl":"https://cleburne.capturecama.com/parcelviewer/"},"geometry":{"type":"Polygon","coordinates":[[[-85.787217,33.480306],[-85.782848,33.480336],[-85.782677,33.48395],[-85.785977,33.483939],[-85.785948,33.483731],[-85.785957,33.483354],[-85.786012,33.483054],[-85.786131,33.482743],[-85.786352,33.482364],[-85.786604,33.482015],[-85.786853,33.481731],[-85.78716,33.48143],[-85.787217,33.480306]]]}},{"type":"Feature","id":"01029:18-26-02-03-0-000-001.000","properties":{"id":"01029:18-26-02-03-0-000-001.000","parcelId":"18-26-02-03-0-000-001.000","countyFips":"01029","countyName":"Cleburne","state":"Alabama","marketIds":["Birmingham"],"situsAddress":null,"situsCity":null,"situsZip":null,"jurisdictionCode":null,"ownerName":null,"ownerName2":null,"propertyName":null,"zoningCode":null,"zoningDistrict":null,"jurisdictionPrefix":null,"dorCode":null,"acreage":69.7945,"centroid":[-85.790435,33.48698],"lastSale":{"date":null,"price":null,"qualified":null},"tax":{"marketValue":null,"assessedValue":null,"taxableValue":null,"taxes":null},"mailingAddress":{"line1":null,"line2":null,"city":null,"state":null,"zip":null},"incomeTract":null,"incomeBlockGroup":null,"nearestRoad":null,"flu":null,"opportunityZone":null,"oz2Eligibility":null,"source":"al-cleburne-parcels-01029","appraiserUrl":"https://cleburne.capturecama.com/mapparceldetail/18-26-02-03-0-000-001.000","gisViewerUrl":"https://cleburne.capturecama.com/parcelviewer/"},"geometry":{"type":"Polygon","coordinates":[[[-85.785522,33.489616],[-85.785757,33.489576],[-85.786405,33.489511],[-85.788416,33.48938],[-85.789758,33.489415],[-85.789962,33.489394],[-85.790269,33.489264],[-85.790406,33.489158],[-85.790689,33.488692],[-85.791095,33.488167],[-85.791284,33.487893],[-85.791844,33.487393],[-85.792313,33.487153],[-85.792701,33.487033],[-85.793009,33.486997],[-85.793193,33.48693],[-85.793466,33.486574],[-85.793646,33.486246],[-85.793703,33.485879],[-85.793912,33.48545],[-85.79401,33.485181],[-85.794109,33.484767],[-85.794217,33.484606],[-85.794428,33.484489],[-85.794816,33.48444],[-85.795037,33.484345],[-85.795047,33.484279],[-85.794839,33.483909],[-85.786643,33.483937],[-85.786799,33.484322],[-85.786935,33.484533],[-85.788064,33.485946],[-85.788289,33.486243],[-85.788457,33.486521],[-85.788512,33.48665],[-85.788587,33.486939],[-85.788605,33.487219],[-85.788567,33.487524],[-85.788422,33.487926],[-85.788334,33.488069],[-85.788198,33.488249],[-85.788081,33.488369],[-85.787948,33.488501],[-85.787795,33.488616],[-85.787474,33.488809],[-85.785522,33.489616]]]}},{"type":"Feature","id":"01029:18-26-03-08-0-000-001.000","properties":{"id":"01029:18-26-03-08-0-000-001.000","parcelId":"18-26-03-08-0-000-001.000","countyFips":"01029","countyName":"Cleburne","state":"Alabama","marketIds":["Birmingham"],"situsAddress":null,"situsCity":null,"situsZip":null,"jurisdictionCode":null,"ownerName":null,"ownerName2":null,"propertyName":null,"zoningCode":null,"zoningDistrict":null,"jurisdictionPrefix":null,"dorCode":null,"acreage":39.3217,"centroid":[-85.819457,33.482075],"lastSale":{"date":null,"price":null,"qualified":null},"tax":{"marketValue":null,"assessedValue":null,"taxableValue":null,"taxes":null},"mailingAddress":{"line1":null,"line2":null,"city":null,"state":null,"zip":null},"incomeTract":null,"incomeBlockGroup":null,"nearestRoad":null,"flu":null,"opportunityZone":null,"oz2Eligibility":null,"source":"al-cleburne-parcels-01029","appraiserUrl":"https://cleburne.capturecama.com/mapparceldetail/18-26-03-08-0-000-001.000","gisViewerUrl":"https://cleburne.capturecama.com/parcelviewer/"},"geometry":{"type":"Polygon","coordinates":[[[-85.817304,33.483957],[-85.821444,33.483936],[-85.821596,33.480192],[-85.817486,33.480214],[-85.817304,33.483957]]]}},{"type":"Feature","id":"01029:18-26-03-05-0-000-002.000","properties":{"id":"01029:18-26-03-05-0-000-002.000","parcelId":"18-26-03-05-0-000-002.000","countyFips":"01029","countyName":"Cleburne","state":"Alabama","marketIds":["Birmingham"],"situsAddress":null,"situsCity":null,"situsZip":null,"jurisdictionCode":null,"ownerName":null,"ownerName2":null,"propertyName":null,"zoningCode":null,"zoningDistrict":null,"jurisdictionPrefix":null,"dorCode":null,"acreage":38.7574,"centroid":[-85.823498,33.485709],"lastSale":{"date":null,"price":null,"qualified":null},"tax":{"marketValue":null,"assessedValue":null,"taxableValue":null,"taxes":null},"mailingAddress":{"line1":null,"line2":null,"city":null,"state":null,"zip":null},"incomeTract":null,"incomeBlockGroup":null,"nearestRoad":null,"flu":null,"opportunityZone":null,"oz2Eligibility":null,"source":"al-cleburne-parcels-01029","appraiserUrl":"https://cleburne.capturecama.com/mapparceldetail/18-26-03-05-0-000-002.000","gisViewerUrl":"https://cleburne.capturecama.com/parcelviewer/"},"geometry":{"type":"Polygon","coordinates":[[[-85.821292,33.487528],[-85.825564,33.487464],[-85.825693,33.48391],[-85.821444,33.483936],[-85.821292,33.487528]]]}},{"type":"Feature","id":"01029:18-26-03-05-0-000-003.000","properties":{"id":"01029:18-26-03-05-0-000-003.000","parcelId":"18-26-03-05-0-000-003.000","countyFips":"01029","countyName":"Cleburne","state":"Alabama","marketIds":["Birmingham"],"situsAddress":null,"situsCity":null,"situsZip":null,"jurisdictionCode":null,"ownerName":null,"ownerName2":null,"propertyName":null,"zoningCode":null,"zoningDistrict":null,"jurisdictionPrefix":null,"dorCode":null,"acreage":38.089,"centroid":[-85.819292,33.485748],"lastSale":{"date":null,"price":null,"qualified":null},"tax":{"marketValue":null,"assessedValue":null,"taxableValue":null,"taxes":null},"mailingAddress":{"line1":null,"line2":null,"city":null,"state":null,"zip":null},"incomeTract":null,"incomeBlockGroup":null,"nearestRoad":null,"flu":null,"opportunityZone":null,"oz2Eligibility":null,"source":"al-cleburne-parcels-01029","appraiserUrl":"https://cleburne.capturecama.com/mapparceldetail/18-26-03-05-0-000-003.000","gisViewerUrl":"https://cleburne.capturecama.com/parcelviewer/"},"geometry":{"type":"Polygon","coordinates":[[[-85.817129,33.487572],[-85.821292,33.487528],[-85.821444,33.483936],[-85.817304,33.483957],[-85.817129,33.487572]]]}},{"type":"Feature","id":"01029:18-19-09-32-0-000-005.003","properties":{"id":"01029:18-19-09-32-0-000-005.003","parcelId":"18-19-09-32-0-000-005.003","countyFips":"01029","countyName":"Cleburne","state":"Alabama","marketIds":["Birmingham"],"situsAddress":null,"situsCity":null,"situsZip":null,"jurisdictionCode":null,"ownerName":null,"ownerName2":null,"propertyName":null,"zoningCode":null,"zoningDistrict":null,"jurisdictionPrefix":null,"dorCode":null,"acreage":16.3568,"centroid":[-85.818706,33.499085],"lastSale":{"date":null,"price":null,"qualified":null},"tax":{"marketValue":null,"assessedValue":null,"taxableValue":null,"taxes":null},"mailingAddress":{"line1":null,"line2":null,"city":null,"state":null,"zip":null},"incomeTract":null,"incomeBlockGroup":null,"nearestRoad":null,"flu":null,"opportunityZone":null,"oz2Eligibility":null,"source":"al-cleburne-parcels-01029","appraiserUrl":"https://cleburne.capturecama.com/mapparceldetail/18-19-09-32-0-000-005.003","gisViewerUrl":"https://cleburne.capturecama.com/parcelviewer/"},"geometry":{"type":"Polygon","coordinates":[[[-85.82083,33.499836],[-85.820922,33.498306],[-85.816582,33.498383],[-85.81649,33.499814],[-85.82083,33.499836]]]}},{"type":"Feature","id":"01029:18-26-03-07-0-000-001.000","properties":{"id":"01029:18-26-03-07-0-000-001.000","parcelId":"18-26-03-07-0-000-001.000","countyFips":"01029","countyName":"Cleburne","state":"Alabama","marketIds":["Birmingham"],"situsAddress":null,"situsCity":null,"situsZip":null,"jurisdictionCode":null,"ownerName":null,"ownerName2":null,"propertyName":null,"zoningCode":null,"zoningDistrict":null,"jurisdictionPrefix":null,"dorCode":null,"acreage":54.5875,"centroid":[-85.836327,33.473705],"lastSale":{"date":null,"price":null,"qualified":null},"tax":{"marketValue":null,"assessedValue":null,"taxableValue":null,"taxes":null},"mailingAddress":{"line1":null,"line2":null,"city":null,"state":null,"zip":null},"incomeTract":null,"incomeBlockGroup":null,"nearestRoad":null,"flu":null,"opportunityZone":null,"oz2Eligibility":null,"source":"al-cleburne-parcels-01029","appraiserUrl":"https://cleburne.capturecama.com/mapparceldetail/18-26-03-07-0-000-001.000","gisViewerUrl":"https://cleburne.capturecama.com/parcelviewer/"},"geometry":{"type":"Polygon","coordinates":[[[-85.834273,33.477757],[-85.834276,33.477757],[-85.8348,33.477561],[-85.835107,33.477421],[-85.835329,33.477271],[-85.835524,33.477064],[-85.835659,33.476892],[-85.835882,33.476189],[-85.836021,33.475885],[-85.836167,33.475691],[-85.836717,33.475242],[-85.836884,33.475002],[-85.836925,33.474825],[-85.836883,33.474577],[-85.836585,33.47392],[-85.836403,33.473206],[-85.836412,33.4731],[-85.836536,33.472941],[-85.83684,33.472781],[-85.837062,33.47262],[-85.837888,33.471659],[-85.838178,33.471292],[-85.838354,33.47102],[-85.838646,33.470437],[-85.838773,33.470248],[-85.83879,33.469381],[-85.834942,33.4694],[-85.834846,33.469548],[-85.834626,33.470093],[-85.834492,33.470358],[-85.834273,33.477757]]]}},{"type":"Feature","id":"01029:18-26-02-10-0-000-003.000","properties":{"id":"01029:18-26-02-10-0-000-003.000","parcelId":"18-26-02-10-0-000-003.000","countyFips":"01029","countyName":"Cleburne","state":"Alabama","marketIds":["Birmingham"],"situsAddress":null,"situsCity":null,"situsZip":null,"jurisdictionCode":null,"ownerName":null,"ownerName2":null,"propertyName":null,"zoningCode":null,"zoningDistrict":null,"jurisdictionPrefix":null,"dorCode":null,"acreage":29.4118,"centroid":[-85.789624,33.481523],"lastSale":{"date":null,"price":null,"qualified":null},"tax":{"marketValue":null,"assessedValue":null,"taxableValue":null,"taxes":null},"mailingAddress":{"line1":null,"line2":null,"city":null,"state":null,"zip":null},"incomeTract":null,"incomeBlockGroup":null,"nearestRoad":null,"flu":null,"opportunityZone":null,"oz2Eligibility":null,"source":"al-cleburne-parcels-01029","appraiserUrl":"https://cleburne.capturecama.com/mapparceldetail/18-26-02-10-0-000-003.000","gisViewerUrl":"https://cleburne.capturecama.com/parcelviewer/"},"geometry":{"type":"Polygon","coordinates":[[[-85.787035,33.483935],[-85.791363,33.483921],[-85.791448,33.482512],[-85.791044,33.482],[-85.790907,33.481777],[-85.79083,33.481493],[-85.790826,33.480967],[-85.790805,33.480803],[-85.790757,33.480726],[-85.790658,33.480647],[-85.790545,33.480602],[-85.790423,33.480584],[-85.790166,33.48061],[-85.789887,33.480666],[-85.789437,33.480801],[-85.788907,33.480988],[-85.788623,33.481122],[-85.788202,33.481366],[-85.787853,33.481621],[-85.787549,33.481888],[-85.787365,33.482075],[-85.787088,33.4824],[-85.787035,33.483935]]]}},{"type":"Feature","id":"01029:18-26-03-07-0-000-003.000","properties":{"id":"01029:18-26-03-07-0-000-003.000","parcelId":"18-26-03-07-0-000-003.000","countyFips":"01029","countyName":"Cleburne","state":"Alabama","marketIds":["Birmingham"],"situsAddress":null,"situsCity":null,"situsZip":null,"jurisdictionCode":null,"ownerName":null,"ownerName2":null,"propertyName":null,"zoningCode":null,"zoningDistrict":null,"jurisdictionPrefix":null,"dorCode":null,"acreage":38.5741,"centroid":[-85.840151,33.470715],"lastSale":{"date":null,"price":null,"qualified":null},"tax":{"marketValue":null,"assessedValue":null,"taxableValue":null,"taxes":null},"mailingAddress":{"line1":null,"line2":null,"city":null,"state":null,"zip":null},"incomeTract":null,"incomeBlockGroup":null,"nearestRoad":null,"flu":null,"opportunityZone":null,"oz2Eligibility":null,"source":"al-cleburne-parcels-01029","appraiserUrl":"https://cleburne.capturecama.com/mapparceldetail/18-26-03-07-0-000-003.000","gisViewerUrl":"https://cleburne.capturecama.com/parcelviewer/"},"geometry":{"type":"Polygon","coordinates":[[[-85.8431,33.46936],[-85.839215,33.469379],[-85.839156,33.469845],[-85.839086,33.470015],[-85.838779,33.470464],[-85.838716,33.47296],[-85.843004,33.472979],[-85.8431,33.46936]]]}},{"type":"Feature","id":"01029:18-26-03-05-0-000-001.000","properties":{"id":"01029:18-26-03-05-0-000-001.000","parcelId":"18-26-03-05-0-000-001.000","countyFips":"01029","countyName":"Cleburne","state":"Alabama","marketIds":["Birmingham"],"situsAddress":null,"situsCity":null,"situsZip":null,"jurisdictionCode":null,"ownerName":null,"ownerName2":null,"propertyName":null,"zoningCode":null,"zoningDistrict":null,"jurisdictionPrefix":null,"dorCode":null,"acreage":117.0694,"centroid":[-85.829551,33.492899],"lastSale":{"date":null,"price":null,"qualified":null},"tax":{"marketValue":null,"assessedValue":null,"taxableValue":null,"taxes":null},"mailingAddress":{"line1":null,"line2":null,"city":null,"state":null,"zip":null},"incomeTract":null,"incomeBlockGroup":null,"nearestRoad":null,"flu":null,"opportunityZone":null,"oz2Eligibility":null,"source":"al-cleburne-parcels-01029","appraiserUrl":"https://cleburne.capturecama.com/mapparceldetail/18-26-03-05-0-000-001.000","gisViewerUrl":"https://cleburne.capturecama.com/parcelviewer/"},"geometry":{"type":"Polygon","coordinates":[[[-85.828551,33.498168],[-85.828739,33.498165],[-85.833653,33.498076],[-85.833832,33.492307],[-85.833724,33.491522],[-85.833575,33.49127],[-85.833202,33.490934],[-85.832621,33.490579],[-85.831959,33.490226],[-85.831686,33.490058],[-85.831317,33.489774],[-85.830744,33.489225],[-85.83013,33.4887],[-85.829407,33.488197],[-85.829013,33.487999],[-85.828787,33.488404],[-85.828549,33.488748],[-85.828419,33.489022],[-85.828109,33.489247],[-85.828044,33.489361],[-85.828024,33.489474],[-85.828024,33.489682],[-85.828172,33.490111],[-85.828367,33.49118],[-85.82845,33.492294],[-85.82838,33.492652],[-85.827941,33.493987],[-85.827941,33.494185],[-85.828157,33.49474],[-85.828173,33.49532],[-85.828252,33.495447],[-85.828377,33.495571],[-85.82857,33.495823],[-85.828707,33.49609],[-85.82895,33.496771],[-85.828966,33.496948],[-85.828936,33.497267],[-85.828876,33.497543],[-85.828852,33.497756],[-85.828762,33.497965],[-85.828667,33.498078],[-85.828551,33.498168]]]}},{"type":"Feature","id":"01029:18-26-02-04-0-000-005.000","properties":{"id":"01029:18-26-02-04-0-000-005.000","parcelId":"18-26-02-04-0-000-005.000","countyFips":"01029","countyName":"Cleburne","state":"Alabama","marketIds":["Birmingham"],"situsAddress":null,"situsCity":null,"situsZip":null,"jurisdictionCode":null,"ownerName":null,"ownerName2":null,"propertyName":null,"zoningCode":null,"zoningDistrict":null,"jurisdictionPrefix":null,"dorCode":null,"acreage":28.7757,"centroid":[-85.814604,33.485506],"lastSale":{"date":null,"price":null,"qualified":null},"tax":{"marketValue":null,"assessedValue":null,"taxableValue":null,"taxes":null},"mailingAddress":{"line1":null,"line2":null,"city":null,"state":null,"zip":null},"incomeTract":null,"incomeBlockGroup":null,"nearestRoad":null,"flu":null,"opportunityZone":null,"oz2Eligibility":null,"source":"al-cleburne-parcels-01029","appraiserUrl":"https://cleburne.capturecama.com/mapparceldetail/18-26-02-04-0-000-005.000","gisViewerUrl":"https://cleburne.capturecama.com/parcelviewer/"},"geometry":{"type":"Polygon","coordinates":[[[-85.817129,33.487572],[-85.817304,33.483957],[-85.814819,33.483951],[-85.814824,33.484036],[-85.814793,33.484221],[-85.814686,33.484526],[-85.814516,33.484757],[-85.814106,33.485209],[-85.813992,33.485374],[-85.813949,33.485548],[-85.813952,33.485806],[-85.813927,33.486054],[-85.813717,33.486857],[-85.813669,33.48716],[-85.813677,33.487562],[-85.817129,33.487572]]]}},{"type":"Feature","id":"01029:18-26-03-08-0-000-004.005","properties":{"id":"01029:18-26-03-08-0-000-004.005","parcelId":"18-26-03-08-0-000-004.005","countyFips":"01029","countyName":"Cleburne","state":"Alabama","marketIds":["Birmingham"],"situsAddress":null,"situsCity":null,"situsZip":null,"jurisdictionCode":null,"ownerName":null,"ownerName2":null,"propertyName":null,"zoningCode":null,"zoningDistrict":null,"jurisdictionPrefix":null,"dorCode":null,"acreage":5.8706,"centroid":[-85.832868,33.47089],"lastSale":{"date":null,"price":null,"qualified":null},"tax":{"marketValue":null,"assessedValue":null,"taxableValue":null,"taxes":null},"mailingAddress":{"line1":null,"line2":null,"city":null,"state":null,"zip":null},"incomeTract":null,"incomeBlockGroup":null,"nearestRoad":null,"flu":null,"opportunityZone":null,"oz2Eligibility":null,"source":"al-cleburne-parcels-01029","appraiserUrl":"https://cleburne.capturecama.com/mapparceldetail/18-26-03-08-0-000-004.005","gisViewerUrl":"https://cleburne.capturecama.com/parcelviewer/"},"geometry":{"type":"Polygon","coordinates":[[[-85.832355,33.471875],[-85.83242,33.471839],[-85.833161,33.471485],[-85.833402,33.47132],[-85.833464,33.469408],[-85.832407,33.469413],[-85.832355,33.471875]]]}},{"type":"Feature","id":"01029:18-26-03-06-0-000-001.000","properties":{"id":"01029:18-26-03-06-0-000-001.000","parcelId":"18-26-03-06-0-000-001.000","countyFips":"01029","countyName":"Cleburne","state":"Alabama","marketIds":["Birmingham"],"situsAddress":null,"situsCity":null,"situsZip":null,"jurisdictionCode":null,"ownerName":null,"ownerName2":null,"propertyName":null,"zoningCode":null,"zoningDistrict":null,"jurisdictionPrefix":null,"dorCode":null,"acreage":149.6737,"centroid":[-85.84575,33.495265],"lastSale":{"date":null,"price":null,"qualified":null},"tax":{"marketValue":null,"assessedValue":null,"taxableValue":null,"taxes":null},"mailingAddress":{"line1":null,"line2":null,"city":null,"state":null,"zip":null},"incomeTract":null,"incomeBlockGroup":null,"nearestRoad":null,"flu":null,"opportunityZone":null,"oz2Eligibility":null,"source":"al-cleburne-parcels-01029","appraiserUrl":"https://cleburne.capturecama.com/mapparceldetail/18-26-03-06-0-000-001.000","gisViewerUrl":"https://cleburne.capturecama.com/parcelviewer/"},"geometry":{"type":"Polygon","coordinates":[[[-85.847277,33.494385],[-85.846978,33.49439],[-85.836607,33.494487],[-85.836184,33.494581],[-85.835966,33.494607],[-85.835812,33.49459],[-85.835511,33.494497],[-85.833764,33.494513],[-85.833653,33.498076],[-85.851353,33.497857],[-85.851363,33.494637],[-85.851236,33.494677],[-85.851107,33.494763],[-85.850811,33.495187],[-85.850626,33.495368],[-85.850478,33.495437],[-85.850262,33.49549],[-85.84982,33.495718],[-85.849436,33.495799],[-85.849251,33.495783],[-85.849097,33.495706],[-85.848981,33.495605],[-85.848868,33.495442],[-85.848749,33.495324],[-85.848571,33.495208],[-85.847738,33.494771],[-85.847277,33.494385]]]}},{"type":"Feature","id":"01029:18-26-03-08-0-000-004.006","properties":{"id":"01029:18-26-03-08-0-000-004.006","parcelId":"18-26-03-08-0-000-004.006","countyFips":"01029","countyName":"Cleburne","state":"Alabama","marketIds":["Birmingham"],"situsAddress":null,"situsCity":null,"situsZip":null,"jurisdictionCode":null,"ownerName":null,"ownerName2":null,"propertyName":null,"zoningCode":null,"zoningDistrict":null,"jurisdictionPrefix":null,"dorCode":null,"acreage":7.6916,"centroid":[-85.831745,33.471763],"lastSale":{"date":null,"price":null,"qualified":null},"tax":{"marketValue":null,"assessedValue":null,"taxableValue":null,"taxes":null},"mailingAddress":{"line1":null,"line2":null,"city":null,"state":null,"zip":null},"incomeTract":null,"incomeBlockGroup":null,"nearestRoad":null,"flu":null,"opportunityZone":null,"oz2Eligibility":null,"source":"al-cleburne-parcels-01029","appraiserUrl":"https://cleburne.capturecama.com/mapparceldetail/18-26-03-08-0-000-004.006","gisViewerUrl":"https://cleburne.capturecama.com/parcelviewer/"},"geometry":{"type":"Polygon","coordinates":[[[-85.831308,33.472702],[-85.831315,33.472702],[-85.831473,33.472654],[-85.831625,33.472573],[-85.831749,33.472459],[-85.8321,33.472069],[-85.832355,33.471875],[-85.832407,33.469413],[-85.83137,33.469418],[-85.831308,33.472702]]]}},{"type":"Feature","id":"01029:18-26-03-08-0-000-004.002","properties":{"id":"01029:18-26-03-08-0-000-004.002","parcelId":"18-26-03-08-0-000-004.002","countyFips":"01029","countyName":"Cleburne","state":"Alabama","marketIds":["Birmingham"],"situsAddress":null,"situsCity":null,"situsZip":null,"jurisdictionCode":null,"ownerName":null,"ownerName2":null,"propertyName":null,"zoningCode":null,"zoningDistrict":null,"jurisdictionPrefix":null,"dorCode":null,"acreage":8.6139,"centroid":[-85.830829,33.471597],"lastSale":{"date":null,"price":null,"qualified":null},"tax":{"marketValue":null,"assessedValue":null,"taxableValue":null,"taxes":null},"mailingAddress":{"line1":null,"line2":null,"city":null,"state":null,"zip":null},"incomeTract":null,"incomeBlockGroup":null,"nearestRoad":null,"flu":null,"opportunityZone":null,"oz2Eligibility":null,"source":"al-cleburne-parcels-01029","appraiserUrl":"https://cleburne.capturecama.com/mapparceldetail/18-26-03-08-0-000-004.002","gisViewerUrl":"https://cleburne.capturecama.com/parcelviewer/"},"geometry":{"type":"Polygon","coordinates":[[[-85.83137,33.469418],[-85.830335,33.469423],[-85.830278,33.472649],[-85.830456,33.472685],[-85.831228,33.472705],[-85.831308,33.472702],[-85.83137,33.469418]]]}},{"type":"Feature","id":"01029:18-26-03-06-0-000-004.000","properties":{"id":"01029:18-26-03-06-0-000-004.000","parcelId":"18-26-03-06-0-000-004.000","countyFips":"01029","countyName":"Cleburne","state":"Alabama","marketIds":["Birmingham"],"situsAddress":null,"situsCity":null,"situsZip":null,"jurisdictionCode":null,"ownerName":null,"ownerName2":null,"propertyName":null,"zoningCode":null,"zoningDistrict":null,"jurisdictionPrefix":null,"dorCode":null,"acreage":18.0007,"centroid":[-85.842057,33.493796],"lastSale":{"date":null,"price":null,"qualified":null},"tax":{"marketValue":null,"assessedValue":null,"taxableValue":null,"taxes":null},"mailingAddress":{"line1":null,"line2":null,"city":null,"state":null,"zip":null},"incomeTract":null,"incomeBlockGroup":null,"nearestRoad":null,"flu":null,"opportunityZone":null,"oz2Eligibility":null,"source":"al-cleburne-parcels-01029","appraiserUrl":"https://cleburne.capturecama.com/mapparceldetail/18-26-03-06-0-000-004.000","gisViewerUrl":"https://cleburne.capturecama.com/parcelviewer/"},"geometry":{"type":"Polygon","coordinates":[[[-85.836607,33.494487],[-85.846978,33.49439],[-85.846997,33.493823],[-85.846595,33.49393],[-85.846401,33.49394],[-85.846193,33.493888],[-85.845872,33.493761],[-85.844979,33.493621],[-85.844883,33.493629],[-85.844303,33.493782],[-85.843266,33.493906],[-85.843075,33.493885],[-85.84235,33.493696],[-85.84207,33.493557],[-85.841888,33.493507],[-85.841231,33.493532],[-85.840856,33.493461],[-85.840416,33.493339],[-85.84022,33.493335],[-85.839624,33.493442],[-85.839022,33.493579],[-85.838761,33.493661],[-85.838467,33.493763],[-85.837731,33.494159],[-85.837481,33.494272],[-85.837227,33.494353],[-85.836607,33.494487]]]}},{"type":"Feature","id":"01029:18-26-03-06-0-000-003.000","properties":{"id":"01029:18-26-03-06-0-000-003.000","parcelId":"18-26-03-06-0-000-003.000","countyFips":"01029","countyName":"Cleburne","state":"Alabama","marketIds":["Birmingham"],"situsAddress":null,"situsCity":null,"situsZip":null,"jurisdictionCode":null,"ownerName":null,"ownerName2":null,"propertyName":null,"zoningCode":null,"zoningDistrict":null,"jurisdictionPrefix":null,"dorCode":null,"acreage":48.6691,"centroid":[-85.848901,33.488408],"lastSale":{"date":null,"price":null,"qualified":null},"tax":{"marketValue":null,"assessedValue":null,"taxableValue":null,"taxes":null},"mailingAddress":{"line1":null,"line2":null,"city":null,"state":null,"zip":null},"incomeTract":null,"incomeBlockGroup":null,"nearestRoad":null,"flu":null,"opportunityZone":null,"oz2Eligibility":null,"source":"al-cleburne-parcels-01029","appraiserUrl":"https://cleburne.capturecama.com/mapparceldetail/18-26-03-06-0-000-003.000","gisViewerUrl":"https://cleburne.capturecama.com/parcelviewer/"},"geometry":{"type":"Polygon","coordinates":[[[-85.846987,33.49091],[-85.846997,33.490909],[-85.851373,33.490897],[-85.851395,33.487409],[-85.849234,33.487393],[-85.849259,33.485652],[-85.847065,33.485688],[-85.846987,33.49091]]]}},{"type":"Feature","id":"01029:18-26-02-10-0-000-009.000","properties":{"id":"01029:18-26-02-10-0-000-009.000","parcelId":"18-26-02-10-0-000-009.000","countyFips":"01029","countyName":"Cleburne","state":"Alabama","marketIds":["Birmingham"],"situsAddress":null,"situsCity":null,"situsZip":null,"jurisdictionCode":null,"ownerName":null,"ownerName2":null,"propertyName":null,"zoningCode":null,"zoningDistrict":null,"jurisdictionPrefix":null,"dorCode":null,"acreage":17.316,"centroid":[-85.797128,33.482988],"lastSale":{"date":null,"price":null,"qualified":null},"tax":{"marketValue":null,"assessedValue":null,"taxableValue":null,"taxes":null},"mailingAddress":{"line1":null,"line2":null,"city":null,"state":null,"zip":null},"incomeTract":null,"incomeBlockGroup":null,"nearestRoad":null,"flu":null,"opportunityZone":null,"oz2Eligibility":null,"source":"al-cleburne-parcels-01029","appraiserUrl":"https://cleburne.capturecama.com/mapparceldetail/18-26-02-10-0-000-009.000","gisViewerUrl":"https://cleburne.capturecama.com/parcelviewer/"},"geometry":{"type":"Polygon","coordinates":[[[-85.796477,33.483904],[-85.796749,33.483903],[-85.800075,33.483892],[-85.800136,33.481986],[-85.797139,33.481959],[-85.796881,33.481943],[-85.796745,33.482271],[-85.796664,33.482418],[-85.796573,33.482744],[-85.796438,33.483067],[-85.796431,33.483274],[-85.796446,33.483326],[-85.796524,33.483422],[-85.79651,33.483727],[-85.796477,33.483904]]]}},{"type":"Feature","id":"01029:18-26-02-10-0-000-009.001","properties":{"id":"01029:18-26-02-10-0-000-009.001","parcelId":"18-26-02-10-0-000-009.001","countyFips":"01029","countyName":"Cleburne","state":"Alabama","marketIds":["Birmingham"],"situsAddress":null,"situsCity":null,"situsZip":null,"jurisdictionCode":null,"ownerName":null,"ownerName2":null,"propertyName":null,"zoningCode":null,"zoningDistrict":null,"jurisdictionPrefix":null,"dorCode":null,"acreage":12.1449,"centroid":[-85.798706,33.481136],"lastSale":{"date":null,"price":null,"qualified":null},"tax":{"marketValue":null,"assessedValue":null,"taxableValue":null,"taxes":null},"mailingAddress":{"line1":null,"line2":null,"city":null,"state":null,"zip":null},"incomeTract":null,"incomeBlockGroup":null,"nearestRoad":null,"flu":null,"opportunityZone":null,"oz2Eligibility":null,"source":"al-cleburne-parcels-01029","appraiserUrl":"https://cleburne.capturecama.com/mapparceldetail/18-26-02-10-0-000-009.001","gisViewerUrl":"https://cleburne.capturecama.com/parcelviewer/"},"geometry":{"type":"Polygon","coordinates":[[[-85.800143,33.481774],[-85.800239,33.479134],[-85.798481,33.480025],[-85.798543,33.480949],[-85.797643,33.4815],[-85.797322,33.481764],[-85.797139,33.481959],[-85.800136,33.481986],[-85.800143,33.481774]]]}},{"type":"Feature","id":"01029:18-26-03-06-0-000-002.000","properties":{"id":"01029:18-26-03-06-0-000-002.000","parcelId":"18-26-03-06-0-000-002.000","countyFips":"01029","countyName":"Cleburne","state":"Alabama","marketIds":["Birmingham"],"situsAddress":null,"situsCity":null,"situsZip":null,"jurisdictionCode":null,"ownerName":null,"ownerName2":null,"propertyName":null,"zoningCode":null,"zoningDistrict":null,"jurisdictionPrefix":null,"dorCode":null,"acreage":38.3126,"centroid":[-85.848467,33.493382],"lastSale":{"date":null,"price":null,"qualified":null},"tax":{"marketValue":null,"assessedValue":null,"taxableValue":null,"taxes":null},"mailingAddress":{"line1":null,"line2":null,"city":null,"state":null,"zip":null},"incomeTract":null,"incomeBlockGroup":null,"nearestRoad":null,"flu":null,"opportunityZone":null,"oz2Eligibility":null,"source":"al-cleburne-parcels-01029","appraiserUrl":"https://cleburne.capturecama.com/mapparceldetail/18-26-03-06-0-000-002.000","gisViewerUrl":"https://cleburne.capturecama.com/parcelviewer/"},"geometry":{"type":"Polygon","coordinates":[[[-85.851364,33.494379],[-85.851371,33.491145],[-85.851373,33.490897],[-85.846987,33.49091],[-85.847011,33.493713],[-85.847098,33.493718],[-85.847203,33.493791],[-85.847237,33.493895],[-85.847247,33.494146],[-85.847275,33.494208],[-85.847462,33.494387],[-85.848489,33.494376],[-85.849955,33.494402],[-85.851364,33.494379]]]}},{"type":"Feature","id":"01029:18-26-02-04-0-000-004.002","properties":{"id":"01029:18-26-02-04-0-000-004.002","parcelId":"18-26-02-04-0-000-004.002","countyFips":"01029","countyName":"Cleburne","state":"Alabama","marketIds":["Birmingham"],"situsAddress":null,"situsCity":null,"situsZip":null,"jurisdictionCode":null,"ownerName":null,"ownerName2":null,"propertyName":null,"zoningCode":null,"zoningDistrict":null,"jurisdictionPrefix":null,"dorCode":null,"acreage":6.4485,"centroid":[-85.815207,33.490763],"lastSale":{"date":null,"price":null,"qualified":null},"tax":{"marketValue":null,"assessedValue":null,"taxableValue":null,"taxes":null},"mailingAddress":{"line1":null,"line2":null,"city":null,"state":null,"zip":null},"incomeTract":null,"incomeBlockGroup":null,"nearestRoad":null,"flu":null,"opportunityZone":null,"oz2Eligibility":null,"source":"al-cleburne-parcels-01029","appraiserUrl":"https://cleburne.capturecama.com/mapparceldetail/18-26-02-04-0-000-004.002","gisViewerUrl":"https://cleburne.capturecama.com/parcelviewer/"},"geometry":{"type":"Polygon","coordinates":[[[-85.813337,33.490102],[-85.813304,33.49119],[-85.816945,33.491194],[-85.816972,33.490663],[-85.815476,33.490664],[-85.813337,33.490102]]]}},{"type":"Feature","id":"01029:18-26-02-04-0-000-003.000","properties":{"id":"01029:18-26-02-04-0-000-003.000","parcelId":"18-26-02-04-0-000-003.000","countyFips":"01029","countyName":"Cleburne","state":"Alabama","marketIds":["Birmingham"],"situsAddress":null,"situsCity":null,"situsZip":null,"jurisdictionCode":null,"ownerName":null,"ownerName2":null,"propertyName":null,"zoningCode":null,"zoningDistrict":null,"jurisdictionPrefix":null,"dorCode":null,"acreage":66.1401,"centroid":[-85.814958,33.494788],"lastSale":{"date":null,"price":null,"qualified":null},"tax":{"marketValue":null,"assessedValue":null,"taxableValue":null,"taxes":null},"mailingAddress":{"line1":null,"line2":null,"city":null,"state":null,"zip":null},"incomeTract":null,"incomeBlockGroup":null,"nearestRoad":null,"flu":null,"opportunityZone":null,"oz2Eligibility":null,"source":"al-cleburne-parcels-01029","appraiserUrl":"https://cleburne.capturecama.com/mapparceldetail/18-26-02-04-0-000-003.000","gisViewerUrl":"https://cleburne.capturecama.com/parcelviewer/"},"geometry":{"type":"Polygon","coordinates":[[[-85.813001,33.498385],[-85.816582,33.498383],[-85.816945,33.491194],[-85.813304,33.49119],[-85.813001,33.498385]]]}},{"type":"Feature","id":"01029:18-26-03-08-0-000-004.009","properties":{"id":"01029:18-26-03-08-0-000-004.009","parcelId":"18-26-03-08-0-000-004.009","countyFips":"01029","countyName":"Cleburne","state":"Alabama","marketIds":["Birmingham"],"situsAddress":null,"situsCity":null,"situsZip":null,"jurisdictionCode":null,"ownerName":null,"ownerName2":null,"propertyName":null,"zoningCode":null,"zoningDistrict":null,"jurisdictionPrefix":null,"dorCode":null,"acreage":9.5203,"centroid":[-85.83386,33.474836],"lastSale":{"date":null,"price":null,"qualified":null},"tax":{"marketValue":null,"assessedValue":null,"taxableValue":null,"taxes":null},"mailingAddress":{"line1":null,"line2":null,"city":null,"state":null,"zip":null},"incomeTract":null,"incomeBlockGroup":null,"nearestRoad":null,"flu":null,"opportunityZone":null,"oz2Eligibility":null,"source":"al-cleburne-parcels-01029","appraiserUrl":"https://cleburne.capturecama.com/mapparceldetail/18-26-03-08-0-000-004.009","gisViewerUrl":"https://cleburne.capturecama.com/parcelviewer/"},"geometry":{"type":"Polygon","coordinates":[[[-85.834304,33.476714],[-85.834415,33.472964],[-85.833379,33.472968],[-85.833342,33.476697],[-85.834304,33.476714]]]}},{"type":"Feature","id":"01029:18-27-01-12-0-000-003.000","properties":{"id":"01029:18-27-01-12-0-000-003.000","parcelId":"18-27-01-12-0-000-003.000","countyFips":"01029","countyName":"Cleburne","state":"Alabama","marketIds":["Birmingham"],"situsAddress":null,"situsCity":null,"situsZip":null,"jurisdictionCode":null,"ownerName":null,"ownerName2":null,"propertyName":null,"zoningCode":null,"zoningDistrict":null,"jurisdictionPrefix":null,"dorCode":null,"acreage":82.8843,"centroid":[-85.863723,33.476017],"lastSale":{"date":null,"price":null,"qualified":null},"tax":{"marketValue":null,"assessedValue":null,"taxableValue":null,"taxes":null},"mailingAddress":{"line1":null,"line2":null,"city":null,"state":null,"zip":null},"incomeTract":null,"incomeBlockGroup":null,"nearestRoad":null,"flu":null,"opportunityZone":null,"oz2Eligibility":null,"source":"al-cleburne-parcels-01029","appraiserUrl":"https://cleburne.capturecama.com/mapparceldetail/18-27-01-12-0-000-003.000","gisViewerUrl":"https://cleburne.capturecama.com/parcelviewer/"},"geometry":{"type":"Polygon","coordinates":[[[-85.864485,33.476651],[-85.864489,33.475886],[-85.864202,33.475664],[-85.864108,33.475543],[-85.863939,33.47524],[-85.863905,33.475093],[-85.863906,33.474952],[-85.863929,33.47487],[-85.864,33.474725],[-85.864223,33.474389],[-85.86431,33.474211],[-85.86433,33.474107],[-85.864284,33.473996],[-85.864197,33.473943],[-85.864035,33.473921],[-85.863793,33.47393],[-85.863191,33.474012],[-85.862942,33.473997],[-85.862852,33.473958],[-85.86268,33.4738],[-85.862492,33.473548],[-85.862313,33.473354],[-85.862198,33.473269],[-85.86202,33.473197],[-85.86193,33.473188],[-85.861754,33.473218],[-85.861631,33.473304],[-85.861588,33.473376],[-85.861571,33.473463],[-85.861567,33.473744],[-85.861474,33.473947],[-85.861393,33.474026],[-85.861209,33.474154],[-85.860916,33.474259],[-85.860663,33.474272],[-85.860245,33.474248],[-85.859684,33.474296],[-85.859518,33.474287],[-85.85921,33.474212],[-85.859057,33.474146],[-85.858658,33.473909],[-85.858504,33.473842],[-85.858338,33.473839],[-85.858113,33.473907],[-85.85803,33.473914],[-85.857935,33.473901],[-85.857849,33.47386],[-85.857773,33.47378],[-85.857725,33.473678],[-85.857706,33.473558],[-85.857733,33.473401],[-85.857852,33.473074],[-85.857928,33.472787],[-85.85805,33.472502],[-85.858417,33.47194],[-85.8587,33.471392],[-85.858754,33.471174],[-85.858686,33.470946],[-85.858454,33.470715],[-85.857939,33.470372],[-85.857633,33.470143],[-85.857356,33.469799],[-85.857283,33.469666],[-85.857166,33.469336],[-85.855885,33.469331],[-85.855831,33.476627],[-85.864485,33.476651]]]}},{"type":"Feature","id":"01029:18-26-03-08-0-000-004.010","properties":{"id":"01029:18-26-03-08-0-000-004.010","parcelId":"18-26-03-08-0-000-004.010","countyFips":"01029","countyName":"Cleburne","state":"Alabama","marketIds":["Birmingham"],"situsAddress":null,"situsCity":null,"situsZip":null,"jurisdictionCode":null,"ownerName":null,"ownerName2":null,"propertyName":null,"zoningCode":null,"zoningDistrict":null,"jurisdictionPrefix":null,"dorCode":null,"acreage":10.1458,"centroid":[-85.829186,33.475707],"lastSale":{"date":null,"price":null,"qualified":null},"tax":{"marketValue":null,"assessedValue":null,"taxableValue":null,"taxes":null},"mailingAddress":{"line1":null,"line2":null,"city":null,"state":null,"zip":null},"incomeTract":null,"incomeBlockGroup":null,"nearestRoad":null,"flu":null,"opportunityZone":null,"oz2Eligibility":null,"source":"al-cleburne-parcels-01029","appraiserUrl":"https://cleburne.capturecama.com/mapparceldetail/18-26-03-08-0-000-004.010","gisViewerUrl":"https://cleburne.capturecama.com/parcelviewer/"},"geometry":{"type":"Polygon","coordinates":[[[-85.830274,33.476642],[-85.830274,33.474812],[-85.828103,33.474773],[-85.828094,33.476603],[-85.830274,33.476642]]]}},{"type":"Feature","id":"01029:18-26-03-08-0-000-004.000","properties":{"id":"01029:18-26-03-08-0-000-004.000","parcelId":"18-26-03-08-0-000-004.000","countyFips":"01029","countyName":"Cleburne","state":"Alabama","marketIds":["Birmingham"],"situsAddress":null,"situsCity":null,"situsZip":null,"jurisdictionCode":null,"ownerName":null,"ownerName2":null,"propertyName":null,"zoningCode":null,"zoningDistrict":null,"jurisdictionPrefix":null,"dorCode":null,"acreage":20.2058,"centroid":[-85.828107,33.473858],"lastSale":{"date":null,"price":null,"qualified":null},"tax":{"marketValue":null,"assessedValue":null,"taxableValue":null,"taxes":null},"mailingAddress":{"line1":null,"line2":null,"city":null,"state":null,"zip":null},"incomeTract":null,"incomeBlockGroup":null,"nearestRoad":null,"flu":null,"opportunityZone":null,"oz2Eligibility":null,"source":"al-cleburne-parcels-01029","appraiserUrl":"https://cleburne.capturecama.com/mapparceldetail/18-26-03-08-0-000-004.000","gisViewerUrl":"https://cleburne.capturecama.com/parcelviewer/"},"geometry":{"type":"Polygon","coordinates":[[[-85.830274,33.474812],[-85.830274,33.472981],[-85.825949,33.472904],[-85.825931,33.474734],[-85.830274,33.474812]]]}},{"type":"Feature","id":"01029:18-26-03-08-0-000-004.011","properties":{"id":"01029:18-26-03-08-0-000-004.011","parcelId":"18-26-03-08-0-000-004.011","countyFips":"01029","countyName":"Cleburne","state":"Alabama","marketIds":["Birmingham"],"situsAddress":null,"situsCity":null,"situsZip":null,"jurisdictionCode":null,"ownerName":null,"ownerName2":null,"propertyName":null,"zoningCode":null,"zoningDistrict":null,"jurisdictionPrefix":null,"dorCode":null,"acreage":10.1442,"centroid":[-85.82701,33.475668],"lastSale":{"date":null,"price":null,"qualified":null},"tax":{"marketValue":null,"assessedValue":null,"taxableValue":null,"taxes":null},"mailingAddress":{"line1":null,"line2":null,"city":null,"state":null,"zip":null},"incomeTract":null,"incomeBlockGroup":null,"nearestRoad":null,"flu":null,"opportunityZone":null,"oz2Eligibility":null,"source":"al-cleburne-parcels-01029","appraiserUrl":"https://cleburne.capturecama.com/mapparceldetail/18-26-03-08-0-000-004.011","gisViewerUrl":"https://cleburne.capturecama.com/parcelviewer/"},"geometry":{"type":"Polygon","coordinates":[[[-85.828094,33.476603],[-85.828103,33.474773],[-85.825931,33.474734],[-85.825913,33.476564],[-85.828094,33.476603]]]}},{"type":"Feature","id":"01029:18-27-01-01-0-000-001.000","properties":{"id":"01029:18-27-01-01-0-000-001.000","parcelId":"18-27-01-01-0-000-001.000","countyFips":"01029","countyName":"Cleburne","state":"Alabama","marketIds":["Birmingham"],"situsAddress":null,"situsCity":null,"situsZip":null,"jurisdictionCode":null,"ownerName":null,"ownerName2":null,"propertyName":null,"zoningCode":null,"zoningDistrict":null,"jurisdictionPrefix":null,"dorCode":null,"acreage":40.4645,"centroid":[-85.853542,33.489301],"lastSale":{"date":null,"price":null,"qualified":null},"tax":{"marketValue":null,"assessedValue":null,"taxableValue":null,"taxes":null},"mailingAddress":{"line1":null,"line2":null,"city":null,"state":null,"zip":null},"incomeTract":null,"incomeBlockGroup":null,"nearestRoad":null,"flu":null,"opportunityZone":null,"oz2Eligibility":null,"source":"al-cleburne-parcels-01029","appraiserUrl":"https://cleburne.capturecama.com/mapparceldetail/18-27-01-01-0-000-001.000","gisViewerUrl":"https://cleburne.capturecama.com/parcelviewer/"},"geometry":{"type":"Polygon","coordinates":[[[-85.851371,33.491145],[-85.855707,33.491138],[-85.855696,33.487514],[-85.851395,33.487409],[-85.851371,33.491145]]]}},{"type":"Feature","id":"01029:18-27-01-12-0-000-002.000","properties":{"id":"01029:18-27-01-12-0-000-002.000","parcelId":"18-27-01-12-0-000-002.000","countyFips":"01029","countyName":"Cleburne","state":"Alabama","marketIds":["Birmingham"],"situsAddress":null,"situsCity":null,"situsZip":null,"jurisdictionCode":null,"ownerName":null,"ownerName2":null,"propertyName":null,"zoningCode":null,"zoningDistrict":null,"jurisdictionPrefix":null,"dorCode":null,"acreage":73.1688,"centroid":[-85.866538,33.475248],"lastSale":{"date":null,"price":null,"qualified":null},"tax":{"marketValue":null,"assessedValue":null,"taxableValue":null,"taxes":null},"mailingAddress":{"line1":null,"line2":null,"city":null,"state":null,"zip":null},"incomeTract":null,"incomeBlockGroup":null,"nearestRoad":null,"flu":null,"opportunityZone":null,"oz2Eligibility":null,"source":"al-cleburne-parcels-01029","appraiserUrl":"https://cleburne.capturecama.com/mapparceldetail/18-27-01-12-0-000-002.000","gisViewerUrl":"https://cleburne.capturecama.com/parcelviewer/"},"geometry":{"type":"Polygon","coordinates":[[[-85.864612,33.469361],[-85.864538,33.473922],[-85.864593,33.474098],[-85.864584,33.474193],[-85.864539,33.474329],[-85.864514,33.47562],[-85.864768,33.475769],[-85.865309,33.47597],[-85.865772,33.4761],[-85.865929,33.476123],[-85.866082,33.47611],[-85.86629,33.476004],[-85.866556,33.475923],[-85.866682,33.47591],[-85.867088,33.475951],[-85.867249,33.475989],[-85.867403,33.476068],[-85.867509,33.476151],[-85.867676,33.47633],[-85.867782,33.476404],[-85.867891,33.476392],[-85.868018,33.476334],[-85.868261,33.476195],[-85.868581,33.475976],[-85.86882,33.475863],[-85.868932,33.469376],[-85.864612,33.469361]]]}},{"type":"Feature","id":"01029:18-27-01-12-0-000-004.000","properties":{"id":"01029:18-27-01-12-0-000-004.000","parcelId":"18-27-01-12-0-000-004.000","countyFips":"01029","countyName":"Cleburne","state":"Alabama","marketIds":["Birmingham"],"situsAddress":null,"situsCity":null,"situsZip":null,"jurisdictionCode":null,"ownerName":null,"ownerName2":null,"propertyName":null,"zoningCode":null,"zoningDistrict":null,"jurisdictionPrefix":null,"dorCode":null,"acreage":40.4457,"centroid":[-85.853711,33.471161],"lastSale":{"date":null,"price":null,"qualified":null},"tax":{"marketValue":null,"assessedValue":null,"taxableValue":null,"taxes":null},"mailingAddress":{"line1":null,"line2":null,"city":null,"state":null,"zip":null},"incomeTract":null,"incomeBlockGroup":null,"nearestRoad":null,"flu":null,"opportunityZone":null,"oz2Eligibility":null,"source":"al-cleburne-parcels-01029","appraiserUrl":"https://cleburne.capturecama.com/mapparceldetail/18-27-01-12-0-000-004.000","gisViewerUrl":"https://cleburne.capturecama.com/parcelviewer/"},"geometry":{"type":"Polygon","coordinates":[[[-85.855858,33.473003],[-85.855885,33.469331],[-85.851572,33.469317],[-85.851527,33.472992],[-85.855858,33.473003]]]}},{"type":"Feature","id":"01029:18-26-02-10-0-000-007.000","properties":{"id":"01029:18-26-02-10-0-000-007.000","parcelId":"18-26-02-10-0-000-007.000","countyFips":"01029","countyName":"Cleburne","state":"Alabama","marketIds":["Birmingham"],"situsAddress":null,"situsCity":null,"situsZip":null,"jurisdictionCode":null,"ownerName":null,"ownerName2":null,"propertyName":null,"zoningCode":null,"zoningDistrict":null,"jurisdictionPrefix":null,"dorCode":null,"acreage":8.8024,"centroid":[-85.796819,33.480703],"lastSale":{"date":null,"price":null,"qualified":null},"tax":{"marketValue":null,"assessedValue":null,"taxableValue":null,"taxes":null},"mailingAddress":{"line1":null,"line2":null,"city":null,"state":null,"zip":null},"incomeTract":null,"incomeBlockGroup":null,"nearestRoad":null,"flu":null,"opportunityZone":null,"oz2Eligibility":null,"source":"al-cleburne-parcels-01029","appraiserUrl":"https://cleburne.capturecama.com/mapparceldetail/18-26-02-10-0-000-007.000","gisViewerUrl":"https://cleburne.capturecama.com/parcelviewer/"},"geometry":{"type":"Polygon","coordinates":[[[-85.796103,33.48167],[-85.796108,33.481688],[-85.796103,33.481809],[-85.796236,33.481863],[-85.796439,33.481902],[-85.796857,33.481394],[-85.797261,33.481053],[-85.798056,33.480567],[-85.798013,33.480033],[-85.798073,33.479764],[-85.797877,33.478999],[-85.797815,33.478908],[-85.797399,33.479198],[-85.797253,33.479544],[-85.796155,33.480431],[-85.79613,33.481097],[-85.795446,33.481077],[-85.795424,33.48165],[-85.796103,33.48167]]]}},{"type":"Feature","id":"01029:18-26-03-08-0-000-005.000","properties":{"id":"01029:18-26-03-08-0-000-005.000","parcelId":"18-26-03-08-0-000-005.000","countyFips":"01029","countyName":"Cleburne","state":"Alabama","marketIds":["Birmingham"],"situsAddress":null,"situsCity":null,"situsZip":null,"jurisdictionCode":null,"ownerName":null,"ownerName2":null,"propertyName":null,"zoningCode":null,"zoningDistrict":null,"jurisdictionPrefix":null,"dorCode":null,"acreage":133.599,"centroid":[-85.821718,33.475366],"lastSale":{"date":null,"price":null,"qualified":null},"tax":{"marketValue":null,"assessedValue":null,"taxableValue":null,"taxes":null},"mailingAddress":{"line1":null,"line2":null,"city":null,"state":null,"zip":null},"incomeTract":null,"incomeBlockGroup":null,"nearestRoad":null,"flu":null,"opportunityZone":null,"oz2Eligibility":null,"source":"al-cleburne-parcels-01029","appraiserUrl":"https://cleburne.capturecama.com/mapparceldetail/18-26-03-08-0-000-005.000","gisViewerUrl":"https://cleburne.capturecama.com/parcelviewer/"},"geometry":{"type":"Polygon","coordinates":[[[-85.817486,33.480214],[-85.821596,33.480192],[-85.82173,33.476521],[-85.825913,33.476564],[-85.825949,33.472383],[-85.825852,33.472322],[-85.825802,33.472332],[-85.825735,33.472429],[-85.82563,33.472701],[-85.825508,33.472836],[-85.825356,33.47291],[-85.825073,33.472954],[-85.824904,33.473011],[-85.824588,33.473206],[-85.824284,33.473343],[-85.823962,33.473427],[-85.823581,33.47347],[-85.823187,33.47349],[-85.822946,33.473451],[-85.822494,33.473198],[-85.822237,33.472866],[-85.82222,33.472814],[-85.822216,33.472477],[-85.822173,33.471837],[-85.822123,33.471597],[-85.822061,33.471443],[-85.821931,33.471224],[-85.821782,33.471053],[-85.821626,33.470927],[-85.821182,33.4707],[-85.82092,33.470628],[-85.820697,33.470622],[-85.820528,33.47066],[-85.819678,33.470984],[-85.819524,33.471017],[-85.819162,33.471024],[-85.818758,33.470944],[-85.81831,33.470779],[-85.817958,33.470518],[-85.817486,33.480214]]]}},{"type":"Feature","id":"01029:18-26-02-04-0-000-004.000","properties":{"id":"01029:18-26-02-04-0-000-004.000","parcelId":"18-26-02-04-0-000-004.000","countyFips":"01029","countyName":"Cleburne","state":"Alabama","marketIds":["Birmingham"],"situsAddress":null,"situsCity":null,"situsZip":null,"jurisdictionCode":null,"ownerName":null,"ownerName2":null,"propertyName":null,"zoningCode":null,"zoningDistrict":null,"jurisdictionPrefix":null,"dorCode":null,"acreage":12.8635,"centroid":[-85.816757,33.487797],"lastSale":{"date":null,"price":null,"qualified":null},"tax":{"marketValue":null,"assessedValue":null,"taxableValue":null,"taxes":null},"mailingAddress":{"line1":null,"line2":null,"city":null,"state":null,"zip":null},"incomeTract":null,"incomeBlockGroup":null,"nearestRoad":null,"flu":null,"opportunityZone":null,"oz2Eligibility":null,"source":"al-cleburne-parcels-01029","appraiserUrl":"https://cleburne.capturecama.com/mapparceldetail/18-26-02-04-0-000-004.000","gisViewerUrl":"https://cleburne.capturecama.com/parcelviewer/"},"geometry":{"type":"Polygon","coordinates":[[[-85.817016,33.489791],[-85.814622,33.489792],[-85.814044,33.489387],[-85.814459,33.489106],[-85.814878,33.48879],[-85.815052,33.488361],[-85.815297,33.487925],[-85.815465,33.488033],[-85.817105,33.488035],[-85.817129,33.487572],[-85.815599,33.487573],[-85.815535,33.487698],[-85.815371,33.487698],[-85.815436,33.487571],[-85.814613,33.487562],[-85.814595,33.488824],[-85.813396,33.488823],[-85.813337,33.490102],[-85.815476,33.490664],[-85.816972,33.490663],[-85.817016,33.489791]]]}},{"type":"Feature","id":"01029:18-26-02-04-0-000-001.000","properties":{"id":"01029:18-26-02-04-0-000-001.000","parcelId":"18-26-02-04-0-000-001.000","countyFips":"01029","countyName":"Cleburne","state":"Alabama","marketIds":["Birmingham"],"situsAddress":null,"situsCity":null,"situsZip":null,"jurisdictionCode":null,"ownerName":null,"ownerName2":null,"propertyName":null,"zoningCode":null,"zoningDistrict":null,"jurisdictionPrefix":null,"dorCode":null,"acreage":60.7162,"centroid":[-85.810792,33.487199],"lastSale":{"date":null,"price":null,"qualified":null},"tax":{"marketValue":null,"assessedValue":null,"taxableValue":null,"taxes":null},"mailingAddress":{"line1":null,"line2":null,"city":null,"state":null,"zip":null},"incomeTract":null,"incomeBlockGroup":null,"nearestRoad":null,"flu":null,"opportunityZone":null,"oz2Eligibility":null,"source":"al-cleburne-parcels-01029","appraiserUrl":"https://cleburne.capturecama.com/mapparceldetail/18-26-02-04-0-000-001.000","gisViewerUrl":"https://cleburne.capturecama.com/parcelviewer/"},"geometry":{"type":"Polygon","coordinates":[[[-85.80792,33.483924],[-85.80791,33.48394],[-85.807692,33.484273],[-85.80756,33.484548],[-85.807414,33.485016],[-85.807394,33.485218],[-85.807414,33.485449],[-85.807464,33.485637],[-85.807596,33.485924],[-85.807839,33.486343],[-85.808108,33.486599],[-85.808374,33.486755],[-85.808683,33.486852],[-85.809072,33.486921],[-85.80972,33.486997],[-85.81003,33.487076],[-85.810323,33.487209],[-85.810542,33.487342],[-85.810849,33.48759],[-85.810987,33.48778],[-85.811137,33.488043],[-85.811246,33.488323],[-85.811297,33.488562],[-85.811396,33.489465],[-85.811442,33.48974],[-85.811524,33.489878],[-85.811596,33.489957],[-85.811891,33.490192],[-85.811959,33.490213],[-85.812328,33.49011],[-85.812486,33.490021],[-85.812743,33.489828],[-85.812885,33.489662],[-85.81292,33.489597],[-85.812953,33.489475],[-85.813005,33.4891],[-85.813267,33.488314],[-85.813405,33.487668],[-85.813407,33.487154],[-85.813443,33.486915],[-85.813566,33.484107],[-85.813377,33.484129],[-85.813252,33.484105],[-85.813145,33.484042],[-85.813064,33.483944],[-85.80792,33.483924]]]}},{"type":"Feature","id":"01029:18-26-03-08-0-000-004.003","properties":{"id":"01029:18-26-03-08-0-000-004.003","parcelId":"18-26-03-08-0-000-004.003","countyFips":"01029","countyName":"Cleburne","state":"Alabama","marketIds":["Birmingham"],"situsAddress":null,"situsCity":null,"situsZip":null,"jurisdictionCode":null,"ownerName":null,"ownerName2":null,"propertyName":null,"zoningCode":null,"zoningDistrict":null,"jurisdictionPrefix":null,"dorCode":null,"acreage":28.1863,"centroid":[-85.828144,33.471036],"lastSale":{"date":null,"price":null,"qualified":null},"tax":{"marketValue":null,"assessedValue":null,"taxableValue":null,"taxes":null},"mailingAddress":{"line1":null,"line2":null,"city":null,"state":null,"zip":null},"incomeTract":null,"incomeBlockGroup":null,"nearestRoad":null,"flu":null,"opportunityZone":null,"oz2Eligibility":null,"source":"al-cleburne-parcels-01029","appraiserUrl":"https://cleburne.capturecama.com/mapparceldetail/18-26-03-08-0-000-004.003","gisViewerUrl":"https://cleburne.capturecama.com/parcelviewer/"},"geometry":{"type":"Polygon","coordinates":[[[-85.830335,33.469423],[-85.826179,33.469444],[-85.82596,33.469445],[-85.825952,33.472117],[-85.826261,33.47227],[-85.826416,33.472297],[-85.82692,33.472345],[-85.827258,33.472341],[-85.827375,33.472312],[-85.827516,33.472227],[-85.827808,33.471788],[-85.827907,33.471677],[-85.828031,33.471584],[-85.82822,33.4715],[-85.828478,33.471466],[-85.828657,33.471471],[-85.829224,33.471604],[-85.829578,33.471744],[-85.829703,33.471852],[-85.829794,33.471977],[-85.829952,33.472461],[-85.830026,33.472539],[-85.830278,33.472649],[-85.830335,33.469423]]]}},{"type":"Feature","id":"01029:18-26-02-10-0-000-010.000","properties":{"id":"01029:18-26-02-10-0-000-010.000","parcelId":"18-26-02-10-0-000-010.000","countyFips":"01029","countyName":"Cleburne","state":"Alabama","marketIds":["Birmingham"],"situsAddress":null,"situsCity":null,"situsZip":null,"jurisdictionCode":null,"ownerName":null,"ownerName2":null,"propertyName":null,"zoningCode":null,"zoningDistrict":null,"jurisdictionPrefix":null,"dorCode":null,"acreage":9.2636,"centroid":[-85.799294,33.478063],"lastSale":{"date":null,"price":null,"qualified":null},"tax":{"marketValue":null,"assessedValue":null,"taxableValue":null,"taxes":null},"mailingAddress":{"line1":null,"line2":null,"city":null,"state":null,"zip":null},"incomeTract":null,"incomeBlockGroup":null,"nearestRoad":null,"flu":null,"opportunityZone":null,"oz2Eligibility":null,"source":"al-cleburne-parcels-01029","appraiserUrl":"https://cleburne.capturecama.com/mapparceldetail/18-26-02-10-0-000-010.000","gisViewerUrl":"https://cleburne.capturecama.com/parcelviewer/"},"geometry":{"type":"Polygon","coordinates":[[[-85.800378,33.476277],[-85.800366,33.476292],[-85.800048,33.476685],[-85.800007,33.47678],[-85.79995,33.477124],[-85.799909,33.477231],[-85.799226,33.477985],[-85.798927,33.478175],[-85.798442,33.478403],[-85.798121,33.478527],[-85.79833,33.478836],[-85.798526,33.479601],[-85.798466,33.47987],[-85.798481,33.480025],[-85.800239,33.479134],[-85.800378,33.476277]]]}},{"type":"Feature","id":"01029:18-26-02-10-0-000-005.001","properties":{"id":"01029:18-26-02-10-0-000-005.001","parcelId":"18-26-02-10-0-000-005.001","countyFips":"01029","countyName":"Cleburne","state":"Alabama","marketIds":["Birmingham"],"situsAddress":null,"situsCity":null,"situsZip":null,"jurisdictionCode":null,"ownerName":null,"ownerName2":null,"propertyName":null,"zoningCode":null,"zoningDistrict":null,"jurisdictionPrefix":null,"dorCode":null,"acreage":13.5119,"centroid":[-85.79491,33.482084],"lastSale":{"date":null,"price":null,"qualified":null},"tax":{"marketValue":null,"assessedValue":null,"taxableValue":null,"taxes":null},"mailingAddress":{"line1":null,"line2":null,"city":null,"state":null,"zip":null},"incomeTract":null,"incomeBlockGroup":null,"nearestRoad":null,"flu":null,"opportunityZone":null,"oz2Eligibility":null,"source":"al-cleburne-parcels-01029","appraiserUrl":"https://cleburne.capturecama.com/mapparceldetail/18-26-02-10-0-000-005.001","gisViewerUrl":"https://cleburne.capturecama.com/parcelviewer/"},"geometry":{"type":"Polygon","coordinates":[[[-85.794447,33.480265],[-85.79437,33.480311],[-85.794042,33.480493],[-85.793686,33.480611],[-85.793774,33.48081],[-85.793907,33.481017],[-85.794255,33.481378],[-85.794388,33.481605],[-85.794494,33.482011],[-85.794561,33.482102],[-85.794802,33.482237],[-85.794904,33.482365],[-85.794955,33.482517],[-85.794971,33.48261],[-85.79496,33.482662],[-85.794867,33.482792],[-85.794552,33.482956],[-85.794552,33.482992],[-85.794895,33.483219],[-85.795065,33.483362],[-85.795121,33.483519],[-85.79506,33.483708],[-85.795065,33.483792],[-85.795122,33.483908],[-85.796025,33.483905],[-85.796108,33.481688],[-85.796103,33.48167],[-85.795424,33.48165],[-85.795446,33.481077],[-85.79613,33.481097],[-85.796161,33.480267],[-85.794447,33.480265]]]}},{"type":"Feature","id":"01029:18-26-03-08-0-000-004.001","properties":{"id":"01029:18-26-03-08-0-000-004.001","parcelId":"18-26-03-08-0-000-004.001","countyFips":"01029","countyName":"Cleburne","state":"Alabama","marketIds":["Birmingham"],"situsAddress":null,"situsCity":null,"situsZip":null,"jurisdictionCode":null,"ownerName":null,"ownerName2":null,"propertyName":null,"zoningCode":null,"zoningDistrict":null,"jurisdictionPrefix":null,"dorCode":null,"acreage":9.6724,"centroid":[-85.83285,33.474829],"lastSale":{"date":null,"price":null,"qualified":null},"tax":{"marketValue":null,"assessedValue":null,"taxableValue":null,"taxes":null},"mailingAddress":{"line1":null,"line2":null,"city":null,"state":null,"zip":null},"incomeTract":null,"incomeBlockGroup":null,"nearestRoad":null,"flu":null,"opportunityZone":null,"oz2Eligibility":null,"source":"al-cleburne-parcels-01029","appraiserUrl":"https://cleburne.capturecama.com/mapparceldetail/18-26-03-08-0-000-004.001","gisViewerUrl":"https://cleburne.capturecama.com/parcelviewer/"},"geometry":{"type":"Polygon","coordinates":[[[-85.833342,33.476697],[-85.833379,33.472968],[-85.832341,33.472972],[-85.832337,33.476679],[-85.833342,33.476697]]]}},{"type":"Feature","id":"01029:18-26-03-08-0-000-004.007","properties":{"id":"01029:18-26-03-08-0-000-004.007","parcelId":"18-26-03-08-0-000-004.007","countyFips":"01029","countyName":"Cleburne","state":"Alabama","marketIds":["Birmingham"],"situsAddress":null,"situsCity":null,"situsZip":null,"jurisdictionCode":null,"ownerName":null,"ownerName2":null,"propertyName":null,"zoningCode":null,"zoningDistrict":null,"jurisdictionPrefix":null,"dorCode":null,"acreage":9.6104,"centroid":[-85.831829,33.474822],"lastSale":{"date":null,"price":null,"qualified":null},"tax":{"marketValue":null,"assessedValue":null,"taxableValue":null,"taxes":null},"mailingAddress":{"line1":null,"line2":null,"city":null,"state":null,"zip":null},"incomeTract":null,"incomeBlockGroup":null,"nearestRoad":null,"flu":null,"opportunityZone":null,"oz2Eligibility":null,"source":"al-cleburne-parcels-01029","appraiserUrl":"https://cleburne.capturecama.com/mapparceldetail/18-26-03-08-0-000-004.007","gisViewerUrl":"https://cleburne.capturecama.com/parcelviewer/"},"geometry":{"type":"Polygon","coordinates":[[[-85.832337,33.476679],[-85.832341,33.472972],[-85.831305,33.472977],[-85.831332,33.476661],[-85.832337,33.476679]]]}},{"type":"Feature","id":"01029:18-26-03-08-0-000-004.008","properties":{"id":"01029:18-26-03-08-0-000-004.008","parcelId":"18-26-03-08-0-000-004.008","countyFips":"01029","countyName":"Cleburne","state":"Alabama","marketIds":["Birmingham"],"situsAddress":null,"situsCity":null,"situsZip":null,"jurisdictionCode":null,"ownerName":null,"ownerName2":null,"propertyName":null,"zoningCode":null,"zoningDistrict":null,"jurisdictionPrefix":null,"dorCode":null,"acreage":9.7655,"centroid":[-85.830796,33.474815],"lastSale":{"date":null,"price":null,"qualified":null},"tax":{"marketValue":null,"assessedValue":null,"taxableValue":null,"taxes":null},"mailingAddress":{"line1":null,"line2":null,"city":null,"state":null,"zip":null},"incomeTract":null,"incomeBlockGroup":null,"nearestRoad":null,"flu":null,"opportunityZone":null,"oz2Eligibility":null,"source":"al-cleburne-parcels-01029","appraiserUrl":"https://cleburne.capturecama.com/mapparceldetail/18-26-03-08-0-000-004.008","gisViewerUrl":"https://cleburne.capturecama.com/parcelviewer/"},"geometry":{"type":"Polygon","coordinates":[[[-85.831332,33.476661],[-85.831305,33.472977],[-85.830274,33.472981],[-85.830274,33.476642],[-85.831332,33.476661]]]}}]}