{"type":"FeatureCollection","name":"12037--7_12","features":[{"type":"Feature","id":"12037:3305S05W000000200000","properties":{"id":"12037:3305S05W000000200000","parcelId":"3305S05W000000200000","countyFips":"12037","countyName":"Franklin","state":"Florida","marketIds":["Big Bend"],"situsAddress":"-","situsCity":null,"situsZip":"0","jurisdictionCode":null,"ownerName":"BRD OF TRUSTESS OF THE I.I.","ownerName2":null,"propertyName":null,"zoningCode":null,"zoningDistrict":null,"jurisdictionPrefix":null,"dorCode":"087","acreage":66.1552,"centroid":[-84.747015,30.003222],"lastSale":{"date":null,"price":null,"qualified":null},"tax":{"marketValue":44710.0,"assessedValue":44710.0,"taxableValue":null,"taxes":null},"mailingAddress":{"line1":"TRUST FUND OF THE ST OF FL","line2":"C/0 FL DEP. OF ENV. PROTECTION","city":"TALLAHASSEE","state":"FL","zip":"32399"},"incomeTract":null,"incomeBlockGroup":null,"nearestRoad":null,"flu":null,"opportunityZone":null,"oz2Eligibility":null,"source":"fl-franklin-parcels-2023-12037","gisViewerUrl":"https://gis.arpc.org/arcgis/apps/webappviewer/index.html?id=959fb7cf8450449987d52f296b6dde0e","appraiserUrl":"https://franklin-search.gsacorp.io/parcel/05W05S33000000200000"},"geometry":{"type":"Polygon","coordinates":[[[-84.734333,30.00417],[-84.751781,30.004147],[-84.751787,30.003692],[-84.751473,30.003138],[-84.751052,30.002631],[-84.751029,30.002573],[-84.75032,30.002541],[-84.734348,30.002886],[-84.734333,30.00417]]]}},{"type":"Feature","id":"12037:3305S03W000000200000","properties":{"id":"12037:3305S03W000000200000","parcelId":"3305S03W000000200000","countyFips":"12037","countyName":"Franklin","state":"Florida","marketIds":["Big Bend"],"situsAddress":"5571 JEFF SANDERS ROAD","situsCity":null,"situsZip":"32323","jurisdictionCode":null,"ownerName":"BRYAN ERNEST C & ANITA A","ownerName2":null,"propertyName":null,"zoningCode":null,"zoningDistrict":null,"jurisdictionPrefix":null,"dorCode":"001","acreage":5.1597,"centroid":[-84.535581,30.003653],"lastSale":{"date":null,"price":null,"qualified":null},"tax":{"marketValue":72851.0,"assessedValue":72851.0,"taxableValue":72851.0,"taxes":null},"mailingAddress":{"line1":"2481 GROUPER AVE","line2":null,"city":"PORT ST.JOE","state":"FL","zip":"32456"},"incomeTract":null,"incomeBlockGroup":null,"nearestRoad":null,"flu":null,"opportunityZone":null,"oz2Eligibility":null,"source":"fl-franklin-parcels-2023-12037","gisViewerUrl":"https://gis.arpc.org/arcgis/apps/webappviewer/index.html?id=959fb7cf8450449987d52f296b6dde0e","appraiserUrl":"https://franklin-search.gsacorp.io/parcel/03W05S33000000200000"},"geometry":{"type":"Polygon","coordinates":[[[-84.535255,30.004409],[-84.535515,30.004672],[-84.537128,30.00266],[-84.535416,30.00266],[-84.535345,30.00306],[-84.535395,30.003296],[-84.535283,30.004184],[-84.535314,30.004285],[-84.535255,30.004409]]]}},{"type":"Feature","id":"12037:3305S03W000000300000","properties":{"id":"12037:3305S03W000000300000","parcelId":"3305S03W000000300000","countyFips":"12037","countyName":"Franklin","state":"Florida","marketIds":["Big Bend"],"situsAddress":"HWY WEST","situsCity":null,"situsZip":"32320","jurisdictionCode":null,"ownerName":"THOMPSON HATTIE ANNE","ownerName2":null,"propertyName":null,"zoningCode":null,"zoningDistrict":null,"jurisdictionPrefix":null,"dorCode":"056","acreage":38.5711,"centroid":[-84.53357,30.00451],"lastSale":{"date":null,"price":null,"qualified":null},"tax":{"marketValue":99525.0,"assessedValue":2745.0,"taxableValue":2745.0,"taxes":null},"mailingAddress":{"line1":"P.O. BOX 957","line2":null,"city":"CARRABELLE","state":"FL","zip":"32322"},"incomeTract":null,"incomeBlockGroup":null,"nearestRoad":null,"flu":null,"opportunityZone":null,"oz2Eligibility":null,"source":"fl-franklin-parcels-2023-12037","gisViewerUrl":"https://gis.arpc.org/arcgis/apps/webappviewer/index.html?id=959fb7cf8450449987d52f296b6dde0e","appraiserUrl":"https://franklin-search.gsacorp.io/parcel/03W05S33000000300000"},"geometry":{"type":"Polygon","coordinates":[[[-84.533079,30.005607],[-84.53515,30.004921],[-84.535375,30.004847],[-84.535515,30.004672],[-84.535255,30.004409],[-84.535314,30.004285],[-84.535283,30.004184],[-84.535395,30.003296],[-84.535345,30.00306],[-84.535416,30.00266],[-84.531142,30.002661],[-84.52992,30.004125],[-84.530237,30.004938],[-84.531531,30.00572],[-84.530746,30.006653],[-84.532418,30.006127],[-84.533079,30.005607]]]}},{"type":"Feature","id":"12037:2705S03W000000100000","properties":{"id":"12037:2705S03W000000100000","parcelId":"2705S03W000000100000","countyFips":"12037","countyName":"Franklin","state":"Florida","marketIds":["Big Bend"],"situsAddress":"-","situsCity":null,"situsZip":"32320","jurisdictionCode":null,"ownerName":"TIITF/AG-FORESTRY","ownerName2":null,"propertyName":null,"zoningCode":null,"zoningDistrict":null,"jurisdictionPrefix":null,"dorCode":"087","acreage":44.8389,"centroid":[-84.528537,30.005924],"lastSale":{"date":null,"price":null,"qualified":null},"tax":{"marketValue":1988.0,"assessedValue":1988.0,"taxableValue":null,"taxes":null},"mailingAddress":{"line1":"TATES HELL ST FOREST","line2":"3900 COMMONWEALTH BLVD","city":"TALLAHASSEE","state":"FL","zip":"32399"},"incomeTract":null,"incomeBlockGroup":null,"nearestRoad":null,"flu":null,"opportunityZone":null,"oz2Eligibility":null,"source":"fl-franklin-parcels-2023-12037","gisViewerUrl":"https://gis.arpc.org/arcgis/apps/webappviewer/index.html?id=959fb7cf8450449987d52f296b6dde0e","appraiserUrl":"https://franklin-search.gsacorp.io/parcel/03W05S27000000100000"},"geometry":{"type":"Polygon","coordinates":[[[-84.530483,30.003455],[-84.524173,30.00342],[-84.524889,30.004421],[-84.527129,30.006481],[-84.527349,30.006637],[-84.527586,30.006773],[-84.527971,30.006933],[-84.528241,30.007009],[-84.528519,30.007059],[-84.528944,30.007086],[-84.529228,30.007071],[-84.529646,30.007],[-84.530746,30.006653],[-84.531531,30.00572],[-84.530237,30.004938],[-84.52992,30.004125],[-84.530483,30.003455]]]}},{"type":"Feature","id":"12037:2805S03W000000100000","properties":{"id":"12037:2805S03W000000100000","parcelId":"2805S03W000000100000","countyFips":"12037","countyName":"Franklin","state":"Florida","marketIds":["Big Bend"],"situsAddress":"-","situsCity":null,"situsZip":"32320","jurisdictionCode":null,"ownerName":"TIITF/AG-FORESTRY","ownerName2":null,"propertyName":null,"zoningCode":null,"zoningDistrict":null,"jurisdictionPrefix":null,"dorCode":"087","acreage":78.8557,"centroid":[-84.545936,30.004197],"lastSale":{"date":null,"price":null,"qualified":null},"tax":{"marketValue":3642.0,"assessedValue":3642.0,"taxableValue":null,"taxes":null},"mailingAddress":{"line1":"TATES HELL ST FOREST","line2":"3900 COMMONWEALTH BLVD","city":"TALLAHASSEE","state":"FL","zip":"32399"},"incomeTract":null,"incomeBlockGroup":null,"nearestRoad":null,"flu":null,"opportunityZone":null,"oz2Eligibility":null,"source":"fl-franklin-parcels-2023-12037","gisViewerUrl":"https://gis.arpc.org/arcgis/apps/webappviewer/index.html?id=959fb7cf8450449987d52f296b6dde0e","appraiserUrl":"https://franklin-search.gsacorp.io/parcel/03W05S28000000100000"},"geometry":{"type":"Polygon","coordinates":[[[-84.551058,30.009614],[-84.550987,30.009896],[-84.550773,30.009839],[-84.550178,30.008718],[-84.550049,30.008524],[-84.54947,30.008556],[-84.549156,30.008394],[-84.548899,30.008422],[-84.548475,30.008912],[-84.547998,30.009363],[-84.547654,30.009641],[-84.5471,30.01002],[-84.546708,30.010246],[-84.546091,30.010542],[-84.545663,30.01071],[-84.545,30.010917],[-84.55181,30.010972],[-84.551826,30.003498],[-84.54533,30.003491],[-84.54453,30.003209],[-84.544316,30.002856],[-84.544018,30.002856],[-84.543826,30.002708],[-84.543698,30.002894],[-84.544835,30.003866],[-84.545269,30.004195],[-84.545743,30.004479],[-84.54625,30.004714],[-84.546604,30.004842],[-84.547154,30.00499],[-84.54757,30.005151],[-84.547829,30.005289],[-84.548182,30.00554],[-84.548484,30.005836],[-84.548728,30.006171],[-84.548855,30.006411],[-84.548989,30.00679],[-84.549191,30.007205],[-84.549638,30.007287],[-84.550978,30.006082],[-84.551208,30.006337],[-84.550893,30.006532],[-84.550623,30.006771],[-84.550404,30.007048],[-84.550249,30.00731],[-84.550147,30.007422],[-84.550023,30.007516],[-84.549807,30.007615],[-84.549648,30.007651],[-84.549403,30.007655],[-84.549243,30.007625],[-84.549192,30.007999],[-84.549441,30.008225],[-84.550093,30.008275],[-84.550503,30.008486],[-84.551058,30.009614]]]}}]}