{"type":"FeatureCollection","name":"12037--9_11","features":[{"type":"Feature","id":"12037:1406S08W000000300000","properties":{"id":"12037:1406S08W000000300000","parcelId":"1406S08W000000300000","countyFips":"12037","countyName":"Franklin","state":"Florida","marketIds":["Big Bend"],"situsAddress":"625 BRICKYARD RD","situsCity":"EASTPOINT","situsZip":"32328","jurisdictionCode":null,"ownerName":"SHULER LIMITED PARTNERSHIP","ownerName2":null,"propertyName":null,"zoningCode":null,"zoningDistrict":null,"jurisdictionPrefix":null,"dorCode":"056","acreage":30.1202,"centroid":[-85.015693,29.949854],"lastSale":{"date":null,"price":null,"qualified":null},"tax":{"marketValue":63750.0,"assessedValue":1498.0,"taxableValue":1498.0,"taxes":null},"mailingAddress":{"line1":"34 4TH STREET","line2":null,"city":"APALACHICOLA","state":"FL","zip":"32320"},"incomeTract":null,"incomeBlockGroup":null,"nearestRoad":null,"flu":null,"opportunityZone":null,"oz2Eligibility":null,"source":"fl-franklin-parcels-2023-12037","gisViewerUrl":"https://gis.arpc.org/arcgis/apps/webappviewer/index.html?id=959fb7cf8450449987d52f296b6dde0e","appraiserUrl":"https://franklin-search.gsacorp.io/parcel/08W06S14000000300000"},"geometry":{"type":"Polygon","coordinates":[[[-85.014654,29.948137],[-85.013145,29.948133],[-85.01316,29.951755],[-85.017887,29.951747],[-85.017557,29.951214],[-85.017166,29.950714],[-85.016873,29.950401],[-85.016556,29.950107],[-85.015908,29.949607],[-85.015472,29.949206],[-85.015086,29.948769],[-85.014857,29.948459],[-85.014654,29.948137]]]}},{"type":"Feature","id":"12037:1006S08W000000100000","properties":{"id":"12037:1006S08W000000100000","parcelId":"1006S08W000000100000","countyFips":"12037","countyName":"Franklin","state":"Florida","marketIds":["Big Bend"],"situsAddress":null,"situsCity":"EASTPOINT","situsZip":"32328","jurisdictionCode":null,"ownerName":"FRYER R D HEIRS OF","ownerName2":null,"propertyName":null,"zoningCode":null,"zoningDistrict":null,"jurisdictionPrefix":null,"dorCode":"056","acreage":18.6435,"centroid":[-85.019874,29.959545],"lastSale":{"date":null,"price":null,"qualified":null},"tax":{"marketValue":25000.0,"assessedValue":400.0,"taxableValue":400.0,"taxes":null},"mailingAddress":{"line1":"C/O DREW BRANCH","line2":"3907 CLIFTON AVE","city":"PASCAGOULA","state":"MS","zip":"39581"},"incomeTract":null,"incomeBlockGroup":null,"nearestRoad":null,"flu":null,"opportunityZone":null,"oz2Eligibility":null,"source":"fl-franklin-parcels-2023-12037","gisViewerUrl":"https://gis.arpc.org/arcgis/apps/webappviewer/index.html?id=959fb7cf8450449987d52f296b6dde0e","appraiserUrl":"https://franklin-search.gsacorp.io/parcel/08W06S10000000100000"},"geometry":{"type":"Polygon","coordinates":[[[-85.019313,29.955209],[-85.019349,29.963131],[-85.020679,29.962647],[-85.020155,29.957194],[-85.019313,29.955209]]]}},{"type":"Feature","id":"12037:1006S08W000000200000","properties":{"id":"12037:1006S08W000000200000","parcelId":"1006S08W000000200000","countyFips":"12037","countyName":"Franklin","state":"Florida","marketIds":["Big Bend"],"situsAddress":null,"situsCity":"EASTPOINT","situsZip":"32328","jurisdictionCode":null,"ownerName":"US GOVERNMENT","ownerName2":null,"propertyName":null,"zoningCode":null,"zoningDistrict":null,"jurisdictionPrefix":null,"dorCode":"088","acreage":131.1632,"centroid":[-85.022711,29.972806],"lastSale":{"date":null,"price":null,"qualified":null},"tax":{"marketValue":112140.0,"assessedValue":112140.0,"taxableValue":null,"taxes":null},"mailingAddress":{"line1":null,"line2":null,"city":null,"state":"FL","zip":"0"},"incomeTract":null,"incomeBlockGroup":null,"nearestRoad":null,"flu":null,"opportunityZone":null,"oz2Eligibility":null,"source":"fl-franklin-parcels-2023-12037","gisViewerUrl":"https://gis.arpc.org/arcgis/apps/webappviewer/index.html?id=959fb7cf8450449987d52f296b6dde0e","appraiserUrl":"https://franklin-search.gsacorp.io/parcel/08W06S10000000200000"},"geometry":{"type":"Polygon","coordinates":[[[-85.020679,29.962647],[-85.019349,29.963131],[-85.019424,29.977409],[-85.020432,29.977413],[-85.020804,29.977266],[-85.021035,29.977139],[-85.021249,29.976991],[-85.021532,29.976734],[-85.021764,29.976441],[-85.023009,29.974411],[-85.023051,29.974034],[-85.023041,29.973691],[-85.023056,29.973508],[-85.0231,29.973328],[-85.023175,29.973157],[-85.023339,29.972922],[-85.023479,29.972785],[-85.023641,29.972667],[-85.02383,29.972587],[-85.024004,29.972484],[-85.024159,29.972359],[-85.02429,29.972216],[-85.024396,29.972057],[-85.024475,29.971887],[-85.024523,29.971709],[-85.024541,29.971526],[-85.023717,29.968922],[-85.02282,29.967156],[-85.020679,29.962647]]]}},{"type":"Feature","id":"12037:2108S08W000000600000","properties":{"id":"12037:2108S08W000000600000","parcelId":"2108S08W000000600000","countyFips":"12037","countyName":"Franklin","state":"Florida","marketIds":["Big Bend"],"situsAddress":null,"situsCity":null,"situsZip":"32320","jurisdictionCode":null,"ownerName":"TIITF/GFWFC","ownerName2":null,"propertyName":null,"zoningCode":null,"zoningDistrict":null,"jurisdictionPrefix":null,"dorCode":"087","acreage":38.6687,"centroid":[-85.041084,29.770985],"lastSale":{"date":null,"price":null,"qualified":null},"tax":{"marketValue":88000.0,"assessedValue":88000.0,"taxableValue":null,"taxes":null},"mailingAddress":{"line1":"LOWER APALACHICOLA PROJECT","line2":"C/O DNR DOUGLAS BLDG","city":"TALLAHASSEE","state":"FL","zip":"32399"},"incomeTract":null,"incomeBlockGroup":null,"nearestRoad":null,"flu":null,"opportunityZone":null,"oz2Eligibility":null,"source":"fl-franklin-parcels-2023-12037","gisViewerUrl":"https://gis.arpc.org/arcgis/apps/webappviewer/index.html?id=959fb7cf8450449987d52f296b6dde0e","appraiserUrl":"https://franklin-search.gsacorp.io/parcel/08W08S21000000600000"},"geometry":{"type":"Polygon","coordinates":[[[-85.037854,29.772487],[-85.043284,29.772449],[-85.04297,29.772047],[-85.042731,29.771798],[-85.042469,29.771567],[-85.042039,29.771257],[-85.041569,29.770995],[-85.039282,29.768427],[-85.037558,29.767839],[-85.037854,29.772487]]]}},{"type":"Feature","id":"12037:2208S08W000000200000","properties":{"id":"12037:2208S08W000000200000","parcelId":"2208S08W000000200000","countyFips":"12037","countyName":"Franklin","state":"Florida","marketIds":["Big Bend"],"situsAddress":null,"situsCity":null,"situsZip":"32320","jurisdictionCode":null,"ownerName":"TIITF/GFWFC","ownerName2":null,"propertyName":null,"zoningCode":null,"zoningDistrict":null,"jurisdictionPrefix":null,"dorCode":"087","acreage":84.0718,"centroid":[-85.033975,29.768024],"lastSale":{"date":null,"price":null,"qualified":null},"tax":{"marketValue":132000.0,"assessedValue":132000.0,"taxableValue":null,"taxes":null},"mailingAddress":{"line1":"LOWER APALACHICOLA PROJECT","line2":"DNR DOUGLAS BLDG","city":"TALLAHASSEE","state":"FL","zip":"32399"},"incomeTract":null,"incomeBlockGroup":null,"nearestRoad":null,"flu":null,"opportunityZone":null,"oz2Eligibility":null,"source":"fl-franklin-parcels-2023-12037","gisViewerUrl":"https://gis.arpc.org/arcgis/apps/webappviewer/index.html?id=959fb7cf8450449987d52f296b6dde0e","appraiserUrl":"https://franklin-search.gsacorp.io/parcel/08W08S22000000200000"},"geometry":{"type":"Polygon","coordinates":[[[-85.037854,29.772487],[-85.037553,29.767766],[-85.035481,29.767366],[-85.033264,29.766851],[-85.033126,29.766912],[-85.032688,29.766553],[-85.032424,29.7673],[-85.033037,29.767406],[-85.033659,29.767453],[-85.033946,29.76751],[-85.034225,29.767591],[-85.034494,29.767695],[-85.034873,29.767891],[-85.034597,29.768033],[-85.034284,29.767823],[-85.033869,29.767775],[-85.033292,29.767797],[-85.032277,29.767716],[-85.030576,29.772536],[-85.037854,29.772487]]]}},{"type":"Feature","id":"12037:1608S08W000000500000","properties":{"id":"12037:1608S08W000000500000","parcelId":"1608S08W000000500000","countyFips":"12037","countyName":"Franklin","state":"Florida","marketIds":["Big Bend"],"situsAddress":"-","situsCity":null,"situsZip":"32320","jurisdictionCode":null,"ownerName":"TIITF/GFWFC","ownerName2":null,"propertyName":null,"zoningCode":null,"zoningDistrict":null,"jurisdictionPrefix":null,"dorCode":"087","acreage":126.53,"centroid":[-85.043,29.77771],"lastSale":{"date":null,"price":null,"qualified":null},"tax":{"marketValue":44000.0,"assessedValue":44000.0,"taxableValue":null,"taxes":null},"mailingAddress":{"line1":"LOWER APALACHICOLA PROJECT","line2":"% DNR DOUGLAS BLDG","city":"TALLAHASSEE","state":"FL","zip":"32399"},"incomeTract":null,"incomeBlockGroup":null,"nearestRoad":null,"flu":null,"opportunityZone":null,"oz2Eligibility":null,"source":"fl-franklin-parcels-2023-12037","gisViewerUrl":"https://gis.arpc.org/arcgis/apps/webappviewer/index.html?id=959fb7cf8450449987d52f296b6dde0e","appraiserUrl":"https://franklin-search.gsacorp.io/parcel/08W08S16000000500000"},"geometry":{"type":"Polygon","coordinates":[[[-85.044281,29.774815],[-85.04421,29.774737],[-85.044088,29.77457],[-85.043956,29.774295],[-85.043819,29.77363],[-85.043669,29.77317],[-85.043458,29.77273],[-85.043284,29.772449],[-85.037854,29.772487],[-85.037934,29.780678],[-85.03807,29.780366],[-85.038235,29.780065],[-85.038536,29.779639],[-85.038895,29.779248],[-85.039164,29.779011],[-85.039454,29.778794],[-85.039765,29.778599],[-85.040092,29.778427],[-85.040435,29.77828],[-85.040791,29.778157],[-85.041158,29.778061],[-85.041532,29.777992],[-85.042102,29.77794],[-85.042485,29.777939],[-85.042866,29.777967],[-85.04343,29.778059],[-85.043796,29.778155],[-85.044153,29.778277],[-85.044662,29.778506],[-85.044982,29.77869],[-85.045426,29.779006],[-85.045821,29.779369],[-85.047406,29.780725],[-85.047899,29.780372],[-85.047958,29.779893],[-85.047948,29.779412],[-85.047902,29.779094],[-85.047826,29.77878],[-85.047656,29.778322],[-85.044281,29.774815]]]}},{"type":"Feature","id":"12037:0308S08W000000100000","properties":{"id":"12037:0308S08W000000100000","parcelId":"0308S08W000000100000","countyFips":"12037","countyName":"Franklin","state":"Florida","marketIds":["Big Bend"],"situsAddress":"-","situsCity":null,"situsZip":"32320","jurisdictionCode":null,"ownerName":"TIITF/GFWFC","ownerName2":null,"propertyName":null,"zoningCode":null,"zoningDistrict":null,"jurisdictionPrefix":null,"dorCode":"087","acreage":29.6429,"centroid":[-85.02343,29.803403],"lastSale":{"date":null,"price":null,"qualified":null},"tax":{"marketValue":44000.0,"assessedValue":44000.0,"taxableValue":null,"taxes":null},"mailingAddress":{"line1":"LOWER APALACHICOLA PROJECT","line2":"% DNR DOUGLAS BLDG","city":"TALLAHASSEE","state":"FL","zip":"32399"},"incomeTract":null,"incomeBlockGroup":null,"nearestRoad":null,"flu":null,"opportunityZone":null,"oz2Eligibility":null,"source":"fl-franklin-parcels-2023-12037","gisViewerUrl":"https://gis.arpc.org/arcgis/apps/webappviewer/index.html?id=959fb7cf8450449987d52f296b6dde0e","appraiserUrl":"https://franklin-search.gsacorp.io/parcel/08W08S03000000100000"},"geometry":{"type":"Polygon","coordinates":[[[-85.02105,29.801414],[-85.021057,29.805406],[-85.021873,29.80466],[-85.02227,29.804427],[-85.022681,29.804215],[-85.023105,29.804023],[-85.023541,29.803852],[-85.024465,29.803225],[-85.025345,29.802551],[-85.025905,29.802077],[-85.026443,29.801584],[-85.02105,29.801414]]]}},{"type":"Feature","id":"12037:3407S08W000000100000","properties":{"id":"12037:3407S08W000000100000","parcelId":"3407S08W000000100000","countyFips":"12037","countyName":"Franklin","state":"Florida","marketIds":["Big Bend"],"situsAddress":"-","situsCity":null,"situsZip":"32320","jurisdictionCode":null,"ownerName":"TIITF/GFWFC","ownerName2":null,"propertyName":null,"zoningCode":null,"zoningDistrict":null,"jurisdictionPrefix":null,"dorCode":"087","acreage":143.2623,"centroid":[-85.028523,29.827675],"lastSale":{"date":null,"price":null,"qualified":null},"tax":{"marketValue":144100.0,"assessedValue":144100.0,"taxableValue":null,"taxes":null},"mailingAddress":{"line1":"LOWER APALACHICOLA PROJECT","line2":"C/O DNR DOUGLAS BLDG","city":"TALLAHASSEE","state":"FL","zip":"32399"},"incomeTract":null,"incomeBlockGroup":null,"nearestRoad":null,"flu":null,"opportunityZone":null,"oz2Eligibility":null,"source":"fl-franklin-parcels-2023-12037","gisViewerUrl":"https://gis.arpc.org/arcgis/apps/webappviewer/index.html?id=959fb7cf8450449987d52f296b6dde0e","appraiserUrl":"https://franklin-search.gsacorp.io/parcel/08W07S34000000100000"},"geometry":{"type":"Polygon","coordinates":[[[-85.031902,29.830488],[-85.031892,29.830308],[-85.031814,29.829775],[-85.031666,29.829254],[-85.031529,29.828915],[-85.031364,29.828587],[-85.031062,29.828118],[-85.030701,29.827683],[-85.030429,29.827414],[-85.030135,29.827164],[-85.029654,29.826827],[-85.029132,29.826541],[-85.028765,29.82638],[-85.028384,29.826244],[-85.027794,29.826089],[-85.027391,29.826019],[-85.026983,29.825976],[-85.022018,29.825076],[-85.021533,29.825006],[-85.020799,29.824946],[-85.020813,29.830923],[-85.031756,29.831126],[-85.031902,29.830488]]]}},{"type":"Feature","id":"12037:1307S08W000000300000","properties":{"id":"12037:1307S08W000000300000","parcelId":"1307S08W000000300000","countyFips":"12037","countyName":"Franklin","state":"Florida","marketIds":["Big Bend"],"situsAddress":"468 BLOODY BLUFF RD","situsCity":"EASTPOINT","situsZip":"32328","jurisdictionCode":null,"ownerName":"WALKER LINDSEY F","ownerName2":null,"propertyName":null,"zoningCode":null,"zoningDistrict":null,"jurisdictionPrefix":null,"dorCode":"001","acreage":5.4654,"centroid":[-85.002847,29.869736],"lastSale":{"date":"2024-11-01","price":27500.0,"qualified":"30"},"tax":{"marketValue":68364.0,"assessedValue":68364.0,"taxableValue":68364.0,"taxes":null},"mailingAddress":{"line1":"8 DEASON DRIVE","line2":null,"city":"APALACHICOLA","state":"FL","zip":"32320"},"incomeTract":null,"incomeBlockGroup":null,"nearestRoad":null,"flu":null,"opportunityZone":null,"oz2Eligibility":null,"source":"fl-franklin-parcels-2023-12037","gisViewerUrl":"https://gis.arpc.org/arcgis/apps/webappviewer/index.html?id=959fb7cf8450449987d52f296b6dde0e","appraiserUrl":"https://franklin-search.gsacorp.io/parcel/08W07S13000000300000"},"geometry":{"type":"Polygon","coordinates":[[[-85.003782,29.870466],[-85.003793,29.869018],[-85.002651,29.868953],[-85.002693,29.869777],[-85.002063,29.869741],[-85.002099,29.870461],[-85.003782,29.870466]]]}},{"type":"Feature","id":"12037:1508S08W000000110000","properties":{"id":"12037:1508S08W000000110000","parcelId":"1508S08W000000110000","countyFips":"12037","countyName":"Franklin","state":"Florida","marketIds":["Big Bend"],"situsAddress":null,"situsCity":null,"situsZip":"32320","jurisdictionCode":null,"ownerName":"TIITF/GFWFC","ownerName2":null,"propertyName":null,"zoningCode":null,"zoningDistrict":null,"jurisdictionPrefix":null,"dorCode":"087","acreage":133.4382,"centroid":[-85.026109,29.77561],"lastSale":{"date":null,"price":null,"qualified":null},"tax":{"marketValue":170500.0,"assessedValue":170500.0,"taxableValue":null,"taxes":null},"mailingAddress":{"line1":"LOWER APALACH RIVER PROJECT","line2":"% DNR DOUGLAS BLDG","city":"TALLAHASSEE","state":"FL","zip":"32399"},"incomeTract":null,"incomeBlockGroup":null,"nearestRoad":null,"flu":null,"opportunityZone":null,"oz2Eligibility":null,"source":"fl-franklin-parcels-2023-12037","gisViewerUrl":"https://gis.arpc.org/arcgis/apps/webappviewer/index.html?id=959fb7cf8450449987d52f296b6dde0e","appraiserUrl":"https://franklin-search.gsacorp.io/parcel/08W08S15000000110000"},"geometry":{"type":"Polygon","coordinates":[[[-85.021038,29.780835],[-85.02845,29.776506],[-85.029449,29.775571],[-85.030576,29.772536],[-85.021034,29.772604],[-85.021038,29.780835]]]}},{"type":"Feature","id":"12037:2708S08W100100000COM","properties":{"id":"12037:2708S08W100100000COM","parcelId":"2708S08W100100000COM","countyFips":"12037","countyName":"Franklin","state":"Florida","marketIds":["Big Bend"],"situsAddress":null,"situsCity":null,"situsZip":"0","jurisdictionCode":null,"ownerName":"RIVERS EDGE PHASE II","ownerName2":null,"propertyName":null,"zoningCode":null,"zoningDistrict":null,"jurisdictionPrefix":null,"dorCode":"009","acreage":17.8857,"centroid":[-85.032103,29.763544],"lastSale":{"date":null,"price":null,"qualified":null},"tax":{"marketValue":null,"assessedValue":null,"taxableValue":null,"taxes":null},"mailingAddress":{"line1":"COMMON AREA","line2":null,"city":null,"state":null,"zip":"0"},"incomeTract":null,"incomeBlockGroup":null,"nearestRoad":null,"flu":null,"opportunityZone":null,"oz2Eligibility":null,"source":"fl-franklin-parcels-2023-12037","gisViewerUrl":"https://gis.arpc.org/arcgis/apps/webappviewer/index.html?id=959fb7cf8450449987d52f296b6dde0e","appraiserUrl":"https://franklin-search.gsacorp.io/parcel/08W08S27100100000COM"},"geometry":{"type":"MultiPolygon","coordinates":[[[[-85.032666,29.764317],[-85.03294,29.764366],[-85.033048,29.764402],[-85.033549,29.762963],[-85.033692,29.762364],[-85.031424,29.761631],[-85.030498,29.763523],[-85.030803,29.763602],[-85.031126,29.763751],[-85.031542,29.763981],[-85.03184,29.764084],[-85.032666,29.764317]]],[[[-85.029177,29.761102],[-85.02917,29.762327],[-85.030214,29.761171],[-85.030042,29.761105],[-85.029177,29.761102]]],[[[-85.027436,29.762368],[-85.027733,29.762524],[-85.027922,29.762534],[-85.028047,29.762642],[-85.028346,29.762717],[-85.028629,29.762817],[-85.028658,29.762856],[-85.029078,29.762422],[-85.028981,29.762365],[-85.028981,29.76227],[-85.027642,29.762289],[-85.027265,29.762258],[-85.027436,29.762368]]]]}},{"type":"Feature","id":"12037:2708S08W000000300000","properties":{"id":"12037:2708S08W000000300000","parcelId":"2708S08W000000300000","countyFips":"12037","countyName":"Franklin","state":"Florida","marketIds":["Big Bend"],"situsAddress":"550 BAYCITY RD RD","situsCity":null,"situsZip":"32320","jurisdictionCode":null,"ownerName":"WADDELL JAMES F JR & MELANIE G","ownerName2":null,"propertyName":null,"zoningCode":null,"zoningDistrict":null,"jurisdictionPrefix":null,"dorCode":"001","acreage":14.5546,"centroid":[-85.022809,29.752239],"lastSale":{"date":null,"price":null,"qualified":null},"tax":{"marketValue":325994.0,"assessedValue":325994.0,"taxableValue":325994.0,"taxes":null},"mailingAddress":{"line1":"PO.BOX 636","line2":null,"city":"APALACHICOLA","state":"FL","zip":"32320"},"incomeTract":null,"incomeBlockGroup":null,"nearestRoad":null,"flu":null,"opportunityZone":null,"oz2Eligibility":null,"source":"fl-franklin-parcels-2023-12037","gisViewerUrl":"https://gis.arpc.org/arcgis/apps/webappviewer/index.html?id=959fb7cf8450449987d52f296b6dde0e","appraiserUrl":"https://franklin-search.gsacorp.io/parcel/08W08S27000000300000"},"geometry":{"type":"Polygon","coordinates":[[[-85.02482,29.752922],[-85.024818,29.751571],[-85.020818,29.751543],[-85.02078,29.752918],[-85.02482,29.752922]]]}},{"type":"Feature","id":"12037:2306S08W000000200081","properties":{"id":"12037:2306S08W000000200081","parcelId":"2306S08W000000200081","countyFips":"12037","countyName":"Franklin","state":"Florida","marketIds":["Big Bend"],"situsAddress":null,"situsCity":null,"situsZip":null,"jurisdictionCode":null,"ownerName":null,"ownerName2":null,"propertyName":null,"zoningCode":null,"zoningDistrict":null,"jurisdictionPrefix":null,"dorCode":null,"acreage":7.6714,"centroid":[-85.008645,29.945207],"lastSale":{"date":null,"price":null,"qualified":null},"tax":{"marketValue":null,"assessedValue":null,"taxableValue":null,"taxes":null},"mailingAddress":{"line1":null,"line2":null,"city":null,"state":null,"zip":null},"incomeTract":null,"incomeBlockGroup":null,"nearestRoad":null,"flu":null,"opportunityZone":null,"oz2Eligibility":null,"source":"fl-franklin-parcels-2023-12037","gisViewerUrl":"https://gis.arpc.org/arcgis/apps/webappviewer/index.html?id=959fb7cf8450449987d52f296b6dde0e","appraiserUrl":"https://franklin-search.gsacorp.io/parcel/08W06S23000000200081"},"geometry":{"type":"Polygon","coordinates":[[[-85.007085,29.944319],[-85.00942,29.946514],[-85.010049,29.946268],[-85.009582,29.944937],[-85.00709,29.943996],[-85.007085,29.944319]]]}},{"type":"Feature","id":"12037:2708S08W000000200050","properties":{"id":"12037:2708S08W000000200050","parcelId":"2708S08W000000200050","countyFips":"12037","countyName":"Franklin","state":"Florida","marketIds":["Big Bend"],"situsAddress":"317 PARADISE LN","situsCity":"APALACHICOLA","situsZip":"32320","jurisdictionCode":null,"ownerName":"ELLIS WILLIAM F & LINDA &","ownerName2":null,"propertyName":null,"zoningCode":null,"zoningDistrict":null,"jurisdictionPrefix":null,"dorCode":"000","acreage":14.9903,"centroid":[-85.035995,29.750944],"lastSale":{"date":null,"price":null,"qualified":null},"tax":{"marketValue":112500.0,"assessedValue":112500.0,"taxableValue":112500.0,"taxes":null},"mailingAddress":{"line1":"ELLIS SHELTON W & FELICIA D","line2":"989 LEE ROAD 244","city":"SALEM","state":"AL","zip":"36874"},"incomeTract":null,"incomeBlockGroup":null,"nearestRoad":null,"flu":null,"opportunityZone":null,"oz2Eligibility":null,"source":"fl-franklin-parcels-2023-12037","gisViewerUrl":"https://gis.arpc.org/arcgis/apps/webappviewer/index.html?id=959fb7cf8450449987d52f296b6dde0e","appraiserUrl":"https://franklin-search.gsacorp.io/parcel/08W08S27000000200050"},"geometry":{"type":"Polygon","coordinates":[[[-85.035978,29.752274],[-85.037375,29.752276],[-85.037448,29.749614],[-85.034598,29.749611],[-85.034576,29.750945],[-85.035995,29.750945],[-85.035978,29.752274]]]}},{"type":"Feature","id":"12037:2708S08W000000200060","properties":{"id":"12037:2708S08W000000200060","parcelId":"2708S08W000000200060","countyFips":"12037","countyName":"Franklin","state":"Florida","marketIds":["Big Bend"],"situsAddress":"200 PARADISE LN","situsCity":"APALACHICOLA","situsZip":"32320","jurisdictionCode":null,"ownerName":"BYRD LEONARD","ownerName2":null,"propertyName":null,"zoningCode":null,"zoningDistrict":null,"jurisdictionPrefix":null,"dorCode":"002","acreage":5.1335,"centroid":[-85.031685,29.752602],"lastSale":{"date":null,"price":null,"qualified":null},"tax":{"marketValue":123051.0,"assessedValue":123051.0,"taxableValue":123051.0,"taxes":null},"mailingAddress":{"line1":"2303 KNOX HILL ROAD","line2":null,"city":"PONCE DE LEON","state":"FL","zip":"32455"},"incomeTract":null,"incomeBlockGroup":null,"nearestRoad":null,"flu":null,"opportunityZone":null,"oz2Eligibility":null,"source":"fl-franklin-parcels-2023-12037","gisViewerUrl":"https://gis.arpc.org/arcgis/apps/webappviewer/index.html?id=959fb7cf8450449987d52f296b6dde0e","appraiserUrl":"https://franklin-search.gsacorp.io/parcel/08W08S27000000200060"},"geometry":{"type":"Polygon","coordinates":[[[-85.031032,29.751523],[-85.030955,29.751507],[-85.031538,29.753035],[-85.031616,29.753042],[-85.031881,29.75365],[-85.032766,29.753729],[-85.03201,29.751731],[-85.031032,29.751523]]]}},{"type":"Feature","id":"12037:2708S08W000000200080","properties":{"id":"12037:2708S08W000000200080","parcelId":"2708S08W000000200080","countyFips":"12037","countyName":"Franklin","state":"Florida","marketIds":["Big Bend"],"situsAddress":"-","situsCity":null,"situsZip":"32320","jurisdictionCode":null,"ownerName":"GANDER CHARLOTTE H","ownerName2":null,"propertyName":null,"zoningCode":null,"zoningDistrict":null,"jurisdictionPrefix":null,"dorCode":"000","acreage":19.8855,"centroid":[-85.035956,29.753339],"lastSale":{"date":null,"price":null,"qualified":null},"tax":{"marketValue":150000.0,"assessedValue":150000.0,"taxableValue":150000.0,"taxes":null},"mailingAddress":{"line1":"PO BOX 70","line2":null,"city":"APALACHICOLA","state":"FL","zip":"32320"},"incomeTract":null,"incomeBlockGroup":null,"nearestRoad":null,"flu":null,"opportunityZone":null,"oz2Eligibility":null,"source":"fl-franklin-parcels-2023-12037","gisViewerUrl":"https://gis.arpc.org/arcgis/apps/webappviewer/index.html?id=959fb7cf8450449987d52f296b6dde0e","appraiserUrl":"https://franklin-search.gsacorp.io/parcel/08W08S27000000200080"},"geometry":{"type":"Polygon","coordinates":[[[-85.037375,29.752276],[-85.035978,29.752274],[-85.034558,29.752272],[-85.034536,29.753888],[-85.037332,29.755985],[-85.037375,29.752276]]]}},{"type":"Feature","id":"12037:2708S08W000000200101","properties":{"id":"12037:2708S08W000000200101","parcelId":"2708S08W000000200101","countyFips":"12037","countyName":"Franklin","state":"Florida","marketIds":["Big Bend"],"situsAddress":"227 PARADISE LN","situsCity":"APALACHICOLA","situsZip":"32320","jurisdictionCode":null,"ownerName":"WARD OLAN & MARTHA P","ownerName2":null,"propertyName":null,"zoningCode":null,"zoningDistrict":null,"jurisdictionPrefix":null,"dorCode":"000","acreage":5.0001,"centroid":[-85.034075,29.754876],"lastSale":{"date":null,"price":null,"qualified":null},"tax":{"marketValue":91875.0,"assessedValue":91875.0,"taxableValue":91875.0,"taxes":null},"mailingAddress":{"line1":"72 WADDELL RD","line2":null,"city":"APALACHICOLA","state":"FL","zip":"32329"},"incomeTract":null,"incomeBlockGroup":null,"nearestRoad":null,"flu":null,"opportunityZone":null,"oz2Eligibility":null,"source":"fl-franklin-parcels-2023-12037","gisViewerUrl":"https://gis.arpc.org/arcgis/apps/webappviewer/index.html?id=959fb7cf8450449987d52f296b6dde0e","appraiserUrl":"https://franklin-search.gsacorp.io/parcel/08W08S27000000200101"},"geometry":{"type":"Polygon","coordinates":[[[-85.033236,29.753772],[-85.034088,29.75609],[-85.035088,29.755811],[-85.033886,29.75383],[-85.033236,29.753772]]]}},{"type":"Feature","id":"12037:2708S08W000000200100","properties":{"id":"12037:2708S08W000000200100","parcelId":"2708S08W000000200100","countyFips":"12037","countyName":"Franklin","state":"Florida","marketIds":["Big Bend"],"situsAddress":"235 PARADISE LN","situsCity":"APALACHICOLA","situsZip":"32320","jurisdictionCode":null,"ownerName":"WARD WALTER M & RACHEL L ETAL","ownerName2":null,"propertyName":null,"zoningCode":null,"zoningDistrict":null,"jurisdictionPrefix":null,"dorCode":"002","acreage":15.6392,"centroid":[-85.035609,29.755809],"lastSale":{"date":null,"price":null,"qualified":null},"tax":{"marketValue":221141.0,"assessedValue":221141.0,"taxableValue":221141.0,"taxes":null},"mailingAddress":{"line1":"PO BOX 697","line2":null,"city":"APALACHICOLA","state":"FL","zip":"32320"},"incomeTract":null,"incomeBlockGroup":null,"nearestRoad":null,"flu":null,"opportunityZone":null,"oz2Eligibility":null,"source":"fl-franklin-parcels-2023-12037","gisViewerUrl":"https://gis.arpc.org/arcgis/apps/webappviewer/index.html?id=959fb7cf8450449987d52f296b6dde0e","appraiserUrl":"https://franklin-search.gsacorp.io/parcel/08W08S27000000200100"},"geometry":{"type":"Polygon","coordinates":[[[-85.037332,29.755985],[-85.034536,29.753888],[-85.033886,29.75383],[-85.035088,29.755811],[-85.034088,29.75609],[-85.034699,29.757787],[-85.037332,29.755985]]]}},{"type":"Feature","id":"12037:2708S08W000000200110","properties":{"id":"12037:2708S08W000000200110","parcelId":"2708S08W000000200110","countyFips":"12037","countyName":"Franklin","state":"Florida","marketIds":["Big Bend"],"situsAddress":"201 PARADISE LN","situsCity":"APALACHICOLA","situsZip":"32320","jurisdictionCode":null,"ownerName":"MADSON TORBEN SEVERIN III","ownerName2":null,"propertyName":null,"zoningCode":null,"zoningDistrict":null,"jurisdictionPrefix":null,"dorCode":"000","acreage":24.2569,"centroid":[-85.033053,29.755972],"lastSale":{"date":null,"price":null,"qualified":null},"tax":{"marketValue":170030.0,"assessedValue":170030.0,"taxableValue":170030.0,"taxes":null},"mailingAddress":{"line1":"P.O. BOX 865","line2":null,"city":"APALACHICOLA","state":"FL","zip":"32329"},"incomeTract":null,"incomeBlockGroup":null,"nearestRoad":null,"flu":null,"opportunityZone":null,"oz2Eligibility":null,"source":"fl-franklin-parcels-2023-12037","gisViewerUrl":"https://gis.arpc.org/arcgis/apps/webappviewer/index.html?id=959fb7cf8450449987d52f296b6dde0e","appraiserUrl":"https://franklin-search.gsacorp.io/parcel/08W08S27000000200110"},"geometry":{"type":"Polygon","coordinates":[[[-85.03328,29.758759],[-85.034699,29.757787],[-85.033236,29.753772],[-85.030996,29.753571],[-85.03328,29.758759]]]}},{"type":"Feature","id":"12037:2708S08W100200000000","properties":{"id":"12037:2708S08W100200000000","parcelId":"2708S08W100200000000","countyFips":"12037","countyName":"Franklin","state":"Florida","marketIds":["Big Bend"],"situsAddress":null,"situsCity":null,"situsZip":null,"jurisdictionCode":null,"ownerName":null,"ownerName2":null,"propertyName":null,"zoningCode":null,"zoningDistrict":null,"jurisdictionPrefix":null,"dorCode":null,"acreage":10.5665,"centroid":[-85.027062,29.760136],"lastSale":{"date":null,"price":null,"qualified":null},"tax":{"marketValue":null,"assessedValue":null,"taxableValue":null,"taxes":null},"mailingAddress":{"line1":null,"line2":null,"city":null,"state":null,"zip":null},"incomeTract":null,"incomeBlockGroup":null,"nearestRoad":null,"flu":null,"opportunityZone":null,"oz2Eligibility":null,"source":"fl-franklin-parcels-2023-12037","gisViewerUrl":"https://gis.arpc.org/arcgis/apps/webappviewer/index.html?id=959fb7cf8450449987d52f296b6dde0e","appraiserUrl":"https://franklin-search.gsacorp.io/parcel/08W08S27100200000000"},"geometry":{"type":"Polygon","coordinates":[[[-85.025535,29.760888],[-85.025842,29.761182],[-85.026321,29.760799],[-85.027251,29.760623],[-85.027501,29.760657],[-85.027541,29.760581],[-85.027608,29.760522],[-85.027917,29.760382],[-85.028004,29.760319],[-85.028072,29.76024],[-85.02813,29.760089],[-85.028117,29.759737],[-85.02801,29.759592],[-85.02789,29.759547],[-85.027706,29.759911],[-85.027358,29.759777],[-85.027094,29.759813],[-85.026794,29.759748],[-85.026502,29.759606],[-85.026265,29.759391],[-85.025342,29.759032],[-85.024565,29.760562],[-85.025535,29.760888]]]}},{"type":"Feature","id":"12037:2708S08W000000200020","properties":{"id":"12037:2708S08W000000200020","parcelId":"2708S08W000000200020","countyFips":"12037","countyName":"Franklin","state":"Florida","marketIds":["Big Bend"],"situsAddress":null,"situsCity":null,"situsZip":"32320","jurisdictionCode":null,"ownerName":"WARD WALTER MACK & THOMAS LEE","ownerName2":null,"propertyName":null,"zoningCode":null,"zoningDistrict":null,"jurisdictionPrefix":null,"dorCode":"000","acreage":28.2466,"centroid":[-85.035829,29.759725],"lastSale":{"date":null,"price":null,"qualified":null},"tax":{"marketValue":108000.0,"assessedValue":108000.0,"taxableValue":108000.0,"taxes":null},"mailingAddress":{"line1":"TRUSTEE","line2":"PO.BOX 697","city":"APALACHICOLA","state":"FL","zip":"32329"},"incomeTract":null,"incomeBlockGroup":null,"nearestRoad":null,"flu":null,"opportunityZone":null,"oz2Eligibility":null,"source":"fl-franklin-parcels-2023-12037","gisViewerUrl":"https://gis.arpc.org/arcgis/apps/webappviewer/index.html?id=959fb7cf8450449987d52f296b6dde0e","appraiserUrl":"https://franklin-search.gsacorp.io/parcel/08W08S27000000200020"},"geometry":{"type":"Polygon","coordinates":[[[-85.03328,29.758759],[-85.034858,29.760186],[-85.035151,29.760437],[-85.035465,29.760668],[-85.036179,29.759814],[-85.036812,29.760222],[-85.036115,29.761048],[-85.037405,29.761644],[-85.037421,29.7573],[-85.035603,29.757168],[-85.03328,29.758759]]]}},{"type":"Feature","id":"12037:2608S09W000000100010","properties":{"id":"12037:2608S09W000000100010","parcelId":"2608S09W000000100010","countyFips":"12037","countyName":"Franklin","state":"Florida","marketIds":["Big Bend"],"situsAddress":null,"situsCity":null,"situsZip":"32320","jurisdictionCode":null,"ownerName":"BOARD OF TRUSTEES OF TIITF","ownerName2":null,"propertyName":null,"zoningCode":null,"zoningDistrict":null,"jurisdictionPrefix":null,"dorCode":"087","acreage":87.2584,"centroid":[-85.110254,29.750747],"lastSale":{"date":null,"price":null,"qualified":null},"tax":{"marketValue":57852.0,"assessedValue":57852.0,"taxableValue":null,"taxes":null},"mailingAddress":{"line1":"3900 COMMONWEALTH BLVD","line2":"MAIL STATION 115","city":"TALLAHASSEE","state":"FL","zip":"32399"},"incomeTract":null,"incomeBlockGroup":null,"nearestRoad":null,"flu":null,"opportunityZone":null,"oz2Eligibility":null,"source":"fl-franklin-parcels-2023-12037","gisViewerUrl":"https://gis.arpc.org/arcgis/apps/webappviewer/index.html?id=959fb7cf8450449987d52f296b6dde0e","appraiserUrl":"https://franklin-search.gsacorp.io/parcel/09W08S26000000100010"},"geometry":{"type":"Polygon","coordinates":[[[-85.104377,29.748252],[-85.10432,29.754003],[-85.107741,29.752374],[-85.110179,29.751699],[-85.111035,29.751298],[-85.11144,29.751074],[-85.111689,29.750898],[-85.111918,29.750702],[-85.112124,29.750488],[-85.112387,29.750137],[-85.112592,29.749758],[-85.113245,29.748281],[-85.104377,29.748252]]]}},{"type":"Feature","id":"12037:1908S08W000000200000","properties":{"id":"12037:1908S08W000000200000","parcelId":"1908S08W000000200000","countyFips":"12037","countyName":"Franklin","state":"Florida","marketIds":["Big Bend"],"situsAddress":"-","situsCity":null,"situsZip":"32320","jurisdictionCode":null,"ownerName":"BRD OF TRUSTEES OF THE I.I.","ownerName2":null,"propertyName":null,"zoningCode":null,"zoningDistrict":null,"jurisdictionPrefix":null,"dorCode":"087","acreage":94.5252,"centroid":[-85.075012,29.767169],"lastSale":{"date":null,"price":null,"qualified":null},"tax":{"marketValue":4140.0,"assessedValue":4140.0,"taxableValue":null,"taxes":null},"mailingAddress":{"line1":"TRUST FUND","line2":"3900 COMMON WEALTH BLVD","city":"TALLAHASSEE","state":"FL","zip":"32399"},"incomeTract":null,"incomeBlockGroup":null,"nearestRoad":null,"flu":null,"opportunityZone":null,"oz2Eligibility":null,"source":"fl-franklin-parcels-2023-12037","gisViewerUrl":"https://gis.arpc.org/arcgis/apps/webappviewer/index.html?id=959fb7cf8450449987d52f296b6dde0e","appraiserUrl":"https://franklin-search.gsacorp.io/parcel/08W08S19000000200000"},"geometry":{"type":"Polygon","coordinates":[[[-85.070832,29.771444],[-85.070999,29.771249],[-85.071351,29.770873],[-85.071727,29.770516],[-85.072126,29.770177],[-85.072763,29.769708],[-85.073213,29.769422],[-85.073681,29.76916],[-85.074413,29.76881],[-85.074919,29.768608],[-85.075437,29.768432],[-85.075966,29.768281],[-85.076504,29.768157],[-85.077049,29.76806],[-85.077599,29.767991],[-85.078154,29.767949],[-85.078988,29.767937],[-85.079543,29.767964],[-85.079803,29.767912],[-85.078356,29.766583],[-85.07787,29.766396],[-85.077027,29.766282],[-85.076338,29.766363],[-85.076006,29.766315],[-85.075775,29.766138],[-85.07549,29.765248],[-85.075258,29.764954],[-85.074694,29.764506],[-85.074339,29.763767],[-85.07398,29.763496],[-85.07334,29.763187],[-85.073057,29.762759],[-85.072985,29.76255],[-85.07084,29.762537],[-85.070832,29.771444]]]}},{"type":"Feature","id":"12037:2208S09W000000100000","properties":{"id":"12037:2208S09W000000100000","parcelId":"2208S09W000000100000","countyFips":"12037","countyName":"Franklin","state":"Florida","marketIds":["Big Bend"],"situsAddress":null,"situsCity":null,"situsZip":"32320","jurisdictionCode":null,"ownerName":"BOARD OF TRUSTEES OF THE IITF","ownerName2":null,"propertyName":null,"zoningCode":null,"zoningDistrict":null,"jurisdictionPrefix":null,"dorCode":"087","acreage":68.0495,"centroid":[-85.12381,29.764831],"lastSale":{"date":null,"price":null,"qualified":null},"tax":{"marketValue":49250.0,"assessedValue":49250.0,"taxableValue":null,"taxes":null},"mailingAddress":{"line1":"3900 COMMON WEALTH BLVD","line2":"MAIL STATION 115","city":"TALLAHASSEE","state":"FL","zip":"32399"},"incomeTract":null,"incomeBlockGroup":null,"nearestRoad":null,"flu":null,"opportunityZone":null,"oz2Eligibility":null,"source":"fl-franklin-parcels-2023-12037","gisViewerUrl":"https://gis.arpc.org/arcgis/apps/webappviewer/index.html?id=959fb7cf8450449987d52f296b6dde0e","appraiserUrl":"https://franklin-search.gsacorp.io/parcel/09W08S22000000100000"},"geometry":{"type":"Polygon","coordinates":[[[-85.120973,29.762828],[-85.120866,29.768789],[-85.129591,29.762876],[-85.120973,29.762828]]]}},{"type":"Feature","id":"12037:2608S08W100100000COM","properties":{"id":"12037:2608S08W100100000COM","parcelId":"2608S08W100100000COM","countyFips":"12037","countyName":"Franklin","state":"Florida","marketIds":["Big Bend"],"situsAddress":null,"situsCity":null,"situsZip":"0","jurisdictionCode":null,"ownerName":"RIVERCREST PHASE II","ownerName2":null,"propertyName":null,"zoningCode":null,"zoningDistrict":null,"jurisdictionPrefix":null,"dorCode":"009","acreage":7.8616,"centroid":[-85.018828,29.751437],"lastSale":{"date":null,"price":null,"qualified":null},"tax":{"marketValue":null,"assessedValue":null,"taxableValue":null,"taxes":null},"mailingAddress":{"line1":"COMMON AREA","line2":null,"city":null,"state":null,"zip":"0"},"incomeTract":null,"incomeBlockGroup":null,"nearestRoad":null,"flu":null,"opportunityZone":null,"oz2Eligibility":null,"source":"fl-franklin-parcels-2023-12037","gisViewerUrl":"https://gis.arpc.org/arcgis/apps/webappviewer/index.html?id=959fb7cf8450449987d52f296b6dde0e","appraiserUrl":"https://franklin-search.gsacorp.io/parcel/08W08S26100100000COM"},"geometry":{"type":"Polygon","coordinates":[[[-85.017267,29.750812],[-85.017259,29.751387],[-85.017331,29.752376],[-85.018718,29.752026],[-85.019354,29.752031],[-85.019369,29.751508],[-85.019495,29.751509],[-85.019511,29.75096],[-85.019984,29.750963],[-85.019988,29.750803],[-85.017267,29.750812]]]}},{"type":"Feature","id":"12037:2608S08W000000200000","properties":{"id":"12037:2608S08W000000200000","parcelId":"2608S08W000000200000","countyFips":"12037","countyName":"Franklin","state":"Florida","marketIds":["Big Bend"],"situsAddress":null,"situsCity":null,"situsZip":null,"jurisdictionCode":null,"ownerName":null,"ownerName2":null,"propertyName":null,"zoningCode":null,"zoningDistrict":null,"jurisdictionPrefix":null,"dorCode":null,"acreage":30.6372,"centroid":[-85.020174,29.756919],"lastSale":{"date":null,"price":null,"qualified":null},"tax":{"marketValue":null,"assessedValue":null,"taxableValue":null,"taxes":null},"mailingAddress":{"line1":null,"line2":null,"city":null,"state":null,"zip":null},"incomeTract":null,"incomeBlockGroup":null,"nearestRoad":null,"flu":null,"opportunityZone":null,"oz2Eligibility":null,"source":"fl-franklin-parcels-2023-12037","gisViewerUrl":"https://gis.arpc.org/arcgis/apps/webappviewer/index.html?id=959fb7cf8450449987d52f296b6dde0e","appraiserUrl":"https://franklin-search.gsacorp.io/parcel/08W08S26000000200000"},"geometry":{"type":"Polygon","coordinates":[[[-85.018031,29.7566],[-85.019071,29.75779],[-85.019204,29.757932],[-85.019509,29.758175],[-85.019588,29.758831],[-85.02106,29.75889],[-85.02148,29.759031],[-85.021464,29.757156],[-85.021696,29.757016],[-85.022027,29.75704],[-85.02201,29.755241],[-85.020714,29.755236],[-85.020301,29.75532],[-85.020234,29.755083],[-85.018874,29.755089],[-85.017515,29.756278],[-85.018031,29.7566]]]}},{"type":"Feature","id":"12037:2608S08W000000500000","properties":{"id":"12037:2608S08W000000500000","parcelId":"2608S08W000000500000","countyFips":"12037","countyName":"Franklin","state":"Florida","marketIds":["Big Bend"],"situsAddress":".","situsCity":null,"situsZip":"32320","jurisdictionCode":null,"ownerName":"MOSCONIS JIMMY G","ownerName2":null,"propertyName":null,"zoningCode":null,"zoningDistrict":null,"jurisdictionPrefix":null,"dorCode":"001","acreage":9.7735,"centroid":[-85.019309,29.754716],"lastSale":{"date":null,"price":null,"qualified":null},"tax":{"marketValue":486513.0,"assessedValue":486513.0,"taxableValue":486513.0,"taxes":null},"mailingAddress":{"line1":"PO BOX 172","line2":null,"city":"APALACHICOLA","state":"FL","zip":"32329"},"incomeTract":null,"incomeBlockGroup":null,"nearestRoad":null,"flu":null,"opportunityZone":null,"oz2Eligibility":null,"source":"fl-franklin-parcels-2023-12037","gisViewerUrl":"https://gis.arpc.org/arcgis/apps/webappviewer/index.html?id=959fb7cf8450449987d52f296b6dde0e","appraiserUrl":"https://franklin-search.gsacorp.io/parcel/08W08S26000000500000"},"geometry":{"type":"Polygon","coordinates":[[[-85.018896,29.75374],[-85.01655,29.755675],[-85.017515,29.756278],[-85.018874,29.755089],[-85.019916,29.755084],[-85.019917,29.754809],[-85.020158,29.754808],[-85.02012,29.754649],[-85.020105,29.754482],[-85.020122,29.754315],[-85.020169,29.754153],[-85.019786,29.754112],[-85.018887,29.754116],[-85.018896,29.75374]]]}},{"type":"Feature","id":"12037:2708S08W000000300020","properties":{"id":"12037:2708S08W000000300020","parcelId":"2708S08W000000300020","countyFips":"12037","countyName":"Franklin","state":"Florida","marketIds":["Big Bend"],"situsAddress":"555-A BAY CITY RD","situsCity":"APALACHICOLA","situsZip":"32320","jurisdictionCode":null,"ownerName":"WADDELL LAND INVESTMENT,LLC","ownerName2":null,"propertyName":null,"zoningCode":null,"zoningDistrict":null,"jurisdictionPrefix":null,"dorCode":"056","acreage":111.8135,"centroid":[-85.02659,29.750146],"lastSale":{"date":null,"price":null,"qualified":null},"tax":{"marketValue":278375.0,"assessedValue":7676.0,"taxableValue":7676.0,"taxes":null},"mailingAddress":{"line1":"PO.BOX 636","line2":null,"city":"APALACHICOLA","state":"FL","zip":"32320"},"incomeTract":null,"incomeBlockGroup":null,"nearestRoad":null,"flu":null,"opportunityZone":null,"oz2Eligibility":null,"source":"fl-franklin-parcels-2023-12037","gisViewerUrl":"https://gis.arpc.org/arcgis/apps/webappviewer/index.html?id=959fb7cf8450449987d52f296b6dde0e","appraiserUrl":"https://franklin-search.gsacorp.io/parcel/08W08S27000000300020"},"geometry":{"type":"Polygon","coordinates":[[[-85.027201,29.749099],[-85.028116,29.748685],[-85.027711,29.748132],[-85.026723,29.748565],[-85.02643,29.748257],[-85.026433,29.747683],[-85.021253,29.747649],[-85.021012,29.748075],[-85.020947,29.748247],[-85.020912,29.748425],[-85.020818,29.751543],[-85.024818,29.751571],[-85.02482,29.752922],[-85.024526,29.753735],[-85.024533,29.753959],[-85.024496,29.754086],[-85.024525,29.754265],[-85.024282,29.754339],[-85.024179,29.754483],[-85.024193,29.754627],[-85.02428,29.754931],[-85.024317,29.755217],[-85.024038,29.75534],[-85.023879,29.755358],[-85.023772,29.755243],[-85.023586,29.755173],[-85.023469,29.755166],[-85.023473,29.755347],[-85.023544,29.755484],[-85.023577,29.755626],[-85.02349,29.755778],[-85.023359,29.755854],[-85.023002,29.755927],[-85.022932,29.756005],[-85.022944,29.756105],[-85.023054,29.756279],[-85.022362,29.756718],[-85.022306,29.756778],[-85.022191,29.757059],[-85.021696,29.757016],[-85.021464,29.757156],[-85.02148,29.759031],[-85.021951,29.759236],[-85.022248,29.759318],[-85.022584,29.75949],[-85.023035,29.758398],[-85.022412,29.758292],[-85.022605,29.757844],[-85.023195,29.758039],[-85.023738,29.756821],[-85.024637,29.757301],[-85.024788,29.757128],[-85.024912,29.757032],[-85.025593,29.756691],[-85.025782,29.756572],[-85.026027,29.756356],[-85.026182,29.75616],[-85.027038,29.753389],[-85.027479,29.752195],[-85.02591,29.751771],[-85.026644,29.751504],[-85.027638,29.751766],[-85.027994,29.750801],[-85.02686,29.750463],[-85.027201,29.749099]]]}},{"type":"Feature","id":"12037:2608S08W000000230000","properties":{"id":"12037:2608S08W000000230000","parcelId":"2608S08W000000230000","countyFips":"12037","countyName":"Franklin","state":"Florida","marketIds":["Big Bend"],"situsAddress":"APALACH","situsCity":null,"situsZip":"32320","jurisdictionCode":null,"ownerName":"WALKER BETTY SUE","ownerName2":null,"propertyName":null,"zoningCode":null,"zoningDistrict":null,"jurisdictionPrefix":null,"dorCode":"001","acreage":59.746,"centroid":[-85.016005,29.752772],"lastSale":{"date":null,"price":null,"qualified":null},"tax":{"marketValue":382224.0,"assessedValue":382224.0,"taxableValue":382224.0,"taxes":null},"mailingAddress":{"line1":"241 AVERY STORE RD","line2":null,"city":"MILLEDGEVILLE","state":"GA","zip":"31061"},"incomeTract":null,"incomeBlockGroup":null,"nearestRoad":null,"flu":null,"opportunityZone":null,"oz2Eligibility":null,"source":"fl-franklin-parcels-2023-12037","gisViewerUrl":"https://gis.arpc.org/arcgis/apps/webappviewer/index.html?id=959fb7cf8450449987d52f296b6dde0e","appraiserUrl":"https://franklin-search.gsacorp.io/parcel/08W08S26000000230000"},"geometry":{"type":"Polygon","coordinates":[[[-85.018718,29.752026],[-85.017331,29.752376],[-85.017259,29.751387],[-85.017267,29.750812],[-85.011504,29.750915],[-85.011744,29.751326],[-85.012157,29.751916],[-85.012631,29.75247],[-85.012979,29.752818],[-85.014732,29.754368],[-85.015082,29.754523],[-85.015138,29.754794],[-85.01655,29.755675],[-85.018896,29.75374],[-85.018902,29.752967],[-85.020589,29.752978],[-85.020614,29.752041],[-85.018718,29.752026]]]}},{"type":"Feature","id":"12037:2306S08W000000200080","properties":{"id":"12037:2306S08W000000200080","parcelId":"2306S08W000000200080","countyFips":"12037","countyName":"Franklin","state":"Florida","marketIds":["Big Bend"],"situsAddress":"590 BRICKYARD RD","situsCity":"EASTPOINT","situsZip":"32328","jurisdictionCode":null,"ownerName":"SNODGRASS DARYL ALLAN","ownerName2":null,"propertyName":null,"zoningCode":null,"zoningDistrict":null,"jurisdictionPrefix":null,"dorCode":"000","acreage":8.0299,"centroid":[-85.008114,29.946207],"lastSale":{"date":"2024-12-01","price":50000.0,"qualified":"01"},"tax":{"marketValue":49440.0,"assessedValue":49440.0,"taxableValue":49440.0,"taxes":null},"mailingAddress":{"line1":"SNODGRASS MELISSA MCGRANAHAN","line2":"18072 113TH RD","city":"MC ALPIN","state":"FL","zip":"32062"},"incomeTract":null,"incomeBlockGroup":null,"nearestRoad":null,"flu":null,"opportunityZone":null,"oz2Eligibility":null,"source":"fl-franklin-parcels-2023-12037","gisViewerUrl":"https://gis.arpc.org/arcgis/apps/webappviewer/index.html?id=959fb7cf8450449987d52f296b6dde0e","appraiserUrl":"https://franklin-search.gsacorp.io/parcel/08W06S23000000200080"},"geometry":{"type":"Polygon","coordinates":[[[-85.00705,29.946702],[-85.008265,29.946708],[-85.008748,29.946792],[-85.00942,29.946514],[-85.007085,29.944319],[-85.00705,29.946702]]]}},{"type":"Feature","id":"12037:2306S08W000000200050","properties":{"id":"12037:2306S08W000000200050","parcelId":"2306S08W000000200050","countyFips":"12037","countyName":"Franklin","state":"Florida","marketIds":["Big Bend"],"situsAddress":"BRICK YARD RD","situsCity":"EASTPOINT","situsZip":"32328","jurisdictionCode":null,"ownerName":"BROWN KAREN S","ownerName2":null,"propertyName":null,"zoningCode":null,"zoningDistrict":null,"jurisdictionPrefix":null,"dorCode":"002","acreage":29.1872,"centroid":[-85.010854,29.946322],"lastSale":{"date":null,"price":null,"qualified":null},"tax":{"marketValue":151000.0,"assessedValue":151000.0,"taxableValue":151000.0,"taxes":null},"mailingAddress":{"line1":"139 POGY ROAD","line2":null,"city":"APALACHICOLA","state":"FL","zip":"32320"},"incomeTract":null,"incomeBlockGroup":null,"nearestRoad":null,"flu":null,"opportunityZone":null,"oz2Eligibility":null,"source":"fl-franklin-parcels-2023-12037","gisViewerUrl":"https://gis.arpc.org/arcgis/apps/webappviewer/index.html?id=959fb7cf8450449987d52f296b6dde0e","appraiserUrl":"https://franklin-search.gsacorp.io/parcel/08W06S23000000200050"},"geometry":{"type":"Polygon","coordinates":[[[-85.010737,29.947781],[-85.010745,29.947389],[-85.010733,29.946945],[-85.01368,29.946199],[-85.013459,29.945538],[-85.012163,29.945661],[-85.011428,29.945674],[-85.011625,29.945444],[-85.013347,29.945127],[-85.013237,29.944628],[-85.013123,29.943974],[-85.009582,29.944937],[-85.010049,29.946268],[-85.008748,29.946792],[-85.008497,29.946945],[-85.008279,29.947185],[-85.00817,29.947395],[-85.007877,29.948119],[-85.010749,29.948126],[-85.010737,29.947781]]]}},{"type":"Feature","id":"12037:2306S08W000000200025","properties":{"id":"12037:2306S08W000000200025","parcelId":"2306S08W000000200025","countyFips":"12037","countyName":"Franklin","state":"Florida","marketIds":["Big Bend"],"situsAddress":"646 BRICK YARD RD","situsCity":"EASTPOINT","situsZip":"32328","jurisdictionCode":null,"ownerName":"CAUSEY JUSTIN ALEXANDER","ownerName2":null,"propertyName":null,"zoningCode":null,"zoningDistrict":null,"jurisdictionPrefix":null,"dorCode":"000","acreage":8.5371,"centroid":[-85.009305,29.943895],"lastSale":{"date":null,"price":null,"qualified":null},"tax":{"marketValue":87650.0,"assessedValue":87650.0,"taxableValue":87650.0,"taxes":null},"mailingAddress":{"line1":"SMITH WYNDOLYN","line2":"76 SCHOOL ROAD","city":"EASTPOINT","state":"FL","zip":"32328"},"incomeTract":null,"incomeBlockGroup":null,"nearestRoad":null,"flu":null,"opportunityZone":null,"oz2Eligibility":null,"source":"fl-franklin-parcels-2023-12037","gisViewerUrl":"https://gis.arpc.org/arcgis/apps/webappviewer/index.html?id=959fb7cf8450449987d52f296b6dde0e","appraiserUrl":"https://franklin-search.gsacorp.io/parcel/08W06S23000000200025"},"geometry":{"type":"Polygon","coordinates":[[[-85.00939,29.944864],[-85.009404,29.944268],[-85.010131,29.94439],[-85.010133,29.942866],[-85.008376,29.942492],[-85.008397,29.944489],[-85.00939,29.944864]]]}},{"type":"Feature","id":"12037:2306S08W000000200060","properties":{"id":"12037:2306S08W000000200060","parcelId":"2306S08W000000200060","countyFips":"12037","countyName":"Franklin","state":"Florida","marketIds":["Big Bend"],"situsAddress":"688 BRICKYARD RD","situsCity":"EATPOINT","situsZip":"32328","jurisdictionCode":null,"ownerName":"BROWN DEBBIE","ownerName2":null,"propertyName":null,"zoningCode":null,"zoningDistrict":null,"jurisdictionPrefix":null,"dorCode":"001","acreage":27.3821,"centroid":[-85.010593,29.941969],"lastSale":{"date":null,"price":null,"qualified":null},"tax":{"marketValue":315999.0,"assessedValue":275270.0,"taxableValue":250270.0,"taxes":null},"mailingAddress":{"line1":"688 BRICKYARD RD","line2":null,"city":"BRISTOL","state":"FL","zip":"32321"},"incomeTract":null,"incomeBlockGroup":null,"nearestRoad":null,"flu":null,"opportunityZone":null,"oz2Eligibility":null,"source":"fl-franklin-parcels-2023-12037","gisViewerUrl":"https://gis.arpc.org/arcgis/apps/webappviewer/index.html?id=959fb7cf8450449987d52f296b6dde0e","appraiserUrl":"https://franklin-search.gsacorp.io/parcel/08W06S23000000200060"},"geometry":{"type":"Polygon","coordinates":[[[-85.007115,29.942224],[-85.008376,29.942492],[-85.010867,29.943022],[-85.012904,29.942637],[-85.01281,29.942042],[-85.0128,29.941583],[-85.01274,29.940895],[-85.007135,29.940857],[-85.007115,29.942224]]]}},{"type":"Feature","id":"12037:2306S08W000000200022","properties":{"id":"12037:2306S08W000000200022","parcelId":"2306S08W000000200022","countyFips":"12037","countyName":"Franklin","state":"Florida","marketIds":["Big Bend"],"situsAddress":"BRICKYARD RD","situsCity":"EASTPOINT","situsZip":"32328","jurisdictionCode":null,"ownerName":"DAVIS BENNIE E \"SONNY\" &","ownerName2":null,"propertyName":null,"zoningCode":null,"zoningDistrict":null,"jurisdictionPrefix":null,"dorCode":"000","acreage":5.0606,"centroid":[-85.010844,29.943687],"lastSale":{"date":null,"price":null,"qualified":null},"tax":{"marketValue":25000.0,"assessedValue":25000.0,"taxableValue":25000.0,"taxes":null},"mailingAddress":{"line1":"DAVIS TERESA P AS CO-TRUSTEES","line2":"AND ETAL","city":"COTTONDALE","state":"FL","zip":"32431"},"incomeTract":null,"incomeBlockGroup":null,"nearestRoad":null,"flu":null,"opportunityZone":null,"oz2Eligibility":null,"source":"fl-franklin-parcels-2023-12037","gisViewerUrl":"https://gis.arpc.org/arcgis/apps/webappviewer/index.html?id=959fb7cf8450449987d52f296b6dde0e","appraiserUrl":"https://franklin-search.gsacorp.io/parcel/08W06S23000000200022"},"geometry":{"type":"Polygon","coordinates":[[[-85.011747,29.944348],[-85.011242,29.943526],[-85.010946,29.943575],[-85.010867,29.943022],[-85.010133,29.942866],[-85.010131,29.944788],[-85.011747,29.944348]]]}},{"type":"Feature","id":"12037:2208S08W000000110000","properties":{"id":"12037:2208S08W000000110000","parcelId":"2208S08W000000110000","countyFips":"12037","countyName":"Franklin","state":"Florida","marketIds":["Big Bend"],"situsAddress":null,"situsCity":"APALACHICOLA","situsZip":"32320","jurisdictionCode":null,"ownerName":"CSC REALTY, LLC","ownerName2":null,"propertyName":null,"zoningCode":null,"zoningDistrict":null,"jurisdictionPrefix":null,"dorCode":"001","acreage":5.7282,"centroid":[-85.035989,29.764155],"lastSale":{"date":null,"price":null,"qualified":null},"tax":{"marketValue":649592.0,"assessedValue":649592.0,"taxableValue":649592.0,"taxes":null},"mailingAddress":{"line1":"305 HUCKEBA DRIVE","line2":null,"city":"APALACHICOLA","state":"FL","zip":"32320"},"incomeTract":null,"incomeBlockGroup":null,"nearestRoad":null,"flu":null,"opportunityZone":null,"oz2Eligibility":null,"source":"fl-franklin-parcels-2023-12037","gisViewerUrl":"https://gis.arpc.org/arcgis/apps/webappviewer/index.html?id=959fb7cf8450449987d52f296b6dde0e","appraiserUrl":"https://franklin-search.gsacorp.io/parcel/08W08S22000000110000"},"geometry":{"type":"Polygon","coordinates":[[[-85.035886,29.76342],[-85.035711,29.763484],[-85.035488,29.763565],[-85.035217,29.764827],[-85.035918,29.764927],[-85.036238,29.764937],[-85.03658,29.765022],[-85.036873,29.763058],[-85.035886,29.76342]]]}},{"type":"Feature","id":"12037:2108S08W000000500000","properties":{"id":"12037:2108S08W000000500000","parcelId":"2108S08W000000500000","countyFips":"12037","countyName":"Franklin","state":"Florida","marketIds":["Big Bend"],"situsAddress":"2975 PINHOOK RD","situsCity":"APALACHICOLA","situsZip":"32320","jurisdictionCode":null,"ownerName":"MCGOUGH JOHN J JR LIVING TRUST","ownerName2":null,"propertyName":null,"zoningCode":null,"zoningDistrict":null,"jurisdictionPrefix":null,"dorCode":"056","acreage":16.4508,"centroid":[-85.047518,29.773623],"lastSale":{"date":null,"price":null,"qualified":null},"tax":{"marketValue":68750.0,"assessedValue":21725.0,"taxableValue":21725.0,"taxes":null},"mailingAddress":{"line1":"PO BOX 13","line2":null,"city":"SHELL","state":"WY","zip":"82441"},"incomeTract":null,"incomeBlockGroup":null,"nearestRoad":null,"flu":null,"opportunityZone":null,"oz2Eligibility":null,"source":"fl-franklin-parcels-2023-12037","gisViewerUrl":"https://gis.arpc.org/arcgis/apps/webappviewer/index.html?id=959fb7cf8450449987d52f296b6dde0e","appraiserUrl":"https://franklin-search.gsacorp.io/parcel/08W08S21000000500000"},"geometry":{"type":"Polygon","coordinates":[[[-85.046508,29.771338],[-85.045323,29.771356],[-85.045702,29.771951],[-85.046577,29.773102],[-85.047138,29.773998],[-85.047885,29.77475],[-85.048159,29.775146],[-85.04925,29.776191],[-85.050185,29.775306],[-85.04834,29.773888],[-85.047632,29.77283],[-85.046508,29.771338]]]}},{"type":"Feature","id":"12037:2708S08W000000600000","properties":{"id":"12037:2708S08W000000600000","parcelId":"2708S08W000000600000","countyFips":"12037","countyName":"Franklin","state":"Florida","marketIds":["Big Bend"],"situsAddress":"556 BAY CITY RD","situsCity":"APALACHICOLA","situsZip":"32320","jurisdictionCode":null,"ownerName":"MARKS C A III & NINA","ownerName2":null,"propertyName":null,"zoningCode":null,"zoningDistrict":null,"jurisdictionPrefix":null,"dorCode":"001","acreage":24.45,"centroid":[-85.022972,29.754877],"lastSale":{"date":null,"price":null,"qualified":null},"tax":{"marketValue":355960.0,"assessedValue":355960.0,"taxableValue":355960.0,"taxes":null},"mailingAddress":{"line1":"2709 BLUFF ROAD","line2":null,"city":"APALACHICOLA","state":"FL","zip":"32320"},"incomeTract":null,"incomeBlockGroup":null,"nearestRoad":null,"flu":null,"opportunityZone":null,"oz2Eligibility":null,"source":"fl-franklin-parcels-2023-12037","gisViewerUrl":"https://gis.arpc.org/arcgis/apps/webappviewer/index.html?id=959fb7cf8450449987d52f296b6dde0e","appraiserUrl":"https://franklin-search.gsacorp.io/parcel/08W08S27000000600000"},"geometry":{"type":"Polygon","coordinates":[[[-85.020866,29.754115],[-85.020868,29.754665],[-85.020871,29.755236],[-85.02201,29.755241],[-85.022027,29.75704],[-85.022191,29.757059],[-85.022306,29.756778],[-85.022362,29.756718],[-85.023054,29.756279],[-85.022944,29.756105],[-85.022932,29.756005],[-85.023002,29.755927],[-85.023359,29.755854],[-85.02349,29.755778],[-85.023577,29.755626],[-85.023544,29.755484],[-85.023473,29.755347],[-85.023469,29.755166],[-85.023586,29.755173],[-85.023772,29.755243],[-85.023879,29.755358],[-85.024038,29.75534],[-85.024317,29.755217],[-85.02428,29.754931],[-85.024193,29.754627],[-85.024179,29.754483],[-85.024282,29.754339],[-85.024525,29.754265],[-85.024496,29.754086],[-85.024533,29.753959],[-85.024526,29.753735],[-85.02482,29.752922],[-85.022906,29.752923],[-85.022912,29.75408],[-85.022123,29.754083],[-85.022117,29.752921],[-85.02078,29.752918],[-85.02076,29.75315],[-85.02066,29.753458],[-85.020861,29.753456],[-85.020866,29.754115]]]}},{"type":"Feature","id":"12037:2708S08W000000200070","properties":{"id":"12037:2708S08W000000200070","parcelId":"2708S08W000000200070","countyFips":"12037","countyName":"Franklin","state":"Florida","marketIds":["Big Bend"],"situsAddress":null,"situsCity":null,"situsZip":"32320","jurisdictionCode":null,"ownerName":"SHIVER MALLORIE MICHELE","ownerName2":null,"propertyName":null,"zoningCode":null,"zoningDistrict":null,"jurisdictionPrefix":null,"dorCode":"000","acreage":5.0003,"centroid":[-85.030821,29.750817],"lastSale":{"date":null,"price":null,"qualified":null},"tax":{"marketValue":110250.0,"assessedValue":110250.0,"taxableValue":110250.0,"taxes":null},"mailingAddress":{"line1":"407 BROWNSVILLE ROAD","line2":null,"city":"APALACHICOLA","state":"FL","zip":"32320"},"incomeTract":null,"incomeBlockGroup":null,"nearestRoad":null,"flu":null,"opportunityZone":null,"oz2Eligibility":null,"source":"fl-franklin-parcels-2023-12037","gisViewerUrl":"https://gis.arpc.org/arcgis/apps/webappviewer/index.html?id=959fb7cf8450449987d52f296b6dde0e","appraiserUrl":"https://franklin-search.gsacorp.io/parcel/08W08S27000000200070"},"geometry":{"type":"Polygon","coordinates":[[[-85.029584,29.750363],[-85.029998,29.751304],[-85.031562,29.751636],[-85.031489,29.75043],[-85.03147,29.750352],[-85.029584,29.750363]]]}},{"type":"Feature","id":"12037:2108S08W000000300000","properties":{"id":"12037:2108S08W000000300000","parcelId":"2108S08W000000300000","countyFips":"12037","countyName":"Franklin","state":"Florida","marketIds":["Big Bend"],"situsAddress":"2709 BLUFF RD","situsCity":null,"situsZip":"32320","jurisdictionCode":null,"ownerName":"MARKS CHARLES A III","ownerName2":null,"propertyName":null,"zoningCode":null,"zoningDistrict":null,"jurisdictionPrefix":null,"dorCode":"001","acreage":5.147,"centroid":[-85.042571,29.765496],"lastSale":{"date":null,"price":null,"qualified":null},"tax":{"marketValue":546809.0,"assessedValue":203910.0,"taxableValue":178910.0,"taxes":null},"mailingAddress":{"line1":"AS TRUSTEE","line2":"2709 BLUFF ROAD","city":"APALACHICOLA","state":"FL","zip":"32329"},"incomeTract":null,"incomeBlockGroup":null,"nearestRoad":null,"flu":null,"opportunityZone":null,"oz2Eligibility":null,"source":"fl-franklin-parcels-2023-12037","gisViewerUrl":"https://gis.arpc.org/arcgis/apps/webappviewer/index.html?id=959fb7cf8450449987d52f296b6dde0e","appraiserUrl":"https://franklin-search.gsacorp.io/parcel/08W08S21000000300000"},"geometry":{"type":"Polygon","coordinates":[[[-85.043047,29.764614],[-85.042064,29.765753],[-85.041284,29.766755],[-85.041782,29.767162],[-85.043356,29.765335],[-85.043344,29.7643],[-85.043119,29.764556],[-85.043047,29.764614]]]}}]}