{"type":"FeatureCollection","name":"37025-8_34","features":[{"type":"Feature","id":"37025:46649299320000","properties":{"id":"37025:46649299320000","parcelId":"46649299320000","countyFips":"37025","countyName":"Cabarrus","state":"North Carolina","marketIds":["Charlotte"],"situsAddress":"11788 SUGAR HILL RD DAVIDSON NC 28036","situsCity":"DAVIDSON","situsZip":"28036","jurisdictionCode":"Cabarrus County","ownerName":"HART STEPHEN D CO-TRUSTEE","ownerName2":"HART JOHN H CO-TRUSTEE","propertyName":null,"zoningCode":"AO","zoningDistrict":"Cabarrus County","jurisdictionPrefix":null,"dorCode":null,"acreage":89.8998,"centroid":[-80.781374,35.502939],"lastSale":{"date":"2026-02-01","price":null,"qualified":"E"},"tax":{"marketValue":1986600.0,"assessedValue":25080.0,"taxableValue":null,"taxes":null},"mailingAddress":{"line1":"PO BOX 57","line2":null,"city":"MOORESVILLE","state":"NC","zip":"28115"},"incomeTract":null,"incomeBlockGroup":null,"nearestRoad":null,"flu":null,"opportunityZone":null,"oz2Eligibility":null,"appraiserUrl":"https://tax.cabarruscounty.us/BasicSearch.aspx","dataGaps":["Situs is not on Tax_Parcels polygons; it is joined from AA ParcelAddresses by PIN14. gis.cabarruscounty.us redirects to the map and is not the REST host.","No countywide future land use service. Concord 2030 and Kannapolis Character Areas are joined. Harrisburg, Midland, Mount Pleasant, Locust, and the Huntersville edge have no public FLU layer.","Zoning joined on 6976 of 6983 parcels. Situs joined on 6187. Future land use joined on 1363 (Concord and Kannapolis only)."],"source":"nc-cabarrus-tax-parcels-37025"},"geometry":{"type":"MultiPolygon","coordinates":[[[[-80.777218,35.500748],[-80.777238,35.500791],[-80.778007,35.502377],[-80.778318,35.502959],[-80.777643,35.50393],[-80.777321,35.505996],[-80.784281,35.506026],[-80.784218,35.505977],[-80.784236,35.505933],[-80.784388,35.505792],[-80.784362,35.505686],[-80.784391,35.505597],[-80.784552,35.505408],[-80.784718,35.505152],[-80.784956,35.504669],[-80.785106,35.504304],[-80.785367,35.503808],[-80.785537,35.503585],[-80.785726,35.503017],[-80.785864,35.502714],[-80.785865,35.502677],[-80.783958,35.502086],[-80.781279,35.501343],[-80.780985,35.501269],[-80.777103,35.500478],[-80.776256,35.498497],[-80.775914,35.498522],[-80.776695,35.500235],[-80.776899,35.50025],[-80.777052,35.500584],[-80.777152,35.500709],[-80.777218,35.500748]]],[[[-80.772102,35.505587],[-80.770839,35.505622],[-80.770801,35.505967],[-80.773654,35.50598],[-80.772377,35.50558],[-80.772102,35.505587]]],[[[-80.774301,35.505445],[-80.774305,35.505671],[-80.774311,35.505983],[-80.775828,35.505989],[-80.774295,35.505167],[-80.774301,35.505445]]]]}},{"type":"Feature","id":"37025:46743310370000","properties":{"id":"37025:46743310370000","parcelId":"46743310370000","countyFips":"37025","countyName":"Cabarrus","state":"North Carolina","marketIds":["Charlotte"],"situsAddress":"12005 MOORESVILLE RD DAVIDSON NC 28036","situsCity":"DAVIDSON","situsZip":"28036","jurisdictionCode":"Cabarrus County","ownerName":"EDWARDS MARY ANN TRUSTEE","ownerName2":"EDWARDS JANE W","propertyName":null,"zoningCode":"AO","zoningDistrict":"Cabarrus County","jurisdictionPrefix":null,"dorCode":null,"acreage":52.6841,"centroid":[-80.772017,35.504463],"lastSale":{"date":"2009-12-01","price":null,"qualified":"E"},"tax":{"marketValue":2079950.0,"assessedValue":458490.0,"taxableValue":null,"taxes":null},"mailingAddress":{"line1":"C/O L DAVID EDWARDS","line2":"11903 MOORESVILLE RD","city":"DAVIDSON","state":"NC","zip":"28036"},"incomeTract":null,"incomeBlockGroup":null,"nearestRoad":null,"flu":null,"opportunityZone":null,"oz2Eligibility":null,"appraiserUrl":"https://tax.cabarruscounty.us/BasicSearch.aspx","dataGaps":["Situs is not on Tax_Parcels polygons; it is joined from AA ParcelAddresses by PIN14. gis.cabarruscounty.us redirects to the map and is not the REST host.","No countywide future land use service. Concord 2030 and Kannapolis Character Areas are joined. Harrisburg, Midland, Mount Pleasant, Locust, and the Huntersville edge have no public FLU layer.","Zoning joined on 6976 of 6983 parcels. Situs joined on 6187. Future land use joined on 1363 (Concord and Kannapolis only)."],"source":"nc-cabarrus-tax-parcels-37025"},"geometry":{"type":"MultiPolygon","coordinates":[[[[-80.772896,35.505742],[-80.773049,35.50579],[-80.773654,35.50598],[-80.774311,35.505983],[-80.774295,35.505167],[-80.774119,35.504726],[-80.77314,35.502637],[-80.772217,35.502568],[-80.770971,35.502445],[-80.77007,35.502122],[-80.769238,35.502014],[-80.768507,35.505313],[-80.7707,35.505254],[-80.770713,35.505623],[-80.772377,35.50558],[-80.772896,35.505742]]],[[[-80.767803,35.503042],[-80.7678,35.503042],[-80.765851,35.503413],[-80.766561,35.505187],[-80.768314,35.505255],[-80.76863,35.503741],[-80.768916,35.502517],[-80.767813,35.502489],[-80.767803,35.503042]]]]}},{"type":"Feature","id":"37025:46741275460000","properties":{"id":"37025:46741275460000","parcelId":"46741275460000","countyFips":"37025","countyName":"Cabarrus","state":"North Carolina","marketIds":["Charlotte"],"situsAddress":"11951 MOORESVILLE RD DAVIDSON NC 28036","situsCity":"DAVIDSON","situsZip":"28036","jurisdictionCode":"Cabarrus County","ownerName":"EDWARDS JANE W","ownerName2":null,"propertyName":null,"zoningCode":"AO","zoningDistrict":"Cabarrus County","jurisdictionPrefix":null,"dorCode":null,"acreage":52.1675,"centroid":[-80.774292,35.502834],"lastSale":{"date":"1985-11-01","price":25000.0,"qualified":"Q"},"tax":{"marketValue":1365040.0,"assessedValue":403960.0,"taxableValue":null,"taxes":null},"mailingAddress":{"line1":"12037 MOORESVILLE RD","line2":null,"city":"DAVIDSON","state":"NC","zip":"28036"},"incomeTract":null,"incomeBlockGroup":null,"nearestRoad":null,"flu":null,"opportunityZone":null,"oz2Eligibility":null,"appraiserUrl":"https://tax.cabarruscounty.us/BasicSearch.aspx","dataGaps":["Situs is not on Tax_Parcels polygons; it is joined from AA ParcelAddresses by PIN14. gis.cabarruscounty.us redirects to the map and is not the REST host.","No countywide future land use service. Concord 2030 and Kannapolis Character Areas are joined. Harrisburg, Midland, Mount Pleasant, Locust, and the Huntersville edge have no public FLU layer.","Zoning joined on 6976 of 6983 parcels. Situs joined on 6187. Future land use joined on 1363 (Concord and Kannapolis only)."],"source":"nc-cabarrus-tax-parcels-37025"},"geometry":{"type":"Polygon","coordinates":[[[-80.775828,35.505989],[-80.777321,35.505996],[-80.777643,35.50393],[-80.778318,35.502959],[-80.778237,35.502807],[-80.775956,35.501967],[-80.775549,35.501326],[-80.77501,35.500854],[-80.771347,35.500716],[-80.771205,35.500997],[-80.771145,35.501301],[-80.77115,35.501838],[-80.7712,35.502461],[-80.771507,35.502504],[-80.77314,35.502637],[-80.774119,35.504726],[-80.774295,35.505167],[-80.775828,35.505989]]]}},{"type":"Feature","id":"37025:46747255650000","properties":{"id":"37025:46747255650000","parcelId":"46747255650000","countyFips":"37025","countyName":"Cabarrus","state":"North Carolina","marketIds":["Charlotte"],"situsAddress":"10573 ARCHER RD DAVIDSON NC 28036","situsCity":"DAVIDSON","situsZip":"28036","jurisdictionCode":"Cabarrus County","ownerName":"PIROLLI DAMION JAMES","ownerName2":null,"propertyName":null,"zoningCode":"AO","zoningDistrict":"Cabarrus County","jurisdictionPrefix":null,"dorCode":null,"acreage":25.9484,"centroid":[-80.754882,35.502885],"lastSale":{"date":"2021-09-01","price":2750000.0,"qualified":"A"},"tax":{"marketValue":2226320.0,"assessedValue":2226320.0,"taxableValue":null,"taxes":null},"mailingAddress":{"line1":"10573 ARCHER RD","line2":null,"city":"DAVIDSON","state":"NC","zip":"28036"},"incomeTract":null,"incomeBlockGroup":null,"nearestRoad":null,"flu":null,"opportunityZone":null,"oz2Eligibility":null,"appraiserUrl":"https://tax.cabarruscounty.us/BasicSearch.aspx","dataGaps":["Situs is not on Tax_Parcels polygons; it is joined from AA ParcelAddresses by PIN14. gis.cabarruscounty.us redirects to the map and is not the REST host.","No countywide future land use service. Concord 2030 and Kannapolis Character Areas are joined. Harrisburg, Midland, Mount Pleasant, Locust, and the Huntersville edge have no public FLU layer.","Zoning joined on 6976 of 6983 parcels. Situs joined on 6187. Future land use joined on 1363 (Concord and Kannapolis only)."],"source":"nc-cabarrus-tax-parcels-37025"},"geometry":{"type":"Polygon","coordinates":[[[-80.753109,35.504102],[-80.753147,35.504103],[-80.755798,35.504174],[-80.757313,35.504258],[-80.757415,35.501905],[-80.755195,35.500971],[-80.754494,35.500906],[-80.754225,35.502573],[-80.753246,35.502975],[-80.753109,35.504102]]]}},{"type":"Feature","id":"37025:46744240710000","properties":{"id":"37025:46744240710000","parcelId":"46744240710000","countyFips":"37025","countyName":"Cabarrus","state":"North Carolina","marketIds":["Charlotte"],"situsAddress":"10905 EARNHARDT LAKE RD DAVIDSON NC 28036","situsCity":"DAVIDSON","situsZip":"28036","jurisdictionCode":"Cabarrus County","ownerName":"WAYNE JEREMY LEE","ownerName2":"MANN RHONDA WAYNE","propertyName":null,"zoningCode":"AO","zoningDistrict":"Cabarrus County","jurisdictionPrefix":null,"dorCode":null,"acreage":25.8382,"centroid":[-80.764554,35.50113],"lastSale":{"date":"2018-11-01","price":null,"qualified":"E"},"tax":{"marketValue":854130.0,"assessedValue":172270.0,"taxableValue":null,"taxes":null},"mailingAddress":{"line1":"10909 EARNHARDT LAKE RD","line2":null,"city":"DAVIDSON","state":"NC","zip":"28036"},"incomeTract":null,"incomeBlockGroup":null,"nearestRoad":null,"flu":null,"opportunityZone":null,"oz2Eligibility":null,"appraiserUrl":"https://tax.cabarruscounty.us/BasicSearch.aspx","dataGaps":["Situs is not on Tax_Parcels polygons; it is joined from AA ParcelAddresses by PIN14. gis.cabarruscounty.us redirects to the map and is not the REST host.","No countywide future land use service. Concord 2030 and Kannapolis Character Areas are joined. Harrisburg, Midland, Mount Pleasant, Locust, and the Huntersville edge have no public FLU layer.","Zoning joined on 6976 of 6983 parcels. Situs joined on 6187. Future land use joined on 1363 (Concord and Kannapolis only)."],"source":"nc-cabarrus-tax-parcels-37025"},"geometry":{"type":"Polygon","coordinates":[[[-80.762169,35.50221],[-80.762384,35.502367],[-80.763684,35.502379],[-80.767813,35.502489],[-80.767809,35.50153],[-80.767042,35.50042],[-80.766354,35.500429],[-80.76527,35.498822],[-80.764508,35.498833],[-80.764606,35.49948],[-80.764278,35.501245],[-80.763192,35.50069],[-80.763247,35.501795],[-80.763007,35.502069],[-80.762949,35.502198],[-80.762169,35.50221]]]}},{"type":"Feature","id":"37025:46649200750000","properties":{"id":"37025:46649200750000","parcelId":"46649200750000","countyFips":"37025","countyName":"Cabarrus","state":"North Carolina","marketIds":["Charlotte"],"situsAddress":"11916 SUGAR HILL RD DAVIDSON NC 28036","situsCity":"DAVIDSON","situsZip":"28036","jurisdictionCode":"Cabarrus County","ownerName":"KEEVER DIANE M","ownerName2":"KEEVER M DOYLE HSB","propertyName":null,"zoningCode":"AO","zoningDistrict":"Cabarrus County","jurisdictionPrefix":null,"dorCode":null,"acreage":23.26,"centroid":[-80.784076,35.500499],"lastSale":{"date":null,"price":null,"qualified":null},"tax":{"marketValue":396510.0,"assessedValue":396510.0,"taxableValue":null,"taxes":null},"mailingAddress":{"line1":"11926 SUGARHILL RD","line2":null,"city":"DAVIDSON","state":"NC","zip":"28036"},"incomeTract":null,"incomeBlockGroup":null,"nearestRoad":null,"flu":null,"opportunityZone":null,"oz2Eligibility":null,"appraiserUrl":"https://tax.cabarruscounty.us/BasicSearch.aspx","dataGaps":["Situs is not on Tax_Parcels polygons; it is joined from AA ParcelAddresses by PIN14. gis.cabarruscounty.us redirects to the map and is not the REST host.","No countywide future land use service. Concord 2030 and Kannapolis Character Areas are joined. Harrisburg, Midland, Mount Pleasant, Locust, and the Huntersville edge have no public FLU layer.","Zoning joined on 6976 of 6983 parcels. Situs joined on 6187. Future land use joined on 1363 (Concord and Kannapolis only)."],"source":"nc-cabarrus-tax-parcels-37025"},"geometry":{"type":"Polygon","coordinates":[[[-80.781595,35.501422],[-80.781595,35.501431],[-80.783958,35.502086],[-80.785865,35.502677],[-80.785845,35.502325],[-80.785887,35.502063],[-80.78608,35.501371],[-80.786102,35.500995],[-80.78614,35.500895],[-80.786268,35.500737],[-80.78629,35.50067],[-80.78629,35.500246],[-80.786334,35.500067],[-80.785455,35.499899],[-80.782392,35.500236],[-80.782553,35.499425],[-80.782836,35.49922],[-80.78252,35.499368],[-80.782215,35.499441],[-80.782028,35.499406],[-80.781935,35.499333],[-80.781828,35.499122],[-80.781737,35.499047],[-80.781595,35.501422]]]}},{"type":"Feature","id":"37025:46742108200000","properties":{"id":"37025:46742108200000","parcelId":"46742108200000","countyFips":"37025","countyName":"Cabarrus","state":"North Carolina","marketIds":["Charlotte"],"situsAddress":"11839 MOORESVILLE RD DAVIDSON NC 28036","situsCity":"DAVIDSON","situsZip":"28036","jurisdictionCode":"Cabarrus County","ownerName":"LAMBERT RHONDA A","ownerName2":"LAMBERT DAVID REECE HSB","propertyName":null,"zoningCode":"AO","zoningDistrict":"Cabarrus County","jurisdictionPrefix":null,"dorCode":null,"acreage":20.7573,"centroid":[-80.777483,35.502433],"lastSale":{"date":"2016-12-01","price":190000.0,"qualified":"U"},"tax":{"marketValue":1162070.0,"assessedValue":1162070.0,"taxableValue":null,"taxes":null},"mailingAddress":{"line1":"6340 WRIGHT RD","line2":null,"city":"KANNAPOLIS","state":"NC","zip":"28081"},"incomeTract":null,"incomeBlockGroup":null,"nearestRoad":null,"flu":null,"opportunityZone":null,"oz2Eligibility":null,"appraiserUrl":"https://tax.cabarruscounty.us/BasicSearch.aspx","dataGaps":["Situs is not on Tax_Parcels polygons; it is joined from AA ParcelAddresses by PIN14. gis.cabarruscounty.us redirects to the map and is not the REST host.","No countywide future land use service. Concord 2030 and Kannapolis Character Areas are joined. Harrisburg, Midland, Mount Pleasant, Locust, and the Huntersville edge have no public FLU layer.","Zoning joined on 6976 of 6983 parcels. Situs joined on 6187. Future land use joined on 1363 (Concord and Kannapolis only)."],"source":"nc-cabarrus-tax-parcels-37025"},"geometry":{"type":"Polygon","coordinates":[[[-80.77501,35.500854],[-80.775549,35.501326],[-80.775956,35.501967],[-80.778237,35.502807],[-80.778007,35.502377],[-80.777211,35.500732],[-80.777152,35.500709],[-80.777052,35.500584],[-80.776899,35.50025],[-80.770764,35.499899],[-80.769724,35.499804],[-80.769555,35.500549],[-80.77055,35.500562],[-80.770906,35.500707],[-80.77501,35.500854]]]}},{"type":"Feature","id":"37025:46747107890000","properties":{"id":"37025:46747107890000","parcelId":"46747107890000","countyFips":"37025","countyName":"Cabarrus","state":"North Carolina","marketIds":["Charlotte"],"situsAddress":"10672 EARNHARDT LAKE RD DAVIDSON NC 28036","situsCity":"DAVIDSON","situsZip":"28036","jurisdictionCode":"Cabarrus County","ownerName":"ELLENBURG JESSIE HANCOCK TRUSTEE","ownerName2":null,"propertyName":null,"zoningCode":"AO","zoningDistrict":"Cabarrus County","jurisdictionPrefix":null,"dorCode":null,"acreage":14.573,"centroid":[-80.757472,35.500843],"lastSale":{"date":"2018-09-01","price":null,"qualified":"E"},"tax":{"marketValue":668420.0,"assessedValue":668420.0,"taxableValue":null,"taxes":null},"mailingAddress":{"line1":"10676 EARNHARDT LAKE RD","line2":null,"city":"DAVIDSON","state":"NC","zip":"28036"},"incomeTract":null,"incomeBlockGroup":null,"nearestRoad":null,"flu":null,"opportunityZone":null,"oz2Eligibility":null,"appraiserUrl":"https://tax.cabarruscounty.us/BasicSearch.aspx","dataGaps":["Situs is not on Tax_Parcels polygons; it is joined from AA ParcelAddresses by PIN14. gis.cabarruscounty.us redirects to the map and is not the REST host.","No countywide future land use service. Concord 2030 and Kannapolis Character Areas are joined. Harrisburg, Midland, Mount Pleasant, Locust, and the Huntersville edge have no public FLU layer.","Zoning joined on 6976 of 6983 parcels. Situs joined on 6187. Future land use joined on 1363 (Concord and Kannapolis only)."],"source":"nc-cabarrus-tax-parcels-37025"},"geometry":{"type":"Polygon","coordinates":[[[-80.756283,35.501431],[-80.757415,35.501905],[-80.758848,35.501965],[-80.758787,35.501569],[-80.760687,35.501472],[-80.759097,35.500676],[-80.758744,35.501126],[-80.757431,35.500552],[-80.757884,35.500003],[-80.757778,35.499941],[-80.757278,35.500479],[-80.75628,35.499914],[-80.755781,35.499727],[-80.754593,35.500913],[-80.755195,35.500971],[-80.756283,35.501431]]]}},{"type":"Feature","id":"37025:46744365050000","properties":{"id":"37025:46744365050000","parcelId":"46744365050000","countyFips":"37025","countyName":"Cabarrus","state":"North Carolina","marketIds":["Charlotte"],"situsAddress":"10994 ARCHER RD DAVIDSON NC 28036","situsCity":"DAVIDSON","situsZip":"28036","jurisdictionCode":"Cabarrus County","ownerName":"GOODMAN ALAN F","ownerName2":null,"propertyName":null,"zoningCode":"AO","zoningDistrict":"Cabarrus County","jurisdictionPrefix":null,"dorCode":null,"acreage":14.5531,"centroid":[-80.766253,35.504921],"lastSale":{"date":null,"price":null,"qualified":null},"tax":{"marketValue":520300.0,"assessedValue":96790.0,"taxableValue":null,"taxes":null},"mailingAddress":{"line1":"13000 MOORESVILLE RD","line2":null,"city":"DAVIDSON","state":"NC","zip":"28036"},"incomeTract":null,"incomeBlockGroup":null,"nearestRoad":null,"flu":null,"opportunityZone":null,"oz2Eligibility":null,"appraiserUrl":"https://tax.cabarruscounty.us/BasicSearch.aspx","dataGaps":["Situs is not on Tax_Parcels polygons; it is joined from AA ParcelAddresses by PIN14. gis.cabarruscounty.us redirects to the map and is not the REST host.","No countywide future land use service. Concord 2030 and Kannapolis Character Areas are joined. Harrisburg, Midland, Mount Pleasant, Locust, and the Huntersville edge have no public FLU layer.","Zoning joined on 6976 of 6983 parcels. Situs joined on 6187. Future land use joined on 1363 (Concord and Kannapolis only)."],"source":"nc-cabarrus-tax-parcels-37025"},"geometry":{"type":"MultiPolygon","coordinates":[[[[-80.767856,35.505689],[-80.768212,35.505719],[-80.768314,35.505255],[-80.766561,35.505187],[-80.766197,35.504277],[-80.765416,35.504265],[-80.765192,35.503778],[-80.764031,35.503759],[-80.764769,35.504358],[-80.765281,35.504728],[-80.765916,35.505228],[-80.766216,35.505399],[-80.766643,35.505583],[-80.766938,35.505673],[-80.767856,35.505689]]],[[[-80.764783,35.50594],[-80.765285,35.505943],[-80.768161,35.505955],[-80.768185,35.505842],[-80.767575,35.505785],[-80.767012,35.505793],[-80.76686,35.505773],[-80.766723,35.505732],[-80.766262,35.505548],[-80.765966,35.505395],[-80.76583,35.505313],[-80.765224,35.50484],[-80.764293,35.504951],[-80.764783,35.50594]]],[[[-80.76853,35.505312],[-80.768507,35.505313],[-80.768363,35.505956],[-80.770801,35.505967],[-80.770839,35.505622],[-80.770713,35.505623],[-80.7707,35.505254],[-80.76853,35.505312]]]]}},{"type":"Feature","id":"37025:46746204850000","properties":{"id":"37025:46746204850000","parcelId":"46746204850000","countyFips":"37025","countyName":"Cabarrus","state":"North Carolina","marketIds":["Charlotte"],"situsAddress":"10824 EARNHARDT LAKE RD DAVIDSON NC 28036","situsCity":"DAVIDSON","situsZip":"28036","jurisdictionCode":"Cabarrus County","ownerName":"HOLLAR PAUL NELSON JR","ownerName2":"HOLLAR JOAN MCALLISTER WF","propertyName":null,"zoningCode":"AO","zoningDistrict":"Cabarrus County","jurisdictionPrefix":null,"dorCode":null,"acreage":13.2824,"centroid":[-80.760335,35.502408],"lastSale":{"date":"2023-11-01","price":null,"qualified":"E"},"tax":{"marketValue":565990.0,"assessedValue":565990.0,"taxableValue":null,"taxes":null},"mailingAddress":{"line1":"10824 EARNHARDT LAKE RD","line2":null,"city":"DAVIDSON","state":"NC","zip":"28036"},"incomeTract":null,"incomeBlockGroup":null,"nearestRoad":null,"flu":null,"opportunityZone":null,"oz2Eligibility":null,"appraiserUrl":"https://tax.cabarruscounty.us/BasicSearch.aspx","dataGaps":["Situs is not on Tax_Parcels polygons; it is joined from AA ParcelAddresses by PIN14. gis.cabarruscounty.us redirects to the map and is not the REST host.","No countywide future land use service. Concord 2030 and Kannapolis Character Areas are joined. Harrisburg, Midland, Mount Pleasant, Locust, and the Huntersville edge have no public FLU layer.","Zoning joined on 6976 of 6983 parcels. Situs joined on 6187. Future land use joined on 1363 (Concord and Kannapolis only)."],"source":"nc-cabarrus-tax-parcels-37025"},"geometry":{"type":"Polygon","coordinates":[[[-80.758848,35.501965],[-80.758857,35.502018],[-80.759254,35.503514],[-80.760484,35.503419],[-80.762058,35.50321],[-80.762219,35.502393],[-80.761824,35.502116],[-80.760687,35.501472],[-80.758787,35.501569],[-80.758848,35.501965]]]}},{"type":"Feature","id":"37025:46747354330000","properties":{"id":"37025:46747354330000","parcelId":"46747354330000","countyFips":"37025","countyName":"Cabarrus","state":"North Carolina","marketIds":["Charlotte"],"situsAddress":"10530 ARCHER RD DAVIDSON NC 28036","situsCity":"DAVIDSON","situsZip":"28036","jurisdictionCode":"Cabarrus County","ownerName":"THE HEALING CHAMBER LLC","ownerName2":null,"propertyName":null,"zoningCode":"AO","zoningDistrict":"Cabarrus County","jurisdictionPrefix":null,"dorCode":null,"acreage":11.5351,"centroid":[-80.755546,35.50499],"lastSale":{"date":"2024-05-01","price":3600000.0,"qualified":"M"},"tax":{"marketValue":375380.0,"assessedValue":375380.0,"taxableValue":null,"taxes":null},"mailingAddress":{"line1":"10600 ARCHER RD","line2":null,"city":"DAVIDSON","state":"NC","zip":"28036"},"incomeTract":null,"incomeBlockGroup":null,"nearestRoad":null,"flu":null,"opportunityZone":null,"oz2Eligibility":null,"appraiserUrl":"https://tax.cabarruscounty.us/BasicSearch.aspx","dataGaps":["Situs is not on Tax_Parcels polygons; it is joined from AA ParcelAddresses by PIN14. gis.cabarruscounty.us redirects to the map and is not the REST host.","No countywide future land use service. Concord 2030 and Kannapolis Character Areas are joined. Harrisburg, Midland, Mount Pleasant, Locust, and the Huntersville edge have no public FLU layer.","Zoning joined on 6976 of 6983 parcels. Situs joined on 6187. Future land use joined on 1363 (Concord and Kannapolis only)."],"source":"nc-cabarrus-tax-parcels-37025"},"geometry":{"type":"Polygon","coordinates":[[[-80.75379,35.505891],[-80.756761,35.505904],[-80.757321,35.505907],[-80.757317,35.504424],[-80.755889,35.504344],[-80.755865,35.504949],[-80.754521,35.504913],[-80.754547,35.504296],[-80.7539,35.504282],[-80.75379,35.505891]]]}},{"type":"Feature","id":"37025:46748272120000","properties":{"id":"37025:46748272120000","parcelId":"46748272120000","countyFips":"37025","countyName":"Cabarrus","state":"North Carolina","marketIds":["Charlotte"],"situsAddress":"10195 ARCHER RD DAVIDSON NC 28036","situsCity":"DAVIDSON","situsZip":"28036","jurisdictionCode":"Cabarrus County","ownerName":"CJT PROPERTIES OF DAVIDSON LLC","ownerName2":null,"propertyName":null,"zoningCode":"AO","zoningDistrict":"Cabarrus County","jurisdictionPrefix":null,"dorCode":null,"acreage":10.4673,"centroid":[-80.751329,35.502685],"lastSale":{"date":"2018-04-01","price":null,"qualified":"E"},"tax":{"marketValue":430920.0,"assessedValue":430920.0,"taxableValue":null,"taxes":null},"mailingAddress":{"line1":"6441 BROWNHILL DR","line2":null,"city":"DAVIDSON","state":"NC","zip":"28036"},"incomeTract":null,"incomeBlockGroup":null,"nearestRoad":null,"flu":null,"opportunityZone":null,"oz2Eligibility":null,"appraiserUrl":"https://tax.cabarruscounty.us/BasicSearch.aspx","dataGaps":["Situs is not on Tax_Parcels polygons; it is joined from AA ParcelAddresses by PIN14. gis.cabarruscounty.us redirects to the map and is not the REST host.","No countywide future land use service. Concord 2030 and Kannapolis Character Areas are joined. Harrisburg, Midland, Mount Pleasant, Locust, and the Huntersville edge have no public FLU layer.","Zoning joined on 6976 of 6983 parcels. Situs joined on 6187. Future land use joined on 1363 (Concord and Kannapolis only)."],"source":"nc-cabarrus-tax-parcels-37025"},"geometry":{"type":"Polygon","coordinates":[[[-80.750916,35.50406],[-80.751,35.504062],[-80.751101,35.504064],[-80.750993,35.503236],[-80.752274,35.503163],[-80.752551,35.500778],[-80.752079,35.50077],[-80.750643,35.500662],[-80.750784,35.502382],[-80.750951,35.503678],[-80.750916,35.50406]]]}},{"type":"Feature","id":"37025:46748393450000","properties":{"id":"37025:46748393450000","parcelId":"46748393450000","countyFips":"37025","countyName":"Cabarrus","state":"North Carolina","marketIds":["Charlotte"],"situsAddress":"10250 ARCHER RD DAVIDSON NC 28036","situsCity":"DAVIDSON","situsZip":"28036","jurisdictionCode":"Cabarrus County","ownerName":"STACEY GLENDA W","ownerName2":null,"propertyName":null,"zoningCode":"AO","zoningDistrict":"Cabarrus County","jurisdictionPrefix":null,"dorCode":null,"acreage":9.7815,"centroid":[-80.750865,35.505302],"lastSale":{"date":null,"price":null,"qualified":null},"tax":{"marketValue":401850.0,"assessedValue":401850.0,"taxableValue":null,"taxes":null},"mailingAddress":{"line1":"10330 ARCHER RD","line2":null,"city":"DAVIDSON","state":"NC","zip":"28036"},"incomeTract":null,"incomeBlockGroup":null,"nearestRoad":null,"flu":null,"opportunityZone":null,"oz2Eligibility":null,"appraiserUrl":"https://tax.cabarruscounty.us/BasicSearch.aspx","dataGaps":["Situs is not on Tax_Parcels polygons; it is joined from AA ParcelAddresses by PIN14. gis.cabarruscounty.us redirects to the map and is not the REST host.","No countywide future land use service. Concord 2030 and Kannapolis Character Areas are joined. Harrisburg, Midland, Mount Pleasant, Locust, and the Huntersville edge have no public FLU layer.","Zoning joined on 6976 of 6983 parcels. Situs joined on 6187. Future land use joined on 1363 (Concord and Kannapolis only)."],"source":"nc-cabarrus-tax-parcels-37025"},"geometry":{"type":"Polygon","coordinates":[[[-80.751792,35.505882],[-80.75187,35.505882],[-80.752501,35.505184],[-80.752022,35.505149],[-80.752084,35.504249],[-80.750116,35.504208],[-80.750143,35.504812],[-80.749832,35.504909],[-80.749684,35.505202],[-80.749212,35.505585],[-80.749029,35.505869],[-80.751124,35.505879],[-80.751241,35.505823],[-80.751458,35.505597],[-80.751792,35.505882]]]}},{"type":"Feature","id":"37025:46743261710000","properties":{"id":"37025:46743261710000","parcelId":"46743261710000","countyFips":"37025","countyName":"Cabarrus","state":"North Carolina","marketIds":["Charlotte"],"situsAddress":"11884 MOORESVILLE RD DAVIDSON NC 28036","situsCity":"DAVIDSON","situsZip":"28036","jurisdictionCode":"Cabarrus County","ownerName":"HERITAGE PROPERTY MANAGEMENT","ownerName2":"LLC","propertyName":null,"zoningCode":"AO","zoningDistrict":"Cabarrus County","jurisdictionPrefix":null,"dorCode":null,"acreage":7.8458,"centroid":[-80.768295,35.501688],"lastSale":{"date":"2012-10-01","price":null,"qualified":"A"},"tax":{"marketValue":590940.0,"assessedValue":590940.0,"taxableValue":null,"taxes":null},"mailingAddress":{"line1":"11903 MOORESVILLE RD","line2":null,"city":"DAVIDSON","state":"NC","zip":"28036"},"incomeTract":null,"incomeBlockGroup":null,"nearestRoad":null,"flu":null,"opportunityZone":null,"oz2Eligibility":null,"appraiserUrl":"https://tax.cabarruscounty.us/BasicSearch.aspx","dataGaps":["Situs is not on Tax_Parcels polygons; it is joined from AA ParcelAddresses by PIN14. gis.cabarruscounty.us redirects to the map and is not the REST host.","No countywide future land use service. Concord 2030 and Kannapolis Character Areas are joined. Harrisburg, Midland, Mount Pleasant, Locust, and the Huntersville edge have no public FLU layer.","Zoning joined on 6976 of 6983 parcels. Situs joined on 6187. Future land use joined on 1363 (Concord and Kannapolis only)."],"source":"nc-cabarrus-tax-parcels-37025"},"geometry":{"type":"Polygon","coordinates":[[[-80.767813,35.502489],[-80.768469,35.502506],[-80.768541,35.502242],[-80.768994,35.502238],[-80.769394,35.500388],[-80.767042,35.50042],[-80.767809,35.50153],[-80.767813,35.502489]]]}},{"type":"Feature","id":"37025:46745187700000","properties":{"id":"37025:46745187700000","parcelId":"46745187700000","countyFips":"37025","countyName":"Cabarrus","state":"North Carolina","marketIds":["Charlotte"],"situsAddress":"10791 EARNHARDT LAKE RD DAVIDSON NC 28036","situsCity":"DAVIDSON","situsZip":"28036","jurisdictionCode":"Cabarrus County","ownerName":"GOODNIGHT TRENA C TRUSTEE","ownerName2":null,"propertyName":null,"zoningCode":"AO","zoningDistrict":"Cabarrus County","jurisdictionPrefix":null,"dorCode":null,"acreage":6.7543,"centroid":[-80.761059,35.500714],"lastSale":{"date":"2023-12-01","price":null,"qualified":"E"},"tax":{"marketValue":264130.0,"assessedValue":264130.0,"taxableValue":null,"taxes":null},"mailingAddress":{"line1":"8907 MOORESVILLE RD","line2":null,"city":"CONCORD","state":"NC","zip":"28027"},"incomeTract":null,"incomeBlockGroup":null,"nearestRoad":null,"flu":null,"opportunityZone":null,"oz2Eligibility":null,"appraiserUrl":"https://tax.cabarruscounty.us/BasicSearch.aspx","dataGaps":["Situs is not on Tax_Parcels polygons; it is joined from AA ParcelAddresses by PIN14. gis.cabarruscounty.us redirects to the map and is not the REST host.","No countywide future land use service. Concord 2030 and Kannapolis Character Areas are joined. Harrisburg, Midland, Mount Pleasant, Locust, and the Huntersville edge have no public FLU layer.","Zoning joined on 6976 of 6983 parcels. Situs joined on 6187. Future land use joined on 1363 (Concord and Kannapolis only)."],"source":"nc-cabarrus-tax-parcels-37025"},"geometry":{"type":"Polygon","coordinates":[[[-80.761254,35.500935],[-80.761814,35.501225],[-80.76246,35.500311],[-80.760861,35.499419],[-80.759669,35.50084],[-80.760447,35.501224],[-80.760763,35.500768],[-80.761201,35.500991],[-80.761254,35.500935]]]}},{"type":"Feature","id":"37025:46743200890000","properties":{"id":"37025:46743200890000","parcelId":"46743200890000","countyFips":"37025","countyName":"Cabarrus","state":"North Carolina","marketIds":["Charlotte"],"situsAddress":"11881 MOORESVILLE RD DAVIDSON NC 28036","situsCity":"DAVIDSON","situsZip":"28036","jurisdictionCode":"Cabarrus County","ownerName":"EDWARDS JANE W","ownerName2":null,"propertyName":null,"zoningCode":"AO","zoningDistrict":"Cabarrus County","jurisdictionPrefix":null,"dorCode":null,"acreage":6.3093,"centroid":[-80.770488,35.501554],"lastSale":{"date":"1991-07-01","price":100500.0,"qualified":"U"},"tax":{"marketValue":265680.0,"assessedValue":2080.0,"taxableValue":null,"taxes":null},"mailingAddress":{"line1":"12037 MOORESVILLE RD","line2":null,"city":"DAVIDSON","state":"NC","zip":"28036"},"incomeTract":null,"incomeBlockGroup":null,"nearestRoad":null,"flu":null,"opportunityZone":null,"oz2Eligibility":null,"appraiserUrl":"https://tax.cabarruscounty.us/BasicSearch.aspx","dataGaps":["Situs is not on Tax_Parcels polygons; it is joined from AA ParcelAddresses by PIN14. gis.cabarruscounty.us redirects to the map and is not the REST host.","No countywide future land use service. Concord 2030 and Kannapolis Character Areas are joined. Harrisburg, Midland, Mount Pleasant, Locust, and the Huntersville edge have no public FLU layer.","Zoning joined on 6976 of 6983 parcels. Situs joined on 6187. Future land use joined on 1363 (Concord and Kannapolis only)."],"source":"nc-cabarrus-tax-parcels-37025"},"geometry":{"type":"Polygon","coordinates":[[[-80.770971,35.502445],[-80.771146,35.502464],[-80.77121,35.50247],[-80.771172,35.502252],[-80.771135,35.50148],[-80.771145,35.501301],[-80.771205,35.500997],[-80.771347,35.500716],[-80.770906,35.500707],[-80.77055,35.500562],[-80.769555,35.500549],[-80.769406,35.501253],[-80.770043,35.501344],[-80.769908,35.501905],[-80.769281,35.501829],[-80.769238,35.502014],[-80.77007,35.502122],[-80.770971,35.502445]]]}},{"type":"Feature","id":"37025:46746267250000","properties":{"id":"37025:46746267250000","parcelId":"46746267250000","countyFips":"37025","countyName":"Cabarrus","state":"North Carolina","marketIds":["Charlotte"],"situsAddress":"10685 ARCHER RD DAVIDSON NC 28036","situsCity":"DAVIDSON","situsZip":"28036","jurisdictionCode":"Cabarrus County","ownerName":"GOODE ALLISON J","ownerName2":null,"propertyName":null,"zoningCode":"AO","zoningDistrict":"Cabarrus County","jurisdictionPrefix":null,"dorCode":null,"acreage":6.1448,"centroid":[-80.758674,35.50341],"lastSale":{"date":"2022-05-01","price":null,"qualified":"E"},"tax":{"marketValue":399900.0,"assessedValue":399900.0,"taxableValue":null,"taxes":null},"mailingAddress":{"line1":"10685 ARCHER RD","line2":null,"city":"DAVIDSON","state":"NC","zip":"28036"},"incomeTract":null,"incomeBlockGroup":null,"nearestRoad":null,"flu":null,"opportunityZone":null,"oz2Eligibility":null,"appraiserUrl":"https://tax.cabarruscounty.us/BasicSearch.aspx","dataGaps":["Situs is not on Tax_Parcels polygons; it is joined from AA ParcelAddresses by PIN14. gis.cabarruscounty.us redirects to the map and is not the REST host.","No countywide future land use service. Concord 2030 and Kannapolis Character Areas are joined. Harrisburg, Midland, Mount Pleasant, Locust, and the Huntersville edge have no public FLU layer.","Zoning joined on 6976 of 6983 parcels. Situs joined on 6187. Future land use joined on 1363 (Concord and Kannapolis only)."],"source":"nc-cabarrus-tax-parcels-37025"},"geometry":{"type":"Polygon","coordinates":[[[-80.75813,35.504326],[-80.758727,35.50438],[-80.7595,35.504438],[-80.758848,35.501965],[-80.758165,35.501939],[-80.75813,35.504326]]]}}]}