{"type":"FeatureCollection","name":"47079--22_38","features":[{"type":"Feature","id":"47079:040002    00100","properties":{"id":"47079:040002    00100","parcelId":"040002    00100","countyFips":"47079","countyName":"Henry","state":"Tennessee","marketIds":["Memphis"],"situsAddress":"STATE LINE RD","situsCity":null,"situsZip":null,"jurisdictionCode":null,"ownerName":"MILLER WILLIAM FERREL","ownerName2":"LIVING TRUST","propertyName":null,"zoningCode":null,"zoningDistrict":null,"jurisdictionPrefix":null,"dorCode":null,"acreage":21.7067,"centroid":[-88.475017,36.500609],"lastSale":{"date":"2011-11-15","price":null,"qualified":null,"vintage":"2023"},"tax":{"marketValue":24000.0,"assessedValue":null,"taxableValue":null,"taxes":null,"vintage":"2023"},"mailingAddress":{"line1":null,"line2":null,"city":null,"state":null,"zip":null},"incomeTract":null,"incomeBlockGroup":null,"nearestRoad":null,"flu":null,"opportunityZone":null,"oz2Eligibility":null,"source":"tn-oir-public-use-47079","appraiserUrl":"https://assessment.cot.tn.gov/TPAD/Parcel/GIS?gislink=040002%20%20%20%2000100"},"geometry":{"type":"Polygon","coordinates":[[[-88.472761,36.500144],[-88.472611,36.501046],[-88.474298,36.501046],[-88.474597,36.50105],[-88.47515,36.501036],[-88.475563,36.501033],[-88.476249,36.501039],[-88.476912,36.501032],[-88.477232,36.501038],[-88.477291,36.499062],[-88.472527,36.499178],[-88.472761,36.500144]]]}},{"type":"Feature","id":"47079:040010    03101","properties":{"id":"47079:040010    03101","parcelId":"040010    03101","countyFips":"47079","countyName":"Henry","state":"Tennessee","marketIds":["Memphis"],"situsAddress":"STATE LINE RD 2917","situsCity":null,"situsZip":null,"jurisdictionCode":null,"ownerName":"UNDERWOOD HOBART","ownerName2":"C/O WANDA SNOW","propertyName":null,"zoningCode":null,"zoningDistrict":null,"jurisdictionPrefix":null,"dorCode":null,"acreage":17.7141,"centroid":[-88.380236,36.500341],"lastSale":{"date":"1990-02-20","price":null,"qualified":null,"vintage":"2023"},"tax":{"marketValue":143900.0,"assessedValue":null,"taxableValue":null,"taxes":null,"vintage":"2023"},"mailingAddress":{"line1":null,"line2":null,"city":null,"state":null,"zip":null},"incomeTract":null,"incomeBlockGroup":null,"nearestRoad":null,"flu":null,"opportunityZone":null,"oz2Eligibility":null,"source":"tn-oir-public-use-47079","appraiserUrl":"https://assessment.cot.tn.gov/TPAD/Parcel/GIS?gislink=040010%20%20%20%2003101"},"geometry":{"type":"MultiPolygon","coordinates":[[[[-88.379929,36.500483],[-88.379934,36.500569],[-88.380357,36.500569],[-88.380363,36.500371],[-88.380384,36.500181],[-88.38042,36.499992],[-88.380468,36.499808],[-88.380502,36.499706],[-88.380539,36.499641],[-88.380596,36.499578],[-88.380631,36.49955],[-88.380672,36.499524],[-88.380679,36.499148],[-88.379659,36.499145],[-88.379687,36.496783],[-88.376709,36.496749],[-88.376721,36.49948],[-88.378107,36.499469],[-88.378085,36.498454],[-88.379459,36.498438],[-88.379446,36.499283],[-88.380396,36.499292],[-88.380385,36.500043],[-88.379906,36.500036],[-88.379929,36.500483]]],[[[-88.380504,36.500086],[-88.380483,36.50021],[-88.38047,36.500324],[-88.380461,36.500449],[-88.380459,36.500569],[-88.380752,36.500569],[-88.380737,36.500071],[-88.380506,36.500074],[-88.380504,36.500086]]]]}},{"type":"Feature","id":"47079:040002    00300","properties":{"id":"47079:040002    00300","parcelId":"040002    00300","countyFips":"47079","countyName":"Henry","state":"Tennessee","marketIds":["Memphis"],"situsAddress":"S OF STATE LINE RD","situsCity":null,"situsZip":null,"jurisdictionCode":null,"ownerName":"CATHEY JOHN BLANE ETUX","ownerName2":"CATHY J","propertyName":null,"zoningCode":null,"zoningDistrict":null,"jurisdictionPrefix":null,"dorCode":null,"acreage":13.576,"centroid":[-88.458131,36.500206],"lastSale":{"date":"1991-04-02","price":5500.0,"qualified":null,"vintage":"2023"},"tax":{"marketValue":151600.0,"assessedValue":null,"taxableValue":null,"taxes":null,"vintage":"2023"},"mailingAddress":{"line1":null,"line2":null,"city":null,"state":null,"zip":null},"incomeTract":null,"incomeBlockGroup":null,"nearestRoad":null,"flu":null,"opportunityZone":null,"oz2Eligibility":null,"source":"tn-oir-public-use-47079","appraiserUrl":"https://assessment.cot.tn.gov/TPAD/Parcel/GIS?gislink=040002%20%20%20%2000300"},"geometry":{"type":"Polygon","coordinates":[[[-88.460763,36.501047],[-88.460858,36.499459],[-88.457413,36.499415],[-88.457334,36.499686],[-88.457261,36.49996],[-88.457194,36.500231],[-88.457132,36.500505],[-88.457615,36.500505],[-88.45761,36.501047],[-88.460763,36.501047]]]}}]}