{"type":"FeatureCollection","name":"13315--1_19","features":[{"type":"Feature","id":"13315:083    002","properties":{"id":"13315:083    002","parcelId":"083    002","countyFips":"13315","countyName":"Wilcox","state":"Georgia","marketIds":["Macon"],"situsAddress":null,"situsCity":null,"situsZip":null,"jurisdictionCode":null,"ownerName":null,"ownerName2":null,"propertyName":null,"zoningCode":null,"zoningDistrict":null,"jurisdictionPrefix":null,"dorCode":null,"acreage":63.7529,"centroid":[-83.22915,31.937654],"lastSale":{"date":null,"price":null,"qualified":null},"tax":{"marketValue":null,"assessedValue":null,"taxableValue":null,"taxes":null},"mailingAddress":{"line1":null,"line2":null,"city":null,"state":null,"zip":null},"incomeTract":null,"incomeBlockGroup":null,"nearestRoad":null,"flu":null,"opportunityZone":null,"oz2Eligibility":null,"source":"ga-wilcox-parcels-13315","appraiserUrl":"https://qpublic.schneidercorp.com/Application.aspx?App=WilcoxCountyGA&Layer=Parcels&PageType=Report&KeyValue=083%20%20%20%20002","gisViewerUrl":"https://www.arcgis.com/apps/mapviewer/index.html?url=https://services5.arcgis.com/HHvUPZ2XuLOAJxjR/arcgis/rest/services/Wilcox_County_Wide_View/FeatureServer"},"geometry":{"type":"Polygon","coordinates":[[[-83.233554,31.935],[-83.227162,31.935055],[-83.226441,31.935937],[-83.226318,31.9365],[-83.226252,31.937718],[-83.226677,31.938354],[-83.227412,31.93857],[-83.228342,31.938284],[-83.22934,31.937923],[-83.230292,31.938038],[-83.231183,31.938557],[-83.232744,31.939665],[-83.23323,31.939903],[-83.233554,31.935]]]}},{"type":"Feature","id":"13315:084    003","properties":{"id":"13315:084    003","parcelId":"084    003","countyFips":"13315","countyName":"Wilcox","state":"Georgia","marketIds":["Macon"],"situsAddress":null,"situsCity":null,"situsZip":null,"jurisdictionCode":null,"ownerName":null,"ownerName2":null,"propertyName":null,"zoningCode":null,"zoningDistrict":null,"jurisdictionPrefix":null,"dorCode":null,"acreage":104.6981,"centroid":[-83.232675,31.903481],"lastSale":{"date":null,"price":null,"qualified":null},"tax":{"marketValue":null,"assessedValue":null,"taxableValue":null,"taxes":null},"mailingAddress":{"line1":null,"line2":null,"city":null,"state":null,"zip":null},"incomeTract":null,"incomeBlockGroup":null,"nearestRoad":null,"flu":null,"opportunityZone":null,"oz2Eligibility":null,"source":"ga-wilcox-parcels-13315","appraiserUrl":"https://qpublic.schneidercorp.com/Application.aspx?App=WilcoxCountyGA&Layer=Parcels&PageType=Report&KeyValue=084%20%20%20%20003","gisViewerUrl":"https://www.arcgis.com/apps/mapviewer/index.html?url=https://services5.arcgis.com/HHvUPZ2XuLOAJxjR/arcgis/rest/services/Wilcox_County_Wide_View/FeatureServer"},"geometry":{"type":"Polygon","coordinates":[[[-83.230959,31.897138],[-83.231204,31.909821],[-83.23433,31.909813],[-83.234208,31.897151],[-83.230959,31.897138]]]}},{"type":"Feature","id":"13315:084    006","properties":{"id":"13315:084    006","parcelId":"084    006","countyFips":"13315","countyName":"Wilcox","state":"Georgia","marketIds":["Macon"],"situsAddress":null,"situsCity":null,"situsZip":null,"jurisdictionCode":null,"ownerName":null,"ownerName2":null,"propertyName":null,"zoningCode":null,"zoningDistrict":null,"jurisdictionPrefix":null,"dorCode":null,"acreage":9.1005,"centroid":[-83.248615,31.905446],"lastSale":{"date":null,"price":null,"qualified":null},"tax":{"marketValue":null,"assessedValue":null,"taxableValue":null,"taxes":null},"mailingAddress":{"line1":null,"line2":null,"city":null,"state":null,"zip":null},"incomeTract":null,"incomeBlockGroup":null,"nearestRoad":null,"flu":null,"opportunityZone":null,"oz2Eligibility":null,"source":"ga-wilcox-parcels-13315","appraiserUrl":"https://qpublic.schneidercorp.com/Application.aspx?App=WilcoxCountyGA&Layer=Parcels&PageType=Report&KeyValue=084%20%20%20%20006","gisViewerUrl":"https://www.arcgis.com/apps/mapviewer/index.html?url=https://services5.arcgis.com/HHvUPZ2XuLOAJxjR/arcgis/rest/services/Wilcox_County_Wide_View/FeatureServer"},"geometry":{"type":"Polygon","coordinates":[[[-83.247808,31.905467],[-83.24928,31.906967],[-83.249355,31.907044],[-83.249316,31.904505],[-83.248176,31.904477],[-83.248166,31.904732],[-83.248207,31.904932],[-83.247808,31.905467]]]}},{"type":"Feature","id":"13315:084    009","properties":{"id":"13315:084    009","parcelId":"084    009","countyFips":"13315","countyName":"Wilcox","state":"Georgia","marketIds":["Macon"],"situsAddress":null,"situsCity":null,"situsZip":null,"jurisdictionCode":null,"ownerName":null,"ownerName2":null,"propertyName":null,"zoningCode":null,"zoningDistrict":null,"jurisdictionPrefix":null,"dorCode":null,"acreage":5.1981,"centroid":[-83.243089,31.900144],"lastSale":{"date":null,"price":null,"qualified":null},"tax":{"marketValue":null,"assessedValue":null,"taxableValue":null,"taxes":null},"mailingAddress":{"line1":null,"line2":null,"city":null,"state":null,"zip":null},"incomeTract":null,"incomeBlockGroup":null,"nearestRoad":null,"flu":null,"opportunityZone":null,"oz2Eligibility":null,"source":"ga-wilcox-parcels-13315","appraiserUrl":"https://qpublic.schneidercorp.com/Application.aspx?App=WilcoxCountyGA&Layer=Parcels&PageType=Report&KeyValue=084%20%20%20%20009","gisViewerUrl":"https://www.arcgis.com/apps/mapviewer/index.html?url=https://services5.arcgis.com/HHvUPZ2XuLOAJxjR/arcgis/rest/services/Wilcox_County_Wide_View/FeatureServer"},"geometry":{"type":"Polygon","coordinates":[[[-83.243896,31.901468],[-83.243802,31.899395],[-83.242159,31.899669],[-83.2425,31.900043],[-83.243896,31.901468]]]}},{"type":"Feature","id":"13315:085    001","properties":{"id":"13315:085    001","parcelId":"085    001","countyFips":"13315","countyName":"Wilcox","state":"Georgia","marketIds":["Macon"],"situsAddress":null,"situsCity":null,"situsZip":null,"jurisdictionCode":null,"ownerName":null,"ownerName2":null,"propertyName":null,"zoningCode":null,"zoningDistrict":null,"jurisdictionPrefix":null,"dorCode":null,"acreage":105.7279,"centroid":[-83.243697,31.897142],"lastSale":{"date":null,"price":null,"qualified":null},"tax":{"marketValue":null,"assessedValue":null,"taxableValue":null,"taxes":null},"mailingAddress":{"line1":null,"line2":null,"city":null,"state":null,"zip":null},"incomeTract":null,"incomeBlockGroup":null,"nearestRoad":null,"flu":null,"opportunityZone":null,"oz2Eligibility":null,"source":"ga-wilcox-parcels-13315","appraiserUrl":"https://qpublic.schneidercorp.com/Application.aspx?App=WilcoxCountyGA&Layer=Parcels&PageType=Report&KeyValue=085%20%20%20%20001","gisViewerUrl":"https://www.arcgis.com/apps/mapviewer/index.html?url=https://services5.arcgis.com/HHvUPZ2XuLOAJxjR/arcgis/rest/services/Wilcox_County_Wide_View/FeatureServer"},"geometry":{"type":"MultiPolygon","coordinates":[[[[-83.249422,31.895586],[-83.249182,31.895784],[-83.247454,31.897205],[-83.24945,31.897183],[-83.249459,31.895569],[-83.249422,31.895586]]],[[[-83.248969,31.893941],[-83.239455,31.893981],[-83.240365,31.896675],[-83.240688,31.897437],[-83.241081,31.898175],[-83.24138,31.898651],[-83.241709,31.899113],[-83.242065,31.899559],[-83.244756,31.899086],[-83.245059,31.898951],[-83.24942,31.895431],[-83.249418,31.894706],[-83.248969,31.893941]]]]}},{"type":"Feature","id":"13315:085    003","properties":{"id":"13315:085    003","parcelId":"085    003","countyFips":"13315","countyName":"Wilcox","state":"Georgia","marketIds":["Macon"],"situsAddress":null,"situsCity":null,"situsZip":null,"jurisdictionCode":null,"ownerName":null,"ownerName2":null,"propertyName":null,"zoningCode":null,"zoningDistrict":null,"jurisdictionPrefix":null,"dorCode":null,"acreage":5.3487,"centroid":[-83.229134,31.883338],"lastSale":{"date":null,"price":null,"qualified":null},"tax":{"marketValue":null,"assessedValue":null,"taxableValue":null,"taxes":null},"mailingAddress":{"line1":null,"line2":null,"city":null,"state":null,"zip":null},"incomeTract":null,"incomeBlockGroup":null,"nearestRoad":null,"flu":null,"opportunityZone":null,"oz2Eligibility":null,"source":"ga-wilcox-parcels-13315","appraiserUrl":"https://qpublic.schneidercorp.com/Application.aspx?App=WilcoxCountyGA&Layer=Parcels&PageType=Report&KeyValue=085%20%20%20%20003","gisViewerUrl":"https://www.arcgis.com/apps/mapviewer/index.html?url=https://services5.arcgis.com/HHvUPZ2XuLOAJxjR/arcgis/rest/services/Wilcox_County_Wide_View/FeatureServer"},"geometry":{"type":"Polygon","coordinates":[[[-83.227983,31.883336],[-83.22917,31.883389],[-83.229172,31.883934],[-83.230252,31.88393],[-83.23024,31.882648],[-83.227988,31.882794],[-83.227983,31.883336]]]}},{"type":"Feature","id":"13315:085    004","properties":{"id":"13315:085    004","parcelId":"085    004","countyFips":"13315","countyName":"Wilcox","state":"Georgia","marketIds":["Macon"],"situsAddress":null,"situsCity":null,"situsZip":null,"jurisdictionCode":null,"ownerName":null,"ownerName2":null,"propertyName":null,"zoningCode":null,"zoningDistrict":null,"jurisdictionPrefix":null,"dorCode":null,"acreage":94.9833,"centroid":[-83.231353,31.885723],"lastSale":{"date":null,"price":null,"qualified":null},"tax":{"marketValue":null,"assessedValue":null,"taxableValue":null,"taxes":null},"mailingAddress":{"line1":null,"line2":null,"city":null,"state":null,"zip":null},"incomeTract":null,"incomeBlockGroup":null,"nearestRoad":null,"flu":null,"opportunityZone":null,"oz2Eligibility":null,"source":"ga-wilcox-parcels-13315","appraiserUrl":"https://qpublic.schneidercorp.com/Application.aspx?App=WilcoxCountyGA&Layer=Parcels&PageType=Report&KeyValue=085%20%20%20%20004","gisViewerUrl":"https://www.arcgis.com/apps/mapviewer/index.html?url=https://services5.arcgis.com/HHvUPZ2XuLOAJxjR/arcgis/rest/services/Wilcox_County_Wide_View/FeatureServer"},"geometry":{"type":"Polygon","coordinates":[[[-83.233093,31.884078],[-83.230164,31.884085],[-83.230139,31.88393],[-83.227977,31.883939],[-83.227916,31.890025],[-83.23423,31.89002],[-83.234172,31.884848],[-83.233133,31.884861],[-83.233093,31.884078]]]}},{"type":"Feature","id":"13315:085    006","properties":{"id":"13315:085    006","parcelId":"085    006","countyFips":"13315","countyName":"Wilcox","state":"Georgia","marketIds":["Macon"],"situsAddress":null,"situsCity":null,"situsZip":null,"jurisdictionCode":null,"ownerName":null,"ownerName2":null,"propertyName":null,"zoningCode":null,"zoningDistrict":null,"jurisdictionPrefix":null,"dorCode":null,"acreage":72.7723,"centroid":[-83.236189,31.887075],"lastSale":{"date":null,"price":null,"qualified":null},"tax":{"marketValue":null,"assessedValue":null,"taxableValue":null,"taxes":null},"mailingAddress":{"line1":null,"line2":null,"city":null,"state":null,"zip":null},"incomeTract":null,"incomeBlockGroup":null,"nearestRoad":null,"flu":null,"opportunityZone":null,"oz2Eligibility":null,"source":"ga-wilcox-parcels-13315","appraiserUrl":"https://qpublic.schneidercorp.com/Application.aspx?App=WilcoxCountyGA&Layer=Parcels&PageType=Report&KeyValue=085%20%20%20%20006","gisViewerUrl":"https://www.arcgis.com/apps/mapviewer/index.html?url=https://services5.arcgis.com/HHvUPZ2XuLOAJxjR/arcgis/rest/services/Wilcox_County_Wide_View/FeatureServer"},"geometry":{"type":"MultiPolygon","coordinates":[[[[-83.239051,31.884054],[-83.236454,31.884003],[-83.236983,31.886213],[-83.237259,31.887255],[-83.238765,31.88726],[-83.238789,31.886457],[-83.239551,31.886434],[-83.239574,31.887263],[-83.24098,31.887267],[-83.24105,31.884149],[-83.239051,31.884054]]],[[[-83.23423,31.89002],[-83.237134,31.890017],[-83.23696,31.889465],[-83.237541,31.889476],[-83.237037,31.88807],[-83.236471,31.886313],[-83.23619,31.884834],[-83.236134,31.884421],[-83.23603,31.884059],[-83.234163,31.884074],[-83.23423,31.89002]]]]}},{"type":"Feature","id":"13315:085    008","properties":{"id":"13315:085    008","parcelId":"085    008","countyFips":"13315","countyName":"Wilcox","state":"Georgia","marketIds":["Macon"],"situsAddress":null,"situsCity":null,"situsZip":null,"jurisdictionCode":null,"ownerName":null,"ownerName2":null,"propertyName":null,"zoningCode":null,"zoningDistrict":null,"jurisdictionPrefix":null,"dorCode":null,"acreage":6.7913,"centroid":[-83.239172,31.887615],"lastSale":{"date":null,"price":null,"qualified":null},"tax":{"marketValue":null,"assessedValue":null,"taxableValue":null,"taxes":null},"mailingAddress":{"line1":null,"line2":null,"city":null,"state":null,"zip":null},"incomeTract":null,"incomeBlockGroup":null,"nearestRoad":null,"flu":null,"opportunityZone":null,"oz2Eligibility":null,"source":"ga-wilcox-parcels-13315","appraiserUrl":"https://qpublic.schneidercorp.com/Application.aspx?App=WilcoxCountyGA&Layer=Parcels&PageType=Report&KeyValue=085%20%20%20%20008","gisViewerUrl":"https://www.arcgis.com/apps/mapviewer/index.html?url=https://services5.arcgis.com/HHvUPZ2XuLOAJxjR/arcgis/rest/services/Wilcox_County_Wide_View/FeatureServer"},"geometry":{"type":"Polygon","coordinates":[[[-83.24098,31.887267],[-83.237259,31.887255],[-83.237484,31.888016],[-83.240966,31.887923],[-83.24098,31.887267]]]}},{"type":"Feature","id":"13315:085    009","properties":{"id":"13315:085    009","parcelId":"085    009","countyFips":"13315","countyName":"Wilcox","state":"Georgia","marketIds":["Macon"],"situsAddress":null,"situsCity":null,"situsZip":null,"jurisdictionCode":null,"ownerName":null,"ownerName2":null,"propertyName":null,"zoningCode":null,"zoningDistrict":null,"jurisdictionPrefix":null,"dorCode":null,"acreage":6.0205,"centroid":[-83.239271,31.888305],"lastSale":{"date":null,"price":null,"qualified":null},"tax":{"marketValue":null,"assessedValue":null,"taxableValue":null,"taxes":null},"mailingAddress":{"line1":null,"line2":null,"city":null,"state":null,"zip":null},"incomeTract":null,"incomeBlockGroup":null,"nearestRoad":null,"flu":null,"opportunityZone":null,"oz2Eligibility":null,"source":"ga-wilcox-parcels-13315","appraiserUrl":"https://qpublic.schneidercorp.com/Application.aspx?App=WilcoxCountyGA&Layer=Parcels&PageType=Report&KeyValue=085%20%20%20%20009","gisViewerUrl":"https://www.arcgis.com/apps/mapviewer/index.html?url=https://services5.arcgis.com/HHvUPZ2XuLOAJxjR/arcgis/rest/services/Wilcox_County_Wide_View/FeatureServer"},"geometry":{"type":"Polygon","coordinates":[[[-83.240966,31.887923],[-83.237484,31.888016],[-83.237685,31.888655],[-83.24095,31.888624],[-83.240966,31.887923]]]}},{"type":"Feature","id":"13315:085    010","properties":{"id":"13315:085    010","parcelId":"085    010","countyFips":"13315","countyName":"Wilcox","state":"Georgia","marketIds":["Macon"],"situsAddress":null,"situsCity":null,"situsZip":null,"jurisdictionCode":null,"ownerName":null,"ownerName2":null,"propertyName":null,"zoningCode":null,"zoningDistrict":null,"jurisdictionPrefix":null,"dorCode":null,"acreage":5.7021,"centroid":[-83.239369,31.888981],"lastSale":{"date":null,"price":null,"qualified":null},"tax":{"marketValue":null,"assessedValue":null,"taxableValue":null,"taxes":null},"mailingAddress":{"line1":null,"line2":null,"city":null,"state":null,"zip":null},"incomeTract":null,"incomeBlockGroup":null,"nearestRoad":null,"flu":null,"opportunityZone":null,"oz2Eligibility":null,"source":"ga-wilcox-parcels-13315","appraiserUrl":"https://qpublic.schneidercorp.com/Application.aspx?App=WilcoxCountyGA&Layer=Parcels&PageType=Report&KeyValue=085%20%20%20%20010","gisViewerUrl":"https://www.arcgis.com/apps/mapviewer/index.html?url=https://services5.arcgis.com/HHvUPZ2XuLOAJxjR/arcgis/rest/services/Wilcox_County_Wide_View/FeatureServer"},"geometry":{"type":"Polygon","coordinates":[[[-83.24095,31.888624],[-83.237685,31.888655],[-83.237909,31.889329],[-83.240934,31.889315],[-83.24095,31.888624]]]}},{"type":"Feature","id":"13315:085    011","properties":{"id":"13315:085    011","parcelId":"085    011","countyFips":"13315","countyName":"Wilcox","state":"Georgia","marketIds":["Macon"],"situsAddress":null,"situsCity":null,"situsZip":null,"jurisdictionCode":null,"ownerName":null,"ownerName2":null,"propertyName":null,"zoningCode":null,"zoningDistrict":null,"jurisdictionPrefix":null,"dorCode":null,"acreage":5.3469,"centroid":[-83.239478,31.889668],"lastSale":{"date":null,"price":null,"qualified":null},"tax":{"marketValue":null,"assessedValue":null,"taxableValue":null,"taxes":null},"mailingAddress":{"line1":null,"line2":null,"city":null,"state":null,"zip":null},"incomeTract":null,"incomeBlockGroup":null,"nearestRoad":null,"flu":null,"opportunityZone":null,"oz2Eligibility":null,"source":"ga-wilcox-parcels-13315","appraiserUrl":"https://qpublic.schneidercorp.com/Application.aspx?App=WilcoxCountyGA&Layer=Parcels&PageType=Report&KeyValue=085%20%20%20%20011","gisViewerUrl":"https://www.arcgis.com/apps/mapviewer/index.html?url=https://services5.arcgis.com/HHvUPZ2XuLOAJxjR/arcgis/rest/services/Wilcox_County_Wide_View/FeatureServer"},"geometry":{"type":"Polygon","coordinates":[[[-83.240934,31.889315],[-83.237909,31.889329],[-83.238149,31.890016],[-83.240919,31.890014],[-83.240934,31.889315]]]}},{"type":"Feature","id":"13315:085    012","properties":{"id":"13315:085    012","parcelId":"085    012","countyFips":"13315","countyName":"Wilcox","state":"Georgia","marketIds":["Macon"],"situsAddress":null,"situsCity":null,"situsZip":null,"jurisdictionCode":null,"ownerName":null,"ownerName2":null,"propertyName":null,"zoningCode":null,"zoningDistrict":null,"jurisdictionPrefix":null,"dorCode":null,"acreage":26.2645,"centroid":[-83.247782,31.890408],"lastSale":{"date":null,"price":null,"qualified":null},"tax":{"marketValue":null,"assessedValue":null,"taxableValue":null,"taxes":null},"mailingAddress":{"line1":null,"line2":null,"city":null,"state":null,"zip":null},"incomeTract":null,"incomeBlockGroup":null,"nearestRoad":null,"flu":null,"opportunityZone":null,"oz2Eligibility":null,"source":"ga-wilcox-parcels-13315","appraiserUrl":"https://qpublic.schneidercorp.com/Application.aspx?App=WilcoxCountyGA&Layer=Parcels&PageType=Report&KeyValue=085%20%20%20%20012","gisViewerUrl":"https://www.arcgis.com/apps/mapviewer/index.html?url=https://services5.arcgis.com/HHvUPZ2XuLOAJxjR/arcgis/rest/services/Wilcox_County_Wide_View/FeatureServer"},"geometry":{"type":"Polygon","coordinates":[[[-83.246068,31.88885],[-83.24624,31.8893],[-83.249418,31.894706],[-83.249403,31.888778],[-83.246068,31.88885]]]}},{"type":"Feature","id":"13315:085    013","properties":{"id":"13315:085    013","parcelId":"085    013","countyFips":"13315","countyName":"Wilcox","state":"Georgia","marketIds":["Macon"],"situsAddress":null,"situsCity":null,"situsZip":null,"jurisdictionCode":null,"ownerName":null,"ownerName2":null,"propertyName":null,"zoningCode":null,"zoningDistrict":null,"jurisdictionPrefix":null,"dorCode":null,"acreage":22.7078,"centroid":[-83.247216,31.887708],"lastSale":{"date":null,"price":null,"qualified":null},"tax":{"marketValue":null,"assessedValue":null,"taxableValue":null,"taxes":null},"mailingAddress":{"line1":null,"line2":null,"city":null,"state":null,"zip":null},"incomeTract":null,"incomeBlockGroup":null,"nearestRoad":null,"flu":null,"opportunityZone":null,"oz2Eligibility":null,"source":"ga-wilcox-parcels-13315","appraiserUrl":"https://qpublic.schneidercorp.com/Application.aspx?App=WilcoxCountyGA&Layer=Parcels&PageType=Report&KeyValue=085%20%20%20%20013","gisViewerUrl":"https://www.arcgis.com/apps/mapviewer/index.html?url=https://services5.arcgis.com/HHvUPZ2XuLOAJxjR/arcgis/rest/services/Wilcox_County_Wide_View/FeatureServer"},"geometry":{"type":"Polygon","coordinates":[[[-83.245472,31.886493],[-83.24574,31.888021],[-83.246068,31.88885],[-83.249403,31.888778],[-83.249397,31.8864],[-83.245472,31.886493]]]}},{"type":"Feature","id":"13315:085    014","properties":{"id":"13315:085    014","parcelId":"085    014","countyFips":"13315","countyName":"Wilcox","state":"Georgia","marketIds":["Macon"],"situsAddress":null,"situsCity":null,"situsZip":null,"jurisdictionCode":null,"ownerName":null,"ownerName2":null,"propertyName":null,"zoningCode":null,"zoningDistrict":null,"jurisdictionPrefix":null,"dorCode":null,"acreage":24.516,"centroid":[-83.247332,31.885302],"lastSale":{"date":null,"price":null,"qualified":null},"tax":{"marketValue":null,"assessedValue":null,"taxableValue":null,"taxes":null},"mailingAddress":{"line1":null,"line2":null,"city":null,"state":null,"zip":null},"incomeTract":null,"incomeBlockGroup":null,"nearestRoad":null,"flu":null,"opportunityZone":null,"oz2Eligibility":null,"source":"ga-wilcox-parcels-13315","appraiserUrl":"https://qpublic.schneidercorp.com/Application.aspx?App=WilcoxCountyGA&Layer=Parcels&PageType=Report&KeyValue=085%20%20%20%20014","gisViewerUrl":"https://www.arcgis.com/apps/mapviewer/index.html?url=https://services5.arcgis.com/HHvUPZ2XuLOAJxjR/arcgis/rest/services/Wilcox_County_Wide_View/FeatureServer"},"geometry":{"type":"Polygon","coordinates":[[[-83.249397,31.8864],[-83.249391,31.884144],[-83.245066,31.884169],[-83.245472,31.886493],[-83.249397,31.8864]]]}},{"type":"Feature","id":"13315:085    015","properties":{"id":"13315:085    015","parcelId":"085    015","countyFips":"13315","countyName":"Wilcox","state":"Georgia","marketIds":["Macon"],"situsAddress":null,"situsCity":null,"situsZip":null,"jurisdictionCode":null,"ownerName":null,"ownerName2":null,"propertyName":null,"zoningCode":null,"zoningDistrict":null,"jurisdictionPrefix":null,"dorCode":null,"acreage":23.2161,"centroid":[-83.240758,31.882157],"lastSale":{"date":null,"price":null,"qualified":null},"tax":{"marketValue":null,"assessedValue":null,"taxableValue":null,"taxes":null},"mailingAddress":{"line1":null,"line2":null,"city":null,"state":null,"zip":null},"incomeTract":null,"incomeBlockGroup":null,"nearestRoad":null,"flu":null,"opportunityZone":null,"oz2Eligibility":null,"source":"ga-wilcox-parcels-13315","appraiserUrl":"https://qpublic.schneidercorp.com/Application.aspx?App=WilcoxCountyGA&Layer=Parcels&PageType=Report&KeyValue=085%20%20%20%20015","gisViewerUrl":"https://www.arcgis.com/apps/mapviewer/index.html?url=https://services5.arcgis.com/HHvUPZ2XuLOAJxjR/arcgis/rest/services/Wilcox_County_Wide_View/FeatureServer"},"geometry":{"type":"Polygon","coordinates":[[[-83.24011,31.880992],[-83.238932,31.880985],[-83.239051,31.884054],[-83.242547,31.884221],[-83.24259,31.882592],[-83.241835,31.882317],[-83.240836,31.881651],[-83.240514,31.881389],[-83.240407,31.881211],[-83.24011,31.880992]]]}},{"type":"Feature","id":"13315:085    015 001","properties":{"id":"13315:085    015 001","parcelId":"085    015 001","countyFips":"13315","countyName":"Wilcox","state":"Georgia","marketIds":["Macon"],"situsAddress":null,"situsCity":null,"situsZip":null,"jurisdictionCode":null,"ownerName":null,"ownerName2":null,"propertyName":null,"zoningCode":null,"zoningDistrict":null,"jurisdictionPrefix":null,"dorCode":null,"acreage":6.0767,"centroid":[-83.241275,31.881594],"lastSale":{"date":null,"price":null,"qualified":null},"tax":{"marketValue":null,"assessedValue":null,"taxableValue":null,"taxes":null},"mailingAddress":{"line1":null,"line2":null,"city":null,"state":null,"zip":null},"incomeTract":null,"incomeBlockGroup":null,"nearestRoad":null,"flu":null,"opportunityZone":null,"oz2Eligibility":null,"source":"ga-wilcox-parcels-13315","appraiserUrl":"https://qpublic.schneidercorp.com/Application.aspx?App=WilcoxCountyGA&Layer=Parcels&PageType=Report&KeyValue=085%20%20%20%20015%20001","gisViewerUrl":"https://www.arcgis.com/apps/mapviewer/index.html?url=https://services5.arcgis.com/HHvUPZ2XuLOAJxjR/arcgis/rest/services/Wilcox_County_Wide_View/FeatureServer"},"geometry":{"type":"Polygon","coordinates":[[[-83.24011,31.880992],[-83.240407,31.881211],[-83.240514,31.881389],[-83.240836,31.881651],[-83.241835,31.882317],[-83.24259,31.882592],[-83.242632,31.881008],[-83.24011,31.880992]]]}},{"type":"Feature","id":"13315:085    017","properties":{"id":"13315:085    017","parcelId":"085    017","countyFips":"13315","countyName":"Wilcox","state":"Georgia","marketIds":["Macon"],"situsAddress":null,"situsCity":null,"situsZip":null,"jurisdictionCode":null,"ownerName":null,"ownerName2":null,"propertyName":null,"zoningCode":null,"zoningDistrict":null,"jurisdictionPrefix":null,"dorCode":null,"acreage":23.8735,"centroid":[-83.230575,31.873455],"lastSale":{"date":null,"price":null,"qualified":null},"tax":{"marketValue":null,"assessedValue":null,"taxableValue":null,"taxes":null},"mailingAddress":{"line1":null,"line2":null,"city":null,"state":null,"zip":null},"incomeTract":null,"incomeBlockGroup":null,"nearestRoad":null,"flu":null,"opportunityZone":null,"oz2Eligibility":null,"source":"ga-wilcox-parcels-13315","appraiserUrl":"https://qpublic.schneidercorp.com/Application.aspx?App=WilcoxCountyGA&Layer=Parcels&PageType=Report&KeyValue=085%20%20%20%20017","gisViewerUrl":"https://www.arcgis.com/apps/mapviewer/index.html?url=https://services5.arcgis.com/HHvUPZ2XuLOAJxjR/arcgis/rest/services/Wilcox_County_Wide_View/FeatureServer"},"geometry":{"type":"MultiPolygon","coordinates":[[[[-83.234211,31.873513],[-83.23525,31.873498],[-83.234342,31.871704],[-83.231231,31.871656],[-83.232275,31.87299],[-83.233871,31.872972],[-83.234211,31.873513]]],[[[-83.229665,31.874398],[-83.229668,31.874397],[-83.230194,31.874276],[-83.230882,31.874057],[-83.231383,31.873855],[-83.2322,31.8734],[-83.230949,31.871644],[-83.22966,31.871614],[-83.229665,31.874398]]]]}},{"type":"Feature","id":"13315:085    018","properties":{"id":"13315:085    018","parcelId":"085    018","countyFips":"13315","countyName":"Wilcox","state":"Georgia","marketIds":["Macon"],"situsAddress":null,"situsCity":null,"situsZip":null,"jurisdictionCode":null,"ownerName":null,"ownerName2":null,"propertyName":null,"zoningCode":null,"zoningDistrict":null,"jurisdictionPrefix":null,"dorCode":null,"acreage":29.3246,"centroid":[-83.227702,31.873837],"lastSale":{"date":null,"price":null,"qualified":null},"tax":{"marketValue":null,"assessedValue":null,"taxableValue":null,"taxes":null},"mailingAddress":{"line1":null,"line2":null,"city":null,"state":null,"zip":null},"incomeTract":null,"incomeBlockGroup":null,"nearestRoad":null,"flu":null,"opportunityZone":null,"oz2Eligibility":null,"source":"ga-wilcox-parcels-13315","appraiserUrl":"https://qpublic.schneidercorp.com/Application.aspx?App=WilcoxCountyGA&Layer=Parcels&PageType=Report&KeyValue=085%20%20%20%20018","gisViewerUrl":"https://www.arcgis.com/apps/mapviewer/index.html?url=https://services5.arcgis.com/HHvUPZ2XuLOAJxjR/arcgis/rest/services/Wilcox_County_Wide_View/FeatureServer"},"geometry":{"type":"Polygon","coordinates":[[[-83.22966,31.871614],[-83.229369,31.871607],[-83.225598,31.87155],[-83.225947,31.873807],[-83.226133,31.874065],[-83.226408,31.874332],[-83.226716,31.87451],[-83.22712,31.874648],[-83.227411,31.874696],[-83.2278,31.874704],[-83.228099,31.874656],[-83.228754,31.874599],[-83.229142,31.874535],[-83.229665,31.874398],[-83.22966,31.871614]]]}},{"type":"Feature","id":"13315:086    004","properties":{"id":"13315:086    004","parcelId":"086    004","countyFips":"13315","countyName":"Wilcox","state":"Georgia","marketIds":["Macon"],"situsAddress":null,"situsCity":null,"situsZip":null,"jurisdictionCode":null,"ownerName":null,"ownerName2":null,"propertyName":null,"zoningCode":null,"zoningDistrict":null,"jurisdictionPrefix":null,"dorCode":null,"acreage":48.3233,"centroid":[-83.23791,31.868276],"lastSale":{"date":null,"price":null,"qualified":null},"tax":{"marketValue":null,"assessedValue":null,"taxableValue":null,"taxes":null},"mailingAddress":{"line1":null,"line2":null,"city":null,"state":null,"zip":null},"incomeTract":null,"incomeBlockGroup":null,"nearestRoad":null,"flu":null,"opportunityZone":null,"oz2Eligibility":null,"source":"ga-wilcox-parcels-13315","appraiserUrl":"https://qpublic.schneidercorp.com/Application.aspx?App=WilcoxCountyGA&Layer=Parcels&PageType=Report&KeyValue=086%20%20%20%20004","gisViewerUrl":"https://www.arcgis.com/apps/mapviewer/index.html?url=https://services5.arcgis.com/HHvUPZ2XuLOAJxjR/arcgis/rest/services/Wilcox_County_Wide_View/FeatureServer"},"geometry":{"type":"MultiPolygon","coordinates":[[[[-83.240121,31.865137],[-83.241183,31.866766],[-83.241495,31.867991],[-83.242919,31.867965],[-83.24274,31.867007],[-83.242525,31.866368],[-83.242025,31.86544],[-83.241677,31.864916],[-83.240121,31.865137]]],[[[-83.236897,31.864958],[-83.236815,31.871587],[-83.238965,31.871606],[-83.238965,31.864952],[-83.236897,31.864958]]]]}},{"type":"Feature","id":"13315:086    005","properties":{"id":"13315:086    005","parcelId":"086    005","countyFips":"13315","countyName":"Wilcox","state":"Georgia","marketIds":["Macon"],"situsAddress":null,"situsCity":null,"situsZip":null,"jurisdictionCode":null,"ownerName":null,"ownerName2":null,"propertyName":null,"zoningCode":null,"zoningDistrict":null,"jurisdictionPrefix":null,"dorCode":null,"acreage":99.9357,"centroid":[-83.231603,31.868273],"lastSale":{"date":null,"price":null,"qualified":null},"tax":{"marketValue":null,"assessedValue":null,"taxableValue":null,"taxes":null},"mailingAddress":{"line1":null,"line2":null,"city":null,"state":null,"zip":null},"incomeTract":null,"incomeBlockGroup":null,"nearestRoad":null,"flu":null,"opportunityZone":null,"oz2Eligibility":null,"source":"ga-wilcox-parcels-13315","appraiserUrl":"https://qpublic.schneidercorp.com/Application.aspx?App=WilcoxCountyGA&Layer=Parcels&PageType=Report&KeyValue=086%20%20%20%20005","gisViewerUrl":"https://www.arcgis.com/apps/mapviewer/index.html?url=https://services5.arcgis.com/HHvUPZ2XuLOAJxjR/arcgis/rest/services/Wilcox_County_Wide_View/FeatureServer"},"geometry":{"type":"Polygon","coordinates":[[[-83.234501,31.871566],[-83.23633,31.871583],[-83.236815,31.871587],[-83.236897,31.864958],[-83.226309,31.864988],[-83.228752,31.868244],[-83.23457,31.868349],[-83.234501,31.871566]]]}},{"type":"Feature","id":"13315:086    006","properties":{"id":"13315:086    006","parcelId":"086    006","countyFips":"13315","countyName":"Wilcox","state":"Georgia","marketIds":["Macon"],"situsAddress":null,"situsCity":null,"situsZip":null,"jurisdictionCode":null,"ownerName":null,"ownerName2":null,"propertyName":null,"zoningCode":null,"zoningDistrict":null,"jurisdictionPrefix":null,"dorCode":null,"acreage":33.9806,"centroid":[-83.231895,31.869749],"lastSale":{"date":null,"price":null,"qualified":null},"tax":{"marketValue":null,"assessedValue":null,"taxableValue":null,"taxes":null},"mailingAddress":{"line1":null,"line2":null,"city":null,"state":null,"zip":null},"incomeTract":null,"incomeBlockGroup":null,"nearestRoad":null,"flu":null,"opportunityZone":null,"oz2Eligibility":null,"source":"ga-wilcox-parcels-13315","appraiserUrl":"https://qpublic.schneidercorp.com/Application.aspx?App=WilcoxCountyGA&Layer=Parcels&PageType=Report&KeyValue=086%20%20%20%20006","gisViewerUrl":"https://www.arcgis.com/apps/mapviewer/index.html?url=https://services5.arcgis.com/HHvUPZ2XuLOAJxjR/arcgis/rest/services/Wilcox_County_Wide_View/FeatureServer"},"geometry":{"type":"Polygon","coordinates":[[[-83.234501,31.871566],[-83.23457,31.868349],[-83.230501,31.868276],[-83.230911,31.869257],[-83.229683,31.869509],[-83.231207,31.871535],[-83.234501,31.871566]]]}},{"type":"Feature","id":"13315:086    009","properties":{"id":"13315:086    009","parcelId":"086    009","countyFips":"13315","countyName":"Wilcox","state":"Georgia","marketIds":["Macon"],"situsAddress":null,"situsCity":null,"situsZip":null,"jurisdictionCode":null,"ownerName":null,"ownerName2":null,"propertyName":null,"zoningCode":null,"zoningDistrict":null,"jurisdictionPrefix":null,"dorCode":null,"acreage":70.8329,"centroid":[-83.224405,31.870846],"lastSale":{"date":null,"price":null,"qualified":null},"tax":{"marketValue":null,"assessedValue":null,"taxableValue":null,"taxes":null},"mailingAddress":{"line1":null,"line2":null,"city":null,"state":null,"zip":null},"incomeTract":null,"incomeBlockGroup":null,"nearestRoad":null,"flu":null,"opportunityZone":null,"oz2Eligibility":null,"source":"ga-wilcox-parcels-13315","appraiserUrl":"https://qpublic.schneidercorp.com/Application.aspx?App=WilcoxCountyGA&Layer=Parcels&PageType=Report&KeyValue=086%20%20%20%20009","gisViewerUrl":"https://www.arcgis.com/apps/mapviewer/index.html?url=https://services5.arcgis.com/HHvUPZ2XuLOAJxjR/arcgis/rest/services/Wilcox_County_Wide_View/FeatureServer"},"geometry":{"type":"Polygon","coordinates":[[[-83.22409,31.871364],[-83.227468,31.871437],[-83.230862,31.871508],[-83.230569,31.871225],[-83.228904,31.868955],[-83.219036,31.868724],[-83.219039,31.871287],[-83.219708,31.871287],[-83.221784,31.871341],[-83.222585,31.871336],[-83.22409,31.871364]]]}},{"type":"Feature","id":"13315:086    009 001","properties":{"id":"13315:086    009 001","parcelId":"086    009 001","countyFips":"13315","countyName":"Wilcox","state":"Georgia","marketIds":["Macon"],"situsAddress":null,"situsCity":null,"situsZip":null,"jurisdictionCode":null,"ownerName":null,"ownerName2":null,"propertyName":null,"zoningCode":null,"zoningDistrict":null,"jurisdictionPrefix":null,"dorCode":null,"acreage":45.1609,"centroid":[-83.22419,31.866755],"lastSale":{"date":null,"price":null,"qualified":null},"tax":{"marketValue":null,"assessedValue":null,"taxableValue":null,"taxes":null},"mailingAddress":{"line1":null,"line2":null,"city":null,"state":null,"zip":null},"incomeTract":null,"incomeBlockGroup":null,"nearestRoad":null,"flu":null,"opportunityZone":null,"oz2Eligibility":null,"source":"ga-wilcox-parcels-13315","appraiserUrl":"https://qpublic.schneidercorp.com/Application.aspx?App=WilcoxCountyGA&Layer=Parcels&PageType=Report&KeyValue=086%20%20%20%20009%20001","gisViewerUrl":"https://www.arcgis.com/apps/mapviewer/index.html?url=https://services5.arcgis.com/HHvUPZ2XuLOAJxjR/arcgis/rest/services/Wilcox_County_Wide_View/FeatureServer"},"geometry":{"type":"Polygon","coordinates":[[[-83.222728,31.867758],[-83.222688,31.868809],[-83.228904,31.868955],[-83.226224,31.865349],[-83.225913,31.864968],[-83.224243,31.864974],[-83.224673,31.865871],[-83.22429,31.866014],[-83.223753,31.864976],[-83.222833,31.864979],[-83.222736,31.867544],[-83.223466,31.867937],[-83.223203,31.868247],[-83.223,31.868188],[-83.222728,31.867758]]]}},{"type":"Feature","id":"13315:086    010","properties":{"id":"13315:086    010","parcelId":"086    010","countyFips":"13315","countyName":"Wilcox","state":"Georgia","marketIds":["Macon"],"situsAddress":null,"situsCity":null,"situsZip":null,"jurisdictionCode":null,"ownerName":null,"ownerName2":null,"propertyName":null,"zoningCode":null,"zoningDistrict":null,"jurisdictionPrefix":null,"dorCode":null,"acreage":36.6331,"centroid":[-83.220391,31.866867],"lastSale":{"date":null,"price":null,"qualified":null},"tax":{"marketValue":null,"assessedValue":null,"taxableValue":null,"taxes":null},"mailingAddress":{"line1":null,"line2":null,"city":null,"state":null,"zip":null},"incomeTract":null,"incomeBlockGroup":null,"nearestRoad":null,"flu":null,"opportunityZone":null,"oz2Eligibility":null,"source":"ga-wilcox-parcels-13315","appraiserUrl":"https://qpublic.schneidercorp.com/Application.aspx?App=WilcoxCountyGA&Layer=Parcels&PageType=Report&KeyValue=086%20%20%20%20010","gisViewerUrl":"https://www.arcgis.com/apps/mapviewer/index.html?url=https://services5.arcgis.com/HHvUPZ2XuLOAJxjR/arcgis/rest/services/Wilcox_County_Wide_View/FeatureServer"},"geometry":{"type":"Polygon","coordinates":[[[-83.219081,31.868725],[-83.222688,31.868809],[-83.222833,31.864979],[-83.219678,31.864974],[-83.21903,31.864991],[-83.219036,31.868724],[-83.219081,31.868725]]]}},{"type":"Feature","id":"13315:086    012","properties":{"id":"13315:086    012","parcelId":"086    012","countyFips":"13315","countyName":"Wilcox","state":"Georgia","marketIds":["Macon"],"situsAddress":null,"situsCity":null,"situsZip":null,"jurisdictionCode":null,"ownerName":null,"ownerName2":null,"propertyName":null,"zoningCode":null,"zoningDistrict":null,"jurisdictionPrefix":null,"dorCode":null,"acreage":36.1608,"centroid":[-83.205819,31.863916],"lastSale":{"date":null,"price":null,"qualified":null},"tax":{"marketValue":null,"assessedValue":null,"taxableValue":null,"taxes":null},"mailingAddress":{"line1":null,"line2":null,"city":null,"state":null,"zip":null},"incomeTract":null,"incomeBlockGroup":null,"nearestRoad":null,"flu":null,"opportunityZone":null,"oz2Eligibility":null,"source":"ga-wilcox-parcels-13315","appraiserUrl":"https://qpublic.schneidercorp.com/Application.aspx?App=WilcoxCountyGA&Layer=Parcels&PageType=Report&KeyValue=086%20%20%20%20012","gisViewerUrl":"https://www.arcgis.com/apps/mapviewer/index.html?url=https://services5.arcgis.com/HHvUPZ2XuLOAJxjR/arcgis/rest/services/Wilcox_County_Wide_View/FeatureServer"},"geometry":{"type":"Polygon","coordinates":[[[-83.204347,31.861785],[-83.204314,31.864754],[-83.204363,31.864646],[-83.204783,31.864799],[-83.204937,31.864783],[-83.209044,31.864819],[-83.208944,31.861828],[-83.204347,31.861785]]]}},{"type":"Feature","id":"13315:086    013","properties":{"id":"13315:086    013","parcelId":"086    013","countyFips":"13315","countyName":"Wilcox","state":"Georgia","marketIds":["Macon"],"situsAddress":null,"situsCity":null,"situsZip":null,"jurisdictionCode":null,"ownerName":null,"ownerName2":null,"propertyName":null,"zoningCode":null,"zoningDistrict":null,"jurisdictionPrefix":null,"dorCode":null,"acreage":26.816,"centroid":[-83.210762,31.856241],"lastSale":{"date":null,"price":null,"qualified":null},"tax":{"marketValue":null,"assessedValue":null,"taxableValue":null,"taxes":null},"mailingAddress":{"line1":null,"line2":null,"city":null,"state":null,"zip":null},"incomeTract":null,"incomeBlockGroup":null,"nearestRoad":null,"flu":null,"opportunityZone":null,"oz2Eligibility":null,"source":"ga-wilcox-parcels-13315","appraiserUrl":"https://qpublic.schneidercorp.com/Application.aspx?App=WilcoxCountyGA&Layer=Parcels&PageType=Report&KeyValue=086%20%20%20%20013","gisViewerUrl":"https://www.arcgis.com/apps/mapviewer/index.html?url=https://services5.arcgis.com/HHvUPZ2XuLOAJxjR/arcgis/rest/services/Wilcox_County_Wide_View/FeatureServer"},"geometry":{"type":"Polygon","coordinates":[[[-83.209358,31.854471],[-83.209282,31.858048],[-83.212181,31.858021],[-83.212227,31.854425],[-83.209358,31.854471]]]}},{"type":"Feature","id":"13315:086    014","properties":{"id":"13315:086    014","parcelId":"086    014","countyFips":"13315","countyName":"Wilcox","state":"Georgia","marketIds":["Macon"],"situsAddress":null,"situsCity":null,"situsZip":null,"jurisdictionCode":null,"ownerName":null,"ownerName2":null,"propertyName":null,"zoningCode":null,"zoningDistrict":null,"jurisdictionPrefix":null,"dorCode":null,"acreage":57.4756,"centroid":[-83.207363,31.855547],"lastSale":{"date":null,"price":null,"qualified":null},"tax":{"marketValue":null,"assessedValue":null,"taxableValue":null,"taxes":null},"mailingAddress":{"line1":null,"line2":null,"city":null,"state":null,"zip":null},"incomeTract":null,"incomeBlockGroup":null,"nearestRoad":null,"flu":null,"opportunityZone":null,"oz2Eligibility":null,"source":"ga-wilcox-parcels-13315","appraiserUrl":"https://qpublic.schneidercorp.com/Application.aspx?App=WilcoxCountyGA&Layer=Parcels&PageType=Report&KeyValue=086%20%20%20%20014","gisViewerUrl":"https://www.arcgis.com/apps/mapviewer/index.html?url=https://services5.arcgis.com/HHvUPZ2XuLOAJxjR/arcgis/rest/services/Wilcox_County_Wide_View/FeatureServer"},"geometry":{"type":"Polygon","coordinates":[[[-83.204437,31.853515],[-83.204387,31.858093],[-83.209282,31.858048],[-83.209358,31.854471],[-83.209352,31.853607],[-83.204437,31.853515]]]}},{"type":"Feature","id":"13315:086    014 001","properties":{"id":"13315:086    014 001","parcelId":"086    014 001","countyFips":"13315","countyName":"Wilcox","state":"Georgia","marketIds":["Macon"],"situsAddress":null,"situsCity":null,"situsZip":null,"jurisdictionCode":null,"ownerName":null,"ownerName2":null,"propertyName":null,"zoningCode":null,"zoningDistrict":null,"jurisdictionPrefix":null,"dorCode":null,"acreage":11.3877,"centroid":[-83.206895,31.853113],"lastSale":{"date":null,"price":null,"qualified":null},"tax":{"marketValue":null,"assessedValue":null,"taxableValue":null,"taxes":null},"mailingAddress":{"line1":null,"line2":null,"city":null,"state":null,"zip":null},"incomeTract":null,"incomeBlockGroup":null,"nearestRoad":null,"flu":null,"opportunityZone":null,"oz2Eligibility":null,"source":"ga-wilcox-parcels-13315","appraiserUrl":"https://qpublic.schneidercorp.com/Application.aspx?App=WilcoxCountyGA&Layer=Parcels&PageType=Report&KeyValue=086%20%20%20%20014%20001","gisViewerUrl":"https://www.arcgis.com/apps/mapviewer/index.html?url=https://services5.arcgis.com/HHvUPZ2XuLOAJxjR/arcgis/rest/services/Wilcox_County_Wide_View/FeatureServer"},"geometry":{"type":"Polygon","coordinates":[[[-83.204437,31.853515],[-83.209352,31.853607],[-83.209344,31.852634],[-83.204446,31.852698],[-83.204437,31.853515]]]}},{"type":"Feature","id":"13315:086    014 002","properties":{"id":"13315:086    014 002","parcelId":"086    014 002","countyFips":"13315","countyName":"Wilcox","state":"Georgia","marketIds":["Macon"],"situsAddress":null,"situsCity":null,"situsZip":null,"jurisdictionCode":null,"ownerName":null,"ownerName2":null,"propertyName":null,"zoningCode":null,"zoningDistrict":null,"jurisdictionPrefix":null,"dorCode":null,"acreage":45.5934,"centroid":[-83.213141,31.85413],"lastSale":{"date":null,"price":null,"qualified":null},"tax":{"marketValue":null,"assessedValue":null,"taxableValue":null,"taxes":null},"mailingAddress":{"line1":null,"line2":null,"city":null,"state":null,"zip":null},"incomeTract":null,"incomeBlockGroup":null,"nearestRoad":null,"flu":null,"opportunityZone":null,"oz2Eligibility":null,"source":"ga-wilcox-parcels-13315","appraiserUrl":"https://qpublic.schneidercorp.com/Application.aspx?App=WilcoxCountyGA&Layer=Parcels&PageType=Report&KeyValue=086%20%20%20%20014%20002","gisViewerUrl":"https://www.arcgis.com/apps/mapviewer/index.html?url=https://services5.arcgis.com/HHvUPZ2XuLOAJxjR/arcgis/rest/services/Wilcox_County_Wide_View/FeatureServer"},"geometry":{"type":"Polygon","coordinates":[[[-83.214816,31.85359],[-83.214794,31.853153],[-83.214756,31.85242],[-83.212782,31.853022],[-83.212785,31.85259],[-83.209344,31.852634],[-83.209358,31.854471],[-83.212227,31.854425],[-83.21219,31.857309],[-83.215006,31.857327],[-83.214888,31.85501],[-83.214747,31.853607],[-83.214816,31.85359]]]}},{"type":"Feature","id":"13315:086    014 003","properties":{"id":"13315:086    014 003","parcelId":"086    014 003","countyFips":"13315","countyName":"Wilcox","state":"Georgia","marketIds":["Macon"],"situsAddress":null,"situsCity":null,"situsZip":null,"jurisdictionCode":null,"ownerName":null,"ownerName2":null,"propertyName":null,"zoningCode":null,"zoningDistrict":null,"jurisdictionPrefix":null,"dorCode":null,"acreage":7.5555,"centroid":[-83.214401,31.857364],"lastSale":{"date":null,"price":null,"qualified":null},"tax":{"marketValue":null,"assessedValue":null,"taxableValue":null,"taxes":null},"mailingAddress":{"line1":null,"line2":null,"city":null,"state":null,"zip":null},"incomeTract":null,"incomeBlockGroup":null,"nearestRoad":null,"flu":null,"opportunityZone":null,"oz2Eligibility":null,"source":"ga-wilcox-parcels-13315","appraiserUrl":"https://qpublic.schneidercorp.com/Application.aspx?App=WilcoxCountyGA&Layer=Parcels&PageType=Report&KeyValue=086%20%20%20%20014%20003","gisViewerUrl":"https://www.arcgis.com/apps/mapviewer/index.html?url=https://services5.arcgis.com/HHvUPZ2XuLOAJxjR/arcgis/rest/services/Wilcox_County_Wide_View/FeatureServer"},"geometry":{"type":"Polygon","coordinates":[[[-83.214958,31.856391],[-83.215006,31.857327],[-83.21219,31.857309],[-83.212181,31.858021],[-83.213709,31.858007],[-83.215038,31.85795],[-83.215023,31.85766],[-83.215933,31.857397],[-83.215569,31.856212],[-83.214958,31.856391]]]}},{"type":"Feature","id":"13315:086    016","properties":{"id":"13315:086    016","parcelId":"086    016","countyFips":"13315","countyName":"Wilcox","state":"Georgia","marketIds":["Macon"],"situsAddress":null,"situsCity":null,"situsZip":null,"jurisdictionCode":null,"ownerName":null,"ownerName2":null,"propertyName":null,"zoningCode":null,"zoningDistrict":null,"jurisdictionPrefix":null,"dorCode":null,"acreage":27.9539,"centroid":[-83.225715,31.861541],"lastSale":{"date":null,"price":null,"qualified":null},"tax":{"marketValue":null,"assessedValue":null,"taxableValue":null,"taxes":null},"mailingAddress":{"line1":null,"line2":null,"city":null,"state":null,"zip":null},"incomeTract":null,"incomeBlockGroup":null,"nearestRoad":null,"flu":null,"opportunityZone":null,"oz2Eligibility":null,"source":"ga-wilcox-parcels-13315","appraiserUrl":"https://qpublic.schneidercorp.com/Application.aspx?App=WilcoxCountyGA&Layer=Parcels&PageType=Report&KeyValue=086%20%20%20%20016","gisViewerUrl":"https://www.arcgis.com/apps/mapviewer/index.html?url=https://services5.arcgis.com/HHvUPZ2XuLOAJxjR/arcgis/rest/services/Wilcox_County_Wide_View/FeatureServer"},"geometry":{"type":"Polygon","coordinates":[[[-83.222799,31.860312],[-83.223812,31.861654],[-83.225249,31.863549],[-83.225337,31.863549],[-83.227449,31.86238],[-83.227429,31.861635],[-83.227501,31.861594],[-83.227566,31.860947],[-83.227554,31.859925],[-83.222457,31.859866],[-83.222799,31.860312]]]}},{"type":"Feature","id":"13315:086    016 001","properties":{"id":"13315:086    016 001","parcelId":"086    016 001","countyFips":"13315","countyName":"Wilcox","state":"Georgia","marketIds":["Macon"],"situsAddress":null,"situsCity":null,"situsZip":null,"jurisdictionCode":null,"ownerName":null,"ownerName2":null,"propertyName":null,"zoningCode":null,"zoningDistrict":null,"jurisdictionPrefix":null,"dorCode":null,"acreage":15.3968,"centroid":[-83.214709,31.847488],"lastSale":{"date":null,"price":null,"qualified":null},"tax":{"marketValue":null,"assessedValue":null,"taxableValue":null,"taxes":null},"mailingAddress":{"line1":null,"line2":null,"city":null,"state":null,"zip":null},"incomeTract":null,"incomeBlockGroup":null,"nearestRoad":null,"flu":null,"opportunityZone":null,"oz2Eligibility":null,"source":"ga-wilcox-parcels-13315","appraiserUrl":"https://qpublic.schneidercorp.com/Application.aspx?App=WilcoxCountyGA&Layer=Parcels&PageType=Report&KeyValue=086%20%20%20%20016%20001","gisViewerUrl":"https://www.arcgis.com/apps/mapviewer/index.html?url=https://services5.arcgis.com/HHvUPZ2XuLOAJxjR/arcgis/rest/services/Wilcox_County_Wide_View/FeatureServer"},"geometry":{"type":"Polygon","coordinates":[[[-83.216159,31.848606],[-83.21609,31.848459],[-83.215696,31.847591],[-83.215035,31.846664],[-83.214139,31.845747],[-83.213008,31.846467],[-83.213296,31.847044],[-83.214245,31.849324],[-83.216159,31.848606]]]}},{"type":"Feature","id":"13315:086    016 002","properties":{"id":"13315:086    016 002","parcelId":"086    016 002","countyFips":"13315","countyName":"Wilcox","state":"Georgia","marketIds":["Macon"],"situsAddress":null,"situsCity":null,"situsZip":null,"jurisdictionCode":null,"ownerName":null,"ownerName2":null,"propertyName":null,"zoningCode":null,"zoningDistrict":null,"jurisdictionPrefix":null,"dorCode":null,"acreage":111.2553,"centroid":[-83.222027,31.863146],"lastSale":{"date":null,"price":null,"qualified":null},"tax":{"marketValue":null,"assessedValue":null,"taxableValue":null,"taxes":null},"mailingAddress":{"line1":null,"line2":null,"city":null,"state":null,"zip":null},"incomeTract":null,"incomeBlockGroup":null,"nearestRoad":null,"flu":null,"opportunityZone":null,"oz2Eligibility":null,"source":"ga-wilcox-parcels-13315","appraiserUrl":"https://qpublic.schneidercorp.com/Application.aspx?App=WilcoxCountyGA&Layer=Parcels&PageType=Report&KeyValue=086%20%20%20%20016%20002","gisViewerUrl":"https://www.arcgis.com/apps/mapviewer/index.html?url=https://services5.arcgis.com/HHvUPZ2XuLOAJxjR/arcgis/rest/services/Wilcox_County_Wide_View/FeatureServer"},"geometry":{"type":"Polygon","coordinates":[[[-83.222269,31.864821],[-83.22278,31.864825],[-83.222668,31.863331],[-83.224695,31.863327],[-83.223331,31.861507],[-83.221874,31.859607],[-83.220676,31.857953],[-83.21504,31.85795],[-83.214026,31.857994],[-83.213961,31.861125],[-83.216114,31.861155],[-83.216049,31.864838],[-83.219628,31.864831],[-83.218545,31.863806],[-83.218633,31.863691],[-83.217427,31.862949],[-83.218819,31.86101],[-83.22077,31.86214],[-83.220045,31.863104],[-83.219207,31.863247],[-83.218794,31.86379],[-83.219226,31.864156],[-83.22033,31.863235],[-83.222257,31.863294],[-83.222269,31.864821]]]}},{"type":"Feature","id":"13315:086    016 004","properties":{"id":"13315:086    016 004","parcelId":"086    016 004","countyFips":"13315","countyName":"Wilcox","state":"Georgia","marketIds":["Macon"],"situsAddress":null,"situsCity":null,"situsZip":null,"jurisdictionCode":null,"ownerName":null,"ownerName2":null,"propertyName":null,"zoningCode":null,"zoningDistrict":null,"jurisdictionPrefix":null,"dorCode":null,"acreage":60.4746,"centroid":[-83.223706,31.856836],"lastSale":{"date":null,"price":null,"qualified":null},"tax":{"marketValue":null,"assessedValue":null,"taxableValue":null,"taxes":null},"mailingAddress":{"line1":null,"line2":null,"city":null,"state":null,"zip":null},"incomeTract":null,"incomeBlockGroup":null,"nearestRoad":null,"flu":null,"opportunityZone":null,"oz2Eligibility":null,"source":"ga-wilcox-parcels-13315","appraiserUrl":"https://qpublic.schneidercorp.com/Application.aspx?App=WilcoxCountyGA&Layer=Parcels&PageType=Report&KeyValue=086%20%20%20%20016%20004","gisViewerUrl":"https://www.arcgis.com/apps/mapviewer/index.html?url=https://services5.arcgis.com/HHvUPZ2XuLOAJxjR/arcgis/rest/services/Wilcox_County_Wide_View/FeatureServer"},"geometry":{"type":"Polygon","coordinates":[[[-83.22171,31.855056],[-83.221745,31.855419],[-83.222145,31.855326],[-83.222524,31.855764],[-83.222556,31.856156],[-83.222436,31.856507],[-83.222523,31.856536],[-83.222223,31.857576],[-83.222547,31.857452],[-83.222593,31.857562],[-83.224642,31.856883],[-83.22465,31.857667],[-83.223071,31.858569],[-83.223459,31.859877],[-83.227554,31.859925],[-83.227532,31.858063],[-83.22843,31.858074],[-83.228589,31.856768],[-83.2216,31.853723],[-83.22159,31.853812],[-83.22171,31.855056]]]}},{"type":"Feature","id":"13315:086    016 005","properties":{"id":"13315:086    016 005","parcelId":"086    016 005","countyFips":"13315","countyName":"Wilcox","state":"Georgia","marketIds":["Macon"],"situsAddress":null,"situsCity":null,"situsZip":null,"jurisdictionCode":null,"ownerName":null,"ownerName2":null,"propertyName":null,"zoningCode":null,"zoningDistrict":null,"jurisdictionPrefix":null,"dorCode":null,"acreage":15.8993,"centroid":[-83.216874,31.846496],"lastSale":{"date":null,"price":null,"qualified":null},"tax":{"marketValue":null,"assessedValue":null,"taxableValue":null,"taxes":null},"mailingAddress":{"line1":null,"line2":null,"city":null,"state":null,"zip":null},"incomeTract":null,"incomeBlockGroup":null,"nearestRoad":null,"flu":null,"opportunityZone":null,"oz2Eligibility":null,"source":"ga-wilcox-parcels-13315","appraiserUrl":"https://qpublic.schneidercorp.com/Application.aspx?App=WilcoxCountyGA&Layer=Parcels&PageType=Report&KeyValue=086%20%20%20%20016%20005","gisViewerUrl":"https://www.arcgis.com/apps/mapviewer/index.html?url=https://services5.arcgis.com/HHvUPZ2XuLOAJxjR/arcgis/rest/services/Wilcox_County_Wide_View/FeatureServer"},"geometry":{"type":"Polygon","coordinates":[[[-83.217407,31.847604],[-83.218469,31.847446],[-83.218402,31.846949],[-83.218215,31.846585],[-83.21789,31.846074],[-83.217649,31.845816],[-83.217424,31.845653],[-83.21711,31.845464],[-83.214462,31.845447],[-83.214961,31.84597],[-83.215408,31.846527],[-83.215807,31.847127],[-83.216156,31.847783],[-83.217407,31.847604]]]}},{"type":"Feature","id":"13315:086    016 006","properties":{"id":"13315:086    016 006","parcelId":"086    016 006","countyFips":"13315","countyName":"Wilcox","state":"Georgia","marketIds":["Macon"],"situsAddress":null,"situsCity":null,"situsZip":null,"jurisdictionCode":null,"ownerName":null,"ownerName2":null,"propertyName":null,"zoningCode":null,"zoningDistrict":null,"jurisdictionPrefix":null,"dorCode":null,"acreage":9.8831,"centroid":[-83.223992,31.86408],"lastSale":{"date":null,"price":null,"qualified":null},"tax":{"marketValue":null,"assessedValue":null,"taxableValue":null,"taxes":null},"mailingAddress":{"line1":null,"line2":null,"city":null,"state":null,"zip":null},"incomeTract":null,"incomeBlockGroup":null,"nearestRoad":null,"flu":null,"opportunityZone":null,"oz2Eligibility":null,"source":"ga-wilcox-parcels-13315","appraiserUrl":"https://qpublic.schneidercorp.com/Application.aspx?App=WilcoxCountyGA&Layer=Parcels&PageType=Report&KeyValue=086%20%20%20%20016%20006","gisViewerUrl":"https://www.arcgis.com/apps/mapviewer/index.html?url=https://services5.arcgis.com/HHvUPZ2XuLOAJxjR/arcgis/rest/services/Wilcox_County_Wide_View/FeatureServer"},"geometry":{"type":"Polygon","coordinates":[[[-83.22278,31.864825],[-83.225827,31.864836],[-83.224695,31.863327],[-83.222668,31.863331],[-83.22278,31.864825]]]}},{"type":"Feature","id":"13315:086    016 007","properties":{"id":"13315:086    016 007","parcelId":"086    016 007","countyFips":"13315","countyName":"Wilcox","state":"Georgia","marketIds":["Macon"],"situsAddress":null,"situsCity":null,"situsZip":null,"jurisdictionCode":null,"ownerName":null,"ownerName2":null,"propertyName":null,"zoningCode":null,"zoningDistrict":null,"jurisdictionPrefix":null,"dorCode":null,"acreage":58.53,"centroid":[-83.229209,31.860108],"lastSale":{"date":null,"price":null,"qualified":null},"tax":{"marketValue":null,"assessedValue":null,"taxableValue":null,"taxes":null},"mailingAddress":{"line1":null,"line2":null,"city":null,"state":null,"zip":null},"incomeTract":null,"incomeBlockGroup":null,"nearestRoad":null,"flu":null,"opportunityZone":null,"oz2Eligibility":null,"source":"ga-wilcox-parcels-13315","appraiserUrl":"https://qpublic.schneidercorp.com/Application.aspx?App=WilcoxCountyGA&Layer=Parcels&PageType=Report&KeyValue=086%20%20%20%20016%20007","gisViewerUrl":"https://www.arcgis.com/apps/mapviewer/index.html?url=https://services5.arcgis.com/HHvUPZ2XuLOAJxjR/arcgis/rest/services/Wilcox_County_Wide_View/FeatureServer"},"geometry":{"type":"Polygon","coordinates":[[[-83.227501,31.861594],[-83.228161,31.861219],[-83.228175,31.86124],[-83.229121,31.860724],[-83.229142,31.861798],[-83.23357,31.861833],[-83.233511,31.858932],[-83.228589,31.856768],[-83.22843,31.858074],[-83.227532,31.858063],[-83.227566,31.860947],[-83.227501,31.861594]]]}},{"type":"Feature","id":"13315:086    016 008","properties":{"id":"13315:086    016 008","parcelId":"086    016 008","countyFips":"13315","countyName":"Wilcox","state":"Georgia","marketIds":["Macon"],"situsAddress":null,"situsCity":null,"situsZip":null,"jurisdictionCode":null,"ownerName":null,"ownerName2":null,"propertyName":null,"zoningCode":null,"zoningDistrict":null,"jurisdictionPrefix":null,"dorCode":null,"acreage":5.1116,"centroid":[-83.228149,31.864511],"lastSale":{"date":null,"price":null,"qualified":null},"tax":{"marketValue":null,"assessedValue":null,"taxableValue":null,"taxes":null},"mailingAddress":{"line1":null,"line2":null,"city":null,"state":null,"zip":null},"incomeTract":null,"incomeBlockGroup":null,"nearestRoad":null,"flu":null,"opportunityZone":null,"oz2Eligibility":null,"source":"ga-wilcox-parcels-13315","appraiserUrl":"https://qpublic.schneidercorp.com/Application.aspx?App=WilcoxCountyGA&Layer=Parcels&PageType=Report&KeyValue=086%20%20%20%20016%20008","gisViewerUrl":"https://www.arcgis.com/apps/mapviewer/index.html?url=https://services5.arcgis.com/HHvUPZ2XuLOAJxjR/arcgis/rest/services/Wilcox_County_Wide_View/FeatureServer"},"geometry":{"type":"Polygon","coordinates":[[[-83.226745,31.864041],[-83.227464,31.864985],[-83.229203,31.86498],[-83.229185,31.864037],[-83.226745,31.864041]]]}},{"type":"Feature","id":"13315:086    016 009","properties":{"id":"13315:086    016 009","parcelId":"086    016 009","countyFips":"13315","countyName":"Wilcox","state":"Georgia","marketIds":["Macon"],"situsAddress":null,"situsCity":null,"situsZip":null,"jurisdictionCode":null,"ownerName":null,"ownerName2":null,"propertyName":null,"zoningCode":null,"zoningDistrict":null,"jurisdictionPrefix":null,"dorCode":null,"acreage":17.4735,"centroid":[-83.218068,31.849857],"lastSale":{"date":null,"price":null,"qualified":null},"tax":{"marketValue":null,"assessedValue":null,"taxableValue":null,"taxes":null},"mailingAddress":{"line1":null,"line2":null,"city":null,"state":null,"zip":null},"incomeTract":null,"incomeBlockGroup":null,"nearestRoad":null,"flu":null,"opportunityZone":null,"oz2Eligibility":null,"source":"ga-wilcox-parcels-13315","appraiserUrl":"https://qpublic.schneidercorp.com/Application.aspx?App=WilcoxCountyGA&Layer=Parcels&PageType=Report&KeyValue=086%20%20%20%20016%20009","gisViewerUrl":"https://www.arcgis.com/apps/mapviewer/index.html?url=https://services5.arcgis.com/HHvUPZ2XuLOAJxjR/arcgis/rest/services/Wilcox_County_Wide_View/FeatureServer"},"geometry":{"type":"Polygon","coordinates":[[[-83.218251,31.850779],[-83.218441,31.851093],[-83.219242,31.850708],[-83.218599,31.847566],[-83.216221,31.847925],[-83.217654,31.85107],[-83.218251,31.850779]]]}},{"type":"Feature","id":"13315:086    016 012","properties":{"id":"13315:086    016 012","parcelId":"086    016 012","countyFips":"13315","countyName":"Wilcox","state":"Georgia","marketIds":["Macon"],"situsAddress":null,"situsCity":null,"situsZip":null,"jurisdictionCode":null,"ownerName":null,"ownerName2":null,"propertyName":null,"zoningCode":null,"zoningDistrict":null,"jurisdictionPrefix":null,"dorCode":null,"acreage":9.1767,"centroid":[-83.222831,31.858261],"lastSale":{"date":null,"price":null,"qualified":null},"tax":{"marketValue":null,"assessedValue":null,"taxableValue":null,"taxes":null},"mailingAddress":{"line1":null,"line2":null,"city":null,"state":null,"zip":null},"incomeTract":null,"incomeBlockGroup":null,"nearestRoad":null,"flu":null,"opportunityZone":null,"oz2Eligibility":null,"source":"ga-wilcox-parcels-13315","appraiserUrl":"https://qpublic.schneidercorp.com/Application.aspx?App=WilcoxCountyGA&Layer=Parcels&PageType=Report&KeyValue=086%20%20%20%20016%20012","gisViewerUrl":"https://www.arcgis.com/apps/mapviewer/index.html?url=https://services5.arcgis.com/HHvUPZ2XuLOAJxjR/arcgis/rest/services/Wilcox_County_Wide_View/FeatureServer"},"geometry":{"type":"Polygon","coordinates":[[[-83.222127,31.859432],[-83.222217,31.859552],[-83.222284,31.85964],[-83.222205,31.859227],[-83.223268,31.859232],[-83.223246,31.859161],[-83.222191,31.859156],[-83.222067,31.858512],[-83.223054,31.858512],[-83.223071,31.858569],[-83.22465,31.857667],[-83.224642,31.856883],[-83.222593,31.857562],[-83.221583,31.857829],[-83.221012,31.857922],[-83.221144,31.858146],[-83.222127,31.859432]]]}},{"type":"Feature","id":"13315:086    016 013","properties":{"id":"13315:086    016 013","parcelId":"086    016 013","countyFips":"13315","countyName":"Wilcox","state":"Georgia","marketIds":["Macon"],"situsAddress":null,"situsCity":null,"situsZip":null,"jurisdictionCode":null,"ownerName":null,"ownerName2":null,"propertyName":null,"zoningCode":null,"zoningDistrict":null,"jurisdictionPrefix":null,"dorCode":null,"acreage":10.7769,"centroid":[-83.220191,31.853824],"lastSale":{"date":null,"price":null,"qualified":null},"tax":{"marketValue":null,"assessedValue":null,"taxableValue":null,"taxes":null},"mailingAddress":{"line1":null,"line2":null,"city":null,"state":null,"zip":null},"incomeTract":null,"incomeBlockGroup":null,"nearestRoad":null,"flu":null,"opportunityZone":null,"oz2Eligibility":null,"source":"ga-wilcox-parcels-13315","appraiserUrl":"https://qpublic.schneidercorp.com/Application.aspx?App=WilcoxCountyGA&Layer=Parcels&PageType=Report&KeyValue=086%20%20%20%20016%20013","gisViewerUrl":"https://www.arcgis.com/apps/mapviewer/index.html?url=https://services5.arcgis.com/HHvUPZ2XuLOAJxjR/arcgis/rest/services/Wilcox_County_Wide_View/FeatureServer"},"geometry":{"type":"Polygon","coordinates":[[[-83.218661,31.853245],[-83.218723,31.853375],[-83.219418,31.854947],[-83.219728,31.855574],[-83.220375,31.854984],[-83.22159,31.853812],[-83.2216,31.853723],[-83.220969,31.853449],[-83.220573,31.853183],[-83.220276,31.852939],[-83.220187,31.852836],[-83.218661,31.853245]]]}},{"type":"Feature","id":"13315:086    016 017","properties":{"id":"13315:086    016 017","parcelId":"086    016 017","countyFips":"13315","countyName":"Wilcox","state":"Georgia","marketIds":["Macon"],"situsAddress":null,"situsCity":null,"situsZip":null,"jurisdictionCode":null,"ownerName":null,"ownerName2":null,"propertyName":null,"zoningCode":null,"zoningDistrict":null,"jurisdictionPrefix":null,"dorCode":null,"acreage":8.2664,"centroid":[-83.219372,31.852064],"lastSale":{"date":null,"price":null,"qualified":null},"tax":{"marketValue":null,"assessedValue":null,"taxableValue":null,"taxes":null},"mailingAddress":{"line1":null,"line2":null,"city":null,"state":null,"zip":null},"incomeTract":null,"incomeBlockGroup":null,"nearestRoad":null,"flu":null,"opportunityZone":null,"oz2Eligibility":null,"source":"ga-wilcox-parcels-13315","appraiserUrl":"https://qpublic.schneidercorp.com/Application.aspx?App=WilcoxCountyGA&Layer=Parcels&PageType=Report&KeyValue=086%20%20%20%20016%20017","gisViewerUrl":"https://www.arcgis.com/apps/mapviewer/index.html?url=https://services5.arcgis.com/HHvUPZ2XuLOAJxjR/arcgis/rest/services/Wilcox_County_Wide_View/FeatureServer"},"geometry":{"type":"Polygon","coordinates":[[[-83.220187,31.852836],[-83.220032,31.852658],[-83.219834,31.852376],[-83.219629,31.852018],[-83.219538,31.851813],[-83.219423,31.851523],[-83.219242,31.850708],[-83.217804,31.851399],[-83.218661,31.853245],[-83.220187,31.852836]]]}},{"type":"Feature","id":"13315:086    017","properties":{"id":"13315:086    017","parcelId":"086    017","countyFips":"13315","countyName":"Wilcox","state":"Georgia","marketIds":["Macon"],"situsAddress":null,"situsCity":null,"situsZip":null,"jurisdictionCode":null,"ownerName":null,"ownerName2":null,"propertyName":null,"zoningCode":null,"zoningDistrict":null,"jurisdictionPrefix":null,"dorCode":null,"acreage":13.7251,"centroid":[-83.235042,31.85891],"lastSale":{"date":null,"price":null,"qualified":null},"tax":{"marketValue":null,"assessedValue":null,"taxableValue":null,"taxes":null},"mailingAddress":{"line1":null,"line2":null,"city":null,"state":null,"zip":null},"incomeTract":null,"incomeBlockGroup":null,"nearestRoad":null,"flu":null,"opportunityZone":null,"oz2Eligibility":null,"source":"ga-wilcox-parcels-13315","appraiserUrl":"https://qpublic.schneidercorp.com/Application.aspx?App=WilcoxCountyGA&Layer=Parcels&PageType=Report&KeyValue=086%20%20%20%20017","gisViewerUrl":"https://www.arcgis.com/apps/mapviewer/index.html?url=https://services5.arcgis.com/HHvUPZ2XuLOAJxjR/arcgis/rest/services/Wilcox_County_Wide_View/FeatureServer"},"geometry":{"type":"Polygon","coordinates":[[[-83.236551,31.858172],[-83.231787,31.858162],[-83.236788,31.860396],[-83.236551,31.858172]]]}},{"type":"Feature","id":"13315:086    018","properties":{"id":"13315:086    018","parcelId":"086    018","countyFips":"13315","countyName":"Wilcox","state":"Georgia","marketIds":["Macon"],"situsAddress":null,"situsCity":null,"situsZip":null,"jurisdictionCode":null,"ownerName":null,"ownerName2":null,"propertyName":null,"zoningCode":null,"zoningDistrict":null,"jurisdictionPrefix":null,"dorCode":null,"acreage":5.6819,"centroid":[-83.237276,31.859469],"lastSale":{"date":null,"price":null,"qualified":null},"tax":{"marketValue":null,"assessedValue":null,"taxableValue":null,"taxes":null},"mailingAddress":{"line1":null,"line2":null,"city":null,"state":null,"zip":null},"incomeTract":null,"incomeBlockGroup":null,"nearestRoad":null,"flu":null,"opportunityZone":null,"oz2Eligibility":null,"source":"ga-wilcox-parcels-13315","appraiserUrl":"https://qpublic.schneidercorp.com/Application.aspx?App=WilcoxCountyGA&Layer=Parcels&PageType=Report&KeyValue=086%20%20%20%20018","gisViewerUrl":"https://www.arcgis.com/apps/mapviewer/index.html?url=https://services5.arcgis.com/HHvUPZ2XuLOAJxjR/arcgis/rest/services/Wilcox_County_Wide_View/FeatureServer"},"geometry":{"type":"Polygon","coordinates":[[[-83.237573,31.8599],[-83.237578,31.859419],[-83.237668,31.858175],[-83.236551,31.858172],[-83.236788,31.860396],[-83.237496,31.860753],[-83.237573,31.8599]]]}},{"type":"Feature","id":"13315:086    020","properties":{"id":"13315:086    020","parcelId":"086    020","countyFips":"13315","countyName":"Wilcox","state":"Georgia","marketIds":["Macon"],"situsAddress":null,"situsCity":null,"situsZip":null,"jurisdictionCode":null,"ownerName":null,"ownerName2":null,"propertyName":null,"zoningCode":null,"zoningDistrict":null,"jurisdictionPrefix":null,"dorCode":null,"acreage":6.7079,"centroid":[-83.239977,31.860172],"lastSale":{"date":null,"price":null,"qualified":null},"tax":{"marketValue":null,"assessedValue":null,"taxableValue":null,"taxes":null},"mailingAddress":{"line1":null,"line2":null,"city":null,"state":null,"zip":null},"incomeTract":null,"incomeBlockGroup":null,"nearestRoad":null,"flu":null,"opportunityZone":null,"oz2Eligibility":null,"source":"ga-wilcox-parcels-13315","appraiserUrl":"https://qpublic.schneidercorp.com/Application.aspx?App=WilcoxCountyGA&Layer=Parcels&PageType=Report&KeyValue=086%20%20%20%20020","gisViewerUrl":"https://www.arcgis.com/apps/mapviewer/index.html?url=https://services5.arcgis.com/HHvUPZ2XuLOAJxjR/arcgis/rest/services/Wilcox_County_Wide_View/FeatureServer"},"geometry":{"type":"Polygon","coordinates":[[[-83.239249,31.860412],[-83.23939,31.86049],[-83.239545,31.860599],[-83.239675,31.860718],[-83.239893,31.860978],[-83.24009,31.861014],[-83.240204,31.860942],[-83.240246,31.860848],[-83.240298,31.860532],[-83.240288,31.860334],[-83.240251,31.860256],[-83.240251,31.860137],[-83.240324,31.859691],[-83.240298,31.859442],[-83.240288,31.85818],[-83.239347,31.858178],[-83.239249,31.860412]]]}},{"type":"Feature","id":"13315:086    022","properties":{"id":"13315:086    022","parcelId":"086    022","countyFips":"13315","countyName":"Wilcox","state":"Georgia","marketIds":["Macon"],"situsAddress":null,"situsCity":null,"situsZip":null,"jurisdictionCode":null,"ownerName":null,"ownerName2":null,"propertyName":null,"zoningCode":null,"zoningDistrict":null,"jurisdictionPrefix":null,"dorCode":null,"acreage":24.3948,"centroid":[-83.24391,31.85994],"lastSale":{"date":null,"price":null,"qualified":null},"tax":{"marketValue":null,"assessedValue":null,"taxableValue":null,"taxes":null},"mailingAddress":{"line1":null,"line2":null,"city":null,"state":null,"zip":null},"incomeTract":null,"incomeBlockGroup":null,"nearestRoad":null,"flu":null,"opportunityZone":null,"oz2Eligibility":null,"source":"ga-wilcox-parcels-13315","appraiserUrl":"https://qpublic.schneidercorp.com/Application.aspx?App=WilcoxCountyGA&Layer=Parcels&PageType=Report&KeyValue=086%20%20%20%20022","gisViewerUrl":"https://www.arcgis.com/apps/mapviewer/index.html?url=https://services5.arcgis.com/HHvUPZ2XuLOAJxjR/arcgis/rest/services/Wilcox_County_Wide_View/FeatureServer"},"geometry":{"type":"Polygon","coordinates":[[[-83.247148,31.862535],[-83.247104,31.858195],[-83.240288,31.85818],[-83.240295,31.859063],[-83.244331,31.861232],[-83.244295,31.860433],[-83.247148,31.862535]]]}},{"type":"Feature","id":"13315:086    023","properties":{"id":"13315:086    023","parcelId":"086    023","countyFips":"13315","countyName":"Wilcox","state":"Georgia","marketIds":["Macon"],"situsAddress":null,"situsCity":null,"situsZip":null,"jurisdictionCode":null,"ownerName":null,"ownerName2":null,"propertyName":null,"zoningCode":null,"zoningDistrict":null,"jurisdictionPrefix":null,"dorCode":null,"acreage":31.8545,"centroid":[-83.248419,31.861067],"lastSale":{"date":null,"price":null,"qualified":null},"tax":{"marketValue":null,"assessedValue":null,"taxableValue":null,"taxes":null},"mailingAddress":{"line1":null,"line2":null,"city":null,"state":null,"zip":null},"incomeTract":null,"incomeBlockGroup":null,"nearestRoad":null,"flu":null,"opportunityZone":null,"oz2Eligibility":null,"source":"ga-wilcox-parcels-13315","appraiserUrl":"https://qpublic.schneidercorp.com/Application.aspx?App=WilcoxCountyGA&Layer=Parcels&PageType=Report&KeyValue=086%20%20%20%20023","gisViewerUrl":"https://www.arcgis.com/apps/mapviewer/index.html?url=https://services5.arcgis.com/HHvUPZ2XuLOAJxjR/arcgis/rest/services/Wilcox_County_Wide_View/FeatureServer"},"geometry":{"type":"Polygon","coordinates":[[[-83.247148,31.862535],[-83.248603,31.863608],[-83.249632,31.862799],[-83.249608,31.8582],[-83.247104,31.858195],[-83.247148,31.862535]]]}},{"type":"Feature","id":"13315:086    023 001","properties":{"id":"13315:086    023 001","parcelId":"086    023 001","countyFips":"13315","countyName":"Wilcox","state":"Georgia","marketIds":["Macon"],"situsAddress":null,"situsCity":null,"situsZip":null,"jurisdictionCode":null,"ownerName":null,"ownerName2":null,"propertyName":null,"zoningCode":null,"zoningDistrict":null,"jurisdictionPrefix":null,"dorCode":null,"acreage":6.2536,"centroid":[-83.21836,31.846296],"lastSale":{"date":null,"price":null,"qualified":null},"tax":{"marketValue":null,"assessedValue":null,"taxableValue":null,"taxes":null},"mailingAddress":{"line1":null,"line2":null,"city":null,"state":null,"zip":null},"incomeTract":null,"incomeBlockGroup":null,"nearestRoad":null,"flu":null,"opportunityZone":null,"oz2Eligibility":null,"source":"ga-wilcox-parcels-13315","appraiserUrl":"https://qpublic.schneidercorp.com/Application.aspx?App=WilcoxCountyGA&Layer=Parcels&PageType=Report&KeyValue=086%20%20%20%20023%20001","gisViewerUrl":"https://www.arcgis.com/apps/mapviewer/index.html?url=https://services5.arcgis.com/HHvUPZ2XuLOAJxjR/arcgis/rest/services/Wilcox_County_Wide_View/FeatureServer"},"geometry":{"type":"Polygon","coordinates":[[[-83.218402,31.846949],[-83.218486,31.846669],[-83.218491,31.845513],[-83.218612,31.845514],[-83.218637,31.84672],[-83.218581,31.846971],[-83.218644,31.847407],[-83.219431,31.847336],[-83.219461,31.845479],[-83.21711,31.845464],[-83.217424,31.845653],[-83.217649,31.845816],[-83.21789,31.846074],[-83.218215,31.846585],[-83.218402,31.846949]]]}},{"type":"Feature","id":"13315:086    027","properties":{"id":"13315:086    027","parcelId":"086    027","countyFips":"13315","countyName":"Wilcox","state":"Georgia","marketIds":["Macon"],"situsAddress":null,"situsCity":null,"situsZip":null,"jurisdictionCode":null,"ownerName":null,"ownerName2":null,"propertyName":null,"zoningCode":null,"zoningDistrict":null,"jurisdictionPrefix":null,"dorCode":null,"acreage":10.3796,"centroid":[-83.220818,31.864067],"lastSale":{"date":null,"price":null,"qualified":null},"tax":{"marketValue":null,"assessedValue":null,"taxableValue":null,"taxes":null},"mailingAddress":{"line1":null,"line2":null,"city":null,"state":null,"zip":null},"incomeTract":null,"incomeBlockGroup":null,"nearestRoad":null,"flu":null,"opportunityZone":null,"oz2Eligibility":null,"source":"ga-wilcox-parcels-13315","appraiserUrl":"https://qpublic.schneidercorp.com/Application.aspx?App=WilcoxCountyGA&Layer=Parcels&PageType=Report&KeyValue=086%20%20%20%20027","gisViewerUrl":"https://www.arcgis.com/apps/mapviewer/index.html?url=https://services5.arcgis.com/HHvUPZ2XuLOAJxjR/arcgis/rest/services/Wilcox_County_Wide_View/FeatureServer"},"geometry":{"type":"Polygon","coordinates":[[[-83.219226,31.864156],[-83.220009,31.864829],[-83.222269,31.864821],[-83.222257,31.863294],[-83.22033,31.863235],[-83.219226,31.864156]]]}},{"type":"Feature","id":"13315:086    028","properties":{"id":"13315:086    028","parcelId":"086    028","countyFips":"13315","countyName":"Wilcox","state":"Georgia","marketIds":["Macon"],"situsAddress":null,"situsCity":null,"situsZip":null,"jurisdictionCode":null,"ownerName":null,"ownerName2":null,"propertyName":null,"zoningCode":null,"zoningDistrict":null,"jurisdictionPrefix":null,"dorCode":null,"acreage":10.0507,"centroid":[-83.219898,31.862994],"lastSale":{"date":null,"price":null,"qualified":null},"tax":{"marketValue":null,"assessedValue":null,"taxableValue":null,"taxes":null},"mailingAddress":{"line1":null,"line2":null,"city":null,"state":null,"zip":null},"incomeTract":null,"incomeBlockGroup":null,"nearestRoad":null,"flu":null,"opportunityZone":null,"oz2Eligibility":null,"source":"ga-wilcox-parcels-13315","appraiserUrl":"https://qpublic.schneidercorp.com/Application.aspx?App=WilcoxCountyGA&Layer=Parcels&PageType=Report&KeyValue=086%20%20%20%20028","gisViewerUrl":"https://www.arcgis.com/apps/mapviewer/index.html?url=https://services5.arcgis.com/HHvUPZ2XuLOAJxjR/arcgis/rest/services/Wilcox_County_Wide_View/FeatureServer"},"geometry":{"type":"Polygon","coordinates":[[[-83.220045,31.863104],[-83.22077,31.86214],[-83.218819,31.86101],[-83.217427,31.862949],[-83.218633,31.863691],[-83.219354,31.862747],[-83.218902,31.86239],[-83.219509,31.861807],[-83.220235,31.862188],[-83.219533,31.862818],[-83.219207,31.863247],[-83.220045,31.863104]]]}},{"type":"Feature","id":"13315:086    029","properties":{"id":"13315:086    029","parcelId":"086    029","countyFips":"13315","countyName":"Wilcox","state":"Georgia","marketIds":["Macon"],"situsAddress":null,"situsCity":null,"situsZip":null,"jurisdictionCode":null,"ownerName":null,"ownerName2":null,"propertyName":null,"zoningCode":null,"zoningDistrict":null,"jurisdictionPrefix":null,"dorCode":null,"acreage":10.2542,"centroid":[-83.214984,31.863923],"lastSale":{"date":null,"price":null,"qualified":null},"tax":{"marketValue":null,"assessedValue":null,"taxableValue":null,"taxes":null},"mailingAddress":{"line1":null,"line2":null,"city":null,"state":null,"zip":null},"incomeTract":null,"incomeBlockGroup":null,"nearestRoad":null,"flu":null,"opportunityZone":null,"oz2Eligibility":null,"source":"ga-wilcox-parcels-13315","appraiserUrl":"https://qpublic.schneidercorp.com/Application.aspx?App=WilcoxCountyGA&Layer=Parcels&PageType=Report&KeyValue=086%20%20%20%20029","gisViewerUrl":"https://www.arcgis.com/apps/mapviewer/index.html?url=https://services5.arcgis.com/HHvUPZ2XuLOAJxjR/arcgis/rest/services/Wilcox_County_Wide_View/FeatureServer"},"geometry":{"type":"Polygon","coordinates":[[[-83.213923,31.862987],[-83.213884,31.864838],[-83.216049,31.864838],[-83.216081,31.863031],[-83.213923,31.862987]]]}},{"type":"Feature","id":"13315:086    030","properties":{"id":"13315:086    030","parcelId":"086    030","countyFips":"13315","countyName":"Wilcox","state":"Georgia","marketIds":["Macon"],"situsAddress":null,"situsCity":null,"situsZip":null,"jurisdictionCode":null,"ownerName":null,"ownerName2":null,"propertyName":null,"zoningCode":null,"zoningDistrict":null,"jurisdictionPrefix":null,"dorCode":null,"acreage":10.4455,"centroid":[-83.21502,31.862074],"lastSale":{"date":null,"price":null,"qualified":null},"tax":{"marketValue":null,"assessedValue":null,"taxableValue":null,"taxes":null},"mailingAddress":{"line1":null,"line2":null,"city":null,"state":null,"zip":null},"incomeTract":null,"incomeBlockGroup":null,"nearestRoad":null,"flu":null,"opportunityZone":null,"oz2Eligibility":null,"source":"ga-wilcox-parcels-13315","appraiserUrl":"https://qpublic.schneidercorp.com/Application.aspx?App=WilcoxCountyGA&Layer=Parcels&PageType=Report&KeyValue=086%20%20%20%20030","gisViewerUrl":"https://www.arcgis.com/apps/mapviewer/index.html?url=https://services5.arcgis.com/HHvUPZ2XuLOAJxjR/arcgis/rest/services/Wilcox_County_Wide_View/FeatureServer"},"geometry":{"type":"Polygon","coordinates":[[[-83.213923,31.862987],[-83.216081,31.863031],[-83.216114,31.861155],[-83.213961,31.861125],[-83.213923,31.862987]]]}},{"type":"Feature","id":"13315:086    041","properties":{"id":"13315:086    041","parcelId":"086    041","countyFips":"13315","countyName":"Wilcox","state":"Georgia","marketIds":["Macon"],"situsAddress":null,"situsCity":null,"situsZip":null,"jurisdictionCode":null,"ownerName":null,"ownerName2":null,"propertyName":null,"zoningCode":null,"zoningDistrict":null,"jurisdictionPrefix":null,"dorCode":null,"acreage":5.0924,"centroid":[-83.227988,31.862818],"lastSale":{"date":null,"price":null,"qualified":null},"tax":{"marketValue":null,"assessedValue":null,"taxableValue":null,"taxes":null},"mailingAddress":{"line1":null,"line2":null,"city":null,"state":null,"zip":null},"incomeTract":null,"incomeBlockGroup":null,"nearestRoad":null,"flu":null,"opportunityZone":null,"oz2Eligibility":null,"source":"ga-wilcox-parcels-13315","appraiserUrl":"https://qpublic.schneidercorp.com/Application.aspx?App=WilcoxCountyGA&Layer=Parcels&PageType=Report&KeyValue=086%20%20%20%20041","gisViewerUrl":"https://www.arcgis.com/apps/mapviewer/index.html?url=https://services5.arcgis.com/HHvUPZ2XuLOAJxjR/arcgis/rest/services/Wilcox_County_Wide_View/FeatureServer"},"geometry":{"type":"Polygon","coordinates":[[[-83.227612,31.862408],[-83.227615,31.862478],[-83.226962,31.862765],[-83.227415,31.863435],[-83.229173,31.863424],[-83.229153,31.862397],[-83.227612,31.862408]]]}},{"type":"Feature","id":"13315:088    001","properties":{"id":"13315:088    001","parcelId":"088    001","countyFips":"13315","countyName":"Wilcox","state":"Georgia","marketIds":["Macon"],"situsAddress":null,"situsCity":null,"situsZip":null,"jurisdictionCode":null,"ownerName":null,"ownerName2":null,"propertyName":null,"zoningCode":null,"zoningDistrict":null,"jurisdictionPrefix":null,"dorCode":null,"acreage":116.6945,"centroid":[-83.200722,31.86806],"lastSale":{"date":null,"price":null,"qualified":null},"tax":{"marketValue":null,"assessedValue":null,"taxableValue":null,"taxes":null},"mailingAddress":{"line1":null,"line2":null,"city":null,"state":null,"zip":null},"incomeTract":null,"incomeBlockGroup":null,"nearestRoad":null,"flu":null,"opportunityZone":null,"oz2Eligibility":null,"source":"ga-wilcox-parcels-13315","appraiserUrl":"https://qpublic.schneidercorp.com/Application.aspx?App=WilcoxCountyGA&Layer=Parcels&PageType=Report&KeyValue=088%20%20%20%20001","gisViewerUrl":"https://www.arcgis.com/apps/mapviewer/index.html?url=https://services5.arcgis.com/HHvUPZ2XuLOAJxjR/arcgis/rest/services/Wilcox_County_Wide_View/FeatureServer"},"geometry":{"type":"Polygon","coordinates":[[[-83.197134,31.864908],[-83.197187,31.871193],[-83.204255,31.871245],[-83.204313,31.864895],[-83.197134,31.864908]]]}},{"type":"Feature","id":"13315:088    002","properties":{"id":"13315:088    002","parcelId":"088    002","countyFips":"13315","countyName":"Wilcox","state":"Georgia","marketIds":["Macon"],"situsAddress":null,"situsCity":null,"situsZip":null,"jurisdictionCode":null,"ownerName":null,"ownerName2":null,"propertyName":null,"zoningCode":null,"zoningDistrict":null,"jurisdictionPrefix":null,"dorCode":null,"acreage":65.5538,"centroid":[-83.20073,31.859841],"lastSale":{"date":null,"price":null,"qualified":null},"tax":{"marketValue":null,"assessedValue":null,"taxableValue":null,"taxes":null},"mailingAddress":{"line1":null,"line2":null,"city":null,"state":null,"zip":null},"incomeTract":null,"incomeBlockGroup":null,"nearestRoad":null,"flu":null,"opportunityZone":null,"oz2Eligibility":null,"source":"ga-wilcox-parcels-13315","appraiserUrl":"https://qpublic.schneidercorp.com/Application.aspx?App=WilcoxCountyGA&Layer=Parcels&PageType=Report&KeyValue=088%20%20%20%20002","gisViewerUrl":"https://www.arcgis.com/apps/mapviewer/index.html?url=https://services5.arcgis.com/HHvUPZ2XuLOAJxjR/arcgis/rest/services/Wilcox_County_Wide_View/FeatureServer"},"geometry":{"type":"Polygon","coordinates":[[[-83.197077,31.858114],[-83.197106,31.861574],[-83.204349,31.861581],[-83.204387,31.858093],[-83.197077,31.858114]]]}},{"type":"Feature","id":"13315:088    003","properties":{"id":"13315:088    003","parcelId":"088    003","countyFips":"13315","countyName":"Wilcox","state":"Georgia","marketIds":["Macon"],"situsAddress":null,"situsCity":null,"situsZip":null,"jurisdictionCode":null,"ownerName":null,"ownerName2":null,"propertyName":null,"zoningCode":null,"zoningDistrict":null,"jurisdictionPrefix":null,"dorCode":null,"acreage":67.4758,"centroid":[-83.193316,31.859848],"lastSale":{"date":null,"price":null,"qualified":null},"tax":{"marketValue":null,"assessedValue":null,"taxableValue":null,"taxes":null},"mailingAddress":{"line1":null,"line2":null,"city":null,"state":null,"zip":null},"incomeTract":null,"incomeBlockGroup":null,"nearestRoad":null,"flu":null,"opportunityZone":null,"oz2Eligibility":null,"source":"ga-wilcox-parcels-13315","appraiserUrl":"https://qpublic.schneidercorp.com/Application.aspx?App=WilcoxCountyGA&Layer=Parcels&PageType=Report&KeyValue=088%20%20%20%20003","gisViewerUrl":"https://www.arcgis.com/apps/mapviewer/index.html?url=https://services5.arcgis.com/HHvUPZ2XuLOAJxjR/arcgis/rest/services/Wilcox_County_Wide_View/FeatureServer"},"geometry":{"type":"Polygon","coordinates":[[[-83.197077,31.858114],[-83.189529,31.858135],[-83.189551,31.861567],[-83.197106,31.861574],[-83.197077,31.858114]]]}},{"type":"Feature","id":"13315:088    004","properties":{"id":"13315:088    004","parcelId":"088    004","countyFips":"13315","countyName":"Wilcox","state":"Georgia","marketIds":["Macon"],"situsAddress":null,"situsCity":null,"situsZip":null,"jurisdictionCode":null,"ownerName":null,"ownerName2":null,"propertyName":null,"zoningCode":null,"zoningDistrict":null,"jurisdictionPrefix":null,"dorCode":null,"acreage":26.4339,"centroid":[-83.196949,31.861919],"lastSale":{"date":null,"price":null,"qualified":null},"tax":{"marketValue":null,"assessedValue":null,"taxableValue":null,"taxes":null},"mailingAddress":{"line1":null,"line2":null,"city":null,"state":null,"zip":null},"incomeTract":null,"incomeBlockGroup":null,"nearestRoad":null,"flu":null,"opportunityZone":null,"oz2Eligibility":null,"source":"ga-wilcox-parcels-13315","appraiserUrl":"https://qpublic.schneidercorp.com/Application.aspx?App=WilcoxCountyGA&Layer=Parcels&PageType=Report&KeyValue=088%20%20%20%20004","gisViewerUrl":"https://www.arcgis.com/apps/mapviewer/index.html?url=https://services5.arcgis.com/HHvUPZ2XuLOAJxjR/arcgis/rest/services/Wilcox_County_Wide_View/FeatureServer"},"geometry":{"type":"Polygon","coordinates":[[[-83.189551,31.861567],[-83.189555,31.862235],[-83.204341,31.862291],[-83.204349,31.861581],[-83.189551,31.861567]]]}},{"type":"Feature","id":"13315:088    005","properties":{"id":"13315:088    005","parcelId":"088    005","countyFips":"13315","countyName":"Wilcox","state":"Georgia","marketIds":["Macon"],"situsAddress":null,"situsCity":null,"situsZip":null,"jurisdictionCode":null,"ownerName":null,"ownerName2":null,"propertyName":null,"zoningCode":null,"zoningDistrict":null,"jurisdictionPrefix":null,"dorCode":null,"acreage":24.0041,"centroid":[-83.196947,31.862576],"lastSale":{"date":null,"price":null,"qualified":null},"tax":{"marketValue":null,"assessedValue":null,"taxableValue":null,"taxes":null},"mailingAddress":{"line1":null,"line2":null,"city":null,"state":null,"zip":null},"incomeTract":null,"incomeBlockGroup":null,"nearestRoad":null,"flu":null,"opportunityZone":null,"oz2Eligibility":null,"source":"ga-wilcox-parcels-13315","appraiserUrl":"https://qpublic.schneidercorp.com/Application.aspx?App=WilcoxCountyGA&Layer=Parcels&PageType=Report&KeyValue=088%20%20%20%20005","gisViewerUrl":"https://www.arcgis.com/apps/mapviewer/index.html?url=https://services5.arcgis.com/HHvUPZ2XuLOAJxjR/arcgis/rest/services/Wilcox_County_Wide_View/FeatureServer"},"geometry":{"type":"Polygon","coordinates":[[[-83.189555,31.862235],[-83.189559,31.862875],[-83.204334,31.862903],[-83.204341,31.862291],[-83.189555,31.862235]]]}},{"type":"Feature","id":"13315:088    006","properties":{"id":"13315:088    006","parcelId":"088    006","countyFips":"13315","countyName":"Wilcox","state":"Georgia","marketIds":["Macon"],"situsAddress":null,"situsCity":null,"situsZip":null,"jurisdictionCode":null,"ownerName":null,"ownerName2":null,"propertyName":null,"zoningCode":null,"zoningDistrict":null,"jurisdictionPrefix":null,"dorCode":null,"acreage":26.1554,"centroid":[-83.196946,31.863231],"lastSale":{"date":null,"price":null,"qualified":null},"tax":{"marketValue":null,"assessedValue":null,"taxableValue":null,"taxes":null},"mailingAddress":{"line1":null,"line2":null,"city":null,"state":null,"zip":null},"incomeTract":null,"incomeBlockGroup":null,"nearestRoad":null,"flu":null,"opportunityZone":null,"oz2Eligibility":null,"source":"ga-wilcox-parcels-13315","appraiserUrl":"https://qpublic.schneidercorp.com/Application.aspx?App=WilcoxCountyGA&Layer=Parcels&PageType=Report&KeyValue=088%20%20%20%20006","gisViewerUrl":"https://www.arcgis.com/apps/mapviewer/index.html?url=https://services5.arcgis.com/HHvUPZ2XuLOAJxjR/arcgis/rest/services/Wilcox_County_Wide_View/FeatureServer"},"geometry":{"type":"Polygon","coordinates":[[[-83.189559,31.862875],[-83.189564,31.863572],[-83.204327,31.863573],[-83.204334,31.862903],[-83.189559,31.862875]]]}},{"type":"Feature","id":"13315:088    007","properties":{"id":"13315:088    007","parcelId":"088    007","countyFips":"13315","countyName":"Wilcox","state":"Georgia","marketIds":["Macon"],"situsAddress":null,"situsCity":null,"situsZip":null,"jurisdictionCode":null,"ownerName":null,"ownerName2":null,"propertyName":null,"zoningCode":null,"zoningDistrict":null,"jurisdictionPrefix":null,"dorCode":null,"acreage":25.5522,"centroid":[-83.196945,31.863906],"lastSale":{"date":null,"price":null,"qualified":null},"tax":{"marketValue":null,"assessedValue":null,"taxableValue":null,"taxes":null},"mailingAddress":{"line1":null,"line2":null,"city":null,"state":null,"zip":null},"incomeTract":null,"incomeBlockGroup":null,"nearestRoad":null,"flu":null,"opportunityZone":null,"oz2Eligibility":null,"source":"ga-wilcox-parcels-13315","appraiserUrl":"https://qpublic.schneidercorp.com/Application.aspx?App=WilcoxCountyGA&Layer=Parcels&PageType=Report&KeyValue=088%20%20%20%20007","gisViewerUrl":"https://www.arcgis.com/apps/mapviewer/index.html?url=https://services5.arcgis.com/HHvUPZ2XuLOAJxjR/arcgis/rest/services/Wilcox_County_Wide_View/FeatureServer"},"geometry":{"type":"Polygon","coordinates":[[[-83.189564,31.863572],[-83.189568,31.86424],[-83.20432,31.86424],[-83.204327,31.863573],[-83.189564,31.863572]]]}},{"type":"Feature","id":"13315:088    008","properties":{"id":"13315:088    008","parcelId":"088    008","countyFips":"13315","countyName":"Wilcox","state":"Georgia","marketIds":["Macon"],"situsAddress":null,"situsCity":null,"situsZip":null,"jurisdictionCode":null,"ownerName":null,"ownerName2":null,"propertyName":null,"zoningCode":null,"zoningDistrict":null,"jurisdictionPrefix":null,"dorCode":null,"acreage":25.5566,"centroid":[-83.200099,31.864666],"lastSale":{"date":null,"price":null,"qualified":null},"tax":{"marketValue":null,"assessedValue":null,"taxableValue":null,"taxes":null},"mailingAddress":{"line1":null,"line2":null,"city":null,"state":null,"zip":null},"incomeTract":null,"incomeBlockGroup":null,"nearestRoad":null,"flu":null,"opportunityZone":null,"oz2Eligibility":null,"source":"ga-wilcox-parcels-13315","appraiserUrl":"https://qpublic.schneidercorp.com/Application.aspx?App=WilcoxCountyGA&Layer=Parcels&PageType=Report&KeyValue=088%20%20%20%20008","gisViewerUrl":"https://www.arcgis.com/apps/mapviewer/index.html?url=https://services5.arcgis.com/HHvUPZ2XuLOAJxjR/arcgis/rest/services/Wilcox_County_Wide_View/FeatureServer"},"geometry":{"type":"Polygon","coordinates":[[[-83.189568,31.86424],[-83.189572,31.864922],[-83.204313,31.864895],[-83.204314,31.864808],[-83.204293,31.864801],[-83.204314,31.864754],[-83.20432,31.86424],[-83.189568,31.86424]]]}},{"type":"Feature","id":"13315:086A   001 001","properties":{"id":"13315:086A   001 001","parcelId":"086A   001 001","countyFips":"13315","countyName":"Wilcox","state":"Georgia","marketIds":["Macon"],"situsAddress":null,"situsCity":null,"situsZip":null,"jurisdictionCode":null,"ownerName":null,"ownerName2":null,"propertyName":null,"zoningCode":null,"zoningDistrict":null,"jurisdictionPrefix":null,"dorCode":null,"acreage":19.7687,"centroid":[-83.21809,31.85608],"lastSale":{"date":null,"price":null,"qualified":null},"tax":{"marketValue":null,"assessedValue":null,"taxableValue":null,"taxes":null},"mailingAddress":{"line1":null,"line2":null,"city":null,"state":null,"zip":null},"incomeTract":null,"incomeBlockGroup":null,"nearestRoad":null,"flu":null,"opportunityZone":null,"oz2Eligibility":null,"source":"ga-wilcox-parcels-13315","appraiserUrl":"https://qpublic.schneidercorp.com/Application.aspx?App=WilcoxCountyGA&Layer=Parcels&PageType=Report&KeyValue=086A%20%20%20001%20001","gisViewerUrl":"https://www.arcgis.com/apps/mapviewer/index.html?url=https://services5.arcgis.com/HHvUPZ2XuLOAJxjR/arcgis/rest/services/Wilcox_County_Wide_View/FeatureServer"},"geometry":{"type":"Polygon","coordinates":[[[-83.217314,31.856179],[-83.217397,31.856406],[-83.217633,31.857052],[-83.215031,31.857818],[-83.215038,31.85795],[-83.220676,31.857953],[-83.219818,31.856562],[-83.21949,31.855815],[-83.219011,31.854826],[-83.218849,31.854426],[-83.218384,31.854551],[-83.218538,31.854919],[-83.218394,31.855445],[-83.21794,31.855553],[-83.218037,31.855716],[-83.217889,31.856116],[-83.217314,31.856179]]]}},{"type":"Feature","id":"13315:086A   024002","properties":{"id":"13315:086A   024002","parcelId":"086A   024002","countyFips":"13315","countyName":"Wilcox","state":"Georgia","marketIds":["Macon"],"situsAddress":null,"situsCity":null,"situsZip":null,"jurisdictionCode":null,"ownerName":null,"ownerName2":null,"propertyName":null,"zoningCode":null,"zoningDistrict":null,"jurisdictionPrefix":null,"dorCode":null,"acreage":8.4518,"centroid":[-83.216008,31.85413],"lastSale":{"date":null,"price":null,"qualified":null},"tax":{"marketValue":null,"assessedValue":null,"taxableValue":null,"taxes":null},"mailingAddress":{"line1":null,"line2":null,"city":null,"state":null,"zip":null},"incomeTract":null,"incomeBlockGroup":null,"nearestRoad":null,"flu":null,"opportunityZone":null,"oz2Eligibility":null,"source":"ga-wilcox-parcels-13315","appraiserUrl":"https://qpublic.schneidercorp.com/Application.aspx?App=WilcoxCountyGA&Layer=Parcels&PageType=Report&KeyValue=086A%20%20%20024002","gisViewerUrl":"https://www.arcgis.com/apps/mapviewer/index.html?url=https://services5.arcgis.com/HHvUPZ2XuLOAJxjR/arcgis/rest/services/Wilcox_County_Wide_View/FeatureServer"},"geometry":{"type":"Polygon","coordinates":[[[-83.214888,31.85501],[-83.214888,31.85501],[-83.214911,31.855459],[-83.217726,31.854681],[-83.21776,31.854602],[-83.216757,31.854875],[-83.216241,31.853316],[-83.216115,31.853341],[-83.216041,31.853312],[-83.215995,31.853214],[-83.216023,31.853134],[-83.214747,31.853607],[-83.214888,31.85501]]]}},{"type":"Feature","id":"13315:086    037","properties":{"id":"13315:086    037","parcelId":"086    037","countyFips":"13315","countyName":"Wilcox","state":"Georgia","marketIds":["Macon"],"situsAddress":null,"situsCity":null,"situsZip":null,"jurisdictionCode":null,"ownerName":null,"ownerName2":null,"propertyName":null,"zoningCode":null,"zoningDistrict":null,"jurisdictionPrefix":null,"dorCode":null,"acreage":7.8608,"centroid":[-83.214266,31.852346],"lastSale":{"date":null,"price":null,"qualified":null},"tax":{"marketValue":null,"assessedValue":null,"taxableValue":null,"taxes":null},"mailingAddress":{"line1":null,"line2":null,"city":null,"state":null,"zip":null},"incomeTract":null,"incomeBlockGroup":null,"nearestRoad":null,"flu":null,"opportunityZone":null,"oz2Eligibility":null,"source":"ga-wilcox-parcels-13315","appraiserUrl":"https://qpublic.schneidercorp.com/Application.aspx?App=WilcoxCountyGA&Layer=Parcels&PageType=Report&KeyValue=086%20%20%20%20037","gisViewerUrl":"https://www.arcgis.com/apps/mapviewer/index.html?url=https://services5.arcgis.com/HHvUPZ2XuLOAJxjR/arcgis/rest/services/Wilcox_County_Wide_View/FeatureServer"},"geometry":{"type":"Polygon","coordinates":[[[-83.214771,31.852705],[-83.214794,31.853153],[-83.214816,31.85359],[-83.216023,31.853134],[-83.216057,31.853077],[-83.215568,31.852016],[-83.214751,31.85231],[-83.214717,31.851637],[-83.213836,31.851866],[-83.213869,31.851892],[-83.213888,31.85199],[-83.213846,31.852081],[-83.213745,31.852115],[-83.213631,31.852125],[-83.213551,31.852062],[-83.213519,31.85197],[-83.213611,31.851865],[-83.212788,31.851898],[-83.212782,31.853022],[-83.214756,31.85242],[-83.214771,31.852705]]]}},{"type":"Feature","id":"13315:086A   045","properties":{"id":"13315:086A   045","parcelId":"086A   045","countyFips":"13315","countyName":"Wilcox","state":"Georgia","marketIds":["Macon"],"situsAddress":null,"situsCity":null,"situsZip":null,"jurisdictionCode":null,"ownerName":null,"ownerName2":null,"propertyName":null,"zoningCode":null,"zoningDistrict":null,"jurisdictionPrefix":null,"dorCode":null,"acreage":6.9184,"centroid":[-83.215504,31.849563],"lastSale":{"date":null,"price":null,"qualified":null},"tax":{"marketValue":null,"assessedValue":null,"taxableValue":null,"taxes":null},"mailingAddress":{"line1":null,"line2":null,"city":null,"state":null,"zip":null},"incomeTract":null,"incomeBlockGroup":null,"nearestRoad":null,"flu":null,"opportunityZone":null,"oz2Eligibility":null,"source":"ga-wilcox-parcels-13315","appraiserUrl":"https://qpublic.schneidercorp.com/Application.aspx?App=WilcoxCountyGA&Layer=Parcels&PageType=Report&KeyValue=086A%20%20%20045","gisViewerUrl":"https://www.arcgis.com/apps/mapviewer/index.html?url=https://services5.arcgis.com/HHvUPZ2XuLOAJxjR/arcgis/rest/services/Wilcox_County_Wide_View/FeatureServer"},"geometry":{"type":"Polygon","coordinates":[[[-83.21429,31.849307],[-83.214854,31.850543],[-83.216712,31.849798],[-83.216159,31.848606],[-83.21429,31.849307]]]}},{"type":"Feature","id":"13315:086A   058","properties":{"id":"13315:086A   058","parcelId":"086A   058","countyFips":"13315","countyName":"Wilcox","state":"Georgia","marketIds":["Macon"],"situsAddress":null,"situsCity":null,"situsZip":null,"jurisdictionCode":null,"ownerName":null,"ownerName2":null,"propertyName":null,"zoningCode":null,"zoningDistrict":null,"jurisdictionPrefix":null,"dorCode":null,"acreage":5.7176,"centroid":[-83.213417,31.848712],"lastSale":{"date":null,"price":null,"qualified":null},"tax":{"marketValue":null,"assessedValue":null,"taxableValue":null,"taxes":null},"mailingAddress":{"line1":null,"line2":null,"city":null,"state":null,"zip":null},"incomeTract":null,"incomeBlockGroup":null,"nearestRoad":null,"flu":null,"opportunityZone":null,"oz2Eligibility":null,"source":"ga-wilcox-parcels-13315","appraiserUrl":"https://qpublic.schneidercorp.com/Application.aspx?App=WilcoxCountyGA&Layer=Parcels&PageType=Report&KeyValue=086A%20%20%20058","gisViewerUrl":"https://www.arcgis.com/apps/mapviewer/index.html?url=https://services5.arcgis.com/HHvUPZ2XuLOAJxjR/arcgis/rest/services/Wilcox_County_Wide_View/FeatureServer"},"geometry":{"type":"Polygon","coordinates":[[[-83.212816,31.846589],[-83.2128,31.849534],[-83.213556,31.849656],[-83.213551,31.849582],[-83.213599,31.849519],[-83.21407,31.849244],[-83.213773,31.84837],[-83.213172,31.847199],[-83.212816,31.846589]]]}},{"type":"Feature","id":"13315:086    016 010","properties":{"id":"13315:086    016 010","parcelId":"086    016 010","countyFips":"13315","countyName":"Wilcox","state":"Georgia","marketIds":["Macon"],"situsAddress":null,"situsCity":null,"situsZip":null,"jurisdictionCode":null,"ownerName":null,"ownerName2":null,"propertyName":null,"zoningCode":null,"zoningDistrict":null,"jurisdictionPrefix":null,"dorCode":null,"acreage":11.0733,"centroid":[-83.220998,31.856206],"lastSale":{"date":null,"price":null,"qualified":null},"tax":{"marketValue":null,"assessedValue":null,"taxableValue":null,"taxes":null},"mailingAddress":{"line1":null,"line2":null,"city":null,"state":null,"zip":null},"incomeTract":null,"incomeBlockGroup":null,"nearestRoad":null,"flu":null,"opportunityZone":null,"oz2Eligibility":null,"source":"ga-wilcox-parcels-13315","appraiserUrl":"https://qpublic.schneidercorp.com/Application.aspx?App=WilcoxCountyGA&Layer=Parcels&PageType=Report&KeyValue=086%20%20%20%20016%20010","gisViewerUrl":"https://www.arcgis.com/apps/mapviewer/index.html?url=https://services5.arcgis.com/HHvUPZ2XuLOAJxjR/arcgis/rest/services/Wilcox_County_Wide_View/FeatureServer"},"geometry":{"type":"Polygon","coordinates":[[[-83.221076,31.857811],[-83.221098,31.857265],[-83.221537,31.856672],[-83.221676,31.85622],[-83.221621,31.855459],[-83.221745,31.855419],[-83.22159,31.853812],[-83.220375,31.854984],[-83.219728,31.855574],[-83.22003,31.856208],[-83.220543,31.857209],[-83.220953,31.857836],[-83.221076,31.857811]]]}},{"type":"Feature","id":"13315:086A   024","properties":{"id":"13315:086A   024","parcelId":"086A   024","countyFips":"13315","countyName":"Wilcox","state":"Georgia","marketIds":["Macon"],"situsAddress":null,"situsCity":null,"situsZip":null,"jurisdictionCode":null,"ownerName":null,"ownerName2":null,"propertyName":null,"zoningCode":null,"zoningDistrict":null,"jurisdictionPrefix":null,"dorCode":null,"acreage":10.1714,"centroid":[-83.216952,31.853465],"lastSale":{"date":null,"price":null,"qualified":null},"tax":{"marketValue":null,"assessedValue":null,"taxableValue":null,"taxes":null},"mailingAddress":{"line1":null,"line2":null,"city":null,"state":null,"zip":null},"incomeTract":null,"incomeBlockGroup":null,"nearestRoad":null,"flu":null,"opportunityZone":null,"oz2Eligibility":null,"source":"ga-wilcox-parcels-13315","appraiserUrl":"https://qpublic.schneidercorp.com/Application.aspx?App=WilcoxCountyGA&Layer=Parcels&PageType=Report&KeyValue=086A%20%20%20024","gisViewerUrl":"https://www.arcgis.com/apps/mapviewer/index.html?url=https://services5.arcgis.com/HHvUPZ2XuLOAJxjR/arcgis/rest/services/Wilcox_County_Wide_View/FeatureServer"},"geometry":{"type":"Polygon","coordinates":[[[-83.216241,31.853316],[-83.216757,31.854875],[-83.21881,31.854312],[-83.217928,31.852435],[-83.216264,31.853048],[-83.216312,31.853073],[-83.216351,31.853194],[-83.216241,31.853316]]]}},{"type":"Feature","id":"13315:084    006 001","properties":{"id":"13315:084    006 001","parcelId":"084    006 001","countyFips":"13315","countyName":"Wilcox","state":"Georgia","marketIds":["Macon"],"situsAddress":null,"situsCity":null,"situsZip":null,"jurisdictionCode":null,"ownerName":null,"ownerName2":null,"propertyName":null,"zoningCode":null,"zoningDistrict":null,"jurisdictionPrefix":null,"dorCode":null,"acreage":9.1005,"centroid":[-83.247875,31.904791],"lastSale":{"date":null,"price":null,"qualified":null},"tax":{"marketValue":null,"assessedValue":null,"taxableValue":null,"taxes":null},"mailingAddress":{"line1":null,"line2":null,"city":null,"state":null,"zip":null},"incomeTract":null,"incomeBlockGroup":null,"nearestRoad":null,"flu":null,"opportunityZone":null,"oz2Eligibility":null,"source":"ga-wilcox-parcels-13315","appraiserUrl":"https://qpublic.schneidercorp.com/Application.aspx?App=WilcoxCountyGA&Layer=Parcels&PageType=Report&KeyValue=084%20%20%20%20006%20001","gisViewerUrl":"https://www.arcgis.com/apps/mapviewer/index.html?url=https://services5.arcgis.com/HHvUPZ2XuLOAJxjR/arcgis/rest/services/Wilcox_County_Wide_View/FeatureServer"},"geometry":{"type":"Polygon","coordinates":[[[-83.248176,31.904477],[-83.248015,31.904473],[-83.247479,31.90446],[-83.247913,31.904902],[-83.247237,31.904885],[-83.247808,31.905467],[-83.248207,31.904932],[-83.248166,31.904732],[-83.248176,31.904477]]]}}]}