{"type":"FeatureCollection","name":"01079--17_31","features":[{"type":"Feature","id":"01079:02072500000020000","properties":{"id":"01079:02072500000020000","parcelId":"02072500000020000","countyFips":"01079","countyName":"Lawrence","state":"Alabama","marketIds":["Huntsville"],"situsAddress":"0","situsCity":null,"situsZip":null,"jurisdictionCode":null,"ownerName":"MCWHORTER CARY GARTH BANKHEAD ETAL","ownerName2":null,"propertyName":null,"zoningCode":null,"zoningDistrict":null,"jurisdictionPrefix":null,"dorCode":null,"acreage":97.8612,"centroid":[-87.22439,34.753667],"lastSale":{"date":"2015-03-23","price":null,"qualified":null},"tax":{"marketValue":71704.0,"assessedValue":7180.0,"taxableValue":null,"taxes":222.06},"mailingAddress":{"line1":"260 WAVERLY RD","line2":null,"city":"AUBURN","state":"AL","zip":"36832"},"incomeTract":null,"incomeBlockGroup":null,"nearestRoad":null,"flu":null,"opportunityZone":null,"oz2Eligibility":null,"source":"al-lawrence-parcels-01079","appraiserUrl":"https://lawrenceproperty.countygovservices.com/Property/Summary?taxyear=2026&ppin=955971","gisViewerUrl":"https://isv.kcsgis.com/al.lawrence_revenue/"},"geometry":{"type":"Polygon","coordinates":[[[-87.218656,34.753761],[-87.218635,34.755115],[-87.22497,34.755126],[-87.22494,34.754438],[-87.22565,34.754432],[-87.225549,34.753972],[-87.225421,34.753571],[-87.225433,34.753533],[-87.225474,34.753514],[-87.22554,34.753548],[-87.22556,34.753644],[-87.22563,34.75366],[-87.225669,34.753694],[-87.225662,34.753784],[-87.225681,34.753867],[-87.225669,34.753943],[-87.225694,34.753994],[-87.225897,34.754093],[-87.225969,34.754161],[-87.226024,34.754429],[-87.228206,34.75441],[-87.228195,34.754067],[-87.229866,34.754052],[-87.229823,34.750781],[-87.220975,34.750876],[-87.221002,34.752501],[-87.219072,34.753041],[-87.21904,34.753183],[-87.218978,34.753317],[-87.218833,34.753496],[-87.218656,34.753761]]]}},{"type":"Feature","id":"01079:02072500000010000","properties":{"id":"01079:02072500000010000","parcelId":"02072500000010000","countyFips":"01079","countyName":"Lawrence","state":"Alabama","marketIds":["Huntsville"],"situsAddress":"6505 COUNTY RD 400","situsCity":null,"situsZip":null,"jurisdictionCode":null,"ownerName":"T V A","ownerName2":null,"propertyName":null,"zoningCode":null,"zoningDistrict":null,"jurisdictionPrefix":null,"dorCode":null,"acreage":37.4837,"centroid":[-87.219313,34.755784],"lastSale":{"date":null,"price":null,"qualified":null},"tax":{"marketValue":181500.0,"assessedValue":12700.0,"taxableValue":null,"taxes":null},"mailingAddress":{"line1":"4611 LUPTON BLDG","line2":null,"city":"CHATTANOOGA","state":"TN","zip":"37410"},"incomeTract":null,"incomeBlockGroup":null,"nearestRoad":null,"flu":null,"opportunityZone":null,"oz2Eligibility":null,"source":"al-lawrence-parcels-01079","appraiserUrl":"https://lawrenceproperty.countygovservices.com/Property/Summary?taxyear=2026&ppin=955970","gisViewerUrl":"https://isv.kcsgis.com/al.lawrence_revenue/"},"geometry":{"type":"MultiPolygon","coordinates":[[[[-87.219357,34.756056],[-87.219377,34.756039],[-87.219454,34.756005],[-87.219541,34.756004],[-87.219871,34.756089],[-87.220366,34.756144],[-87.220851,34.756238],[-87.220982,34.756245],[-87.221174,34.756209],[-87.2214,34.756115],[-87.221579,34.756013],[-87.221631,34.75592],[-87.221605,34.755696],[-87.221637,34.755652],[-87.221686,34.755629],[-87.221735,34.755628],[-87.221791,34.755655],[-87.221923,34.755882],[-87.222036,34.755976],[-87.222184,34.756026],[-87.222517,34.756051],[-87.222958,34.756002],[-87.22399,34.755749],[-87.224374,34.755604],[-87.224481,34.755599],[-87.224716,34.75564],[-87.224849,34.75564],[-87.225251,34.755564],[-87.225362,34.755499],[-87.225581,34.75523],[-87.22558,34.755142],[-87.225515,34.755071],[-87.225503,34.755029],[-87.225653,34.754707],[-87.225675,34.754597],[-87.225666,34.754486],[-87.22565,34.754432],[-87.22494,34.754438],[-87.22497,34.755126],[-87.218635,34.755115],[-87.218656,34.753761],[-87.218833,34.753496],[-87.218978,34.753317],[-87.21904,34.753183],[-87.219072,34.753041],[-87.218556,34.753538],[-87.218247,34.753729],[-87.21799,34.753808],[-87.217842,34.753953],[-87.217725,34.754037],[-87.216155,34.753678],[-87.215889,34.75333],[-87.215836,34.753438],[-87.215882,34.753647],[-87.215048,34.75346],[-87.212352,34.750968],[-87.212355,34.752018],[-87.212996,34.752766],[-87.213596,34.753186],[-87.214154,34.753632],[-87.214483,34.753859],[-87.215411,34.75443],[-87.21557,34.754478],[-87.215696,34.754459],[-87.215752,34.75443],[-87.215792,34.754385],[-87.215815,34.754215],[-87.215893,34.754095],[-87.215886,34.754054],[-87.215841,34.753998],[-87.215844,34.753921],[-87.21591,34.753785],[-87.215914,34.753604],[-87.21594,34.753557],[-87.215977,34.753535],[-87.216023,34.753538],[-87.216056,34.753564],[-87.216062,34.753602],[-87.216455,34.7543],[-87.216569,34.754396],[-87.216745,34.754455],[-87.21688,34.754464],[-87.217077,34.754424],[-87.217662,34.754161],[-87.217932,34.753997],[-87.218022,34.753967],[-87.21811,34.753982],[-87.218157,34.754016],[-87.218176,34.754072],[-87.21808,34.75421],[-87.218057,34.754474],[-87.217989,34.754596],[-87.217825,34.75476],[-87.217795,34.754834],[-87.217815,34.755282],[-87.217852,34.755308],[-87.217969,34.755303],[-87.218051,34.755338],[-87.218155,34.755489],[-87.218357,34.755618],[-87.218608,34.755872],[-87.21873,34.755955],[-87.218871,34.756016],[-87.219188,34.756107],[-87.219269,34.756105],[-87.219357,34.756056]]],[[[-87.227467,34.755034],[-87.227469,34.755066],[-87.227513,34.755153],[-87.227601,34.755212],[-87.227838,34.755275],[-87.228311,34.755335],[-87.228404,34.755374],[-87.22852,34.755454],[-87.228656,34.755502],[-87.228947,34.755523],[-87.229218,34.755483],[-87.22943,34.755368],[-87.229587,34.755231],[-87.229671,34.755208],[-87.229759,34.755236],[-87.229824,34.75535],[-87.229884,34.755412],[-87.229871,34.754395],[-87.226024,34.754429],[-87.226042,34.754799],[-87.226078,34.754978],[-87.226192,34.755233],[-87.226273,34.755302],[-87.226346,34.755326],[-87.22644,34.755326],[-87.226484,34.755305],[-87.226523,34.755249],[-87.226566,34.755234],[-87.226871,34.755313],[-87.226966,34.75529],[-87.227012,34.755233],[-87.227034,34.755166],[-87.227011,34.754984],[-87.227029,34.754908],[-87.227103,34.75481],[-87.227161,34.754785],[-87.227257,34.754781],[-87.227343,34.754816],[-87.227431,34.754915],[-87.227467,34.755034]]]]}},{"type":"Feature","id":"01079:02072500000040000","properties":{"id":"01079:02072500000040000","parcelId":"02072500000040000","countyFips":"01079","countyName":"Lawrence","state":"Alabama","marketIds":["Huntsville"],"situsAddress":"0","situsCity":null,"situsZip":null,"jurisdictionCode":null,"ownerName":"WHEELER LEGRAND FARMS LLC","ownerName2":null,"propertyName":null,"zoningCode":null,"zoningDistrict":null,"jurisdictionPrefix":null,"dorCode":null,"acreage":45.4681,"centroid":[-87.217326,34.753143],"lastSale":{"date":"2013-07-30","price":null,"qualified":null},"tax":{"marketValue":28710.0,"assessedValue":2880.0,"taxableValue":null,"taxes":90.9},"mailingAddress":{"line1":"POB 13519","line2":null,"city":"ARLINGTON","state":"TX","zip":"76094"},"incomeTract":null,"incomeBlockGroup":null,"nearestRoad":null,"flu":null,"opportunityZone":null,"oz2Eligibility":null,"source":"al-lawrence-parcels-01079","appraiserUrl":"https://lawrenceproperty.countygovservices.com/Property/Summary?taxyear=2026&ppin=955973","gisViewerUrl":"https://isv.kcsgis.com/al.lawrence_revenue/"},"geometry":{"type":"Polygon","coordinates":[[[-87.216155,34.753678],[-87.217725,34.754037],[-87.217842,34.753953],[-87.21799,34.753808],[-87.218247,34.753729],[-87.218556,34.753538],[-87.219072,34.753041],[-87.221002,34.752501],[-87.220975,34.750876],[-87.212352,34.750968],[-87.215048,34.75346],[-87.215882,34.753647],[-87.215836,34.753438],[-87.215889,34.75333],[-87.216155,34.753678]]]}},{"type":"Feature","id":"01079:02072600000010000","properties":{"id":"01079:02072600000010000","parcelId":"02072600000010000","countyFips":"01079","countyName":"Lawrence","state":"Alabama","marketIds":["Huntsville"],"situsAddress":"0 0000","situsCity":null,"situsZip":null,"jurisdictionCode":null,"ownerName":"T V A","ownerName2":null,"propertyName":null,"zoningCode":null,"zoningDistrict":null,"jurisdictionPrefix":null,"dorCode":null,"acreage":57.7797,"centroid":[-87.235573,34.753684],"lastSale":{"date":null,"price":null,"qualified":null},"tax":{"marketValue":212000.0,"assessedValue":15420.0,"taxableValue":null,"taxes":null},"mailingAddress":{"line1":"4611 LUPTON BLDG","line2":null,"city":"CHATTANOOGA","state":"TN","zip":"37410"},"incomeTract":null,"incomeBlockGroup":null,"nearestRoad":null,"flu":null,"opportunityZone":null,"oz2Eligibility":null,"source":"al-lawrence-parcels-01079","appraiserUrl":"https://lawrenceproperty.countygovservices.com/Property/Summary?taxyear=2026&ppin=955974","gisViewerUrl":"https://isv.kcsgis.com/al.lawrence_revenue/"},"geometry":{"type":"Polygon","coordinates":[[[-87.232406,34.756171],[-87.232438,34.756185],[-87.232545,34.756198],[-87.23279,34.756128],[-87.232837,34.756067],[-87.232823,34.75603],[-87.232765,34.755979],[-87.232772,34.75595],[-87.232807,34.755929],[-87.233156,34.756029],[-87.233487,34.756077],[-87.233618,34.756073],[-87.233805,34.756021],[-87.233913,34.755958],[-87.234,34.755876],[-87.234259,34.755389],[-87.234318,34.755349],[-87.234407,34.755366],[-87.234494,34.75547],[-87.234632,34.755568],[-87.234766,34.755607],[-87.234862,34.755603],[-87.234951,34.755577],[-87.235027,34.755529],[-87.235091,34.755457],[-87.235176,34.755296],[-87.23528,34.755223],[-87.235368,34.755201],[-87.23546,34.755204],[-87.235633,34.755263],[-87.235727,34.755273],[-87.23591,34.755235],[-87.236079,34.755167],[-87.236234,34.755079],[-87.236583,34.754817],[-87.236938,34.754615],[-87.237045,34.754514],[-87.237354,34.754137],[-87.237586,34.753913],[-87.237613,34.753844],[-87.237612,34.753772],[-87.237559,34.753674],[-87.237205,34.7533],[-87.236716,34.752938],[-87.236631,34.752844],[-87.236605,34.752734],[-87.237113,34.752735],[-87.23706,34.752694],[-87.237032,34.752625],[-87.236949,34.752577],[-87.236882,34.752486],[-87.236752,34.752404],[-87.236643,34.752366],[-87.23643,34.752355],[-87.236368,34.752327],[-87.236368,34.752296],[-87.23643,34.752252],[-87.236416,34.752226],[-87.236348,34.75219],[-87.23636,34.752091],[-87.236283,34.752034],[-87.236236,34.751951],[-87.236133,34.751867],[-87.23602,34.751673],[-87.235869,34.751577],[-87.235801,34.751421],[-87.235763,34.751388],[-87.235698,34.751385],[-87.235698,34.751362],[-87.235755,34.75132],[-87.235744,34.751292],[-87.235699,34.751268],[-87.235708,34.751245],[-87.235816,34.751253],[-87.236037,34.751336],[-87.236238,34.751361],[-87.236336,34.751393],[-87.236582,34.751516],[-87.236809,34.751662],[-87.237284,34.752071],[-87.238123,34.752702],[-87.238122,34.752735],[-87.237622,34.752745],[-87.237707,34.752791],[-87.23774,34.752928],[-87.237776,34.75297],[-87.237894,34.753006],[-87.238022,34.753012],[-87.238209,34.752976],[-87.238588,34.752762],[-87.238762,34.752732],[-87.238865,34.752685],[-87.239611,34.751975],[-87.239758,34.7518],[-87.239967,34.751488],[-87.240211,34.751316],[-87.240489,34.751165],[-87.240803,34.750852],[-87.234255,34.75081],[-87.234236,34.753378],[-87.234373,34.753441],[-87.234493,34.753525],[-87.234605,34.753639],[-87.234692,34.753767],[-87.234827,34.754065],[-87.234936,34.754369],[-87.234975,34.75475],[-87.23471,34.754769],[-87.234673,34.754409],[-87.234573,34.754131],[-87.234418,34.753806],[-87.234336,34.75371],[-87.234234,34.753628],[-87.234228,34.754357],[-87.229871,34.754395],[-87.229884,34.755412],[-87.229948,34.755458],[-87.230231,34.755609],[-87.230528,34.75574],[-87.230997,34.755896],[-87.231485,34.756001],[-87.232232,34.756109],[-87.232406,34.756171]]]}},{"type":"Feature","id":"01079:02072600000020000","properties":{"id":"01079:02072600000020000","parcelId":"02072600000020000","countyFips":"01079","countyName":"Lawrence","state":"Alabama","marketIds":["Huntsville"],"situsAddress":"0","situsCity":null,"situsZip":null,"jurisdictionCode":null,"ownerName":"MCWHORTER CARY GARTH BANKHEAD ETAL","ownerName2":null,"propertyName":null,"zoningCode":null,"zoningDistrict":null,"jurisdictionPrefix":null,"dorCode":null,"acreage":37.0725,"centroid":[-87.2321,34.752775],"lastSale":{"date":"2015-03-23","price":null,"qualified":null},"tax":{"marketValue":23400.0,"assessedValue":2340.0,"taxableValue":null,"taxes":72.2},"mailingAddress":{"line1":"260 WAVERLY RD","line2":null,"city":"AUBURN","state":"AL","zip":"36832"},"incomeTract":null,"incomeBlockGroup":null,"nearestRoad":null,"flu":null,"opportunityZone":null,"oz2Eligibility":null,"source":"al-lawrence-parcels-01079","appraiserUrl":"https://lawrenceproperty.countygovservices.com/Property/Summary?taxyear=2026&ppin=955975","gisViewerUrl":"https://isv.kcsgis.com/al.lawrence_revenue/"},"geometry":{"type":"MultiPolygon","coordinates":[[[[-87.229866,34.754052],[-87.229871,34.754395],[-87.234228,34.754357],[-87.234234,34.753628],[-87.233487,34.753348],[-87.23302,34.753124],[-87.232663,34.752904],[-87.232391,34.752663],[-87.232176,34.752386],[-87.232084,34.752202],[-87.231822,34.751442],[-87.23163,34.750793],[-87.229823,34.750781],[-87.229866,34.754052]]],[[[-87.231906,34.750794],[-87.231988,34.751087],[-87.232333,34.752125],[-87.232414,34.752287],[-87.232623,34.752551],[-87.23289,34.752775],[-87.233301,34.753012],[-87.233745,34.753205],[-87.234236,34.753378],[-87.234255,34.75081],[-87.231906,34.750794]]]]}}]}