{"type":"FeatureCollection","name":"37131-23_36","features":[{"type":"Feature","id":"37131:5911-63-0683","properties":{"id":"37131:5911-63-0683","parcelId":"5911-63-0683","countyFips":"37131","countyName":"Northampton","state":"North Carolina","marketIds":["Raleigh-Durham"],"situsAddress":null,"situsCity":null,"situsZip":null,"jurisdictionCode":null,"ownerName":"BAKER, J G NOTTINGHAM, INGRID","ownerName2":null,"propertyName":null,"zoningCode":null,"zoningDistrict":null,"jurisdictionPrefix":null,"dorCode":null,"acreage":79.9,"centroid":[-77.248927,36.248668],"lastSale":{"date":"2003-03-04","price":5000.0,"qualified":null},"tax":{"marketValue":null,"assessedValue":27859.0,"taxableValue":null,"taxes":null},"mailingAddress":{"line1":"JOSEPH BAKER","line2":"103 BAKER RD","city":"RICH SQUARE, NC","state":null,"zip":"27869"},"incomeTract":null,"incomeBlockGroup":null,"nearestRoad":null,"flu":null,"opportunityZone":null,"oz2Eligibility":null,"source":"nc-northampton-parcels-37131","appraiserUrl":"https://dl.agd.cc/prc/nc/northampton/pin5911-63-0683.pdf","gisViewerUrl":"https://webapp.agdmaps.com/nc/northampton/"},"geometry":{"type":"Polygon","coordinates":[[[-77.251346,36.25198],[-77.253621,36.246003],[-77.247826,36.244595],[-77.245999,36.24888],[-77.247349,36.248966],[-77.247784,36.248876],[-77.248154,36.24889],[-77.249336,36.251156],[-77.251346,36.25198]]]}},{"type":"Feature","id":"37131:5921-34-5376","properties":{"id":"37131:5921-34-5376","parcelId":"5921-34-5376","countyFips":"37131","countyName":"Northampton","state":"North Carolina","marketIds":["Raleigh-Durham"],"situsAddress":null,"situsCity":null,"situsZip":null,"jurisdictionCode":null,"ownerName":"CHURCH, JONATHAN THOMAS","ownerName2":null,"propertyName":null,"zoningCode":null,"zoningDistrict":null,"jurisdictionPrefix":null,"dorCode":null,"acreage":25.85,"centroid":[-77.222644,36.249741],"lastSale":{"date":"2000-06-28","price":null,"qualified":null},"tax":{"marketValue":null,"assessedValue":13475.0,"taxableValue":null,"taxes":null},"mailingAddress":{"line1":"1561 BAYVIEW BLVD E","line2":null,"city":"NORFOLK, VA","state":null,"zip":"23503"},"incomeTract":null,"incomeBlockGroup":null,"nearestRoad":null,"flu":null,"opportunityZone":null,"oz2Eligibility":null,"source":"nc-northampton-parcels-37131","appraiserUrl":"https://dl.agd.cc/prc/nc/northampton/pin5921-34-5376.pdf","gisViewerUrl":"https://webapp.agdmaps.com/nc/northampton/"},"geometry":{"type":"Polygon","coordinates":[[[-77.217841,36.251224],[-77.217845,36.251448],[-77.226537,36.249805],[-77.22672,36.249187],[-77.227814,36.247047],[-77.225519,36.247504],[-77.220671,36.250511],[-77.218203,36.251206],[-77.217841,36.251224]]]}},{"type":"Feature","id":"37131:5921-14-4006","properties":{"id":"37131:5921-14-4006","parcelId":"5921-14-4006","countyFips":"37131","countyName":"Northampton","state":"North Carolina","marketIds":["Raleigh-Durham"],"situsAddress":null,"situsCity":null,"situsZip":null,"jurisdictionCode":null,"ownerName":"TYLER, KATHRYN JACKSON","ownerName2":null,"propertyName":null,"zoningCode":null,"zoningDistrict":null,"jurisdictionPrefix":null,"dorCode":null,"acreage":111.23,"centroid":[-77.22991,36.248838],"lastSale":{"date":"2009-12-31","price":null,"qualified":null},"tax":{"marketValue":null,"assessedValue":45266.0,"taxableValue":null,"taxes":null},"mailingAddress":{"line1":"PO BOX 646","line2":null,"city":"RICH SQUARE, NC","state":null,"zip":"27869"},"incomeTract":null,"incomeBlockGroup":null,"nearestRoad":null,"flu":null,"opportunityZone":null,"oz2Eligibility":null,"source":"nc-northampton-parcels-37131","appraiserUrl":"https://dl.agd.cc/prc/nc/northampton/pin5921-14-4006.pdf","gisViewerUrl":"https://webapp.agdmaps.com/nc/northampton/"},"geometry":{"type":"MultiPolygon","coordinates":[[[[-77.227814,36.247047],[-77.227814,36.247047],[-77.22672,36.249187],[-77.226598,36.249629],[-77.22624,36.25066],[-77.230778,36.25179],[-77.231024,36.250339],[-77.233992,36.250233],[-77.234107,36.246606],[-77.234014,36.245841],[-77.227814,36.247047]]],[[[-77.234199,36.245726],[-77.234207,36.245769],[-77.234273,36.246199],[-77.23431,36.246604],[-77.234196,36.250192],[-77.239453,36.248906],[-77.239717,36.248728],[-77.239223,36.24847],[-77.235668,36.245986],[-77.234194,36.245703],[-77.234199,36.245726]]]]}},{"type":"Feature","id":"37131:5921-72-0457","properties":{"id":"37131:5921-72-0457","parcelId":"5921-72-0457","countyFips":"37131","countyName":"Northampton","state":"North Carolina","marketIds":["Raleigh-Durham"],"situsAddress":null,"situsCity":null,"situsZip":null,"jurisdictionCode":null,"ownerName":"C & S PLANTING CO LLC","ownerName2":null,"propertyName":null,"zoningCode":null,"zoningDistrict":null,"jurisdictionPrefix":null,"dorCode":null,"acreage":42.75,"centroid":[-77.21333,36.242981],"lastSale":{"date":"2021-11-30","price":null,"qualified":null},"tax":{"marketValue":null,"assessedValue":29684.0,"taxableValue":null,"taxes":null},"mailingAddress":{"line1":"445 JACKIE BRINKLEY RD","line2":null,"city":"AULANDER, NC","state":null,"zip":"27805"},"incomeTract":null,"incomeBlockGroup":null,"nearestRoad":null,"flu":null,"opportunityZone":null,"oz2Eligibility":null,"source":"nc-northampton-parcels-37131","appraiserUrl":"https://dl.agd.cc/prc/nc/northampton/pin5921-72-0457.pdf","gisViewerUrl":"https://webapp.agdmaps.com/nc/northampton/"},"geometry":{"type":"Polygon","coordinates":[[[-77.212827,36.240665],[-77.209568,36.245364],[-77.213839,36.246239],[-77.21518,36.244643],[-77.215171,36.24364],[-77.214134,36.242043],[-77.212957,36.240787],[-77.212965,36.240467],[-77.212827,36.240665]]]}},{"type":"Feature","id":"37131:5910-89-4788","properties":{"id":"37131:5910-89-4788","parcelId":"5910-89-4788","countyFips":"37131","countyName":"Northampton","state":"North Carolina","marketIds":["Raleigh-Durham"],"situsAddress":null,"situsCity":null,"situsZip":null,"jurisdictionCode":null,"ownerName":"BAKER, JUNIUS G","ownerName2":null,"propertyName":null,"zoningCode":null,"zoningDistrict":null,"jurisdictionPrefix":null,"dorCode":null,"acreage":81.5,"centroid":[-77.24097,36.236553],"lastSale":{"date":"2025-10-10","price":null,"qualified":null},"tax":{"marketValue":null,"assessedValue":55800.0,"taxableValue":null,"taxes":null},"mailingAddress":{"line1":"2036 TYLER RD","line2":null,"city":"RICH SQUARE, NC","state":null,"zip":"27869"},"incomeTract":null,"incomeBlockGroup":null,"nearestRoad":null,"flu":null,"opportunityZone":null,"oz2Eligibility":null,"source":"nc-northampton-parcels-37131","appraiserUrl":"https://dl.agd.cc/prc/nc/northampton/pin5910-89-4788.pdf","gisViewerUrl":"https://webapp.agdmaps.com/nc/northampton/"},"geometry":{"type":"Polygon","coordinates":[[[-77.239436,36.23875],[-77.247678,36.240857],[-77.24292,36.23415],[-77.239155,36.234256],[-77.239484,36.235108],[-77.239618,36.236297],[-77.238502,36.236454],[-77.239436,36.23875]]]}},{"type":"Feature","id":"37131:5921-40-0168","properties":{"id":"37131:5921-40-0168","parcelId":"5921-40-0168","countyFips":"37131","countyName":"Northampton","state":"North Carolina","marketIds":["Raleigh-Durham"],"situsAddress":null,"situsCity":null,"situsZip":null,"jurisdictionCode":null,"ownerName":"BENNETT HEIRS LLC","ownerName2":null,"propertyName":null,"zoningCode":null,"zoningDistrict":null,"jurisdictionPrefix":null,"dorCode":null,"acreage":10.6,"centroid":[-77.221844,36.239016],"lastSale":{"date":"2017-08-03","price":12000.0,"qualified":null},"tax":{"marketValue":null,"assessedValue":3870.0,"taxableValue":null,"taxes":null},"mailingAddress":{"line1":"745 BENTHALL COOK ROAD","line2":null,"city":"RICH SQUARE, NC","state":null,"zip":"27869"},"incomeTract":null,"incomeBlockGroup":null,"nearestRoad":null,"flu":null,"opportunityZone":null,"oz2Eligibility":null,"source":"nc-northampton-parcels-37131","appraiserUrl":"https://dl.agd.cc/prc/nc/northampton/pin5921-40-0168.pdf","gisViewerUrl":"https://webapp.agdmaps.com/nc/northampton/"},"geometry":{"type":"Polygon","coordinates":[[[-77.221321,36.239522],[-77.222931,36.239789],[-77.222977,36.239797],[-77.223461,36.236818],[-77.225904,36.234524],[-77.225689,36.234371],[-77.225278,36.234132],[-77.221321,36.239522]]]}},{"type":"Feature","id":"37131:5920-49-0677","properties":{"id":"37131:5920-49-0677","parcelId":"5920-49-0677","countyFips":"37131","countyName":"Northampton","state":"North Carolina","marketIds":["Raleigh-Durham"],"situsAddress":null,"situsCity":null,"situsZip":null,"jurisdictionCode":null,"ownerName":"BAKER, DAVID AARON","ownerName2":null,"propertyName":null,"zoningCode":null,"zoningDistrict":null,"jurisdictionPrefix":null,"dorCode":null,"acreage":15.4,"centroid":[-77.222415,36.236829],"lastSale":{"date":"2012-10-25","price":256000.0,"qualified":null},"tax":{"marketValue":null,"assessedValue":5621.0,"taxableValue":null,"taxes":null},"mailingAddress":{"line1":"140 TYLER ROAD","line2":null,"city":"RICH SQUARE, NC","state":null,"zip":"27869"},"incomeTract":null,"incomeBlockGroup":null,"nearestRoad":null,"flu":null,"opportunityZone":null,"oz2Eligibility":null,"source":"nc-northampton-parcels-37131","appraiserUrl":"https://dl.agd.cc/prc/nc/northampton/pin5920-49-0677.pdf","gisViewerUrl":"https://webapp.agdmaps.com/nc/northampton/"},"geometry":{"type":"Polygon","coordinates":[[[-77.220547,36.239394],[-77.220621,36.239406],[-77.221321,36.239522],[-77.225278,36.234132],[-77.224338,36.233585],[-77.224051,36.234111],[-77.223617,36.235006],[-77.221082,36.238175],[-77.220883,36.23813],[-77.220547,36.239394]]]}},{"type":"Feature","id":"37131:5920-59-0497","properties":{"id":"37131:5920-59-0497","parcelId":"5920-59-0497","countyFips":"37131","countyName":"Northampton","state":"North Carolina","marketIds":["Raleigh-Durham"],"situsAddress":null,"situsCity":null,"situsZip":null,"jurisdictionCode":null,"ownerName":"C & S PLANTING CO LLC","ownerName2":null,"propertyName":null,"zoningCode":null,"zoningDistrict":null,"jurisdictionPrefix":null,"dorCode":null,"acreage":73.24,"centroid":[-77.22028,36.235386],"lastSale":{"date":"2017-09-01","price":147000.0,"qualified":null},"tax":{"marketValue":null,"assessedValue":51617.0,"taxableValue":null,"taxes":null},"mailingAddress":{"line1":"421 JACKIE BRINKLEY RD","line2":null,"city":"AULANDER, NC","state":null,"zip":"27805"},"incomeTract":null,"incomeBlockGroup":null,"nearestRoad":null,"flu":null,"opportunityZone":null,"oz2Eligibility":null,"source":"nc-northampton-parcels-37131","appraiserUrl":"https://dl.agd.cc/prc/nc/northampton/pin5920-59-0497.pdf","gisViewerUrl":"https://webapp.agdmaps.com/nc/northampton/"},"geometry":{"type":"Polygon","coordinates":[[[-77.214388,36.238416],[-77.217965,36.239006],[-77.218103,36.239026],[-77.218996,36.237706],[-77.221082,36.238175],[-77.223617,36.235006],[-77.222134,36.234185],[-77.222298,36.233935],[-77.222515,36.233511],[-77.221789,36.233062],[-77.221963,36.232758],[-77.220903,36.232802],[-77.220532,36.234132],[-77.217634,36.233689],[-77.214388,36.238416]]]}},{"type":"Feature","id":"37131:5920-29-1469","properties":{"id":"37131:5920-29-1469","parcelId":"5920-29-1469","countyFips":"37131","countyName":"Northampton","state":"North Carolina","marketIds":["Raleigh-Durham"],"situsAddress":null,"situsCity":null,"situsZip":null,"jurisdictionCode":null,"ownerName":"BENNETT BROTHERS LLC","ownerName2":null,"propertyName":null,"zoningCode":null,"zoningDistrict":null,"jurisdictionPrefix":null,"dorCode":null,"acreage":44.0,"centroid":[-77.229665,36.236093],"lastSale":{"date":"2015-10-21","price":null,"qualified":null},"tax":{"marketValue":null,"assessedValue":25890.0,"taxableValue":null,"taxes":null},"mailingAddress":{"line1":"745 BENTHALL COOK ROAD","line2":null,"city":"RICH SQUARE, NC","state":null,"zip":"27869"},"incomeTract":null,"incomeBlockGroup":null,"nearestRoad":null,"flu":null,"opportunityZone":null,"oz2Eligibility":null,"source":"nc-northampton-parcels-37131","appraiserUrl":"https://dl.agd.cc/prc/nc/northampton/pin5920-29-1469.pdf","gisViewerUrl":"https://webapp.agdmaps.com/nc/northampton/"},"geometry":{"type":"Polygon","coordinates":[[[-77.226032,36.234395],[-77.226049,36.234408],[-77.226231,36.23457],[-77.226452,36.234844],[-77.228361,36.237451],[-77.228801,36.237974],[-77.228976,36.238136],[-77.22935,36.238382],[-77.229866,36.238633],[-77.230729,36.239091],[-77.23153,36.237009],[-77.23184,36.236807],[-77.23185,36.236515],[-77.23181,36.236225],[-77.231716,36.23601],[-77.231581,36.235828],[-77.231348,36.235666],[-77.231219,36.235512],[-77.230767,36.234599],[-77.230646,36.234199],[-77.230655,36.234083],[-77.226819,36.233702],[-77.226032,36.234395]]]}},{"type":"Feature","id":"37131:5910-99-8619","properties":{"id":"37131:5910-99-8619","parcelId":"5910-99-8619","countyFips":"37131","countyName":"Northampton","state":"North Carolina","marketIds":["Raleigh-Durham"],"situsAddress":null,"situsCity":null,"situsZip":null,"jurisdictionCode":null,"ownerName":"SMITH LIVING TRUST","ownerName2":null,"propertyName":null,"zoningCode":null,"zoningDistrict":null,"jurisdictionPrefix":null,"dorCode":null,"acreage":19.95,"centroid":[-77.237164,36.23732],"lastSale":{"date":"2018-07-09","price":null,"qualified":null},"tax":{"marketValue":null,"assessedValue":22763.0,"taxableValue":null,"taxes":null},"mailingAddress":{"line1":"33 TIMBERLINE CRESCENT","line2":null,"city":"NEWPORT NEWS, VA","state":null,"zip":"23606"},"incomeTract":null,"incomeBlockGroup":null,"nearestRoad":null,"flu":null,"opportunityZone":null,"oz2Eligibility":null,"source":"nc-northampton-parcels-37131","appraiserUrl":"https://dl.agd.cc/prc/nc/northampton/pin5910-99-8619.pdf","gisViewerUrl":"https://webapp.agdmaps.com/nc/northampton/"},"geometry":{"type":"Polygon","coordinates":[[[-77.236759,36.238065],[-77.239436,36.23875],[-77.237894,36.23496],[-77.234567,36.237504],[-77.236759,36.238065]]]}},{"type":"Feature","id":"37131:5920-09-2068","properties":{"id":"37131:5920-09-2068","parcelId":"5920-09-2068","countyFips":"37131","countyName":"Northampton","state":"North Carolina","marketIds":["Raleigh-Durham"],"situsAddress":null,"situsCity":null,"situsZip":null,"jurisdictionCode":null,"ownerName":"BAKER, J G NOTTINGHAM, INGRID","ownerName2":null,"propertyName":null,"zoningCode":null,"zoningDistrict":null,"jurisdictionPrefix":null,"dorCode":null,"acreage":30.65,"centroid":[-77.237388,36.234561],"lastSale":{"date":"2003-03-04","price":5000.0,"qualified":null},"tax":{"marketValue":null,"assessedValue":11187.0,"taxableValue":null,"taxes":null},"mailingAddress":{"line1":"JOSEPH BAKER","line2":"103 BAKER RD","city":"RICH SQUARE, NC","state":null,"zip":"27869"},"incomeTract":null,"incomeBlockGroup":null,"nearestRoad":null,"flu":null,"opportunityZone":null,"oz2Eligibility":null,"source":"nc-northampton-parcels-37131","appraiserUrl":"https://dl.agd.cc/prc/nc/northampton/pin5920-09-2068.pdf","gisViewerUrl":"https://webapp.agdmaps.com/nc/northampton/"},"geometry":{"type":"Polygon","coordinates":[[[-77.23184,36.236807],[-77.234345,36.237447],[-77.238496,36.234281],[-77.238704,36.234178],[-77.238934,36.234114],[-77.23963,36.234077],[-77.239265,36.23271],[-77.237887,36.232873],[-77.23184,36.236807]]]}},{"type":"Feature","id":"37131:5910-98-6058","properties":{"id":"37131:5910-98-6058","parcelId":"5910-98-6058","countyFips":"37131","countyName":"Northampton","state":"North Carolina","marketIds":["Raleigh-Durham"],"situsAddress":null,"situsCity":null,"situsZip":null,"jurisdictionCode":null,"ownerName":"BAKER, JUNIUS G","ownerName2":null,"propertyName":null,"zoningCode":null,"zoningDistrict":null,"jurisdictionPrefix":null,"dorCode":null,"acreage":51.0,"centroid":[-77.236982,36.233416],"lastSale":{"date":"2025-10-10","price":null,"qualified":null},"tax":{"marketValue":null,"assessedValue":27545.0,"taxableValue":null,"taxes":null},"mailingAddress":{"line1":"2036 TYLER RD","line2":null,"city":"RICH SQUARE, NC","state":null,"zip":"27869"},"incomeTract":null,"incomeBlockGroup":null,"nearestRoad":null,"flu":null,"opportunityZone":null,"oz2Eligibility":null,"source":"nc-northampton-parcels-37131","appraiserUrl":"https://dl.agd.cc/prc/nc/northampton/pin5910-98-6058.pdf","gisViewerUrl":"https://webapp.agdmaps.com/nc/northampton/"},"geometry":{"type":"Polygon","coordinates":[[[-77.231497,36.23577],[-77.231497,36.23577],[-77.231636,36.235891],[-77.231792,36.236158],[-77.231845,36.236437],[-77.23184,36.236807],[-77.237887,36.232873],[-77.239265,36.23271],[-77.23963,36.234077],[-77.24339,36.233973],[-77.242256,36.230847],[-77.241054,36.230739],[-77.240381,36.230988],[-77.2402,36.231085],[-77.239903,36.231312],[-77.239376,36.231457],[-77.239084,36.231439],[-77.238785,36.230898],[-77.231348,36.235666],[-77.231497,36.23577]]]}},{"type":"Feature","id":"37131:5910-99-4108","properties":{"id":"37131:5910-99-4108","parcelId":"5910-99-4108","countyFips":"37131","countyName":"Northampton","state":"North Carolina","marketIds":["Raleigh-Durham"],"situsAddress":null,"situsCity":null,"situsZip":null,"jurisdictionCode":null,"ownerName":"CULLIFER, ROBERT G JR CULLIFER","ownerName2":null,"propertyName":null,"zoningCode":null,"zoningDistrict":null,"jurisdictionPrefix":null,"dorCode":null,"acreage":7.78,"centroid":[-77.238891,36.235008],"lastSale":{"date":"1994-06-02","price":null,"qualified":null},"tax":{"marketValue":null,"assessedValue":8751.0,"taxableValue":null,"taxes":null},"mailingAddress":{"line1":"PO BOX 2624","line2":null,"city":"SURF CITY, NC","state":null,"zip":"28445"},"incomeTract":null,"incomeBlockGroup":null,"nearestRoad":null,"flu":null,"opportunityZone":null,"oz2Eligibility":null,"source":"nc-northampton-parcels-37131","appraiserUrl":"https://dl.agd.cc/prc/nc/northampton/pin5910-99-4108.pdf","gisViewerUrl":"https://webapp.agdmaps.com/nc/northampton/"},"geometry":{"type":"Polygon","coordinates":[[[-77.238502,36.236454],[-77.239618,36.236297],[-77.239484,36.235108],[-77.239155,36.234256],[-77.239029,36.234266],[-77.238818,36.234317],[-77.238628,36.234407],[-77.237894,36.23496],[-77.238502,36.236454]]]}},{"type":"Feature","id":"37131:5910-96-0802","properties":{"id":"37131:5910-96-0802","parcelId":"5910-96-0802","countyFips":"37131","countyName":"Northampton","state":"North Carolina","marketIds":["Raleigh-Durham"],"situsAddress":null,"situsCity":null,"situsZip":null,"jurisdictionCode":null,"ownerName":"BAKER, J G","ownerName2":null,"propertyName":null,"zoningCode":null,"zoningDistrict":null,"jurisdictionPrefix":null,"dorCode":null,"acreage":65.97,"centroid":[-77.238739,36.22921],"lastSale":{"date":"1999-04-13","price":null,"qualified":null},"tax":{"marketValue":null,"assessedValue":40876.0,"taxableValue":null,"taxes":null},"mailingAddress":{"line1":"JUNIS BAKER","line2":"2036 TYLER RD","city":"RICH SQUARE, NC","state":null,"zip":"27869"},"incomeTract":null,"incomeBlockGroup":null,"nearestRoad":null,"flu":null,"opportunityZone":null,"oz2Eligibility":null,"source":"nc-northampton-parcels-37131","appraiserUrl":"https://dl.agd.cc/prc/nc/northampton/pin5910-96-0802.pdf","gisViewerUrl":"https://webapp.agdmaps.com/nc/northampton/"},"geometry":{"type":"MultiPolygon","coordinates":[[[[-77.236332,36.231027],[-77.236009,36.231236],[-77.230767,36.234599],[-77.231219,36.235512],[-77.231348,36.235666],[-77.238785,36.230898],[-77.239084,36.231439],[-77.239376,36.231457],[-77.239903,36.231312],[-77.2402,36.231085],[-77.240381,36.230988],[-77.241054,36.230739],[-77.242256,36.230847],[-77.241903,36.2278],[-77.241312,36.225237],[-77.240694,36.225406],[-77.240479,36.225548],[-77.240064,36.225723],[-77.239901,36.225927],[-77.239884,36.226161],[-77.239733,36.226332],[-77.239595,36.226364],[-77.239479,36.226533],[-77.23933,36.226629],[-77.239225,36.227141],[-77.238961,36.228028],[-77.238888,36.228616],[-77.238528,36.229617],[-77.236332,36.231027]]],[[[-77.231359,36.235674],[-77.231367,36.235679],[-77.23135,36.235668],[-77.231359,36.235674]]]]}},{"type":"Feature","id":"37131:5920-48-0645","properties":{"id":"37131:5920-48-0645","parcelId":"5920-48-0645","countyFips":"37131","countyName":"Northampton","state":"North Carolina","marketIds":["Raleigh-Durham"],"situsAddress":"1521 TYLER RD","situsCity":null,"situsZip":null,"jurisdictionCode":null,"ownerName":"WARREN, JAMES ROBERT WARREN, B","ownerName2":null,"propertyName":null,"zoningCode":null,"zoningDistrict":null,"jurisdictionPrefix":null,"dorCode":null,"acreage":5.3,"centroid":[-77.222981,36.233819],"lastSale":{"date":"2004-08-10","price":null,"qualified":null},"tax":{"marketValue":null,"assessedValue":100677.0,"taxableValue":null,"taxes":null},"mailingAddress":{"line1":"1521 TYLER ROAD","line2":null,"city":"RICH SQUARE, NC","state":null,"zip":"27869"},"incomeTract":null,"incomeBlockGroup":null,"nearestRoad":null,"flu":null,"opportunityZone":null,"oz2Eligibility":null,"source":"nc-northampton-parcels-37131","appraiserUrl":"https://dl.agd.cc/prc/nc/northampton/pin5920-48-0645.pdf","gisViewerUrl":"https://webapp.agdmaps.com/nc/northampton/"},"geometry":{"type":"Polygon","coordinates":[[[-77.223933,36.234354],[-77.223364,36.234002],[-77.223767,36.233249],[-77.222805,36.232683],[-77.222397,36.233444],[-77.222515,36.233511],[-77.222298,36.233935],[-77.222134,36.234185],[-77.223617,36.235006],[-77.223933,36.234354]]]}},{"type":"Feature","id":"37131:5920-58-1561","properties":{"id":"37131:5920-58-1561","parcelId":"5920-58-1561","countyFips":"37131","countyName":"Northampton","state":"North Carolina","marketIds":["Raleigh-Durham"],"situsAddress":null,"situsCity":null,"situsZip":null,"jurisdictionCode":null,"ownerName":"C & S PLANTING CO LLC","ownerName2":null,"propertyName":null,"zoningCode":null,"zoningDistrict":null,"jurisdictionPrefix":null,"dorCode":null,"acreage":9.67,"centroid":[-77.219668,36.233095],"lastSale":{"date":"2017-09-01","price":147000.0,"qualified":null},"tax":{"marketValue":null,"assessedValue":9567.0,"taxableValue":null,"taxes":null},"mailingAddress":{"line1":"421 JACKIE BRINKLEY RD","line2":null,"city":"AULANDER, NC","state":null,"zip":"27805"},"incomeTract":null,"incomeBlockGroup":null,"nearestRoad":null,"flu":null,"opportunityZone":null,"oz2Eligibility":null,"source":"nc-northampton-parcels-37131","appraiserUrl":"https://dl.agd.cc/prc/nc/northampton/pin5920-58-1561.pdf","gisViewerUrl":"https://webapp.agdmaps.com/nc/northampton/"},"geometry":{"type":"Polygon","coordinates":[[[-77.220532,36.234132],[-77.220903,36.232802],[-77.220804,36.232375],[-77.218466,36.232476],[-77.217634,36.233689],[-77.220532,36.234132]]]}},{"type":"Feature","id":"37131:5910-77-9455","properties":{"id":"37131:5910-77-9455","parcelId":"5910-77-9455","countyFips":"37131","countyName":"Northampton","state":"North Carolina","marketIds":["Raleigh-Durham"],"situsAddress":null,"situsCity":null,"situsZip":null,"jurisdictionCode":null,"ownerName":"BAKER, J G NOTTINGHAM, INGRID","ownerName2":null,"propertyName":null,"zoningCode":null,"zoningDistrict":null,"jurisdictionPrefix":null,"dorCode":null,"acreage":50.67,"centroid":[-77.244387,36.230244],"lastSale":{"date":"2003-03-04","price":5000.0,"qualified":null},"tax":{"marketValue":null,"assessedValue":41244.0,"taxableValue":null,"taxes":null},"mailingAddress":{"line1":"JOSEPH BAKER","line2":"103 BAKER RD","city":"RICH SQUARE, NC","state":null,"zip":"27869"},"incomeTract":null,"incomeBlockGroup":null,"nearestRoad":null,"flu":null,"opportunityZone":null,"oz2Eligibility":null,"source":"nc-northampton-parcels-37131","appraiserUrl":"https://dl.agd.cc/prc/nc/northampton/pin5910-77-9455.pdf","gisViewerUrl":"https://webapp.agdmaps.com/nc/northampton/"},"geometry":{"type":"Polygon","coordinates":[[[-77.242256,36.230847],[-77.24339,36.233973],[-77.246014,36.233897],[-77.246331,36.232868],[-77.245857,36.2312],[-77.244785,36.228801],[-77.244401,36.228331],[-77.244577,36.22766],[-77.244329,36.226845],[-77.241929,36.228022],[-77.242256,36.230847]]]}},{"type":"Feature","id":"37131:5920-47-6704","properties":{"id":"37131:5920-47-6704","parcelId":"5920-47-6704","countyFips":"37131","countyName":"Northampton","state":"North Carolina","marketIds":["Raleigh-Durham"],"situsAddress":null,"situsCity":null,"situsZip":null,"jurisdictionCode":null,"ownerName":"C & S PLANTING CO LLC","ownerName2":null,"propertyName":null,"zoningCode":null,"zoningDistrict":null,"jurisdictionPrefix":null,"dorCode":null,"acreage":19.5,"centroid":[-77.221169,36.231432],"lastSale":{"date":"2017-09-01","price":147000.0,"qualified":null},"tax":{"marketValue":null,"assessedValue":21036.0,"taxableValue":null,"taxes":null},"mailingAddress":{"line1":"421 JACKIE BRINKLEY RD","line2":null,"city":"AULANDER, NC","state":null,"zip":"27805"},"incomeTract":null,"incomeBlockGroup":null,"nearestRoad":null,"flu":null,"opportunityZone":null,"oz2Eligibility":null,"source":"nc-northampton-parcels-37131","appraiserUrl":"https://dl.agd.cc/prc/nc/northampton/pin5920-47-6704.pdf","gisViewerUrl":"https://webapp.agdmaps.com/nc/northampton/"},"geometry":{"type":"Polygon","coordinates":[[[-77.220804,36.232375],[-77.221522,36.232344],[-77.221691,36.231888],[-77.222641,36.232084],[-77.223443,36.230224],[-77.220272,36.229838],[-77.21999,36.230249],[-77.218985,36.232453],[-77.220804,36.232375]]]}},{"type":"Feature","id":"37131:5920-47-4135","properties":{"id":"37131:5920-47-4135","parcelId":"5920-47-4135","countyFips":"37131","countyName":"Northampton","state":"North Carolina","marketIds":["Raleigh-Durham"],"situsAddress":null,"situsCity":null,"situsZip":null,"jurisdictionCode":null,"ownerName":"HOWARD, LOYAL THOMAS","ownerName2":null,"propertyName":null,"zoningCode":null,"zoningDistrict":null,"jurisdictionPrefix":null,"dorCode":null,"acreage":6.11,"centroid":[-77.222276,36.229627],"lastSale":{"date":"2002-10-24","price":3000.0,"qualified":null},"tax":{"marketValue":null,"assessedValue":21696.0,"taxableValue":null,"taxes":null},"mailingAddress":{"line1":"206 WILBER HOWARD RD","line2":null,"city":"AULANDER, NC","state":null,"zip":"27805"},"incomeTract":null,"incomeBlockGroup":null,"nearestRoad":null,"flu":null,"opportunityZone":null,"oz2Eligibility":null,"source":"nc-northampton-parcels-37131","appraiserUrl":"https://dl.agd.cc/prc/nc/northampton/pin5920-47-4135.pdf","gisViewerUrl":"https://webapp.agdmaps.com/nc/northampton/"},"geometry":{"type":"Polygon","coordinates":[[[-77.22244,36.230102],[-77.222608,36.229706],[-77.223613,36.229839],[-77.223835,36.22934],[-77.220887,36.22894],[-77.220272,36.229838],[-77.22244,36.230102]]]}},{"type":"Feature","id":"37131:5920-46-0465","properties":{"id":"37131:5920-46-0465","parcelId":"5920-46-0465","countyFips":"37131","countyName":"Northampton","state":"North Carolina","marketIds":["Raleigh-Durham"],"situsAddress":null,"situsCity":null,"situsZip":null,"jurisdictionCode":null,"ownerName":"BROGDEN, PATRICIA BENSON, MARY","ownerName2":null,"propertyName":null,"zoningCode":null,"zoningDistrict":null,"jurisdictionPrefix":null,"dorCode":null,"acreage":20.96,"centroid":[-77.223695,36.227315],"lastSale":{"date":"2016-09-08","price":null,"qualified":null},"tax":{"marketValue":null,"assessedValue":52504.0,"taxableValue":null,"taxes":null},"mailingAddress":{"line1":"417 TYLER SCHOOL RD","line2":null,"city":"AULANDER, NC","state":null,"zip":"27805"},"incomeTract":null,"incomeBlockGroup":null,"nearestRoad":null,"flu":null,"opportunityZone":null,"oz2Eligibility":null,"source":"nc-northampton-parcels-37131","appraiserUrl":"https://dl.agd.cc/prc/nc/northampton/pin5920-46-0465.pdf","gisViewerUrl":"https://webapp.agdmaps.com/nc/northampton/"},"geometry":{"type":"Polygon","coordinates":[[[-77.223835,36.22934],[-77.224277,36.228321],[-77.225008,36.226638],[-77.224233,36.226431],[-77.224449,36.22594],[-77.223177,36.225594],[-77.220887,36.22894],[-77.223835,36.22934]]]}},{"type":"Feature","id":"37131:5920-34-2812","properties":{"id":"37131:5920-34-2812","parcelId":"5920-34-2812","countyFips":"37131","countyName":"Northampton","state":"North Carolina","marketIds":["Raleigh-Durham"],"situsAddress":null,"situsCity":null,"situsZip":null,"jurisdictionCode":null,"ownerName":"TYLER, ETHEL LEONARD GREGORY","ownerName2":null,"propertyName":null,"zoningCode":null,"zoningDistrict":null,"jurisdictionPrefix":null,"dorCode":null,"acreage":41.25,"centroid":[-77.227058,36.223352],"lastSale":{"date":"2026-05-12","price":null,"qualified":null},"tax":{"marketValue":null,"assessedValue":43673.0,"taxableValue":null,"taxes":null},"mailingAddress":{"line1":"9 NORTH BLOODWORTH ST","line2":null,"city":"RALEIGH, NC","state":null,"zip":"27601"},"incomeTract":null,"incomeBlockGroup":null,"nearestRoad":null,"flu":null,"opportunityZone":null,"oz2Eligibility":null,"source":"nc-northampton-parcels-37131","appraiserUrl":"https://dl.agd.cc/prc/nc/northampton/pin5920-34-2812.pdf","gisViewerUrl":"https://webapp.agdmaps.com/nc/northampton/"},"geometry":{"type":"Polygon","coordinates":[[[-77.225222,36.226149],[-77.225452,36.225624],[-77.225697,36.22511],[-77.225839,36.224904],[-77.22601,36.224714],[-77.228879,36.222242],[-77.22899,36.222123],[-77.229079,36.221978],[-77.229103,36.221819],[-77.229085,36.221652],[-77.228161,36.218314],[-77.223177,36.225594],[-77.225222,36.226149]]]}},{"type":"Feature","id":"37131:5910-64-8898","properties":{"id":"37131:5910-64-8898","parcelId":"5910-64-8898","countyFips":"37131","countyName":"Northampton","state":"North Carolina","marketIds":["Raleigh-Durham"],"situsAddress":null,"situsCity":null,"situsZip":null,"jurisdictionCode":null,"ownerName":"BAKER, JUNIUS G","ownerName2":null,"propertyName":null,"zoningCode":null,"zoningDistrict":null,"jurisdictionPrefix":null,"dorCode":null,"acreage":15.3,"centroid":[-77.247837,36.222181],"lastSale":{"date":"2025-10-10","price":null,"qualified":null},"tax":{"marketValue":null,"assessedValue":5584.0,"taxableValue":null,"taxes":null},"mailingAddress":{"line1":"2036 TYLER RD","line2":null,"city":"RICH SQUARE, NC","state":null,"zip":"27869"},"incomeTract":null,"incomeBlockGroup":null,"nearestRoad":null,"flu":null,"opportunityZone":null,"oz2Eligibility":null,"source":"nc-northampton-parcels-37131","appraiserUrl":"https://dl.agd.cc/prc/nc/northampton/pin5910-64-8898.pdf","gisViewerUrl":"https://webapp.agdmaps.com/nc/northampton/"},"geometry":{"type":"Polygon","coordinates":[[[-77.246362,36.22215],[-77.246438,36.222274],[-77.248755,36.226096],[-77.248822,36.221916],[-77.24876,36.221265],[-77.248576,36.221394],[-77.248096,36.221325],[-77.247493,36.221606],[-77.247235,36.221599],[-77.246362,36.22215]]]}},{"type":"Feature","id":"37131:5910-83-7326","properties":{"id":"37131:5910-83-7326","parcelId":"5910-83-7326","countyFips":"37131","countyName":"Northampton","state":"North Carolina","marketIds":["Raleigh-Durham"],"situsAddress":null,"situsCity":null,"situsZip":null,"jurisdictionCode":null,"ownerName":"BAKER, J G NOTTINGHAM, INGRID","ownerName2":null,"propertyName":null,"zoningCode":null,"zoningDistrict":null,"jurisdictionPrefix":null,"dorCode":null,"acreage":57.84,"centroid":[-77.242212,36.220869],"lastSale":{"date":"2003-03-04","price":5000.0,"qualified":null},"tax":{"marketValue":null,"assessedValue":45802.0,"taxableValue":null,"taxes":null},"mailingAddress":{"line1":"103 BAKER RD","line2":"103 BAKER RD","city":"RICH SQUARE, NC","state":null,"zip":"27869"},"incomeTract":null,"incomeBlockGroup":null,"nearestRoad":null,"flu":null,"opportunityZone":null,"oz2Eligibility":null,"source":"nc-northampton-parcels-37131","appraiserUrl":"https://dl.agd.cc/prc/nc/northampton/pin5910-83-7326.pdf","gisViewerUrl":"https://webapp.agdmaps.com/nc/northampton/"},"geometry":{"type":"Polygon","coordinates":[[[-77.243482,36.222423],[-77.243494,36.222423],[-77.243617,36.222443],[-77.243731,36.222489],[-77.243983,36.222707],[-77.244091,36.22275],[-77.244011,36.218884],[-77.242564,36.216513],[-77.240311,36.216931],[-77.239578,36.217133],[-77.238984,36.218175],[-77.239138,36.221058],[-77.239957,36.221088],[-77.241912,36.222273],[-77.242645,36.222512],[-77.242876,36.222534],[-77.243227,36.222445],[-77.243482,36.222423]]]}},{"type":"Feature","id":"37131:5910-73-0360","properties":{"id":"37131:5910-73-0360","parcelId":"5910-73-0360","countyFips":"37131","countyName":"Northampton","state":"North Carolina","marketIds":["Raleigh-Durham"],"situsAddress":null,"situsCity":null,"situsZip":null,"jurisdictionCode":null,"ownerName":"SAKOWSKI, GERALD DAVID II SAKO","ownerName2":null,"propertyName":null,"zoningCode":null,"zoningDistrict":null,"jurisdictionPrefix":null,"dorCode":null,"acreage":81.82,"centroid":[-77.247894,36.218624],"lastSale":{"date":"2022-09-19","price":246500.0,"qualified":null},"tax":{"marketValue":null,"assessedValue":28257.0,"taxableValue":null,"taxes":null},"mailingAddress":{"line1":"1164 OAK HILL DR","line2":null,"city":"GREENVILLE, NC","state":null,"zip":"27858"},"incomeTract":null,"incomeBlockGroup":null,"nearestRoad":null,"flu":null,"opportunityZone":null,"oz2Eligibility":null,"source":"nc-northampton-parcels-37131","appraiserUrl":"https://dl.agd.cc/prc/nc/northampton/pin5910-73-0360.pdf","gisViewerUrl":"https://webapp.agdmaps.com/nc/northampton/"},"geometry":{"type":"MultiPolygon","coordinates":[[[[-77.248803,36.221711],[-77.248822,36.221916],[-77.250683,36.222315],[-77.250853,36.221546],[-77.250986,36.220366],[-77.251247,36.218555],[-77.25084,36.218655],[-77.250426,36.21856],[-77.250228,36.218408],[-77.249887,36.218311],[-77.249195,36.21842],[-77.249082,36.218287],[-77.248783,36.21822],[-77.248428,36.218048],[-77.248011,36.218026],[-77.247703,36.217975],[-77.247391,36.217814],[-77.247454,36.217648],[-77.247186,36.217228],[-77.246957,36.21723],[-77.246728,36.216671],[-77.246392,36.21629],[-77.245995,36.215909],[-77.245985,36.215756],[-77.244958,36.215392],[-77.244463,36.215134],[-77.244341,36.214984],[-77.243929,36.214896],[-77.243998,36.218242],[-77.246362,36.22215],[-77.247235,36.221599],[-77.247493,36.221606],[-77.248096,36.221325],[-77.248576,36.221394],[-77.24876,36.221265],[-77.248803,36.221711]]],[[[-77.244091,36.22275],[-77.244288,36.222628],[-77.244495,36.222678],[-77.244758,36.222606],[-77.245564,36.222226],[-77.246015,36.222201],[-77.244011,36.218884],[-77.244091,36.22275]]]]}},{"type":"Feature","id":"37131:5920-03-8527","properties":{"id":"37131:5920-03-8527","parcelId":"5920-03-8527","countyFips":"37131","countyName":"Northampton","state":"North Carolina","marketIds":["Raleigh-Durham"],"situsAddress":"2036 TYLER RD","situsCity":null,"situsZip":null,"jurisdictionCode":null,"ownerName":"BAKER, JUNIUS G","ownerName2":null,"propertyName":null,"zoningCode":null,"zoningDistrict":null,"jurisdictionPrefix":null,"dorCode":null,"acreage":30.0,"centroid":[-77.235737,36.220257],"lastSale":{"date":"2025-10-10","price":null,"qualified":null},"tax":{"marketValue":null,"assessedValue":149942.0,"taxableValue":null,"taxes":null},"mailingAddress":{"line1":"2036 TYLER RD","line2":null,"city":"RICH SQUARE, NC","state":null,"zip":"27869"},"incomeTract":null,"incomeBlockGroup":null,"nearestRoad":null,"flu":null,"opportunityZone":null,"oz2Eligibility":null,"source":"nc-northampton-parcels-37131","appraiserUrl":"https://dl.agd.cc/prc/nc/northampton/pin5920-03-8527.pdf","gisViewerUrl":"https://webapp.agdmaps.com/nc/northampton/"},"geometry":{"type":"Polygon","coordinates":[[[-77.239138,36.221058],[-77.23903,36.219049],[-77.228987,36.219333],[-77.229062,36.220448],[-77.237396,36.220365],[-77.237818,36.220501],[-77.238726,36.221044],[-77.239138,36.221058]]]}},{"type":"Feature","id":"37131:5920-03-8141","properties":{"id":"37131:5920-03-8141","parcelId":"5920-03-8141","countyFips":"37131","countyName":"Northampton","state":"North Carolina","marketIds":["Raleigh-Durham"],"situsAddress":null,"situsCity":null,"situsZip":null,"jurisdictionCode":null,"ownerName":"JILCOTT, R W FARMS INC","ownerName2":null,"propertyName":null,"zoningCode":null,"zoningDistrict":null,"jurisdictionPrefix":null,"dorCode":null,"acreage":26.76,"centroid":[-77.233888,36.218644],"lastSale":{"date":"2010-12-03","price":null,"qualified":null},"tax":{"marketValue":null,"assessedValue":30639.0,"taxableValue":null,"taxes":null},"mailingAddress":{"line1":"5893 BAYBERRY DR","line2":null,"city":"BEAR LAKE, MN","state":null,"zip":"55110"},"incomeTract":null,"incomeBlockGroup":null,"nearestRoad":null,"flu":null,"opportunityZone":null,"oz2Eligibility":null,"source":"nc-northampton-parcels-37131","appraiserUrl":"https://dl.agd.cc/prc/nc/northampton/pin5920-03-8141.pdf","gisViewerUrl":"https://webapp.agdmaps.com/nc/northampton/"},"geometry":{"type":"Polygon","coordinates":[[[-77.237174,36.219102],[-77.238476,36.219065],[-77.238984,36.218175],[-77.238967,36.217864],[-77.228906,36.218126],[-77.228949,36.218755],[-77.229824,36.218753],[-77.229821,36.219309],[-77.237174,36.219102]]]}},{"type":"Feature","id":"37131:5920-02-8646","properties":{"id":"37131:5920-02-8646","parcelId":"5920-02-8646","countyFips":"37131","countyName":"Northampton","state":"North Carolina","marketIds":["Raleigh-Durham"],"situsAddress":null,"situsCity":null,"situsZip":null,"jurisdictionCode":null,"ownerName":"JILCOTT, R W FARMS INC","ownerName2":null,"propertyName":null,"zoningCode":null,"zoningDistrict":null,"jurisdictionPrefix":null,"dorCode":null,"acreage":29.5,"centroid":[-77.234559,36.217486],"lastSale":{"date":null,"price":null,"qualified":null},"tax":{"marketValue":null,"assessedValue":34150.0,"taxableValue":null,"taxes":null},"mailingAddress":{"line1":"5893 BAYBERRY DR","line2":null,"city":"BEAR LAKE, MN","state":null,"zip":"55110"},"incomeTract":null,"incomeBlockGroup":null,"nearestRoad":null,"flu":null,"opportunityZone":null,"oz2Eligibility":null,"source":"nc-northampton-parcels-37131","appraiserUrl":"https://dl.agd.cc/prc/nc/northampton/pin5920-02-8646.pdf","gisViewerUrl":"https://webapp.agdmaps.com/nc/northampton/"},"geometry":{"type":"Polygon","coordinates":[[[-77.228906,36.218126],[-77.2372,36.21791],[-77.238967,36.217864],[-77.238902,36.216659],[-77.228822,36.216869],[-77.228906,36.218126]]]}},{"type":"Feature","id":"37131:5910-82-2007","properties":{"id":"37131:5910-82-2007","parcelId":"5910-82-2007","countyFips":"37131","countyName":"Northampton","state":"North Carolina","marketIds":["Raleigh-Durham"],"situsAddress":null,"situsCity":null,"situsZip":null,"jurisdictionCode":null,"ownerName":"HARDY, CLYDE","ownerName2":null,"propertyName":null,"zoningCode":null,"zoningDistrict":null,"jurisdictionPrefix":null,"dorCode":null,"acreage":6.2,"centroid":[-77.243244,36.215561],"lastSale":{"date":null,"price":null,"qualified":null},"tax":{"marketValue":null,"assessedValue":4831.0,"taxableValue":null,"taxes":null},"mailingAddress":{"line1":"6503 17TH ST N","line2":null,"city":"PHILADELPHIA, PA","state":null,"zip":"19126"},"incomeTract":null,"incomeBlockGroup":null,"nearestRoad":null,"flu":null,"opportunityZone":null,"oz2Eligibility":null,"source":"nc-northampton-parcels-37131","appraiserUrl":"https://dl.agd.cc/prc/nc/northampton/pin5910-82-2007.pdf","gisViewerUrl":"https://webapp.agdmaps.com/nc/northampton/"},"geometry":{"type":"Polygon","coordinates":[[[-77.243703,36.214895],[-77.24311,36.214981],[-77.242559,36.215113],[-77.242164,36.215239],[-77.243998,36.218242],[-77.243929,36.214896],[-77.243703,36.214895]]]}},{"type":"Feature","id":"37131:5910-92-0108","properties":{"id":"37131:5910-92-0108","parcelId":"5910-92-0108","countyFips":"37131","countyName":"Northampton","state":"North Carolina","marketIds":["Raleigh-Durham"],"situsAddress":null,"situsCity":null,"situsZip":null,"jurisdictionCode":null,"ownerName":"JILCOTT, R W FARMS INC","ownerName2":null,"propertyName":null,"zoningCode":null,"zoningDistrict":null,"jurisdictionPrefix":null,"dorCode":null,"acreage":13.9,"centroid":[-77.240508,36.215994],"lastSale":{"date":"1968-03-23","price":null,"qualified":null},"tax":{"marketValue":null,"assessedValue":12825.0,"taxableValue":null,"taxes":null},"mailingAddress":{"line1":"5893 BAYBERRY DR","line2":null,"city":"BEAR LAKE, MN","state":null,"zip":"55110"},"incomeTract":null,"incomeBlockGroup":null,"nearestRoad":null,"flu":null,"opportunityZone":null,"oz2Eligibility":null,"source":"nc-northampton-parcels-37131","appraiserUrl":"https://dl.agd.cc/prc/nc/northampton/pin5910-92-0108.pdf","gisViewerUrl":"https://webapp.agdmaps.com/nc/northampton/"},"geometry":{"type":"Polygon","coordinates":[[[-77.239578,36.217133],[-77.240311,36.216931],[-77.242564,36.216513],[-77.241835,36.215318],[-77.241604,36.215377],[-77.241178,36.215421],[-77.240884,36.215418],[-77.240545,36.215362],[-77.240299,36.215287],[-77.238813,36.214991],[-77.238921,36.217019],[-77.239562,36.217161],[-77.239578,36.217133]]]}},{"type":"Feature","id":"37131:5920-02-8263","properties":{"id":"37131:5920-02-8263","parcelId":"5920-02-8263","countyFips":"37131","countyName":"Northampton","state":"North Carolina","marketIds":["Raleigh-Durham"],"situsAddress":null,"situsCity":null,"situsZip":null,"jurisdictionCode":null,"ownerName":"BAKER, JEFFREY GASTON","ownerName2":null,"propertyName":null,"zoningCode":null,"zoningDistrict":null,"jurisdictionPrefix":null,"dorCode":null,"acreage":29.0,"centroid":[-77.234503,36.216297],"lastSale":{"date":"2010-05-10","price":10000.0,"qualified":null},"tax":{"marketValue":null,"assessedValue":33757.0,"taxableValue":null,"taxes":null},"mailingAddress":{"line1":"416 HARRELLS SIDING RD","line2":null,"city":"KELFORD, NC","state":null,"zip":"27847"},"incomeTract":null,"incomeBlockGroup":null,"nearestRoad":null,"flu":null,"opportunityZone":null,"oz2Eligibility":null,"source":"nc-northampton-parcels-37131","appraiserUrl":"https://dl.agd.cc/prc/nc/northampton/pin5920-02-8263.pdf","gisViewerUrl":"https://webapp.agdmaps.com/nc/northampton/"},"geometry":{"type":"Polygon","coordinates":[[[-77.228822,36.216869],[-77.237227,36.216694],[-77.238902,36.216659],[-77.238841,36.21551],[-77.228724,36.215752],[-77.228822,36.216869]]]}},{"type":"Feature","id":"37131:5910-76-1282","properties":{"id":"37131:5910-76-1282","parcelId":"5910-76-1282","countyFips":"37131","countyName":"Northampton","state":"North Carolina","marketIds":["Raleigh-Durham"],"situsAddress":null,"situsCity":null,"situsZip":null,"jurisdictionCode":null,"ownerName":"BAKER, JUNIUS G","ownerName2":null,"propertyName":null,"zoningCode":null,"zoningDistrict":null,"jurisdictionPrefix":null,"dorCode":null,"acreage":129.66,"centroid":[-77.244784,36.226203],"lastSale":{"date":"2025-10-10","price":null,"qualified":null},"tax":{"marketValue":null,"assessedValue":72760.0,"taxableValue":null,"taxes":null},"mailingAddress":{"line1":"2036 TYLER RD","line2":null,"city":"RICH SQUARE, NC","state":null,"zip":"27869"},"incomeTract":null,"incomeBlockGroup":null,"nearestRoad":null,"flu":null,"opportunityZone":null,"oz2Eligibility":null,"source":"nc-northampton-parcels-37131","appraiserUrl":"https://dl.agd.cc/prc/nc/northampton/pin5910-76-1282.pdf","gisViewerUrl":"https://webapp.agdmaps.com/nc/northampton/"},"geometry":{"type":"Polygon","coordinates":[[[-77.241055,36.224317],[-77.241063,36.224348],[-77.241312,36.225237],[-77.241903,36.2278],[-77.241929,36.228022],[-77.244329,36.226845],[-77.244577,36.22766],[-77.244401,36.228331],[-77.244785,36.228801],[-77.245849,36.231182],[-77.24827,36.231277],[-77.24862,36.231742],[-77.251395,36.232683],[-77.25155,36.232361],[-77.252237,36.232438],[-77.246015,36.222201],[-77.245564,36.222226],[-77.244758,36.222606],[-77.244495,36.222678],[-77.244288,36.222628],[-77.244091,36.22275],[-77.243863,36.222808],[-77.243469,36.222872],[-77.242923,36.223048],[-77.242482,36.223283],[-77.242153,36.22352],[-77.241798,36.223813],[-77.241055,36.224317]]]}},{"type":"Feature","id":"37131:5910-94-9505","properties":{"id":"37131:5910-94-9505","parcelId":"5910-94-9505","countyFips":"37131","countyName":"Northampton","state":"North Carolina","marketIds":["Raleigh-Durham"],"situsAddress":null,"situsCity":null,"situsZip":null,"jurisdictionCode":null,"ownerName":"BAKER, JUNIUS G","ownerName2":null,"propertyName":null,"zoningCode":null,"zoningDistrict":null,"jurisdictionPrefix":null,"dorCode":null,"acreage":85.0,"centroid":[-77.240691,36.222702],"lastSale":{"date":"2025-10-10","price":null,"qualified":null},"tax":{"marketValue":null,"assessedValue":86909.0,"taxableValue":null,"taxes":null},"mailingAddress":{"line1":"2036 TYLER RD","line2":null,"city":"RICH SQUARE, NC","state":null,"zip":"27869"},"incomeTract":null,"incomeBlockGroup":null,"nearestRoad":null,"flu":null,"opportunityZone":null,"oz2Eligibility":null,"source":"nc-northampton-parcels-37131","appraiserUrl":"https://dl.agd.cc/prc/nc/northampton/pin5910-94-9505.pdf","gisViewerUrl":"https://webapp.agdmaps.com/nc/northampton/"},"geometry":{"type":"Polygon","coordinates":[[[-77.232522,36.223711],[-77.232504,36.223808],[-77.239722,36.225036],[-77.24002,36.224918],[-77.241218,36.224217],[-77.241798,36.223813],[-77.242153,36.22352],[-77.242482,36.223283],[-77.242635,36.223199],[-77.242923,36.223048],[-77.243312,36.222913],[-77.244091,36.22275],[-77.243983,36.222707],[-77.243759,36.222505],[-77.243584,36.222435],[-77.243311,36.222433],[-77.242921,36.222528],[-77.24276,36.222534],[-77.242645,36.222512],[-77.241912,36.222273],[-77.239957,36.221088],[-77.238726,36.221044],[-77.237818,36.220501],[-77.237396,36.220365],[-77.233121,36.220407],[-77.232522,36.223711]]]}},{"type":"Feature","id":"37131:5920-01-8775","properties":{"id":"37131:5920-01-8775","parcelId":"5920-01-8775","countyFips":"37131","countyName":"Northampton","state":"North Carolina","marketIds":["Raleigh-Durham"],"situsAddress":null,"situsCity":null,"situsZip":null,"jurisdictionCode":null,"ownerName":"JILCOTT, R W FARMS INC","ownerName2":null,"propertyName":null,"zoningCode":null,"zoningDistrict":null,"jurisdictionPrefix":null,"dorCode":null,"acreage":24.78,"centroid":[-77.233891,36.214764],"lastSale":{"date":"1996-08-08","price":null,"qualified":null},"tax":{"marketValue":null,"assessedValue":18789.0,"taxableValue":null,"taxes":null},"mailingAddress":{"line1":"5893 BAYBERRY DR","line2":null,"city":"BEAR LAKE, MN","state":null,"zip":"55110"},"incomeTract":null,"incomeBlockGroup":null,"nearestRoad":null,"flu":null,"opportunityZone":null,"oz2Eligibility":null,"source":"nc-northampton-parcels-37131","appraiserUrl":"https://dl.agd.cc/prc/nc/northampton/pin5920-01-8775.pdf","gisViewerUrl":"https://webapp.agdmaps.com/nc/northampton/"},"geometry":{"type":"Polygon","coordinates":[[[-77.228669,36.215034],[-77.228718,36.215678],[-77.228724,36.215752],[-77.238841,36.21551],[-77.238813,36.214991],[-77.238453,36.214913],[-77.238311,36.214813],[-77.238145,36.214581],[-77.238077,36.214524],[-77.237682,36.214342],[-77.23735,36.214221],[-77.234139,36.214348],[-77.233758,36.21447],[-77.233362,36.214563],[-77.232957,36.214625],[-77.23258,36.214654],[-77.232168,36.214656],[-77.231757,36.214626],[-77.231352,36.214565],[-77.230957,36.214475],[-77.230377,36.214498],[-77.230406,36.214964],[-77.228669,36.215034]]]}},{"type":"Feature","id":"37131:5910-68-5189","properties":{"id":"37131:5910-68-5189","parcelId":"5910-68-5189","countyFips":"37131","countyName":"Northampton","state":"North Carolina","marketIds":["Raleigh-Durham"],"situsAddress":"843 SHOULARS RD","situsCity":null,"situsZip":null,"jurisdictionCode":null,"ownerName":"SMITH LIVING TRUST","ownerName2":null,"propertyName":null,"zoningCode":null,"zoningDistrict":null,"jurisdictionPrefix":null,"dorCode":null,"acreage":27.46,"centroid":[-77.249619,36.232769],"lastSale":{"date":"2018-07-09","price":null,"qualified":null},"tax":{"marketValue":null,"assessedValue":32997.0,"taxableValue":null,"taxes":null},"mailingAddress":{"line1":"33 TIMBERLINE CRESCENT","line2":null,"city":"NEWPORT NEWS, VA","state":null,"zip":"23606"},"incomeTract":null,"incomeBlockGroup":null,"nearestRoad":null,"flu":null,"opportunityZone":null,"oz2Eligibility":null,"source":"nc-northampton-parcels-37131","appraiserUrl":"https://dl.agd.cc/prc/nc/northampton/pin5910-68-5189.pdf","gisViewerUrl":"https://webapp.agdmaps.com/nc/northampton/"},"geometry":{"type":"Polygon","coordinates":[[[-77.246331,36.232868],[-77.246014,36.233897],[-77.250166,36.233806],[-77.250442,36.233778],[-77.250751,36.233691],[-77.251016,36.233556],[-77.252405,36.232718],[-77.252237,36.232438],[-77.25155,36.232361],[-77.251395,36.232683],[-77.24862,36.231742],[-77.24827,36.231277],[-77.245849,36.231182],[-77.246331,36.232868]]]}},{"type":"Feature","id":"37131:5921-74-5229","properties":{"id":"37131:5921-74-5229","parcelId":"5921-74-5229","countyFips":"37131","countyName":"Northampton","state":"North Carolina","marketIds":["Raleigh-Durham"],"situsAddress":"339 WILBUR HOWARD RD","situsCity":null,"situsZip":null,"jurisdictionCode":null,"ownerName":"PETTIFORD, GLADYS H TRUSTEES P","ownerName2":null,"propertyName":null,"zoningCode":null,"zoningDistrict":null,"jurisdictionPrefix":null,"dorCode":null,"acreage":76.23,"centroid":[-77.211687,36.249431],"lastSale":{"date":"2023-09-08","price":null,"qualified":null},"tax":{"marketValue":null,"assessedValue":120603.0,"taxableValue":null,"taxes":null},"mailingAddress":{"line1":"1608 N HOWARD ST","line2":null,"city":"ALEXANDRIA, VA","state":null,"zip":"22304"},"incomeTract":null,"incomeBlockGroup":null,"nearestRoad":null,"flu":null,"opportunityZone":null,"oz2Eligibility":null,"source":"nc-northampton-parcels-37131","appraiserUrl":"https://dl.agd.cc/prc/nc/northampton/pin5921-74-5229.pdf","gisViewerUrl":"https://webapp.agdmaps.com/nc/northampton/"},"geometry":{"type":"Polygon","coordinates":[[[-77.208137,36.247792],[-77.208424,36.247935],[-77.208552,36.250582],[-77.211713,36.252824],[-77.212097,36.252736],[-77.212291,36.252539],[-77.212675,36.252477],[-77.214195,36.251729],[-77.214146,36.251413],[-77.21364,36.249384],[-77.213739,36.247297],[-77.213663,36.246449],[-77.213839,36.246239],[-77.209568,36.245364],[-77.208633,36.246712],[-77.208137,36.247792]]]}},{"type":"Feature","id":"37131:5921-31-5562","properties":{"id":"37131:5921-31-5562","parcelId":"5921-31-5562","countyFips":"37131","countyName":"Northampton","state":"North Carolina","marketIds":["Raleigh-Durham"],"situsAddress":null,"situsCity":null,"situsZip":null,"jurisdictionCode":null,"ownerName":"J L M PLANTATION FARMS LLC","ownerName2":null,"propertyName":null,"zoningCode":null,"zoningDistrict":null,"jurisdictionPrefix":null,"dorCode":null,"acreage":14.14,"centroid":[-77.224723,36.241016],"lastSale":{"date":"2019-12-09","price":14500.0,"qualified":null},"tax":{"marketValue":null,"assessedValue":5161.0,"taxableValue":null,"taxes":null},"mailingAddress":{"line1":"938 MILLERS CHURCH RD","line2":null,"city":"GOLDSBORO, NC","state":null,"zip":"27534"},"incomeTract":null,"incomeBlockGroup":null,"nearestRoad":null,"flu":null,"opportunityZone":null,"oz2Eligibility":null,"source":"nc-northampton-parcels-37131","appraiserUrl":"https://dl.agd.cc/prc/nc/northampton/pin5921-31-5562.pdf","gisViewerUrl":"https://webapp.agdmaps.com/nc/northampton/"},"geometry":{"type":"Polygon","coordinates":[[[-77.222969,36.239889],[-77.222967,36.239909],[-77.222827,36.241539],[-77.22836,36.242972],[-77.227171,36.242211],[-77.226282,36.241522],[-77.224234,36.240291],[-77.222977,36.239797],[-77.222969,36.239889]]]}},{"type":"Feature","id":"37131:5921-50-0591","properties":{"id":"37131:5921-50-0591","parcelId":"5921-50-0591","countyFips":"37131","countyName":"Northampton","state":"North Carolina","marketIds":["Raleigh-Durham"],"situsAddress":null,"situsCity":null,"situsZip":null,"jurisdictionCode":null,"ownerName":"CULLIFER, ROBERT G JR CULLIFER","ownerName2":null,"propertyName":null,"zoningCode":null,"zoningDistrict":null,"jurisdictionPrefix":null,"dorCode":null,"acreage":7.68,"centroid":[-77.219794,36.238726],"lastSale":{"date":"2010-10-12","price":null,"qualified":null},"tax":{"marketValue":null,"assessedValue":10468.0,"taxableValue":null,"taxes":null},"mailingAddress":{"line1":"PO BOX 2624","line2":null,"city":"SURF CITY, NC","state":null,"zip":"28445"},"incomeTract":null,"incomeBlockGroup":null,"nearestRoad":null,"flu":null,"opportunityZone":null,"oz2Eligibility":null,"source":"nc-northampton-parcels-37131","appraiserUrl":"https://dl.agd.cc/prc/nc/northampton/pin5921-50-0591.pdf","gisViewerUrl":"https://webapp.agdmaps.com/nc/northampton/"},"geometry":{"type":"Polygon","coordinates":[[[-77.22044,36.239376],[-77.220547,36.239394],[-77.220883,36.23813],[-77.218996,36.237706],[-77.218103,36.239026],[-77.22044,36.239376]]]}},{"type":"Feature","id":"37131:5921-30-0762","properties":{"id":"37131:5921-30-0762","parcelId":"5921-30-0762","countyFips":"37131","countyName":"Northampton","state":"North Carolina","marketIds":["Raleigh-Durham"],"situsAddress":null,"situsCity":null,"situsZip":null,"jurisdictionCode":null,"ownerName":"BENNETT HEIRS LLC","ownerName2":null,"propertyName":null,"zoningCode":null,"zoningDistrict":null,"jurisdictionPrefix":null,"dorCode":null,"acreage":86.34,"centroid":[-77.227331,36.239005],"lastSale":{"date":"2015-12-30","price":null,"qualified":null},"tax":{"marketValue":null,"assessedValue":63709.0,"taxableValue":null,"taxes":null},"mailingAddress":{"line1":"745 BENTHALL COOK ROAD","line2":null,"city":"RICH SQUARE, NC","state":null,"zip":"27869"},"incomeTract":null,"incomeBlockGroup":null,"nearestRoad":null,"flu":null,"opportunityZone":null,"oz2Eligibility":null,"source":"nc-northampton-parcels-37131","appraiserUrl":"https://dl.agd.cc/prc/nc/northampton/pin5921-30-0762.pdf","gisViewerUrl":"https://webapp.agdmaps.com/nc/northampton/"},"geometry":{"type":"Polygon","coordinates":[[[-77.22836,36.242972],[-77.228366,36.242973],[-77.229137,36.243175],[-77.230666,36.239261],[-77.229764,36.238776],[-77.229222,36.23851],[-77.228835,36.238255],[-77.228656,36.23809],[-77.228452,36.237866],[-77.228124,36.237448],[-77.226281,36.234934],[-77.226068,36.23467],[-77.225904,36.234524],[-77.223461,36.236818],[-77.222977,36.239797],[-77.224234,36.240291],[-77.226282,36.241522],[-77.227171,36.242211],[-77.22836,36.242972]]]}},{"type":"Feature","id":"37131:5920-07-4205","properties":{"id":"37131:5920-07-4205","parcelId":"5920-07-4205","countyFips":"37131","countyName":"Northampton","state":"North Carolina","marketIds":["Raleigh-Durham"],"situsAddress":null,"situsCity":null,"situsZip":null,"jurisdictionCode":null,"ownerName":"BAKER, J G NOTTINGHAM, INGRID","ownerName2":null,"propertyName":null,"zoningCode":null,"zoningDistrict":null,"jurisdictionPrefix":null,"dorCode":null,"acreage":77.77,"centroid":[-77.235375,36.228553],"lastSale":{"date":"2003-03-04","price":5000.0,"qualified":null},"tax":{"marketValue":null,"assessedValue":45192.0,"taxableValue":null,"taxes":null},"mailingAddress":{"line1":"103 BAKER RD","line2":null,"city":"RICH SQUARE, NC","state":null,"zip":"27869"},"incomeTract":null,"incomeBlockGroup":null,"nearestRoad":null,"flu":null,"opportunityZone":null,"oz2Eligibility":null,"source":"nc-northampton-parcels-37131","appraiserUrl":"https://dl.agd.cc/prc/nc/northampton/pin5920-07-4205.pdf","gisViewerUrl":"https://webapp.agdmaps.com/nc/northampton/"},"geometry":{"type":"Polygon","coordinates":[[[-77.233995,36.227888],[-77.233892,36.227902],[-77.233505,36.227931],[-77.233266,36.228],[-77.232909,36.228167],[-77.232846,36.228166],[-77.232702,36.228263],[-77.232578,36.228483],[-77.232025,36.228522],[-77.231832,36.228566],[-77.232055,36.22892],[-77.232412,36.229278],[-77.232594,36.229411],[-77.232632,36.229649],[-77.23271,36.229854],[-77.232734,36.230106],[-77.23265,36.23078],[-77.232605,36.231005],[-77.232598,36.231334],[-77.232523,36.231606],[-77.232339,36.231992],[-77.232157,36.23218],[-77.231926,36.232479],[-77.231886,36.2325],[-77.231656,36.232746],[-77.23134,36.232961],[-77.231211,36.23312],[-77.23088,36.23346],[-77.230731,36.233791],[-77.230641,36.234124],[-77.230646,36.234199],[-77.230767,36.234599],[-77.238528,36.229617],[-77.238888,36.228616],[-77.238961,36.228028],[-77.239225,36.227141],[-77.23933,36.226629],[-77.239479,36.226533],[-77.239595,36.226364],[-77.239733,36.226332],[-77.239884,36.226161],[-77.239901,36.225927],[-77.240064,36.225723],[-77.240479,36.225548],[-77.240694,36.225406],[-77.241312,36.225237],[-77.241055,36.224317],[-77.24002,36.224918],[-77.239529,36.225117],[-77.239378,36.225211],[-77.238954,36.225407],[-77.238663,36.22565],[-77.23844,36.225793],[-77.238242,36.225966],[-77.237321,36.226405],[-77.236968,36.226689],[-77.236926,36.226736],[-77.236838,36.226907],[-77.23663,36.227031],[-77.236423,36.227114],[-77.236277,36.227294],[-77.235952,36.22749],[-77.235463,36.227689],[-77.235063,36.227823],[-77.234746,36.227831],[-77.234557,36.22788],[-77.233995,36.227888]]]}},{"type":"Feature","id":"37131:5920-26-5388","properties":{"id":"37131:5920-26-5388","parcelId":"5920-26-5388","countyFips":"37131","countyName":"Northampton","state":"North Carolina","marketIds":["Raleigh-Durham"],"situsAddress":null,"situsCity":null,"situsZip":null,"jurisdictionCode":null,"ownerName":"TYLER, ETHEL LEONARD GREGORY","ownerName2":null,"propertyName":null,"zoningCode":null,"zoningDistrict":null,"jurisdictionPrefix":null,"dorCode":null,"acreage":51.37,"centroid":[-77.228679,36.226899],"lastSale":{"date":"2026-05-12","price":null,"qualified":null},"tax":{"marketValue":null,"assessedValue":36776.0,"taxableValue":null,"taxes":null},"mailingAddress":{"line1":"9 NORTH BLOODWORTH ST","line2":null,"city":"RALEIGH, NC","state":null,"zip":"27601"},"incomeTract":null,"incomeBlockGroup":null,"nearestRoad":null,"flu":null,"opportunityZone":null,"oz2Eligibility":null,"source":"nc-northampton-parcels-37131","appraiserUrl":"https://dl.agd.cc/prc/nc/northampton/pin5920-26-5388.pdf","gisViewerUrl":"https://webapp.agdmaps.com/nc/northampton/"},"geometry":{"type":"Polygon","coordinates":[[[-77.226183,36.224803],[-77.226167,36.224818],[-77.225965,36.225054],[-77.2258,36.225328],[-77.224359,36.228629],[-77.229998,36.229664],[-77.232055,36.22892],[-77.231832,36.228566],[-77.23139,36.227754],[-77.231267,36.227629],[-77.230996,36.227519],[-77.22996,36.227322],[-77.229705,36.227142],[-77.228183,36.225666],[-77.226319,36.224673],[-77.226183,36.224803]]]}},{"type":"Feature","id":"37131:5920-27-8921","properties":{"id":"37131:5920-27-8921","parcelId":"5920-27-8921","countyFips":"37131","countyName":"Northampton","state":"North Carolina","marketIds":["Raleigh-Durham"],"situsAddress":"1662 TYLER RD","situsCity":null,"situsZip":null,"jurisdictionCode":null,"ownerName":"BAKER, DAVID AARON","ownerName2":null,"propertyName":null,"zoningCode":null,"zoningDistrict":null,"jurisdictionPrefix":null,"dorCode":null,"acreage":101.0,"centroid":[-77.229455,36.231865],"lastSale":{"date":"2012-10-25","price":256000.0,"qualified":null},"tax":{"marketValue":null,"assessedValue":87247.0,"taxableValue":null,"taxes":null},"mailingAddress":{"line1":"140 TYLER ROAD","line2":null,"city":"RICH SQUARE, NC","state":null,"zip":"27869"},"incomeTract":null,"incomeBlockGroup":null,"nearestRoad":null,"flu":null,"opportunityZone":null,"oz2Eligibility":null,"source":"nc-northampton-parcels-37131","appraiserUrl":"https://dl.agd.cc/prc/nc/northampton/pin5920-27-8921.pdf","gisViewerUrl":"https://webapp.agdmaps.com/nc/northampton/"},"geometry":{"type":"Polygon","coordinates":[[[-77.225659,36.23415],[-77.225681,36.234162],[-77.226032,36.234395],[-77.226819,36.233702],[-77.230655,36.234083],[-77.230731,36.233791],[-77.23088,36.23346],[-77.231211,36.23312],[-77.23134,36.232961],[-77.231656,36.232746],[-77.231886,36.2325],[-77.231926,36.232479],[-77.232157,36.23218],[-77.232339,36.231992],[-77.232523,36.231606],[-77.232598,36.231334],[-77.232605,36.231005],[-77.23265,36.23078],[-77.232734,36.230106],[-77.23271,36.229854],[-77.232632,36.229649],[-77.232594,36.229411],[-77.232412,36.229278],[-77.232055,36.22892],[-77.229998,36.229664],[-77.224359,36.228629],[-77.222818,36.232172],[-77.222796,36.232261],[-77.222803,36.23236],[-77.222864,36.232485],[-77.222976,36.232584],[-77.225659,36.23415]]]}},{"type":"Feature","id":"37131:5920-05-6890","properties":{"id":"37131:5920-05-6890","parcelId":"5920-05-6890","countyFips":"37131","countyName":"Northampton","state":"North Carolina","marketIds":["Raleigh-Durham"],"situsAddress":null,"situsCity":null,"situsZip":null,"jurisdictionCode":null,"ownerName":"BAKER, JUNIUS G","ownerName2":null,"propertyName":null,"zoningCode":null,"zoningDistrict":null,"jurisdictionPrefix":null,"dorCode":null,"acreage":50.38,"centroid":[-77.235223,36.227142],"lastSale":{"date":"2025-10-10","price":null,"qualified":null},"tax":{"marketValue":null,"assessedValue":35233.0,"taxableValue":null,"taxes":null},"mailingAddress":{"line1":"2036 TYLER RD","line2":null,"city":"RICH SQUARE, NC","state":null,"zip":"27869"},"incomeTract":null,"incomeBlockGroup":null,"nearestRoad":null,"flu":null,"opportunityZone":null,"oz2Eligibility":null,"source":"nc-northampton-parcels-37131","appraiserUrl":"https://dl.agd.cc/prc/nc/northampton/pin5920-05-6890.pdf","gisViewerUrl":"https://webapp.agdmaps.com/nc/northampton/"},"geometry":{"type":"Polygon","coordinates":[[[-77.232025,36.228522],[-77.232578,36.228483],[-77.232668,36.228308],[-77.232796,36.228189],[-77.232846,36.228166],[-77.232909,36.228167],[-77.233266,36.228],[-77.233392,36.227962],[-77.233687,36.22791],[-77.234114,36.227876],[-77.234557,36.22788],[-77.234746,36.227831],[-77.235063,36.227823],[-77.235862,36.227534],[-77.236277,36.227294],[-77.236423,36.227114],[-77.23663,36.227031],[-77.236838,36.226907],[-77.236926,36.226736],[-77.236968,36.226689],[-77.237321,36.226405],[-77.238242,36.225966],[-77.23844,36.225793],[-77.238663,36.22565],[-77.238954,36.225407],[-77.239722,36.225036],[-77.232504,36.223808],[-77.23184,36.227482],[-77.232025,36.228522]]]}},{"type":"Feature","id":"37131:5920-24-0914","properties":{"id":"37131:5920-24-0914","parcelId":"5920-24-0914","countyFips":"37131","countyName":"Northampton","state":"North Carolina","marketIds":["Raleigh-Durham"],"situsAddress":"1992 TYLER RD","situsCity":null,"situsZip":null,"jurisdictionCode":null,"ownerName":"BAKER, J G NOTTINGHAM, INGRID","ownerName2":null,"propertyName":null,"zoningCode":null,"zoningDistrict":null,"jurisdictionPrefix":null,"dorCode":null,"acreage":65.87,"centroid":[-77.229553,36.222573],"lastSale":{"date":"2000-12-28","price":null,"qualified":null},"tax":{"marketValue":null,"assessedValue":97741.0,"taxableValue":null,"taxes":null},"mailingAddress":{"line1":"JOSEPH BAKER","line2":"103 BAKER RD","city":"RICH SQUARE, NC","state":null,"zip":"27869"},"incomeTract":null,"incomeBlockGroup":null,"nearestRoad":null,"flu":null,"opportunityZone":null,"oz2Eligibility":null,"source":"nc-northampton-parcels-37131","appraiserUrl":"https://dl.agd.cc/prc/nc/northampton/pin5920-24-0914.pdf","gisViewerUrl":"https://webapp.agdmaps.com/nc/northampton/"},"geometry":{"type":"Polygon","coordinates":[[[-77.230187,36.221613],[-77.229306,36.22176],[-77.229273,36.222026],[-77.229189,36.222174],[-77.229064,36.22232],[-77.226319,36.224673],[-77.228169,36.225659],[-77.23184,36.227482],[-77.233121,36.220407],[-77.228958,36.220449],[-77.229174,36.22123],[-77.230037,36.221088],[-77.230187,36.221613]]]}}]}